ClassName,AntiSingleton,Blob,ClassDataShouldBePrivate,ComplexClass,LargeClass,LazyClass,LongMethod,LongParameterList,MessageChains,RefusedParentBequest,SpaghettiCode,SpeculativeGenerality,SwissArmyKnife,NumOfAPs,AntiSingleton,Blob,ClassDataShouldBePrivate,ComplexClass,LargeClass,LazyClass,LongMethod,LongParameterList,MessageChains,RefusedParentBequest,SpaghettiCode,SpeculativeGenerality,SwissArmyKnife,LOC,name,deleted,added,changed,all
org.apache.nutch.analysis.lang.LanguageIndexingFilter, 0, 0, 0, 0, 0, 0, 0, 0, 0, 0, 0, 0, 0, 0,0.0,0.0,0.0,0.0,0.0,0.0,0.0,0.0,0.0,0.0,0.0,0.0,0.0,32,src\plugin\language-identifier\src\java\org\apache\nutch\analysis\lang\LanguageIndexingFilter.java,3,0,1,5
org.apache.nutch.api.APIInfoResource, 0, 0, 0, 0, 0, 0, 0, 0, 0, 0, 0, 0, 0, 0,0.0,0.0,0.0,0.0,0.0,0.0,0.0,0.0,0.0,0.0,0.0,0.0,0.0,13,src\java\org\apache\nutch\api\APIInfoResource.java,0,0,0,0
org.apache.nutch.api.NutchApp, 1, 0, 1, 0, 0, 0, 0, 0, 0, 0, 0, 0, 0, 2,0.0,0.0,0.0,0.0,0.0,0.0,0.0,0.0,0.0,0.0,0.0,0.0,0.0,33,src\java\org\apache\nutch\api\NutchApp.java,0,0,0,0
org.apache.nutch.api.NutchServer, 0, 0, 0, 0, 0, 0, 0, 0, 0, 0, 0, 0, 0, 0,1.0,0.0,1.0,0.0,0.0,0.0,0.0,0.0,0.0,0.0,0.0,0.0,0.0,55,src\java\org\apache\nutch\api\NutchServer.java,0,0,0,0
org.apache.nutch.api.Params, 0, 0, 0, 0, 0, 0, 0, 0, 0, 0, 0, 0, 0, 0,0.0,0.0,0.0,0.0,0.0,0.0,0.0,0.0,0.0,0.0,0.0,0.0,0.0,55,src\java\org\apache\nutch\api\Params.java,0,0,0,0
org.apache.nutch.api.TestAPI, 0, 0, 0, 0, 0, 0, 0, 0, 0, 0, 0, 0, 0, 0,0.0,0.0,0.0,0.0,0.0,0.0,0.0,0.0,0.0,0.0,0.0,0.0,0.0,4,src\test\org\apache\nutch\api\TestAPI.java,0,0,0,0
org.apache.nutch.collection.Subcollection, 0, 0, 0, 1, 0, 0, 0, 0, 0, 0, 0, 0, 0, 1,0.0,0.0,0.0,0.0,0.0,0.0,0.0,0.0,0.0,0.0,0.0,0.0,0.0,85,src\plugin\subcollection\src\java\org\apache\nutch\collection\Subcollection.java,0,0,0,0
org.apache.nutch.crawl.AbstractFetchSchedule, 0, 0, 0, 0, 0, 0, 0, 1, 0, 0, 0, 0, 0, 1,0.0,0.0,0.0,0.0,0.0,0.0,0.0,1.0,0.0,0.0,0.0,0.0,0.0,85,src\java\org\apache\nutch\crawl\AbstractFetchSchedule.java,0,0,0,0
org.apache.nutch.crawl.AdaptiveFetchSchedule, 0, 0, 0, 0, 0, 0, 0, 1, 0, 0, 0, 0, 0, 1,0.0,0.0,0.0,0.0,0.0,0.0,0.0,1.0,0.0,0.0,0.0,0.0,0.0,49,src\java\org\apache\nutch\crawl\AdaptiveFetchSchedule.java,0,0,0,0
org.apache.nutch.crawl.DbUpdateReducer, 0, 0, 0, 0, 0, 0, 0, 0, 0, 0, 0, 0, 0, 0,0.0,0.0,0.0,0.0,0.0,0.0,0.0,0.25,0.0,0.0,0.0,0.0,0.0,141,src\java\org\apache\nutch\crawl\DbUpdateReducer.java,0,0,1,2
org.apache.nutch.crawl.DefaultFetchSchedule, 0, 0, 0, 0, 0, 0, 0, 1, 0, 0, 0, 0, 0, 1,0.0,0.0,0.0,0.0,0.0,0.0,0.0,1.0,0.0,0.0,0.0,0.0,0.0,12,src\java\org\apache\nutch\crawl\DefaultFetchSchedule.java,0,0,0,0
org.apache.nutch.crawl.DummyWritable, 0, 0, 0, 0, 0, 0, 0, 0, 0, 0, 0, 0, 0, 0,0.0,0.0,0.0,0.0,0.0,0.0,0.0,0.0,0.0,0.0,0.0,0.0,0.0,7,src\test\org\apache\nutch\crawl\DummyWritable.java,0,0,0,0
org.apache.nutch.crawl.FetchSchedule, 0, 0, 0, 0, 0, 0, 0, 0, 0, 0, 0, 0, 0, 0,0.0,0.0,0.0,0.0,0.0,0.0,0.0,0.0,0.0,0.0,0.0,0.0,0.0,7,src\java\org\apache\nutch\crawl\FetchSchedule.java,0,0,0,0
org.apache.nutch.crawl.FetchScheduleFactory, 0, 0, 0, 0, 0, 0, 0, 0, 0, 0, 0, 0, 0, 0,0.0,0.0,0.0,0.0,0.0,0.0,0.0,0.0,0.0,0.0,0.0,0.0,0.0,21,src\java\org\apache\nutch\crawl\FetchScheduleFactory.java,0,0,0,0
org.apache.nutch.crawl.GeneratorMapper, 0, 0, 0, 0, 0, 0, 0, 0, 0, 0, 0, 0, 0, 0,0.0,0.0,0.0,0.0,0.0,0.0,0.0,0.0,0.0,0.0,0.0,0.0,0.0,79,src\java\org\apache\nutch\crawl\GeneratorMapper.java,0,0,0,0
org.apache.nutch.crawl.MD5Signature, 0, 0, 0, 0, 0, 0, 0, 0, 0, 0, 0, 0, 0, 0,0.0,0.0,0.0,0.0,0.0,0.0,0.0,0.0,0.0,0.0,0.0,0.0,0.0,16,src\java\org\apache\nutch\crawl\MD5Signature.java,0,22,3,28
org.apache.nutch.crawl.NutchWritable, 0, 0, 0, 0, 0, 0, 0, 0, 0, 0, 0, 0, 0, 0,0.0,0.0,0.0,0.0,0.0,0.0,0.0,0.0,0.0,0.0,0.0,0.0,0.0,17,src\java\org\apache\nutch\crawl\NutchWritable.java,0,0,0,0
org.apache.nutch.crawl.Signature, 0, 0, 0, 0, 0, 0, 0, 0, 0, 0, 0, 0, 0, 0,0.0,0.0,0.0,0.0,0.0,0.0,0.0,0.0,0.0,0.0,0.0,0.0,0.0,4,src\java\org\apache\nutch\crawl\Signature.java,0,0,0,0
org.apache.nutch.crawl.SignatureComparator, 0, 0, 0, 0, 0, 0, 0, 1, 0, 0, 0, 0, 0, 1,0.0,0.0,0.0,0.0,0.0,0.0,0.0,0.0,0.0,0.0,0.0,0.0,0.0,17,src\java\org\apache\nutch\crawl\SignatureComparator.java,0,9,1,11
org.apache.nutch.crawl.SignatureFactory, 0, 0, 0, 0, 0, 0, 0, 0, 0, 0, 0, 0, 0, 0,0.0,0.0,0.0,0.0,0.0,0.0,0.0,0.0,0.0,0.0,0.0,0.0,0.0,25,src\java\org\apache\nutch\crawl\SignatureFactory.java,0,0,0,0
org.apache.nutch.crawl.TestSignatureFactory, 0, 0, 0, 0, 0, 0, 0, 0, 0, 0, 0, 0, 0, 0,0.0,0.0,0.0,0.0,0.0,0.0,0.0,0.0,0.0,0.0,0.0,0.0,0.0,11,src\test\org\apache\nutch\crawl\TestSignatureFactory.java,0,0,0,0
org.apache.nutch.crawl.TestURLPartitioner, 0, 0, 0, 0, 0, 0, 0, 0, 0, 0, 0, 0, 0, 0,0.0,0.0,0.0,0.0,0.0,0.0,0.0,0.0,0.0,0.0,0.0,0.0,0.0,110,src\test\org\apache\nutch\crawl\TestURLPartitioner.java,0,0,0,0
org.apache.nutch.crawl.TestUrlWithScore, 0, 0, 0, 0, 0, 0, 0, 0, 0, 0, 0, 0, 0, 0,0.0,0.0,0.0,0.0,0.0,0.0,0.0,0.0,0.0,0.0,0.0,0.0,0.0,92,src\test\org\apache\nutch\crawl\TestUrlWithScore.java,0,0,0,0
org.apache.nutch.crawl.URLPartitioner, 0, 0, 0, 0, 0, 0, 0, 0, 0, 0, 0, 0, 0, 0,0.0,0.0,0.0,0.0,0.0,0.0,0.0,0.0,0.0,0.0,0.0,0.0,0.0,97,src\java\org\apache\nutch\crawl\URLPartitioner.java,0,0,0,0
org.apache.nutch.crawl.URLWebPage, 0, 0, 0, 0, 0, 0, 0, 0, 0, 0, 0, 0, 0, 0,0.0,0.0,0.0,0.0,0.0,0.0,0.0,0.0,0.0,0.0,0.0,0.0,0.0,20,src\java\org\apache\nutch\crawl\URLWebPage.java,0,0,0,0
org.apache.nutch.fetcher.FetchEntry, 0, 0, 0, 0, 0, 0, 0, 0, 0, 0, 0, 0, 0, 0,0.0,0.0,0.0,0.0,0.0,0.0,0.0,0.0,0.0,0.0,0.0,0.0,0.0,32,src\java\org\apache\nutch\fetcher\FetchEntry.java,0,0,0,0
org.apache.nutch.host.HostDb, 0, 0, 0, 0, 0, 0, 0, 0, 0, 0, 0, 0, 0, 0,0.0,0.0,0.0,0.0,0.0,0.0,0.0,1.0,0.0,0.0,0.0,0.0,0.0,83,src\java\org\apache\nutch\host\HostDb.java,0,0,0,0
org.apache.nutch.host.HostDbReader, 0, 0, 0, 0, 0, 0, 0, 0, 0, 0, 0, 0, 0, 0,0.0,0.0,0.0,0.0,0.0,0.0,0.0,1.0,0.0,0.0,0.0,0.0,0.0,45,src\java\org\apache\nutch\host\HostDbReader.java,0,0,0,0
org.apache.nutch.host.HostDbUpdateJob, 0, 0, 0, 0, 0, 0, 0, 0, 0, 0, 0, 0, 0, 0,0.0,0.0,0.0,0.0,0.0,0.0,0.0,0.5,0.0,0.0,0.0,0.0,0.0,70,src\java\org\apache\nutch\host\HostDbUpdateJob.java,0,0,0,0
org.apache.nutch.host.HostDbUpdateReducer, 0, 0, 0, 0, 0, 0, 0, 0, 0, 0, 0, 0, 0, 0,0.0,0.0,0.0,0.0,0.0,0.0,0.0,0.0,0.0,0.0,0.0,0.0,0.0,45,src\java\org\apache\nutch\host\HostDbUpdateReducer.java,0,0,0,0
org.apache.nutch.indexer.IndexUtil, 0, 0, 0, 0, 0, 0, 0, 0, 0, 0, 0, 0, 0, 0,0.0,0.0,0.0,0.0,0.0,0.0,0.0,0.0,0.0,0.0,0.0,0.0,0.0,39,src\java\org\apache\nutch\indexer\IndexUtil.java,0,0,1,2
org.apache.nutch.indexer.IndexerJob, 0, 0, 0, 0, 0, 0, 0, 0, 0, 0, 0, 0, 0, 0,0.0,0.0,0.0,0.0,0.0,0.0,0.0,0.5,0.0,0.0,0.0,0.0,0.0,80,src\java\org\apache\nutch\indexer\IndexerJob.java,0,0,0,0
org.apache.nutch.indexer.IndexerOutputFormat, 0, 0, 0, 0, 0, 0, 0, 0, 0, 0, 0, 0, 0, 0,0.0,0.0,0.0,0.0,0.0,0.0,0.0,0.0,0.0,0.0,0.0,0.0,0.0,52,src\java\org\apache\nutch\indexer\IndexerOutputFormat.java,0,0,0,0
org.apache.nutch.indexer.IndexingException, 0, 0, 0, 0, 0, 0, 0, 0, 0, 0, 0, 0, 0, 0,0.0,0.0,0.0,0.0,0.0,0.0,0.0,0.0,0.0,0.0,0.0,0.0,0.0,14,src\java\org\apache\nutch\indexer\IndexingException.java,0,0,0,0
org.apache.nutch.indexer.IndexingFilter, 0, 0, 0, 0, 0, 0, 0, 0, 0, 0, 0, 0, 0, 0,0.0,0.0,0.0,0.0,0.0,0.0,0.0,0.0,0.0,0.0,0.0,0.0,0.0,14,src\java\org\apache\nutch\indexer\IndexingFilter.java,0,0,0,0
org.apache.nutch.indexer.IndexingFiltersChecker, 0, 0, 0, 0, 0, 0, 0, 0, 0, 0, 0, 0, 0, 0,0.0,0.0,0.0,0.0,0.0,0.0,0.0,0.0,0.0,0.0,0.0,0.0,0.0,91,src\java\org\apache\nutch\indexer\IndexingFiltersChecker.java,0,0,0,0
org.apache.nutch.indexer.NutchIndexWriter, 0, 0, 0, 0, 0, 0, 0, 0, 0, 0, 0, 0, 0, 0,0.0,0.0,0.0,0.0,0.0,0.0,0.0,0.0,0.0,0.0,0.0,0.0,0.0,91,src\java\org\apache\nutch\indexer\NutchIndexWriter.java,0,0,0,0
org.apache.nutch.indexer.NutchIndexWriterFactory, 0, 0, 0, 0, 0, 0, 0, 0, 0, 0, 0, 0, 0, 0,0.0,0.0,0.0,0.0,0.0,0.0,0.0,0.0,0.0,0.0,0.0,0.0,0.0,28,src\java\org\apache\nutch\indexer\NutchIndexWriterFactory.java,0,0,0,0
org.apache.nutch.indexer.TestIndexingFilters, 0, 0, 0, 0, 0, 0, 0, 0, 0, 0, 0, 0, 0, 0,0.0,0.0,0.0,0.0,0.0,0.0,0.0,0.0,0.0,0.0,0.0,0.0,0.0,49,src\test\org\apache\nutch\indexer\TestIndexingFilters.java,0,0,0,0
org.apache.nutch.indexer.anchor.TestAnchorIndexingFilter, 0, 0, 0, 0, 0, 0, 0, 0, 0, 0, 0, 0, 0, 0,0.0,0.0,0.0,0.0,0.0,0.0,0.0,0.0,0.0,0.0,0.0,0.0,0.0,18,src\plugin\index-anchor\src\test\org\apache\nutch\indexer\anchor\TestAnchorIndexingFilter.java,0,0,0,0
org.apache.nutch.indexer.basic.BasicIndexingFilter, 0, 0, 0, 0, 0, 0, 0, 0, 0, 0, 0, 0, 0, 0,0.0,0.0,0.0,0.0,0.0,0.0,0.0,0.0,0.0,0.0,0.0,0.0,0.0,69,src\plugin\index-basic\src\java\org\apache\nutch\indexer\basic\BasicIndexingFilter.java,1,0,1,3
org.apache.nutch.indexer.basic.TestBasicIndexingFilter, 0, 0, 0, 0, 0, 0, 0, 0, 0, 0, 0, 0, 0, 0,0.0,0.0,0.0,0.0,0.0,0.0,0.0,0.0,0.0,0.0,0.0,0.0,0.0,52,src\plugin\index-basic\src\test\org\apache\nutch\indexer\basic\TestBasicIndexingFilter.java,0,0,0,0
org.apache.nutch.indexer.elastic.ElasticConstants, 0, 0, 0, 0, 0, 0, 0, 0, 0, 0, 0, 0, 0, 0,0.0,0.0,0.0,0.0,0.0,0.0,0.0,0.0,0.0,0.0,0.0,0.0,0.0,52,src\java\org\apache\nutch\indexer\elastic\ElasticConstants.java,0,0,0,0
org.apache.nutch.indexer.feed.FeedIndexingFilter, 0, 0, 0, 0, 0, 0, 0, 1, 0, 0, 0, 0, 0, 1,0.0,0.0,0.0,0.0,0.0,0.0,0.0,0.0,0.0,0.0,0.0,0.0,0.0,45,src\plugin\feed\src\java\org\apache\nutch\indexer\feed\FeedIndexingFilter.java,0,0,0,0
org.apache.nutch.indexer.more.MoreIndexingFilter, 1, 0, 0, 0, 0, 0, 0, 0, 0, 0, 0, 0, 0, 1,0.3333333333333333,0.0,0.0,0.0,0.0,0.0,0.0,0.0,0.0,0.0,0.0,0.0,0.0,135,src\plugin\index-more\src\java\org\apache\nutch\indexer\more\MoreIndexingFilter.java,0,1,1,3
org.apache.nutch.indexer.more.TestMoreIndexingFilter, 0, 0, 0, 0, 0, 0, 0, 0, 0, 0, 0, 0, 0, 0,1.0,0.0,0.0,0.0,0.0,0.0,0.0,0.0,0.0,0.0,0.0,0.0,0.0,49,src\plugin\index-more\src\test\org\apache\nutch\indexer\more\TestMoreIndexingFilter.java,0,0,0,0
org.apache.nutch.indexer.solr.SolrConstants, 0, 0, 0, 0, 0, 0, 0, 0, 0, 0, 0, 0, 0, 0,0.0,0.0,0.0,0.0,0.0,0.0,0.0,0.0,0.0,0.0,0.0,0.0,0.0,49,src\java\org\apache\nutch\indexer\solr\SolrConstants.java,0,0,0,0
org.apache.nutch.indexer.solr.SolrDeleteDuplicates, 0, 0, 0, 0, 0, 0, 0, 0, 0, 0, 0, 0, 0, 0,0.0,0.0,0.0,0.0,0.0,0.0,0.0,0.0,0.0,0.0,0.0,0.0,0.0,250,src\java\org\apache\nutch\indexer\solr\SolrDeleteDuplicates.java,0,10,1,12
org.apache.nutch.indexer.subcollection.SubcollectionIndexingFilter, 0, 0, 0, 0, 0, 0, 0, 0, 0, 0, 0, 0, 0, 0,0.0,0.0,0.0,0.0,0.0,0.0,0.0,0.0,0.0,0.0,0.0,0.0,0.0,27,src\plugin\subcollection\src\java\org\apache\nutch\indexer\subcollection\SubcollectionIndexingFilter.java,0,0,0,0
org.apache.nutch.indexer.tld.TLDIndexingFilter, 0, 0, 0, 0, 0, 0, 0, 0, 0, 0, 0, 0, 0, 0,0.0,0.0,0.0,0.0,0.0,0.0,0.0,0.0,0.0,0.0,0.0,0.0,0.0,27,src\plugin\tld\src\java\org\apache\nutch\indexer\tld\TLDIndexingFilter.java,0,0,0,0
org.apache.nutch.metadata.CreativeCommons, 0, 0, 0, 0, 0, 0, 0, 0, 0, 0, 0, 0, 0, 0,0.0,0.0,0.0,0.0,0.0,0.0,0.0,0.0,0.0,0.0,0.0,0.0,0.0,27,src\java\org\apache\nutch\metadata\CreativeCommons.java,0,0,0,0
org.apache.nutch.metadata.DublinCore, 0, 0, 0, 0, 0, 0, 0, 0, 0, 0, 0, 0, 0, 0,0.0,0.0,0.0,0.0,0.0,0.0,0.0,0.0,0.0,0.0,0.0,0.0,0.0,27,src\java\org\apache\nutch\metadata\DublinCore.java,0,0,0,0
org.apache.nutch.metadata.Feed, 0, 0, 0, 0, 0, 0, 0, 0, 0, 0, 0, 0, 0, 0,0.0,0.0,0.0,0.0,0.0,0.0,0.0,0.0,0.0,0.0,0.0,0.0,0.0,27,src\java\org\apache\nutch\metadata\Feed.java,0,0,0,0
org.apache.nutch.metadata.HttpHeaders, 0, 0, 0, 0, 0, 0, 0, 0, 0, 0, 0, 0, 0, 0,0.0,0.0,0.0,0.0,0.0,0.0,0.0,0.0,0.0,0.0,0.0,0.0,0.0,27,src\java\org\apache\nutch\metadata\HttpHeaders.java,0,0,0,0
org.apache.nutch.metadata.MetaWrapper, 0, 0, 0, 0, 0, 0, 0, 0, 0, 0, 0, 0, 0, 0,0.0,0.0,0.0,0.0,0.0,0.0,0.0,0.0,0.0,0.0,0.0,0.0,0.0,41,src\java\org\apache\nutch\metadata\MetaWrapper.java,0,0,0,0
org.apache.nutch.metadata.Nutch, 0, 0, 0, 0, 0, 0, 0, 0, 0, 0, 0, 0, 0, 0,0.0,0.0,0.0,0.0,0.0,0.0,0.0,0.0,0.0,0.0,0.0,0.0,0.0,41,src\java\org\apache\nutch\metadata\Nutch.java,0,0,0,0
org.apache.nutch.microformats.reltag.RelTagIndexingFilter, 0, 0, 0, 0, 0, 0, 0, 0, 0, 0, 0, 0, 0, 0,0.0,0.0,0.0,0.0,0.0,0.0,0.0,0.0,0.0,0.0,0.0,0.0,0.0,29,src\plugin\microformats-reltag\src\java\org\apache\nutch\microformats\reltag\RelTagIndexingFilter.java,0,1,1,3
org.apache.nutch.microformats.reltag.TestRelTagIndexingFilter, 0, 0, 0, 0, 0, 0, 0, 0, 0, 0, 0, 0, 0, 0,0.0,0.0,0.0,0.0,0.0,0.0,0.0,0.0,0.0,0.0,0.0,0.0,0.0,22,src\plugin\microformats-reltag\src\test\org\apache\nutch\microformats\reltag\TestRelTagIndexingFilter.java,0,0,0,0
org.apache.nutch.microformats.reltag.TestRelTagParser, 0, 0, 0, 0, 0, 0, 0, 0, 0, 0, 0, 0, 0, 0,0.0,0.0,0.0,0.0,0.0,0.0,0.0,0.0,0.0,0.0,0.0,0.0,0.0,31,src\plugin\microformats-reltag\src\test\org\apache\nutch\microformats\reltag\TestRelTagParser.java,0,0,0,0
org.apache.nutch.net.TestURLFilters, 0, 0, 0, 0, 0, 0, 0, 0, 0, 0, 0, 0, 0, 0,0.0,0.0,0.0,0.0,0.0,0.0,0.0,0.0,0.0,0.0,0.0,0.0,0.0,16,src\test\org\apache\nutch\net\TestURLFilters.java,0,0,0,0
org.apache.nutch.net.TestURLNormalizers, 0, 0, 0, 0, 0, 0, 0, 0, 0, 0, 0, 0, 0, 0,0.0,0.0,0.0,0.0,0.0,0.0,0.0,0.0,0.0,0.0,0.0,0.0,0.0,31,src\test\org\apache\nutch\net\TestURLNormalizers.java,0,0,0,0
org.apache.nutch.net.URLFilter, 0, 0, 0, 0, 0, 0, 0, 0, 0, 0, 0, 0, 0, 0,0.0,0.0,0.0,0.0,0.0,0.0,0.0,0.0,0.0,0.0,0.0,0.0,0.0,31,src\java\org\apache\nutch\net\URLFilter.java,0,0,0,0
org.apache.nutch.net.URLFilterChecker, 0, 0, 0, 0, 0, 0, 0, 0, 0, 0, 0, 0, 0, 0,0.0,0.0,0.0,0.0,0.0,0.0,0.0,0.0,0.0,0.0,0.0,0.0,0.0,76,src\java\org\apache\nutch\net\URLFilterChecker.java,0,0,0,0
org.apache.nutch.net.URLFilterException, 0, 0, 0, 0, 0, 0, 0, 0, 0, 0, 0, 0, 0, 0,0.0,0.0,0.0,0.0,0.0,0.0,0.0,0.0,0.0,0.0,0.0,0.0,0.0,14,src\java\org\apache\nutch\net\URLFilterException.java,0,0,0,0
org.apache.nutch.net.URLNormalizer, 0, 0, 0, 0, 0, 0, 0, 0, 0, 0, 0, 0, 0, 0,0.0,0.0,0.0,0.0,0.0,0.0,0.0,0.0,0.0,0.0,0.0,0.0,0.0,14,src\java\org\apache\nutch\net\URLNormalizer.java,0,0,0,0
org.apache.nutch.net.URLNormalizerChecker, 0, 0, 0, 0, 0, 0, 0, 0, 0, 0, 0, 0, 0, 0,0.0,0.0,0.0,0.0,0.0,0.0,0.0,0.0,0.0,0.0,0.0,0.0,0.0,65,src\java\org\apache\nutch\net\URLNormalizerChecker.java,0,0,0,0
org.apache.nutch.net.protocols.HttpDateFormat, 1, 0, 0, 0, 0, 0, 0, 0, 0, 0, 0, 0, 0, 1,1.0,0.0,0.0,0.0,0.0,0.0,0.0,0.0,0.0,0.0,0.0,0.0,0.0,49,src\java\org\apache\nutch\net\protocols\HttpDateFormat.java,0,0,0,0
org.apache.nutch.net.protocols.ProtocolException, 0, 0, 0, 0, 0, 0, 0, 0, 0, 0, 0, 0, 0, 0,0.0,0.0,0.0,0.0,0.0,0.0,0.0,0.0,0.0,0.0,0.0,0.0,0.0,14,src\java\org\apache\nutch\net\protocols\ProtocolException.java,0,0,0,0
org.apache.nutch.net.protocols.Response, 0, 0, 0, 0, 0, 0, 0, 0, 0, 0, 0, 0, 0, 0,0.0,0.0,0.0,0.0,0.0,0.0,0.0,0.0,0.0,0.0,0.0,0.0,0.0,14,src\java\org\apache\nutch\net\protocols\Response.java,0,0,0,0
org.apache.nutch.net.urlnormalizer.basic.BasicURLNormalizer, 0, 0, 0, 0, 0, 0, 0, 0, 0, 0, 0, 0, 0, 0,0.0,0.0,0.0,0.0,0.0,0.0,0.0,0.0,0.0,0.0,0.0,0.0,0.0,106,src\plugin\urlnormalizer-basic\src\java\org\apache\nutch\net\urlnormalizer\basic\BasicURLNormalizer.java,0,0,0,0
org.apache.nutch.net.urlnormalizer.basic.TestBasicURLNormalizer, 0, 0, 0, 0, 0, 0, 0, 0, 0, 0, 0, 0, 0, 0,0.0,0.0,0.0,0.0,0.0,0.0,0.0,0.0,0.0,0.0,0.0,0.0,0.0,65,src\plugin\urlnormalizer-basic\src\test\org\apache\nutch\net\urlnormalizer\basic\TestBasicURLNormalizer.java,0,0,0,0
org.apache.nutch.net.urlnormalizer.pass.PassURLNormalizer, 0, 0, 0, 0, 0, 0, 0, 0, 0, 0, 0, 0, 0, 0,0.0,0.0,0.0,0.0,0.0,0.0,0.0,0.0,0.0,0.0,0.0,0.0,0.0,12,src\plugin\urlnormalizer-pass\src\java\org\apache\nutch\net\urlnormalizer\pass\PassURLNormalizer.java,0,0,0,0
org.apache.nutch.net.urlnormalizer.pass.TestPassURLNormalizer, 0, 0, 0, 0, 0, 0, 0, 0, 0, 0, 0, 0, 0, 0,0.0,0.0,0.0,0.0,0.0,0.0,0.0,0.0,0.0,0.0,0.0,0.0,0.0,16,src\plugin\urlnormalizer-pass\src\test\org\apache\nutch\net\urlnormalizer\pass\TestPassURLNormalizer.java,0,0,0,0
org.apache.nutch.parse.Outlink, 0, 0, 0, 0, 0, 0, 0, 0, 0, 0, 0, 0, 0, 0,0.0,0.0,0.0,0.0,0.0,0.0,0.0,0.0,0.0,0.0,0.0,0.0,0.0,40,src\java\org\apache\nutch\parse\Outlink.java,0,0,0,0
org.apache.nutch.parse.OutlinkExtractor, 0, 0, 0, 0, 0, 0, 0, 0, 0, 0, 0, 0, 0, 0,0.0,0.0,0.0,0.0,0.0,0.0,0.0,0.0,0.0,0.0,0.0,0.0,0.0,56,src\java\org\apache\nutch\parse\OutlinkExtractor.java,0,0,0,0
org.apache.nutch.parse.Parse, 0, 0, 0, 0, 0, 0, 0, 0, 0, 0, 0, 0, 0, 0,0.0,0.0,0.0,0.0,0.0,0.0,0.0,0.07692307692307693,0.0,0.0,0.0,0.0,0.0,39,src\java\org\apache\nutch\parse\Parse.java,0,0,0,0
org.apache.nutch.parse.ParseCallable, 0, 0, 0, 0, 0, 0, 0, 0, 0, 0, 0, 0, 0, 0,0.0,0.0,0.0,0.0,0.0,0.0,0.0,0.0,0.0,0.0,0.0,0.0,0.0,14,src\java\org\apache\nutch\parse\ParseCallable.java,0,0,0,0
org.apache.nutch.parse.ParseException, 0, 0, 0, 0, 0, 0, 0, 0, 0, 0, 0, 0, 0, 0,0.0,0.0,0.0,0.0,0.0,0.0,0.0,0.0,0.0,0.0,0.0,0.0,0.0,14,src\java\org\apache\nutch\parse\ParseException.java,0,0,0,0
org.apache.nutch.parse.ParseFilter, 0, 0, 0, 0, 0, 0, 0, 0, 0, 0, 0, 0, 0, 0,0.0,0.0,0.0,0.0,0.0,0.0,0.0,0.0,0.0,0.0,0.0,0.0,0.0,14,src\java\org\apache\nutch\parse\ParseFilter.java,0,0,0,0
org.apache.nutch.parse.ParseUtil, 0, 0, 0, 0, 0, 0, 0, 0, 0, 0, 0, 0, 0, 0,0.0,0.0,0.0,0.0,0.0,0.0,0.0,0.05,0.0,0.0,0.0,0.0,0.0,192,src\java\org\apache\nutch\parse\ParseUtil.java,0,0,0,0
org.apache.nutch.parse.Parser, 0, 0, 0, 0, 0, 0, 0, 0, 0, 0, 0, 0, 0, 0,0.0,0.0,0.0,0.0,0.0,0.0,0.0,0.0,0.0,0.0,0.0,0.0,0.0,192,src\java\org\apache\nutch\parse\Parser.java,0,0,0,0
org.apache.nutch.parse.ParserNotFound, 0, 0, 0, 0, 0, 0, 0, 0, 0, 0, 0, 0, 0, 0,0.0,0.0,0.0,0.0,0.0,0.0,0.0,0.0,0.0,0.0,0.0,0.0,0.0,19,src\java\org\apache\nutch\parse\ParserNotFound.java,0,0,0,0
org.apache.nutch.parse.TestOutlinkExtractor, 0, 0, 0, 0, 0, 0, 0, 0, 0, 0, 0, 0, 0, 0,0.0,0.0,0.0,0.0,0.0,0.0,0.0,0.0,0.0,0.0,0.0,0.0,0.0,43,src\test\org\apache\nutch\parse\TestOutlinkExtractor.java,0,0,0,0
org.apache.nutch.parse.TestParserFactory, 0, 0, 0, 0, 0, 0, 0, 0, 0, 0, 0, 0, 0, 0,0.0,0.0,0.0,0.0,0.0,0.0,0.0,0.0,0.0,0.0,0.0,0.0,0.0,54,src\test\org\apache\nutch\parse\TestParserFactory.java,0,0,0,0
org.apache.nutch.parse.ext.TestExtParser, 0, 0, 0, 0, 0, 0, 0, 0, 0, 0, 0, 0, 0, 0,0.0,0.0,0.0,0.0,0.0,0.0,0.0,0.0,0.0,0.0,0.0,0.0,0.0,51,src\plugin\parse-ext\src\test\org\apache\nutch\parse\ext\TestExtParser.java,0,0,0,0
org.apache.nutch.parse.html.DOMBuilder, 0, 0, 1, 1, 0, 0, 0, 0, 0, 0, 0, 0, 0, 2,0.0,0.0,0.0,0.0,0.0,0.0,0.0,0.0,0.0,0.0,0.0,0.0,0.0,220,src\plugin\parse-html\src\java\org\apache\nutch\parse\html\DOMBuilder.java,0,0,0,0
org.apache.nutch.parse.html.HTMLMetaProcessor, 0, 0, 0, 0, 0, 0, 0, 0, 0, 0, 0, 0, 0, 0,1.0,0.0,1.0,0.0,0.0,0.0,0.0,0.0,0.0,0.0,0.0,0.0,0.0,138,src\plugin\parse-html\src\java\org\apache\nutch\parse\html\HTMLMetaProcessor.java,0,0,0,0
org.apache.nutch.parse.html.TestRobotsMetaProcessor, 1, 0, 1, 0, 0, 0, 0, 0, 0, 0, 0, 0, 0, 2,0.0,0.0,0.0,0.0,0.0,0.0,0.0,0.0,0.0,0.0,0.0,0.0,0.0,113,src\plugin\parse-html\src\test\org\apache\nutch\parse\html\TestRobotsMetaProcessor.java,0,0,0,0
org.apache.nutch.parse.html.XMLCharacterRecognizer, 0, 0, 0, 0, 0, 0, 0, 0, 0, 0, 0, 0, 0, 0,0.0,0.0,1.0,1.0,0.0,0.0,0.0,0.0,0.0,0.0,0.0,0.0,0.0,40,src\plugin\parse-html\src\java\org\apache\nutch\parse\html\XMLCharacterRecognizer.java,0,0,0,0
org.apache.nutch.parse.js.TestJSParseFilter, 0, 0, 0, 0, 0, 0, 0, 0, 0, 0, 0, 0, 0, 0,0.0,0.0,0.0,0.0,0.0,0.0,0.0,0.0,0.0,0.0,0.0,0.0,0.0,37,src\plugin\parse-js\src\test\org\apache\nutch\parse\js\TestJSParseFilter.java,0,0,0,0
org.apache.nutch.parse.tika.DOMBuilder, 0, 0, 1, 1, 0, 0, 0, 0, 0, 0, 0, 0, 0, 2,0.0,0.0,0.0,0.0,0.0,0.0,0.0,0.0,0.0,0.0,0.0,0.0,0.0,220,src\plugin\parse-tika\src\java\org\apache\nutch\parse\tika\DOMBuilder.java,0,0,0,0
org.apache.nutch.parse.tika.HTMLMetaProcessor, 0, 0, 0, 0, 0, 0, 0, 0, 0, 0, 0, 0, 0, 0,0.0,0.0,0.0,0.0,0.0,0.0,0.0,0.0,0.0,0.0,0.0,0.0,0.0,138,src\plugin\parse-tika\src\java\org\apache\nutch\parse\tika\HTMLMetaProcessor.java,0,0,0,0
org.apache.nutch.parse.tika.TestMSWordParser, 0, 0, 0, 0, 0, 0, 0, 0, 0, 0, 0, 0, 0, 0,0.0,0.0,0.0,0.0,0.0,0.0,0.0,0.0,0.0,0.0,0.0,0.0,0.0,48,src\plugin\parse-tika\src\test\org\apache\nutch\parse\tika\TestMSWordParser.java,0,0,0,0
org.apache.nutch.parse.tika.TestPdfParser, 0, 0, 0, 0, 0, 0, 0, 0, 0, 0, 0, 0, 0, 0,0.0,0.0,0.0,0.0,0.0,0.0,0.0,0.0,0.0,0.0,0.0,0.0,0.0,29,src\plugin\parse-tika\src\test\org\apache\nutch\parse\tika\TestPdfParser.java,0,0,0,0
org.apache.nutch.parse.tika.TestRSSParser, 0, 0, 0, 0, 0, 0, 0, 0, 0, 0, 0, 0, 0, 0,0.0,0.0,0.0,0.0,0.0,0.0,0.0,0.0,0.0,0.0,0.0,0.0,0.0,41,src\plugin\parse-tika\src\test\org\apache\nutch\parse\tika\TestRSSParser.java,0,0,0,0
org.apache.nutch.parse.tika.TestRTFParser, 0, 0, 0, 0, 0, 0, 0, 0, 0, 0, 0, 0, 0, 0,0.0,0.0,0.0,0.0,0.0,0.0,0.0,0.0,0.0,0.0,0.0,0.0,0.0,27,src\plugin\parse-tika\src\test\org\apache\nutch\parse\tika\TestRTFParser.java,0,0,0,0
org.apache.nutch.parse.tika.TikaParser, 0, 0, 0, 0, 0, 0, 0, 0, 0, 0, 0, 0, 0, 0,0.0,0.0,0.0,0.0,0.0,0.0,0.0,0.0,0.0,0.0,0.0,0.0,0.0,148,src\plugin\parse-tika\src\java\org\apache\nutch\parse\tika\TikaParser.java,1,1,2,6
org.apache.nutch.parse.tika.XMLCharacterRecognizer, 0, 0, 0, 0, 0, 0, 0, 0, 0, 0, 0, 0, 0, 0,0.0,0.0,1.0,1.0,0.0,0.0,0.0,0.0,0.0,0.0,0.0,0.0,0.0,40,src\plugin\parse-tika\src\java\org\apache\nutch\parse\tika\XMLCharacterRecognizer.java,0,0,0,0
org.apache.nutch.parse.zip.TestZipParser, 0, 0, 0, 0, 0, 0, 0, 0, 0, 0, 0, 0, 0, 0,0.0,0.0,0.0,0.0,0.0,0.0,0.0,0.0,0.0,0.0,0.0,0.0,0.0,25,src\plugin\parse-zip\src\test\org\apache\nutch\parse\zip\TestZipParser.java,0,0,0,0
org.apache.nutch.parse.zip.ZipParser, 0, 0, 0, 0, 0, 0, 0, 0, 0, 0, 0, 0, 0, 0,0.0,0.0,0.0,0.0,0.0,0.0,0.0,0.0,0.0,0.0,0.0,0.0,0.0,53,src\plugin\parse-zip\src\java\org\apache\nutch\parse\zip\ZipParser.java,0,0,0,0
org.apache.nutch.parse.zip.ZipTextExtractor, 0, 0, 0, 0, 0, 0, 0, 0, 0, 0, 0, 0, 0, 0,0.0,0.0,0.0,0.0,0.0,0.0,0.0,0.0,0.0,0.0,0.0,0.0,0.0,54,src\plugin\parse-zip\src\java\org\apache\nutch\parse\zip\ZipTextExtractor.java,0,0,0,0
org.apache.nutch.plugin.CircularDependencyException, 0, 0, 0, 0, 0, 0, 0, 0, 0, 0, 0, 0, 0, 0,0.0,0.0,0.0,0.0,0.0,0.0,0.0,0.0,0.0,0.0,0.0,0.0,0.0,9,src\java\org\apache\nutch\plugin\CircularDependencyException.java,0,0,0,0
org.apache.nutch.plugin.ExtensionPoint, 0, 0, 0, 0, 0, 0, 0, 0, 0, 0, 0, 0, 0, 0,0.0,0.0,0.0,0.0,0.0,0.0,0.0,0.0,0.0,0.0,0.0,0.0,0.0,36,src\java\org\apache\nutch\plugin\ExtensionPoint.java,0,0,0,0
org.apache.nutch.plugin.FieldPluggable, 0, 0, 0, 0, 0, 0, 0, 0, 0, 0, 0, 0, 0, 0,0.0,0.0,0.0,0.0,0.0,0.0,0.0,0.0,0.0,0.0,0.0,0.0,0.0,36,src\java\org\apache\nutch\plugin\FieldPluggable.java,0,0,0,0
org.apache.nutch.plugin.HelloWorldExtension, 0, 0, 0, 0, 0, 0, 0, 0, 0, 0, 0, 0, 0, 0,0.0,0.0,0.0,0.0,0.0,0.0,0.0,0.0,0.0,0.0,0.0,0.0,0.0,5,src\test\org\apache\nutch\plugin\HelloWorldExtension.java,0,0,0,0
org.apache.nutch.plugin.ITestExtension, 0, 0, 0, 0, 0, 0, 0, 0, 0, 0, 0, 0, 0, 0,0.0,0.0,0.0,0.0,0.0,0.0,0.0,0.0,0.0,0.0,0.0,0.0,0.0,5,src\test\org\apache\nutch\plugin\ITestExtension.java,0,0,0,0
org.apache.nutch.plugin.MissingDependencyException, 0, 0, 0, 0, 0, 0, 0, 0, 0, 0, 0, 0, 0, 0,0.0,0.0,0.0,0.0,0.0,0.0,0.0,0.0,0.0,0.0,0.0,0.0,0.0,9,src\java\org\apache\nutch\plugin\MissingDependencyException.java,0,0,0,0
org.apache.nutch.plugin.Pluggable, 0, 0, 0, 0, 0, 0, 0, 0, 0, 0, 0, 0, 0, 0,0.0,0.0,0.0,0.0,0.0,0.0,0.0,0.0,0.0,0.0,0.0,0.0,0.0,9,src\java\org\apache\nutch\plugin\Pluggable.java,0,0,0,0
org.apache.nutch.plugin.Plugin, 0, 0, 0, 0, 0, 0, 0, 0, 0, 0, 0, 0, 0, 0,0.0,0.0,0.0,0.0,0.0,0.0,0.0,0.0,0.0,0.0,0.0,0.0,0.0,22,src\java\org\apache\nutch\plugin\Plugin.java,0,0,0,0
org.apache.nutch.plugin.PluginClassLoader, 0, 0, 0, 0, 0, 0, 0, 0, 0, 0, 0, 0, 0, 0,0.0,0.0,0.0,0.0,0.0,0.0,0.0,0.0,0.0,0.0,0.0,0.0,0.0,5,src\java\org\apache\nutch\plugin\PluginClassLoader.java,0,0,0,0
org.apache.nutch.plugin.PluginRuntimeException, 0, 0, 0, 0, 0, 0, 0, 0, 0, 0, 0, 0, 0, 0,0.0,0.0,0.0,0.0,0.0,0.0,0.0,0.0,0.0,0.0,0.0,0.0,0.0,9,src\java\org\apache\nutch\plugin\PluginRuntimeException.java,0,0,0,0
org.apache.nutch.plugin.SimpleTestPlugin, 0, 0, 0, 0, 0, 0, 0, 0, 0, 0, 0, 0, 0, 0,0.0,0.0,0.0,0.0,0.0,0.0,0.0,0.0,0.0,0.0,0.0,0.0,0.0,11,src\test\org\apache\nutch\plugin\SimpleTestPlugin.java,0,0,0,0
org.apache.nutch.protocol.Protocol, 0, 0, 0, 0, 0, 0, 0, 0, 0, 0, 0, 0, 0, 0,0.0,0.0,0.0,0.0,0.0,0.0,0.0,0.0,0.0,0.0,0.0,0.0,0.0,11,src\java\org\apache\nutch\protocol\Protocol.java,0,0,0,0
org.apache.nutch.protocol.ProtocolException, 0, 0, 0, 0, 0, 0, 0, 0, 0, 0, 0, 0, 0, 0,0.0,0.0,0.0,0.0,0.0,0.0,0.0,0.0,0.0,0.0,0.0,0.0,0.0,14,src\java\org\apache\nutch\protocol\ProtocolException.java,0,0,0,0
org.apache.nutch.protocol.ProtocolFactory, 0, 0, 0, 0, 0, 0, 0, 0, 0, 0, 0, 0, 0, 0,0.0,0.0,0.0,0.0,0.0,0.0,0.0,0.0,0.0,0.0,0.0,0.0,0.0,70,src\java\org\apache\nutch\protocol\ProtocolFactory.java,0,0,0,0
org.apache.nutch.protocol.ProtocolNotFound, 0, 0, 0, 0, 0, 0, 0, 0, 0, 0, 0, 0, 0, 0,0.0,0.0,0.0,0.0,0.0,0.0,0.0,0.0,0.0,0.0,0.0,0.0,0.0,11,src\java\org\apache\nutch\protocol\ProtocolNotFound.java,0,0,0,0
org.apache.nutch.protocol.ProtocolOutput, 0, 0, 0, 0, 0, 0, 0, 0, 0, 0, 0, 0, 0, 0,0.0,0.0,0.0,0.14285714285714285,0.0,0.0,0.0,0.0,0.0,0.0,0.0,0.0,0.0,25,src\java\org\apache\nutch\protocol\ProtocolOutput.java,0,0,0,0
org.apache.nutch.protocol.ProtocolStatusCodes, 0, 0, 0, 0, 0, 0, 0, 0, 0, 0, 0, 0, 0, 0,0.0,0.0,0.0,0.0,0.0,0.0,0.0,0.0,0.0,0.0,0.0,0.0,0.0,25,src\java\org\apache\nutch\protocol\ProtocolStatusCodes.java,0,0,0,0
org.apache.nutch.protocol.RobotRules, 0, 0, 0, 0, 0, 0, 0, 0, 0, 0, 0, 0, 0, 0,0.0,0.0,0.0,0.0,0.0,0.0,0.0,0.0,0.0,0.0,0.0,0.0,0.0,25,src\java\org\apache\nutch\protocol\RobotRules.java,0,0,0,0
org.apache.nutch.protocol.TestContent, 0, 0, 0, 0, 0, 0, 0, 0, 0, 0, 0, 0, 0, 0,0.0,0.0,0.0,0.0,0.0,0.0,0.0,0.0,0.0,0.0,0.0,0.0,0.0,62,src\test\org\apache\nutch\protocol\TestContent.java,0,0,0,0
org.apache.nutch.protocol.TestProtocolFactory, 0, 0, 0, 0, 0, 0, 0, 0, 0, 0, 0, 0, 0, 0,0.0,0.0,0.0,0.0,0.0,0.0,0.0,0.0,0.0,0.0,0.0,0.0,0.0,44,src\test\org\apache\nutch\protocol\TestProtocolFactory.java,0,0,0,0
org.apache.nutch.protocol.file.File, 0, 0, 0, 0, 0, 0, 0, 0, 0, 0, 0, 0, 0, 0,0.0,0.0,0.0,0.0,0.0,0.0,0.0,0.0,0.0,0.0,0.0,0.0,0.0,97,src\plugin\protocol-file\src\java\org\apache\nutch\protocol\file\File.java,0,0,0,0
org.apache.nutch.protocol.file.FileError, 0, 0, 0, 0, 0, 0, 0, 0, 0, 0, 0, 0, 0, 0,0.0,0.0,0.0,0.0,0.0,0.0,0.0,0.0,0.0,0.0,0.0,0.0,0.0,8,src\plugin\protocol-file\src\java\org\apache\nutch\protocol\file\FileError.java,0,0,0,0
org.apache.nutch.protocol.file.FileException, 0, 0, 0, 0, 0, 0, 0, 0, 0, 0, 0, 0, 0, 0,0.0,0.0,0.0,0.0,0.0,0.0,0.0,0.0,0.0,0.0,0.0,0.0,0.0,14,src\plugin\protocol-file\src\java\org\apache\nutch\protocol\file\FileException.java,0,0,0,0
org.apache.nutch.protocol.file.TestProtocolFile, 0, 0, 0, 0, 0, 0, 0, 0, 0, 0, 0, 0, 0, 0,0.0,0.0,0.0,0.0,0.0,0.0,0.0,0.0,0.0,0.0,0.0,0.0,0.0,36,src\plugin\protocol-file\src\test\org\apache\nutch\protocol\file\TestProtocolFile.java,0,0,0,0
org.apache.nutch.protocol.ftp.Ftp, 0, 0, 0, 1, 0, 0, 0, 0, 0, 0, 0, 0, 0, 1,0.0,0.0,0.0,0.0,0.0,0.0,0.0,0.0,0.0,0.0,0.0,0.0,0.0,146,src\plugin\protocol-ftp\src\java\org\apache\nutch\protocol\ftp\Ftp.java,0,0,0,0
org.apache.nutch.protocol.ftp.FtpError, 0, 0, 0, 0, 0, 0, 0, 0, 0, 0, 0, 0, 0, 0,0.0,0.0,0.0,0.5,0.0,0.0,0.0,0.0,0.0,0.0,0.0,0.0,0.0,8,src\plugin\protocol-ftp\src\java\org\apache\nutch\protocol\ftp\FtpError.java,0,0,0,0
org.apache.nutch.protocol.ftp.FtpException, 0, 0, 0, 0, 0, 0, 0, 0, 0, 0, 0, 0, 0, 0,0.0,0.0,0.0,0.14285714285714285,0.0,0.0,0.0,0.0,0.0,0.0,0.0,0.0,0.0,14,src\plugin\protocol-ftp\src\java\org\apache\nutch\protocol\ftp\FtpException.java,0,0,0,0
org.apache.nutch.protocol.ftp.FtpExceptionBadSystResponse, 0, 0, 0, 0, 0, 0, 0, 0, 0, 0, 0, 0, 0, 0,0.0,0.0,0.0,0.0,0.0,0.0,0.0,0.0,0.0,0.0,0.0,0.0,0.0,5,src\plugin\protocol-ftp\src\java\org\apache\nutch\protocol\ftp\FtpExceptionBadSystResponse.java,0,0,0,0
org.apache.nutch.protocol.ftp.FtpExceptionCanNotHaveDataConnection, 0, 0, 0, 0, 0, 0, 0, 0, 0, 0, 0, 0, 0, 0,0.0,0.0,0.0,0.0,0.0,0.0,0.0,0.0,0.0,0.0,0.0,0.0,0.0,5,src\plugin\protocol-ftp\src\java\org\apache\nutch\protocol\ftp\FtpExceptionCanNotHaveDataConnection.java,0,0,0,0
org.apache.nutch.protocol.ftp.FtpExceptionControlClosedByForcedDataClose, 0, 0, 0, 0, 0, 0, 0, 0, 0, 0, 0, 0, 0, 0,0.0,0.0,0.0,0.0,0.0,0.0,0.0,0.0,0.0,0.0,0.0,0.0,0.0,5,src\plugin\protocol-ftp\src\java\org\apache\nutch\protocol\ftp\FtpExceptionControlClosedByForcedDataClose.java,0,0,0,0
org.apache.nutch.protocol.ftp.FtpExceptionUnknownForcedDataClose, 0, 0, 0, 0, 0, 0, 0, 0, 0, 0, 0, 0, 0, 0,0.0,0.0,0.0,0.0,0.0,0.0,0.0,0.0,0.0,0.0,0.0,0.0,0.0,5,src\plugin\protocol-ftp\src\java\org\apache\nutch\protocol\ftp\FtpExceptionUnknownForcedDataClose.java,0,0,0,0
org.apache.nutch.protocol.ftp.FtpRobotRulesParser, 0, 0, 0, 0, 0, 0, 0, 0, 0, 0, 0, 0, 0, 0,0.0,0.0,0.0,0.5,0.0,0.0,0.0,0.0,0.0,0.0,0.0,0.0,0.0,38,src\plugin\protocol-ftp\src\java\org\apache\nutch\protocol\ftp\FtpRobotRulesParser.java,0,0,0,0
org.apache.nutch.protocol.ftp.PrintCommandListener, 0, 0, 0, 0, 0, 0, 0, 0, 0, 0, 0, 0, 0, 0,0.0,0.0,0.0,0.0,0.0,0.0,0.0,0.0,0.0,0.0,0.0,0.0,0.0,35,src\plugin\protocol-ftp\src\java\org\apache\nutch\protocol\ftp\PrintCommandListener.java,0,0,0,0
org.apache.nutch.protocol.http.Http, 0, 0, 0, 0, 0, 0, 0, 0, 0, 0, 0, 0, 0, 0,0.0,0.0,0.0,0.0,0.0,0.0,0.0,0.0,0.0,0.0,0.0,0.0,0.0,28,src\plugin\protocol-http\src\java\org\apache\nutch\protocol\http\Http.java,0,0,0,0
org.apache.nutch.protocol.http.api.BlockedException, 0, 0, 0, 0, 0, 0, 0, 0, 0, 0, 0, 0, 0, 0,0.0,0.0,0.0,0.0,0.0,0.0,0.0,0.0,0.0,0.0,0.0,0.0,0.0,5,src\plugin\lib-http\src\java\org\apache\nutch\protocol\http\api\BlockedException.java,0,0,0,0
org.apache.nutch.protocol.http.api.HttpException, 0, 0, 0, 0, 0, 0, 0, 0, 0, 0, 0, 0, 0, 0,0.0,0.0,0.0,0.0,0.0,0.0,0.0,0.0,0.0,0.0,0.0,0.0,0.0,14,src\plugin\lib-http\src\java\org\apache\nutch\protocol\http\api\HttpException.java,0,0,0,0
org.apache.nutch.protocol.http.api.HttpRobotRulesParser, 0, 0, 0, 0, 0, 0, 0, 0, 0, 0, 0, 0, 0, 0,0.0,0.0,0.0,0.0,0.0,0.0,0.0,0.0,0.0,0.0,0.0,0.0,0.0,61,src\plugin\lib-http\src\java\org\apache\nutch\protocol\http\api\HttpRobotRulesParser.java,0,0,0,0
org.apache.nutch.protocol.http.api.TestRobotRulesParser, 0, 0, 0, 0, 0, 0, 0, 0, 0, 0, 0, 0, 0, 0,0.0,0.0,0.0,0.0,0.0,0.0,0.0,0.0,0.0,0.0,0.0,0.0,0.0,69,src\plugin\lib-http\src\test\org\apache\nutch\protocol\http\api\TestRobotRulesParser.java,0,0,0,0
org.apache.nutch.protocol.httpclient.DummySSLProtocolSocketFactory, 0, 0, 0, 0, 0, 0, 0, 1, 0, 0, 0, 0, 0, 1,0.0,0.0,0.0,0.0,0.0,0.0,0.0,0.0,0.0,0.0,0.0,0.0,0.0,52,src\plugin\protocol-httpclient\src\java\org\apache\nutch\protocol\httpclient\DummySSLProtocolSocketFactory.java,0,0,0,0
org.apache.nutch.protocol.httpclient.DummyX509TrustManager, 0, 0, 0, 0, 0, 0, 0, 0, 0, 0, 0, 0, 0, 0,0.0,0.0,0.0,0.0,0.0,0.0,0.0,1.0,0.0,0.0,0.0,0.0,0.0,28,src\plugin\protocol-httpclient\src\java\org\apache\nutch\protocol\httpclient\DummyX509TrustManager.java,0,0,0,0
org.apache.nutch.protocol.httpclient.Http, 0, 0, 0, 1, 0, 0, 0, 0, 0, 0, 0, 0, 0, 1,0.0,0.0,0.0,0.0,0.0,0.0,0.0,0.0,0.0,0.0,0.0,0.0,0.0,225,src\plugin\protocol-httpclient\src\java\org\apache\nutch\protocol\httpclient\Http.java,0,0,0,0
org.apache.nutch.protocol.httpclient.HttpAuthentication, 0, 0, 0, 0, 0, 0, 0, 0, 0, 0, 0, 0, 0, 0,0.0,0.0,0.0,0.0,0.0,0.0,0.0,0.0,0.0,0.0,0.0,0.0,0.0,225,src\plugin\protocol-httpclient\src\java\org\apache\nutch\protocol\httpclient\HttpAuthentication.java,0,0,0,0
org.apache.nutch.protocol.httpclient.HttpAuthenticationException, 0, 0, 0, 0, 0, 0, 0, 0, 0, 0, 0, 0, 0, 0,0.0,0.0,0.0,0.0,0.0,0.0,0.0,0.0,0.0,0.0,0.0,0.0,0.0,15,src\plugin\protocol-httpclient\src\java\org\apache\nutch\protocol\httpclient\HttpAuthenticationException.java,0,0,0,0
org.apache.nutch.protocol.httpclient.TestProtocolHttpClient, 0, 0, 0, 0, 0, 0, 0, 0, 0, 0, 0, 0, 0, 0,0.0,0.0,0.0,1.0,0.0,0.0,0.0,0.0,0.0,0.0,0.0,0.0,0.0,90,src\plugin\protocol-httpclient\src\test\org\apache\nutch\protocol\httpclient\TestProtocolHttpClient.java,0,0,0,0
org.apache.nutch.scoring.ScoringFilter, 0, 0, 0, 0, 0, 0, 0, 0, 0, 0, 0, 0, 0, 0,0.0,0.0,0.0,0.0,0.0,0.0,0.0,0.0,0.0,0.0,0.0,0.0,0.0,90,src\java\org\apache\nutch\scoring\ScoringFilter.java,0,0,0,0
org.apache.nutch.scoring.ScoringFilterException, 0, 0, 0, 0, 0, 0, 0, 0, 0, 0, 0, 0, 0, 0,0.0,0.0,0.0,0.0,0.0,0.0,0.0,0.0,0.0,0.0,0.0,0.0,0.0,14,src\java\org\apache\nutch\scoring\ScoringFilterException.java,0,0,0,0
org.apache.nutch.scoring.link.LinkAnalysisScoringFilter, 0, 0, 0, 0, 0, 0, 0, 0, 0, 0, 0, 0, 0, 0,0.0,0.0,0.0,0.0,0.0,0.0,0.0,0.0,0.0,0.0,0.0,0.0,0.0,50,src\plugin\scoring-link\src\java\org\apache\nutch\scoring\link\LinkAnalysisScoringFilter.java,0,0,0,0
org.apache.nutch.scoring.opic.OPICScoringFilter, 0, 0, 0, 0, 0, 0, 0, 0, 0, 0, 0, 0, 0, 0,0.0,0.0,0.0,0.0,0.0,0.0,0.0,0.0,0.0,0.0,0.0,0.0,0.0,93,src\plugin\scoring-opic\src\java\org\apache\nutch\scoring\opic\OPICScoringFilter.java,0,0,2,4
org.apache.nutch.scoring.tld.TLDScoringFilter, 0, 0, 0, 0, 0, 0, 0, 0, 0, 0, 0, 0, 0, 0,0.0,0.0,0.0,0.0,0.0,0.0,0.0,0.0,0.0,0.0,0.0,0.0,0.0,54,src\plugin\tld\src\java\org\apache\nutch\scoring\tld\TLDScoringFilter.java,0,0,0,0
org.apache.nutch.storage.StorageUtils, 0, 0, 0, 0, 0, 0, 0, 1, 0, 0, 0, 0, 0, 1,0.0,0.0,0.0,0.0,0.0,0.0,0.0,0.0,0.0,0.0,0.0,0.0,0.0,80,src\java\org\apache\nutch\storage\StorageUtils.java,0,0,0,0
org.apache.nutch.storage.TestGoraStorage, 0, 0, 0, 0, 0, 0, 0, 0, 0, 0, 0, 0, 0, 0,0.0,0.0,0.0,0.0,0.0,0.0,0.0,0.3333333333333333,0.0,0.0,0.0,0.0,0.0,125,src\test\org\apache\nutch\storage\TestGoraStorage.java,0,0,0,0
org.apache.nutch.storage.WebTableCreator, 0, 0, 0, 0, 0, 0, 0, 0, 0, 0, 0, 0, 0, 0,0.0,0.0,0.0,0.0,0.0,0.0,0.0,1.0,0.0,0.0,0.0,0.0,0.0,8,src\java\org\apache\nutch\storage\WebTableCreator.java,0,0,0,0
org.apache.nutch.tools.ResolveUrls, 0, 0, 0, 0, 0, 0, 0, 0, 0, 0, 0, 0, 0, 0,0.0,0.0,0.0,0.0,0.0,0.0,0.0,0.0,0.0,0.0,0.0,0.0,0.0,101,src\java\org\apache\nutch\tools\ResolveUrls.java,0,0,0,0
org.apache.nutch.tools.arc.ArcInputFormat, 0, 0, 0, 0, 0, 0, 0, 0, 0, 0, 0, 0, 0, 0,0.0,0.0,0.0,0.0,0.0,0.0,0.0,0.0,0.0,0.0,0.0,0.0,0.0,9,src\java\org\apache\nutch\tools\arc\ArcInputFormat.java,0,0,0,0
org.apache.nutch.tools.arc.ArcRecordReader, 0, 0, 0, 0, 0, 0, 0, 0, 0, 0, 0, 0, 0, 0,0.0,0.0,0.0,0.0,0.0,0.0,0.0,0.0,0.0,0.0,0.0,0.0,0.0,131,src\java\org\apache\nutch\tools\arc\ArcRecordReader.java,0,0,0,0
org.apache.nutch.tools.proxy.AbstractTestbedHandler, 0, 0, 0, 0, 0, 0, 0, 0, 0, 0, 0, 0, 0, 0,0.0,0.0,0.0,0.0,0.0,0.0,0.0,0.25,0.0,0.0,0.0,0.0,0.0,17,src\java\org\apache\nutch\tools\proxy\AbstractTestbedHandler.java,0,0,0,0
org.apache.nutch.tools.proxy.DelayHandler, 0, 0, 0, 0, 0, 0, 0, 0, 0, 0, 0, 0, 0, 0,0.0,0.0,0.0,0.0,0.0,0.0,0.0,0.0,0.0,0.0,0.0,0.0,0.0,24,src\java\org\apache\nutch\tools\proxy\DelayHandler.java,0,0,0,0
org.apache.nutch.tools.proxy.FakeHandler, 0, 0, 0, 0, 0, 0, 0, 1, 0, 0, 0, 0, 0, 1,0.0,0.0,0.0,0.0,0.0,0.0,0.0,0.0,0.0,0.0,0.0,0.0,0.0,99,src\java\org\apache\nutch\tools\proxy\FakeHandler.java,0,0,0,0
org.apache.nutch.tools.proxy.LogDebugHandler, 0, 0, 0, 0, 0, 0, 0, 0, 0, 0, 0, 0, 0, 0,0.0,0.0,0.0,0.0,0.0,0.0,0.0,0.0,0.0,0.0,0.0,0.0,0.0,22,src\java\org\apache\nutch\tools\proxy\LogDebugHandler.java,0,0,0,0
org.apache.nutch.tools.proxy.NotFoundHandler, 0, 0, 0, 0, 0, 0, 0, 0, 0, 0, 0, 0, 0, 0,0.0,0.0,0.0,0.0,0.0,0.0,0.0,0.0,0.0,0.0,0.0,0.0,0.0,11,src\java\org\apache\nutch\tools\proxy\NotFoundHandler.java,0,0,0,0
org.apache.nutch.tools.proxy.TestbedProxy, 0, 0, 0, 0, 0, 0, 0, 0, 0, 0, 0, 0, 0, 0,0.0,0.0,0.0,0.0,0.0,0.0,0.0,0.5,0.0,0.0,0.0,0.0,0.0,104,src\java\org\apache\nutch\tools\proxy\TestbedProxy.java,0,0,0,0
org.apache.nutch.urlfilter.api.RegexRule, 0, 0, 0, 0, 0, 0, 0, 0, 0, 0, 0, 0, 0, 0,0.0,0.0,0.0,0.0,0.0,0.0,0.0,0.0,0.0,0.0,0.0,0.0,0.0,8,src\plugin\lib-regex-filter\src\java\org\apache\nutch\urlfilter\api\RegexRule.java,0,0,0,0
org.apache.nutch.urlfilter.api.RegexURLFilterBase, 0, 0, 0, 0, 0, 0, 0, 0, 0, 0, 0, 0, 0, 0,0.0,0.0,0.0,0.0,0.0,0.0,0.0,0.0,0.0,0.0,0.0,0.0,0.0,92,src\plugin\lib-regex-filter\src\java\org\apache\nutch\urlfilter\api\RegexURLFilterBase.java,0,0,0,0
org.apache.nutch.urlfilter.api.RegexURLFilterBaseTest, 0, 0, 0, 0, 0, 0, 0, 0, 0, 0, 0, 0, 0, 0,0.0,0.0,0.0,0.0,0.0,0.0,0.0,0.0,0.0,0.0,0.0,0.0,0.0,81,src\plugin\lib-regex-filter\src\test\org\apache\nutch\urlfilter\api\RegexURLFilterBaseTest.java,0,0,0,0
org.apache.nutch.urlfilter.automaton.AutomatonURLFilter, 0, 0, 0, 0, 0, 0, 0, 0, 0, 0, 0, 0, 0, 0,0.0,0.0,0.0,0.0,0.0,0.0,0.0,0.0,0.0,0.0,0.0,0.0,0.0,39,src\plugin\urlfilter-automaton\src\java\org\apache\nutch\urlfilter\automaton\AutomatonURLFilter.java,0,0,0,0
org.apache.nutch.urlfilter.automaton.TestAutomatonURLFilter, 0, 0, 0, 0, 0, 0, 0, 0, 0, 0, 0, 0, 0, 0,0.0,0.0,0.0,0.0,0.0,0.0,0.0,0.0,0.0,0.0,0.0,0.0,0.0,20,src\plugin\urlfilter-automaton\src\test\org\apache\nutch\urlfilter\automaton\TestAutomatonURLFilter.java,0,0,0,0
org.apache.nutch.urlfilter.domain.DomainURLFilter, 0, 0, 0, 0, 0, 0, 0, 0, 0, 0, 0, 0, 0, 0,0.0,0.0,0.0,0.0,0.0,0.0,0.0,0.0,0.0,0.0,0.0,0.0,0.0,98,src\plugin\urlfilter-domain\src\java\org\apache\nutch\urlfilter\domain\DomainURLFilter.java,0,0,0,0
org.apache.nutch.urlfilter.domain.TestDomainURLFilter, 0, 0, 0, 0, 0, 0, 0, 0, 0, 0, 0, 0, 0, 0,0.0,0.0,0.0,0.0,0.0,0.0,0.0,0.0,0.0,0.0,0.0,0.0,0.0,23,src\plugin\urlfilter-domain\src\test\org\apache\nutch\urlfilter\domain\TestDomainURLFilter.java,0,0,0,0
org.apache.nutch.urlfilter.prefix.PrefixURLFilter, 0, 0, 0, 0, 0, 0, 0, 0, 0, 0, 0, 0, 0, 0,0.0,0.0,0.0,0.0,0.0,0.0,0.0,0.0,0.0,0.0,0.0,0.0,0.0,96,src\plugin\urlfilter-prefix\src\java\org\apache\nutch\urlfilter\prefix\PrefixURLFilter.java,0,0,0,0
org.apache.nutch.urlfilter.regex.RegexURLFilter, 0, 0, 0, 0, 0, 0, 0, 0, 0, 0, 0, 0, 0, 0,0.0,0.0,0.0,0.0,0.0,0.0,0.0,0.0,0.0,0.0,0.0,0.0,0.0,41,src\plugin\urlfilter-regex\src\java\org\apache\nutch\urlfilter\regex\RegexURLFilter.java,0,0,0,0
org.apache.nutch.urlfilter.regex.TestRegexURLFilter, 0, 0, 0, 0, 0, 0, 0, 0, 0, 0, 0, 0, 0, 0,0.0,0.0,0.0,0.0,0.0,0.0,0.0,0.0,0.0,0.0,0.0,0.0,0.0,20,src\plugin\urlfilter-regex\src\test\org\apache\nutch\urlfilter\regex\TestRegexURLFilter.java,0,0,0,0
org.apache.nutch.urlfilter.suffix.TestSuffixURLFilter, 0, 0, 0, 0, 0, 0, 0, 0, 0, 0, 0, 0, 0, 0,0.0,0.0,0.0,0.0,0.0,0.0,0.0,0.0,0.0,0.0,0.0,0.0,0.0,131,src\plugin\urlfilter-suffix\src\test\org\apache\nutch\urlfilter\suffix\TestSuffixURLFilter.java,0,0,0,0
org.apache.nutch.util.AbstractNutchTest, 0, 0, 0, 0, 0, 0, 0, 0, 0, 0, 0, 0, 0, 0,0.0,0.0,0.0,0.0,0.0,0.0,0.0,0.3333333333333333,0.0,0.0,0.0,0.0,0.0,22,src\test\org\apache\nutch\util\AbstractNutchTest.java,0,0,0,0
org.apache.nutch.util.CommandRunner, 0, 0, 0, 1, 0, 0, 0, 0, 0, 0, 0, 0, 0, 1,0.0,0.0,0.0,0.0,0.0,0.0,0.0,0.0,0.0,0.0,0.0,0.0,0.0,197,src\java\org\apache\nutch\util\CommandRunner.java,0,0,0,0
org.apache.nutch.util.CrawlTestUtil, 0, 0, 0, 0, 0, 0, 0, 0, 0, 0, 0, 0, 0, 0,0.0,0.0,0.0,0.0,0.0,0.0,0.0,0.0,0.0,0.0,0.0,0.0,0.0,62,src\test\org\apache\nutch\util\CrawlTestUtil.java,0,0,0,0
org.apache.nutch.util.DeflateUtils, 0, 0, 0, 0, 0, 0, 0, 0, 0, 0, 0, 0, 0, 0,0.0,0.0,0.0,0.0,0.0,0.0,0.0,0.0,0.0,0.0,0.0,0.0,0.0,69,src\java\org\apache\nutch\util\DeflateUtils.java,0,0,0,0
org.apache.nutch.util.DomUtil, 0, 0, 0, 0, 0, 0, 0, 0, 0, 0, 0, 0, 0, 0,0.0,0.0,0.0,0.0,0.0,0.0,0.0,0.0,0.0,0.0,0.0,0.0,0.0,45,src\java\org\apache\nutch\util\DomUtil.java,0,0,0,0
org.apache.nutch.util.FSUtils, 0, 0, 0, 0, 0, 0, 0, 0, 0, 0, 0, 0, 0, 0,0.0,0.0,0.0,0.0,0.0,0.0,0.0,0.0,0.0,0.0,0.0,0.0,0.0,36,src\java\org\apache\nutch\util\FSUtils.java,0,0,0,0
org.apache.nutch.util.GZIPUtils, 0, 0, 0, 0, 0, 0, 0, 0, 0, 0, 0, 0, 0, 0,0.0,0.0,0.0,0.0,0.0,0.0,0.0,0.0,0.0,0.0,0.0,0.0,0.0,76,src\java\org\apache\nutch\util\GZIPUtils.java,0,0,0,0
org.apache.nutch.util.GenericWritableConfigurable, 0, 0, 0, 0, 0, 0, 0, 0, 0, 0, 0, 0, 0, 0,0.0,0.0,0.0,0.0,0.0,0.0,0.0,0.0,0.0,0.0,0.0,0.0,0.0,25,src\java\org\apache\nutch\util\GenericWritableConfigurable.java,0,0,0,0
org.apache.nutch.util.HadoopFSUtil, 0, 0, 0, 0, 0, 0, 0, 0, 0, 0, 0, 0, 0, 0,0.0,0.0,0.0,0.0,0.0,0.0,0.0,0.0,0.0,0.0,0.0,0.0,0.0,33,src\java\org\apache\nutch\util\HadoopFSUtil.java,0,0,0,0
org.apache.nutch.util.IdentityPageReducer, 0, 0, 0, 0, 0, 0, 0, 0, 0, 0, 0, 0, 0, 0,0.0,0.0,0.0,0.0,0.0,0.0,0.0,0.0,0.0,0.0,0.0,0.0,0.0,10,src\java\org\apache\nutch\util\IdentityPageReducer.java,0,0,0,0
org.apache.nutch.util.LockUtil, 0, 0, 0, 0, 0, 0, 0, 0, 0, 0, 0, 0, 0, 0,0.0,0.0,0.0,0.0,0.0,0.0,0.0,0.0,0.0,0.0,0.0,0.0,0.0,19,src\java\org\apache\nutch\util\LockUtil.java,0,0,0,0
org.apache.nutch.util.MimeUtil, 0, 0, 0, 0, 0, 0, 0, 0, 0, 0, 0, 0, 0, 0,0.1,0.0,0.0,0.0,0.0,0.0,0.0,0.1,0.0,0.0,0.0,0.0,0.0,113,src\java\org\apache\nutch\util\MimeUtil.java,0,0,0,0
org.apache.nutch.util.NodeWalker, 0, 0, 0, 0, 0, 0, 0, 0, 0, 0, 0, 0, 0, 0,0.0,0.0,0.0,0.0,0.0,0.0,0.0,0.0,0.0,0.0,0.0,0.0,0.0,33,src\java\org\apache\nutch\util\NodeWalker.java,0,0,0,0
org.apache.nutch.util.NutchJob, 0, 0, 0, 0, 0, 0, 0, 0, 0, 0, 0, 0, 0, 0,0.0,0.0,0.0,0.0,0.0,0.0,0.0,0.0,0.0,0.0,0.0,0.0,0.0,36,src\java\org\apache\nutch\util\NutchJob.java,0,0,0,0
org.apache.nutch.util.NutchJobConf, 0, 0, 0, 0, 0, 0, 0, 0, 0, 0, 0, 0, 0, 0,0.0,0.0,0.0,0.0,0.0,0.0,0.0,0.0,0.0,0.0,0.0,0.0,0.0,5,src\java\org\apache\nutch\util\NutchJobConf.java,0,0,0,0
org.apache.nutch.util.Pair, 0, 0, 0, 0, 0, 0, 0, 0, 0, 0, 0, 0, 0, 0,0.0,0.0,0.0,0.0,0.0,0.0,0.0,0.0,0.0,0.0,0.0,0.0,0.0,15,src\java\org\apache\nutch\util\Pair.java,0,0,0,0
org.apache.nutch.util.PrefixStringMatcher, 0, 0, 0, 0, 0, 0, 0, 0, 0, 0, 0, 0, 0, 0,0.0,0.0,0.0,0.0,0.0,0.0,0.0,0.0,0.0,0.0,0.0,0.0,0.0,62,src\java\org\apache\nutch\util\PrefixStringMatcher.java,0,0,0,0
org.apache.nutch.util.SuffixStringMatcher, 0, 0, 0, 0, 0, 0, 0, 0, 0, 0, 0, 0, 0, 0,0.0,0.0,0.0,0.0,0.0,0.0,0.0,0.0,0.0,0.0,0.0,0.0,0.0,62,src\java\org\apache\nutch\util\SuffixStringMatcher.java,0,0,0,0
org.apache.nutch.util.TestEncodingDetector, 0, 0, 0, 0, 0, 0, 0, 0, 0, 0, 0, 0, 0, 0,0.0,0.0,0.0,0.0,0.0,0.0,0.0,0.0,0.0,0.0,0.0,0.0,0.0,53,src\test\org\apache\nutch\util\TestEncodingDetector.java,0,0,0,0
org.apache.nutch.util.TestGZIPUtils, 0, 0, 0, 0, 0, 0, 0, 0, 0, 0, 0, 0, 0, 0,0.0,0.0,0.0,0.0,0.0,0.0,0.0,0.0,0.0,0.0,0.0,0.0,0.0,188,src\test\org\apache\nutch\util\TestGZIPUtils.java,0,0,0,0
org.apache.nutch.util.TestPrefixStringMatcher, 0, 0, 0, 0, 0, 0, 0, 0, 0, 0, 0, 0, 0, 0,0.0,0.0,0.0,0.0,0.0,0.0,0.0,0.0,0.0,0.0,0.0,0.0,0.0,68,src\test\org\apache\nutch\util\TestPrefixStringMatcher.java,0,0,0,0
org.apache.nutch.util.TestStringUtil, 0, 0, 0, 0, 0, 0, 0, 0, 0, 0, 0, 0, 0, 0,0.0,0.0,0.0,0.0,0.0,0.0,0.0,0.0,0.0,0.0,0.0,0.0,0.0,26,src\test\org\apache\nutch\util\TestStringUtil.java,0,0,0,0
org.apache.nutch.util.TestSuffixStringMatcher, 0, 0, 0, 0, 0, 0, 0, 0, 0, 0, 0, 0, 0, 0,0.0,0.0,0.0,0.0,0.0,0.0,0.0,0.0,0.0,0.0,0.0,0.0,0.0,68,src\test\org\apache\nutch\util\TestSuffixStringMatcher.java,0,0,0,0
org.apache.nutch.util.TestTableUtil, 0, 0, 0, 1, 0, 0, 0, 0, 0, 0, 0, 0, 0, 1,0.0,0.0,0.0,0.0,0.0,0.0,0.0,0.0,0.0,0.0,0.0,0.0,0.0,46,src\test\org\apache\nutch\util\TestTableUtil.java,0,0,0,0
org.apache.nutch.util.TestURLUtil, 0, 0, 0, 0, 0, 0, 0, 0, 0, 0, 0, 0, 0, 0,0.0,0.0,0.0,0.0,0.0,0.0,0.0,0.0,0.0,0.0,0.0,0.0,0.0,114,src\test\org\apache\nutch\util\TestURLUtil.java,0,0,0,0
org.apache.nutch.util.TrieStringMatcher, 0, 0, 0, 0, 0, 0, 0, 0, 0, 0, 0, 0, 0, 0,0.0,0.0,0.0,0.0,0.0,0.0,0.0,0.0,0.0,0.0,0.0,0.0,0.0,99,src\java\org\apache\nutch\util\TrieStringMatcher.java,0,0,0,0
org.apache.nutch.util.WebPageWritable, 0, 0, 0, 0, 0, 0, 0, 0, 0, 0, 0, 0, 0, 0,0.0,0.0,0.0,0.0,0.0,0.0,0.0,0.0,0.0,0.0,0.0,0.0,0.0,25,src\java\org\apache\nutch\util\WebPageWritable.java,0,0,0,0
org.apache.nutch.util.WritableTestUtils, 0, 0, 0, 0, 0, 0, 0, 0, 0, 0, 0, 0, 0, 0,0.0,0.0,0.0,0.0,0.0,0.0,0.0,0.0,0.0,0.0,0.0,0.0,0.0,22,src\test\org\apache\nutch\util\WritableTestUtils.java,0,0,0,0
org.apache.nutch.util.domain.DomainStatistics, 0, 0, 0, 0, 0, 0, 0, 0, 0, 0, 0, 0, 0, 0,0.0,0.0,0.0,0.0,0.0,0.0,0.0,0.5,0.0,0.0,0.0,0.0,0.0,142,src\java\org\apache\nutch\util\domain\DomainStatistics.java,0,0,0,0
org.apache.nutch.util.domain.DomainSuffix, 0, 0, 0, 0, 0, 0, 0, 0, 0, 0, 0, 0, 0, 0,0.0,0.0,0.0,0.0,0.0,0.0,0.0,0.0,0.0,0.0,0.0,0.0,0.0,31,src\java\org\apache\nutch\util\domain\DomainSuffix.java,0,0,0,0
org.apache.nutch.util.domain.DomainSuffixesReader, 0, 0, 0, 0, 0, 0, 0, 0, 0, 0, 0, 0, 0, 0,0.0,0.0,0.0,0.0,0.0,0.0,0.0,0.0,0.0,0.0,0.0,0.0,0.0,92,src\java\org\apache\nutch\util\domain\DomainSuffixesReader.java,0,0,0,0
org.apache.nutch.util.domain.TopLevelDomain, 0, 0, 0, 0, 0, 0, 0, 0, 0, 0, 0, 0, 0, 0,0.0,0.0,0.0,0.0,0.0,0.0,0.0,0.0,0.0,0.0,0.0,0.0,0.0,20,src\java\org\apache\nutch\util\domain\TopLevelDomain.java,0,0,0,0
org.creativecommons.nutch.CCIndexingFilter, 1, 0, 1, 0, 0, 0, 0, 0, 0, 0, 0, 0, 0, 2,0.0,0.0,0.0,0.0,0.0,0.0,0.0,0.0,0.0,0.0,0.0,0.0,0.0,67,src\plugin\creativecommons\src\java\org\creativecommons\nutch\CCIndexingFilter.java,0,1,3,7
org.creativecommons.nutch.TestCCParseFilter, 0, 0, 0, 0, 0, 0, 0, 1, 0, 0, 0, 0, 0, 1,0.0,0.0,0.0,0.0,0.0,0.0,0.0,0.0,0.0,0.0,0.0,0.0,0.0,43,src\plugin\creativecommons\src\test\org\creativecommons\nutch\TestCCParseFilter.java,3,1,3,10
,0.0,0.0,0.0,0.0,0.0,0.0,0.0,0.0,0.0,0.0,0.0,0.0,0.0,43,src\java\org\apache\nutch\api\impl\RAMConfManager.java,0,0,0,0
