ClassName,AntiSingleton,Blob,ClassDataShouldBePrivate,ComplexClass,LargeClass,LazyClass,LongMethod,LongParameterList,MessageChains,RefusedParentBequest,SpaghettiCode,SpeculativeGenerality,SwissArmyKnife,NumOfAPs,AntiSingleton,Blob,ClassDataShouldBePrivate,ComplexClass,LargeClass,LazyClass,LongMethod,LongParameterList,MessageChains,RefusedParentBequest,SpaghettiCode,SpeculativeGenerality,SwissArmyKnife,LOC,name,deleted,added,changed,all
com.yammer.metrics.core.NoOpCounter, 0, 0, 0, 0, 0, 0, 0, 1, 0, 0, 0, 0, 0, 1,0.0,0.0,0.0,0.0,0.0,0.0,0.0,0.0,0.0,0.0,0.0,0.0,0.0,20,giraph-core\src\main\java\com\yammer\metrics\core\NoOpCounter.java,0,0,0,0
com.yammer.metrics.core.NoOpExecutorService, 0, 0, 0, 0, 0, 0, 0, 1, 0, 0, 0, 0, 0, 1,0.0,0.0,0.0,0.0,0.0,0.0,0.0,0.0,0.0,0.0,0.0,0.0,0.0,82,giraph-core\src\main\java\com\yammer\metrics\core\NoOpExecutorService.java,0,0,0,0
com.yammer.metrics.core.NoOpGuage, 0, 0, 0, 0, 0, 0, 0, 0, 0, 0, 0, 0, 0, 0,0.0,0.0,0.0,0.0,0.0,0.0,0.0,0.0,0.0,0.0,0.0,0.0,0.0,6,giraph-core\src\main\java\com\yammer\metrics\core\NoOpGuage.java,0,0,0,0
com.yammer.metrics.core.NoOpHistogram, 0, 0, 0, 0, 0, 0, 0, 1, 0, 0, 0, 0, 0, 1,0.0,0.0,0.0,0.0,0.0,0.0,0.0,0.0,0.0,0.0,0.0,0.0,0.0,28,giraph-core\src\main\java\com\yammer\metrics\core\NoOpHistogram.java,0,0,0,0
com.yammer.metrics.core.NoOpMeter, 0, 0, 0, 0, 0, 0, 0, 1, 0, 0, 0, 0, 0, 1,0.0,0.0,0.0,0.0,0.0,0.0,0.0,0.0,0.0,0.0,0.0,0.0,0.0,29,giraph-core\src\main\java\com\yammer\metrics\core\NoOpMeter.java,0,0,0,0
com.yammer.metrics.core.NoOpTimer, 0, 0, 0, 1, 0, 0, 0, 1, 0, 0, 0, 0, 0, 2,0.0,0.0,0.0,0.0,0.0,0.0,0.0,0.0,0.0,0.0,0.0,0.0,0.0,42,giraph-core\src\main\java\com\yammer\metrics\core\NoOpTimer.java,0,0,0,0
org.apache.giraph.GiraphRunner, 0, 0, 0, 0, 0, 0, 0, 0, 0, 0, 0, 0, 0, 0,0.0,0.0,0.0,0.0,0.0,0.0,0.0,0.0,0.0,0.0,0.0,0.0,0.0,51,giraph-core\src\main\java\org\apache\giraph\GiraphRunner.java,0,0,1,2
org.apache.giraph.TestAutoCheckpoint, 0, 0, 0, 0, 0, 0, 0, 0, 0, 0, 0, 0, 0, 0,0.0,0.0,0.0,0.0,0.0,0.0,0.0,0.0,0.0,0.0,0.0,0.0,0.0,37,giraph-examples\src\test\java\org\apache\giraph\TestAutoCheckpoint.java,0,0,8,16
org.apache.giraph.TestGraphPartitioner, 0, 0, 0, 0, 0, 0, 0, 0, 0, 0, 0, 0, 0, 0,0.0,0.0,0.0,0.0,0.0,0.0,0.0,0.0,0.0,0.0,0.0,0.0,0.0,125,giraph-examples\src\test\java\org\apache\giraph\TestGraphPartitioner.java,2,2,29,62
org.apache.giraph.TestManualCheckpoint, 0, 0, 0, 0, 0, 0, 0, 0, 0, 0, 0, 0, 0, 0,0.0,0.0,0.0,0.0,0.0,0.0,0.0,0.0,0.0,0.0,0.0,0.0,0.0,62,giraph-examples\src\test\java\org\apache\giraph\TestManualCheckpoint.java,0,0,14,28
org.apache.giraph.TestMaxSuperstep, 0, 0, 0, 0, 0, 0, 0, 0, 0, 0, 0, 0, 0, 0,0.0,0.0,0.0,0.3333333333333333,0.0,0.0,0.0,0.0,0.0,0.0,0.0,0.0,0.0,28,giraph-examples\src\test\java\org\apache\giraph\TestMaxSuperstep.java,0,3,6,15
org.apache.giraph.TestMutateGraph, 0, 0, 0, 0, 0, 0, 0, 0, 0, 0, 0, 0, 0, 0,0.0,0.0,0.0,0.0,0.0,0.0,0.0,0.0,0.0,0.0,0.0,0.0,0.0,18,giraph-examples\src\test\java\org\apache\giraph\TestMutateGraph.java,0,0,5,10
org.apache.giraph.TestNotEnoughMapTasks, 0, 0, 0, 0, 0, 0, 0, 0, 0, 0, 0, 0, 0, 0,0.0,0.0,0.0,0.0,0.0,0.0,0.0,0.0,0.0,0.0,0.0,0.0,0.0,28,giraph-examples\src\test\java\org\apache\giraph\TestNotEnoughMapTasks.java,0,0,5,10
org.apache.giraph.TestPartitionContext, 0, 0, 0, 0, 0, 0, 0, 0, 0, 0, 0, 0, 0, 0,0.0,0.0,0.0,0.0,0.0,0.0,0.0,0.0,0.0,0.0,0.0,0.0,0.0,31,giraph-examples\src\test\java\org\apache\giraph\TestPartitionContext.java,41,0,0,41
org.apache.giraph.aggregators.Aggregator, 0, 0, 0, 0, 0, 0, 0, 0, 0, 0, 0, 0, 0, 0,0.0,0.0,0.0,0.0,0.0,0.0,0.0,0.0,0.0,0.0,0.0,0.0,0.0,31,giraph-core\src\main\java\org\apache\giraph\aggregators\Aggregator.java,0,0,0,0
org.apache.giraph.aggregators.AggregatorUsage, 0, 0, 0, 0, 0, 0, 0, 0, 0, 0, 0, 0, 0, 0,0.0,0.0,0.0,0.0,0.0,0.0,0.0,0.0,0.0,0.0,0.0,0.0,0.0,31,giraph-core\src\main\java\org\apache\giraph\aggregators\AggregatorUsage.java,0,0,0,0
org.apache.giraph.aggregators.AggregatorWrapper, 0, 0, 0, 0, 0, 0, 0, 0, 0, 0, 0, 0, 0, 0,0.0,0.0,0.0,0.0,0.0,0.0,0.0,0.0,0.0,0.0,0.0,0.0,0.0,47,giraph-core\src\main\java\org\apache\giraph\aggregators\AggregatorWrapper.java,49,0,0,49
org.apache.giraph.aggregators.BasicAggregator, 0, 0, 0, 0, 0, 0, 0, 0, 0, 0, 0, 0, 0, 0,0.0,0.0,0.0,0.0,0.0,0.0,0.0,0.0,0.0,0.0,0.0,0.0,0.0,19,giraph-core\src\main\java\org\apache\giraph\aggregators\BasicAggregator.java,0,3,0,3
org.apache.giraph.aggregators.BooleanAndAggregator, 0, 0, 0, 0, 0, 0, 0, 0, 0, 0, 0, 0, 0, 0,0.0,0.0,0.0,0.0,0.0,0.0,0.0,0.0,0.0,0.0,0.0,0.0,0.0,10,giraph-core\src\main\java\org\apache\giraph\aggregators\BooleanAndAggregator.java,0,0,0,0
org.apache.giraph.aggregators.BooleanOrAggregator, 0, 0, 0, 0, 0, 0, 0, 0, 0, 0, 0, 0, 0, 0,0.0,0.0,0.0,0.0,0.0,0.0,0.0,0.0,0.0,0.0,0.0,0.0,0.0,10,giraph-core\src\main\java\org\apache\giraph\aggregators\BooleanOrAggregator.java,0,0,0,0
org.apache.giraph.aggregators.BooleanOverwriteAggregator, 0, 0, 0, 0, 0, 0, 0, 0, 0, 0, 0, 0, 0, 0,0.0,0.0,0.0,0.0,0.0,0.0,0.0,0.0,0.0,0.0,0.0,0.0,0.0,11,giraph-core\src\main\java\org\apache\giraph\aggregators\BooleanOverwriteAggregator.java,0,0,0,0
org.apache.giraph.aggregators.DoubleMaxAggregator, 0, 0, 0, 0, 0, 0, 0, 0, 0, 0, 0, 0, 0, 0,0.0,0.0,0.0,0.0,0.0,0.0,0.0,0.0,0.0,0.0,0.0,0.0,0.0,11,giraph-core\src\main\java\org\apache\giraph\aggregators\DoubleMaxAggregator.java,0,0,1,2
org.apache.giraph.aggregators.DoubleMinAggregator, 0, 0, 0, 0, 0, 0, 0, 0, 0, 0, 0, 0, 0, 0,0.0,0.0,0.0,0.0,0.0,0.0,0.0,0.0,0.0,0.0,0.0,0.0,0.0,11,giraph-core\src\main\java\org\apache\giraph\aggregators\DoubleMinAggregator.java,0,0,0,0
org.apache.giraph.aggregators.DoubleOverwriteAggregator, 0, 0, 0, 0, 0, 0, 0, 0, 0, 0, 0, 0, 0, 0,0.0,0.0,0.0,0.0,0.0,0.0,0.0,0.0,0.0,0.0,0.0,0.0,0.0,11,giraph-core\src\main\java\org\apache\giraph\aggregators\DoubleOverwriteAggregator.java,0,0,0,0
org.apache.giraph.aggregators.DoubleProductAggregator, 0, 0, 0, 0, 0, 0, 0, 0, 0, 0, 0, 0, 0, 0,0.0,0.0,0.0,0.0,0.0,0.0,0.0,0.0,0.0,0.0,0.0,0.0,0.0,10,giraph-core\src\main\java\org\apache\giraph\aggregators\DoubleProductAggregator.java,0,0,0,0
org.apache.giraph.aggregators.DoubleSumAggregator, 0, 0, 0, 0, 0, 0, 0, 0, 0, 0, 0, 0, 0, 0,0.0,0.0,0.0,0.0,0.0,0.0,0.0,0.0,0.0,0.0,0.0,0.0,0.0,10,giraph-core\src\main\java\org\apache\giraph\aggregators\DoubleSumAggregator.java,0,0,0,0
org.apache.giraph.aggregators.FloatMaxAggregator, 0, 0, 0, 0, 0, 0, 0, 0, 0, 0, 0, 0, 0, 0,0.0,0.0,0.0,0.0,0.0,0.0,0.0,0.0,0.0,0.0,0.0,0.0,0.0,11,giraph-core\src\main\java\org\apache\giraph\aggregators\FloatMaxAggregator.java,0,0,1,2
org.apache.giraph.aggregators.FloatMinAggregator, 0, 0, 0, 0, 0, 0, 0, 0, 0, 0, 0, 0, 0, 0,0.0,0.0,0.0,0.0,0.0,0.0,0.0,0.0,0.0,0.0,0.0,0.0,0.0,11,giraph-core\src\main\java\org\apache\giraph\aggregators\FloatMinAggregator.java,0,0,0,0
org.apache.giraph.aggregators.FloatOverwriteAggregator, 0, 0, 0, 0, 0, 0, 0, 0, 0, 0, 0, 0, 0, 0,0.0,0.0,0.0,0.0,0.0,0.0,0.0,0.0,0.0,0.0,0.0,0.0,0.0,10,giraph-core\src\main\java\org\apache\giraph\aggregators\FloatOverwriteAggregator.java,0,0,0,0
org.apache.giraph.aggregators.FloatProductAggregator, 0, 0, 0, 0, 0, 0, 0, 0, 0, 0, 0, 0, 0, 0,0.0,0.0,0.0,0.0,0.0,0.0,0.0,0.0,0.0,0.0,0.0,0.0,0.0,10,giraph-core\src\main\java\org\apache\giraph\aggregators\FloatProductAggregator.java,0,0,0,0
org.apache.giraph.aggregators.FloatSumAggregator, 0, 0, 0, 0, 0, 0, 0, 0, 0, 0, 0, 0, 0, 0,0.0,0.0,0.0,0.0,0.0,0.0,0.0,0.0,0.0,0.0,0.0,0.0,0.0,10,giraph-core\src\main\java\org\apache\giraph\aggregators\FloatSumAggregator.java,0,0,0,0
org.apache.giraph.aggregators.IntMaxAggregator, 0, 0, 0, 0, 0, 0, 0, 0, 0, 0, 0, 0, 0, 0,0.0,0.0,0.0,0.0,0.0,0.0,0.0,0.0,0.0,0.0,0.0,0.0,0.0,11,giraph-core\src\main\java\org\apache\giraph\aggregators\IntMaxAggregator.java,0,0,0,0
org.apache.giraph.aggregators.IntMinAggregator, 0, 0, 0, 0, 0, 0, 0, 0, 0, 0, 0, 0, 0, 0,0.0,0.0,0.0,0.0,0.0,0.0,0.0,0.0,0.0,0.0,0.0,0.0,0.0,11,giraph-core\src\main\java\org\apache\giraph\aggregators\IntMinAggregator.java,0,0,0,0
org.apache.giraph.aggregators.IntOverwriteAggregator, 0, 0, 0, 0, 0, 0, 0, 0, 0, 0, 0, 0, 0, 0,0.0,0.0,0.0,0.0,0.0,0.0,0.0,0.0,0.0,0.0,0.0,0.0,0.0,10,giraph-core\src\main\java\org\apache\giraph\aggregators\IntOverwriteAggregator.java,0,0,0,0
org.apache.giraph.aggregators.IntProductAggregator, 0, 0, 0, 0, 0, 0, 0, 0, 0, 0, 0, 0, 0, 0,0.0,0.0,0.0,0.0,0.0,0.0,0.0,0.0,0.0,0.0,0.0,0.0,0.0,10,giraph-core\src\main\java\org\apache\giraph\aggregators\IntProductAggregator.java,0,0,0,0
org.apache.giraph.aggregators.IntSumAggregator, 0, 0, 0, 0, 0, 0, 0, 0, 0, 0, 0, 0, 0, 0,0.0,0.0,0.0,0.0,0.0,0.0,0.0,0.0,0.0,0.0,0.0,0.0,0.0,10,giraph-core\src\main\java\org\apache\giraph\aggregators\IntSumAggregator.java,0,0,0,0
org.apache.giraph.aggregators.LongMaxAggregator, 0, 0, 0, 0, 0, 0, 0, 0, 0, 0, 0, 0, 0, 0,0.0,0.0,0.0,0.0,0.0,0.0,0.0,0.0,0.0,0.0,0.0,0.0,0.0,11,giraph-core\src\main\java\org\apache\giraph\aggregators\LongMaxAggregator.java,0,0,0,0
org.apache.giraph.aggregators.LongMinAggregator, 0, 0, 0, 0, 0, 0, 0, 0, 0, 0, 0, 0, 0, 0,0.0,0.0,0.0,0.0,0.0,0.0,0.0,0.0,0.0,0.0,0.0,0.0,0.0,11,giraph-core\src\main\java\org\apache\giraph\aggregators\LongMinAggregator.java,0,0,0,0
org.apache.giraph.aggregators.LongOverwriteAggregator, 0, 0, 0, 0, 0, 0, 0, 0, 0, 0, 0, 0, 0, 0,0.0,0.0,0.0,0.0,0.0,0.0,0.0,0.0,0.0,0.0,0.0,0.0,0.0,10,giraph-core\src\main\java\org\apache\giraph\aggregators\LongOverwriteAggregator.java,0,0,0,0
org.apache.giraph.aggregators.LongProductAggregator, 0, 0, 0, 0, 0, 0, 0, 0, 0, 0, 0, 0, 0, 0,0.0,0.0,0.0,0.0,0.0,0.0,0.0,0.0,0.0,0.0,0.0,0.0,0.0,10,giraph-core\src\main\java\org\apache\giraph\aggregators\LongProductAggregator.java,0,0,0,0
org.apache.giraph.aggregators.LongSumAggregator, 0, 0, 0, 0, 0, 0, 0, 0, 0, 0, 0, 0, 0, 0,0.0,0.0,0.0,0.0,0.0,0.0,0.0,0.0,0.0,0.0,0.0,0.0,0.0,10,giraph-core\src\main\java\org\apache\giraph\aggregators\LongSumAggregator.java,0,0,0,0
org.apache.giraph.aggregators.TestBooleanAggregators, 0, 0, 0, 0, 0, 0, 0, 0, 0, 0, 0, 0, 0, 0,0.0,0.0,0.0,0.0,0.0,0.0,0.0,0.0,0.0,0.0,0.0,0.0,0.0,40,giraph-core\src\test\java\org\apache\giraph\aggregators\TestBooleanAggregators.java,0,0,0,0
org.apache.giraph.aggregators.TestDoubleAggregators, 0, 0, 0, 0, 0, 0, 0, 0, 0, 0, 0, 0, 0, 0,0.0,0.0,0.0,0.0,0.0,0.0,0.0,0.0,0.0,0.0,0.0,0.0,0.0,58,giraph-core\src\test\java\org\apache\giraph\aggregators\TestDoubleAggregators.java,0,0,0,0
org.apache.giraph.aggregators.TestFloatAggregators, 0, 0, 0, 0, 0, 0, 0, 0, 0, 0, 0, 0, 0, 0,0.0,0.0,0.0,0.0,0.0,0.0,0.0,0.0,0.0,0.0,0.0,0.0,0.0,58,giraph-core\src\test\java\org\apache\giraph\aggregators\TestFloatAggregators.java,0,0,0,0
org.apache.giraph.aggregators.TestIntAggregators, 0, 0, 0, 0, 0, 0, 0, 0, 0, 0, 0, 0, 0, 0,0.0,0.0,0.0,0.0,0.0,0.0,0.0,0.0,0.0,0.0,0.0,0.0,0.0,58,giraph-core\src\test\java\org\apache\giraph\aggregators\TestIntAggregators.java,0,0,0,0
org.apache.giraph.aggregators.TestLongAggregators, 0, 0, 0, 0, 0, 0, 0, 0, 0, 0, 0, 0, 0, 0,0.0,0.0,0.0,0.0,0.0,0.0,0.0,0.0,0.0,0.0,0.0,0.0,0.0,58,giraph-core\src\test\java\org\apache\giraph\aggregators\TestLongAggregators.java,0,0,0,0
org.apache.giraph.aggregators.TextAppendAggregator, 0, 0, 0, 0, 0, 0, 0, 0, 0, 0, 0, 0, 0, 0,0.0,0.0,0.0,0.0,0.0,0.0,0.0,0.0,0.0,0.0,0.0,0.0,0.0,11,giraph-core\src\main\java\org\apache\giraph\aggregators\TextAppendAggregator.java,0,0,0,0
org.apache.giraph.benchmark.AggregatorsBenchmark, 0, 0, 0, 0, 0, 0, 0, 0, 0, 0, 0, 0, 0, 0,0.0,0.0,0.0,0.5,0.0,0.0,0.0,0.5,0.0,0.0,0.0,0.0,0.0,122,giraph-core\src\main\java\org\apache\giraph\benchmark\AggregatorsBenchmark.java,2,9,6,23
org.apache.giraph.benchmark.BenchmarkOption, 0, 0, 0, 1, 0, 0, 0, 1, 0, 0, 0, 0, 0, 2,0.0,0.0,0.0,0.16666666666666666,0.0,0.0,0.0,0.0,0.0,0.0,0.0,0.0,0.0,78,giraph-core\src\main\java\org\apache\giraph\benchmark\BenchmarkOption.java,0,5,0,5
org.apache.giraph.benchmark.GiraphBenchmark, 0, 0, 0, 0, 0, 0, 0, 0, 0, 0, 0, 0, 0, 0,0.0,0.0,0.0,0.2857142857142857,0.0,0.0,0.0,0.14285714285714285,0.0,0.0,0.0,0.0,0.0,55,giraph-core\src\main\java\org\apache\giraph\benchmark\GiraphBenchmark.java,0,4,2,8
org.apache.giraph.benchmark.PageRankBenchmark, 0, 0, 0, 0, 0, 0, 0, 0, 0, 0, 0, 0, 0, 0,0.0,0.0,0.0,0.5,0.0,0.0,0.0,0.5,0.0,0.0,0.0,0.0,0.0,29,giraph-core\src\main\java\org\apache\giraph\benchmark\PageRankBenchmark.java,0,29,5,39
org.apache.giraph.benchmark.PageRankVertex, 0, 0, 0, 0, 0, 0, 0, 0, 0, 0, 0, 0, 0, 0,0.0,0.0,0.0,0.0,0.0,0.0,0.0,0.0,0.0,0.0,0.0,0.0,0.0,21,giraph-core\src\main\java\org\apache\giraph\benchmark\PageRankVertex.java,27,0,0,27
org.apache.giraph.benchmark.RandomMessageBenchmark, 0, 0, 0, 1, 0, 0, 0, 0, 0, 0, 0, 0, 0, 1,0.0,0.0,0.0,0.5,0.0,0.0,0.0,0.5,0.0,0.0,0.0,0.0,0.0,198,giraph-core\src\main\java\org\apache\giraph\benchmark\RandomMessageBenchmark.java,1,4,9,23
org.apache.giraph.benchmark.ShortestPathsBenchmark, 0, 0, 0, 0, 0, 0, 0, 0, 0, 0, 0, 0, 0, 0,0.0,0.0,0.0,0.5,0.0,0.0,0.0,0.5,0.0,0.0,0.0,0.0,0.0,36,giraph-core\src\main\java\org\apache\giraph\benchmark\ShortestPathsBenchmark.java,0,0,4,8
org.apache.giraph.benchmark.ShortestPathsVertex, 0, 0, 0, 0, 0, 0, 0, 0, 0, 0, 0, 0, 0, 0,0.0,0.0,0.0,0.0,0.0,0.0,0.0,0.0,0.0,0.0,0.0,0.0,0.0,28,giraph-core\src\main\java\org\apache\giraph\benchmark\ShortestPathsVertex.java,34,0,0,34
org.apache.giraph.benchmark.WeightedPageRankBenchmark, 0, 0, 0, 0, 0, 0, 0, 0, 0, 0, 0, 0, 0, 0,0.0,0.0,0.0,0.5,0.0,0.0,0.0,0.5,0.0,0.0,0.0,0.0,0.0,94,giraph-core\src\main\java\org\apache\giraph\benchmark\WeightedPageRankBenchmark.java,1,3,8,20
org.apache.giraph.benchmark.WeightedPageRankVertex, 0, 0, 0, 0, 0, 0, 0, 0, 0, 0, 0, 0, 0, 0,0.0,0.0,0.0,0.0,0.0,0.0,0.0,0.0,0.0,0.0,0.0,0.0,0.0,31,giraph-core\src\main\java\org\apache\giraph\benchmark\WeightedPageRankVertex.java,38,0,0,38
org.apache.giraph.bsp.BspInputFormat, 0, 0, 0, 0, 0, 0, 0, 0, 0, 0, 0, 0, 0, 0,0.0,0.0,0.0,0.0,0.0,0.0,0.0,0.0,0.0,0.0,0.0,0.0,0.0,41,giraph-core\src\main\java\org\apache\giraph\bsp\BspInputFormat.java,0,0,0,0
org.apache.giraph.bsp.BspInputSplit, 0, 0, 0, 0, 0, 0, 0, 0, 0, 0, 0, 0, 0, 0,0.0,0.0,0.0,0.0,0.0,0.0,0.0,0.0,0.0,0.0,0.0,0.0,0.0,38,giraph-core\src\main\java\org\apache\giraph\bsp\BspInputSplit.java,0,0,0,0
org.apache.giraph.bsp.BspOutputFormat, 0, 0, 0, 0, 0, 0, 0, 0, 0, 0, 0, 0, 0, 0,0.0,0.0,0.0,0.5,0.0,0.0,0.0,0.5,0.0,0.0,0.0,0.0,0.0,32,giraph-core\src\main\java\org\apache\giraph\bsp\BspOutputFormat.java,0,9,4,17
org.apache.giraph.bsp.BspRecordReader, 0, 0, 0, 0, 0, 0, 0, 0, 0, 0, 0, 0, 0, 0,0.0,0.0,0.0,0.0,0.0,0.0,0.0,0.0,0.0,0.0,0.0,0.0,0.0,33,giraph-core\src\main\java\org\apache\giraph\bsp\BspRecordReader.java,0,0,0,0
org.apache.giraph.bsp.BspRecordWriter, 0, 0, 0, 0, 0, 0, 0, 0, 0, 0, 0, 0, 0, 0,0.0,0.0,0.0,0.0,0.0,0.0,0.0,0.0,0.0,0.0,0.0,0.0,0.0,13,giraph-core\src\main\java\org\apache\giraph\bsp\BspRecordWriter.java,0,0,0,0
org.apache.giraph.bsp.CentralizedService, 0, 0, 0, 0, 0, 0, 0, 0, 0, 0, 0, 0, 0, 0,0.0,0.0,0.0,0.0,0.0,0.0,0.0,0.0,0.0,0.0,0.0,0.0,0.0,13,giraph-core\src\main\java\org\apache\giraph\bsp\CentralizedService.java,1,2,1,5
org.apache.giraph.bsp.CentralizedServiceMaster, 0, 0, 0, 0, 0, 0, 0, 0, 0, 0, 0, 0, 0, 0,0.0,0.0,0.0,0.0,0.0,0.0,0.0,0.0,0.0,0.0,0.0,0.0,0.0,13,giraph-core\src\main\java\org\apache\giraph\bsp\CentralizedServiceMaster.java,1,9,4,18
org.apache.giraph.bsp.CentralizedServiceWorker, 0, 0, 0, 0, 0, 0, 0, 0, 0, 0, 0, 0, 0, 0,0.0,0.0,0.0,0.0,0.0,0.0,0.0,0.0,0.0,0.0,0.0,0.0,0.0,13,giraph-core\src\main\java\org\apache\giraph\bsp\CentralizedServiceWorker.java,2,3,10,25
org.apache.giraph.bsp.ImmutableOutputCommitter, 0, 0, 0, 0, 0, 0, 0, 0, 0, 0, 0, 0, 0, 0,0.0,0.0,0.0,0.0,0.0,0.0,0.0,0.0,0.0,0.0,0.0,0.0,0.0,22,giraph-core\src\main\java\org\apache\giraph\bsp\ImmutableOutputCommitter.java,0,0,1,2
org.apache.giraph.combiner.Combiner, 0, 0, 0, 0, 0, 0, 0, 1, 0, 0, 0, 0, 0, 1,0.0,0.0,0.0,0.14285714285714285,0.0,0.0,0.0,0.8571428571428571,0.0,0.0,0.0,0.0,0.0,6,giraph-core\src\main\java\org\apache\giraph\combiner\Combiner.java,9,0,0,9
org.apache.giraph.combiner.DoubleSumCombiner, 0, 0, 0, 0, 0, 0, 0, 1, 0, 0, 0, 0, 0, 1,0.0,0.0,0.0,0.0,0.0,0.0,0.0,1.0,0.0,0.0,0.0,0.0,0.0,12,giraph-core\src\main\java\org\apache\giraph\combiner\DoubleSumCombiner.java,15,0,0,15
org.apache.giraph.combiner.FloatSumCombiner, 0, 0, 0, 0, 0, 0, 0, 1, 0, 0, 0, 0, 0, 1,0.0,0.0,0.0,0.0,0.0,0.0,0.0,1.0,0.0,0.0,0.0,0.0,0.0,12,giraph-core\src\main\java\org\apache\giraph\combiner\FloatSumCombiner.java,15,0,0,15
org.apache.giraph.combiner.MinimumDoubleCombiner, 0, 0, 0, 0, 0, 0, 0, 1, 0, 0, 0, 0, 0, 1,0.0,0.0,0.0,0.0,0.0,0.0,0.0,1.0,0.0,0.0,0.0,0.0,0.0,14,giraph-core\src\main\java\org\apache\giraph\combiner\MinimumDoubleCombiner.java,17,0,0,17
org.apache.giraph.combiner.MinimumIntCombiner, 0, 0, 0, 0, 0, 0, 0, 1, 0, 0, 0, 0, 0, 1,0.0,0.0,0.0,0.0,0.0,0.0,0.0,1.0,0.0,0.0,0.0,0.0,0.0,14,giraph-core\src\main\java\org\apache\giraph\combiner\MinimumIntCombiner.java,16,0,0,16
org.apache.giraph.combiner.SimpleSumCombiner, 0, 0, 0, 0, 0, 0, 0, 1, 0, 0, 0, 0, 0, 1,0.0,0.0,0.0,0.0,0.0,0.0,0.0,1.0,0.0,0.0,0.0,0.0,0.0,12,giraph-core\src\main\java\org\apache\giraph\combiner\SimpleSumCombiner.java,15,0,0,15
org.apache.giraph.comm.ConnectionTest, 0, 0, 0, 0, 0, 0, 0, 0, 0, 0, 0, 0, 0, 0,0.0,0.0,0.0,0.4,0.0,0.0,0.0,0.6,0.0,0.0,0.0,0.0,0.0,98,giraph-core\src\test\java\org\apache\giraph\comm\ConnectionTest.java,7,7,14,42
org.apache.giraph.comm.IncreasingBitSetTest, 0, 0, 0, 0, 0, 0, 0, 0, 0, 0, 0, 0, 0, 0,0.0,0.0,0.0,0.0,0.0,0.0,0.0,0.0,0.0,0.0,0.0,0.0,0.0,53,giraph-core\src\test\java\org\apache\giraph\comm\IncreasingBitSetTest.java,0,0,0,0
org.apache.giraph.comm.MasterClient, 0, 0, 0, 0, 0, 0, 0, 0, 0, 0, 0, 0, 0, 0,0.0,0.0,0.0,0.0,0.0,0.0,0.0,0.0,0.0,0.0,0.0,0.0,0.0,53,giraph-core\src\main\java\org\apache\giraph\comm\MasterClient.java,2,1,4,11
org.apache.giraph.comm.MasterServer, 0, 0, 0, 0, 0, 0, 0, 0, 0, 0, 0, 0, 0, 0,0.0,0.0,0.0,0.0,0.0,0.0,0.0,0.0,0.0,0.0,0.0,0.0,0.0,53,giraph-core\src\main\java\org\apache\giraph\comm\MasterServer.java,0,0,0,0
org.apache.giraph.comm.RequestFailureTest, 0, 0, 0, 0, 0, 0, 0, 0, 0, 0, 0, 0, 0, 0,0.0,0.0,0.0,0.25,0.0,0.0,0.0,0.25,0.0,0.0,0.0,0.0,0.0,101,giraph-core\src\test\java\org\apache\giraph\comm\RequestFailureTest.java,6,8,10,34
org.apache.giraph.comm.SaslConnectionTest, 0, 0, 0, 0, 0, 0, 0, 0, 0, 0, 0, 0, 0, 0,0.0,0.0,0.0,0.3333333333333333,0.0,0.0,0.0,0.5,0.0,0.0,0.0,0.0,0.0,44,giraph-core\src\test\java\org\apache\giraph\comm\SaslConnectionTest.java,6,2,5,18
org.apache.giraph.comm.SendEdgeCache, 0, 0, 0, 0, 0, 0, 0, 1, 0, 0, 0, 0, 0, 1,0.0,0.0,0.0,0.16666666666666666,0.0,0.0,0.0,0.16666666666666666,0.0,0.0,0.0,0.0,0.0,24,giraph-core\src\main\java\org\apache\giraph\comm\SendEdgeCache.java,0,1,5,11
org.apache.giraph.comm.SendMessageCache, 0, 0, 0, 0, 0, 0, 0, 1, 0, 0, 0, 0, 0, 1,0.0,0.0,0.0,0.16666666666666666,0.0,0.0,0.0,0.16666666666666666,0.0,0.0,0.0,0.0,0.0,24,giraph-core\src\main\java\org\apache\giraph\comm\SendMessageCache.java,0,104,7,118
org.apache.giraph.comm.WorkerClient, 0, 0, 0, 0, 0, 0, 0, 0, 0, 0, 0, 0, 0, 0,0.0,0.0,0.0,0.0,0.0,0.0,0.0,0.0,0.0,0.0,0.0,0.0,0.0,24,giraph-core\src\main\java\org\apache\giraph\comm\WorkerClient.java,0,0,1,2
org.apache.giraph.comm.WorkerClientRequestProcessor, 0, 0, 0, 0, 0, 0, 0, 0, 0, 0, 0, 0, 0, 0,0.0,0.0,0.0,0.0,0.0,0.0,0.0,0.0,0.0,0.0,0.0,0.0,0.0,24,giraph-core\src\main\java\org\apache\giraph\comm\WorkerClientRequestProcessor.java,1,5,6,18
org.apache.giraph.comm.WorkerServer, 0, 0, 0, 0, 0, 0, 0, 0, 0, 0, 0, 0, 0, 0,0.0,0.0,0.0,0.0,0.0,0.0,0.0,0.0,0.0,0.0,0.0,0.0,0.0,24,giraph-core\src\main\java\org\apache\giraph\comm\WorkerServer.java,1,0,3,7
org.apache.giraph.comm.aggregators.AggregatedValueOutputStream, 0, 0, 0, 0, 0, 0, 0, 0, 0, 0, 0, 0, 0, 0,0.0,0.0,0.0,0.0,0.0,0.0,0.0,0.0,0.0,0.0,0.0,0.0,0.0,9,giraph-core\src\main\java\org\apache\giraph\comm\aggregators\AggregatedValueOutputStream.java,12,0,0,12
org.apache.giraph.comm.aggregators.AggregatorOutputStream, 0, 0, 0, 0, 0, 0, 0, 1, 0, 0, 0, 0, 0, 1,0.0,0.0,0.0,0.0,0.0,0.0,0.0,0.0,0.0,0.0,0.0,0.0,0.0,11,giraph-core\src\main\java\org\apache\giraph\comm\aggregators\AggregatorOutputStream.java,15,0,0,15
org.apache.giraph.comm.aggregators.AggregatorUtils, 0, 0, 0, 0, 0, 0, 0, 1, 0, 0, 0, 0, 0, 1,0.0,0.0,0.0,0.16666666666666666,0.0,0.0,0.0,0.5,0.0,0.0,0.0,0.0,0.0,51,giraph-core\src\main\java\org\apache\giraph\comm\aggregators\AggregatorUtils.java,21,27,0,48
org.apache.giraph.comm.aggregators.CountingOutputStream, 0, 0, 0, 0, 0, 0, 0, 0, 0, 0, 0, 0, 0, 0,0.0,0.0,0.0,0.3333333333333333,0.0,0.0,0.0,0.3333333333333333,0.0,0.0,0.0,0.0,0.0,29,giraph-core\src\main\java\org\apache\giraph\comm\aggregators\CountingOutputStream.java,0,0,0,0
org.apache.giraph.comm.aggregators.WorkerAggregatorRequestProcessor, 0, 0, 0, 0, 0, 0, 0, 0, 0, 0, 0, 0, 0, 0,0.0,0.0,0.0,0.0,0.0,0.0,0.0,0.0,0.0,0.0,0.0,0.0,0.0,29,giraph-core\src\main\java\org\apache\giraph\comm\aggregators\WorkerAggregatorRequestProcessor.java,1,1,5,12
org.apache.giraph.comm.messages.BasicMessageStore, 0, 0, 0, 0, 0, 0, 0, 0, 0, 0, 0, 0, 0, 0,0.0,0.0,0.0,0.0,0.0,0.0,0.0,0.0,0.0,0.0,0.0,0.0,0.0,29,giraph-core\src\main\java\org\apache\giraph\comm\messages\BasicMessageStore.java,11,0,0,11
org.apache.giraph.comm.messages.FlushableMessageStore, 0, 0, 0, 0, 0, 0, 0, 0, 0, 0, 0, 0, 0, 0,0.0,0.0,0.0,0.0,0.0,0.0,0.0,0.0,0.0,0.0,0.0,0.0,0.0,29,giraph-core\src\main\java\org\apache\giraph\comm\messages\FlushableMessageStore.java,8,0,0,8
org.apache.giraph.comm.messages.MessageStore, 0, 0, 0, 0, 0, 0, 0, 0, 0, 0, 0, 0, 0, 0,0.0,0.0,0.0,0.0,0.0,0.0,0.0,0.0,0.0,0.0,0.0,0.0,0.0,29,giraph-core\src\main\java\org\apache\giraph\comm\messages\MessageStore.java,0,17,3,23
org.apache.giraph.comm.messages.MessageStoreByPartition, 0, 0, 0, 0, 0, 0, 0, 0, 0, 0, 0, 0, 0, 0,0.0,0.0,0.0,0.0,0.0,0.0,0.0,0.0,0.0,0.0,0.0,0.0,0.0,29,giraph-core\src\main\java\org\apache\giraph\comm\messages\MessageStoreByPartition.java,18,0,0,18
org.apache.giraph.comm.messages.MessageStoreFactory, 0, 0, 0, 0, 0, 0, 0, 0, 0, 0, 0, 0, 0, 0,0.0,0.0,0.0,0.0,0.0,0.0,0.0,0.0,0.0,0.0,0.0,0.0,0.0,29,giraph-core\src\main\java\org\apache\giraph\comm\messages\MessageStoreFactory.java,0,7,2,11
org.apache.giraph.comm.messages.SequentialFileMessageStore, 0, 0, 0, 1, 0, 0, 0, 1, 0, 0, 0, 0, 0, 2,0.0,0.0,0.0,1.0,0.0,0.0,0.0,1.0,0.0,0.0,0.0,0.0,0.0,229,giraph-core\src\main\java\org\apache\giraph\comm\messages\SequentialFileMessageStore.java,255,0,0,255
org.apache.giraph.comm.netty.ByteCounter, 0, 0, 0, 1, 0, 0, 0, 0, 0, 0, 0, 0, 0, 1,0.0,0.0,0.0,0.25,0.0,0.0,0.0,0.75,0.0,0.0,0.0,0.0,0.0,130,giraph-core\src\main\java\org\apache\giraph\comm\netty\ByteCounter.java,144,0,4,152
org.apache.giraph.comm.netty.ChannelRotater, 0, 0, 0, 0, 0, 0, 0, 0, 0, 0, 0, 0, 0, 0,0.0,0.0,0.0,0.0,0.0,0.0,0.0,0.0,0.0,0.0,0.0,0.0,0.0,48,giraph-core\src\main\java\org\apache\giraph\comm\netty\ChannelRotater.java,0,0,3,6
org.apache.giraph.comm.netty.NettyMasterClient, 0, 0, 0, 0, 0, 0, 0, 1, 0, 0, 0, 0, 0, 1,0.0,0.0,0.0,0.16666666666666666,0.0,0.0,0.0,0.3333333333333333,0.0,0.0,0.0,0.0,0.0,59,giraph-core\src\main\java\org\apache\giraph\comm\netty\NettyMasterClient.java,3,5,19,46
org.apache.giraph.comm.netty.NettyMasterServer, 0, 0, 0, 0, 0, 0, 0, 1, 0, 0, 0, 0, 0, 1,0.0,0.0,0.0,1.0,0.0,0.0,0.0,1.0,0.0,0.0,0.0,0.0,0.0,19,giraph-core\src\main\java\org\apache\giraph\comm\netty\NettyMasterServer.java,1,3,6,16
org.apache.giraph.comm.netty.NettyServer, 0, 0, 0, 1, 0, 0, 0, 1, 0, 0, 0, 0, 0, 2,0.0,0.0,0.0,0.15384615384615385,0.0,0.0,0.0,0.3076923076923077,0.0,0.0,0.0,0.0,0.0,211,giraph-core\src\main\java\org\apache\giraph\comm\netty\NettyServer.java,29,63,84,260
org.apache.giraph.comm.netty.NettyWorkerAggregatorRequestProcessor, 0, 0, 0, 0, 0, 0, 0, 1, 0, 0, 0, 0, 0, 1,0.0,0.0,0.0,0.125,0.0,0.0,0.0,0.25,0.0,0.0,0.0,0.0,0.0,79,giraph-core\src\main\java\org\apache\giraph\comm\netty\NettyWorkerAggregatorRequestProcessor.java,4,5,23,55
org.apache.giraph.comm.netty.WrappedAdaptiveReceiveBufferSizePredictorFactory, 0, 0, 0, 0, 0, 0, 0, 1, 0, 0, 0, 0, 0, 1,0.0,0.0,0.0,1.0,0.0,0.0,0.0,1.0,0.0,0.0,0.0,0.0,0.0,64,giraph-core\src\main\java\org\apache\giraph\comm\netty\WrappedAdaptiveReceiveBufferSizePredictorFactory.java,69,0,0,69
org.apache.giraph.comm.netty.handler.AddressRequestIdGenerator, 0, 0, 0, 0, 0, 0, 0, 0, 0, 0, 0, 0, 0, 0,0.0,0.0,0.0,0.0,0.0,0.0,0.0,0.0,0.0,0.0,0.0,0.0,0.0,16,giraph-core\src\main\java\org\apache\giraph\comm\netty\handler\AddressRequestIdGenerator.java,0,0,0,0
org.apache.giraph.comm.netty.handler.AuthorizeServerHandler, 0, 0, 0, 0, 0, 0, 0, 0, 0, 0, 0, 0, 0, 0,0.0,0.0,0.0,0.0,0.0,0.0,0.0,0.0,0.0,0.0,0.0,0.0,0.0,35,giraph-core\src\main\java\org\apache\giraph\comm\netty\handler\AuthorizeServerHandler.java,1,1,10,22
org.apache.giraph.comm.netty.handler.ClientRequestId, 0, 0, 0, 0, 0, 0, 0, 0, 0, 0, 0, 0, 0, 0,0.0,0.0,0.0,0.0,0.0,0.0,0.0,0.0,0.0,0.0,0.0,0.0,0.0,33,giraph-core\src\main\java\org\apache\giraph\comm\netty\handler\ClientRequestId.java,0,0,0,0
org.apache.giraph.comm.netty.handler.MasterRequestServerHandler, 0, 0, 0, 0, 0, 0, 0, 1, 0, 0, 0, 0, 0, 1,0.0,0.0,0.0,0.25,0.0,0.0,0.0,0.5,0.0,0.0,0.0,0.0,0.0,30,giraph-core\src\main\java\org\apache\giraph\comm\netty\handler\MasterRequestServerHandler.java,1,3,5,14
org.apache.giraph.comm.netty.handler.RequestDecoder, 0, 0, 0, 0, 0, 0, 0, 1, 0, 0, 0, 0, 0, 1,0.0,0.0,0.0,0.5,0.0,0.0,0.0,0.5,0.0,0.0,0.0,0.0,0.0,46,giraph-core\src\main\java\org\apache\giraph\comm\netty\handler\RequestDecoder.java,3,3,24,54
org.apache.giraph.comm.netty.handler.RequestEncoder, 0, 0, 0, 0, 0, 0, 0, 1, 0, 0, 0, 0, 0, 1,0.0,0.0,0.0,0.0,0.0,0.0,0.0,0.25,0.0,0.0,0.0,0.0,0.0,62,giraph-core\src\main\java\org\apache\giraph\comm\netty\handler\RequestEncoder.java,11,6,30,77
org.apache.giraph.comm.netty.handler.RequestInfo, 0, 0, 0, 0, 0, 0, 0, 0, 0, 0, 0, 0, 0, 0,0.0,0.0,0.0,0.0,0.0,0.0,0.0,0.0,0.0,0.0,0.0,0.0,0.0,46,giraph-core\src\main\java\org\apache\giraph\comm\netty\handler\RequestInfo.java,0,0,1,2
org.apache.giraph.comm.netty.handler.RequestServerHandler, 0, 0, 0, 0, 0, 0, 0, 1, 0, 0, 0, 0, 0, 1,0.0,0.0,0.0,0.125,0.0,0.0,0.0,0.5,0.0,0.0,0.0,0.0,0.0,93,giraph-core\src\main\java\org\apache\giraph\comm\netty\handler\RequestServerHandler.java,8,11,33,85
org.apache.giraph.comm.netty.handler.ResponseClientHandler, 0, 0, 0, 0, 0, 0, 0, 0, 0, 0, 0, 0, 0, 0,0.0,0.0,0.0,0.0,0.0,0.0,0.0,0.0,0.0,0.0,0.0,0.0,0.0,80,giraph-core\src\main\java\org\apache\giraph\comm\netty\handler\ResponseClientHandler.java,12,12,23,70
org.apache.giraph.comm.netty.handler.ResponseEncoder, 0, 0, 0, 0, 0, 0, 0, 1, 0, 0, 0, 0, 0, 1,0.0,0.0,0.0,0.0,0.0,0.0,0.0,0.0,0.0,0.0,0.0,0.0,0.0,44,giraph-core\src\main\java\org\apache\giraph\comm\netty\handler\ResponseEncoder.java,5,6,20,51
org.apache.giraph.comm.netty.handler.SaslClientHandler, 0, 0, 0, 0, 0, 0, 0, 1, 0, 0, 0, 0, 0, 1,0.0,0.0,0.0,0.0,0.0,0.0,0.0,0.0,0.0,0.0,0.0,0.0,0.0,96,giraph-core\src\main\java\org\apache\giraph\comm\netty\handler\SaslClientHandler.java,9,1,21,52
org.apache.giraph.comm.netty.handler.WorkerRequestReservedMap, 0, 0, 0, 0, 0, 0, 0, 0, 0, 0, 0, 0, 0, 0,0.0,0.0,0.0,0.2,0.0,0.0,0.0,0.8,0.0,0.0,0.0,0.0,0.0,25,giraph-core\src\main\java\org\apache\giraph\comm\netty\handler\WorkerRequestReservedMap.java,0,0,0,0
org.apache.giraph.comm.netty.handler.WorkerRequestServerHandler, 0, 0, 0, 0, 0, 0, 0, 1, 0, 0, 0, 0, 0, 1,0.0,0.0,0.0,0.25,0.0,0.0,0.0,0.5,0.0,0.0,0.0,0.0,0.0,32,giraph-core\src\main\java\org\apache\giraph\comm\netty\handler\WorkerRequestServerHandler.java,0,2,12,26
org.apache.giraph.comm.requests.ByteArrayRequest, 0, 0, 0, 0, 0, 0, 0, 0, 0, 0, 0, 0, 0, 0,0.0,0.0,0.0,0.0,0.0,0.0,0.0,0.0,0.0,0.0,0.0,0.0,0.0,29,giraph-core\src\main\java\org\apache\giraph\comm\requests\ByteArrayRequest.java,0,0,0,0
org.apache.giraph.comm.requests.ByteArrayWithSenderTaskIdRequest, 0, 0, 0, 0, 0, 0, 0, 0, 0, 0, 0, 0, 0, 0,0.0,0.0,0.0,0.0,0.0,0.0,0.0,0.0,0.0,0.0,0.0,0.0,0.0,27,giraph-core\src\main\java\org\apache\giraph\comm\requests\ByteArrayWithSenderTaskIdRequest.java,0,0,0,0
org.apache.giraph.comm.requests.MasterRequest, 0, 0, 0, 0, 0, 0, 0, 0, 0, 0, 0, 0, 0, 0,0.0,0.0,0.0,0.0,0.0,0.0,0.0,0.0,0.0,0.0,0.0,0.0,0.0,27,giraph-core\src\main\java\org\apache\giraph\comm\requests\MasterRequest.java,0,0,0,0
org.apache.giraph.comm.requests.SaslCompleteRequest, 0, 0, 0, 0, 0, 0, 0, 0, 0, 0, 0, 0, 0, 0,0.0,0.0,0.0,0.0,0.0,0.0,0.0,0.0,0.0,0.0,0.0,0.0,0.0,14,giraph-core\src\main\java\org\apache\giraph\comm\requests\SaslCompleteRequest.java,0,0,0,0
org.apache.giraph.comm.requests.SaslTokenMessageRequest, 0, 0, 0, 0, 0, 0, 0, 0, 0, 0, 0, 0, 0, 0,0.0,0.0,0.0,0.0,0.0,0.0,0.0,0.5,0.0,0.0,0.0,0.0,0.0,44,giraph-core\src\main\java\org\apache\giraph\comm\requests\SaslTokenMessageRequest.java,0,0,0,0
org.apache.giraph.comm.requests.SendAggregatorsToMasterRequest, 0, 0, 0, 0, 0, 0, 0, 0, 0, 0, 0, 0, 0, 0,0.0,0.0,0.0,0.0,0.0,0.0,0.0,0.5,0.0,0.0,0.0,0.0,0.0,21,giraph-core\src\main\java\org\apache\giraph\comm\requests\SendAggregatorsToMasterRequest.java,24,0,0,24
org.apache.giraph.comm.requests.SendAggregatorsToOwnerRequest, 0, 0, 0, 0, 0, 0, 0, 0, 0, 0, 0, 0, 0, 0,0.0,0.0,0.0,0.0,0.0,0.0,0.0,0.5,0.0,0.0,0.0,0.0,0.0,45,giraph-core\src\main\java\org\apache\giraph\comm\requests\SendAggregatorsToOwnerRequest.java,8,13,14,49
org.apache.giraph.comm.requests.SendAggregatorsToWorkerRequest, 0, 0, 0, 0, 0, 0, 0, 0, 0, 0, 0, 0, 0, 0,0.0,0.0,0.0,0.0,0.0,0.0,0.0,0.5,0.0,0.0,0.0,0.0,0.0,43,giraph-core\src\main\java\org\apache\giraph\comm\requests\SendAggregatorsToWorkerRequest.java,12,5,8,33
org.apache.giraph.comm.requests.SendPartitionCurrentMessagesRequest, 0, 0, 0, 0, 0, 0, 0, 0, 0, 0, 0, 0, 0, 0,0.0,0.0,0.0,0.3333333333333333,0.0,0.0,0.0,0.0,0.0,0.0,0.0,0.0,0.0,44,giraph-core\src\main\java\org\apache\giraph\comm\requests\SendPartitionCurrentMessagesRequest.java,0,1,4,9
org.apache.giraph.comm.requests.SendVertexRequest, 0, 0, 0, 0, 0, 0, 0, 0, 0, 0, 0, 0, 0, 0,0.0,0.0,0.0,0.3333333333333333,0.0,0.0,0.0,0.3333333333333333,0.0,0.0,0.0,0.0,0.0,32,giraph-core\src\main\java\org\apache\giraph\comm\requests\SendVertexRequest.java,0,0,5,10
org.apache.giraph.comm.requests.SendWorkerAggregatorsRequest, 0, 0, 0, 0, 0, 0, 0, 0, 0, 0, 0, 0, 0, 0,0.0,0.0,0.0,0.0,0.0,0.0,0.0,0.3333333333333333,0.0,0.0,0.0,0.0,0.0,40,giraph-core\src\main\java\org\apache\giraph\comm\requests\SendWorkerAggregatorsRequest.java,5,8,10,33
org.apache.giraph.comm.requests.SendWorkerDataRequest, 0, 0, 0, 0, 0, 0, 0, 0, 0, 0, 0, 0, 0, 0,0.0,0.0,0.0,0.2,0.0,0.0,0.0,0.0,0.0,0.0,0.0,0.0,0.0,47,giraph-core\src\main\java\org\apache\giraph\comm\requests\SendWorkerDataRequest.java,0,1,4,9
org.apache.giraph.comm.requests.SendWorkerEdgesRequest, 0, 0, 0, 0, 0, 0, 0, 0, 0, 0, 0, 0, 0, 0,0.0,0.0,0.0,0.0,0.0,0.0,0.0,0.25,0.0,0.0,0.0,0.0,0.0,29,giraph-core\src\main\java\org\apache\giraph\comm\requests\SendWorkerEdgesRequest.java,0,1,5,11
org.apache.giraph.comm.requests.SendWorkerMessagesRequest, 0, 0, 0, 0, 0, 0, 0, 0, 0, 0, 0, 0, 0, 0,0.0,0.0,0.0,0.0,0.0,0.0,0.0,0.0,0.0,0.0,0.0,0.0,0.0,32,giraph-core\src\main\java\org\apache\giraph\comm\requests\SendWorkerMessagesRequest.java,1,4,6,17
org.apache.giraph.comm.requests.WorkerRequest, 0, 0, 0, 0, 0, 0, 0, 0, 0, 0, 0, 0, 0, 0,0.0,0.0,0.0,0.0,0.0,0.0,0.0,0.0,0.0,0.0,0.0,0.0,0.0,32,giraph-core\src\main\java\org\apache\giraph\comm\requests\WorkerRequest.java,0,0,2,4
org.apache.giraph.comm.requests.WritableRequest, 0, 0, 0, 0, 0, 0, 0, 0, 0, 0, 0, 0, 0, 0,0.0,0.0,0.0,0.07142857142857142,0.0,0.0,0.0,0.42857142857142855,0.0,0.0,0.0,0.0,0.0,48,giraph-core\src\main\java\org\apache\giraph\comm\requests\WritableRequest.java,2,0,5,12
org.apache.giraph.conf.BooleanConfOption, 0, 0, 0, 0, 0, 0, 0, 0, 0, 0, 0, 0, 0, 0,0.0,0.0,0.0,0.16666666666666666,0.0,0.0,0.0,0.4166666666666667,0.0,0.0,0.0,0.0,0.0,32,giraph-core\src\main\java\org\apache\giraph\conf\BooleanConfOption.java,0,4,3,10
org.apache.giraph.conf.DefaultImmutableClassesGiraphConfigurable, 0, 0, 0, 0, 0, 0, 0, 0, 0, 0, 0, 0, 0, 0,0.0,0.0,0.0,0.023809523809523808,0.0,0.0,0.0,0.11904761904761904,0.0,0.0,0.0,0.0,0.0,14,giraph-core\src\main\java\org\apache\giraph\conf\DefaultImmutableClassesGiraphConfigurable.java,0,0,5,10
org.apache.giraph.conf.FloatConfOption, 0, 0, 0, 0, 0, 0, 0, 0, 0, 0, 0, 0, 0, 0,0.0,0.0,0.0,0.0,0.0,0.0,0.0,1.0,0.0,0.0,0.0,0.0,0.0,28,giraph-core\src\main\java\org\apache\giraph\conf\FloatConfOption.java,0,3,3,9
org.apache.giraph.conf.GiraphClasses, 0, 0, 0, 1, 0, 0, 0, 0, 0, 0, 0, 0, 0, 1,0.0,0.0,0.0,1.0,0.0,0.0,0.0,1.0,0.0,0.0,0.0,0.0,0.0,267,giraph-core\src\main\java\org\apache\giraph\conf\GiraphClasses.java,35,85,62,244
org.apache.giraph.conf.GiraphConstants, 0, 0, 0, 0, 0, 0, 0, 0, 0, 0, 0, 0, 0, 0,0.0,0.0,0.0,0.0,0.0,0.0,0.0,0.0,0.0,0.0,0.0,0.0,0.0,267,giraph-core\src\main\java\org\apache\giraph\conf\GiraphConstants.java,8,372,124,628
org.apache.giraph.conf.ImmutableClassesGiraphConfigurable, 0, 0, 0, 0, 0, 0, 0, 0, 0, 0, 0, 0, 0, 0,0.0,0.0,0.0,0.0,0.0,0.0,0.0,0.0,0.0,0.0,0.0,0.0,0.0,267,giraph-core\src\main\java\org\apache\giraph\conf\ImmutableClassesGiraphConfigurable.java,2,0,3,8
org.apache.giraph.conf.ImmutableClassesGiraphConfiguration, 0, 0, 0, 1, 0, 0, 0, 1, 0, 0, 0, 0, 0, 2,0.0,0.0,0.011363636363636364,0.1590909090909091,0.0,0.0,0.0,0.38636363636363635,0.0,0.0,0.0,0.0,0.0,327,giraph-core\src\main\java\org\apache\giraph\conf\ImmutableClassesGiraphConfiguration.java,41,282,67,457
org.apache.giraph.conf.IntConfOption, 0, 0, 0, 0, 0, 0, 0, 0, 0, 0, 0, 0, 0, 0,0.0,0.0,0.0,0.08333333333333333,0.0,0.0,0.0,0.4166666666666667,0.0,0.0,0.0,0.0,0.0,33,giraph-core\src\main\java\org\apache\giraph\conf\IntConfOption.java,0,3,5,13
org.apache.giraph.conf.LongConfOption, 0, 0, 0, 0, 0, 0, 0, 0, 0, 0, 0, 0, 0, 0,0.0,0.0,0.0,0.0,0.0,0.0,0.0,0.0,0.0,0.0,0.0,0.0,0.0,28,giraph-core\src\main\java\org\apache\giraph\conf\LongConfOption.java,0,6,3,12
org.apache.giraph.conf.StrConfOption, 0, 0, 0, 0, 0, 0, 0, 0, 0, 0, 0, 0, 0, 0,0.0,0.0,0.0,0.25,0.0,0.0,0.0,0.5,0.0,0.0,0.0,0.0,0.0,35,giraph-core\src\main\java\org\apache\giraph\conf\StrConfOption.java,0,4,2,8
org.apache.giraph.conf.TestGiraphConfiguration, 0, 0, 0, 0, 0, 0, 0, 0, 0, 0, 0, 0, 0, 0,0.0,0.0,0.0,0.0,0.0,0.0,0.0,0.0,0.0,0.0,0.0,0.0,0.0,40,giraph-core\src\test\java\org\apache\giraph\conf\TestGiraphConfiguration.java,0,0,0,0
org.apache.giraph.conf.TestObjectCreation, 0, 0, 1, 1, 0, 0, 0, 0, 0, 0, 0, 0, 0, 2,0.0,0.0,0.0,0.5,0.0,0.0,0.0,1.0,0.0,0.0,0.0,0.0,0.0,128,giraph-core\src\test\java\org\apache\giraph\conf\TestObjectCreation.java,7,2,5,19
org.apache.giraph.counters.GiraphHadoopCounter, 0, 0, 0, 0, 0, 0, 0, 0, 0, 0, 0, 0, 0, 0,0.0,0.0,0.0,0.5,0.0,0.0,0.0,0.0,0.0,0.0,0.0,0.0,0.0,48,giraph-core\src\main\java\org\apache\giraph\counters\GiraphHadoopCounter.java,0,0,0,0
org.apache.giraph.counters.GiraphStats, 0, 0, 0, 1, 0, 0, 0, 0, 0, 0, 0, 0, 0, 1,0.0,0.0,0.0,0.0,0.0,0.0,0.0,0.0,0.0,0.0,0.0,0.0,0.0,73,giraph-core\src\main\java\org\apache\giraph\counters\GiraphStats.java,0,22,1,24
org.apache.giraph.edge.ArrayListEdges, 0, 0, 0, 0, 0, 0, 0, 0, 0, 0, 0, 0, 0, 0,0.0,0.0,0.0,0.4,0.0,0.0,0.0,0.6,0.0,0.0,0.0,0.0,0.0,65,giraph-core\src\main\java\org\apache\giraph\edge\ArrayListEdges.java,0,5,1,7
org.apache.giraph.edge.ByteArrayEdges, 0, 0, 0, 0, 0, 0, 0, 0, 0, 0, 0, 0, 0, 0,0.0,0.0,0.0,0.5,0.0,0.0,0.0,0.5,0.0,0.0,0.0,0.0,0.0,122,giraph-core\src\main\java\org\apache\giraph\edge\ByteArrayEdges.java,0,15,2,19
org.apache.giraph.edge.ConfigurableOutEdges, 0, 0, 0, 0, 0, 0, 0, 0, 0, 0, 0, 0, 0, 0,0.0,0.0,0.0,0.0,0.0,0.0,0.0,0.0,0.0,0.0,0.0,0.0,0.0,5,giraph-core\src\main\java\org\apache\giraph\edge\ConfigurableOutEdges.java,0,0,2,4
org.apache.giraph.edge.DefaultEdge, 0, 0, 0, 0, 0, 0, 0, 0, 0, 0, 0, 0, 0, 0,0.0,0.0,0.0,0.0,0.0,0.0,0.0,0.0,0.0,0.0,0.0,0.0,0.0,31,giraph-core\src\main\java\org\apache\giraph\edge\DefaultEdge.java,0,0,1,2
org.apache.giraph.edge.Edge, 0, 0, 0, 0, 0, 0, 0, 0, 0, 0, 0, 0, 0, 0,0.0,0.0,0.0,0.0,0.0,0.0,0.0,0.0,0.0,0.0,0.0,0.0,0.0,31,giraph-core\src\main\java\org\apache\giraph\edge\Edge.java,0,0,0,0
org.apache.giraph.edge.EdgeFactory, 0, 0, 0, 0, 0, 0, 0, 0, 0, 0, 0, 0, 0, 0,0.0,0.0,0.0,0.0625,0.0,0.0,0.0,0.125,0.0,0.0,0.0,0.0,0.0,25,giraph-core\src\main\java\org\apache\giraph\edge\EdgeFactory.java,0,0,0,0
org.apache.giraph.edge.EdgeNoValue, 0, 0, 0, 0, 0, 0, 0, 0, 0, 0, 0, 0, 0, 0,0.0,0.0,0.0,0.0,0.0,0.0,0.0,0.0,0.0,0.0,0.0,0.0,0.0,27,giraph-core\src\main\java\org\apache\giraph\edge\EdgeNoValue.java,0,0,0,0
org.apache.giraph.edge.EdgeStore, 0, 0, 0, 0, 0, 0, 0, 1, 0, 0, 0, 0, 0, 1,0.0,0.0,0.0,0.2,0.0,0.0,0.0,0.4,0.0,0.0,0.0,0.0,0.0,128,giraph-core\src\main\java\org\apache\giraph\edge\EdgeStore.java,136,0,5,146
org.apache.giraph.edge.IntNullArrayEdges, 0, 0, 0, 0, 0, 0, 0, 0, 0, 0, 0, 0, 0, 0,0.0,0.0,0.0,0.0,0.0,0.0,0.0,0.0,0.0,0.0,0.0,0.0,0.0,81,giraph-core\src\main\java\org\apache\giraph\edge\IntNullArrayEdges.java,13,9,5,32
org.apache.giraph.edge.MultiRandomAccessOutEdges, 0, 0, 0, 0, 0, 0, 0, 0, 0, 0, 0, 0, 0, 0,0.0,0.0,0.0,0.0,0.0,0.0,0.0,0.0,0.0,0.0,0.0,0.0,0.0,81,giraph-core\src\main\java\org\apache\giraph\edge\MultiRandomAccessOutEdges.java,0,0,0,0
org.apache.giraph.edge.MutableEdge, 0, 0, 0, 0, 0, 0, 0, 0, 0, 0, 0, 0, 0, 0,0.0,0.0,0.0,0.0,0.0,0.0,0.0,0.0,0.0,0.0,0.0,0.0,0.0,81,giraph-core\src\main\java\org\apache\giraph\edge\MutableEdge.java,0,0,0,0
org.apache.giraph.edge.MutableEdgesWrapper, 0, 0, 0, 1, 0, 0, 0, 0, 0, 0, 0, 0, 0, 1,0.0,0.0,0.0,1.0,0.0,0.0,0.0,1.0,0.0,0.0,0.0,0.0,0.0,82,giraph-core\src\main\java\org\apache\giraph\edge\MutableEdgesWrapper.java,0,5,2,9
org.apache.giraph.edge.MutableOutEdges, 0, 0, 0, 0, 0, 0, 0, 0, 0, 0, 0, 0, 0, 0,0.0,0.0,0.0,0.0,0.0,0.0,0.0,0.0,0.0,0.0,0.0,0.0,0.0,82,giraph-core\src\main\java\org\apache\giraph\edge\MutableOutEdges.java,0,0,0,0
org.apache.giraph.edge.ReusableEdge, 0, 0, 0, 0, 0, 0, 0, 0, 0, 0, 0, 0, 0, 0,0.0,0.0,0.0,0.0,0.0,0.0,0.0,0.0,0.0,0.0,0.0,0.0,0.0,82,giraph-core\src\main\java\org\apache\giraph\edge\ReusableEdge.java,0,0,0,0
org.apache.giraph.edge.ReuseObjectsOutEdges, 0, 0, 0, 0, 0, 0, 0, 0, 0, 0, 0, 0, 0, 0,0.0,0.0,0.0,0.0,0.0,0.0,0.0,0.0,0.0,0.0,0.0,0.0,0.0,82,giraph-core\src\main\java\org\apache\giraph\edge\ReuseObjectsOutEdges.java,0,0,0,0
org.apache.giraph.edge.StrictRandomAccessOutEdges, 0, 0, 0, 0, 0, 0, 0, 0, 0, 0, 0, 0, 0, 0,0.0,0.0,0.0,0.0,0.0,0.0,0.0,0.0,0.0,0.0,0.0,0.0,0.0,82,giraph-core\src\main\java\org\apache\giraph\edge\StrictRandomAccessOutEdges.java,0,0,0,0
org.apache.giraph.edge.TestMultiGraphEdges, 0, 0, 0, 0, 0, 0, 0, 0, 0, 0, 0, 0, 0, 0,0.0,0.0,0.0,0.0,0.0,0.0,0.0,0.0,0.0,0.0,0.0,0.0,0.0,33,giraph-core\src\test\java\org\apache\giraph\edge\TestMultiGraphEdges.java,0,0,0,0
org.apache.giraph.edge.TestMultiRandomAccessEdges, 0, 0, 0, 0, 0, 0, 0, 0, 0, 0, 0, 0, 0, 0,0.0,0.0,0.0,0.0,0.0,0.0,0.0,0.0,0.0,0.0,0.0,0.0,0.0,33,giraph-core\src\test\java\org\apache\giraph\edge\TestMultiRandomAccessEdges.java,0,0,0,0
org.apache.giraph.edge.TestNullValueEdges, 0, 0, 0, 0, 0, 0, 0, 0, 0, 0, 0, 0, 0, 0,0.0,0.0,0.0,0.0,0.0,0.0,0.0,0.0,0.0,0.0,0.0,0.0,0.0,58,giraph-core\src\test\java\org\apache\giraph\edge\TestNullValueEdges.java,0,0,0,0
org.apache.giraph.edge.TestStrictGraphEdges, 0, 0, 0, 0, 0, 0, 0, 0, 0, 0, 0, 0, 0, 0,0.0,0.0,0.0,0.0,0.0,0.0,0.0,0.0,0.0,0.0,0.0,0.0,0.0,29,giraph-core\src\test\java\org\apache\giraph\edge\TestStrictGraphEdges.java,0,0,0,0
org.apache.giraph.edge.TestStrictRandomAccessEdges, 0, 0, 0, 0, 0, 0, 0, 0, 0, 0, 0, 0, 0, 0,0.0,0.0,0.0,0.0,0.0,0.0,0.0,0.0,0.0,0.0,0.0,0.0,0.0,32,giraph-core\src\test\java\org\apache\giraph\edge\TestStrictRandomAccessEdges.java,0,0,0,0
org.apache.giraph.examples.AggregatorsTestVertex, 0, 0, 0, 0, 0, 0, 0, 0, 0, 0, 0, 0, 0, 0,0.0,0.0,0.0,0.0,0.0,0.0,0.0,0.0,0.0,0.0,0.0,0.0,0.0,78,giraph-examples\src\main\java\org\apache\giraph\examples\AggregatorsTestVertex.java,86,0,0,86
org.apache.giraph.examples.ConnectedComponentsVertex, 0, 0, 0, 0, 0, 0, 0, 0, 0, 0, 0, 0, 0, 0,0.0,0.0,0.0,0.0,0.0,0.0,0.0,0.0,0.0,0.0,0.0,0.0,0.0,39,giraph-examples\src\main\java\org\apache\giraph\examples\ConnectedComponentsVertex.java,49,0,0,49
org.apache.giraph.examples.ConnectedComponentsVertexTest, 0, 0, 0, 0, 0, 0, 0, 0, 0, 0, 0, 0, 0, 0,0.0,0.0,0.0,0.0,0.0,0.0,0.0,0.0,0.0,0.0,0.0,0.0,0.0,62,giraph-examples\src\test\java\org\apache\giraph\examples\ConnectedComponentsVertexTest.java,77,0,0,77
org.apache.giraph.examples.GeneratedVertexReader, 0, 0, 0, 0, 0, 0, 0, 0, 0, 0, 0, 0, 0, 0,0.0,0.0,0.0,0.0,0.0,0.0,0.0,0.0,0.0,0.0,0.0,0.0,0.0,35,giraph-examples\src\main\java\org\apache\giraph\examples\GeneratedVertexReader.java,7,3,8,26
org.apache.giraph.examples.IdentityVertex, 0, 0, 0, 0, 0, 0, 0, 0, 0, 0, 0, 0, 0, 0,0.0,0.0,0.0,0.0,0.0,0.0,0.0,0.0,0.0,0.0,0.0,0.0,0.0,8,giraph-examples\src\main\java\org\apache\giraph\examples\IdentityVertex.java,13,0,0,13
org.apache.giraph.examples.LongDoubleDoubleTextInputFormat, 0, 0, 0, 0, 0, 0, 0, 0, 0, 0, 0, 0, 0, 0,0.0,0.0,0.0,0.5,0.0,0.0,0.0,0.5,0.0,0.0,0.0,0.0,0.0,52,giraph-examples\src\main\java\org\apache\giraph\examples\LongDoubleDoubleTextInputFormat.java,3,2,6,17
org.apache.giraph.examples.LongDoubleNullTextInputFormat, 0, 0, 0, 0, 0, 0, 0, 0, 0, 0, 0, 0, 0, 0,0.0,0.0,0.0,0.5,0.0,0.0,0.0,0.5,0.0,0.0,0.0,0.0,0.0,50,giraph-examples\src\main\java\org\apache\giraph\examples\LongDoubleNullTextInputFormat.java,2,1,6,15
org.apache.giraph.examples.MinimumIntCombinerTest, 0, 0, 0, 0, 0, 0, 0, 0, 0, 0, 0, 0, 0, 0,0.0,0.0,0.0,0.0,0.0,0.0,0.0,1.0,0.0,0.0,0.0,0.0,0.0,14,giraph-examples\src\test\java\org\apache\giraph\examples\MinimumIntCombinerTest.java,0,2,9,20
org.apache.giraph.examples.NormalizingLongDoubleDoubleTextInputFormat, 0, 0, 0, 0, 0, 0, 0, 0, 0, 0, 0, 0, 0, 0,0.0,0.0,0.0,0.5,0.0,0.0,0.0,0.5,0.0,0.0,0.0,0.0,0.0,69,giraph-examples\src\main\java\org\apache\giraph\examples\NormalizingLongDoubleDoubleTextInputFormat.java,4,2,8,22
org.apache.giraph.examples.PageRankVertex, 0, 0, 0, 0, 0, 0, 0, 0, 0, 0, 0, 0, 0, 0,0.0,0.0,0.0,0.0,0.0,0.0,0.0,0.0,0.0,0.0,0.0,0.0,0.0,17,giraph-examples\src\main\java\org\apache\giraph\examples\PageRankVertex.java,23,0,0,23
org.apache.giraph.examples.PartitionContextTestVertex, 0, 0, 0, 0, 0, 0, 0, 0, 0, 0, 0, 0, 0, 0,0.0,0.0,0.0,0.0,0.0,0.0,0.0,0.0,0.0,0.0,0.0,0.0,0.0,51,giraph-examples\src\main\java\org\apache\giraph\examples\PartitionContextTestVertex.java,60,0,0,60
org.apache.giraph.examples.RandomWalkVertex, 0, 0, 0, 0, 0, 0, 0, 0, 0, 0, 0, 0, 0, 0,0.0,0.0,0.0,0.0,0.0,0.0,0.0,0.0,0.0,0.0,0.0,0.0,0.0,68,giraph-examples\src\main\java\org\apache\giraph\examples\RandomWalkVertex.java,75,0,0,75
org.apache.giraph.examples.RandomWalkVertexMasterCompute, 0, 0, 0, 0, 0, 0, 0, 0, 0, 0, 0, 0, 0, 0,0.0,0.0,0.0,0.5,0.0,0.0,0.0,0.0,0.0,0.0,0.0,0.0,0.0,40,giraph-examples\src\main\java\org\apache\giraph\examples\RandomWalkVertexMasterCompute.java,0,0,8,16
org.apache.giraph.examples.RandomWalkWithRestartVertex, 0, 0, 0, 0, 0, 0, 0, 0, 0, 0, 0, 0, 0, 0,0.0,0.0,0.0,0.0,0.0,0.0,0.0,0.0,0.0,0.0,0.0,0.0,0.0,30,giraph-examples\src\main\java\org\apache\giraph\examples\RandomWalkWithRestartVertex.java,36,0,0,36
org.apache.giraph.examples.RandomWalkWorkerContext, 0, 0, 0, 0, 0, 0, 0, 0, 0, 0, 0, 0, 0, 0,0.0,0.0,0.0,0.0,0.0,0.0,0.0,0.0,0.0,0.0,0.0,0.0,0.0,84,giraph-examples\src\main\java\org\apache\giraph\examples\RandomWalkWorkerContext.java,0,3,8,19
org.apache.giraph.examples.SimpleCheckpointVertex, 0, 0, 0, 0, 0, 0, 0, 0, 0, 0, 0, 0, 0, 0,0.0,0.0,0.0,0.0,0.0,0.0,0.0,0.0,0.0,0.0,0.0,0.0,0.0,193,giraph-examples\src\main\java\org\apache\giraph\examples\SimpleCheckpointVertex.java,217,0,0,217
org.apache.giraph.examples.SimpleCombinerVertex, 0, 0, 0, 0, 0, 0, 0, 0, 0, 0, 0, 0, 0, 0,0.0,0.0,0.0,0.0,0.0,0.0,0.0,0.0,0.0,0.0,0.0,0.0,0.0,32,giraph-examples\src\main\java\org\apache\giraph\examples\SimpleCombinerVertex.java,38,0,0,38
org.apache.giraph.examples.SimpleFailVertex, 0, 0, 0, 0, 0, 0, 0, 0, 0, 0, 0, 0, 0, 0,0.0,0.0,0.0,0.0,0.0,0.0,0.0,0.0,0.0,0.0,0.0,0.0,0.0,37,giraph-examples\src\main\java\org\apache\giraph\examples\SimpleFailVertex.java,43,0,0,43
org.apache.giraph.examples.SimpleInDegreeCountVertex, 0, 0, 0, 0, 0, 0, 0, 0, 0, 0, 0, 0, 0, 0,0.0,0.0,0.0,0.0,0.0,0.0,0.0,0.0,0.0,0.0,0.0,0.0,0.0,21,giraph-examples\src\main\java\org\apache\giraph\examples\SimpleInDegreeCountVertex.java,29,0,0,29
org.apache.giraph.examples.SimpleLongDoubleDoubleDoubleIdentityVertex, 0, 0, 0, 0, 0, 0, 0, 0, 0, 0, 0, 0, 0, 0,0.0,0.0,0.0,0.0,0.0,0.0,0.0,0.0,0.0,0.0,0.0,0.0,0.0,3,giraph-examples\src\main\java\org\apache\giraph\examples\SimpleLongDoubleDoubleDoubleIdentityVertex.java,6,0,0,6
org.apache.giraph.examples.SimpleMasterComputeVertex, 0, 0, 0, 0, 0, 0, 0, 0, 0, 0, 0, 0, 0, 0,0.0,0.0,0.0,0.0,0.0,0.0,0.0,0.0,0.0,0.0,0.0,0.0,0.0,56,giraph-examples\src\main\java\org\apache\giraph\examples\SimpleMasterComputeVertex.java,65,0,0,65
org.apache.giraph.examples.SimpleMsgVertex, 0, 0, 0, 0, 0, 0, 0, 0, 0, 0, 0, 0, 0, 0,0.0,0.0,0.0,0.0,0.0,0.0,0.0,0.0,0.0,0.0,0.0,0.0,0.0,30,giraph-examples\src\main\java\org\apache\giraph\examples\SimpleMsgVertex.java,36,0,0,36
org.apache.giraph.examples.SimpleMutateGraphVertex, 0, 0, 0, 0, 0, 0, 0, 0, 0, 0, 0, 0, 0, 0,0.0,0.0,0.0,0.0,0.0,0.0,0.0,0.0,0.0,0.0,0.0,0.0,0.0,127,giraph-examples\src\main\java\org\apache\giraph\examples\SimpleMutateGraphVertex.java,136,0,0,136
org.apache.giraph.examples.SimpleOutDegreeCountVertex, 0, 0, 0, 0, 0, 0, 0, 0, 0, 0, 0, 0, 0, 0,0.0,0.0,0.0,0.0,0.0,0.0,0.0,0.0,0.0,0.0,0.0,0.0,0.0,11,giraph-examples\src\main\java\org\apache\giraph\examples\SimpleOutDegreeCountVertex.java,18,0,0,18
org.apache.giraph.examples.SimplePageRankVertex, 0, 0, 0, 0, 0, 0, 0, 0, 0, 0, 0, 0, 0, 0,0.0,0.0,0.0,0.0,0.0,0.0,0.0,0.0,0.0,0.0,0.0,0.0,0.0,153,giraph-examples\src\main\java\org\apache\giraph\examples\SimplePageRankVertex.java,179,0,0,179
org.apache.giraph.examples.SimpleShortestPathsVertex, 0, 0, 0, 0, 0, 0, 0, 0, 0, 0, 0, 0, 0, 0,0.0,0.0,0.0,0.0,0.0,0.0,0.0,0.0,0.0,0.0,0.0,0.0,0.0,37,giraph-examples\src\main\java\org\apache\giraph\examples\SimpleShortestPathsVertex.java,49,0,0,49
org.apache.giraph.examples.SimpleSuperstepVertex, 0, 0, 0, 0, 0, 0, 0, 0, 0, 0, 0, 0, 0, 0,0.0,0.0,0.0,0.0,0.0,0.0,0.0,0.0,0.0,0.0,0.0,0.0,0.0,86,giraph-examples\src\main\java\org\apache\giraph\examples\SimpleSuperstepVertex.java,104,0,0,104
org.apache.giraph.examples.SimpleTextVertexOutputFormat, 0, 0, 0, 0, 0, 0, 0, 0, 0, 0, 0, 0, 0, 0,0.0,0.0,0.0,0.0,0.0,0.0,0.0,0.0,0.0,0.0,0.0,0.0,0.0,18,giraph-examples\src\main\java\org\apache\giraph\examples\SimpleTextVertexOutputFormat.java,0,0,1,2
org.apache.giraph.examples.SimpleTriangleClosingVertexTest, 0, 0, 0, 0, 0, 0, 0, 0, 0, 0, 0, 0, 0, 0,0.0,0.0,0.0,0.0,0.0,0.0,0.0,0.5,0.0,0.0,0.0,0.0,0.0,44,giraph-examples\src\test\java\org\apache\giraph\examples\SimpleTriangleClosingVertexTest.java,52,0,0,52
org.apache.giraph.examples.SimpleVertexWithWorkerContext, 0, 0, 0, 0, 0, 0, 0, 0, 0, 0, 0, 0, 0, 0,0.0,0.0,0.0,0.0,0.0,0.0,0.0,0.0,0.0,0.0,0.0,0.0,0.0,113,giraph-examples\src\main\java\org\apache\giraph\examples\SimpleVertexWithWorkerContext.java,3,3,8,22
org.apache.giraph.examples.TestPageRank, 0, 0, 0, 0, 0, 0, 0, 0, 0, 0, 0, 0, 0, 0,0.0,0.0,0.0,0.0,0.0,0.0,0.0,0.0,0.0,0.0,0.0,0.0,0.0,47,giraph-examples\src\test\java\org\apache\giraph\examples\TestPageRank.java,0,0,7,14
org.apache.giraph.examples.TryMultiIpcBindingPortsTest, 0, 0, 0, 0, 0, 0, 0, 0, 0, 0, 0, 0, 0, 0,0.0,0.0,0.0,0.0,0.0,0.0,0.0,0.0,0.0,0.0,0.0,0.0,0.0,63,giraph-examples\src\test\java\org\apache\giraph\examples\TryMultiIpcBindingPortsTest.java,0,0,3,6
org.apache.giraph.examples.VerifyMessage, 0, 0, 0, 0, 0, 0, 0, 0, 0, 0, 0, 0, 0, 0,0.0,0.0,0.0,0.0,0.0,0.0,0.0,0.0,0.0,0.0,0.0,0.0,0.0,137,giraph-examples\src\main\java\org\apache\giraph\examples\VerifyMessage.java,0,4,19,42
org.apache.giraph.graph.ComputeCallable, 0, 0, 0, 0, 0, 0, 0, 1, 0, 0, 0, 0, 0, 1,0.0,0.0,0.0,0.375,0.0,0.0,0.0,0.5,0.0,0.0,0.0,0.0,0.0,135,giraph-core\src\main\java\org\apache\giraph\graph\ComputeCallable.java,27,35,25,112
org.apache.giraph.graph.DefaultVertexResolver, 0, 0, 0, 0, 0, 0, 0, 1, 0, 0, 0, 0, 0, 1,0.0,0.0,0.0,1.0,0.0,0.0,0.0,1.0,0.0,0.0,0.0,0.0,0.0,102,giraph-core\src\main\java\org\apache\giraph\graph\DefaultVertexResolver.java,16,1,23,63
org.apache.giraph.graph.DefaultVertexValueFactory, 0, 0, 0, 0, 0, 0, 0, 0, 0, 0, 0, 0, 0, 0,0.0,0.0,0.0,1.0,0.0,0.0,0.0,1.0,0.0,0.0,0.0,0.0,0.0,25,giraph-core\src\main\java\org\apache\giraph\graph\DefaultVertexValueFactory.java,29,0,0,29
org.apache.giraph.graph.FinishedSuperstepStats, 0, 0, 0, 0, 0, 0, 0, 1, 0, 0, 0, 0, 0, 1,0.0,0.0,0.0,0.0,0.0,0.0,0.0,0.0,0.0,0.0,0.0,0.0,0.0,24,giraph-core\src\main\java\org\apache\giraph\graph\FinishedSuperstepStats.java,0,7,1,9
org.apache.giraph.graph.GlobalStats, 0, 0, 0, 0, 0, 0, 0, 0, 0, 0, 0, 0, 0, 0,0.0,0.0,0.0,1.0,0.0,0.0,0.0,1.0,0.0,0.0,0.0,0.0,0.0,55,giraph-core\src\main\java\org\apache\giraph\graph\GlobalStats.java,0,29,1,31
org.apache.giraph.graph.GraphMapper, 0, 0, 0, 0, 0, 0, 0, 1, 0, 0, 0, 0, 0, 1,0.0,0.0,0.0,0.0,0.0,0.0,0.0,0.0,0.0,0.0,0.0,0.0,0.0,48,giraph-core\src\main\java\org\apache\giraph\graph\GraphMapper.java,11,2,3,19
org.apache.giraph.graph.GraphState, 0, 0, 0, 1, 0, 0, 0, 1, 0, 0, 0, 0, 0, 2,0.0,0.0,0.0,0.15384615384615385,0.0,0.0,0.0,0.7692307692307693,0.0,0.0,0.0,0.0,0.0,61,giraph-core\src\main\java\org\apache\giraph\graph\GraphState.java,37,0,4,45
org.apache.giraph.graph.GraphStateAware, 0, 0, 0, 0, 0, 0, 0, 0, 0, 0, 0, 0, 0, 0,0.0,0.0,0.0,0.0,0.0,0.0,0.0,0.0,0.0,0.0,0.0,0.0,0.0,61,giraph-core\src\main\java\org\apache\giraph\graph\GraphStateAware.java,8,0,0,8
org.apache.giraph.graph.InputSplitEvents, 0, 0, 0, 0, 0, 0, 0, 0, 0, 0, 0, 0, 0, 0,0.0,0.0,0.0,0.0,0.0,0.0,0.0,1.0,0.0,0.0,0.0,0.0,0.0,24,giraph-core\src\main\java\org\apache\giraph\graph\InputSplitEvents.java,0,0,0,0
org.apache.giraph.graph.InputSplitPaths, 0, 0, 0, 0, 0, 0, 0, 1, 0, 0, 0, 0, 0, 1,0.0,0.0,0.0,0.0,0.0,0.0,0.0,0.0,0.0,0.0,0.0,0.0,0.0,28,giraph-core\src\main\java\org\apache\giraph\graph\InputSplitPaths.java,0,0,0,0
org.apache.giraph.graph.TaskInfo, 0, 0, 0, 0, 0, 0, 0, 0, 0, 0, 0, 0, 0, 0,0.0,0.0,0.0,0.09090909090909091,0.0,0.0,0.0,0.5454545454545454,0.0,0.0,0.0,0.0,0.0,68,giraph-core\src\main\java\org\apache\giraph\graph\TaskInfo.java,0,0,1,2
org.apache.giraph.graph.TestVertexAndEdges, 0, 0, 0, 0, 0, 0, 0, 0, 0, 0, 0, 0, 0, 0,0.0,0.0,0.0,0.26666666666666666,0.0,0.0,0.0,0.4666666666666667,0.0,0.0,0.0,0.0,0.0,367,giraph-core\src\test\java\org\apache\giraph\graph\TestVertexAndEdges.java,4,18,17,56
org.apache.giraph.graph.VertexChanges, 0, 0, 0, 0, 0, 0, 0, 0, 0, 0, 0, 0, 0, 0,0.0,0.0,0.0,0.0,0.0,0.0,0.0,0.0,0.0,0.0,0.0,0.0,0.0,367,giraph-core\src\main\java\org\apache\giraph\graph\VertexChanges.java,0,0,2,4
org.apache.giraph.graph.VertexEdgeCount, 0, 0, 0, 0, 0, 0, 0, 0, 0, 0, 0, 0, 0, 0,0.0,0.0,0.0,0.0,0.0,0.0,0.0,1.0,0.0,0.0,0.0,0.0,0.0,34,giraph-core\src\main\java\org\apache\giraph\graph\VertexEdgeCount.java,0,0,0,0
org.apache.giraph.graph.VertexMutations, 0, 0, 0, 1, 0, 0, 0, 0, 0, 0, 0, 0, 0, 1,0.0,0.0,0.0,1.0,0.0,0.0,0.0,1.0,0.0,0.0,0.0,0.0,0.0,117,giraph-core\src\main\java\org\apache\giraph\graph\VertexMutations.java,1,1,10,22
org.apache.giraph.graph.VertexResolver, 0, 0, 0, 0, 0, 0, 0, 0, 0, 0, 0, 0, 0, 0,0.0,0.0,0.0,0.0,0.0,0.0,0.0,0.0,0.0,0.0,0.0,0.0,0.0,117,giraph-core\src\main\java\org\apache\giraph\graph\VertexResolver.java,2,0,4,10
org.apache.giraph.graph.VertexValueFactory, 0, 0, 0, 0, 0, 0, 0, 0, 0, 0, 0, 0, 0, 0,0.0,0.0,0.0,0.0,0.0,0.0,0.0,0.0,0.0,0.0,0.0,0.0,0.0,117,giraph-core\src\main\java\org\apache\giraph\graph\VertexValueFactory.java,8,0,0,8
org.apache.giraph.hive.common.DefaultConfigurableAndTableSchemaAware, 0, 0, 0, 0, 0, 0, 0, 0, 0, 0, 0, 0, 0, 0,0.0,0.0,0.0,0.0,0.0,0.0,0.0,0.0,0.0,0.0,0.0,0.0,0.0,13,giraph-hive\src\main\java\org\apache\giraph\hive\common\DefaultConfigurableAndTableSchemaAware.java,1,0,4,9
org.apache.giraph.hive.common.GiraphHiveConstants, 0, 0, 0, 0, 0, 0, 0, 0, 0, 0, 0, 0, 0, 0,0.0,0.0,0.0,0.0,0.0,0.0,0.0,0.0,0.0,0.0,0.0,0.0,0.0,13,giraph-hive\src\main\java\org\apache\giraph\hive\common\GiraphHiveConstants.java,0,29,12,53
org.apache.giraph.hive.common.HiveProfiles, 0, 0, 0, 0, 0, 0, 0, 0, 0, 0, 0, 0, 0, 0,0.0,0.0,0.0,0.0,0.0,0.0,0.0,0.0,0.0,0.0,0.0,0.0,0.0,6,giraph-hive\src\main\java\org\apache\giraph\hive\common\HiveProfiles.java,7,0,0,7
org.apache.giraph.hive.input.RecordReaderWrapper, 0, 0, 0, 0, 0, 0, 0, 0, 0, 0, 0, 0, 0, 0,0.0,0.0,0.0,0.0,0.0,0.0,0.0,0.0,0.0,0.0,0.0,0.0,0.0,21,giraph-hive\src\main\java\org\apache\giraph\hive\input\RecordReaderWrapper.java,2,0,2,6
org.apache.giraph.hive.input.edge.AbstractHiveToEdge, 0, 0, 0, 0, 0, 0, 0, 0, 0, 0, 0, 0, 0, 0,0.0,0.0,0.0,0.0,0.0,0.0,0.0,0.0,0.0,0.0,0.0,0.0,0.0,14,giraph-hive\src\main\java\org\apache\giraph\hive\input\edge\AbstractHiveToEdge.java,6,0,1,8
org.apache.giraph.hive.input.edge.HiveEdgeInputFormat, 0, 0, 0, 0, 0, 0, 0, 0, 0, 0, 0, 0, 0, 0,0.0,0.0,0.0,0.0,0.0,0.0,0.0,0.0,0.0,0.0,0.0,0.0,0.0,28,giraph-hive\src\main\java\org\apache\giraph\hive\input\edge\HiveEdgeInputFormat.java,2,25,5,37
org.apache.giraph.hive.input.edge.HiveEdgeReader, 0, 0, 0, 0, 0, 0, 0, 0, 0, 0, 0, 0, 0, 0,0.0,0.0,0.0,0.0,0.0,0.0,0.0,0.0,0.0,0.0,0.0,0.0,0.0,50,giraph-hive\src\main\java\org\apache\giraph\hive\input\edge\HiveEdgeReader.java,12,3,3,21
org.apache.giraph.hive.input.edge.SimpleHiveToEdge, 0, 0, 0, 0, 0, 0, 0, 0, 0, 0, 0, 0, 0, 0,0.0,0.0,0.0,0.3333333333333333,0.0,0.0,0.0,0.3333333333333333,0.0,0.0,0.0,0.0,0.0,25,giraph-hive\src\main\java\org\apache\giraph\hive\input\edge\SimpleHiveToEdge.java,0,10,2,14
org.apache.giraph.hive.input.vertex.AbstractHiveToVertex, 0, 0, 0, 0, 0, 0, 0, 0, 0, 0, 0, 0, 0, 0,0.0,0.0,0.0,0.0,0.0,0.0,0.0,0.0,0.0,0.0,0.0,0.0,0.0,13,giraph-hive\src\main\java\org\apache\giraph\hive\input\vertex\AbstractHiveToVertex.java,5,0,1,7
org.apache.giraph.hive.input.vertex.HiveVertexInputFormat, 0, 0, 0, 0, 0, 0, 0, 0, 0, 0, 0, 0, 0, 0,0.0,0.0,0.0,0.0,0.0,0.0,0.0,0.0,0.0,0.0,0.0,0.0,0.0,28,giraph-hive\src\main\java\org\apache\giraph\hive\input\vertex\HiveVertexInputFormat.java,3,26,4,37
org.apache.giraph.hive.input.vertex.HiveVertexReader, 0, 0, 0, 0, 0, 0, 0, 0, 0, 0, 0, 0, 0, 0,0.0,0.0,0.0,0.0,0.0,0.0,0.0,0.0,0.0,0.0,0.0,0.0,0.0,45,giraph-hive\src\main\java\org\apache\giraph\hive\input\vertex\HiveVertexReader.java,6,3,5,19
org.apache.giraph.hive.input.vertex.SimpleHiveToVertex, 0, 0, 0, 0, 0, 0, 0, 0, 0, 0, 0, 0, 0, 0,0.0,0.0,0.0,0.25,0.0,0.0,0.0,0.25,0.0,0.0,0.0,0.0,0.0,38,giraph-hive\src\main\java\org\apache\giraph\hive\input\vertex\SimpleHiveToVertex.java,9,16,8,41
org.apache.giraph.hive.input.vertex.SimpleNoEdgesHiveToVertex, 0, 0, 0, 0, 0, 0, 0, 0, 0, 0, 0, 0, 0, 0,0.0,0.0,0.0,0.0,0.0,0.0,0.0,0.0,0.0,0.0,0.0,0.0,0.0,7,giraph-hive\src\main\java\org\apache\giraph\hive\input\vertex\SimpleNoEdgesHiveToVertex.java,0,0,1,2
org.apache.giraph.hive.output.AbstractVertexToHive, 0, 0, 0, 0, 0, 0, 0, 0, 0, 0, 0, 0, 0, 0,0.0,0.0,0.0,0.0,0.0,0.0,0.0,0.5,0.0,0.0,0.0,0.0,0.0,4,giraph-hive\src\main\java\org\apache\giraph\hive\output\AbstractVertexToHive.java,0,3,2,7
org.apache.giraph.hive.output.HiveRecordSaver, 0, 0, 0, 0, 0, 0, 0, 0, 0, 0, 0, 0, 0, 0,0.0,0.0,0.0,0.0,0.0,0.0,0.0,0.0,0.0,0.0,0.0,0.0,0.0,4,giraph-hive\src\main\java\org\apache\giraph\hive\output\HiveRecordSaver.java,0,0,1,2
org.apache.giraph.hive.output.HiveVertexOutputFormat, 0, 0, 0, 0, 0, 0, 0, 0, 0, 0, 0, 0, 0, 0,0.0,0.0,0.0,0.0,0.0,0.0,0.0,0.0,0.0,0.0,0.0,0.0,0.0,29,giraph-hive\src\main\java\org\apache\giraph\hive\output\HiveVertexOutputFormat.java,3,32,2,39
org.apache.giraph.hive.output.HiveVertexWriter, 0, 0, 0, 0, 0, 0, 0, 0, 0, 0, 0, 0, 0, 0,0.0,0.0,0.0,0.0,0.0,0.0,0.0,0.0,0.0,0.0,0.0,0.0,0.0,55,giraph-hive\src\main\java\org\apache\giraph\hive\output\HiveVertexWriter.java,19,5,5,34
org.apache.giraph.hive.output.SimpleVertexToHive, 0, 0, 0, 0, 0, 0, 0, 1, 0, 0, 0, 0, 0, 1,0.0,0.0,0.0,0.0,0.0,0.0,0.0,0.0,0.0,0.0,0.0,0.0,0.0,14,giraph-hive\src\main\java\org\apache\giraph\hive\output\SimpleVertexToHive.java,1,0,4,9
org.apache.giraph.hive.output.VertexToHive, 0, 0, 0, 0, 0, 0, 0, 0, 0, 0, 0, 0, 0, 0,0.0,0.0,0.0,0.0,0.0,0.0,0.0,0.0,0.0,0.0,0.0,0.0,0.0,14,giraph-hive\src\main\java\org\apache\giraph\hive\output\VertexToHive.java,0,5,2,9
org.apache.giraph.integration.SuperstepHashPartitionerFactory, 0, 0, 0, 0, 0, 0, 0, 0, 0, 0, 0, 0, 0, 0,0.0,0.0,0.0,0.0,0.0,0.0,0.0,0.0,0.0,0.0,0.0,0.0,0.0,56,giraph-core\src\main\java\org\apache\giraph\integration\SuperstepHashPartitionerFactory.java,0,0,6,12
org.apache.giraph.io.BasicVertexValueReader, 0, 0, 0, 0, 0, 0, 0, 0, 0, 0, 0, 0, 0, 0,0.0,0.0,0.0,0.0,0.0,0.0,0.0,0.0,0.0,0.0,0.0,0.0,0.0,8,giraph-core\src\main\java\org\apache\giraph\io\BasicVertexValueReader.java,0,0,0,0
org.apache.giraph.io.EdgeInputFormat, 0, 0, 0, 0, 0, 0, 0, 0, 0, 0, 0, 0, 0, 0,0.0,0.0,0.0,0.125,0.0,0.0,0.0,0.25,0.0,0.0,0.0,0.0,0.0,13,giraph-core\src\main\java\org\apache\giraph\io\EdgeInputFormat.java,10,0,1,12
org.apache.giraph.io.EdgeReader, 0, 0, 0, 0, 0, 0, 0, 0, 0, 0, 0, 0, 0, 0,0.0,0.0,0.0,0.0,0.0,0.0,0.0,0.14285714285714285,0.0,0.0,0.0,0.0,0.0,14,giraph-core\src\main\java\org\apache\giraph\io\EdgeReader.java,0,1,3,7
org.apache.giraph.io.GiraphInputFormat, 0, 0, 0, 0, 0, 0, 0, 0, 0, 0, 0, 0, 0, 0,0.0,0.0,0.0,0.0,0.0,0.0,0.0,0.0,0.0,0.0,0.0,0.0,0.0,14,giraph-core\src\main\java\org\apache\giraph\io\GiraphInputFormat.java,0,24,5,34
org.apache.giraph.io.ReverseEdgeDuplicator, 0, 0, 0, 0, 0, 0, 0, 0, 0, 0, 0, 0, 0, 0,0.0,0.0,0.0,0.0,0.0,0.0,0.0,0.0,0.0,0.0,0.0,0.0,0.0,58,giraph-core\src\main\java\org\apache\giraph\io\ReverseEdgeDuplicator.java,0,0,0,0
org.apache.giraph.io.SimpleVertexWriter, 0, 0, 0, 0, 0, 0, 0, 0, 0, 0, 0, 0, 0, 0,0.0,0.0,0.0,0.0,0.0,0.0,0.0,0.0,0.0,0.0,0.0,0.0,0.0,58,giraph-core\src\main\java\org\apache\giraph\io\SimpleVertexWriter.java,0,0,1,2
org.apache.giraph.io.TestAdjacencyListTextVertexOutputFormat, 0, 0, 0, 0, 0, 0, 0, 0, 0, 0, 0, 0, 0, 0,0.0,0.0,0.0,0.3333333333333333,0.0,0.0,0.0,0.3333333333333333,0.0,0.0,0.0,0.0,0.0,92,giraph-core\src\test\java\org\apache\giraph\io\TestAdjacencyListTextVertexOutputFormat.java,7,1,5,18
org.apache.giraph.io.TestIdWithValueTextOutputFormat, 0, 0, 0, 0, 0, 0, 0, 0, 0, 0, 0, 0, 0, 0,0.0,0.0,0.0,0.3333333333333333,0.0,0.0,0.0,0.3333333333333333,0.0,0.0,0.0,0.0,0.0,58,giraph-core\src\test\java\org\apache\giraph\io\TestIdWithValueTextOutputFormat.java,4,1,5,15
org.apache.giraph.io.TestJsonBase64Format, 0, 0, 0, 0, 0, 0, 0, 0, 0, 0, 0, 0, 0, 0,0.0,0.0,0.0,0.5,0.0,0.0,0.0,0.0,0.0,0.0,0.0,0.0,0.0,45,giraph-core\src\test\java\org\apache\giraph\io\TestJsonBase64Format.java,0,3,7,17
org.apache.giraph.io.TestLongDoubleDoubleAdjacencyListVertexInputFormat, 0, 0, 0, 0, 0, 0, 0, 0, 0, 0, 0, 0, 0, 0,0.0,0.0,0.0,0.2857142857142857,0.0,0.0,0.0,0.42857142857142855,0.0,0.0,0.0,0.0,0.0,105,giraph-core\src\test\java\org\apache\giraph\io\TestLongDoubleDoubleAdjacencyListVertexInputFormat.java,11,1,9,30
org.apache.giraph.io.TestTextDoubleDoubleAdjacencyListVertexInputFormat, 0, 0, 0, 0, 0, 0, 0, 1, 0, 0, 0, 0, 0, 1,0.0,0.0,0.0,0.2857142857142857,0.0,0.0,0.0,0.2857142857142857,0.0,0.0,0.0,0.0,0.0,154,giraph-core\src\test\java\org\apache\giraph\io\TestTextDoubleDoubleAdjacencyListVertexInputFormat.java,21,2,18,59
org.apache.giraph.io.VertexInputFormat, 0, 0, 0, 0, 0, 0, 0, 0, 0, 0, 0, 0, 0, 0,0.0,0.0,0.0,0.07142857142857142,0.0,0.0,0.0,0.14285714285714285,0.0,0.0,0.0,0.0,0.0,12,giraph-core\src\main\java\org\apache\giraph\io\VertexInputFormat.java,8,0,2,12
org.apache.giraph.io.VertexOutputFormat, 0, 0, 0, 0, 0, 0, 0, 0, 0, 0, 0, 0, 0, 0,0.0,0.0,0.0,0.09090909090909091,0.0,0.0,0.0,0.09090909090909091,0.0,0.0,0.0,0.0,0.0,11,giraph-core\src\main\java\org\apache\giraph\io\VertexOutputFormat.java,0,0,1,2
org.apache.giraph.io.VertexReader, 0, 0, 0, 0, 0, 0, 0, 0, 0, 0, 0, 0, 0, 0,0.0,0.0,0.0,0.0,0.0,0.0,0.0,0.18181818181818182,0.0,0.0,0.0,0.0,0.0,13,giraph-core\src\main\java\org\apache\giraph\io\VertexReader.java,0,1,3,7
org.apache.giraph.io.VertexValueInputFormat, 0, 0, 0, 0, 0, 0, 0, 0, 0, 0, 0, 0, 0, 0,0.0,0.0,0.0,0.0,0.0,0.0,0.0,0.0,0.0,0.0,0.0,0.0,0.0,10,giraph-core\src\main\java\org\apache\giraph\io\VertexValueInputFormat.java,0,0,0,0
org.apache.giraph.io.VertexValueReader, 0, 0, 0, 0, 0, 0, 0, 0, 0, 0, 0, 0, 0, 0,0.0,0.0,0.0,0.2,0.0,0.0,0.0,0.2,0.0,0.0,0.0,0.0,0.0,14,giraph-core\src\main\java\org\apache\giraph\io\VertexValueReader.java,1,1,2,6
org.apache.giraph.io.VertexWriter, 0, 0, 0, 0, 0, 0, 0, 0, 0, 0, 0, 0, 0, 0,0.0,0.0,0.0,0.0,0.0,0.0,0.0,0.0,0.0,0.0,0.0,0.0,0.0,9,giraph-core\src\main\java\org\apache\giraph\io\VertexWriter.java,0,0,1,2
org.apache.giraph.io.accumulo.edgemarker.AccumuloEdgeInputFormat, 0, 0, 0, 0, 0, 0, 0, 0, 0, 0, 0, 0, 0, 0,0.0,0.0,0.0,0.0,0.0,0.0,0.0,0.0,0.0,0.0,0.0,0.0,0.0,39,giraph-accumulo\src\test\java\org\apache\giraph\io\accumulo\edgemarker\AccumuloEdgeInputFormat.java,4,6,2,14
org.apache.giraph.io.accumulo.edgemarker.AccumuloEdgeOutputFormat, 0, 0, 0, 0, 0, 0, 0, 0, 0, 0, 0, 0, 0, 0,0.0,0.0,0.0,0.0,0.0,0.0,0.0,0.0,0.0,0.0,0.0,0.0,0.0,33,giraph-accumulo\src\test\java\org\apache\giraph\io\accumulo\edgemarker\AccumuloEdgeOutputFormat.java,0,0,1,2
org.apache.giraph.io.formats.AdjacencyListTextVertexInputFormat, 0, 0, 0, 0, 0, 0, 0, 0, 0, 0, 0, 0, 0, 0,0.0,0.0,0.0,0.0,0.0,0.0,0.0,0.0,0.0,0.0,0.0,0.0,0.0,67,giraph-core\src\main\java\org\apache\giraph\io\formats\AdjacencyListTextVertexInputFormat.java,0,0,0,0
org.apache.giraph.io.formats.GeneratedVertexInputFormat, 0, 0, 0, 0, 0, 0, 0, 0, 0, 0, 0, 0, 0, 0,0.0,0.0,0.0,0.0,0.0,0.0,0.0,0.0,0.0,0.0,0.0,0.0,0.0,13,giraph-core\src\main\java\org\apache\giraph\io\formats\GeneratedVertexInputFormat.java,0,2,0,2
org.apache.giraph.io.formats.GiraphFileInputFormat, 0, 0, 0, 1, 0, 0, 0, 0, 0, 0, 0, 0, 0, 1,0.0,0.0,0.0,0.0,0.0,0.0,0.0,0.0,0.0,0.0,0.0,0.0,0.0,167,giraph-core\src\main\java\org\apache\giraph\io\formats\GiraphFileInputFormat.java,0,1,1,3
org.apache.giraph.io.formats.GiraphTextInputFormat, 0, 0, 0, 0, 0, 0, 0, 0, 0, 0, 0, 0, 0, 0,0.0,0.0,0.0,0.25,0.0,0.0,0.0,0.0,0.0,0.0,0.0,0.0,0.0,14,giraph-core\src\main\java\org\apache\giraph\io\formats\GiraphTextInputFormat.java,0,0,0,0
org.apache.giraph.io.formats.IdWithValueTextOutputFormat, 0, 0, 0, 0, 0, 0, 0, 0, 0, 0, 0, 0, 0, 0,0.0,0.0,0.0,0.0,0.0,0.0,0.0,0.0,0.0,0.0,0.0,0.0,0.0,40,giraph-core\src\main\java\org\apache\giraph\io\formats\IdWithValueTextOutputFormat.java,1,2,8,19
org.apache.giraph.io.formats.IntIntNullTextInputFormat, 0, 0, 0, 0, 0, 0, 0, 0, 0, 0, 0, 0, 0, 0,0.0,0.0,0.0,0.0,0.0,0.0,0.0,0.0,0.0,0.0,0.0,0.0,0.0,39,giraph-core\src\main\java\org\apache\giraph\io\formats\IntIntNullTextInputFormat.java,1,1,2,6
org.apache.giraph.io.formats.IntIntTextVertexValueInputFormat, 0, 0, 0, 0, 0, 0, 0, 0, 0, 0, 0, 0, 0, 0,0.0,0.0,0.0,0.0,0.0,0.0,0.0,0.0,0.0,0.0,0.0,0.0,0.0,27,giraph-core\src\main\java\org\apache\giraph\io\formats\IntIntTextVertexValueInputFormat.java,1,0,2,5
org.apache.giraph.io.formats.IntNullNullTextInputFormat, 0, 0, 0, 0, 0, 0, 0, 0, 0, 0, 0, 0, 0, 0,0.0,0.0,0.0,0.0,0.0,0.0,0.0,0.0,0.0,0.0,0.0,0.0,0.0,30,giraph-core\src\main\java\org\apache\giraph\io\formats\IntNullNullTextInputFormat.java,0,0,0,0
org.apache.giraph.io.formats.IntNullReverseTextEdgeInputFormat, 0, 0, 0, 0, 0, 0, 0, 0, 0, 0, 0, 0, 0, 0,0.0,0.0,0.0,0.0,0.0,0.0,0.0,0.0,0.0,0.0,0.0,0.0,0.0,11,giraph-core\src\main\java\org\apache\giraph\io\formats\IntNullReverseTextEdgeInputFormat.java,0,0,0,0
org.apache.giraph.io.formats.IntNullTextEdgeInputFormat, 0, 0, 0, 0, 0, 0, 0, 0, 0, 0, 0, 0, 0, 0,0.0,0.0,0.0,0.0,0.0,0.0,0.0,0.0,0.0,0.0,0.0,0.0,0.0,32,giraph-core\src\main\java\org\apache\giraph\io\formats\IntNullTextEdgeInputFormat.java,0,0,0,0
org.apache.giraph.io.formats.JsonBase64VertexFormat, 0, 0, 0, 0, 0, 0, 0, 0, 0, 0, 0, 0, 0, 0,0.0,0.0,0.0,0.0,0.0,0.0,0.0,0.0,0.0,0.0,0.0,0.0,0.0,6,giraph-core\src\main\java\org\apache\giraph\io\formats\JsonBase64VertexFormat.java,0,0,0,0
org.apache.giraph.io.formats.JsonBase64VertexInputFormat, 0, 0, 0, 0, 0, 0, 0, 0, 0, 0, 0, 0, 0, 0,0.0,0.0,0.0,0.0,0.0,0.0,0.0,0.0,0.0,0.0,0.0,0.0,0.0,87,giraph-core\src\main\java\org\apache\giraph\io\formats\JsonBase64VertexInputFormat.java,0,0,0,0
org.apache.giraph.io.formats.JsonBase64VertexOutputFormat, 0, 0, 0, 0, 0, 0, 0, 0, 0, 0, 0, 0, 0, 0,0.0,0.0,0.0,0.0,0.0,0.0,0.0,0.0,0.0,0.0,0.0,0.0,0.0,53,giraph-core\src\main\java\org\apache\giraph\io\formats\JsonBase64VertexOutputFormat.java,0,0,1,2
org.apache.giraph.io.formats.JsonLongDoubleFloatDoubleVertexInputFormat, 0, 0, 0, 0, 0, 0, 0, 0, 0, 0, 0, 0, 0, 0,0.0,0.0,0.0,0.0,0.0,0.0,0.0,0.0,0.0,0.0,0.0,0.0,0.0,46,giraph-core\src\main\java\org\apache\giraph\io\formats\JsonLongDoubleFloatDoubleVertexInputFormat.java,2,1,2,7
org.apache.giraph.io.formats.JsonLongDoubleFloatDoubleVertexOutputFormat, 0, 0, 0, 0, 0, 0, 0, 0, 0, 0, 0, 0, 0, 0,0.0,0.0,0.0,0.0,0.0,0.0,0.0,0.0,0.0,0.0,0.0,0.0,0.0,35,giraph-core\src\main\java\org\apache\giraph\io\formats\JsonLongDoubleFloatDoubleVertexOutputFormat.java,1,0,1,3
org.apache.giraph.io.formats.LongDoubleDoubleAdjacencyListVertexInputFormat, 0, 0, 0, 0, 0, 0, 0, 0, 0, 0, 0, 0, 0, 0,0.0,0.0,0.0,0.0,0.0,0.0,0.0,0.0,0.0,0.0,0.0,0.0,0.0,29,giraph-core\src\main\java\org\apache\giraph\io\formats\LongDoubleDoubleAdjacencyListVertexInputFormat.java,0,0,0,0
org.apache.giraph.io.formats.PseudoRandomEdgeInputFormat, 0, 0, 0, 0, 0, 0, 0, 0, 0, 0, 0, 0, 0, 0,0.0,0.0,0.0,0.0,0.0,0.0,0.0,0.0,0.0,0.0,0.0,0.0,0.0,115,giraph-core\src\main\java\org\apache\giraph\io\formats\PseudoRandomEdgeInputFormat.java,0,2,0,2
org.apache.giraph.io.formats.PseudoRandomInputFormatConstants, 0, 0, 0, 0, 0, 0, 0, 0, 0, 0, 0, 0, 0, 0,0.0,0.0,0.0,0.0,0.0,0.0,0.0,0.0,0.0,0.0,0.0,0.0,0.0,10,giraph-core\src\main\java\org\apache\giraph\io\formats\PseudoRandomInputFormatConstants.java,0,0,0,0
org.apache.giraph.io.formats.PseudoRandomIntNullLocalEdgesHelper, 0, 0, 0, 0, 0, 0, 0, 0, 0, 0, 0, 0, 0, 0,0.0,0.0,0.0,0.5,0.0,0.0,0.0,0.5,0.0,0.0,0.0,0.0,0.0,27,giraph-core\src\main\java\org\apache\giraph\io\formats\PseudoRandomIntNullLocalEdgesHelper.java,0,0,0,0
org.apache.giraph.io.formats.PseudoRandomIntNullVertexInputFormat, 0, 0, 0, 0, 0, 0, 0, 0, 0, 0, 0, 0, 0, 0,0.0,0.0,0.0,0.0,0.0,0.0,0.0,0.0,0.0,0.0,0.0,0.0,0.0,86,giraph-core\src\main\java\org\apache\giraph\io\formats\PseudoRandomIntNullVertexInputFormat.java,0,2,2,6
org.apache.giraph.io.formats.PseudoRandomLocalEdgesHelper, 0, 0, 0, 0, 0, 0, 0, 1, 0, 0, 0, 0, 0, 1,0.0,0.0,0.0,0.5,0.0,0.0,0.0,0.5,0.0,0.0,0.0,0.0,0.0,41,giraph-core\src\main\java\org\apache\giraph\io\formats\PseudoRandomLocalEdgesHelper.java,0,0,0,0
org.apache.giraph.io.formats.PseudoRandomUtils, 0, 0, 0, 0, 0, 0, 0, 0, 0, 0, 0, 0, 0, 0,0.0,0.0,0.0,0.0,0.0,0.0,0.0,0.0,0.0,0.0,0.0,0.0,0.0,11,giraph-core\src\main\java\org\apache\giraph\io\formats\PseudoRandomUtils.java,0,0,0,0
org.apache.giraph.io.formats.PseudoRandomVertexInputFormat, 0, 0, 0, 0, 0, 0, 0, 0, 0, 0, 0, 0, 0, 0,0.0,0.0,0.0,0.0,0.0,0.0,0.0,0.0,0.0,0.0,0.0,0.0,0.0,108,giraph-core\src\main\java\org\apache\giraph\io\formats\PseudoRandomVertexInputFormat.java,5,7,2,16
org.apache.giraph.io.formats.SequenceFileVertexInputFormat, 0, 0, 0, 0, 0, 0, 0, 0, 0, 0, 0, 0, 0, 0,0.0,0.0,0.0,0.0,0.0,0.0,0.0,0.0,0.0,0.0,0.0,0.0,0.0,44,giraph-core\src\main\java\org\apache\giraph\io\formats\SequenceFileVertexInputFormat.java,2,4,3,12
org.apache.giraph.io.formats.SequenceFileVertexOutputFormat, 0, 0, 0, 0, 0, 0, 0, 0, 0, 0, 0, 0, 0, 0,0.0,0.0,0.0,0.0,0.0,0.0,0.0,0.0,0.0,0.0,0.0,0.0,0.0,47,giraph-core\src\main\java\org\apache\giraph\io\formats\SequenceFileVertexOutputFormat.java,0,0,1,2
org.apache.giraph.io.formats.TextDoubleDoubleAdjacencyListVertexInputFormat, 0, 0, 0, 0, 0, 0, 0, 0, 0, 0, 0, 0, 0, 0,0.0,0.0,0.0,0.0,0.0,0.0,0.0,0.5,0.0,0.0,0.0,0.0,0.0,29,giraph-core\src\main\java\org\apache\giraph\io\formats\TextDoubleDoubleAdjacencyListVertexInputFormat.java,1,0,1,3
org.apache.giraph.io.formats.TextEdgeInputFormat, 0, 0, 0, 0, 0, 0, 0, 0, 0, 0, 0, 0, 0, 0,0.0,0.0,0.0,0.25,0.0,0.0,0.0,0.0,0.0,0.0,0.0,0.0,0.0,96,giraph-core\src\main\java\org\apache\giraph\io\formats\TextEdgeInputFormat.java,0,2,0,2
org.apache.giraph.io.formats.TextVertexInputFormat, 0, 0, 0, 0, 0, 0, 0, 0, 0, 0, 0, 0, 0, 0,0.0,0.0,0.0,0.09090909090909091,0.0,0.0,0.0,0.0,0.0,0.0,0.0,0.0,0.0,119,giraph-core\src\main\java\org\apache\giraph\io\formats\TextVertexInputFormat.java,2,4,7,20
org.apache.giraph.io.formats.TextVertexOutputFormat, 0, 0, 0, 0, 0, 0, 0, 0, 0, 0, 0, 0, 0, 0,0.0,0.0,0.0,0.0,0.0,0.0,0.0,0.0,0.0,0.0,0.0,0.0,0.0,55,giraph-core\src\main\java\org\apache\giraph\io\formats\TextVertexOutputFormat.java,0,6,4,14
org.apache.giraph.io.formats.TextVertexValueInputFormat, 0, 0, 0, 0, 0, 0, 0, 0, 0, 0, 0, 0, 0, 0,0.0,0.0,0.0,0.25,0.0,0.0,0.0,0.0,0.0,0.0,0.0,0.0,0.0,92,giraph-core\src\main\java\org\apache\giraph\io\formats\TextVertexValueInputFormat.java,0,2,1,4
org.apache.giraph.io.hbase.HBaseVertexInputFormat, 0, 0, 0, 0, 0, 0, 0, 0, 0, 0, 0, 0, 0, 0,0.0,0.0,0.0,0.0,0.0,0.0,0.0,0.0,0.0,0.0,0.0,0.0,0.0,50,giraph-hbase\src\main\java\org\apache\giraph\io\hbase\HBaseVertexInputFormat.java,0,0,0,0
org.apache.giraph.io.hbase.HBaseVertexOutputFormat, 0, 0, 0, 0, 0, 0, 0, 0, 0, 0, 0, 0, 0, 0,0.0,0.0,0.0,0.0,0.0,0.0,0.0,0.0,0.0,0.0,0.0,0.0,0.0,47,giraph-hbase\src\main\java\org\apache\giraph\io\hbase\HBaseVertexOutputFormat.java,0,0,0,0
org.apache.giraph.io.hbase.TestHBaseRootMarkerVertextFormat, 0, 0, 0, 0, 0, 0, 0, 0, 0, 0, 0, 0, 0, 0,0.0,0.0,0.0,0.0,0.0,0.0,0.0,0.0,0.0,0.0,0.0,0.0,0.0,129,giraph-hbase\src\test\java\org\apache\giraph\io\hbase\TestHBaseRootMarkerVertextFormat.java,35,24,12,83
org.apache.giraph.io.hbase.edgemarker.TableEdgeInputFormat, 0, 0, 0, 0, 0, 0, 0, 0, 0, 0, 0, 0, 0, 0,0.0,0.0,0.0,0.0,0.0,0.0,0.0,0.0,0.0,0.0,0.0,0.0,0.0,40,giraph-hbase\src\test\java\org\apache\giraph\io\hbase\edgemarker\TableEdgeInputFormat.java,3,5,2,12
org.apache.giraph.io.hbase.edgemarker.TableEdgeOutputFormat, 0, 0, 0, 0, 0, 0, 0, 0, 0, 0, 0, 0, 0, 0,0.0,0.0,0.0,0.0,0.0,0.0,0.0,0.0,0.0,0.0,0.0,0.0,0.0,29,giraph-hbase\src\test\java\org\apache\giraph\io\hbase\edgemarker\TableEdgeOutputFormat.java,0,0,1,2
org.apache.giraph.io.hcatalog.HCatalogEdgeInputFormat, 0, 0, 0, 0, 0, 0, 0, 0, 0, 0, 0, 0, 0, 0,0.0,0.0,0.0,0.0,0.0,0.0,0.0,0.0,0.0,0.0,0.0,0.0,0.0,110,giraph-hcatalog\src\main\java\org\apache\giraph\io\hcatalog\HCatalogEdgeInputFormat.java,0,0,0,0
org.apache.giraph.io.hcatalog.HCatalogVertexInputFormat, 0, 0, 0, 0, 0, 0, 0, 0, 0, 0, 0, 0, 0, 0,0.0,0.0,0.0,0.0,0.0,0.0,0.0,0.0,0.0,0.0,0.0,0.0,0.0,165,giraph-hcatalog\src\main\java\org\apache\giraph\io\hcatalog\HCatalogVertexInputFormat.java,3,3,4,14
org.apache.giraph.io.hcatalog.HCatalogVertexOutputFormat, 0, 0, 0, 0, 0, 0, 0, 0, 0, 0, 0, 0, 0, 0,0.0,0.0,0.0,0.0,0.0,0.0,0.0,0.0,0.0,0.0,0.0,0.0,0.0,90,giraph-hcatalog\src\main\java\org\apache\giraph\io\hcatalog\HCatalogVertexOutputFormat.java,0,0,5,10
org.apache.giraph.io.hcatalog.HCatalogVertexValueInputFormat, 0, 0, 0, 0, 0, 0, 0, 0, 0, 0, 0, 0, 0, 0,0.0,0.0,0.0,0.0,0.0,0.0,0.0,0.0,0.0,0.0,0.0,0.0,0.0,73,giraph-hcatalog\src\main\java\org\apache\giraph\io\hcatalog\HCatalogVertexValueInputFormat.java,0,0,0,0
org.apache.giraph.io.iterables.EdgeReaderWrapper, 0, 0, 0, 0, 0, 0, 0, 0, 0, 0, 0, 0, 0, 0,0.0,0.0,0.0,0.16666666666666666,0.0,0.0,0.0,0.16666666666666666,0.0,0.0,0.0,0.0,0.0,40,giraph-core\src\main\java\org\apache\giraph\io\iterables\EdgeReaderWrapper.java,0,0,1,2
org.apache.giraph.io.iterables.EdgeWithSource, 0, 0, 0, 0, 0, 0, 0, 0, 0, 0, 0, 0, 0, 0,0.0,0.0,0.0,0.0,0.0,0.0,0.0,0.0,0.0,0.0,0.0,0.0,0.0,35,giraph-core\src\main\java\org\apache\giraph\io\iterables\EdgeWithSource.java,0,0,0,0
org.apache.giraph.io.iterables.IteratorToReaderWrapper, 0, 0, 0, 0, 0, 0, 0, 0, 0, 0, 0, 0, 0, 0,0.0,0.0,0.0,0.0,0.0,0.0,0.0,0.0,0.0,0.0,0.0,0.0,0.0,19,giraph-core\src\main\java\org\apache\giraph\io\iterables\IteratorToReaderWrapper.java,0,0,0,0
org.apache.giraph.io.iterables.VertexReaderWrapper, 0, 0, 0, 0, 0, 0, 0, 0, 0, 0, 0, 0, 0, 0,0.0,0.0,0.0,0.2,0.0,0.0,0.0,0.2,0.0,0.0,0.0,0.0,0.0,37,giraph-core\src\main\java\org\apache\giraph\io\iterables\VertexReaderWrapper.java,1,1,6,14
org.apache.giraph.io.superstep_output.MultiThreadedSuperstepOutput, 0, 0, 0, 0, 0, 0, 0, 0, 0, 0, 0, 0, 0, 0,0.0,0.0,0.0,0.25,0.0,0.0,0.0,0.25,0.0,0.0,0.0,0.0,0.0,64,giraph-core\src\main\java\org\apache\giraph\io\superstep_output\MultiThreadedSuperstepOutput.java,2,0,4,10
org.apache.giraph.io.superstep_output.NoOpSuperstepOutput, 0, 0, 0, 0, 0, 0, 0, 0, 0, 0, 0, 0, 0, 0,0.0,0.0,0.0,0.0,0.0,0.0,0.0,0.0,0.0,0.0,0.0,0.0,0.0,20,giraph-core\src\main\java\org\apache\giraph\io\superstep_output\NoOpSuperstepOutput.java,0,0,1,2
org.apache.giraph.io.superstep_output.SuperstepOutput, 0, 0, 0, 0, 0, 0, 0, 0, 0, 0, 0, 0, 0, 0,0.0,0.0,0.0,0.0,0.0,0.0,0.0,0.0,0.0,0.0,0.0,0.0,0.0,20,giraph-core\src\main\java\org\apache\giraph\io\superstep_output\SuperstepOutput.java,0,0,0,0
org.apache.giraph.io.superstep_output.SynchronizedSuperstepOutput, 0, 0, 0, 0, 0, 0, 0, 0, 0, 0, 0, 0, 0, 0,0.0,0.0,0.0,0.25,0.0,0.0,0.0,0.25,0.0,0.0,0.0,0.0,0.0,44,giraph-core\src\main\java\org\apache\giraph\io\superstep_output\SynchronizedSuperstepOutput.java,1,0,4,9
org.apache.giraph.job.DefaultJobObserver, 0, 0, 0, 0, 0, 0, 0, 0, 0, 0, 0, 0, 0, 0,0.0,0.0,0.0,1.0,0.0,0.0,0.0,1.0,0.0,0.0,0.0,0.0,0.0,18,giraph-core\src\main\java\org\apache\giraph\job\DefaultJobObserver.java,0,3,0,3
org.apache.giraph.job.GiraphJob, 0, 0, 0, 0, 0, 0, 0, 0, 0, 0, 0, 0, 0, 0,0.0,0.0,0.0,0.0625,0.0,0.0,0.0,0.0625,0.0,0.0,0.0,0.0,0.0,104,giraph-core\src\main\java\org\apache\giraph\job\GiraphJob.java,0,42,3,48
org.apache.giraph.job.GiraphJobObserver, 0, 0, 0, 0, 0, 0, 0, 0, 0, 0, 0, 0, 0, 0,0.0,0.0,0.0,0.0,0.0,0.0,0.0,0.0,0.0,0.0,0.0,0.0,0.0,104,giraph-core\src\main\java\org\apache\giraph\job\GiraphJobObserver.java,0,1,0,1
org.apache.giraph.master.DefaultMasterCompute, 0, 0, 0, 0, 0, 0, 0, 0, 0, 0, 0, 0, 0, 0,0.0,0.0,0.0,0.5,0.0,0.0,0.0,0.0,0.0,0.0,0.0,0.0,0.0,15,giraph-core\src\main\java\org\apache\giraph\master\DefaultMasterCompute.java,0,0,0,0
org.apache.giraph.master.DefaultMasterObserver, 0, 0, 0, 0, 0, 0, 0, 0, 0, 0, 0, 0, 0, 0,0.0,0.0,0.0,1.0,0.0,0.0,0.0,1.0,0.0,0.0,0.0,0.0,0.0,21,giraph-core\src\main\java\org\apache\giraph\master\DefaultMasterObserver.java,0,0,0,0
org.apache.giraph.master.MasterAggregatorUsage, 0, 0, 0, 0, 0, 0, 0, 0, 0, 0, 0, 0, 0, 0,0.0,0.0,0.0,0.0,0.0,0.0,0.0,0.0,0.0,0.0,0.0,0.0,0.0,21,giraph-core\src\main\java\org\apache\giraph\master\MasterAggregatorUsage.java,0,0,0,0
org.apache.giraph.master.MasterCompute, 0, 0, 0, 1, 0, 0, 0, 0, 0, 0, 0, 0, 0, 1,0.0,0.0,0.0,0.5,0.0,0.0,0.0,0.5,0.0,0.0,0.0,0.0,0.0,66,giraph-core\src\main\java\org\apache\giraph\master\MasterCompute.java,3,61,33,130
org.apache.giraph.master.MasterInfo, 0, 0, 0, 0, 0, 0, 0, 0, 0, 0, 0, 0, 0, 0,0.0,0.0,0.0,0.0,0.0,0.0,0.0,0.6666666666666666,0.0,0.0,0.0,0.0,0.0,15,giraph-core\src\main\java\org\apache\giraph\master\MasterInfo.java,0,0,0,0
org.apache.giraph.master.MasterObserver, 0, 0, 0, 0, 0, 0, 0, 0, 0, 0, 0, 0, 0, 0,0.0,0.0,0.0,0.0,0.0,0.0,0.0,0.0,0.0,0.0,0.0,0.0,0.0,15,giraph-core\src\main\java\org\apache\giraph\master\MasterObserver.java,0,0,0,0
org.apache.giraph.master.TestMasterObserver, 0, 0, 0, 0, 0, 0, 0, 0, 0, 0, 0, 0, 0, 0,0.0,0.0,0.0,0.0,0.0,0.0,0.0,0.0,0.0,0.0,0.0,0.0,0.0,55,giraph-core\src\test\java\org\apache\giraph\master\TestMasterObserver.java,1,32,9,51
org.apache.giraph.metrics.AggregatedMetric, 0, 0, 0, 0, 0, 0, 0, 0, 0, 0, 0, 0, 0, 0,0.0,0.0,0.0,0.0,0.0,0.0,0.0,0.0,0.0,0.0,0.0,0.0,0.0,38,giraph-core\src\main\java\org\apache\giraph\metrics\AggregatedMetric.java,0,0,0,0
org.apache.giraph.metrics.GiraphMetrics, 0, 0, 0, 0, 0, 0, 0, 0, 0, 0, 0, 0, 0, 0,0.0,0.0,0.0,0.16666666666666666,0.0,0.0,0.0,0.5,0.0,0.0,0.0,0.0,0.0,48,giraph-core\src\main\java\org\apache\giraph\metrics\GiraphMetrics.java,0,4,3,10
org.apache.giraph.metrics.GiraphTimer, 0, 0, 0, 0, 0, 0, 0, 1, 0, 0, 0, 0, 0, 1,0.0,0.0,0.0,0.0,0.0,0.0,0.0,0.0,0.0,0.0,0.0,0.0,0.0,34,giraph-core\src\main\java\org\apache\giraph\metrics\GiraphTimer.java,0,0,0,0
org.apache.giraph.metrics.GiraphTimerContext, 0, 0, 0, 0, 0, 0, 0, 0, 0, 0, 0, 0, 0, 0,0.0,0.0,0.0,0.0,0.0,0.0,0.0,1.0,0.0,0.0,0.0,0.0,0.0,13,giraph-core\src\main\java\org\apache\giraph\metrics\GiraphTimerContext.java,0,0,0,0
org.apache.giraph.metrics.LongAndTimeUnit, 0, 0, 0, 0, 0, 0, 0, 0, 0, 0, 0, 0, 0, 0,0.0,0.0,0.0,0.0,0.0,0.0,0.0,0.0,0.0,0.0,0.0,0.0,0.0,33,giraph-core\src\main\java\org\apache\giraph\metrics\LongAndTimeUnit.java,0,0,0,0
org.apache.giraph.metrics.MetricNames, 0, 0, 0, 0, 0, 0, 0, 0, 0, 0, 0, 0, 0, 0,0.0,0.0,0.0,0.0,0.0,0.0,0.0,0.0,0.0,0.0,0.0,0.0,0.0,33,giraph-core\src\main\java\org\apache\giraph\metrics\MetricNames.java,0,5,0,5
org.apache.giraph.metrics.MetricsRegistryDebugger, 0, 0, 0, 0, 0, 0, 0, 0, 0, 0, 0, 0, 0, 0,0.0,0.0,0.0,0.0,0.0,0.0,0.0,0.0,0.0,0.0,0.0,0.0,0.0,18,giraph-core\src\main\java\org\apache\giraph\metrics\MetricsRegistryDebugger.java,0,0,0,0
org.apache.giraph.metrics.ResetSuperstepMetricsObserver, 0, 0, 0, 0, 0, 0, 0, 0, 0, 0, 0, 0, 0, 0,0.0,0.0,0.0,0.0,0.0,0.0,0.0,0.0,0.0,0.0,0.0,0.0,0.0,18,giraph-core\src\main\java\org\apache\giraph\metrics\ResetSuperstepMetricsObserver.java,0,0,0,0
org.apache.giraph.metrics.SuperstepMetricsRegistry, 0, 0, 0, 0, 0, 0, 0, 1, 0, 0, 0, 0, 0, 1,0.0,0.0,0.0,0.3333333333333333,0.0,0.0,0.0,0.0,0.0,0.0,0.0,0.0,0.0,34,giraph-core\src\main\java\org\apache\giraph\metrics\SuperstepMetricsRegistry.java,0,12,0,12
org.apache.giraph.metrics.ValueGauge, 0, 0, 0, 0, 0, 0, 0, 0, 0, 0, 0, 0, 0, 0,0.0,0.0,0.0,0.0,0.0,0.0,0.0,0.5,0.0,0.0,0.0,0.0,0.0,20,giraph-core\src\main\java\org\apache\giraph\metrics\ValueGauge.java,0,0,0,0
org.apache.giraph.metrics.ValueWithHostname, 0, 0, 0, 0, 0, 0, 0, 0, 0, 0, 0, 0, 0, 0,0.0,0.0,0.0,0.0,0.0,0.0,0.0,0.0,0.0,0.0,0.0,0.0,0.0,21,giraph-core\src\main\java\org\apache\giraph\metrics\ValueWithHostname.java,0,0,0,0
org.apache.giraph.metrics.WorkerSuperstepMetrics, 0, 0, 0, 0, 0, 0, 0, 0, 0, 0, 0, 0, 0, 0,0.0,0.0,0.0,0.0,0.0,0.0,0.0,0.4,0.0,0.0,0.0,0.0,0.0,85,giraph-core\src\main\java\org\apache\giraph\metrics\WorkerSuperstepMetrics.java,12,0,0,12
org.apache.giraph.partition.BasicPartition, 0, 0, 0, 0, 0, 0, 0, 0, 0, 0, 0, 0, 0, 0,0.0,0.0,0.0,1.0,0.0,0.0,0.0,1.0,0.0,0.0,0.0,0.0,0.0,54,giraph-core\src\main\java\org\apache\giraph\partition\BasicPartition.java,5,14,7,33
org.apache.giraph.partition.DefaultPartitionContext, 0, 0, 0, 0, 0, 0, 0, 0, 0, 0, 0, 0, 0, 0,0.0,0.0,0.0,0.0,0.0,0.0,0.0,0.0,0.0,0.0,0.0,0.0,0.0,8,giraph-core\src\main\java\org\apache\giraph\partition\DefaultPartitionContext.java,10,0,0,10
org.apache.giraph.partition.GraphPartitionerFactory, 0, 0, 0, 0, 0, 0, 0, 0, 0, 0, 0, 0, 0, 0,0.0,0.0,0.0,0.0,0.0,0.0,0.0,0.0,0.0,0.0,0.0,0.0,0.0,8,giraph-core\src\main\java\org\apache\giraph\partition\GraphPartitionerFactory.java,0,2,4,10
org.apache.giraph.partition.HashMasterPartitioner, 0, 0, 0, 0, 0, 0, 0, 1, 0, 0, 0, 0, 0, 1,0.0,0.0,0.0,0.5,0.0,0.0,0.0,0.5,0.0,0.0,0.0,0.0,0.0,51,giraph-core\src\main\java\org\apache\giraph\partition\HashMasterPartitioner.java,0,5,2,9
org.apache.giraph.partition.HashPartitionerFactory, 0, 0, 0, 0, 0, 0, 0, 0, 0, 0, 0, 0, 0, 0,0.0,0.0,0.0,0.3333333333333333,0.0,0.0,0.0,0.6666666666666666,0.0,0.0,0.0,0.0,0.0,21,giraph-core\src\main\java\org\apache\giraph\partition\HashPartitionerFactory.java,7,2,8,25
org.apache.giraph.partition.HashRangePartitionerFactory, 0, 0, 0, 0, 0, 0, 0, 0, 0, 0, 0, 0, 0, 0,0.0,0.0,0.0,0.5,0.0,0.0,0.0,1.0,0.0,0.0,0.0,0.0,0.0,21,giraph-core\src\main\java\org\apache\giraph\partition\HashRangePartitionerFactory.java,7,2,8,25
org.apache.giraph.partition.HashRangeWorkerPartitioner, 0, 0, 0, 0, 0, 0, 0, 0, 0, 0, 0, 0, 0, 0,0.0,0.0,0.0,0.0,0.0,0.0,0.0,1.0,0.0,0.0,0.0,0.0,0.0,12,giraph-core\src\main\java\org\apache\giraph\partition\HashRangeWorkerPartitioner.java,0,0,2,4
org.apache.giraph.partition.HashWorkerPartitioner, 0, 0, 0, 0, 0, 0, 0, 1, 0, 0, 0, 0, 0, 1,0.0,0.0,0.0,0.0,0.0,0.0,0.0,0.0,0.0,0.0,0.0,0.0,0.0,33,giraph-core\src\main\java\org\apache\giraph\partition\HashWorkerPartitioner.java,1,0,5,11
org.apache.giraph.partition.MasterGraphPartitioner, 0, 0, 0, 0, 0, 0, 0, 0, 0, 0, 0, 0, 0, 0,0.0,0.0,0.0,0.0,0.0,0.0,0.0,0.0,0.0,0.0,0.0,0.0,0.0,33,giraph-core\src\main\java\org\apache\giraph\partition\MasterGraphPartitioner.java,0,1,1,3
org.apache.giraph.partition.PartitionContext, 0, 0, 0, 0, 0, 0, 0, 0, 0, 0, 0, 0, 0, 0,0.0,0.0,0.0,0.0,0.0,0.0,0.0,0.0,0.0,0.0,0.0,0.0,0.0,33,giraph-core\src\main\java\org\apache\giraph\partition\PartitionContext.java,6,0,0,6
org.apache.giraph.partition.PartitionStats, 0, 0, 0, 1, 0, 0, 0, 1, 0, 0, 0, 0, 0, 2,0.0,0.0,0.0,0.0,0.0,0.0,0.0,0.5,0.0,0.0,0.0,0.0,0.0,71,giraph-core\src\main\java\org\apache\giraph\partition\PartitionStats.java,0,12,2,16
org.apache.giraph.partition.PartitionStore, 0, 0, 0, 0, 0, 0, 0, 0, 0, 0, 0, 0, 0, 0,0.0,0.0,0.0,0.0,0.0,0.0,0.0,0.6666666666666666,0.0,0.0,0.0,0.0,0.0,15,giraph-core\src\main\java\org\apache\giraph\partition\PartitionStore.java,0,0,5,10
org.apache.giraph.partition.RangeMasterPartitioner, 0, 0, 0, 0, 0, 0, 0, 0, 0, 0, 0, 0, 0, 0,0.0,0.0,0.0,1.0,0.0,0.0,0.0,1.0,0.0,0.0,0.0,0.0,0.0,8,giraph-core\src\main\java\org\apache\giraph\partition\RangeMasterPartitioner.java,12,0,0,12
org.apache.giraph.partition.RangePartitionStats, 0, 0, 0, 0, 0, 0, 0, 0, 0, 0, 0, 0, 0, 0,0.0,0.0,0.0,0.5,0.0,0.0,0.0,0.5,0.0,0.0,0.0,0.0,0.0,26,giraph-core\src\main\java\org\apache\giraph\partition\RangePartitionStats.java,32,0,0,32
org.apache.giraph.partition.RangePartitionerFactory, 0, 0, 0, 0, 0, 0, 0, 0, 0, 0, 0, 0, 0, 0,0.0,0.0,0.0,0.0,0.0,0.0,0.0,0.0,0.0,0.0,0.0,0.0,0.0,4,giraph-core\src\main\java\org\apache\giraph\partition\RangePartitionerFactory.java,8,0,0,8
org.apache.giraph.partition.RangeSplitHint, 0, 0, 0, 0, 0, 0, 0, 0, 0, 0, 0, 0, 0, 0,0.0,0.0,0.0,0.5,0.0,0.0,0.0,0.5,0.0,0.0,0.0,0.0,0.0,28,giraph-core\src\main\java\org\apache\giraph\partition\RangeSplitHint.java,37,0,0,37
org.apache.giraph.partition.ReusesObjectsPartition, 0, 0, 0, 0, 0, 0, 0, 0, 0, 0, 0, 0, 0, 0,0.0,0.0,0.0,0.0,0.0,0.0,0.0,0.0,0.0,0.0,0.0,0.0,0.0,28,giraph-core\src\main\java\org\apache\giraph\partition\ReusesObjectsPartition.java,1,0,1,3
org.apache.giraph.partition.SimpleIntRangePartitionerFactory, 0, 0, 0, 0, 0, 0, 0, 0, 0, 0, 0, 0, 0, 0,0.0,0.0,0.0,0.5,0.0,0.0,0.0,1.0,0.0,0.0,0.0,0.0,0.0,37,giraph-core\src\main\java\org\apache\giraph\partition\SimpleIntRangePartitionerFactory.java,14,5,12,43
org.apache.giraph.partition.SimpleLongRangePartitionerFactory, 0, 0, 0, 0, 0, 0, 0, 0, 0, 0, 0, 0, 0, 0,0.0,0.0,0.0,0.5,0.0,0.0,0.0,1.0,0.0,0.0,0.0,0.0,0.0,37,giraph-core\src\main\java\org\apache\giraph\partition\SimpleLongRangePartitionerFactory.java,14,5,11,41
org.apache.giraph.partition.SimplePartitionStore, 0, 0, 0, 0, 0, 0, 0, 0, 0, 0, 0, 0, 0, 0,0.0,0.0,0.0,0.3333333333333333,0.0,0.0,0.0,0.6666666666666666,0.0,0.0,0.0,0.0,0.0,51,giraph-core\src\main\java\org\apache\giraph\partition\SimplePartitionStore.java,1,10,11,33
org.apache.giraph.partition.SimpleRangeMasterPartitioner, 0, 0, 0, 0, 0, 0, 0, 1, 0, 0, 0, 0, 0, 1,0.0,0.0,0.0,0.5,0.0,0.0,0.0,0.5,0.0,0.0,0.0,0.0,0.0,58,giraph-core\src\main\java\org\apache\giraph\partition\SimpleRangeMasterPartitioner.java,68,0,0,68
org.apache.giraph.partition.SimpleRangeWorkerPartitioner, 0, 0, 0, 0, 0, 0, 0, 1, 0, 0, 0, 0, 0, 1,0.0,0.0,0.0,0.0,0.0,0.0,0.0,0.0,0.0,0.0,0.0,0.0,0.0,43,giraph-core\src\main\java\org\apache\giraph\partition\SimpleRangeWorkerPartitioner.java,50,0,0,50
org.apache.giraph.partition.TestGiraphTransferRegulator, 0, 0, 0, 0, 0, 0, 0, 0, 0, 0, 0, 0, 0, 0,0.0,0.0,0.0,0.0,0.0,0.0,0.0,0.0,0.0,0.0,0.0,0.0,0.0,39,giraph-core\src\test\java\org\apache\giraph\partition\TestGiraphTransferRegulator.java,3,3,5,16
org.apache.giraph.partition.TestPartitionStores, 0, 0, 0, 0, 0, 0, 0, 1, 0, 0, 0, 0, 0, 1,0.0,0.0,0.0,0.375,0.0,0.0,0.0,0.375,0.0,0.0,0.0,0.0,0.0,167,giraph-core\src\test\java\org\apache\giraph\partition\TestPartitionStores.java,27,281,51,410
org.apache.giraph.partition.WorkerGraphPartitioner, 0, 0, 0, 0, 0, 0, 0, 0, 0, 0, 0, 0, 0, 0,0.0,0.0,0.0,0.0,0.0,0.0,0.0,0.0,0.0,0.0,0.0,0.0,0.0,167,giraph-core\src\main\java\org\apache\giraph\partition\WorkerGraphPartitioner.java,1,0,3,7
org.apache.giraph.time.FakeTime, 0, 0, 0, 0, 0, 0, 0, 0, 0, 0, 0, 0, 0, 0,0.0,0.0,0.0,0.0,0.0,0.0,0.0,0.0,0.0,0.0,0.0,0.0,0.0,27,giraph-core\src\main\java\org\apache\giraph\time\FakeTime.java,0,0,0,0
org.apache.giraph.time.SystemTime, 0, 0, 0, 0, 0, 0, 0, 0, 0, 0, 0, 0, 0, 0,0.0,0.0,0.0,0.0,0.0,0.0,0.0,0.5,0.0,0.0,0.0,0.0,0.0,30,giraph-core\src\main\java\org\apache\giraph\time\SystemTime.java,0,0,0,0
org.apache.giraph.time.Time, 0, 0, 0, 0, 0, 0, 0, 0, 0, 0, 0, 0, 0, 0,0.0,0.0,0.0,0.0,0.0,0.0,0.0,0.0,0.0,0.0,0.0,0.0,0.0,30,giraph-core\src\main\java\org\apache\giraph\time\Time.java,0,0,0,0
org.apache.giraph.time.Times, 0, 0, 0, 0, 0, 0, 0, 1, 0, 0, 0, 0, 0, 1,0.0,0.0,0.125,0.125,0.0,0.0,0.0,0.625,0.0,0.0,0.0,0.0,0.0,31,giraph-core\src\main\java\org\apache\giraph\time\Times.java,0,0,0,0
org.apache.giraph.utils.ByteArrayVertexIdData, 0, 0, 0, 1, 0, 0, 0, 0, 0, 0, 0, 0, 0, 1,0.0,0.0,0.0,0.16666666666666666,0.0,0.0,0.0,0.16666666666666666,0.0,0.0,0.0,0.0,0.0,92,giraph-core\src\main\java\org\apache\giraph\utils\ByteArrayVertexIdData.java,82,0,5,92
org.apache.giraph.utils.ByteArrayVertexIdEdges, 0, 0, 0, 0, 0, 0, 0, 0, 0, 0, 0, 0, 0, 0,0.0,0.0,0.0,0.5,0.0,0.0,0.0,0.6666666666666666,0.0,0.0,0.0,0.0,0.0,32,giraph-core\src\main\java\org\apache\giraph\utils\ByteArrayVertexIdEdges.java,8,1,6,21
org.apache.giraph.utils.ByteArrayVertexIdMessages, 0, 0, 0, 0, 0, 0, 0, 0, 0, 0, 0, 0, 0, 0,0.0,0.0,0.0,0.3333333333333333,0.0,0.0,0.0,0.3333333333333333,0.0,0.0,0.0,0.0,0.0,91,giraph-core\src\main\java\org\apache\giraph\utils\ByteArrayVertexIdMessages.java,38,19,11,79
org.apache.giraph.utils.CallableFactory, 0, 0, 0, 0, 0, 0, 0, 0, 0, 0, 0, 0, 0, 0,0.0,0.0,0.0,0.0,0.0,0.0,0.0,0.0,0.0,0.0,0.0,0.0,0.0,91,giraph-core\src\main\java\org\apache\giraph\utils\CallableFactory.java,0,0,0,0
org.apache.giraph.utils.CollectionUtils, 0, 0, 0, 0, 0, 0, 0, 1, 0, 0, 0, 0, 0, 1,0.0,0.0,0.0,0.0,0.0,0.0,0.0,0.0,0.0,0.0,0.0,0.0,0.0,55,giraph-core\src\main\java\org\apache\giraph\utils\CollectionUtils.java,0,0,0,0
org.apache.giraph.utils.DynamicChannelBufferInputStream, 0, 0, 0, 0, 0, 0, 0, 1, 0, 0, 0, 0, 0, 1,0.0,0.0,0.0,0.0,0.0,0.0,0.0,0.0,0.0,0.0,0.0,0.0,0.0,168,giraph-core\src\main\java\org\apache\giraph\utils\DynamicChannelBufferInputStream.java,0,0,3,6
org.apache.giraph.utils.DynamicChannelBufferOutputStream, 0, 0, 0, 0, 0, 0, 0, 1, 0, 0, 0, 0, 0, 1,0.0,0.0,0.0,0.0,0.0,0.0,0.0,0.0,0.0,0.0,0.0,0.0,0.0,114,giraph-core\src\main\java\org\apache\giraph\utils\DynamicChannelBufferOutputStream.java,0,0,9,18
org.apache.giraph.utils.EdgeComparator, 0, 0, 0, 0, 0, 0, 0, 0, 0, 0, 0, 0, 0, 0,0.0,0.0,0.0,0.0,0.0,0.0,0.0,0.0,0.0,0.0,0.0,0.0,0.0,18,giraph-core\src\main\java\org\apache\giraph\utils\EdgeComparator.java,0,3,1,5
org.apache.giraph.utils.ExtendedByteArrayDataInput, 0, 0, 0, 1, 0, 0, 0, 1, 0, 0, 0, 0, 0, 2,0.0,0.0,0.0,1.0,0.0,0.0,0.0,1.0,0.0,0.0,0.0,0.0,0.0,76,giraph-core\src\main\java\org\apache\giraph\utils\ExtendedByteArrayDataInput.java,0,4,0,4
org.apache.giraph.utils.ExtendedByteArrayDataOutput, 0, 0, 0, 1, 0, 0, 0, 0, 0, 0, 0, 0, 0, 1,0.0,0.0,0.0,0.6666666666666666,0.0,0.0,0.0,0.6666666666666666,0.0,0.0,0.0,0.0,0.0,99,giraph-core\src\main\java\org\apache\giraph\utils\ExtendedByteArrayDataOutput.java,0,12,3,18
org.apache.giraph.utils.ExtendedDataInput, 0, 0, 0, 0, 0, 0, 0, 0, 0, 0, 0, 0, 0, 0,0.0,0.0,0.0,0.0,0.0,0.0,0.0,0.0,0.0,0.0,0.0,0.0,0.0,99,giraph-core\src\main\java\org\apache\giraph\utils\ExtendedDataInput.java,0,1,0,1
org.apache.giraph.utils.ExtendedDataOutput, 0, 0, 0, 0, 0, 0, 0, 0, 0, 0, 0, 0, 0, 0,0.0,0.0,0.0,0.0,0.0,0.0,0.0,0.0,0.0,0.0,0.0,0.0,0.0,99,giraph-core\src\main\java\org\apache\giraph\utils\ExtendedDataOutput.java,0,2,0,2
org.apache.giraph.utils.FileUtils, 0, 0, 0, 0, 0, 0, 0, 1, 0, 0, 0, 0, 0, 1,0.0,0.0,0.0,0.0,0.0,0.0,0.0,0.0,0.0,0.0,0.0,0.0,0.0,71,giraph-core\src\main\java\org\apache\giraph\utils\FileUtils.java,0,8,6,20
org.apache.giraph.utils.InMemoryVertexInputFormat, 0, 0, 0, 0, 0, 0, 0, 0, 0, 0, 0, 0, 0, 0,0.0,0.0,0.0,0.0,0.0,0.0,0.0,0.0,0.0,0.0,0.0,0.0,0.0,53,giraph-core\src\main\java\org\apache\giraph\utils\InMemoryVertexInputFormat.java,4,6,3,16
org.apache.giraph.utils.IncreasingBitSet, 0, 0, 0, 0, 0, 0, 0, 0, 0, 0, 0, 0, 0, 0,0.0,0.0,0.0,0.0,0.0,0.0,0.0,0.0,0.0,0.0,0.0,0.0,0.0,50,giraph-core\src\main\java\org\apache\giraph\utils\IncreasingBitSet.java,0,0,0,0
org.apache.giraph.utils.IntPair, 0, 0, 0, 0, 0, 0, 0, 0, 0, 0, 0, 0, 0, 0,0.0,0.0,0.0,0.0,0.0,0.0,0.0,0.0,0.0,0.0,0.0,0.0,0.0,20,giraph-core\src\main\java\org\apache\giraph\utils\IntPair.java,0,0,0,0
org.apache.giraph.utils.JMapHistoDumper, 0, 0, 0, 0, 0, 0, 0, 0, 0, 0, 0, 0, 0, 0,0.0,0.0,0.0,0.5,0.0,0.0,0.0,0.5,0.0,0.0,0.0,0.0,0.0,55,giraph-core\src\main\java\org\apache\giraph\utils\JMapHistoDumper.java,0,8,3,14
org.apache.giraph.utils.LogStacktraceCallable, 0, 0, 0, 0, 0, 0, 0, 0, 0, 0, 0, 0, 0, 0,0.0,0.0,0.0,0.0,0.0,0.0,0.0,1.0,0.0,0.0,0.0,0.0,0.0,17,giraph-core\src\main\java\org\apache\giraph\utils\LogStacktraceCallable.java,0,0,0,0
org.apache.giraph.utils.LoggerUtils, 0, 0, 0, 0, 0, 0, 0, 1, 0, 0, 0, 0, 0, 1,0.0,0.0,0.0,0.0,0.0,0.0,0.0,1.0,0.0,0.0,0.0,0.0,0.0,27,giraph-core\src\main\java\org\apache\giraph\utils\LoggerUtils.java,0,0,0,0
org.apache.giraph.utils.MasterLoggingAggregator, 0, 0, 0, 0, 0, 0, 0, 1, 0, 0, 0, 0, 0, 1,0.0,0.0,0.0,0.0,0.0,0.0,0.0,0.0,0.0,0.0,0.0,0.0,0.0,49,giraph-core\src\main\java\org\apache\giraph\utils\MasterLoggingAggregator.java,0,0,0,0
org.apache.giraph.utils.MathUtils, 0, 0, 0, 0, 0, 0, 0, 0, 0, 0, 0, 0, 0, 0,0.0,0.0,0.0,0.0,0.0,0.0,0.0,0.0,0.0,0.0,0.0,0.0,0.0,14,giraph-core\src\main\java\org\apache\giraph\utils\MathUtils.java,0,0,0,0
org.apache.giraph.utils.MemoryUtils, 0, 0, 0, 0, 0, 0, 0, 0, 0, 0, 0, 0, 0, 0,0.0,0.0,0.0,0.0,0.0,0.0,0.0,0.75,0.0,0.0,0.0,0.0,0.0,33,giraph-core\src\main\java\org\apache\giraph\utils\MemoryUtils.java,0,0,0,0
org.apache.giraph.utils.MockUtils, 0, 0, 0, 0, 0, 0, 0, 1, 0, 0, 0, 0, 0, 1,0.0,0.0,0.0,0.25,0.0,0.0,0.0,0.25,0.0,0.0,0.0,0.0,0.0,94,giraph-core\src\test\java\org\apache\giraph\utils\MockUtils.java,9,12,27,75
org.apache.giraph.utils.PairList, 0, 0, 0, 0, 0, 0, 0, 0, 0, 0, 0, 0, 0, 0,0.0,0.0,0.0,0.0,0.0,0.0,0.0,0.3333333333333333,0.0,0.0,0.0,0.0,0.0,42,giraph-core\src\main\java\org\apache\giraph\utils\PairList.java,0,0,0,0
org.apache.giraph.utils.ProgressableUtils, 0, 0, 0, 0, 0, 0, 0, 1, 0, 0, 0, 0, 0, 1,0.0,0.0,0.0,0.3333333333333333,0.0,0.0,0.0,0.6666666666666666,0.0,0.0,0.0,0.0,0.0,178,giraph-core\src\main\java\org\apache\giraph\utils\ProgressableUtils.java,1,15,6,28
org.apache.giraph.utils.RepresentativeByteArrayIterable, 0, 0, 0, 0, 0, 0, 0, 1, 0, 0, 0, 0, 0, 1,0.0,0.0,0.0,1.0,0.0,0.0,0.0,1.0,0.0,0.0,0.0,0.0,0.0,23,giraph-core\src\main\java\org\apache\giraph\utils\RepresentativeByteArrayIterable.java,27,0,0,27
org.apache.giraph.utils.RepresentativeByteArrayIterator, 0, 0, 0, 0, 0, 0, 0, 1, 0, 0, 0, 0, 0, 1,0.0,0.0,0.0,1.0,0.0,0.0,0.0,1.0,0.0,0.0,0.0,0.0,0.0,18,giraph-core\src\main\java\org\apache\giraph\utils\RepresentativeByteArrayIterator.java,22,0,0,22
org.apache.giraph.utils.TaskIdsPermitsBarrier, 0, 0, 0, 0, 0, 0, 0, 0, 0, 0, 0, 0, 0, 0,0.0,0.0,0.0,0.0,0.0,0.0,0.0,0.0,0.0,0.0,0.0,0.0,0.0,60,giraph-core\src\main\java\org\apache\giraph\utils\TaskIdsPermitsBarrier.java,0,0,0,0
org.apache.giraph.utils.TimedLogger, 0, 0, 0, 0, 0, 0, 0, 0, 0, 0, 0, 0, 0, 0,0.0,0.0,0.0,0.0,0.0,0.0,0.0,0.5,0.0,0.0,0.0,0.0,0.0,21,giraph-core\src\main\java\org\apache\giraph\utils\TimedLogger.java,0,0,0,0
org.apache.giraph.utils.UnsafeByteArrayInputStream, 0, 0, 0, 1, 0, 0, 0, 1, 0, 0, 0, 0, 0, 2,0.0,0.0,0.0,0.5,0.0,0.0,0.0,0.75,0.0,0.0,0.0,0.0,0.0,244,giraph-core\src\main\java\org\apache\giraph\utils\UnsafeByteArrayInputStream.java,240,0,3,246
org.apache.giraph.utils.UnsafeByteArrayOutputStream, 0, 0, 0, 1, 0, 0, 0, 1, 0, 0, 0, 0, 0, 2,0.0,0.0,0.0,0.5,0.0,0.0,0.0,0.75,0.0,0.0,0.0,0.0,0.0,211,giraph-core\src\main\java\org\apache\giraph\utils\UnsafeByteArrayOutputStream.java,14,21,8,51
org.apache.giraph.utils.VertexIdIterator, 0, 0, 0, 0, 0, 0, 0, 0, 0, 0, 0, 0, 0, 0,0.0,0.0,0.0,0.5,0.0,0.0,0.0,1.0,0.0,0.0,0.0,0.0,0.0,22,giraph-core\src\main\java\org\apache\giraph\utils\VertexIdIterator.java,14,0,8,30
org.apache.giraph.utils.WritableUtils, 0, 0, 0, 1, 0, 0, 0, 1, 0, 0, 0, 0, 0, 2,0.0,0.0,0.0,0.6,0.0,0.0,0.0,0.4,0.0,0.0,0.0,0.0,0.0,280,giraph-core\src\main\java\org\apache\giraph\utils\WritableUtils.java,15,212,26,279
org.apache.giraph.vertex.TestVertexTypes, 0, 0, 0, 0, 0, 0, 0, 0, 0, 0, 0, 0, 0, 0,0.0,0.0,0.0,1.0,0.0,0.0,0.0,1.0,0.0,0.0,0.0,0.0,0.0,162,giraph-examples\src\test\java\org\apache\giraph\vertex\TestVertexTypes.java,182,0,0,182
org.apache.giraph.worker.DefaultWorkerContext, 0, 0, 0, 0, 0, 0, 0, 0, 0, 0, 0, 0, 0, 0,0.0,0.0,0.0,0.0,0.0,0.0,0.0,0.0,0.0,0.0,0.0,0.0,0.0,12,giraph-core\src\main\java\org\apache\giraph\worker\DefaultWorkerContext.java,0,0,0,0
org.apache.giraph.worker.DefaultWorkerObserver, 0, 0, 0, 0, 0, 0, 0, 0, 0, 0, 0, 0, 0, 0,0.0,0.0,0.0,1.0,0.0,0.0,0.0,1.0,0.0,0.0,0.0,0.0,0.0,24,giraph-core\src\main\java\org\apache\giraph\worker\DefaultWorkerObserver.java,1,6,2,11
org.apache.giraph.worker.EdgeInputSplitsCallable, 0, 0, 0, 0, 0, 0, 0, 1, 0, 0, 0, 0, 0, 1,0.0,0.0,0.0,0.18181818181818182,0.0,0.0,0.0,0.5454545454545454,0.0,0.0,0.0,0.0,0.0,78,giraph-core\src\main\java\org\apache\giraph\worker\EdgeInputSplitsCallable.java,6,52,15,88
org.apache.giraph.worker.EdgeInputSplitsCallableFactory, 0, 0, 0, 0, 0, 0, 0, 1, 0, 0, 0, 0, 0, 1,0.0,0.0,0.0,0.4,0.0,0.0,0.0,1.0,0.0,0.0,0.0,0.0,0.0,34,giraph-core\src\main\java\org\apache\giraph\worker\EdgeInputSplitsCallableFactory.java,5,5,7,24
org.apache.giraph.worker.InputSplitsCallable, 0, 0, 0, 0, 0, 0, 0, 1, 0, 0, 0, 0, 0, 1,0.0,0.0,0.0,0.2,0.0,0.0,0.0,0.8,0.0,0.0,0.0,0.0,0.0,137,giraph-core\src\main\java\org\apache\giraph\worker\InputSplitsCallable.java,20,38,11,80
org.apache.giraph.worker.InputSplitsHandler, 0, 0, 0, 0, 0, 0, 0, 1, 0, 0, 0, 0, 0, 1,0.0,0.0,0.0,0.0,0.0,0.0,0.0,1.0,0.0,0.0,0.0,0.0,0.0,109,giraph-core\src\main\java\org\apache\giraph\worker\InputSplitsHandler.java,0,0,0,0
org.apache.giraph.worker.VertexInputSplitsCallable, 0, 0, 0, 0, 0, 0, 0, 1, 0, 0, 0, 0, 0, 1,0.0,0.0,0.0,0.18181818181818182,0.0,0.0,0.0,0.5454545454545454,0.0,0.0,0.0,0.0,0.0,88,giraph-core\src\main\java\org\apache\giraph\worker\VertexInputSplitsCallable.java,10,76,14,114
org.apache.giraph.worker.VertexInputSplitsCallableFactory, 0, 0, 0, 0, 0, 0, 0, 1, 0, 0, 0, 0, 0, 1,0.0,0.0,0.0,0.4,0.0,0.0,0.0,1.0,0.0,0.0,0.0,0.0,0.0,34,giraph-core\src\main\java\org\apache\giraph\worker\VertexInputSplitsCallableFactory.java,5,5,7,24
org.apache.giraph.worker.WorkerAggregatorUsage, 0, 0, 0, 0, 0, 0, 0, 0, 0, 0, 0, 0, 0, 0,0.0,0.0,0.0,0.0,0.0,0.0,0.0,0.0,0.0,0.0,0.0,0.0,0.0,34,giraph-core\src\main\java\org\apache\giraph\worker\WorkerAggregatorUsage.java,0,0,0,0
org.apache.giraph.worker.WorkerContext, 0, 0, 0, 0, 0, 0, 0, 0, 0, 0, 0, 0, 0, 0,0.0,0.0,0.0,0.4,0.0,0.0,0.0,0.4,0.0,0.0,0.0,0.0,0.0,31,giraph-core\src\main\java\org\apache\giraph\worker\WorkerContext.java,2,40,3,48
org.apache.giraph.worker.WorkerInfo, 0, 0, 0, 0, 0, 0, 0, 0, 0, 0, 0, 0, 0, 0,0.0,0.0,0.0,0.0,0.0,0.0,0.0,0.6153846153846154,0.0,0.0,0.0,0.0,0.0,8,giraph-core\src\main\java\org\apache\giraph\worker\WorkerInfo.java,0,0,0,0
org.apache.giraph.worker.WorkerObserver, 0, 0, 0, 0, 0, 0, 0, 0, 0, 0, 0, 0, 0, 0,0.0,0.0,0.0,0.0,0.0,0.0,0.0,0.0,0.0,0.0,0.0,0.0,0.0,8,giraph-core\src\main\java\org\apache\giraph\worker\WorkerObserver.java,0,3,3,9
org.apache.giraph.worker.WorkerThreadAggregatorUsage, 0, 0, 0, 0, 0, 0, 0, 0, 0, 0, 0, 0, 0, 0,0.0,0.0,0.0,0.0,0.0,0.0,0.0,0.0,0.0,0.0,0.0,0.0,0.0,8,giraph-core\src\main\java\org\apache\giraph\worker\WorkerThreadAggregatorUsage.java,4,0,0,4
org.apache.giraph.zk.BspEvent, 0, 0, 0, 0, 0, 0, 0, 0, 0, 0, 0, 0, 0, 0,0.0,0.0,0.0,0.0,0.0,0.0,0.0,0.0,0.0,0.0,0.0,0.0,0.0,8,giraph-core\src\main\java\org\apache\giraph\zk\BspEvent.java,0,0,0,0
org.apache.giraph.zk.PredicateLock, 0, 0, 0, 0, 0, 0, 0, 1, 0, 0, 0, 0, 0, 1,0.0,0.0,0.0,0.0,0.0,0.0,0.0,0.0,0.0,0.0,0.0,0.0,0.0,82,giraph-core\src\main\java\org\apache\giraph\zk\PredicateLock.java,0,0,0,0
org.apache.giraph.zk.TestPredicateLock, 0, 0, 0, 0, 0, 0, 0, 0, 0, 0, 0, 0, 0, 0,0.0,0.0,0.0,0.0,0.0,0.0,0.0,1.0,0.0,0.0,0.0,0.0,0.0,87,giraph-core\src\test\java\org\apache\giraph\zk\TestPredicateLock.java,0,0,0,0
