ClassName,AntiSingleton,Blob,ClassDataShouldBePrivate,ComplexClass,LargeClass,LazyClass,LongMethod,LongParameterList,MessageChains,RefusedParentBequest,SpaghettiCode,SpeculativeGenerality,SwissArmyKnife,NumOfAPs,AntiSingleton,Blob,ClassDataShouldBePrivate,ComplexClass,LargeClass,LazyClass,LongMethod,LongParameterList,MessageChains,RefusedParentBequest,SpaghettiCode,SpeculativeGenerality,SwissArmyKnife,LOC,name,deleted,added,changed,all
javax.xml.crypto.test.KeySelectorExceptionTest, 0, 0, 0, 0, 0, 0, 0, 0, 0, 0, 0, 0, 0, 0,0.0,0.0,0.0,0.0,0.0,0.0,0.0,0.0,0.0,0.0,0.0,0.0,0.0,43,src\test\java\javax\xml\crypto\test\KeySelectorExceptionTest.java,0,0,0,0
javax.xml.crypto.test.OctetStreamDataTest, 0, 0, 0, 0, 0, 0, 0, 0, 0, 0, 0, 0, 0, 0,0.0,0.0,0.0,0.0,0.0,0.0,0.0,0.0,0.0,0.0,0.0,0.0,0.0,43,src\test\java\javax\xml\crypto\test\OctetStreamDataTest.java,0,0,0,0
javax.xml.crypto.test.dsig.X509KeySelector, 0, 0, 0, 0, 0, 0, 0, 0, 0, 0, 0, 0, 0, 0,0.0,0.0,0.0,0.0,0.0,0.0,0.0,0.0,0.0,0.0,0.0,0.0,0.0,193,src\test\java\javax\xml\crypto\test\dsig\X509KeySelector.java,0,0,0,0
javax.xml.crypto.test.dsig.XMLSignContextTest, 0, 0, 0, 0, 0, 0, 0, 0, 0, 0, 0, 0, 0, 0,0.0,0.0,0.0,0.0,0.0,0.0,0.0,0.0,0.0,0.0,0.0,0.0,0.0,61,src\test\java\javax\xml\crypto\test\dsig\XMLSignContextTest.java,0,0,0,0
javax.xml.crypto.test.dsig.XMLValidateContextTest, 0, 0, 0, 0, 0, 0, 0, 0, 0, 0, 0, 0, 0, 0,0.0,0.0,0.0,0.0,0.0,0.0,0.0,0.0,0.0,0.0,0.0,0.0,0.0,63,src\test\java\javax\xml\crypto\test\dsig\XMLValidateContextTest.java,0,0,0,0
javax.xml.crypto.test.dsig.dom.DOMValidateContextTest, 0, 0, 0, 0, 0, 0, 0, 0, 0, 0, 0, 0, 0, 0,0.0,0.0,0.0,0.0,0.0,0.0,0.0,0.0,0.0,0.0,0.0,0.0,0.0,56,src\test\java\javax\xml\crypto\test\dsig\dom\DOMValidateContextTest.java,0,0,0,0
org.apache.jcp.xml.dsig.internal.MacOutputStream, 0, 0, 0, 0, 0, 0, 0, 0, 0, 0, 0, 0, 0, 0,0.0,0.0,0.0,1.0,0.0,0.0,0.0,0.0,0.0,0.0,0.0,0.0,0.0,16,src\main\java\org\apache\jcp\xml\dsig\internal\MacOutputStream.java,0,0,0,0
org.apache.jcp.xml.dsig.internal.SignerOutputStream, 0, 0, 0, 0, 0, 0, 0, 0, 0, 0, 0, 0, 0, 0,0.0,0.0,0.0,0.0,0.0,0.0,0.0,0.0,0.0,0.0,0.0,0.0,0.0,24,src\main\java\org\apache\jcp\xml\dsig\internal\SignerOutputStream.java,0,0,0,0
org.apache.jcp.xml.dsig.internal.dom.AbstractDOMSignatureMethod, 0, 0, 0, 0, 0, 0, 0, 0, 0, 0, 0, 0, 0, 0,0.0,0.0,0.0,0.5,0.0,0.0,0.0,0.0,0.0,0.0,0.0,0.0,0.0,71,src\main\java\org\apache\jcp\xml\dsig\internal\dom\AbstractDOMSignatureMethod.java,0,0,0,0
org.apache.jcp.xml.dsig.internal.dom.ApacheCanonicalizer, 0, 0, 0, 0, 0, 0, 0, 0, 0, 0, 0, 0, 0, 0,0.0,0.0,0.0,0.14285714285714285,0.0,0.0,0.0,0.0,0.0,0.0,0.0,0.0,0.0,220,src\main\java\org\apache\jcp\xml\dsig\internal\dom\ApacheCanonicalizer.java,0,0,0,0
org.apache.jcp.xml.dsig.internal.dom.ApacheData, 0, 0, 0, 0, 0, 0, 0, 0, 0, 0, 0, 0, 0, 0,0.0,0.0,0.0,0.0,0.0,0.0,0.0,0.0,0.0,0.0,0.0,0.0,0.0,220,src\main\java\org\apache\jcp\xml\dsig\internal\dom\ApacheData.java,0,0,0,0
org.apache.jcp.xml.dsig.internal.dom.ApacheNodeSetData, 0, 0, 0, 0, 0, 0, 0, 0, 0, 0, 0, 0, 0, 0,0.0,0.0,0.0,0.25,0.0,0.0,0.0,0.0,0.0,0.0,0.0,0.0,0.0,45,src\main\java\org\apache\jcp\xml\dsig\internal\dom\ApacheNodeSetData.java,0,0,0,0
org.apache.jcp.xml.dsig.internal.dom.ApacheOctetStreamData, 0, 0, 0, 0, 0, 0, 0, 0, 0, 0, 0, 0, 0, 0,0.0,0.0,0.0,0.25,0.0,0.0,0.0,0.0,0.0,0.0,0.0,0.0,0.0,14,src\main\java\org\apache\jcp\xml\dsig\internal\dom\ApacheOctetStreamData.java,0,0,0,0
org.apache.jcp.xml.dsig.internal.dom.ApacheTransform, 0, 0, 0, 0, 0, 0, 0, 0, 0, 0, 0, 0, 0, 0,0.0,0.0,0.0,0.14285714285714285,0.0,0.0,0.0,0.0,0.0,0.0,0.0,0.0,0.0,164,src\main\java\org\apache\jcp\xml\dsig\internal\dom\ApacheTransform.java,0,0,0,0
org.apache.jcp.xml.dsig.internal.dom.BaseStructure, 0, 0, 0, 0, 0, 0, 0, 0, 0, 0, 0, 0, 0, 0,0.0,0.0,0.0,0.09090909090909091,0.0,0.0,0.0,0.09090909090909091,0.0,0.0,0.0,0.0,0.0,12,src\main\java\org\apache\jcp\xml\dsig\internal\dom\BaseStructure.java,0,0,0,0
org.apache.jcp.xml.dsig.internal.dom.DOMBase64Transform, 0, 0, 0, 0, 0, 0, 0, 0, 0, 0, 0, 0, 0, 0,0.0,0.0,0.0,0.0,0.0,0.0,0.0,0.0,0.0,0.0,0.0,0.0,0.0,9,src\main\java\org\apache\jcp\xml\dsig\internal\dom\DOMBase64Transform.java,0,0,0,0
org.apache.jcp.xml.dsig.internal.dom.DOMCanonicalXMLC14N11Method, 0, 0, 0, 0, 0, 0, 0, 0, 0, 0, 0, 0, 0, 0,0.0,0.0,0.0,0.0,0.0,0.0,0.0,0.0,0.0,0.0,0.0,0.0,0.0,32,src\main\java\org\apache\jcp\xml\dsig\internal\dom\DOMCanonicalXMLC14N11Method.java,0,0,0,0
org.apache.jcp.xml.dsig.internal.dom.DOMCanonicalXMLC14NMethod, 0, 0, 0, 0, 0, 0, 0, 0, 0, 0, 0, 0, 0, 0,0.0,0.0,0.0,0.0,0.0,0.0,0.0,0.0,0.0,0.0,0.0,0.0,0.0,31,src\main\java\org\apache\jcp\xml\dsig\internal\dom\DOMCanonicalXMLC14NMethod.java,0,0,0,0
org.apache.jcp.xml.dsig.internal.dom.DOMDigestMethod, 0, 0, 0, 0, 0, 0, 0, 0, 0, 0, 0, 0, 0, 0,0.0,0.0,0.0,0.0,0.0,0.0,0.0,0.0,0.0,0.0,0.0,0.0,0.0,317,src\main\java\org\apache\jcp\xml\dsig\internal\dom\DOMDigestMethod.java,0,0,0,0
org.apache.jcp.xml.dsig.internal.dom.DOMEnvelopedTransform, 0, 0, 0, 0, 0, 0, 0, 0, 0, 0, 0, 0, 0, 0,0.0,0.0,0.0,0.0,0.0,0.0,0.0,0.0,0.0,0.0,0.0,0.0,0.0,9,src\main\java\org\apache\jcp\xml\dsig\internal\dom\DOMEnvelopedTransform.java,0,0,0,0
org.apache.jcp.xml.dsig.internal.dom.DOMHMACSignatureMethod, 0, 0, 0, 1, 0, 0, 0, 0, 0, 0, 0, 0, 0, 1,0.0,0.0,0.0,0.0,0.0,0.0,0.0,0.0,0.0,0.0,0.0,0.0,0.0,266,src\main\java\org\apache\jcp\xml\dsig\internal\dom\DOMHMACSignatureMethod.java,0,0,0,0
org.apache.jcp.xml.dsig.internal.dom.DOMKeyName, 0, 0, 0, 0, 0, 0, 0, 0, 0, 0, 0, 0, 0, 0,0.0,0.0,0.0,0.0,0.0,0.0,0.0,0.0,0.0,0.0,0.0,0.0,0.0,33,src\main\java\org\apache\jcp\xml\dsig\internal\dom\DOMKeyName.java,0,0,0,0
org.apache.jcp.xml.dsig.internal.dom.DOMKeyValue, 0, 0, 0, 0, 0, 0, 0, 1, 0, 0, 0, 0, 0, 1,0.0,0.0,0.0,0.0,0.0,0.0,0.0,0.0,0.0,0.0,0.0,0.0,0.0,382,src\main\java\org\apache\jcp\xml\dsig\internal\dom\DOMKeyValue.java,0,0,0,0
org.apache.jcp.xml.dsig.internal.dom.DOMPGPData, 0, 0, 0, 0, 0, 0, 0, 0, 0, 0, 0, 0, 0, 0,0.0,0.0,0.0,0.0,0.0,0.0,0.0,0.0,0.0,0.0,0.0,0.0,0.0,114,src\main\java\org\apache\jcp\xml\dsig\internal\dom\DOMPGPData.java,0,0,0,0
org.apache.jcp.xml.dsig.internal.dom.DOMSignatureProperties, 0, 0, 0, 0, 0, 0, 0, 0, 0, 0, 0, 0, 0, 0,0.0,0.0,0.0,0.0,0.0,0.0,0.0,0.0,0.0,0.0,0.0,0.0,0.0,90,src\main\java\org\apache\jcp\xml\dsig\internal\dom\DOMSignatureProperties.java,0,0,0,0
org.apache.jcp.xml.dsig.internal.dom.DOMSignatureProperty, 0, 0, 0, 0, 0, 0, 0, 0, 0, 0, 0, 0, 0, 0,0.0,0.0,0.0,0.0,0.0,0.0,0.0,0.0,0.0,0.0,0.0,0.0,0.0,127,src\main\java\org\apache\jcp\xml\dsig\internal\dom\DOMSignatureProperty.java,0,0,0,0
org.apache.jcp.xml.dsig.internal.dom.DOMStructure, 0, 0, 0, 0, 0, 0, 0, 0, 0, 0, 0, 0, 0, 0,0.0,0.0,0.0,0.0,0.0,0.0,0.0,0.0,0.0,0.0,0.0,0.0,0.0,3,src\main\java\org\apache\jcp\xml\dsig\internal\dom\DOMStructure.java,0,0,0,0
org.apache.jcp.xml.dsig.internal.dom.DOMURIDereferencer, 0, 0, 0, 0, 0, 0, 0, 0, 0, 0, 0, 0, 0, 0,0.0,0.0,0.0,0.2,0.0,0.0,0.0,0.0,0.0,0.0,0.0,0.0,0.0,64,src\main\java\org\apache\jcp\xml\dsig\internal\dom\DOMURIDereferencer.java,0,0,0,0
org.apache.jcp.xml.dsig.internal.dom.DOMX509Data, 0, 0, 0, 0, 0, 0, 0, 0, 0, 0, 0, 0, 0, 0,0.0,0.0,0.0,0.0,0.0,0.0,0.0,0.0,0.0,0.0,0.0,0.0,0.0,177,src\main\java\org\apache\jcp\xml\dsig\internal\dom\DOMX509Data.java,0,0,0,0
org.apache.jcp.xml.dsig.internal.dom.DOMX509IssuerSerial, 0, 0, 0, 0, 0, 0, 0, 0, 0, 0, 0, 0, 0, 0,0.0,0.0,0.0,0.0,0.0,0.0,0.0,0.0,0.0,0.0,0.0,0.0,0.0,53,src\main\java\org\apache\jcp\xml\dsig\internal\dom\DOMX509IssuerSerial.java,0,0,0,0
org.apache.jcp.xml.dsig.internal.dom.DOMXSLTTransform, 0, 0, 0, 0, 0, 0, 0, 0, 0, 0, 0, 0, 0, 0,0.0,0.0,0.0,0.0,0.0,0.0,0.0,0.0,0.0,0.0,0.0,0.0,0.0,33,src\main\java\org\apache\jcp\xml\dsig\internal\dom\DOMXSLTTransform.java,0,0,0,0
org.apache.jcp.xml.dsig.internal.dom.Marshaller, 0, 0, 0, 1, 0, 0, 0, 0, 0, 0, 0, 0, 0, 1,0.0,0.0,0.0,0.0,0.0,0.0,0.0,0.0,0.0,0.0,0.0,0.0,0.0,222,src\main\java\org\apache\jcp\xml\dsig\internal\dom\Marshaller.java,0,0,0,0
org.apache.jcp.xml.dsig.internal.dom.Utils, 0, 0, 0, 0, 0, 0, 0, 0, 0, 0, 0, 0, 0, 0,0.0,0.0,0.0,0.0,0.0,0.0,0.0,0.0,0.0,0.0,0.0,0.0,0.0,59,src\main\java\org\apache\jcp\xml\dsig\internal\dom\Utils.java,0,0,0,0
org.apache.jcp.xml.dsig.internal.dom.XmlWriter, 0, 0, 0, 0, 0, 0, 0, 0, 0, 0, 0, 0, 0, 0,0.0,0.0,0.0,0.0,0.0,0.0,0.0,0.0,0.0,0.0,0.0,0.0,0.0,59,src\main\java\org\apache\jcp\xml\dsig\internal\dom\XmlWriter.java,0,0,0,0
org.apache.jcp.xml.dsig.internal.dom.XmlWriterToTree, 0, 0, 0, 1, 0, 0, 0, 0, 0, 0, 0, 0, 0, 1,0.0,0.0,0.0,0.0,0.0,0.0,0.0,0.0,0.0,0.0,0.0,0.0,0.0,110,src\main\java\org\apache\jcp\xml\dsig\internal\dom\XmlWriterToTree.java,0,0,0,0
org.apache.xml.security.Init, 0, 0, 0, 0, 0, 0, 0, 0, 0, 0, 0, 0, 0, 0,0.21951219512195122,0.0,0.0,0.07317073170731707,0.0,0.0,0.0,0.024390243902439025,0.0,0.0,0.0,0.0,0.0,233,src\main\java\org\apache\xml\security\Init.java,0,0,0,0
org.apache.xml.security.algorithms.Algorithm, 0, 0, 0, 0, 0, 0, 0, 0, 0, 0, 0, 0, 0, 0,0.0,0.0,0.0,0.5,0.0,0.0,0.0,0.5,0.0,0.0,0.0,0.0,0.0,17,src\main\java\org\apache\xml\security\algorithms\Algorithm.java,0,0,0,0
org.apache.xml.security.algorithms.SignatureAlgorithmSpi, 0, 0, 0, 0, 0, 0, 0, 0, 0, 0, 0, 0, 0, 0,0.0,0.0,0.0,0.0,0.0,0.0,0.0,0.0,0.0,0.0,0.0,0.0,0.0,26,src\main\java\org\apache\xml\security\algorithms\SignatureAlgorithmSpi.java,0,0,0,0
org.apache.xml.security.c14n.CanonicalizationException, 0, 0, 0, 0, 0, 0, 0, 0, 0, 0, 0, 0, 0, 0,0.0,0.0,0.0,0.5,0.0,0.0,0.0,0.16666666666666666,0.0,0.0,0.0,0.0,0.0,20,src\main\java\org\apache\xml\security\c14n\CanonicalizationException.java,0,0,0,0
org.apache.xml.security.c14n.CanonicalizerSpi, 0, 0, 0, 0, 0, 0, 0, 0, 0, 0, 0, 0, 0, 0,0.125,0.0,0.0,0.125,0.0,0.0,0.0,0.0,0.0,0.0,0.0,0.0,0.0,51,src\main\java\org\apache\xml\security\c14n\CanonicalizerSpi.java,0,0,0,0
org.apache.xml.security.c14n.InvalidCanonicalizerException, 0, 0, 0, 0, 0, 0, 0, 0, 0, 0, 0, 0, 0, 0,0.0,0.0,0.0,0.25,0.0,0.0,0.0,0.125,0.0,0.0,0.0,0.0,0.0,20,src\main\java\org\apache\xml\security\c14n\InvalidCanonicalizerException.java,0,0,0,0
org.apache.xml.security.c14n.implementations.Canonicalizer11_OmitComments, 0, 0, 0, 0, 0, 0, 0, 0, 0, 0, 0, 0, 0, 0,0.0,0.0,0.0,0.25,0.0,0.0,0.0,0.0,0.0,0.0,0.0,0.0,0.0,11,src\main\java\org\apache\xml\security\c14n\implementations\Canonicalizer11_OmitComments.java,0,0,0,0
org.apache.xml.security.c14n.implementations.Canonicalizer11_WithComments, 0, 0, 0, 0, 0, 0, 0, 0, 0, 0, 0, 0, 0, 0,0.0,0.0,0.0,0.0,0.0,0.0,0.0,0.0,0.0,0.0,0.0,0.0,0.0,11,src\main\java\org\apache\xml\security\c14n\implementations\Canonicalizer11_WithComments.java,0,0,0,0
org.apache.xml.security.c14n.implementations.Canonicalizer20010315ExclOmitComments, 0, 0, 0, 0, 0, 0, 0, 0, 0, 0, 0, 0, 0, 0,0.5,0.0,0.0,0.5,0.0,0.0,0.0,0.0,0.0,0.0,0.0,0.0,0.0,11,src\main\java\org\apache\xml\security\c14n\implementations\Canonicalizer20010315ExclOmitComments.java,0,0,0,0
org.apache.xml.security.c14n.implementations.Canonicalizer20010315ExclWithComments, 0, 0, 0, 0, 0, 0, 0, 0, 0, 0, 0, 0, 0, 0,0.5,0.0,0.0,0.5,0.0,0.0,0.0,0.0,0.0,0.0,0.0,0.0,0.0,11,src\main\java\org\apache\xml\security\c14n\implementations\Canonicalizer20010315ExclWithComments.java,0,0,0,0
org.apache.xml.security.c14n.implementations.Canonicalizer20010315OmitComments, 0, 0, 0, 0, 0, 0, 0, 0, 0, 0, 0, 0, 0, 0,0.0,0.0,0.0,0.5,0.0,0.0,0.0,0.0,0.0,0.0,0.0,0.0,0.0,11,src\main\java\org\apache\xml\security\c14n\implementations\Canonicalizer20010315OmitComments.java,0,0,0,0
org.apache.xml.security.c14n.implementations.Canonicalizer20010315WithComments, 0, 0, 0, 0, 0, 0, 0, 0, 0, 0, 0, 0, 0, 0,0.5,0.0,0.0,0.5,0.0,0.0,0.0,0.0,0.0,0.0,0.0,0.0,0.0,11,src\main\java\org\apache\xml\security\c14n\implementations\Canonicalizer20010315WithComments.java,0,0,0,0
org.apache.xml.security.c14n.implementations.NameSpaceSymbEntry, 0, 1, 0, 0, 0, 0, 0, 0, 0, 0, 0, 0, 0, 1,0.0,0.5,0.0,0.5,0.0,0.0,0.0,0.0,0.0,0.0,0.0,0.0,0.0,19,src\main\java\org\apache\xml\security\c14n\implementations\Canonicalizer20010315WithComments.java,0,0,0,0
org.apache.xml.security.c14n.implementations.NameSpaceSymbTable, 0, 1, 0, 1, 0, 0, 0, 0, 0, 0, 0, 0, 0, 2,0.3333333333333333,0.3333333333333333,0.0,0.0,0.0,0.0,0.0,0.0,0.0,0.0,0.0,0.0,0.0,150,src\main\java\org\apache\xml\security\c14n\implementations\NameSpaceSymbTable.java,0,0,0,0
org.apache.xml.security.c14n.implementations.SymbMap, 0, 0, 0, 0, 0, 0, 0, 0, 0, 0, 0, 0, 0, 0,0.0,1.0,0.0,0.5,0.0,0.0,0.0,0.0,0.0,0.0,0.0,0.0,0.0,74,src\main\java\org\apache\xml\security\c14n\implementations\NameSpaceSymbTable.java,0,0,0,0
org.apache.xml.security.encryption.AgreementMethod, 0, 0, 0, 0, 0, 0, 0, 0, 0, 0, 0, 0, 0, 0,0.0,0.0,0.0,0.0,0.0,0.0,0.0,0.0,0.0,0.0,0.0,0.0,0.0,74,src\main\java\org\apache\xml\security\encryption\AgreementMethod.java,0,0,0,0
org.apache.xml.security.encryption.CipherData, 0, 0, 0, 0, 0, 0, 0, 0, 0, 0, 0, 0, 0, 0,0.0,0.0,0.0,0.0,0.0,0.0,0.0,0.0,0.0,0.0,0.0,0.0,0.0,74,src\main\java\org\apache\xml\security\encryption\CipherData.java,0,0,0,0
org.apache.xml.security.encryption.CipherReference, 0, 0, 0, 0, 0, 0, 0, 0, 0, 0, 0, 0, 0, 0,0.0,0.0,0.0,0.0,0.0,0.0,0.0,0.0,0.0,0.0,0.0,0.0,0.0,74,src\main\java\org\apache\xml\security\encryption\CipherReference.java,0,0,0,0
org.apache.xml.security.encryption.CipherValue, 0, 0, 0, 0, 0, 0, 0, 0, 0, 0, 0, 0, 0, 0,0.0,0.0,0.0,0.0,0.0,0.0,0.0,0.0,0.0,0.0,0.0,0.0,0.0,74,src\main\java\org\apache\xml\security\encryption\CipherValue.java,0,0,0,0
org.apache.xml.security.encryption.DocumentSerializer, 0, 0, 0, 0, 0, 0, 0, 0, 0, 0, 0, 0, 0, 0,0.0,0.0,0.0,0.0,0.0,0.0,0.0,0.0,0.0,0.0,0.0,0.0,0.0,42,src\main\java\org\apache\xml\security\encryption\DocumentSerializer.java,0,0,0,0
org.apache.xml.security.encryption.EncryptedData, 0, 0, 0, 0, 0, 0, 0, 0, 0, 0, 0, 0, 0, 0,0.0,0.0,0.0,0.0,0.0,0.0,0.0,0.0,0.0,0.0,0.0,0.0,0.0,42,src\main\java\org\apache\xml\security\encryption\EncryptedData.java,0,0,0,0
org.apache.xml.security.encryption.EncryptedKey, 0, 0, 0, 0, 0, 0, 0, 0, 0, 0, 0, 0, 0, 0,0.0,0.0,0.0,0.0,0.0,0.0,0.0,0.0,0.0,0.0,0.0,0.0,0.0,42,src\main\java\org\apache\xml\security\encryption\EncryptedKey.java,0,0,0,0
org.apache.xml.security.encryption.EncryptedType, 0, 0, 0, 0, 0, 0, 0, 0, 0, 0, 0, 0, 0, 0,0.0,0.0,0.0,0.0,0.0,0.0,0.0,0.0,0.0,0.0,0.0,0.0,0.0,42,src\main\java\org\apache\xml\security\encryption\EncryptedType.java,0,0,0,0
org.apache.xml.security.encryption.EncryptionMethod, 0, 0, 0, 0, 0, 0, 0, 0, 0, 0, 0, 0, 0, 0,0.0,0.0,0.0,0.0,0.0,0.0,0.0,0.0,0.0,0.0,0.0,0.0,0.0,42,src\main\java\org\apache\xml\security\encryption\EncryptionMethod.java,0,0,0,0
org.apache.xml.security.encryption.EncryptionProperties, 0, 0, 0, 0, 0, 0, 0, 0, 0, 0, 0, 0, 0, 0,0.0,0.0,0.0,0.0,0.0,0.0,0.0,0.0,0.0,0.0,0.0,0.0,0.0,42,src\main\java\org\apache\xml\security\encryption\EncryptionProperties.java,0,0,0,0
org.apache.xml.security.encryption.EncryptionProperty, 0, 0, 0, 0, 0, 0, 0, 0, 0, 0, 0, 0, 0, 0,0.0,0.0,0.0,0.0,0.0,0.0,0.0,0.0,0.0,0.0,0.0,0.0,0.0,42,src\main\java\org\apache\xml\security\encryption\EncryptionProperty.java,0,0,0,0
org.apache.xml.security.encryption.Reference, 0, 0, 0, 0, 0, 0, 0, 0, 0, 0, 0, 0, 0, 0,0.0,0.0,0.0,0.0,0.0,0.0,0.0,0.0,0.0,0.0,0.0,0.0,0.0,42,src\main\java\org\apache\xml\security\encryption\Reference.java,0,0,0,0
org.apache.xml.security.encryption.ReferenceList, 0, 0, 0, 0, 0, 0, 0, 0, 0, 0, 0, 0, 0, 0,0.0,0.0,0.0,0.0,0.0,0.0,0.0,0.0,0.0,0.0,0.0,0.0,0.0,42,src\main\java\org\apache\xml\security\encryption\ReferenceList.java,0,0,0,0
org.apache.xml.security.encryption.Serializer, 0, 0, 0, 0, 0, 0, 0, 0, 0, 0, 0, 0, 0, 0,0.0,0.0,0.0,0.0,0.0,0.0,0.0,0.0,0.0,0.0,0.0,0.0,0.0,42,src\main\java\org\apache\xml\security\encryption\Serializer.java,0,0,0,0
org.apache.xml.security.encryption.TransformSerializer, 0, 0, 0, 0, 0, 0, 0, 0, 0, 0, 0, 0, 0, 0,0.0,0.0,0.0,0.0,0.0,0.0,0.0,0.0,0.0,0.0,0.0,0.0,0.0,43,src\main\java\org\apache\xml\security\encryption\TransformSerializer.java,0,0,0,0
org.apache.xml.security.encryption.Transforms, 0, 0, 0, 0, 0, 0, 0, 0, 0, 0, 0, 0, 0, 0,0.0,0.0,0.0,0.0,0.0,0.0,0.0,0.0,0.0,0.0,0.0,0.0,0.0,43,src\main\java\org\apache\xml\security\encryption\Transforms.java,0,0,0,0
org.apache.xml.security.encryption.XMLCipherInput, 0, 0, 0, 0, 0, 0, 0, 0, 0, 0, 0, 0, 0, 0,0.0,0.0,0.0,0.2857142857142857,0.0,0.0,0.0,0.14285714285714285,0.0,0.0,0.0,0.0,0.0,90,src\main\java\org\apache\xml\security\encryption\XMLCipherInput.java,0,0,0,0
org.apache.xml.security.encryption.XMLCipherParameters, 0, 0, 0, 0, 0, 0, 0, 0, 0, 0, 0, 0, 0, 0,0.0,0.0,0.0,0.0,0.0,0.0,0.0,0.0,0.0,0.0,0.0,0.0,0.0,90,src\main\java\org\apache\xml\security\encryption\XMLCipherParameters.java,0,0,0,0
org.apache.xml.security.encryption.XMLEncryptionException, 0, 0, 0, 0, 0, 0, 0, 0, 0, 0, 0, 0, 0, 0,0.0,0.0,0.0,0.0,0.0,0.0,0.0,0.0,0.0,0.0,0.0,0.0,0.0,18,src\main\java\org\apache\xml\security\encryption\XMLEncryptionException.java,0,0,0,0
org.apache.xml.security.exceptions.AlgorithmAlreadyRegisteredException, 0, 0, 0, 0, 0, 0, 0, 0, 0, 0, 0, 0, 0, 0,0.0,0.0,0.0,0.0,0.0,0.0,0.0,0.0,0.0,0.0,0.0,0.0,0.0,20,src\main\java\org\apache\xml\security\exceptions\AlgorithmAlreadyRegisteredException.java,0,0,0,0
org.apache.xml.security.exceptions.Base64DecodingException, 0, 0, 0, 0, 0, 0, 0, 0, 0, 0, 0, 0, 0, 0,0.0,0.0,0.0,0.2,0.0,0.0,0.0,0.2,0.0,0.0,0.0,0.0,0.0,18,src\main\java\org\apache\xml\security\exceptions\Base64DecodingException.java,0,0,0,0
org.apache.xml.security.exceptions.XMLSecurityException, 0, 0, 0, 0, 0, 0, 0, 0, 0, 0, 0, 0, 0, 0,0.07936507936507936,0.0,0.0,0.12698412698412698,0.0,0.0,0.0,0.06349206349206349,0.0,0.0,0.0,0.0,0.0,57,src\main\java\org\apache\xml\security\exceptions\XMLSecurityException.java,0,0,0,0
org.apache.xml.security.exceptions.XMLSecurityRuntimeException, 0, 0, 0, 0, 0, 0, 0, 0, 0, 0, 0, 0, 0, 0,0.0,0.0,0.0,0.5,0.0,0.0,0.0,0.0,0.0,0.0,0.0,0.0,0.0,55,src\main\java\org\apache\xml\security\exceptions\XMLSecurityRuntimeException.java,0,0,0,0
org.apache.xml.security.keys.ContentHandlerAlreadyRegisteredException, 0, 0, 0, 0, 0, 0, 0, 0, 0, 0, 0, 0, 0, 0,0.0,0.0,0.0,0.0,0.0,0.0,0.0,0.0,0.0,0.0,0.0,0.0,0.0,20,src\main\java\org\apache\xml\security\keys\ContentHandlerAlreadyRegisteredException.java,0,0,0,0
org.apache.xml.security.keys.KeyInfo, 0, 0, 0, 1, 0, 0, 0, 0, 0, 0, 0, 0, 0, 1,0.2708333333333333,0.0,0.0,0.10416666666666667,0.0,0.0,0.0,0.041666666666666664,0.0,0.0,0.0,0.0,0.0,626,src\main\java\org\apache\xml\security\keys\KeyInfo.java,0,0,0,0
org.apache.xml.security.keys.KeyUtils, 0, 0, 0, 0, 0, 0, 0, 0, 0, 0, 0, 0, 0, 0,0.0,0.0,0.0,0.4,0.0,0.0,0.0,0.0,0.0,0.0,0.0,0.0,0.0,27,src\main\java\org\apache\xml\security\keys\KeyUtils.java,0,0,0,0
org.apache.xml.security.keys.content.DEREncodedKeyValue, 0, 0, 0, 0, 0, 0, 0, 0, 0, 0, 0, 0, 0, 0,0.0,0.0,0.0,0.25,0.0,0.0,0.0,0.0,0.0,0.0,0.0,0.0,0.0,52,src\main\java\org\apache\xml\security\keys\content\DEREncodedKeyValue.java,0,0,0,0
org.apache.xml.security.keys.content.KeyInfoContent, 0, 0, 0, 0, 0, 0, 0, 0, 0, 0, 0, 0, 0, 0,0.0,0.0,0.0,0.0,0.0,0.0,0.0,0.0,0.0,0.0,0.0,0.0,0.0,52,src\main\java\org\apache\xml\security\keys\content\KeyInfoContent.java,0,0,0,0
org.apache.xml.security.keys.content.KeyInfoReference, 0, 0, 0, 0, 0, 0, 0, 0, 0, 0, 0, 0, 0, 0,0.0,0.0,0.0,0.25,0.0,0.0,0.0,0.0,0.0,0.0,0.0,0.0,0.0,24,src\main\java\org\apache\xml\security\keys\content\KeyInfoReference.java,0,0,0,0
org.apache.xml.security.keys.content.KeyName, 0, 0, 0, 0, 0, 0, 0, 0, 0, 0, 0, 0, 0, 0,0.16666666666666666,0.0,0.0,0.16666666666666666,0.0,0.0,0.0,0.0,0.0,0.0,0.0,0.0,0.0,15,src\main\java\org\apache\xml\security\keys\content\KeyName.java,0,0,0,0
org.apache.xml.security.keys.content.KeyValue, 0, 0, 0, 0, 0, 0, 0, 0, 0, 0, 0, 0, 0, 0,0.0,0.0,0.0,0.16666666666666666,0.0,0.0,0.0,0.16666666666666666,0.0,0.0,0.0,0.0,0.0,56,src\main\java\org\apache\xml\security\keys\content\KeyValue.java,0,0,0,0
org.apache.xml.security.keys.content.MgmtData, 0, 0, 0, 0, 0, 0, 0, 0, 0, 0, 0, 0, 0, 0,0.0,0.0,0.0,0.3333333333333333,0.0,0.0,0.0,0.0,0.0,0.0,0.0,0.0,0.0,16,src\main\java\org\apache\xml\security\keys\content\MgmtData.java,0,0,0,0
org.apache.xml.security.keys.content.PGPData, 0, 0, 0, 0, 0, 0, 0, 0, 0, 0, 0, 0, 0, 0,0.0,0.0,0.0,0.5,0.0,0.0,0.0,0.0,0.0,0.0,0.0,0.0,0.0,8,src\main\java\org\apache\xml\security\keys\content\PGPData.java,0,0,0,0
org.apache.xml.security.keys.content.RetrievalMethod, 0, 0, 0, 0, 0, 0, 0, 0, 0, 0, 0, 0, 0, 0,0.25,0.0,0.0,0.25,0.0,0.0,0.0,0.0,0.0,0.0,0.0,0.0,0.0,48,src\main\java\org\apache\xml\security\keys\content\RetrievalMethod.java,0,0,0,0
org.apache.xml.security.keys.content.SPKIData, 0, 0, 0, 0, 0, 0, 0, 0, 0, 0, 0, 0, 0, 0,0.0,0.0,0.0,0.5,0.0,0.0,0.0,0.0,0.0,0.0,0.0,0.0,0.0,9,src\main\java\org\apache\xml\security\keys\content\SPKIData.java,0,0,0,0
org.apache.xml.security.keys.content.X509Data, 0, 0, 0, 1, 0, 0, 0, 0, 0, 0, 0, 0, 0, 1,0.10526315789473684,0.0,0.0,0.10526315789473684,0.0,0.0,0.0,0.05263157894736842,0.0,0.0,0.0,0.0,0.0,200,src\main\java\org\apache\xml\security\keys\content\X509Data.java,0,0,0,0
org.apache.xml.security.keys.content.keyvalues.DSAKeyValue, 0, 0, 0, 0, 0, 0, 0, 1, 0, 0, 0, 0, 0, 1,0.0,0.0,0.0,0.16666666666666666,0.0,0.0,0.0,0.0,0.0,0.0,0.0,0.0,0.0,56,src\main\java\org\apache\xml\security\keys\content\keyvalues\DSAKeyValue.java,0,0,0,0
org.apache.xml.security.keys.content.keyvalues.KeyValueContent, 0, 0, 0, 0, 0, 0, 0, 0, 0, 0, 0, 0, 0, 0,0.0,0.0,0.0,0.0,0.0,0.0,0.0,0.0,0.0,0.0,0.0,0.0,0.0,56,src\main\java\org\apache\xml\security\keys\content\keyvalues\KeyValueContent.java,0,0,0,0
org.apache.xml.security.keys.content.keyvalues.RSAKeyValue, 0, 0, 0, 0, 0, 0, 0, 0, 0, 0, 0, 0, 0, 0,0.0,0.0,0.0,0.14285714285714285,0.0,0.0,0.0,0.0,0.0,0.0,0.0,0.0,0.0,49,src\main\java\org\apache\xml\security\keys\content\keyvalues\RSAKeyValue.java,0,0,0,0
org.apache.xml.security.keys.content.x509.XMLX509CRL, 0, 0, 0, 0, 0, 0, 0, 0, 0, 0, 0, 0, 0, 0,0.0,0.0,0.0,0.5,0.0,0.0,0.0,0.0,0.0,0.0,0.0,0.0,0.0,15,src\main\java\org\apache\xml\security\keys\content\x509\XMLX509CRL.java,0,0,0,0
org.apache.xml.security.keys.content.x509.XMLX509Certificate, 0, 0, 0, 0, 0, 0, 0, 0, 0, 0, 0, 0, 0, 0,0.2222222222222222,0.0,0.0,0.1111111111111111,0.0,0.0,0.0,0.0,0.0,0.0,0.0,0.0,0.0,74,src\main\java\org\apache\xml\security\keys\content\x509\XMLX509Certificate.java,0,0,0,0
org.apache.xml.security.keys.content.x509.XMLX509DataContent, 0, 0, 0, 0, 0, 0, 0, 0, 0, 0, 0, 0, 0, 0,0.0,0.0,0.0,0.0,0.0,0.0,0.0,0.0,0.0,0.0,0.0,0.0,0.0,74,src\main\java\org\apache\xml\security\keys\content\x509\XMLX509DataContent.java,0,0,0,0
org.apache.xml.security.keys.content.x509.XMLX509Digest, 0, 0, 0, 0, 0, 0, 0, 0, 0, 0, 0, 0, 0, 0,0.0,0.0,0.0,0.2,0.0,0.0,0.0,0.0,0.0,0.0,0.0,0.0,0.0,41,src\main\java\org\apache\xml\security\keys\content\x509\XMLX509Digest.java,0,0,0,0
org.apache.xml.security.keys.content.x509.XMLX509IssuerSerial, 0, 0, 0, 0, 0, 0, 0, 0, 0, 0, 0, 0, 0, 0,0.25,0.0,0.0,0.125,0.0,0.0,0.0,0.0,0.0,0.0,0.0,0.0,0.0,59,src\main\java\org\apache\xml\security\keys\content\x509\XMLX509IssuerSerial.java,0,0,0,0
org.apache.xml.security.keys.content.x509.XMLX509SKI, 0, 0, 0, 0, 0, 0, 0, 0, 0, 0, 0, 0, 0, 0,0.0,0.0,0.0,0.14285714285714285,0.0,0.0,0.0,0.0,0.0,0.0,0.0,0.0,0.0,65,src\main\java\org\apache\xml\security\keys\content\x509\XMLX509SKI.java,0,0,0,0
org.apache.xml.security.keys.content.x509.XMLX509SubjectName, 0, 0, 0, 0, 0, 0, 0, 0, 0, 0, 0, 0, 0, 0,0.2857142857142857,0.0,0.0,0.14285714285714285,0.0,0.0,0.0,0.0,0.0,0.0,0.0,0.0,0.0,33,src\main\java\org\apache\xml\security\keys\content\x509\XMLX509SubjectName.java,0,0,0,0
org.apache.xml.security.keys.keyresolver.InvalidKeyResolverException, 0, 0, 0, 0, 0, 0, 0, 0, 0, 0, 0, 0, 0, 0,0.0,0.0,0.0,0.0,0.0,0.0,0.0,0.0,0.0,0.0,0.0,0.0,0.0,18,src\main\java\org\apache\xml\security\keys\keyresolver\InvalidKeyResolverException.java,0,0,0,0
org.apache.xml.security.keys.keyresolver.KeyResolverException, 0, 0, 0, 0, 0, 0, 0, 0, 0, 0, 0, 0, 0, 0,0.0,0.0,0.0,0.0,0.0,0.0,0.0,0.0,0.0,0.0,0.0,0.0,0.0,18,src\main\java\org\apache\xml\security\keys\keyresolver\KeyResolverException.java,0,0,0,0
org.apache.xml.security.keys.keyresolver.implementations.DEREncodedKeyValueResolver, 0, 0, 0, 0, 0, 0, 0, 0, 0, 0, 0, 0, 0, 0,0.0,0.0,0.0,0.0,0.0,0.0,0.0,0.0,0.0,0.0,0.0,0.0,0.0,37,src\main\java\org\apache\xml\security\keys\keyresolver\implementations\DEREncodedKeyValueResolver.java,0,0,0,0
org.apache.xml.security.keys.keyresolver.implementations.DSAKeyValueResolver, 0, 0, 0, 0, 0, 0, 0, 0, 0, 0, 0, 0, 0, 0,0.0,0.0,0.0,0.0,0.0,0.0,0.0,0.5,0.0,0.0,0.0,0.0,0.0,43,src\main\java\org\apache\xml\security\keys\keyresolver\implementations\DSAKeyValueResolver.java,0,0,0,0
org.apache.xml.security.keys.keyresolver.implementations.EncryptedKeyResolver, 0, 0, 0, 0, 0, 0, 0, 0, 0, 0, 0, 0, 0, 0,0.0,0.0,0.0,0.0,0.0,0.0,0.0,0.0,0.0,0.0,0.0,0.0,0.0,66,src\main\java\org\apache\xml\security\keys\keyresolver\implementations\EncryptedKeyResolver.java,0,0,0,0
org.apache.xml.security.keys.keyresolver.implementations.KeyInfoReferenceResolver, 0, 0, 0, 0, 0, 0, 0, 0, 0, 0, 0, 0, 0, 0,0.0,0.0,0.0,0.5,0.0,0.0,0.0,0.0,0.0,0.0,0.0,0.0,0.0,143,src\main\java\org\apache\xml\security\keys\keyresolver\implementations\KeyInfoReferenceResolver.java,0,0,0,0
org.apache.xml.security.keys.keyresolver.implementations.PrivateKeyResolver, 0, 0, 0, 0, 0, 0, 0, 0, 0, 0, 0, 0, 0, 0,0.0,0.0,0.0,0.14285714285714285,0.0,0.0,0.0,0.0,0.0,0.0,0.0,0.0,0.0,212,src\main\java\org\apache\xml\security\keys\keyresolver\implementations\PrivateKeyResolver.java,0,0,0,0
org.apache.xml.security.keys.keyresolver.implementations.RSAKeyValueResolver, 0, 0, 0, 0, 0, 0, 0, 0, 0, 0, 0, 0, 0, 0,0.0,0.0,0.0,0.0,0.0,0.0,0.0,0.0,0.0,0.0,0.0,0.0,0.0,44,src\main\java\org\apache\xml\security\keys\keyresolver\implementations\RSAKeyValueResolver.java,0,0,0,0
org.apache.xml.security.keys.keyresolver.implementations.RetrievalMethodResolver, 0, 0, 0, 0, 0, 0, 0, 0, 0, 0, 0, 0, 0, 0,0.0,0.0,0.0,0.5,0.0,0.0,0.0,0.0,0.0,0.0,0.0,0.0,0.0,220,src\main\java\org\apache\xml\security\keys\keyresolver\implementations\RetrievalMethodResolver.java,0,0,0,0
org.apache.xml.security.keys.keyresolver.implementations.SecretKeyResolver, 0, 0, 0, 0, 0, 0, 0, 0, 0, 0, 0, 0, 0, 0,0.0,0.0,0.0,0.0,0.0,0.0,0.0,0.0,0.0,0.0,0.0,0.0,0.0,49,src\main\java\org\apache\xml\security\keys\keyresolver\implementations\SecretKeyResolver.java,0,0,0,0
org.apache.xml.security.keys.keyresolver.implementations.SingleKeyResolver, 0, 0, 0, 0, 0, 0, 0, 0, 0, 0, 0, 0, 0, 0,0.0,0.0,0.0,0.0,0.0,0.0,0.0,0.0,0.0,0.0,0.0,0.0,0.0,76,src\main\java\org\apache\xml\security\keys\keyresolver\implementations\SingleKeyResolver.java,0,0,0,0
org.apache.xml.security.keys.keyresolver.implementations.X509CertificateResolver, 0, 0, 0, 0, 0, 0, 0, 0, 0, 0, 0, 0, 0, 0,0.0,0.0,0.0,0.0,0.0,0.0,0.0,0.0,0.0,0.0,0.0,0.0,0.0,48,src\main\java\org\apache\xml\security\keys\keyresolver\implementations\X509CertificateResolver.java,0,0,0,0
org.apache.xml.security.keys.keyresolver.implementations.X509DigestResolver, 0, 0, 0, 0, 0, 0, 0, 0, 0, 0, 0, 0, 0, 0,0.0,0.0,0.0,0.25,0.0,0.0,0.0,0.0,0.0,0.0,0.0,0.0,0.0,87,src\main\java\org\apache\xml\security\keys\keyresolver\implementations\X509DigestResolver.java,0,0,0,0
org.apache.xml.security.keys.keyresolver.implementations.X509IssuerSerialResolver, 0, 0, 0, 0, 0, 0, 0, 0, 0, 0, 0, 0, 0, 0,0.0,0.0,0.0,0.2,0.0,0.0,0.0,0.0,0.0,0.0,0.0,0.0,0.0,88,src\main\java\org\apache\xml\security\keys\keyresolver\implementations\X509IssuerSerialResolver.java,0,0,0,0
org.apache.xml.security.keys.keyresolver.implementations.X509SKIResolver, 0, 0, 0, 0, 0, 0, 0, 0, 0, 0, 0, 0, 0, 0,0.0,0.0,0.0,0.0,0.0,0.0,0.0,0.0,0.0,0.0,0.0,0.0,0.0,72,src\main\java\org\apache\xml\security\keys\keyresolver\implementations\X509SKIResolver.java,0,0,0,0
org.apache.xml.security.keys.keyresolver.implementations.X509SubjectNameResolver, 0, 0, 0, 0, 0, 0, 0, 0, 0, 0, 0, 0, 0, 0,0.0,0.0,0.0,0.0,0.0,0.0,0.0,0.0,0.0,0.0,0.0,0.0,0.0,87,src\main\java\org\apache\xml\security\keys\keyresolver\implementations\X509SubjectNameResolver.java,0,0,0,0
org.apache.xml.security.keys.storage.StorageResolverException, 0, 0, 0, 0, 0, 0, 0, 0, 0, 0, 0, 0, 0, 0,0.0,0.0,0.0,0.0,0.0,0.0,0.0,0.0,0.0,0.0,0.0,0.0,0.0,19,src\main\java\org\apache\xml\security\keys\storage\StorageResolverException.java,0,0,0,0
org.apache.xml.security.keys.storage.StorageResolverSpi, 0, 0, 0, 0, 0, 0, 0, 0, 0, 0, 0, 0, 0, 0,0.0,0.0,0.0,0.0,0.0,0.0,0.0,0.0,0.0,0.0,0.0,0.0,0.0,3,src\main\java\org\apache\xml\security\keys\storage\StorageResolverSpi.java,0,0,0,0
org.apache.xml.security.samples.AxisSigner, 0, 0, 0, 0, 0, 0, 0, 0, 0, 0, 0, 0, 0, 0,0.0,0.0,0.0,0.5,0.0,0.0,0.0,0.5,0.0,0.0,0.0,0.0,0.0,67,samples\org\apache\xml\security\samples\AxisSigner.java,0,0,0,0
org.apache.xml.security.samples.AxisVerifier, 0, 0, 0, 0, 0, 0, 0, 0, 0, 0, 0, 0, 0, 0,0.0,0.0,0.0,0.75,0.0,0.0,0.0,0.25,0.0,0.0,0.0,0.0,0.0,40,samples\org\apache\xml\security\samples\AxisVerifier.java,0,0,0,0
org.apache.xml.security.samples.MyResolver, 0, 0, 0, 0, 0, 0, 0, 0, 0, 0, 0, 0, 0, 0,0.0,0.0,0.0,1.0,0.0,0.0,0.0,0.0,0.0,0.0,0.0,0.0,0.0,10,samples\org\apache\xml\security\samples\MyResolver.java,0,0,0,0
org.apache.xml.security.samples.SampleUtils, 0, 0, 0, 0, 0, 0, 0, 0, 0, 0, 0, 0, 0, 0,0.0,0.0,0.0,0.0,0.0,0.0,0.0,0.0,0.0,0.0,0.0,0.0,0.0,12,samples\org\apache\xml\security\samples\SampleUtils.java,0,0,0,0
org.apache.xml.security.samples.algorithms.HMacSHA1RoundTrip, 0, 0, 0, 0, 0, 0, 0, 0, 0, 0, 0, 0, 0, 0,0.0,0.0,0.0,0.0,0.0,0.0,0.0,0.0,0.0,0.0,0.0,0.0,0.0,77,samples\org\apache\xml\security\samples\algorithms\HMacSHA1RoundTrip.java,0,0,0,0
org.apache.xml.security.samples.canonicalization.CanonByTransform, 1, 0, 0, 0, 0, 0, 0, 0, 0, 0, 0, 0, 0, 1,0.0,0.0,0.0,0.6666666666666666,0.0,0.0,0.0,0.0,0.0,0.0,0.0,0.0,0.0,42,samples\org\apache\xml\security\samples\canonicalization\CanonByTransform.java,0,0,0,0
org.apache.xml.security.samples.canonicalization.CanonDirect, 1, 0, 0, 0, 0, 0, 0, 0, 0, 0, 0, 0, 0, 1,0.0,0.0,0.0,0.0,0.0,0.0,0.0,0.0,0.0,0.0,0.0,0.0,0.0,38,samples\org\apache\xml\security\samples\canonicalization\CanonDirect.java,0,0,0,0
org.apache.xml.security.samples.canonicalization.CanonSubTree, 1, 0, 0, 0, 0, 0, 0, 0, 0, 0, 0, 0, 0, 1,0.0,0.0,0.0,0.0,0.0,0.0,0.0,0.0,0.0,0.0,0.0,0.0,0.0,47,samples\org\apache\xml\security\samples\canonicalization\CanonSubTree.java,0,0,0,0
org.apache.xml.security.samples.encryption.Decrypter, 1, 0, 0, 0, 0, 0, 0, 0, 0, 0, 0, 0, 0, 1,0.0,0.0,0.0,0.0,0.0,0.0,0.0,0.0,0.0,0.0,0.0,0.0,0.0,64,samples\org\apache\xml\security\samples\encryption\Decrypter.java,0,0,0,0
org.apache.xml.security.samples.encryption.Encrypter, 1, 0, 0, 0, 0, 0, 0, 0, 0, 0, 0, 0, 0, 1,0.0,0.0,0.0,1.0,0.0,0.0,0.0,0.0,0.0,0.0,0.0,0.0,0.0,85,samples\org\apache\xml\security\samples\encryption\Encrypter.java,0,0,0,0
org.apache.xml.security.samples.iaik.IAIKInterOp, 1, 0, 0, 0, 0, 0, 0, 0, 0, 0, 0, 0, 0, 1,0.5,0.0,0.0,0.3333333333333333,0.0,0.0,0.0,0.16666666666666666,0.0,0.0,0.0,0.0,0.0,129,samples\org\apache\xml\security\samples\iaik\IAIKInterOp.java,0,0,0,0
org.apache.xml.security.samples.keys.CreateKeyInfo, 0, 0, 0, 0, 0, 0, 0, 0, 0, 0, 0, 0, 0, 0,0.0,0.0,0.0,0.6666666666666666,0.0,0.0,0.0,0.0,0.0,0.0,0.0,0.0,0.0,26,samples\org\apache\xml\security\samples\keys\CreateKeyInfo.java,0,0,0,0
org.apache.xml.security.samples.signature.CreateCollectableSignature, 1, 0, 0, 0, 0, 0, 0, 0, 0, 0, 0, 0, 0, 1,0.0,0.0,0.0,0.6,0.0,0.0,0.0,0.2,0.0,0.0,0.0,0.0,0.0,75,samples\org\apache\xml\security\samples\signature\CreateCollectableSignature.java,0,0,0,0
org.apache.xml.security.samples.signature.CreateEnvelopingSignature, 1, 0, 0, 0, 0, 0, 0, 0, 0, 0, 0, 0, 0, 1,0.0,0.0,0.0,0.6666666666666666,0.0,0.0,0.0,0.3333333333333333,0.0,0.0,0.0,0.0,0.0,59,samples\org\apache\xml\security\samples\signature\CreateEnvelopingSignature.java,0,0,0,0
org.apache.xml.security.samples.signature.CreateMerlinsExampleSixteen, 1, 0, 0, 0, 0, 0, 0, 0, 0, 0, 0, 0, 0, 1,0.0,0.0,0.0,0.3076923076923077,0.0,0.0,0.0,0.07692307692307693,0.0,0.0,0.0,0.0,0.0,303,samples\org\apache\xml\security\samples\signature\CreateMerlinsExampleSixteen.java,0,0,0,0
org.apache.xml.security.samples.signature.CreateMerlinsExampleTwentyThree, 1, 0, 0, 0, 0, 0, 0, 0, 0, 0, 0, 0, 0, 1,0.0,0.0,0.0,0.3076923076923077,0.0,0.0,0.0,0.07692307692307693,0.0,0.0,0.0,0.0,0.0,302,samples\org\apache\xml\security\samples\signature\CreateMerlinsExampleTwentyThree.java,0,0,0,0
org.apache.xml.security.samples.signature.CreateSignature, 1, 0, 0, 0, 0, 0, 0, 0, 0, 0, 0, 0, 0, 1,0.0,0.0,0.0,1.0,0.0,0.0,0.0,0.5,0.0,0.0,0.0,0.0,0.0,68,samples\org\apache\xml\security\samples\signature\CreateSignature.java,0,0,0,0
org.apache.xml.security.samples.signature.HereSigner, 1, 0, 0, 0, 0, 0, 0, 0, 0, 0, 0, 0, 0, 1,0.0,0.0,0.0,0.4,0.0,0.0,0.0,0.2,0.0,0.0,0.0,0.0,0.0,78,samples\org\apache\xml\security\samples\signature\HereSigner.java,0,0,0,0
org.apache.xml.security.samples.signature.NullURIReferenceResolver, 1, 0, 0, 0, 0, 0, 0, 0, 0, 0, 0, 0, 0, 1,0.0,0.0,0.0,1.0,0.0,0.0,0.0,0.0,0.0,0.0,0.0,0.0,0.0,53,samples\org\apache\xml\security\samples\signature\NullURIReferenceResolver.java,0,0,0,0
org.apache.xml.security.samples.signature.SignaturePropertiesSample, 0, 0, 0, 0, 0, 0, 0, 0, 0, 0, 0, 0, 0, 0,0.0,0.0,0.0,0.42857142857142855,0.0,0.0,0.0,0.14285714285714285,0.0,0.0,0.0,0.0,0.0,34,samples\org\apache\xml\security\samples\signature\SignaturePropertiesSample.java,0,0,0,0
org.apache.xml.security.samples.signature.TestSignature, 0, 0, 0, 0, 0, 0, 0, 0, 0, 0, 0, 0, 0, 0,0.0,0.0,0.0,1.0,0.0,0.0,0.0,0.5,0.0,0.0,0.0,0.0,0.0,74,samples\org\apache\xml\security\samples\signature\TestSignature.java,0,0,0,0
org.apache.xml.security.samples.signature.VerifyCollectableSignature, 1, 0, 0, 0, 0, 0, 0, 0, 0, 0, 0, 0, 0, 1,0.0,0.0,0.0,1.0,0.0,0.0,0.0,1.0,0.0,0.0,0.0,0.0,0.0,50,samples\org\apache\xml\security\samples\signature\VerifyCollectableSignature.java,0,0,0,0
org.apache.xml.security.samples.signature.VerifyMerlinsExamplesFifteen, 1, 0, 0, 0, 0, 0, 0, 0, 0, 0, 0, 0, 0, 1,0.6666666666666666,0.0,0.0,0.3333333333333333,0.0,0.0,0.0,0.3333333333333333,0.0,0.0,0.0,0.0,0.0,94,samples\org\apache\xml\security\samples\signature\VerifyMerlinsExamplesFifteen.java,0,0,0,0
org.apache.xml.security.samples.signature.VerifyMerlinsExamplesSixteen, 1, 0, 0, 0, 0, 0, 0, 0, 0, 0, 0, 0, 0, 1,0.5,0.0,0.0,0.5,0.0,0.0,0.0,0.25,0.0,0.0,0.0,0.0,0.0,105,samples\org\apache\xml\security\samples\signature\VerifyMerlinsExamplesSixteen.java,0,0,0,0
org.apache.xml.security.samples.signature.VerifyMerlinsExamplesTwentyThree, 1, 0, 0, 0, 0, 0, 0, 0, 0, 0, 0, 0, 0, 1,0.3333333333333333,0.0,0.0,0.6666666666666666,0.0,0.0,0.0,0.3333333333333333,0.0,0.0,0.0,0.0,0.0,112,samples\org\apache\xml\security\samples\signature\VerifyMerlinsExamplesTwentyThree.java,0,0,0,0
org.apache.xml.security.samples.signature.VerifySignature, 0, 0, 0, 0, 0, 0, 0, 0, 0, 0, 0, 0, 0, 0,0.0,0.0,0.0,1.0,0.0,0.0,0.0,0.5,0.0,0.0,0.0,0.0,0.0,93,samples\org\apache\xml\security\samples\signature\VerifySignature.java,0,0,0,0
org.apache.xml.security.samples.signature.contract.ThreeSignerContractSign, 0, 0, 0, 0, 0, 0, 0, 0, 0, 0, 0, 0, 0, 0,0.0,0.0,0.0,0.6,0.0,0.0,0.0,0.2,0.0,0.0,0.0,0.0,0.0,177,samples\org\apache\xml\security\samples\signature\contract\ThreeSignerContractSign.java,0,0,0,0
org.apache.xml.security.samples.signature.contract.ThreeSignerContractVerify, 0, 0, 0, 0, 0, 0, 0, 0, 0, 0, 0, 0, 0, 0,0.0,0.0,0.0,1.0,0.0,0.0,0.0,1.0,0.0,0.0,0.0,0.0,0.0,42,samples\org\apache\xml\security\samples\signature\contract\ThreeSignerContractVerify.java,0,0,0,0
org.apache.xml.security.samples.transforms.SampleTransformChaining, 0, 0, 0, 0, 0, 0, 0, 0, 0, 0, 0, 0, 0, 0,0.0,0.0,0.0,0.6666666666666666,0.0,0.0,0.0,0.0,0.0,0.0,0.0,0.0,0.0,55,samples\org\apache\xml\security\samples\transforms\SampleTransformChaining.java,0,0,0,0
org.apache.xml.security.samples.transforms.SampleTransformEnvelopedSignature, 0, 0, 0, 0, 0, 0, 0, 0, 0, 0, 0, 0, 0, 0,0.0,0.0,0.0,0.6666666666666666,0.0,0.0,0.0,0.0,0.0,0.0,0.0,0.0,0.0,47,samples\org\apache\xml\security\samples\transforms\SampleTransformEnvelopedSignature.java,0,0,0,0
org.apache.xml.security.samples.transforms.SampleTransformNone, 1, 0, 0, 0, 0, 0, 0, 0, 0, 0, 0, 0, 0, 1,0.0,0.0,0.0,0.0,0.0,0.0,0.0,0.0,0.0,0.0,0.0,0.0,0.0,19,samples\org\apache\xml\security\samples\transforms\SampleTransformNone.java,0,0,0,0
org.apache.xml.security.samples.transforms.SampleTransformXPath, 0, 0, 0, 0, 0, 0, 0, 0, 0, 0, 0, 0, 0, 0,0.0,0.0,0.0,0.6666666666666666,0.0,0.0,0.0,0.0,0.0,0.0,0.0,0.0,0.0,46,samples\org\apache\xml\security\samples\transforms\SampleTransformXPath.java,0,0,0,0
org.apache.xml.security.samples.transforms.SampleTransformXPath2Filter, 0, 0, 0, 0, 0, 0, 0, 0, 0, 0, 0, 0, 0, 0,0.0,0.0,0.0,0.7142857142857143,0.0,0.0,0.0,0.14285714285714285,0.0,0.0,0.0,0.0,0.0,116,samples\org\apache\xml\security\samples\transforms\SampleTransformXPath2Filter.java,0,0,0,0
org.apache.xml.security.samples.transforms.SampleTransformXPath2Filter2, 0, 0, 0, 0, 0, 0, 0, 0, 0, 0, 0, 0, 0, 0,0.0,0.0,0.0,0.7142857142857143,0.0,0.0,0.0,0.14285714285714285,0.0,0.0,0.0,0.0,0.0,107,samples\org\apache\xml\security\samples\transforms\SampleTransformXPath2Filter2.java,0,0,0,0
org.apache.xml.security.samples.transforms.SampleTransformXPathHereFunc, 0, 0, 0, 0, 0, 0, 0, 0, 0, 0, 0, 0, 0, 0,0.0,0.0,0.0,0.6666666666666666,0.0,0.0,0.0,0.0,0.0,0.0,0.0,0.0,0.0,43,samples\org\apache\xml\security\samples\transforms\SampleTransformXPathHereFunc.java,0,0,0,0
org.apache.xml.security.samples.transforms.SampleTransformXSLT, 0, 0, 0, 0, 0, 0, 0, 0, 0, 0, 0, 0, 0, 0,0.0,0.0,0.0,0.6666666666666666,0.0,0.0,0.0,0.0,0.0,0.0,0.0,0.0,0.0,90,samples\org\apache\xml\security\samples\transforms\SampleTransformXSLT.java,0,0,0,0
org.apache.xml.security.samples.utils.Base64Sample, 0, 0, 0, 0, 0, 0, 0, 0, 0, 0, 0, 0, 0, 0,0.0,0.0,0.0,0.0,0.0,0.0,0.0,0.0,0.0,0.0,0.0,0.0,0.0,39,samples\org\apache\xml\security\samples\utils\Base64Sample.java,0,0,0,0
org.apache.xml.security.signature.InvalidDigestValueException, 0, 0, 0, 0, 0, 0, 0, 0, 0, 0, 0, 0, 0, 0,0.0,0.0,0.0,0.0,0.0,0.0,0.0,0.0,0.0,0.0,0.0,0.0,0.0,18,src\main\java\org\apache\xml\security\signature\InvalidDigestValueException.java,0,0,0,0
org.apache.xml.security.signature.InvalidSignatureValueException, 0, 0, 0, 0, 0, 0, 0, 0, 0, 0, 0, 0, 0, 0,0.0,0.0,0.0,0.0,0.0,0.0,0.0,0.0,0.0,0.0,0.0,0.0,0.0,18,src\main\java\org\apache\xml\security\signature\InvalidSignatureValueException.java,0,0,0,0
org.apache.xml.security.signature.MissingResourceFailureException, 0, 0, 0, 0, 0, 0, 0, 0, 0, 0, 0, 0, 0, 0,0.5,0.0,0.0,0.0,0.0,0.0,0.0,0.0,0.0,0.0,0.0,0.0,0.0,30,src\main\java\org\apache\xml\security\signature\MissingResourceFailureException.java,0,0,0,0
org.apache.xml.security.signature.NodeFilter, 0, 0, 0, 0, 0, 0, 0, 0, 0, 0, 0, 0, 0, 0,0.0,0.0,0.0,0.0,0.0,0.0,0.0,0.0,0.0,0.0,0.0,0.0,0.0,30,src\main\java\org\apache\xml\security\signature\NodeFilter.java,0,0,0,0
org.apache.xml.security.signature.ObjectContainer, 0, 0, 0, 0, 0, 0, 0, 0, 0, 0, 0, 0, 0, 0,0.5,0.0,0.0,0.1,0.0,0.0,0.0,0.1,0.0,0.0,0.0,0.0,0.0,39,src\main\java\org\apache\xml\security\signature\ObjectContainer.java,0,0,0,0
org.apache.xml.security.signature.ReferenceNotInitializedException, 0, 0, 0, 0, 0, 0, 0, 0, 0, 0, 0, 0, 0, 0,0.0,0.0,0.0,0.0,0.0,0.0,0.0,0.0,0.0,0.0,0.0,0.0,0.0,18,src\main\java\org\apache\xml\security\signature\ReferenceNotInitializedException.java,0,0,0,0
org.apache.xml.security.signature.SignatureProperties, 0, 0, 0, 0, 0, 0, 0, 0, 0, 0, 0, 0, 0, 0,0.25,0.0,0.0,0.125,0.0,0.0,0.0,0.125,0.0,0.0,0.0,0.0,0.0,54,src\main\java\org\apache\xml\security\signature\SignatureProperties.java,0,0,0,0
org.apache.xml.security.signature.SignatureProperty, 0, 0, 0, 0, 0, 0, 0, 0, 0, 0, 0, 0, 0, 0,0.4,0.0,0.0,0.0,0.0,0.0,0.0,0.0,0.0,0.0,0.0,0.0,0.0,36,src\main\java\org\apache\xml\security\signature\SignatureProperty.java,0,0,0,0
org.apache.xml.security.signature.XMLSignature, 0, 0, 0, 1, 0, 0, 0, 1, 0, 0, 0, 0, 0, 2,0.34545454545454546,0.0,0.0,0.09090909090909091,0.0,0.0,0.0,0.01818181818181818,0.0,0.0,0.0,0.0,0.0,405,src\main\java\org\apache\xml\security\signature\XMLSignature.java,0,0,0,0
org.apache.xml.security.signature.XMLSignatureException, 0, 0, 0, 0, 0, 0, 0, 0, 0, 0, 0, 0, 0, 0,0.29411764705882354,0.0,0.0,0.17647058823529413,0.0,0.0,0.0,0.058823529411764705,0.0,0.0,0.0,0.0,0.0,18,src\main\java\org\apache\xml\security\signature\XMLSignatureException.java,0,0,0,0
org.apache.xml.security.signature.XMLSignatureInput, 0, 0, 0, 1, 0, 0, 0, 0, 0, 0, 0, 0, 0, 1,0.10638297872340426,0.0,0.0,0.06382978723404255,0.0,0.0,0.0,0.0,0.0,0.0,0.0,0.0,0.0,256,src\main\java\org\apache\xml\security\signature\XMLSignatureInput.java,0,0,0,0
org.apache.xml.security.signature.XMLSignatureInputDebugger, 0, 0, 0, 1, 0, 0, 0, 0, 0, 0, 0, 0, 0, 1,0.0,0.0,0.0,0.5,0.0,0.0,0.0,0.0,0.0,0.0,0.0,0.0,0.0,370,src\main\java\org\apache\xml\security\signature\XMLSignatureInputDebugger.java,0,0,0,0
org.apache.xml.security.signature.reference.ReferenceData, 0, 0, 0, 0, 0, 0, 0, 0, 0, 0, 0, 0, 0, 0,0.0,0.0,0.0,0.0,0.0,0.0,0.0,0.0,0.0,0.0,0.0,0.0,0.0,370,src\main\java\org\apache\xml\security\signature\reference\ReferenceData.java,0,0,0,0
org.apache.xml.security.signature.reference.ReferenceNodeSetData, 0, 0, 0, 0, 0, 0, 0, 0, 0, 0, 0, 0, 0, 0,0.0,0.0,0.0,0.0,0.0,0.0,0.0,0.0,0.0,0.0,0.0,0.0,0.0,370,src\main\java\org\apache\xml\security\signature\reference\ReferenceNodeSetData.java,0,0,0,0
org.apache.xml.security.signature.reference.ReferenceOctetStreamData, 0, 0, 0, 0, 0, 0, 0, 0, 0, 0, 0, 0, 0, 0,1.0,0.0,0.0,0.0,0.0,0.0,0.0,0.0,0.0,0.0,0.0,0.0,0.0,29,src\main\java\org\apache\xml\security\signature\reference\ReferenceOctetStreamData.java,0,0,0,0
org.apache.xml.security.stax.config.Init, 0, 0, 0, 0, 0, 0, 0, 0, 0, 0, 0, 0, 0, 0,0.0,0.0,0.0,0.06666666666666667,0.0,0.0,0.0,0.0,0.0,0.0,0.0,0.0,0.0,41,src\main\java\org\apache\xml\security\stax\config\Init.java,0,0,0,0
org.apache.xml.security.stax.config.JCEAlgorithmMapper, 0, 0, 0, 0, 0, 0, 0, 0, 0, 0, 0, 0, 0, 0,0.0,0.0,0.0,0.0,0.0,0.0,0.0,0.0,0.0,0.0,0.0,0.0,0.0,23,src\main\java\org\apache\xml\security\stax\config\JCEAlgorithmMapper.java,0,0,0,0
org.apache.xml.security.stax.config.ResourceResolverMapper, 0, 0, 0, 0, 0, 0, 0, 0, 0, 0, 0, 0, 0, 0,0.0,0.0,0.0,0.0,0.0,0.0,0.0,0.0,0.0,0.0,0.0,0.0,0.0,25,src\main\java\org\apache\xml\security\stax\config\ResourceResolverMapper.java,0,0,0,0
org.apache.xml.security.stax.ext.AbstractBufferingOutputProcessor, 0, 0, 0, 0, 0, 0, 0, 0, 0, 0, 0, 0, 0, 0,0.0,0.0,0.0,0.0,0.0,0.0,0.0,0.0,0.0,0.0,0.0,0.0,0.0,34,src\main\java\org\apache\xml\security\stax\ext\AbstractBufferingOutputProcessor.java,0,0,0,0
org.apache.xml.security.stax.ext.AbstractInputProcessor, 0, 0, 0, 0, 0, 0, 0, 0, 0, 0, 0, 0, 0, 0,0.0,0.0,0.0,0.2,0.0,0.0,0.0,0.2,0.0,0.0,0.0,0.0,0.0,54,src\main\java\org\apache\xml\security\stax\ext\AbstractInputProcessor.java,0,0,0,0
org.apache.xml.security.stax.ext.AbstractInputSecurityHeaderHandler, 0, 0, 0, 0, 0, 0, 0, 0, 0, 0, 0, 0, 0, 0,0.0,0.0,0.0,0.6666666666666666,0.0,0.0,0.0,0.0,0.0,0.0,0.0,0.0,0.0,39,src\main\java\org\apache\xml\security\stax\ext\AbstractInputSecurityHeaderHandler.java,0,0,0,0
org.apache.xml.security.stax.ext.ComparableType, 0, 0, 0, 0, 0, 0, 0, 0, 0, 0, 0, 0, 0, 0,0.0,0.0,0.0,0.3333333333333333,0.0,0.0,0.0,0.0,0.0,0.0,0.0,0.0,0.0,38,src\main\java\org\apache\xml\security\stax\ext\ComparableType.java,0,0,0,0
org.apache.xml.security.stax.ext.InboundSecurityContext, 0, 0, 0, 0, 0, 0, 0, 0, 0, 0, 0, 0, 0, 0,0.0,0.0,0.0,0.0,0.0,0.0,0.0,0.0,0.0,0.0,0.0,0.0,0.0,38,src\main\java\org\apache\xml\security\stax\ext\InboundSecurityContext.java,0,0,0,0
org.apache.xml.security.stax.ext.InboundXMLSec, 0, 0, 0, 0, 0, 0, 0, 0, 0, 0, 0, 0, 0, 0,0.0,0.0,0.0,0.2857142857142857,0.0,0.0,0.0,0.0,0.0,0.0,0.0,0.0,0.0,56,src\main\java\org\apache\xml\security\stax\ext\InboundXMLSec.java,0,0,0,0
org.apache.xml.security.stax.ext.InputProcessor, 0, 0, 0, 0, 0, 0, 0, 0, 0, 0, 0, 0, 0, 0,0.0,0.0,0.0,0.0,0.0,0.0,0.0,0.0,0.0,0.0,0.0,0.0,0.0,56,src\main\java\org\apache\xml\security\stax\ext\InputProcessor.java,0,0,0,0
org.apache.xml.security.stax.ext.InputProcessorChain, 0, 0, 0, 0, 0, 0, 0, 0, 0, 0, 0, 0, 0, 0,0.0,0.0,0.0,0.0,0.0,0.0,0.0,0.0,0.0,0.0,0.0,0.0,0.0,56,src\main\java\org\apache\xml\security\stax\ext\InputProcessorChain.java,0,0,0,0
org.apache.xml.security.stax.ext.OutboundSecurityContext, 0, 0, 0, 0, 0, 0, 0, 0, 0, 0, 0, 0, 0, 0,0.0,0.0,0.0,0.0,0.0,0.0,0.0,0.0,0.0,0.0,0.0,0.0,0.0,56,src\main\java\org\apache\xml\security\stax\ext\OutboundSecurityContext.java,0,0,0,0
org.apache.xml.security.stax.ext.OutputProcessor, 0, 0, 0, 0, 0, 0, 0, 0, 0, 0, 0, 0, 0, 0,0.0,0.0,0.0,0.0,0.0,0.0,0.0,0.0,0.0,0.0,0.0,0.0,0.0,56,src\main\java\org\apache\xml\security\stax\ext\OutputProcessor.java,0,0,0,0
org.apache.xml.security.stax.ext.OutputProcessorChain, 0, 0, 0, 0, 0, 0, 0, 0, 0, 0, 0, 0, 0, 0,0.0,0.0,0.0,0.0,0.0,0.0,0.0,0.0,0.0,0.0,0.0,0.0,0.0,56,src\main\java\org\apache\xml\security\stax\ext\OutputProcessorChain.java,0,0,0,0
org.apache.xml.security.stax.ext.ProcessorChain, 0, 0, 0, 0, 0, 0, 0, 0, 0, 0, 0, 0, 0, 0,0.0,0.0,0.0,0.0,0.0,0.0,0.0,0.0,0.0,0.0,0.0,0.0,0.0,56,src\main\java\org\apache\xml\security\stax\ext\ProcessorChain.java,0,0,0,0
org.apache.xml.security.stax.ext.ResourceResolver, 0, 0, 0, 0, 0, 0, 0, 0, 0, 0, 0, 0, 0, 0,0.0,0.0,0.0,0.0,0.0,0.0,0.0,0.0,0.0,0.0,0.0,0.0,0.0,56,src\main\java\org\apache\xml\security\stax\ext\ResourceResolver.java,0,0,0,0
org.apache.xml.security.stax.ext.ResourceResolverLookup, 0, 0, 0, 0, 0, 0, 0, 0, 0, 0, 0, 0, 0, 0,0.0,0.0,0.0,0.0,0.0,0.0,0.0,0.0,0.0,0.0,0.0,0.0,0.0,56,src\main\java\org\apache\xml\security\stax\ext\ResourceResolverLookup.java,0,0,0,0
org.apache.xml.security.stax.ext.UncheckedXMLSecurityException, 0, 0, 0, 0, 0, 0, 0, 0, 0, 0, 0, 0, 0, 0,0.0,0.0,0.0,0.0,0.0,0.0,0.0,0.0,0.0,0.0,0.0,0.0,0.0,12,src\main\java\org\apache\xml\security\stax\ext\UncheckedXMLSecurityException.java,0,0,0,0
org.apache.xml.security.stax.ext.XMLSecurityConfigurationException, 0, 0, 0, 0, 0, 0, 0, 0, 0, 0, 0, 0, 0, 0,0.0,0.0,0.0,0.0,0.0,0.0,0.0,0.0,0.0,0.0,0.0,0.0,0.0,15,src\main\java\org\apache\xml\security\stax\ext\XMLSecurityConfigurationException.java,0,0,0,0
org.apache.xml.security.stax.ext.XMLSecurityConstants, 0, 0, 0, 1, 0, 0, 0, 0, 0, 0, 0, 0, 0, 1,0.0,0.0,0.0,0.0,0.0,0.0,0.0,0.0,0.0,0.0,0.0,0.0,0.0,203,src\main\java\org\apache\xml\security\stax\ext\XMLSecurityConstants.java,0,0,0,0
org.apache.xml.security.stax.ext.XMLSecurityHeaderHandler, 0, 0, 0, 0, 0, 0, 0, 0, 0, 0, 0, 0, 0, 0,0.0,0.0,0.0,0.0,0.0,0.0,0.0,0.0,0.0,0.0,0.0,0.0,0.0,203,src\main\java\org\apache\xml\security\stax\ext\XMLSecurityHeaderHandler.java,0,0,0,0
org.apache.xml.security.stax.ext.XMLSecurityProperties, 0, 0, 0, 1, 0, 0, 0, 0, 0, 0, 0, 0, 0, 1,0.0,0.0,0.0,0.12,0.0,0.0,0.0,0.04,0.0,0.0,0.0,0.0,0.0,220,src\main\java\org\apache\xml\security\stax\ext\XMLSecurityProperties.java,0,0,0,0
org.apache.xml.security.stax.ext.stax.XMLSecAttribute, 0, 0, 0, 0, 0, 0, 0, 0, 0, 0, 0, 0, 0, 0,0.0,0.0,0.0,0.0,0.0,0.0,0.0,0.0,0.0,0.0,0.0,0.0,0.0,220,src\main\java\org\apache\xml\security\stax\ext\stax\XMLSecAttribute.java,0,0,0,0
org.apache.xml.security.stax.ext.stax.XMLSecCharacters, 0, 0, 0, 0, 0, 0, 0, 0, 0, 0, 0, 0, 0, 0,0.0,0.0,0.0,0.0,0.0,0.0,0.0,0.0,0.0,0.0,0.0,0.0,0.0,220,src\main\java\org\apache\xml\security\stax\ext\stax\XMLSecCharacters.java,0,0,0,0
org.apache.xml.security.stax.ext.stax.XMLSecComment, 0, 0, 0, 0, 0, 0, 0, 0, 0, 0, 0, 0, 0, 0,0.0,0.0,0.0,0.0,0.0,0.0,0.0,0.0,0.0,0.0,0.0,0.0,0.0,220,src\main\java\org\apache\xml\security\stax\ext\stax\XMLSecComment.java,0,0,0,0
org.apache.xml.security.stax.ext.stax.XMLSecDTD, 0, 0, 0, 0, 0, 0, 0, 0, 0, 0, 0, 0, 0, 0,0.0,0.0,0.0,0.0,0.0,0.0,0.0,0.0,0.0,0.0,0.0,0.0,0.0,220,src\main\java\org\apache\xml\security\stax\ext\stax\XMLSecDTD.java,0,0,0,0
org.apache.xml.security.stax.ext.stax.XMLSecEndDocument, 0, 0, 0, 0, 0, 0, 0, 0, 0, 0, 0, 0, 0, 0,0.0,0.0,0.0,0.0,0.0,0.0,0.0,0.0,0.0,0.0,0.0,0.0,0.0,220,src\main\java\org\apache\xml\security\stax\ext\stax\XMLSecEndDocument.java,0,0,0,0
org.apache.xml.security.stax.ext.stax.XMLSecEndElement, 0, 0, 0, 0, 0, 0, 0, 0, 0, 0, 0, 0, 0, 0,0.0,0.0,0.0,0.0,0.0,0.0,0.0,0.0,0.0,0.0,0.0,0.0,0.0,220,src\main\java\org\apache\xml\security\stax\ext\stax\XMLSecEndElement.java,0,0,0,0
org.apache.xml.security.stax.ext.stax.XMLSecEntityDeclaration, 0, 0, 0, 0, 0, 0, 0, 0, 0, 0, 0, 0, 0, 0,0.0,0.0,0.0,0.0,0.0,0.0,0.0,0.0,0.0,0.0,0.0,0.0,0.0,220,src\main\java\org\apache\xml\security\stax\ext\stax\XMLSecEntityDeclaration.java,0,0,0,0
org.apache.xml.security.stax.ext.stax.XMLSecEntityReference, 0, 0, 0, 0, 0, 0, 0, 0, 0, 0, 0, 0, 0, 0,0.0,0.0,0.0,0.0,0.0,0.0,0.0,0.0,0.0,0.0,0.0,0.0,0.0,220,src\main\java\org\apache\xml\security\stax\ext\stax\XMLSecEntityReference.java,0,0,0,0
org.apache.xml.security.stax.ext.stax.XMLSecEvent, 0, 0, 0, 0, 0, 0, 0, 0, 0, 0, 0, 0, 0, 0,0.0,0.0,0.0,0.0,0.0,0.0,0.0,0.0,0.0,0.0,0.0,0.0,0.0,220,src\main\java\org\apache\xml\security\stax\ext\stax\XMLSecEvent.java,0,0,0,0
org.apache.xml.security.stax.ext.stax.XMLSecEventFactory, 0, 0, 0, 0, 0, 0, 0, 0, 0, 0, 0, 0, 0, 0,0.0,0.0,0.0,0.07142857142857142,0.0,0.0,0.0,0.07142857142857142,0.0,0.0,0.0,0.0,0.0,108,src\main\java\org\apache\xml\security\stax\ext\stax\XMLSecEventFactory.java,0,0,1,2
org.apache.xml.security.stax.ext.stax.XMLSecNamespace, 0, 0, 0, 0, 0, 0, 0, 0, 0, 0, 0, 0, 0, 0,0.0,0.0,0.0,0.0,0.0,0.0,0.0,0.0,0.0,0.0,0.0,0.0,0.0,108,src\main\java\org\apache\xml\security\stax\ext\stax\XMLSecNamespace.java,0,0,0,0
org.apache.xml.security.stax.ext.stax.XMLSecProcessingInstruction, 0, 0, 0, 0, 0, 0, 0, 0, 0, 0, 0, 0, 0, 0,0.0,0.0,0.0,0.0,0.0,0.0,0.0,0.0,0.0,0.0,0.0,0.0,0.0,108,src\main\java\org\apache\xml\security\stax\ext\stax\XMLSecProcessingInstruction.java,0,0,0,0
org.apache.xml.security.stax.ext.stax.XMLSecStartDocument, 0, 0, 0, 0, 0, 0, 0, 0, 0, 0, 0, 0, 0, 0,0.0,0.0,0.0,0.0,0.0,0.0,0.0,0.0,0.0,0.0,0.0,0.0,0.0,108,src\main\java\org\apache\xml\security\stax\ext\stax\XMLSecStartDocument.java,0,0,0,0
org.apache.xml.security.stax.ext.stax.XMLSecStartElement, 0, 0, 0, 0, 0, 0, 0, 0, 0, 0, 0, 0, 0, 0,0.0,0.0,0.0,0.0,0.0,0.0,0.0,0.0,0.0,0.0,0.0,0.0,0.0,108,src\main\java\org\apache\xml\security\stax\ext\stax\XMLSecStartElement.java,0,0,0,0
org.apache.xml.security.stax.impl.EncryptionPartDef, 0, 0, 0, 1, 0, 0, 0, 0, 0, 0, 0, 0, 0, 1,0.0,0.0,0.0,0.0,0.0,0.0,0.0,0.0,0.0,0.0,0.0,0.0,0.0,51,src\main\java\org\apache\xml\security\stax\impl\EncryptionPartDef.java,0,0,0,0
org.apache.xml.security.stax.impl.InputProcessorChainImpl, 0, 0, 0, 1, 0, 0, 0, 0, 0, 0, 0, 0, 0, 1,0.0,0.0,0.0,0.0,0.0,0.0,0.0,0.0,0.0,0.0,0.0,0.0,0.0,157,src\main\java\org\apache\xml\security\stax\impl\InputProcessorChainImpl.java,0,0,0,0
org.apache.xml.security.stax.impl.OutputProcessorChainImpl, 0, 0, 0, 1, 0, 0, 0, 0, 0, 0, 0, 0, 0, 1,0.0,0.0,0.0,0.0,0.0,0.0,0.0,0.0,0.0,0.0,0.0,0.0,0.0,187,src\main\java\org\apache\xml\security\stax\impl\OutputProcessorChainImpl.java,0,0,0,0
org.apache.xml.security.stax.impl.SignaturePartDef, 0, 0, 0, 1, 0, 0, 0, 0, 0, 0, 0, 0, 0, 1,0.0,0.0,0.0,0.0,0.0,0.0,0.0,0.0,0.0,0.0,0.0,0.0,0.0,64,src\main\java\org\apache\xml\security\stax\impl\SignaturePartDef.java,0,0,0,0
org.apache.xml.security.stax.impl.XMLSecurityEventWriter, 0, 0, 0, 0, 0, 0, 0, 0, 0, 0, 0, 0, 0, 0,0.0,0.0,0.0,0.0,0.0,0.0,0.0,0.0,0.0,0.0,0.0,0.0,0.0,117,src\main\java\org\apache\xml\security\stax\impl\XMLSecurityEventWriter.java,0,0,0,0
org.apache.xml.security.stax.impl.algorithms.DSAUtils, 0, 0, 0, 0, 0, 0, 0, 0, 0, 0, 0, 0, 0, 0,0.0,0.0,0.0,0.0,0.0,0.0,0.0,0.0,0.0,0.0,0.0,0.0,0.0,48,src\main\java\org\apache\xml\security\stax\impl\algorithms\DSAUtils.java,0,0,0,0
org.apache.xml.security.stax.impl.algorithms.ECDSAUtils, 0, 0, 0, 0, 0, 0, 0, 0, 0, 0, 0, 0, 0, 0,0.0,0.0,0.0,0.0,0.0,0.0,0.0,0.0,0.0,0.0,0.0,0.0,0.0,766,src\main\java\org\apache\xml\security\stax\impl\algorithms\ECDSAUtils.java,0,0,0,0
org.apache.xml.security.stax.impl.algorithms.SignatureAlgorithm, 0, 0, 0, 0, 0, 0, 0, 0, 0, 0, 0, 0, 0, 0,0.0,0.0,0.0,0.0,0.0,0.0,0.0,0.0,0.0,0.0,0.0,0.0,0.0,766,src\main\java\org\apache\xml\security\stax\impl\algorithms\SignatureAlgorithm.java,0,0,0,0
org.apache.xml.security.stax.impl.algorithms.SignatureAlgorithmFactory, 0, 0, 0, 0, 0, 0, 0, 0, 0, 0, 0, 0, 0, 0,0.0,0.0,0.0,0.0,0.0,0.0,0.0,0.0,0.0,0.0,0.0,0.0,0.0,26,src\main\java\org\apache\xml\security\stax\impl\algorithms\SignatureAlgorithmFactory.java,0,0,0,0
org.apache.xml.security.stax.impl.processor.input.LogInputProcessor, 0, 0, 0, 0, 0, 0, 0, 0, 0, 0, 0, 0, 0, 0,0.0,0.0,0.0,0.3333333333333333,0.0,0.0,0.0,0.0,0.0,0.0,0.0,0.0,0.0,21,src\main\java\org\apache\xml\security\stax\impl\processor\input\LogInputProcessor.java,0,0,0,0
org.apache.xml.security.stax.impl.processor.input.XMLDecryptInputProcessor, 0, 0, 0, 0, 0, 0, 0, 1, 0, 0, 0, 0, 0, 1,0.0,0.0,0.0,0.125,0.0,0.0,0.0,0.125,0.0,0.0,0.0,0.0,0.0,70,src\main\java\org\apache\xml\security\stax\impl\processor\input\XMLDecryptInputProcessor.java,0,0,0,0
org.apache.xml.security.stax.impl.processor.input.XMLEventReaderInputProcessor, 0, 0, 0, 0, 0, 0, 0, 0, 0, 0, 0, 0, 0, 0,0.0,0.0,0.0,0.2,0.0,0.0,0.0,0.0,0.0,0.0,0.0,0.0,0.0,57,src\main\java\org\apache\xml\security\stax\impl\processor\input\XMLEventReaderInputProcessor.java,0,0,0,0
org.apache.xml.security.stax.impl.processor.input.XMLSecurityInputProcessor, 0, 0, 0, 0, 0, 0, 0, 0, 0, 0, 0, 0, 0, 0,0.0,0.0,0.0,0.2,0.0,0.0,0.0,0.2,0.0,0.0,0.0,0.0,0.0,141,src\main\java\org\apache\xml\security\stax\impl\processor\input\XMLSecurityInputProcessor.java,0,0,0,0
org.apache.xml.security.stax.impl.processor.input.XMLSignatureInputHandler, 0, 0, 0, 0, 0, 0, 0, 0, 0, 0, 0, 0, 0, 0,0.0,0.0,0.0,0.0,0.0,0.0,0.0,0.0,0.0,0.0,0.0,0.0,0.0,44,src\main\java\org\apache\xml\security\stax\impl\processor\input\XMLSignatureInputHandler.java,0,0,0,0
org.apache.xml.security.stax.impl.processor.input.XMLSignatureReferenceVerifyInputProcessor, 0, 0, 0, 0, 0, 0, 0, 0, 0, 0, 0, 0, 0, 0,0.0,0.0,0.0,0.2,0.0,0.0,0.0,0.0,0.0,0.0,0.0,0.0,0.0,20,src\main\java\org\apache\xml\security\stax\impl\processor\input\XMLSignatureReferenceVerifyInputProcessor.java,0,0,0,0
org.apache.xml.security.stax.impl.processor.output.AbstractEncryptEndingOutputProcessor, 0, 0, 0, 0, 0, 0, 0, 0, 0, 0, 0, 0, 0, 0,0.0,0.0,0.0,0.0,0.0,0.0,0.0,0.0,0.0,0.0,0.0,0.0,0.0,5,src\main\java\org\apache\xml\security\stax\impl\processor\output\AbstractEncryptEndingOutputProcessor.java,0,0,0,0
org.apache.xml.security.stax.impl.processor.output.FinalOutputProcessor, 0, 0, 0, 0, 0, 0, 0, 0, 0, 0, 0, 0, 0, 0,0.0,0.0,0.0,0.0,0.0,0.0,0.0,0.0,0.0,0.0,0.0,0.0,0.0,30,src\main\java\org\apache\xml\security\stax\impl\processor\output\FinalOutputProcessor.java,0,0,0,0
org.apache.xml.security.stax.impl.processor.output.XMLEncryptOutputProcessor, 0, 0, 0, 0, 0, 0, 0, 0, 0, 0, 0, 0, 0, 0,0.0,0.0,0.0,0.6666666666666666,0.0,0.0,0.0,0.0,0.0,0.0,0.0,0.0,0.0,198,src\main\java\org\apache\xml\security\stax\impl\processor\output\XMLEncryptOutputProcessor.java,0,0,0,0
org.apache.xml.security.stax.impl.processor.output.XMLSignatureEndingOutputProcessor, 0, 0, 0, 0, 0, 0, 0, 0, 0, 0, 0, 0, 0, 0,0.0,0.0,0.0,0.2857142857142857,0.0,0.0,0.0,0.0,0.0,0.0,0.0,0.0,0.0,108,src\main\java\org\apache\xml\security\stax\impl\processor\output\XMLSignatureEndingOutputProcessor.java,0,0,0,0
org.apache.xml.security.stax.impl.processor.output.XMLSignatureOutputProcessor, 0, 0, 0, 0, 0, 0, 0, 0, 0, 0, 0, 0, 0, 0,0.0,0.0,0.0,0.5,0.0,0.0,0.0,0.0,0.0,0.0,0.0,0.0,0.0,61,src\main\java\org\apache\xml\security\stax\impl\processor\output\XMLSignatureOutputProcessor.java,0,0,0,0
org.apache.xml.security.stax.impl.resourceResolvers.ResolverFilesystem, 0, 0, 0, 0, 0, 0, 0, 0, 0, 0, 0, 0, 0, 0,0.0,0.0,0.0,0.0,0.0,0.0,0.0,0.0,0.0,0.0,0.0,0.0,0.0,49,src\main\java\org\apache\xml\security\stax\impl\resourceResolvers\ResolverFilesystem.java,0,0,0,0
org.apache.xml.security.stax.impl.resourceResolvers.ResolverHttp, 0, 0, 0, 0, 0, 0, 0, 0, 0, 0, 0, 0, 0, 0,0.0,0.0,0.0,0.25,0.0,0.0,0.0,0.0,0.0,0.0,0.0,0.0,0.0,65,src\main\java\org\apache\xml\security\stax\impl\resourceResolvers\ResolverHttp.java,0,0,0,0
org.apache.xml.security.stax.impl.resourceResolvers.ResolverSameDocument, 0, 0, 0, 0, 0, 0, 0, 0, 0, 0, 0, 0, 0, 0,0.0,0.0,0.0,0.0,0.0,0.0,0.0,0.0,0.0,0.0,0.0,0.0,0.0,50,src\main\java\org\apache\xml\security\stax\impl\resourceResolvers\ResolverSameDocument.java,0,0,0,0
org.apache.xml.security.stax.impl.securityToken.AbstractInboundSecurityToken, 0, 0, 0, 1, 0, 0, 0, 0, 0, 0, 0, 0, 0, 1,0.0,0.0,0.0,0.0,0.0,0.0,0.0,0.1,0.0,0.0,0.0,0.0,0.0,154,src\main\java\org\apache\xml\security\stax\impl\securityToken\AbstractInboundSecurityToken.java,0,0,0,0
org.apache.xml.security.stax.impl.securityToken.DsaKeyValueSecurityToken, 0, 0, 0, 0, 0, 0, 0, 0, 0, 0, 0, 0, 0, 0,0.0,0.0,0.0,0.3333333333333333,0.0,0.0,0.0,0.0,0.0,0.0,0.0,0.0,0.0,37,src\main\java\org\apache\xml\security\stax\impl\securityToken\DsaKeyValueSecurityToken.java,0,0,0,0
org.apache.xml.security.stax.impl.securityToken.ECKeyValueSecurityToken, 0, 0, 0, 0, 0, 0, 0, 0, 0, 0, 0, 0, 0, 0,0.0,0.0,0.0,0.2,0.0,0.0,0.0,0.0,0.0,0.0,0.0,0.0,0.0,71,src\main\java\org\apache\xml\security\stax\impl\securityToken\ECKeyValueSecurityToken.java,0,0,0,0
org.apache.xml.security.stax.impl.securityToken.GenericOutboundSecurityToken, 0, 0, 0, 1, 0, 0, 0, 0, 0, 0, 0, 0, 0, 1,0.0,0.0,0.0,0.0,0.0,0.0,0.0,0.0,0.0,0.0,0.0,0.0,0.0,72,src\main\java\org\apache\xml\security\stax\impl\securityToken\GenericOutboundSecurityToken.java,0,0,0,0
org.apache.xml.security.stax.impl.securityToken.KeyNameSecurityToken, 0, 0, 0, 0, 0, 0, 0, 0, 0, 0, 0, 0, 0, 0,0.0,0.0,0.0,0.4,0.0,0.0,0.0,0.0,0.0,0.0,0.0,0.0,0.0,14,src\main\java\org\apache\xml\security\stax\impl\securityToken\KeyNameSecurityToken.java,0,0,0,0
org.apache.xml.security.stax.impl.securityToken.RsaKeyValueSecurityToken, 0, 0, 0, 0, 0, 0, 0, 0, 0, 0, 0, 0, 0, 0,0.0,0.0,0.0,0.3333333333333333,0.0,0.0,0.0,0.0,0.0,0.0,0.0,0.0,0.0,35,src\main\java\org\apache\xml\security\stax\impl\securityToken\RsaKeyValueSecurityToken.java,0,0,0,0
org.apache.xml.security.stax.impl.securityToken.SecurityTokenFactoryImpl, 0, 0, 0, 0, 0, 0, 0, 0, 0, 0, 0, 0, 0, 0,0.0,0.0,0.0,0.13333333333333333,0.0,0.0,0.0,0.06666666666666667,0.0,0.0,0.0,0.0,0.0,193,src\main\java\org\apache\xml\security\stax\impl\securityToken\SecurityTokenFactoryImpl.java,0,0,0,0
org.apache.xml.security.stax.impl.securityToken.X509IssuerSerialSecurityToken, 0, 0, 0, 0, 0, 0, 0, 0, 0, 0, 0, 0, 0, 0,0.0,0.0,0.0,0.25,0.0,0.0,0.0,0.25,0.0,0.0,0.0,0.0,0.0,20,src\main\java\org\apache\xml\security\stax\impl\securityToken\X509IssuerSerialSecurityToken.java,0,0,0,0
org.apache.xml.security.stax.impl.securityToken.X509SKISecurityToken, 0, 0, 0, 0, 0, 0, 0, 0, 0, 0, 0, 0, 0, 0,0.0,0.0,0.0,0.0,0.0,0.0,0.0,0.5,0.0,0.0,0.0,0.0,0.0,13,src\main\java\org\apache\xml\security\stax\impl\securityToken\X509SKISecurityToken.java,0,0,0,0
org.apache.xml.security.stax.impl.securityToken.X509SecurityToken, 0, 0, 0, 0, 0, 0, 0, 1, 0, 0, 0, 0, 0, 1,0.0,0.0,0.0,0.2,0.0,0.0,0.0,0.0,0.0,0.0,0.0,0.0,0.0,17,src\main\java\org\apache\xml\security\stax\impl\securityToken\X509SecurityToken.java,0,0,0,0
org.apache.xml.security.stax.impl.securityToken.X509SubjectNameSecurityToken, 0, 0, 0, 0, 0, 0, 0, 0, 0, 0, 0, 0, 0, 0,0.0,0.0,0.0,0.25,0.0,0.0,0.0,0.25,0.0,0.0,0.0,0.0,0.0,13,src\main\java\org\apache\xml\security\stax\impl\securityToken\X509SubjectNameSecurityToken.java,0,0,0,0
org.apache.xml.security.stax.impl.stax.XMLSecAttributeImpl, 0, 0, 0, 0, 0, 0, 0, 0, 0, 0, 0, 0, 0, 0,0.0,0.0,0.0,0.0,0.0,0.0,0.0,0.0,0.0,0.0,0.0,0.0,0.0,64,src\main\java\org\apache\xml\security\stax\impl\stax\XMLSecAttributeImpl.java,0,41,0,41
org.apache.xml.security.stax.impl.stax.XMLSecCharactersImpl, 0, 0, 0, 0, 0, 0, 0, 1, 0, 0, 0, 0, 0, 1,0.0,0.0,0.0,0.0,0.0,0.0,0.0,0.0,0.0,0.0,0.0,0.0,0.0,62,src\main\java\org\apache\xml\security\stax\impl\stax\XMLSecCharactersImpl.java,0,44,0,44
org.apache.xml.security.stax.impl.stax.XMLSecCommentImpl, 0, 0, 0, 0, 0, 0, 0, 0, 0, 0, 0, 0, 0, 0,0.0,0.0,0.0,0.0,0.0,0.0,0.0,0.0,0.0,0.0,0.0,0.0,0.0,15,src\main\java\org\apache\xml\security\stax\impl\stax\XMLSecCommentImpl.java,0,13,0,13
org.apache.xml.security.stax.impl.stax.XMLSecDTDImpl, 0, 0, 0, 0, 0, 0, 0, 0, 0, 0, 0, 0, 0, 0,0.0,0.0,0.0,0.0,0.0,0.0,0.0,0.0,0.0,0.0,0.0,0.0,0.0,27,src\main\java\org\apache\xml\security\stax\impl\stax\XMLSecDTDImpl.java,0,11,0,11
org.apache.xml.security.stax.impl.stax.XMLSecEndDocumentImpl, 0, 0, 0, 0, 0, 0, 0, 0, 0, 0, 0, 0, 0, 0,0.0,0.0,0.0,0.0,0.0,0.0,0.0,0.0,0.0,0.0,0.0,0.0,0.0,14,src\main\java\org\apache\xml\security\stax\impl\stax\XMLSecEndDocumentImpl.java,0,5,0,5
org.apache.xml.security.stax.impl.stax.XMLSecEndElementImpl, 0, 0, 0, 0, 0, 0, 0, 0, 0, 0, 0, 0, 0, 0,0.0,0.0,0.0,0.0,0.0,0.0,0.0,0.0,0.0,0.0,0.0,0.0,0.0,27,src\main\java\org\apache\xml\security\stax\impl\stax\XMLSecEndElementImpl.java,0,18,0,18
org.apache.xml.security.stax.impl.stax.XMLSecEntityDeclarationImpl, 0, 0, 0, 0, 0, 0, 0, 0, 0, 0, 0, 0, 0, 0,0.0,0.0,0.0,0.0,0.0,0.0,0.0,0.0,0.0,0.0,0.0,0.0,0.0,38,src\main\java\org\apache\xml\security\stax\impl\stax\XMLSecEntityDeclarationImpl.java,0,18,0,18
org.apache.xml.security.stax.impl.stax.XMLSecEntityReferenceImpl, 0, 0, 0, 0, 0, 0, 0, 0, 0, 0, 0, 0, 0, 0,0.0,0.0,0.0,0.0,0.0,0.0,0.0,0.0,0.0,0.0,0.0,0.0,0.0,25,src\main\java\org\apache\xml\security\stax\impl\stax\XMLSecEntityReferenceImpl.java,0,13,0,13
org.apache.xml.security.stax.impl.stax.XMLSecProcessingInstructionImpl, 0, 0, 0, 0, 0, 0, 0, 0, 0, 0, 0, 0, 0, 0,0.0,0.0,0.0,0.0,0.0,0.0,0.0,0.0,0.0,0.0,0.0,0.0,0.0,25,src\main\java\org\apache\xml\security\stax\impl\stax\XMLSecProcessingInstructionImpl.java,0,18,0,18
org.apache.xml.security.stax.impl.stax.XMLSecStartDocumentImpl, 0, 0, 0, 0, 0, 0, 0, 0, 0, 0, 0, 0, 0, 0,0.0,0.0,0.0,0.0,0.0,0.0,0.0,0.0,0.0,0.0,0.0,0.0,0.0,48,src\main\java\org\apache\xml\security\stax\impl\stax\XMLSecStartDocumentImpl.java,0,30,0,30
org.apache.xml.security.stax.impl.stax.XMLSecStartElementImpl, 0, 0, 0, 1, 0, 0, 0, 0, 0, 0, 0, 0, 0, 1,0.0,0.0,0.0,0.0,0.0,0.0,0.0,0.0,0.0,0.0,0.0,0.0,0.0,186,src\main\java\org\apache\xml\security\stax\impl\stax\XMLSecStartElementImpl.java,0,41,0,41
org.apache.xml.security.stax.impl.transformer.TransformBase64Decode, 0, 0, 0, 0, 0, 0, 0, 0, 0, 0, 0, 0, 0, 0,0.0,0.0,0.0,0.0,0.0,0.0,0.0,0.0,0.0,0.0,0.0,0.0,0.0,143,src\main\java\org\apache\xml\security\stax\impl\transformer\TransformBase64Decode.java,0,0,0,0
org.apache.xml.security.stax.impl.transformer.TransformEnvelopedSignature, 0, 0, 0, 0, 0, 0, 0, 0, 0, 0, 0, 0, 0, 0,0.0,0.0,0.0,0.0,0.0,0.0,0.0,0.0,0.0,0.0,0.0,0.0,0.0,42,src\main\java\org\apache\xml\security\stax\impl\transformer\TransformEnvelopedSignature.java,0,0,0,0
org.apache.xml.security.stax.impl.transformer.canonicalizer.Canonicalizer11, 0, 0, 0, 0, 0, 0, 0, 0, 0, 0, 0, 0, 0, 0,0.0,0.0,0.0,0.0,0.0,0.0,0.0,0.0,0.0,0.0,0.0,0.0,0.0,44,src\main\java\org\apache\xml\security\stax\impl\transformer\canonicalizer\Canonicalizer11.java,0,0,0,0
org.apache.xml.security.stax.impl.transformer.canonicalizer.Canonicalizer11_OmitCommentsTransformer, 0, 0, 0, 0, 0, 0, 0, 0, 0, 0, 0, 0, 0, 0,0.0,0.0,0.0,0.0,0.0,0.0,0.0,0.0,0.0,0.0,0.0,0.0,0.0,5,src\main\java\org\apache\xml\security\stax\impl\transformer\canonicalizer\Canonicalizer11_OmitCommentsTransformer.java,0,0,0,0
org.apache.xml.security.stax.impl.transformer.canonicalizer.Canonicalizer11_WithCommentsTransformer, 0, 0, 0, 0, 0, 0, 0, 0, 0, 0, 0, 0, 0, 0,0.0,0.0,0.0,0.0,0.0,0.0,0.0,0.0,0.0,0.0,0.0,0.0,0.0,5,src\main\java\org\apache\xml\security\stax\impl\transformer\canonicalizer\Canonicalizer11_WithCommentsTransformer.java,0,0,0,0
org.apache.xml.security.stax.impl.transformer.canonicalizer.Canonicalizer20010315, 0, 0, 0, 0, 0, 0, 0, 0, 0, 0, 0, 0, 0, 0,0.0,0.0,0.0,0.0,0.0,0.0,0.0,0.0,0.0,0.0,0.0,0.0,0.0,5,src\main\java\org\apache\xml\security\stax\impl\transformer\canonicalizer\Canonicalizer20010315.java,0,0,0,0
org.apache.xml.security.stax.impl.transformer.canonicalizer.Canonicalizer20010315_ExclOmitCommentsTransformer, 0, 0, 0, 0, 0, 0, 0, 0, 0, 0, 0, 0, 0, 0,0.0,0.0,0.0,0.0,0.0,0.0,0.0,0.0,0.0,0.0,0.0,0.0,0.0,5,src\main\java\org\apache\xml\security\stax\impl\transformer\canonicalizer\Canonicalizer20010315_ExclOmitCommentsTransformer.java,0,0,0,0
org.apache.xml.security.stax.impl.transformer.canonicalizer.Canonicalizer20010315_ExclWithCommentsTransformer, 0, 0, 0, 0, 0, 0, 0, 0, 0, 0, 0, 0, 0, 0,0.0,0.0,0.0,0.0,0.0,0.0,0.0,0.0,0.0,0.0,0.0,0.0,0.0,5,src\main\java\org\apache\xml\security\stax\impl\transformer\canonicalizer\Canonicalizer20010315_ExclWithCommentsTransformer.java,0,0,0,0
org.apache.xml.security.stax.impl.transformer.canonicalizer.Canonicalizer20010315_OmitCommentsTransformer, 0, 0, 0, 0, 0, 0, 0, 0, 0, 0, 0, 0, 0, 0,0.0,0.0,0.0,0.0,0.0,0.0,0.0,0.0,0.0,0.0,0.0,0.0,0.0,5,src\main\java\org\apache\xml\security\stax\impl\transformer\canonicalizer\Canonicalizer20010315_OmitCommentsTransformer.java,0,0,0,0
org.apache.xml.security.stax.impl.transformer.canonicalizer.Canonicalizer20010315_WithCommentsTransformer, 0, 0, 0, 0, 0, 0, 0, 0, 0, 0, 0, 0, 0, 0,0.0,0.0,0.0,0.0,0.0,0.0,0.0,0.0,0.0,0.0,0.0,0.0,0.0,5,src\main\java\org\apache\xml\security\stax\impl\transformer\canonicalizer\Canonicalizer20010315_WithCommentsTransformer.java,0,0,0,0
org.apache.xml.security.stax.impl.util.ConcreteLSInput, 0, 0, 0, 1, 0, 0, 0, 0, 0, 0, 0, 0, 0, 1,0.0,0.0,0.0,0.0,0.0,0.0,0.0,0.0,0.0,0.0,0.0,0.0,0.0,73,src\main\java\org\apache\xml\security\stax\impl\util\ConcreteLSInput.java,0,0,0,0
org.apache.xml.security.stax.impl.util.FullyBufferedOutputStream, 0, 0, 0, 0, 0, 0, 0, 0, 0, 0, 0, 0, 0, 0,0.0,0.0,0.0,0.0,0.0,0.0,0.0,0.0,0.0,0.0,0.0,0.0,0.0,26,src\main\java\org\apache\xml\security\stax\impl\util\FullyBufferedOutputStream.java,0,0,0,0
org.apache.xml.security.stax.impl.util.IDGenerator, 0, 0, 0, 0, 0, 0, 0, 0, 0, 0, 0, 0, 0, 0,0.0,0.0,0.0,0.0,0.0,0.0,0.0,0.0,0.0,0.0,0.0,0.0,0.0,10,src\main\java\org\apache\xml\security\stax\impl\util\IDGenerator.java,0,0,0,0
org.apache.xml.security.stax.impl.util.IVSplittingOutputStream, 0, 0, 0, 0, 0, 0, 0, 0, 0, 0, 0, 0, 0, 0,0.0,0.0,0.0,0.0,0.0,0.0,0.0,0.0,0.0,0.0,0.0,0.0,0.0,62,src\main\java\org\apache\xml\security\stax\impl\util\IVSplittingOutputStream.java,0,0,0,0
org.apache.xml.security.stax.impl.util.KeyValue, 0, 0, 0, 0, 0, 0, 0, 0, 0, 0, 0, 0, 0, 0,0.0,0.0,0.0,0.0,0.0,0.0,0.0,0.0,0.0,0.0,0.0,0.0,0.0,14,src\main\java\org\apache\xml\security\stax\impl\util\KeyValue.java,0,0,0,0
org.apache.xml.security.stax.impl.util.LimitingInputStream, 0, 0, 0, 0, 0, 0, 0, 0, 0, 0, 0, 0, 0, 0,0.0,0.0,0.0,0.0,0.0,0.0,0.0,0.0,0.0,0.0,0.0,0.0,0.0,34,src\main\java\org\apache\xml\security\stax\impl\util\LimitingInputStream.java,0,0,0,0
org.apache.xml.security.stax.impl.util.MultiInputStream, 0, 0, 0, 0, 0, 0, 0, 0, 0, 0, 0, 0, 0, 0,0.0,0.0,0.0,0.0,0.0,0.0,0.0,0.0,0.0,0.0,0.0,0.0,0.0,55,src\main\java\org\apache\xml\security\stax\impl\util\MultiInputStream.java,0,0,0,0
org.apache.xml.security.stax.impl.util.ReplaceableOuputStream, 0, 0, 0, 0, 0, 0, 0, 0, 0, 0, 0, 0, 0, 0,0.0,0.0,0.0,0.0,0.0,0.0,0.0,0.0,0.0,0.0,0.0,0.0,0.0,20,src\main\java\org\apache\xml\security\stax\impl\util\ReplaceableOuputStream.java,0,0,0,0
org.apache.xml.security.stax.impl.util.TrimmerOutputStream, 0, 0, 0, 0, 0, 0, 0, 0, 0, 0, 0, 0, 0, 0,0.0,0.0,0.0,0.0,0.0,0.0,0.0,0.0,0.0,0.0,0.0,0.0,0.0,68,src\main\java\org\apache\xml\security\stax\impl\util\TrimmerOutputStream.java,0,0,0,0
org.apache.xml.security.stax.impl.util.UnsynchronizedBufferedOutputStream, 0, 0, 0, 0, 0, 0, 0, 0, 0, 0, 0, 0, 0, 0,0.0,0.0,0.0,0.0,0.0,0.0,0.0,0.0,0.0,0.0,0.0,0.0,0.0,47,src\main\java\org\apache\xml\security\stax\impl\util\UnsynchronizedBufferedOutputStream.java,0,0,0,0
org.apache.xml.security.stax.impl.util.UnsynchronizedByteArrayInputStream, 0, 0, 0, 0, 0, 0, 0, 0, 0, 0, 0, 0, 0, 0,0.0,0.0,0.0,0.0,0.0,0.0,0.0,0.0,0.0,0.0,0.0,0.0,0.0,69,src\main\java\org\apache\xml\security\stax\impl\util\UnsynchronizedByteArrayInputStream.java,0,0,0,0
org.apache.xml.security.stax.impl.util.UnsynchronizedByteArrayOutputStream, 0, 0, 0, 0, 0, 0, 0, 0, 0, 0, 0, 0, 0, 0,0.0,0.0,0.0,0.0,0.0,0.0,0.0,0.0,0.0,0.0,0.0,0.0,0.0,64,src\main\java\org\apache\xml\security\stax\impl\util\UnsynchronizedByteArrayOutputStream.java,0,0,0,0
org.apache.xml.security.stax.securityEvent.AbstractElementSecurityEvent, 0, 0, 0, 0, 0, 0, 0, 0, 0, 0, 0, 0, 0, 0,0.0,0.0,0.0,0.0,0.0,0.0,0.0,0.5,0.0,0.0,0.0,0.0,0.0,19,src\main\java\org\apache\xml\security\stax\securityEvent\AbstractElementSecurityEvent.java,0,0,0,0
org.apache.xml.security.stax.securityEvent.AbstractSecuredElementSecurityEvent, 0, 0, 0, 0, 0, 0, 0, 1, 0, 0, 0, 0, 0, 1,0.0,0.0,0.0,0.0,0.0,0.0,0.0,0.2,0.0,0.0,0.0,0.0,0.0,51,src\main\java\org\apache\xml\security\stax\securityEvent\AbstractSecuredElementSecurityEvent.java,0,0,0,0
org.apache.xml.security.stax.securityEvent.AlgorithmSuiteSecurityEvent, 0, 0, 0, 0, 0, 0, 0, 0, 0, 0, 0, 0, 0, 0,0.0,0.0,0.0,0.3333333333333333,0.0,0.0,0.0,0.0,0.0,0.0,0.0,0.0,0.0,33,src\main\java\org\apache\xml\security\stax\securityEvent\AlgorithmSuiteSecurityEvent.java,0,0,0,0
org.apache.xml.security.stax.securityEvent.ContentEncryptedElementSecurityEvent, 0, 0, 0, 0, 0, 0, 0, 0, 0, 0, 0, 0, 0, 0,0.0,0.0,0.0,0.0,0.0,0.0,0.0,1.0,0.0,0.0,0.0,0.0,0.0,7,src\main\java\org\apache\xml\security\stax\securityEvent\ContentEncryptedElementSecurityEvent.java,0,0,0,0
org.apache.xml.security.stax.securityEvent.DefaultTokenSecurityEvent, 0, 0, 0, 0, 0, 0, 0, 0, 0, 0, 0, 0, 0, 0,0.0,0.0,0.0,0.0,0.0,0.0,0.0,0.0,0.0,0.0,0.0,0.0,0.0,5,src\main\java\org\apache\xml\security\stax\securityEvent\DefaultTokenSecurityEvent.java,0,0,0,0
org.apache.xml.security.stax.securityEvent.EncryptedElementSecurityEvent, 0, 0, 0, 0, 0, 0, 0, 0, 0, 0, 0, 0, 0, 0,0.0,0.0,0.0,0.0,0.0,0.0,0.0,1.0,0.0,0.0,0.0,0.0,0.0,7,src\main\java\org\apache\xml\security\stax\securityEvent\EncryptedElementSecurityEvent.java,0,0,0,0
org.apache.xml.security.stax.securityEvent.EncryptedKeyTokenSecurityEvent, 0, 0, 0, 0, 0, 0, 0, 0, 0, 0, 0, 0, 0, 0,0.0,0.0,0.0,0.0,0.0,0.0,0.0,0.0,0.0,0.0,0.0,0.0,0.0,5,src\main\java\org\apache\xml\security\stax\securityEvent\EncryptedKeyTokenSecurityEvent.java,0,0,0,0
org.apache.xml.security.stax.securityEvent.KeyNameTokenSecurityEvent, 0, 0, 0, 0, 0, 0, 0, 0, 0, 0, 0, 0, 0, 0,0.0,0.0,0.0,0.0,0.0,0.0,0.0,0.0,0.0,0.0,0.0,0.0,0.0,5,src\main\java\org\apache\xml\security\stax\securityEvent\KeyNameTokenSecurityEvent.java,0,0,0,0
org.apache.xml.security.stax.securityEvent.KeyValueTokenSecurityEvent, 0, 0, 0, 0, 0, 0, 0, 0, 0, 0, 0, 0, 0, 0,0.0,0.0,0.0,0.0,0.0,0.0,0.0,0.0,0.0,0.0,0.0,0.0,0.0,20,src\main\java\org\apache\xml\security\stax\securityEvent\KeyValueTokenSecurityEvent.java,0,0,0,0
org.apache.xml.security.stax.securityEvent.SecurityEvent, 0, 0, 0, 0, 0, 0, 0, 0, 0, 0, 0, 0, 0, 0,0.0,0.0,0.0,0.1111111111111111,0.0,0.0,0.0,0.1111111111111111,0.0,0.0,0.0,0.0,0.0,16,src\main\java\org\apache\xml\security\stax\securityEvent\SecurityEvent.java,0,0,0,0
org.apache.xml.security.stax.securityEvent.SecurityEventConstants, 0, 0, 0, 0, 0, 0, 0, 0, 0, 0, 0, 0, 0, 0,0.0,0.0,0.0,0.0,0.0,0.0,0.0,0.0,0.0,0.0,0.0,0.0,0.0,17,src\main\java\org\apache\xml\security\stax\securityEvent\SecurityEventConstants.java,0,0,0,0
org.apache.xml.security.stax.securityEvent.SecurityEventListener, 0, 0, 0, 0, 0, 0, 0, 0, 0, 0, 0, 0, 0, 0,0.0,0.0,0.0,0.0,0.0,0.0,0.0,0.0,0.0,0.0,0.0,0.0,0.0,17,src\main\java\org\apache\xml\security\stax\securityEvent\SecurityEventListener.java,0,0,0,0
org.apache.xml.security.stax.securityEvent.SignatureValueSecurityEvent, 0, 0, 0, 0, 0, 0, 0, 0, 0, 0, 0, 0, 0, 0,0.0,0.0,0.0,0.0,0.0,0.0,0.0,0.0,0.0,0.0,0.0,0.0,0.0,12,src\main\java\org\apache\xml\security\stax\securityEvent\SignatureValueSecurityEvent.java,0,0,0,0
org.apache.xml.security.stax.securityEvent.SignedElementSecurityEvent, 0, 0, 0, 0, 0, 0, 0, 0, 0, 0, 0, 0, 0, 0,0.0,0.0,0.0,0.0,0.0,0.0,0.0,0.5,0.0,0.0,0.0,0.0,0.0,7,src\main\java\org\apache\xml\security\stax\securityEvent\SignedElementSecurityEvent.java,0,0,0,0
org.apache.xml.security.stax.securityEvent.TokenSecurityEvent, 0, 0, 0, 0, 0, 0, 0, 0, 0, 0, 0, 0, 0, 0,0.0,0.0,0.0,0.125,0.0,0.0,0.0,0.0,0.0,0.0,0.0,0.0,0.0,12,src\main\java\org\apache\xml\security\stax\securityEvent\TokenSecurityEvent.java,0,0,0,0
org.apache.xml.security.stax.securityEvent.X509TokenSecurityEvent, 0, 0, 0, 0, 0, 0, 0, 0, 0, 0, 0, 0, 0, 0,0.0,0.0,0.0,0.0,0.0,0.0,0.0,0.0,0.0,0.0,0.0,0.0,0.0,5,src\main\java\org\apache\xml\security\stax\securityEvent\X509TokenSecurityEvent.java,0,0,0,0
org.apache.xml.security.stax.securityToken.InboundSecurityToken, 0, 0, 0, 0, 0, 0, 0, 0, 0, 0, 0, 0, 0, 0,0.0,0.0,0.0,0.0,0.0,0.0,0.0,0.0,0.0,0.0,0.0,0.0,0.0,5,src\main\java\org\apache\xml\security\stax\securityToken\InboundSecurityToken.java,0,0,0,0
org.apache.xml.security.stax.securityToken.OutboundSecurityToken, 0, 0, 0, 0, 0, 0, 0, 0, 0, 0, 0, 0, 0, 0,0.0,0.0,0.0,0.0,0.0,0.0,0.0,0.0,0.0,0.0,0.0,0.0,0.0,5,src\main\java\org\apache\xml\security\stax\securityToken\OutboundSecurityToken.java,0,0,0,0
org.apache.xml.security.stax.securityToken.SecurityTokenConstants, 0, 0, 0, 1, 0, 0, 0, 0, 0, 0, 0, 0, 0, 1,0.0,0.0,0.0,0.0,0.0,0.0,0.0,0.0,0.0,0.0,0.0,0.0,0.0,43,src\main\java\org\apache\xml\security\stax\securityToken\SecurityTokenConstants.java,0,0,0,0
org.apache.xml.security.stax.securityToken.SecurityTokenFactory, 0, 0, 0, 0, 0, 0, 0, 0, 0, 0, 0, 0, 0, 0,0.0,0.0,0.0,0.25,0.0,0.0,0.0,0.0,0.0,0.0,0.0,0.0,0.0,32,src\main\java\org\apache\xml\security\stax\securityToken\SecurityTokenFactory.java,0,0,0,0
org.apache.xml.security.stax.securityToken.SecurityTokenProvider, 0, 0, 0, 0, 0, 0, 0, 0, 0, 0, 0, 0, 0, 0,0.0,0.0,0.0,0.0,0.0,0.0,0.0,0.0,0.0,0.0,0.0,0.0,0.0,32,src\main\java\org\apache\xml\security\stax\securityToken\SecurityTokenProvider.java,0,0,0,0
org.apache.xml.security.test.dom.CreateExclC14nInteropValues, 0, 0, 0, 0, 0, 0, 0, 0, 0, 0, 0, 0, 0, 0,0.0,0.0,0.0,0.5,0.0,0.0,0.0,0.125,0.0,0.0,0.0,0.0,0.0,309,src\test\java\org\apache\xml\security\test\dom\CreateExclC14nInteropValues.java,0,0,0,0
org.apache.xml.security.test.dom.TestUtils, 0, 0, 0, 0, 0, 0, 0, 0, 0, 0, 0, 0, 0, 0,0.0,0.0,0.0,0.0,0.0,0.0,0.0,0.0,0.0,0.0,0.0,0.0,0.0,10,src\test\java\org\apache\xml\security\test\dom\TestUtils.java,0,0,0,0
org.apache.xml.security.test.dom.algorithms.SignatureAlgorithmTest, 1, 0, 0, 0, 0, 0, 0, 0, 0, 0, 0, 0, 0, 1,0.0,0.0,0.0,0.0,0.0,0.0,0.0,0.0,0.0,0.0,0.0,0.0,0.0,30,src\test\java\org\apache\xml\security\test\dom\algorithms\SignatureAlgorithmTest.java,0,0,0,0
org.apache.xml.security.test.dom.c14n.helper.AttrCompareTest, 0, 0, 0, 0, 0, 0, 0, 0, 0, 0, 0, 0, 0, 0,0.0,0.0,0.0,0.0,0.0,0.0,0.0,0.0,0.0,0.0,0.0,0.0,0.0,102,src\test\java\org\apache\xml\security\test\dom\c14n\helper\AttrCompareTest.java,0,0,0,0
org.apache.xml.security.test.dom.c14n.helper.C14nHelperTest, 1, 0, 0, 0, 0, 0, 0, 0, 0, 0, 0, 0, 0, 1,0.0,0.0,0.0,0.0,0.0,0.0,0.0,0.0,0.0,0.0,0.0,0.0,0.0,44,src\test\java\org\apache\xml\security\test\dom\c14n\helper\C14nHelperTest.java,0,0,0,0
org.apache.xml.security.test.dom.c14n.implementations.Bug45961Test, 0, 0, 0, 0, 0, 0, 0, 0, 0, 0, 0, 0, 0, 0,0.0,0.0,0.0,0.5,0.0,0.0,0.0,0.16666666666666666,0.0,0.0,0.0,0.0,0.0,72,src\test\java\org\apache\xml\security\test\dom\c14n\implementations\Bug45961Test.java,0,0,0,0
org.apache.xml.security.test.dom.c14n.implementations.Canonicalizer20010315ExclusiveTest, 1, 0, 0, 1, 0, 0, 0, 0, 0, 0, 0, 0, 0, 2,0.0,0.0,0.0,0.375,0.0,0.0,0.0,0.125,0.0,0.0,0.0,0.0,0.0,545,src\test\java\org\apache\xml\security\test\dom\c14n\implementations\Canonicalizer20010315ExclusiveTest.java,0,0,0,0
org.apache.xml.security.test.dom.c14n.implementations.MockCanonicalizationMethod, 0, 0, 0, 0, 0, 0, 0, 0, 0, 0, 0, 0, 0, 0,0.0,0.0,0.0,0.0,0.0,0.0,0.0,0.0,0.0,0.0,0.0,0.0,0.0,36,src\test\java\org\apache\xml\security\test\dom\c14n\implementations\MockCanonicalizationMethod.java,0,0,0,0
org.apache.xml.security.test.dom.c14n.implementations.NameSpaceSymbTableTest, 1, 0, 0, 0, 0, 0, 0, 0, 0, 0, 0, 0, 0, 1,0.0,1.0,0.0,1.0,0.0,0.0,0.0,0.0,0.0,0.0,0.0,0.0,0.0,160,src\test\java\org\apache\xml\security\test\dom\c14n\implementations\NameSpaceSymbTableTest.java,0,0,0,0
org.apache.xml.security.test.dom.c14n.implementations.Santuario191Test, 0, 0, 0, 0, 0, 0, 0, 0, 0, 0, 0, 0, 0, 0,0.0,0.0,0.0,0.0,0.0,0.0,0.0,0.0,0.0,0.0,0.0,0.0,0.0,30,src\test\java\org\apache\xml\security\test\dom\c14n\implementations\Santuario191Test.java,0,0,0,0
org.apache.xml.security.test.dom.c14n.implementations.Santuario273Test, 1, 0, 1, 0, 0, 0, 0, 0, 0, 0, 0, 0, 0, 2,0.0,0.0,0.0,0.0,0.0,0.0,0.0,0.0,0.0,0.0,0.0,0.0,0.0,51,src\test\java\org\apache\xml\security\test\dom\c14n\implementations\Santuario273Test.java,0,0,0,0
org.apache.xml.security.test.dom.encryption.BobKeyResolver, 0, 0, 0, 0, 0, 0, 0, 0, 0, 0, 0, 0, 0, 0,0.0,0.0,0.0,0.0,0.0,0.0,0.0,0.0,0.0,0.0,0.0,0.0,0.0,50,src\test\java\org\apache\xml\security\test\dom\encryption\BobKeyResolver.java,0,0,0,0
org.apache.xml.security.test.dom.encryption.EncryptContentTest, 1, 0, 0, 0, 0, 0, 0, 0, 0, 0, 0, 0, 0, 1,0.0,0.0,0.0,0.5,0.0,0.0,0.0,0.0,0.0,0.0,0.0,0.0,0.0,101,src\test\java\org\apache\xml\security\test\dom\encryption\EncryptContentTest.java,0,0,0,0
org.apache.xml.security.test.dom.encryption.ReferenceListTest, 1, 0, 0, 0, 0, 0, 0, 0, 0, 0, 0, 0, 0, 1,0.0,0.0,0.0,0.0,0.0,0.0,0.0,0.0,0.0,0.0,0.0,0.0,0.0,67,src\test\java\org\apache\xml\security\test\dom\encryption\ReferenceListTest.java,0,0,0,0
org.apache.xml.security.test.dom.encryption.XMLCipherTest, 0, 0, 0, 1, 0, 0, 0, 0, 0, 0, 0, 0, 0, 1,0.0,0.0,0.0,0.6666666666666666,0.0,0.0,0.0,0.0,0.0,0.0,0.0,0.0,0.0,620,src\test\java\org\apache\xml\security\test\dom\encryption\XMLCipherTest.java,0,0,0,0
org.apache.xml.security.test.dom.interop.BaltimoreTest, 1, 0, 0, 1, 0, 0, 0, 0, 0, 0, 0, 0, 0, 2,0.3333333333333333,0.0,0.0,0.0,0.0,0.0,0.0,0.0,0.0,0.0,0.0,0.0,0.0,338,src\test\java\org\apache\xml\security\test\dom\interop\BaltimoreTest.java,0,0,0,0
org.apache.xml.security.test.dom.interop.IAIKTest, 1, 0, 0, 0, 0, 0, 0, 0, 0, 0, 0, 0, 0, 1,0.25,0.0,0.0,0.0,0.0,0.0,0.0,0.0,0.0,0.0,0.0,0.0,0.0,237,src\test\java\org\apache\xml\security\test\dom\interop\IAIKTest.java,0,0,0,0
org.apache.xml.security.test.dom.interop.IBMTest, 1, 0, 0, 0, 0, 0, 0, 0, 0, 0, 0, 0, 0, 1,0.5,0.0,0.0,0.0,0.0,0.0,0.0,0.0,0.0,0.0,0.0,0.0,0.0,188,src\test\java\org\apache\xml\security\test\dom\interop\IBMTest.java,0,0,0,0
org.apache.xml.security.test.dom.interop.InteropTestBase, 1, 0, 0, 0, 0, 0, 0, 0, 0, 0, 0, 0, 0, 1,0.7272727272727273,0.0,0.0,0.2727272727272727,0.0,0.0,0.0,0.09090909090909091,0.0,0.0,0.0,0.0,0.0,99,src\test\java\org\apache\xml\security\test\dom\interop\InteropTestBase.java,0,0,0,0
org.apache.xml.security.test.dom.interop.RSASecurityTest, 1, 0, 0, 0, 0, 0, 0, 0, 0, 0, 0, 0, 0, 1,1.0,0.0,0.0,0.0,0.0,0.0,0.0,0.0,0.0,0.0,0.0,0.0,0.0,38,src\test\java\org\apache\xml\security\test\dom\interop\RSASecurityTest.java,0,0,0,0
org.apache.xml.security.test.dom.keys.KeyInfoReferenceTest, 0, 0, 0, 0, 0, 0, 0, 0, 0, 0, 0, 0, 0, 0,0.0,0.0,0.0,0.0,0.0,0.0,0.0,0.0,0.0,0.0,0.0,0.0,0.0,52,src\test\java\org\apache\xml\security\test\dom\keys\KeyInfoReferenceTest.java,0,0,0,0
org.apache.xml.security.test.dom.keys.content.x509.XMLX509CertificateTest, 0, 0, 0, 0, 0, 0, 0, 0, 0, 0, 0, 0, 0, 0,0.0,0.0,0.0,0.0,0.0,0.0,0.0,0.0,0.0,0.0,0.0,0.0,0.0,18,src\test\java\org\apache\xml\security\test\dom\keys\content\x509\XMLX509CertificateTest.java,0,0,0,0
org.apache.xml.security.test.dom.keys.content.x509.XMLX509DigestTest, 0, 0, 0, 0, 0, 0, 0, 0, 0, 0, 0, 0, 0, 0,0.0,0.0,0.0,0.0,0.0,0.0,0.0,0.0,0.0,0.0,0.0,0.0,0.0,63,src\test\java\org\apache\xml\security\test\dom\keys\content\x509\XMLX509DigestTest.java,0,0,0,0
org.apache.xml.security.test.dom.keys.content.x509.XMLX509IssuerSerialTest, 0, 0, 0, 0, 0, 0, 0, 0, 0, 0, 0, 0, 0, 0,0.0,0.0,0.0,0.0,0.0,0.0,0.0,0.0,0.0,0.0,0.0,0.0,0.0,16,src\test\java\org\apache\xml\security\test\dom\keys\content\x509\XMLX509IssuerSerialTest.java,0,0,0,0
org.apache.xml.security.test.dom.keys.content.x509.XMLX509SKITest, 0, 0, 0, 0, 0, 0, 0, 0, 0, 0, 0, 0, 0, 0,0.0,0.0,0.0,0.0,0.0,0.0,0.0,0.0,0.0,0.0,0.0,0.0,0.0,33,src\test\java\org\apache\xml\security\test\dom\keys\content\x509\XMLX509SKITest.java,0,0,0,0
org.apache.xml.security.test.dom.keys.keyresolver.KeyInfoReferenceResolverTest, 0, 0, 0, 0, 0, 0, 0, 0, 0, 0, 0, 0, 0, 0,0.0,0.0,0.0,0.3333333333333333,0.0,0.0,0.0,0.0,0.0,0.0,0.0,0.0,0.0,93,src\test\java\org\apache\xml\security\test\dom\keys\keyresolver\KeyInfoReferenceResolverTest.java,0,0,0,0
org.apache.xml.security.test.dom.keys.keyresolver.KeyResolverTest, 0, 0, 0, 0, 0, 0, 0, 0, 0, 0, 0, 0, 0, 0,0.0,0.0,0.0,0.25,0.0,0.0,0.0,0.0,0.0,0.0,0.0,0.0,0.0,191,src\test\java\org\apache\xml\security\test\dom\keys\keyresolver\KeyResolverTest.java,0,0,0,0
org.apache.xml.security.test.dom.keys.keyresolver.X509DigestResolverTest, 0, 0, 0, 0, 0, 0, 0, 0, 0, 0, 0, 0, 0, 0,0.0,0.0,0.0,0.5,0.0,0.0,0.0,0.0,0.0,0.0,0.0,0.0,0.0,40,src\test\java\org\apache\xml\security\test\dom\keys\keyresolver\X509DigestResolverTest.java,0,0,0,0
org.apache.xml.security.test.dom.keys.storage.KeyStoreResolverTest, 0, 0, 0, 0, 0, 0, 0, 0, 0, 0, 0, 0, 0, 0,0.0,0.0,0.0,0.0,0.0,0.0,0.0,0.0,0.0,0.0,0.0,0.0,0.0,44,src\test\java\org\apache\xml\security\test\dom\keys\storage\KeyStoreResolverTest.java,0,0,0,0
org.apache.xml.security.test.dom.keys.storage.StorageResolverTest, 0, 0, 0, 0, 0, 0, 0, 0, 0, 0, 0, 0, 0, 0,0.0,0.0,0.0,0.0,0.0,0.0,0.0,0.0,0.0,0.0,0.0,0.0,0.0,48,src\test\java\org\apache\xml\security\test\dom\keys\storage\StorageResolverTest.java,0,0,0,0
org.apache.xml.security.test.dom.secure_val.ForbiddenAlgorithmTest, 1, 0, 0, 0, 0, 0, 0, 0, 0, 0, 0, 0, 0, 1,0.25,0.0,0.0,0.5,0.0,0.0,0.0,0.25,0.0,0.0,0.0,0.0,0.0,38,src\test\java\org\apache\xml\security\test\dom\secure_val\ForbiddenAlgorithmTest.java,0,0,0,0
org.apache.xml.security.test.dom.secure_val.ForbiddenRefCountTest, 1, 0, 0, 0, 0, 0, 0, 0, 0, 0, 0, 0, 0, 1,0.5,0.0,0.0,0.0,0.0,0.0,0.0,0.0,0.0,0.0,0.0,0.0,0.0,38,src\test\java\org\apache\xml\security\test\dom\secure_val\ForbiddenRefCountTest.java,0,0,0,0
org.apache.xml.security.test.dom.secure_val.ForbiddenReferenceTest, 1, 0, 0, 0, 0, 0, 0, 0, 0, 0, 0, 0, 0, 1,0.5,0.0,0.0,0.0,0.0,0.0,0.0,0.0,0.0,0.0,0.0,0.0,0.0,38,src\test\java\org\apache\xml\security\test\dom\secure_val\ForbiddenReferenceTest.java,0,0,0,0
org.apache.xml.security.test.dom.secure_val.ForbiddenRetrievalMethodTest, 0, 0, 0, 0, 0, 0, 0, 0, 0, 0, 0, 0, 0, 0,0.0,0.0,0.0,0.5,0.0,0.0,0.0,0.0,0.0,0.0,0.0,0.0,0.0,23,src\test\java\org\apache\xml\security\test\dom\secure_val\ForbiddenRetrievalMethodTest.java,0,0,0,0
org.apache.xml.security.test.dom.secure_val.WrappingAttackTest, 1, 0, 0, 0, 0, 0, 0, 0, 0, 0, 0, 0, 0, 1,0.25,0.0,0.0,0.5,0.0,0.0,0.0,0.25,0.0,0.0,0.0,0.0,0.0,63,src\test\java\org\apache\xml\security\test\dom\secure_val\WrappingAttackTest.java,0,0,0,0
org.apache.xml.security.test.dom.signature.CreateSignatureTest, 1, 0, 0, 0, 0, 0, 0, 0, 0, 0, 0, 0, 0, 1,0.0,0.0,0.0,0.5714285714285714,0.0,0.0,0.0,0.14285714285714285,0.0,0.0,0.0,0.0,0.0,235,src\test\java\org\apache\xml\security\test\dom\signature\CreateSignatureTest.java,0,0,0,0
org.apache.xml.security.test.dom.signature.HMACOutputLengthTest, 1, 0, 0, 0, 0, 0, 0, 0, 0, 0, 0, 0, 0, 1,0.0,0.0,0.0,0.25,0.0,0.0,0.0,0.25,0.0,0.0,0.0,0.0,0.0,75,src\test\java\org\apache\xml\security\test\dom\signature\HMACOutputLengthTest.java,0,0,0,0
org.apache.xml.security.test.dom.signature.InvalidKeyTest, 0, 0, 0, 0, 0, 0, 0, 0, 0, 0, 0, 0, 0, 0,0.0,0.0,0.0,1.0,0.0,0.0,0.0,1.0,0.0,0.0,0.0,0.0,0.0,37,src\test\java\org\apache\xml\security\test\dom\signature\InvalidKeyTest.java,0,0,0,0
org.apache.xml.security.test.dom.signature.KeyValueTest, 0, 0, 0, 0, 0, 0, 0, 0, 0, 0, 0, 0, 0, 0,0.0,0.0,0.0,0.6666666666666666,0.0,0.0,0.0,0.3333333333333333,0.0,0.0,0.0,0.0,0.0,30,src\test\java\org\apache\xml\security\test\dom\signature\KeyValueTest.java,0,0,0,0
org.apache.xml.security.test.dom.signature.NoKeyInfoTest, 0, 0, 0, 0, 0, 0, 0, 0, 0, 0, 0, 0, 0, 0,0.0,0.0,0.0,1.0,0.0,0.0,0.0,1.0,0.0,0.0,0.0,0.0,0.0,28,src\test\java\org\apache\xml\security\test\dom\signature\NoKeyInfoTest.java,0,0,0,0
org.apache.xml.security.test.dom.signature.ProcessingInstructionTest, 0, 0, 0, 0, 0, 0, 0, 0, 0, 0, 0, 0, 0, 0,0.0,0.0,0.0,1.0,0.0,0.0,0.0,0.5,0.0,0.0,0.0,0.0,0.0,92,src\test\java\org\apache\xml\security\test\dom\signature\ProcessingInstructionTest.java,0,0,0,0
org.apache.xml.security.test.dom.signature.SignatureReferenceTest, 0, 0, 0, 0, 0, 0, 0, 0, 0, 0, 0, 0, 0, 0,0.0,0.0,0.0,0.6666666666666666,0.0,0.0,0.0,0.3333333333333333,0.0,0.0,0.0,0.0,0.0,83,src\test\java\org\apache\xml\security\test\dom\signature\SignatureReferenceTest.java,0,0,0,0
org.apache.xml.security.test.dom.signature.SignatureTest, 0, 0, 0, 0, 0, 0, 0, 0, 0, 0, 0, 0, 0, 0,0.0,0.0,0.0,0.6666666666666666,0.0,0.0,0.0,0.3333333333333333,0.0,0.0,0.0,0.0,0.0,127,src\test\java\org\apache\xml\security\test\dom\signature\SignatureTest.java,0,0,0,0
org.apache.xml.security.test.dom.signature.UnknownAlgoSignatureTest, 0, 0, 0, 0, 0, 0, 0, 0, 0, 0, 0, 0, 0, 0,0.0,0.0,0.0,0.3333333333333333,0.0,0.0,0.0,0.3333333333333333,0.0,0.0,0.0,0.0,0.0,95,src\test\java\org\apache\xml\security\test\dom\signature\UnknownAlgoSignatureTest.java,0,0,0,0
org.apache.xml.security.test.dom.signature.X509DataTest, 0, 0, 0, 0, 0, 0, 0, 0, 0, 0, 0, 0, 0, 0,0.0,0.0,0.0,0.5,0.0,0.0,0.0,0.16666666666666666,0.0,0.0,0.0,0.0,0.0,64,src\test\java\org\apache\xml\security\test\dom\signature\X509DataTest.java,0,0,0,0
org.apache.xml.security.test.dom.signature.XMLSignatureInputTest, 1, 0, 0, 0, 0, 0, 0, 0, 0, 0, 0, 0, 0, 1,0.0,0.0,0.0,1.0,0.0,0.0,0.0,0.0,0.0,0.0,0.0,0.0,0.0,84,src\test\java\org\apache\xml\security\test\dom\signature\XMLSignatureInputTest.java,0,0,0,0
org.apache.xml.security.test.dom.signature.XmlSecTest, 1, 0, 0, 0, 0, 0, 0, 0, 0, 0, 0, 0, 0, 1,0.0,0.0,0.0,0.5,0.0,0.0,0.0,0.25,0.0,0.0,0.0,0.0,0.0,81,src\test\java\org\apache\xml\security\test\dom\signature\XmlSecTest.java,0,0,0,0
org.apache.xml.security.test.dom.transforms.SampleTransform, 0, 0, 0, 0, 0, 0, 0, 0, 0, 0, 0, 0, 0, 0,0.0,0.0,0.0,0.0,0.0,0.0,0.0,0.0,0.0,0.0,0.0,0.0,0.0,19,src\test\java\org\apache\xml\security\test\dom\transforms\SampleTransform.java,0,0,0,0
org.apache.xml.security.test.dom.transforms.implementations.TransformBase64DecodeTest, 1, 0, 0, 0, 0, 0, 0, 0, 0, 0, 0, 0, 0, 1,0.0,0.0,0.0,1.0,0.0,0.0,0.0,0.0,0.0,0.0,0.0,0.0,0.0,82,src\test\java\org\apache\xml\security\test\dom\transforms\implementations\TransformBase64DecodeTest.java,0,0,0,0
org.apache.xml.security.test.dom.transforms.implementations.TransformXSLTTest, 1, 0, 0, 0, 0, 0, 0, 0, 0, 0, 0, 0, 0, 1,0.0,0.0,0.0,0.0,0.0,0.0,0.0,0.0,0.0,0.0,0.0,0.0,0.0,42,src\test\java\org\apache\xml\security\test\dom\transforms\implementations\TransformXSLTTest.java,0,0,0,0
org.apache.xml.security.test.dom.transforms.implementations.Xpath2TransformationTest, 0, 0, 0, 0, 0, 0, 0, 0, 0, 0, 0, 0, 0, 0,0.0,0.0,0.0,1.0,0.0,0.0,0.0,0.3333333333333333,0.0,0.0,0.0,0.0,0.0,122,src\test\java\org\apache\xml\security\test\dom\transforms\implementations\Xpath2TransformationTest.java,0,0,0,0
org.apache.xml.security.test.dom.utils.Base64Test, 1, 0, 0, 0, 0, 0, 0, 0, 0, 0, 0, 0, 0, 1,0.0,0.0,0.0,0.0,0.0,0.0,0.0,0.0,0.0,0.0,0.0,0.0,0.0,55,src\test\java\org\apache\xml\security\test\dom\utils\Base64Test.java,0,0,0,0
org.apache.xml.security.test.dom.utils.PoolingTest, 0, 0, 0, 0, 0, 0, 0, 0, 0, 0, 0, 0, 0, 0,0.0,0.0,0.0,0.0,0.0,0.0,0.0,0.0,0.0,0.0,0.0,0.0,0.0,92,src\test\java\org\apache\xml\security\test\dom\utils\PoolingTest.java,113,0,0,113
org.apache.xml.security.test.dom.utils.resolver.ResolverDirectHTTPTest, 0, 0, 0, 0, 0, 0, 0, 0, 0, 0, 0, 0, 0, 0,0.0,0.0,0.0,0.0,0.0,0.0,0.0,0.25,0.0,0.0,0.0,0.0,0.0,109,src\test\java\org\apache\xml\security\test\dom\utils\resolver\ResolverDirectHTTPTest.java,0,0,0,0
org.apache.xml.security.test.dom.utils.resolver.ResourceResolverTest, 1, 0, 0, 0, 0, 0, 0, 0, 0, 0, 0, 0, 0, 1,0.0,0.0,0.0,0.0,0.0,0.0,0.0,0.0,0.0,0.0,0.0,0.0,0.0,47,src\test\java\org\apache\xml\security\test\dom\utils\resolver\ResourceResolverTest.java,0,0,0,0
org.apache.xml.security.test.stax.IVSplittingOutputStreamTest, 0, 0, 0, 0, 0, 0, 0, 0, 0, 0, 0, 0, 0, 0,0.0,0.0,0.0,0.0,0.0,0.0,0.0,0.0,0.0,0.0,0.0,0.0,0.0,106,src\test\java\org\apache\xml\security\test\stax\IVSplittingOutputStreamTest.java,0,0,0,0
org.apache.xml.security.test.stax.InputProcessorChainTest, 0, 0, 0, 0, 0, 0, 0, 0, 0, 0, 0, 0, 0, 0,0.0,0.0,0.0,0.5,0.0,0.0,0.0,0.0,0.0,0.0,0.0,0.0,0.0,196,src\test\java\org\apache\xml\security\test\stax\InputProcessorChainTest.java,0,0,0,0
org.apache.xml.security.test.stax.OutputProcessorChainTest, 0, 0, 0, 0, 0, 0, 0, 0, 0, 0, 0, 0, 0, 0,0.0,0.0,0.0,0.5,0.0,0.0,0.0,0.0,0.0,0.0,0.0,0.0,0.0,200,src\test\java\org\apache\xml\security\test\stax\OutputProcessorChainTest.java,0,0,0,0
org.apache.xml.security.test.stax.UncategorizedTest, 0, 0, 0, 0, 0, 0, 0, 0, 0, 0, 0, 0, 0, 0,0.0,0.0,0.0,0.25,0.0,0.0,0.0,0.0,0.0,0.0,0.0,0.0,0.0,30,src\test\java\org\apache\xml\security\test\stax\UncategorizedTest.java,0,0,0,0
org.apache.xml.security.test.stax.XMLSecurityEventReaderTest, 0, 0, 0, 0, 0, 0, 0, 0, 0, 0, 0, 0, 0, 0,0.0,0.0,0.0,0.0,0.0,0.0,0.0,0.0,0.0,0.0,0.0,0.0,0.0,72,src\test\java\org\apache\xml\security\test\stax\XMLSecurityEventReaderTest.java,0,0,0,0
org.apache.xml.security.test.stax.XMLSecurityEventWriterTest, 0, 0, 0, 0, 0, 0, 0, 0, 0, 0, 0, 0, 0, 0,0.0,0.0,0.0,0.25,0.0,0.0,0.0,0.0,0.0,0.0,0.0,0.0,0.0,44,src\test\java\org\apache\xml\security\test\stax\XMLSecurityEventWriterTest.java,0,0,0,0
org.apache.xml.security.test.stax.XMLSecurityStreamWriterTest, 0, 0, 0, 0, 0, 0, 0, 0, 0, 0, 0, 0, 0, 0,0.0,0.0,0.0,0.5,0.0,0.0,0.0,0.0,0.0,0.0,0.0,0.0,0.0,145,src\test\java\org\apache\xml\security\test\stax\XMLSecurityStreamWriterTest.java,0,0,0,0
org.apache.xml.security.test.stax.c14n.Canonicalizer11Test, 0, 0, 0, 0, 0, 0, 0, 0, 0, 0, 0, 0, 0, 0,0.0,0.0,0.0,0.0,0.0,0.0,0.0,0.0,0.0,0.0,0.0,0.0,0.0,177,src\test\java\org\apache\xml\security\test\stax\c14n\Canonicalizer11Test.java,0,0,0,0
org.apache.xml.security.test.stax.c14n.Canonicalizer20010315Test, 0, 0, 0, 0, 0, 0, 0, 0, 0, 0, 0, 0, 0, 0,0.0,0.0,0.0,0.0,0.0,0.0,0.0,0.0,0.0,0.0,0.0,0.0,0.0,251,src\test\java\org\apache\xml\security\test\stax\c14n\Canonicalizer20010315Test.java,0,0,0,0
org.apache.xml.security.test.stax.c14n.ExclusiveC14NInteropTest, 0, 0, 0, 0, 0, 0, 0, 0, 0, 0, 0, 0, 0, 0,0.0,0.0,0.0,0.16666666666666666,0.0,0.0,0.0,0.16666666666666666,0.0,0.0,0.0,0.0,0.0,48,src\test\java\org\apache\xml\security\test\stax\c14n\ExclusiveC14NInteropTest.java,0,0,0,0
org.apache.xml.security.test.stax.c14n.Santuario191Test, 0, 0, 0, 0, 0, 0, 0, 0, 0, 0, 0, 0, 0, 0,0.0,0.0,0.0,0.0,0.0,0.0,0.0,0.0,0.0,0.0,0.0,0.0,0.0,46,src\test\java\org\apache\xml\security\test\stax\c14n\Santuario191Test.java,0,0,0,0
org.apache.xml.security.test.stax.encryption.EncryptionCreationTest, 0, 0, 0, 1, 0, 0, 0, 0, 0, 0, 0, 0, 0, 1,0.0,0.0,0.0,0.25,0.0,0.0,0.0,0.0,0.0,0.0,0.0,0.0,0.0,898,src\test\java\org\apache\xml\security\test\stax\encryption\EncryptionCreationTest.java,0,0,0,0
org.apache.xml.security.test.stax.performance.AbstractPerformanceTest, 0, 0, 0, 1, 0, 0, 0, 0, 0, 0, 0, 0, 0, 1,0.0,0.0,0.0,0.5,0.0,0.0,0.0,0.16666666666666666,0.0,0.0,0.0,0.0,0.0,206,src\test\java\org\apache\xml\security\test\stax\performance\AbstractPerformanceTest.java,0,0,0,0
org.apache.xml.security.test.stax.signature.AbstractSignatureCreationTest, 1, 0, 0, 0, 0, 0, 0, 1, 0, 0, 0, 0, 0, 2,0.0,0.0,0.0,0.2,0.0,0.0,0.0,0.2,0.0,0.0,0.0,0.0,0.0,85,src\test\java\org\apache\xml\security\test\stax\signature\AbstractSignatureCreationTest.java,0,0,0,0
org.apache.xml.security.test.stax.signature.BaltimoreTest, 0, 0, 0, 1, 0, 0, 0, 0, 0, 0, 0, 0, 0, 1,0.0,0.0,0.0,0.06666666666666667,0.0,0.0,0.0,0.06666666666666667,0.0,0.0,0.0,0.0,0.0,1007,src\test\java\org\apache\xml\security\test\stax\signature\BaltimoreTest.java,0,0,0,0
org.apache.xml.security.test.stax.signature.IAIKTest, 0, 0, 0, 0, 0, 0, 0, 0, 0, 0, 0, 0, 0, 0,0.0,0.0,0.0,0.07692307692307693,0.0,0.0,0.0,0.07692307692307693,0.0,0.0,0.0,0.0,0.0,243,src\test\java\org\apache\xml\security\test\stax\signature\IAIKTest.java,0,0,0,0
org.apache.xml.security.test.stax.signature.PhaosTest, 0, 0, 0, 0, 0, 0, 0, 0, 0, 0, 0, 0, 0, 0,0.0,0.0,0.0,0.1111111111111111,0.0,0.0,0.0,0.1111111111111111,0.0,0.0,0.0,0.0,0.0,254,src\test\java\org\apache\xml\security\test\stax\signature\PhaosTest.java,0,0,0,0
org.apache.xml.security.test.stax.signature.RSASecurityTest, 0, 0, 0, 0, 0, 0, 0, 0, 0, 0, 0, 0, 0, 0,0.0,0.0,0.0,0.16666666666666666,0.0,0.0,0.0,0.16666666666666666,0.0,0.0,0.0,0.0,0.0,54,src\test\java\org\apache\xml\security\test\stax\signature\RSASecurityTest.java,0,0,0,0
org.apache.xml.security.test.stax.signature.SignatureCreationReferenceURIResolverTest, 0, 0, 0, 0, 0, 0, 0, 0, 0, 0, 0, 0, 0, 0,0.2,0.0,0.0,0.2,0.0,0.0,0.0,0.2,0.0,0.0,0.0,0.0,0.0,154,src\test\java\org\apache\xml\security\test\stax\signature\SignatureCreationReferenceURIResolverTest.java,0,0,0,0
org.apache.xml.security.test.stax.signature.SignatureEncryptionTest, 0, 0, 0, 0, 0, 0, 0, 0, 0, 0, 0, 0, 0, 0,0.16666666666666666,0.0,0.0,0.16666666666666666,0.0,0.0,0.0,0.3333333333333333,0.0,0.0,0.0,0.0,0.0,220,src\test\java\org\apache\xml\security\test\stax\signature\SignatureEncryptionTest.java,0,0,0,0
org.apache.xml.security.test.stax.signature.SignatureVerificationReferenceURIResolverTest, 0, 0, 0, 0, 0, 0, 0, 0, 0, 0, 0, 0, 0, 0,0.0,0.0,0.0,0.2857142857142857,0.0,0.0,0.0,0.2857142857142857,0.0,0.0,0.0,0.0,0.0,308,src\test\java\org\apache\xml\security\test\stax\signature\SignatureVerificationReferenceURIResolverTest.java,0,0,0,0
org.apache.xml.security.test.stax.signature.TestSecurityEventListener, 0, 0, 0, 0, 0, 0, 0, 0, 0, 0, 0, 0, 0, 0,0.0,0.0,0.0,0.2,0.0,0.0,0.0,0.0,0.0,0.0,0.0,0.0,0.0,31,src\test\java\org\apache\xml\security\test\stax\signature\TestSecurityEventListener.java,0,0,0,0
org.apache.xml.security.test.stax.signature.UnknownAlgoSignatureTest, 0, 0, 0, 0, 0, 0, 0, 0, 0, 0, 0, 0, 0, 0,0.0,0.0,0.0,0.16666666666666666,0.0,0.0,0.0,0.16666666666666666,0.0,0.0,0.0,0.0,0.0,126,src\test\java\org\apache\xml\security\test\stax\signature\UnknownAlgoSignatureTest.java,0,0,0,0
org.apache.xml.security.test.stax.utils.HttpRequestRedirectorProxy, 0, 0, 0, 0, 0, 0, 0, 0, 0, 0, 0, 0, 0, 0,0.0,0.0,0.0,0.25,0.0,0.0,0.0,0.0,0.0,0.0,0.0,0.0,0.0,56,src\test\java\org\apache\xml\security\test\stax\utils\HttpRequestRedirectorProxy.java,0,0,0,0
org.apache.xml.security.test.stax.utils.StAX2DOM, 0, 0, 0, 0, 0, 0, 0, 1, 0, 0, 0, 0, 0, 1,0.0,0.0,0.0,0.125,0.0,0.0,0.0,0.0,0.0,0.0,0.0,0.0,0.0,168,src\test\java\org\apache\xml\security\test\stax\utils\StAX2DOM.java,0,0,0,0
org.apache.xml.security.test.stax.utils.TestUtils, 0, 0, 0, 0, 0, 0, 0, 0, 0, 0, 0, 0, 0, 0,0.0,0.0,0.0,0.25,0.0,0.0,0.0,0.0,0.0,0.0,0.0,0.0,0.0,56,src\test\java\org\apache\xml\security\test\stax\utils\TestUtils.java,0,0,0,0
org.apache.xml.security.test.stax.utils.UnixInputStream, 0, 0, 0, 0, 0, 0, 0, 0, 0, 0, 0, 0, 0, 0,0.0,0.0,0.0,0.0,0.0,0.0,0.0,0.0,0.0,0.0,0.0,0.0,0.0,15,src\test\java\org\apache\xml\security\test\stax\utils\UnixInputStream.java,0,0,0,0
org.apache.xml.security.test.stax.utils.XMLSecEventAllocator, 0, 0, 0, 0, 0, 0, 0, 0, 0, 0, 0, 0, 0, 0,0.08333333333333333,0.0,0.0,0.16666666666666666,0.0,0.0,0.0,0.08333333333333333,0.0,0.0,0.0,0.0,0.0,41,src\test\java\org\apache\xml\security\test\stax\utils\XMLSecEventAllocator.java,0,0,0,0
org.apache.xml.security.test.stax.utils.XmlReaderToWriter, 0, 0, 0, 0, 0, 0, 0, 0, 0, 0, 0, 0, 0, 0,0.0,0.0,0.0,0.5,0.0,0.0,0.0,0.0,0.0,0.0,0.0,0.0,0.0,84,src\test\java\org\apache\xml\security\test\stax\utils\XmlReaderToWriter.java,0,0,0,0
org.apache.xml.security.transforms.InvalidTransformException, 0, 0, 0, 0, 0, 0, 0, 0, 0, 0, 0, 0, 0, 0,0.0,0.0,0.0,0.5,0.0,0.0,0.0,0.0,0.0,0.0,0.0,0.0,0.0,18,src\main\java\org\apache\xml\security\transforms\InvalidTransformException.java,0,0,0,0
org.apache.xml.security.transforms.TransformParam, 0, 0, 0, 0, 0, 0, 0, 0, 0, 0, 0, 0, 0, 0,0.0,0.0,0.0,0.0,0.0,0.0,0.0,0.0,0.0,0.0,0.0,0.0,0.0,18,src\main\java\org\apache\xml\security\transforms\TransformParam.java,0,0,0,0
org.apache.xml.security.transforms.TransformSpi, 0, 0, 0, 0, 0, 0, 0, 0, 0, 0, 0, 0, 0, 0,0.07142857142857142,0.0,0.0,0.07142857142857142,0.0,0.0,0.0,0.0,0.0,0.0,0.0,0.0,0.0,22,src\main\java\org\apache\xml\security\transforms\TransformSpi.java,0,0,0,0
org.apache.xml.security.transforms.TransformationException, 0, 0, 0, 0, 0, 0, 0, 0, 0, 0, 0, 0, 0, 0,0.0,0.0,0.0,0.125,0.0,0.0,0.0,0.0,0.0,0.0,0.0,0.0,0.0,18,src\main\java\org\apache\xml\security\transforms\TransformationException.java,0,0,0,0
org.apache.xml.security.transforms.Transforms, 0, 0, 0, 1, 0, 0, 0, 0, 0, 0, 0, 0, 0, 1,0.2777777777777778,0.0,0.0,0.1388888888888889,0.0,0.0,0.0,0.027777777777777776,0.0,0.0,0.0,0.0,0.0,151,src\main\java\org\apache\xml\security\transforms\Transforms.java,1,5,0,6
org.apache.xml.security.transforms.implementations.FuncHere, 0, 0, 0, 0, 0, 0, 0, 0, 0, 0, 0, 0, 0, 0,0.0,0.0,0.0,0.0,0.0,0.0,0.0,0.0,0.0,0.0,0.0,0.0,0.0,48,src\main\java\org\apache\xml\security\transforms\implementations\FuncHere.java,0,0,0,0
org.apache.xml.security.transforms.implementations.TransformC14N, 0, 0, 0, 0, 0, 0, 0, 0, 0, 0, 0, 0, 0, 0,0.0,0.0,0.0,0.25,0.0,0.0,0.0,0.0,0.0,0.0,0.0,0.0,0.0,24,src\main\java\org\apache\xml\security\transforms\implementations\TransformC14N.java,0,0,0,0
org.apache.xml.security.transforms.implementations.TransformC14N11, 0, 0, 0, 0, 0, 0, 0, 0, 0, 0, 0, 0, 0, 0,0.0,0.0,0.0,0.25,0.0,0.0,0.0,0.0,0.0,0.0,0.0,0.0,0.0,22,src\main\java\org\apache\xml\security\transforms\implementations\TransformC14N11.java,0,0,0,0
org.apache.xml.security.transforms.implementations.TransformC14N11_WithComments, 0, 0, 0, 0, 0, 0, 0, 0, 0, 0, 0, 0, 0, 0,0.0,0.0,0.0,0.25,0.0,0.0,0.0,0.0,0.0,0.0,0.0,0.0,0.0,22,src\main\java\org\apache\xml\security\transforms\implementations\TransformC14N11_WithComments.java,0,0,0,0
org.apache.xml.security.transforms.implementations.TransformC14NExclusive, 0, 0, 0, 0, 0, 0, 0, 0, 0, 0, 0, 0, 0, 0,0.0,0.0,0.0,0.2,0.0,0.0,0.0,0.0,0.0,0.0,0.0,0.0,0.0,44,src\main\java\org\apache\xml\security\transforms\implementations\TransformC14NExclusive.java,0,0,0,0
org.apache.xml.security.transforms.implementations.TransformC14NExclusiveWithComments, 0, 0, 0, 0, 0, 0, 0, 0, 0, 0, 0, 0, 0, 0,0.0,0.0,0.0,0.2,0.0,0.0,0.0,0.0,0.0,0.0,0.0,0.0,0.0,42,src\main\java\org\apache\xml\security\transforms\implementations\TransformC14NExclusiveWithComments.java,0,0,0,0
org.apache.xml.security.transforms.implementations.TransformC14NWithComments, 0, 0, 0, 0, 0, 0, 0, 0, 0, 0, 0, 0, 0, 0,0.0,0.0,0.0,0.25,0.0,0.0,0.0,0.0,0.0,0.0,0.0,0.0,0.0,24,src\main\java\org\apache\xml\security\transforms\implementations\TransformC14NWithComments.java,0,0,0,0
org.apache.xml.security.transforms.implementations.TransformEnvelopedSignature, 0, 0, 0, 0, 0, 0, 0, 0, 0, 0, 0, 0, 0, 0,0.0,0.0,0.0,0.3333333333333333,0.0,0.0,0.0,0.0,0.0,0.0,0.0,0.0,0.0,56,src\main\java\org\apache\xml\security\transforms\implementations\TransformEnvelopedSignature.java,0,0,0,0
org.apache.xml.security.transforms.implementations.TransformXPath, 0, 0, 0, 0, 0, 0, 0, 0, 0, 0, 0, 0, 0, 0,0.0,0.0,0.0,0.25,0.0,0.0,0.0,0.0,0.0,0.0,0.0,0.0,0.0,67,src\main\java\org\apache\xml\security\transforms\implementations\TransformXPath.java,0,0,0,0
org.apache.xml.security.transforms.implementations.TransformXPath2Filter, 0, 0, 0, 0, 0, 0, 0, 0, 0, 0, 0, 0, 0, 0,0.0,0.0,0.0,0.2222222222222222,0.0,0.0,0.0,0.0,0.0,0.0,0.0,0.0,0.0,75,src\main\java\org\apache\xml\security\transforms\implementations\TransformXPath2Filter.java,0,0,0,0
org.apache.xml.security.transforms.implementations.TransformXPointer, 0, 0, 0, 0, 0, 0, 0, 0, 0, 0, 0, 0, 0, 0,0.0,0.0,0.0,0.0,0.0,0.0,0.0,0.0,0.0,0.0,0.0,0.0,0.0,13,src\main\java\org\apache\xml\security\transforms\implementations\TransformXPointer.java,0,0,0,0
org.apache.xml.security.transforms.implementations.TransformXSLT, 0, 0, 0, 0, 0, 0, 0, 0, 0, 0, 0, 0, 0, 0,0.0,0.0,0.0,0.25,0.0,0.0,0.0,0.0,0.0,0.0,0.0,0.0,0.0,68,src\main\java\org\apache\xml\security\transforms\implementations\TransformXSLT.java,0,0,0,0
org.apache.xml.security.transforms.implementations.XPath2NodeFilter, 0, 0, 0, 0, 0, 0, 0, 0, 0, 0, 0, 0, 0, 0,0.0,0.0,0.0,0.0,0.0,0.0,0.0,0.0,0.0,0.0,0.0,0.0,0.0,105,src\main\java\org\apache\xml\security\transforms\implementations\TransformXSLT.java,0,0,0,0
org.apache.xml.security.transforms.params.XPath2FilterContainer, 0, 0, 0, 1, 0, 0, 0, 0, 0, 0, 0, 0, 0, 1,0.16666666666666666,0.0,0.0,0.0,0.0,0.0,0.0,0.0,0.0,0.0,0.0,0.0,0.0,105,src\main\java\org\apache\xml\security\transforms\params\XPath2FilterContainer.java,0,0,0,0
org.apache.xml.security.transforms.params.XPath2FilterContainer04, 0, 0, 0, 1, 0, 0, 0, 0, 0, 0, 0, 0, 0, 1,0.0,0.0,0.0,0.0,0.0,0.0,0.0,0.0,0.0,0.0,0.0,0.0,0.0,93,src\main\java\org\apache\xml\security\transforms\params\XPath2FilterContainer04.java,0,0,0,0
org.apache.xml.security.transforms.params.XPathContainer, 0, 0, 0, 0, 0, 0, 0, 0, 0, 0, 0, 0, 0, 0,0.6,0.0,0.0,0.1,0.0,0.0,0.0,0.0,0.0,0.0,0.0,0.0,0.0,21,src\main\java\org\apache\xml\security\transforms\params\XPathContainer.java,0,0,0,0
org.apache.xml.security.transforms.params.XPathFilterCHGPContainer, 0, 0, 0, 1, 0, 0, 0, 1, 0, 0, 0, 0, 0, 2,0.0,0.0,0.0,0.0,0.0,0.0,0.0,0.0,0.0,0.0,0.0,0.0,0.0,121,src\main\java\org\apache\xml\security\transforms\params\XPathFilterCHGPContainer.java,0,0,0,0
org.apache.xml.security.utils.ClassLoaderUtils, 0, 0, 0, 0, 0, 0, 0, 0, 0, 0, 0, 0, 0, 0,0.0,0.0,0.0,0.0,0.0,0.0,0.0,0.0,0.0,0.0,0.0,0.0,0.0,160,src\main\java\org\apache\xml\security\utils\ClassLoaderUtils.java,0,0,0,0
org.apache.xml.security.utils.Constants, 0, 0, 0, 1, 0, 0, 0, 0, 0, 0, 0, 0, 0, 1,0.0,0.0,0.0,0.0,0.0,0.0,0.0,0.0,0.0,0.0,0.0,0.0,0.0,78,src\main\java\org\apache\xml\security\utils\Constants.java,0,0,0,0
org.apache.xml.security.utils.EncryptionConstants, 0, 0, 0, 1, 0, 0, 0, 0, 0, 0, 0, 0, 0, 1,0.0,0.0,0.0,0.0,0.0,0.0,0.0,0.0,0.0,0.0,0.0,0.0,0.0,106,src\main\java\org\apache\xml\security\utils\EncryptionConstants.java,0,0,0,0
org.apache.xml.security.utils.EncryptionElementProxy, 0, 0, 0, 0, 0, 0, 0, 0, 0, 0, 0, 0, 0, 0,0.0,0.0,0.0,0.0,0.0,0.0,0.0,0.0,0.0,0.0,0.0,0.0,0.0,12,src\main\java\org\apache\xml\security\utils\EncryptionElementProxy.java,0,0,0,0
org.apache.xml.security.utils.HelperNodeList, 0, 0, 0, 0, 0, 0, 0, 0, 0, 0, 0, 0, 0, 0,0.5,0.0,0.0,0.5,0.0,0.0,0.0,0.0,0.0,0.0,0.0,0.0,0.0,29,src\main\java\org\apache\xml\security\utils\HelperNodeList.java,0,0,0,0
org.apache.xml.security.utils.I18n, 0, 0, 0, 0, 0, 0, 0, 0, 0, 0, 0, 0, 0, 0,0.0,0.0,0.0,0.1111111111111111,0.0,0.0,0.0,0.2222222222222222,0.0,0.0,0.0,0.0,0.0,74,src\main\java\org\apache\xml\security\utils\I18n.java,0,0,0,0
org.apache.xml.security.utils.IdResolver, 0, 0, 0, 0, 0, 0, 0, 0, 0, 0, 0, 0, 0, 0,0.0,0.0,0.0,0.0,0.0,0.0,0.0,0.0,0.0,0.0,0.0,0.0,0.0,10,src\main\java\org\apache\xml\security\utils\IdResolver.java,0,0,0,0
org.apache.xml.security.utils.IgnoreAllErrorHandler, 0, 0, 0, 0, 0, 0, 0, 0, 0, 0, 0, 0, 0, 0,0.0,0.0,0.0,0.0,0.0,0.0,0.0,0.0,0.0,0.0,0.0,0.0,0.0,32,src\main\java\org\apache\xml\security\utils\IgnoreAllErrorHandler.java,0,0,0,0
org.apache.xml.security.utils.JDKXPathAPI, 0, 0, 0, 0, 0, 0, 0, 0, 0, 0, 0, 0, 0, 0,0.0,0.0,0.0,0.0,0.0,0.0,0.0,0.0,0.0,0.0,0.0,0.0,0.0,63,src\main\java\org\apache\xml\security\utils\JDKXPathAPI.java,0,0,0,0
org.apache.xml.security.utils.JDKXPathFactory, 0, 0, 0, 0, 0, 0, 0, 0, 0, 0, 0, 0, 0, 0,0.0,0.0,0.0,0.0,0.0,0.0,0.0,0.0,0.0,0.0,0.0,0.0,0.0,5,src\main\java\org\apache\xml\security\utils\JDKXPathFactory.java,0,0,0,0
org.apache.xml.security.utils.JavaUtils, 0, 0, 0, 0, 0, 0, 0, 0, 0, 0, 0, 0, 0, 0,0.45454545454545453,0.0,0.0,0.18181818181818182,0.0,0.0,0.0,0.0,0.0,0.0,0.0,0.0,0.0,132,src\main\java\org\apache\xml\security\utils\JavaUtils.java,0,0,0,0
org.apache.xml.security.utils.Signature11ElementProxy, 0, 0, 0, 0, 0, 0, 0, 0, 0, 0, 0, 0, 0, 0,0.0,0.0,0.0,0.0,0.0,0.0,0.0,0.0,0.0,0.0,0.0,0.0,0.0,17,src\main\java\org\apache\xml\security\utils\Signature11ElementProxy.java,0,0,0,0
org.apache.xml.security.utils.SignatureElementProxy, 0, 0, 0, 0, 0, 0, 0, 0, 0, 0, 0, 0, 0, 0,0.0,0.0,0.0,0.18181818181818182,0.0,0.0,0.0,0.09090909090909091,0.0,0.0,0.0,0.0,0.0,18,src\main\java\org\apache\xml\security\utils\SignatureElementProxy.java,0,0,0,0
org.apache.xml.security.utils.UnsyncBufferedOutputStream, 0, 0, 0, 0, 0, 0, 0, 0, 0, 0, 0, 0, 0, 0,0.0,0.0,0.0,1.0,0.0,0.0,0.0,1.0,0.0,0.0,0.0,0.0,0.0,46,src\main\java\org\apache\xml\security\utils\UnsyncBufferedOutputStream.java,0,0,0,0
org.apache.xml.security.utils.UnsyncByteArrayOutputStream, 0, 0, 0, 0, 0, 0, 0, 0, 0, 0, 0, 0, 0, 0,0.0,0.0,0.0,0.0,0.0,0.0,0.0,0.0,0.0,0.0,0.0,0.0,0.0,62,src\main\java\org\apache\xml\security\utils\UnsyncByteArrayOutputStream.java,0,0,0,0
org.apache.xml.security.utils.XPathAPI, 0, 0, 0, 0, 0, 0, 0, 0, 0, 0, 0, 0, 0, 0,0.0,0.0,0.0,0.0,0.0,0.0,0.0,0.0,0.0,0.0,0.0,0.0,0.0,62,src\main\java\org\apache\xml\security\utils\XPathAPI.java,0,0,0,0
org.apache.xml.security.utils.XPathFactory, 0, 0, 0, 0, 0, 0, 0, 0, 0, 0, 0, 0, 0, 0,0.0,0.0,0.0,0.0,0.0,0.0,0.0,0.0,0.0,0.0,0.0,0.0,0.0,26,src\main\java\org\apache\xml\security\utils\XPathFactory.java,0,0,0,0
org.apache.xml.security.utils.XalanXPathAPI, 0, 0, 0, 0, 0, 0, 0, 0, 0, 0, 0, 0, 0, 0,0.0,0.0,0.0,0.0,0.0,0.0,0.0,0.0,0.0,0.0,0.0,0.0,0.0,108,src\main\java\org\apache\xml\security\utils\XalanXPathAPI.java,0,0,0,0
org.apache.xml.security.utils.XalanXPathFactory, 0, 0, 0, 0, 0, 0, 0, 0, 0, 0, 0, 0, 0, 0,0.0,0.0,0.0,0.0,0.0,0.0,0.0,0.0,0.0,0.0,0.0,0.0,0.0,5,src\main\java\org\apache\xml\security\utils\XalanXPathFactory.java,0,0,0,0
org.apache.xml.security.utils.resolver.ResourceResolverContext, 0, 0, 0, 0, 0, 0, 0, 0, 0, 0, 0, 0, 0, 0,0.0,0.0,0.0,0.0,0.0,0.0,0.0,0.0,0.0,0.0,0.0,0.0,0.0,12,src\main\java\org\apache\xml\security\utils\resolver\ResourceResolverContext.java,0,0,0,0
org.apache.xml.security.utils.resolver.ResourceResolverException, 0, 0, 0, 0, 0, 0, 0, 1, 0, 0, 0, 0, 0, 1,0.0,0.0,0.0,0.0,0.0,0.0,0.0,0.0,0.0,0.0,0.0,0.0,0.0,41,src\main\java\org\apache\xml\security\utils\resolver\ResourceResolverException.java,0,0,0,0
org.apache.xml.security.utils.resolver.implementations.ResolverAnonymous, 0, 0, 0, 0, 0, 0, 0, 0, 0, 0, 0, 0, 0, 0,0.6666666666666666,0.0,0.0,0.3333333333333333,0.0,0.0,0.0,0.0,0.0,0.0,0.0,0.0,0.0,29,src\main\java\org\apache\xml\security\utils\resolver\implementations\ResolverAnonymous.java,0,0,0,0
org.apache.xml.security.utils.resolver.implementations.ResolverDirectHTTP, 0, 0, 0, 0, 0, 0, 0, 0, 0, 0, 0, 0, 0, 0,0.0,0.0,0.0,0.3333333333333333,0.0,0.0,0.0,0.0,0.0,0.0,0.0,0.0,0.0,152,src\main\java\org\apache\xml\security\utils\resolver\implementations\ResolverDirectHTTP.java,0,0,0,0
org.apache.xml.security.utils.resolver.implementations.ResolverFragment, 0, 0, 0, 0, 0, 0, 0, 0, 0, 0, 0, 0, 0, 0,0.0,0.0,0.0,0.5,0.0,0.0,0.0,0.5,0.0,0.0,0.0,0.0,0.0,73,src\main\java\org\apache\xml\security\utils\resolver\implementations\ResolverFragment.java,0,0,0,0
org.apache.xml.security.utils.resolver.implementations.ResolverXPointer, 0, 0, 0, 0, 0, 0, 0, 0, 0, 0, 0, 0, 0, 0,0.0,0.0,0.0,0.5,0.0,0.0,0.0,0.5,0.0,0.0,0.0,0.0,0.0,86,src\main\java\org\apache\xml\security\utils\resolver\implementations\ResolverXPointer.java,0,0,0,0
,0.0,0.0,0.0,0.0,0.0,0.0,0.0,0.0,0.0,0.0,0.0,0.0,0.0,86,samples\javax\xml\crypto\dsig\samples\GenDetached.java,0,0,0,0
