ClassName,AntiSingleton,Blob,ClassDataShouldBePrivate,ComplexClass,LargeClass,LazyClass,LongMethod,LongParameterList,MessageChains,RefusedParentBequest,SpaghettiCode,SpeculativeGenerality,SwissArmyKnife,NumOfAPs,AntiSingleton,Blob,ClassDataShouldBePrivate,ComplexClass,LargeClass,LazyClass,LongMethod,LongParameterList,MessageChains,RefusedParentBequest,SpaghettiCode,SpeculativeGenerality,SwissArmyKnife,LOC,name,deleted,added,changed,all
org.apache.syncope.buildtools.ApacheDSStartStopListener, 0, 0, 0, 0, 0, 0, 0, 1, 0, 0, 0, 0, 0, 1,0.0,0.0,0.0,0.0,0.0,0.0,0.0,0.0,0.0,0.0,0.0,0.0,0.0,111,build-tools\src\main\java\org\apache\syncope\buildtools\ApacheDSStartStopListener.java,0,0,0,0
org.apache.syncope.buildtools.ConnIdStartStopListener, 0, 0, 0, 0, 0, 0, 0, 0, 0, 0, 0, 0, 0, 0,0.0,0.0,0.0,0.0,0.0,0.0,0.0,0.0,0.0,0.0,0.0,0.0,0.0,47,build-tools\src\main\java\org\apache\syncope\buildtools\ConnIdStartStopListener.java,0,0,0,0
org.apache.syncope.buildtools.H2StartStopListener, 0, 0, 0, 0, 0, 0, 0, 0, 0, 0, 0, 0, 0, 0,0.0,0.0,0.0,0.0,0.0,0.0,0.0,0.0,0.0,0.0,0.0,0.0,0.0,50,build-tools\src\main\java\org\apache\syncope\buildtools\H2StartStopListener.java,0,0,0,0
org.apache.syncope.buildtools.JarSchemaLdifExtractor, 0, 0, 0, 0, 0, 0, 0, 0, 0, 0, 0, 0, 0, 0,0.0,0.0,0.0,0.0,0.0,0.0,0.0,1.0,0.0,0.0,0.0,0.0,0.0,80,build-tools\src\main\java\org\apache\syncope\buildtools\JarSchemaLdifExtractor.java,0,0,0,0
org.apache.syncope.buildtools.LdifURLLoader, 0, 0, 0, 0, 0, 0, 0, 0, 0, 0, 0, 0, 0, 0,0.0,0.0,0.0,0.0,0.0,0.0,0.0,1.0,0.0,0.0,0.0,0.0,0.0,57,build-tools\src\main\java\org\apache\syncope\buildtools\LdifURLLoader.java,0,0,0,0
org.apache.syncope.buildtools.ServiceTimeoutServlet, 0, 0, 0, 0, 0, 0, 0, 0, 0, 0, 0, 0, 0, 0,0.0,0.0,0.0,0.0,0.0,0.0,0.0,0.0,0.0,0.0,0.0,0.0,0.0,31,build-tools\src\main\java\org\apache\syncope\buildtools\ServiceTimeoutServlet.java,0,0,0,0
org.apache.syncope.client.SyncopeClient, 0, 0, 0, 0, 0, 0, 0, 1, 0, 0, 0, 0, 0, 1,0.0,0.0,0.0,0.08333333333333333,0.0,0.0,0.0,0.08333333333333333,0.0,0.0,0.0,0.0,0.0,85,client\src\main\java\org\apache\syncope\client\SyncopeClient.java,0,0,0,0
org.apache.syncope.client.rest.RestClientExceptionMapper, 0, 0, 0, 0, 0, 0, 0, 0, 0, 0, 0, 0, 0, 0,0.0,0.0,0.0,0.0,0.0,0.0,0.0,0.0,0.0,0.0,0.0,0.0,0.0,73,client\src\main\java\org\apache\syncope\client\rest\RestClientExceptionMapper.java,3,1,6,16
org.apache.syncope.client.rest.RestClientFactoryBean, 0, 0, 0, 0, 0, 0, 0, 1, 0, 0, 0, 0, 0, 1,0.0,0.0,0.0,0.0,0.0,0.0,0.0,1.0,0.0,0.0,0.0,0.0,0.0,18,client\src\main\java\org\apache\syncope\client\rest\RestClientFactoryBean.java,0,2,0,2
org.apache.syncope.common.AbstractBaseBean, 0, 0, 0, 0, 0, 0, 0, 0, 0, 0, 0, 0, 0, 0,0.03225806451612903,0.0,0.03225806451612903,0.12903225806451613,0.0,0.0,0.0,0.03225806451612903,0.0,0.0,0.0,0.0,0.0,15,common\src\main\java\org\apache\syncope\common\AbstractBaseBean.java,0,0,0,0
org.apache.syncope.common.JSONTest, 0, 0, 0, 0, 0, 0, 0, 0, 0, 0, 0, 0, 0, 0,0.0,0.0,0.0,0.5,0.0,0.0,0.0,0.0,0.0,0.0,0.0,0.0,0.0,25,common\src\test\java\org\apache\syncope\common\JSONTest.java,0,0,0,0
org.apache.syncope.common.SyncopeConstants, 0, 0, 0, 0, 0, 0, 0, 0, 0, 0, 0, 0, 0, 0,0.0,0.0,0.0,0.0,0.0,0.0,0.0,0.0,0.0,0.0,0.0,0.0,0.0,20,common\src\main\java\org\apache\syncope\common\SyncopeConstants.java,0,0,0,0
org.apache.syncope.common.mod.AbstractAttributableMod, 0, 0, 0, 0, 0, 0, 0, 0, 0, 0, 0, 0, 0, 0,0.0,0.0,0.0,0.1111111111111111,0.0,0.0,0.0,0.3333333333333333,0.0,0.0,0.0,0.0,0.0,57,common\src\main\java\org\apache\syncope\common\mod\AbstractAttributableMod.java,0,0,0,0
org.apache.syncope.common.mod.AbstractSubjectMod, 0, 0, 0, 0, 0, 0, 0, 0, 0, 0, 0, 0, 0, 0,0.0,0.0,0.0,0.5,0.0,0.0,0.0,0.25,0.0,0.0,0.0,0.0,0.0,21,common\src\main\java\org\apache\syncope\common\mod\AbstractSubjectMod.java,0,0,0,0
org.apache.syncope.common.mod.AttributeMod, 0, 0, 0, 0, 0, 0, 0, 0, 0, 0, 0, 0, 0, 0,0.0,0.0,0.0,0.2,0.0,0.0,0.0,0.2,0.0,0.0,0.0,0.0,0.0,33,common\src\main\java\org\apache\syncope\common\mod\AttributeMod.java,0,0,0,0
org.apache.syncope.common.mod.MembershipMod, 0, 0, 0, 0, 0, 0, 0, 0, 0, 0, 0, 0, 0, 0,0.0,0.0,0.0,0.3333333333333333,0.0,0.0,0.0,0.0,0.0,0.0,0.0,0.0,0.0,15,common\src\main\java\org\apache\syncope\common\mod\MembershipMod.java,0,0,0,0
org.apache.syncope.common.mod.ReferenceMod, 0, 0, 0, 0, 0, 0, 0, 0, 0, 0, 0, 0, 0, 0,0.0,0.0,0.0,0.5,0.0,0.0,0.0,0.0,0.0,0.0,0.0,0.0,0.0,16,common\src\main\java\org\apache\syncope\common\mod\ReferenceMod.java,0,0,0,0
org.apache.syncope.common.mod.ResourceAssociationMod, 0, 0, 0, 0, 0, 0, 0, 0, 0, 0, 0, 0, 0, 0,0.0,0.0,0.0,0.25,0.0,0.0,0.0,0.5,0.0,0.0,0.0,0.0,0.0,24,common\src\main\java\org\apache\syncope\common\mod\ResourceAssociationMod.java,0,0,0,0
org.apache.syncope.common.mod.RoleMod, 0, 0, 0, 1, 0, 0, 0, 0, 0, 0, 0, 0, 0, 1,0.0,0.0,0.0,0.14285714285714285,0.0,0.0,0.0,0.5714285714285714,0.0,0.0,0.0,0.0,0.0,196,common\src\main\java\org\apache\syncope\common\mod\RoleMod.java,0,0,0,0
org.apache.syncope.common.mod.StatusMod, 0, 0, 0, 0, 0, 0, 0, 0, 0, 0, 0, 0, 0, 0,0.0,0.0,0.0,0.14285714285714285,0.0,0.0,0.0,0.42857142857142855,0.0,0.0,0.0,0.0,0.0,45,common\src\main\java\org\apache\syncope\common\mod\StatusMod.java,0,0,0,0
org.apache.syncope.common.mod.UserMod, 0, 0, 0, 0, 0, 0, 0, 0, 0, 0, 0, 0, 0, 0,0.0,0.0,0.0,0.07692307692307693,0.0,0.0,0.0,0.46153846153846156,0.0,0.0,0.0,0.0,0.0,69,common\src\main\java\org\apache\syncope\common\mod\UserMod.java,0,0,0,0
org.apache.syncope.common.report.AbstractReportletConf, 0, 0, 0, 0, 0, 0, 0, 0, 0, 0, 0, 0, 0, 0,0.0,0.0,0.0,0.0,0.0,0.0,0.0,0.0,0.0,0.0,0.0,0.0,0.0,18,common\src\main\java\org\apache\syncope\common\report\AbstractReportletConf.java,0,0,0,0
org.apache.syncope.common.report.ReportletConf, 0, 0, 0, 0, 0, 0, 0, 0, 0, 0, 0, 0, 0, 0,0.0,0.0,0.0,0.0,0.0,0.0,0.0,0.0,0.0,0.0,0.0,0.0,0.0,18,common\src\main\java\org\apache\syncope\common\report\ReportletConf.java,0,0,0,0
org.apache.syncope.common.report.RoleReportletConf, 0, 0, 0, 0, 0, 0, 0, 0, 0, 0, 0, 0, 0, 0,0.0,0.0,0.0,0.0,0.0,0.0,0.0,0.0,0.0,0.0,0.0,0.0,0.0,59,common\src\main\java\org\apache\syncope\common\report\RoleReportletConf.java,0,0,0,0
org.apache.syncope.common.report.StaticReportletConf, 0, 0, 0, 0, 0, 0, 0, 0, 0, 0, 0, 0, 0, 0,0.0,0.0,0.0,0.0,0.0,0.0,0.0,0.0,0.0,0.0,0.0,0.0,0.0,55,common\src\main\java\org\apache\syncope\common\report\StaticReportletConf.java,0,0,0,0
org.apache.syncope.common.report.UserReportletConf, 0, 0, 0, 0, 0, 0, 0, 0, 0, 0, 0, 0, 0, 0,0.0,0.0,0.0,0.0,0.0,0.0,0.0,0.0,0.0,0.0,0.0,0.0,0.0,63,common\src\main\java\org\apache\syncope\common\report\UserReportletConf.java,0,0,0,0
org.apache.syncope.common.reqres.BulkAction, 0, 0, 0, 0, 0, 0, 0, 0, 0, 0, 0, 0, 0, 0,0.0,0.0,0.0,0.2,0.0,0.0,0.0,0.8,0.0,0.0,0.0,0.0,0.0,26,common\src\main\java\org\apache\syncope\common\reqres\BulkAction.java,0,0,0,0
org.apache.syncope.common.reqres.ErrorTO, 0, 0, 0, 0, 0, 0, 0, 0, 0, 0, 0, 0, 0, 0,0.0,0.0,0.0,0.0,0.0,0.0,0.0,0.0,0.0,0.0,0.0,0.0,0.0,24,common\src\main\java\org\apache\syncope\common\reqres\ErrorTO.java,0,0,0,0
org.apache.syncope.common.reqres.PagedResult, 0, 0, 0, 0, 0, 0, 0, 0, 0, 0, 0, 0, 0, 0,0.0,0.0,0.0,0.125,0.0,0.0,0.0,0.5,0.0,0.0,0.0,0.0,0.0,46,common\src\main\java\org\apache\syncope\common\reqres\PagedResult.java,0,0,0,0
org.apache.syncope.common.search.RoleProperty, 0, 0, 0, 0, 0, 0, 0, 0, 0, 0, 0, 0, 0, 0,0.0,0.0,0.0,0.0,0.0,0.0,0.0,0.0,0.0,0.0,0.0,0.0,0.0,46,common\src\main\java\org\apache\syncope\common\search\RoleProperty.java,0,0,0,0
org.apache.syncope.common.search.SearchableFields, 0, 0, 0, 0, 0, 0, 0, 0, 0, 0, 0, 0, 0, 0,0.0,0.0,0.0,0.0,0.0,0.0,0.0,0.0,0.0,0.0,0.0,0.0,0.0,28,common\src\main\java\org\apache\syncope\common\search\SearchableFields.java,0,0,0,0
org.apache.syncope.common.search.SyncopeProperty, 0, 0, 0, 0, 0, 0, 0, 0, 0, 0, 0, 0, 0, 0,0.0,0.0,0.0,0.0,0.0,0.0,0.0,0.0,0.0,0.0,0.0,0.0,0.0,28,common\src\main\java\org\apache\syncope\common\search\SyncopeProperty.java,0,0,0,0
org.apache.syncope.common.search.UserProperty, 0, 0, 0, 0, 0, 0, 0, 0, 0, 0, 0, 0, 0, 0,0.0,0.0,0.0,0.0,0.0,0.0,0.0,0.0,0.0,0.0,0.0,0.0,0.0,28,common\src\main\java\org\apache\syncope\common\search\UserProperty.java,0,0,0,0
org.apache.syncope.common.services.ConfigurationService, 0, 0, 0, 0, 0, 0, 0, 0, 0, 0, 0, 0, 0, 0,0.0,0.0,0.0,0.0,0.0,0.0,0.0,0.0,0.0,0.0,0.0,0.0,0.0,28,common\src\main\java\org\apache\syncope\common\services\ConfigurationService.java,0,0,0,0
org.apache.syncope.common.services.ConnectorService, 0, 0, 0, 0, 0, 0, 0, 0, 0, 0, 0, 0, 0, 0,0.0,0.0,0.0,0.0,0.0,0.0,0.0,0.0,0.0,0.0,0.0,0.0,0.0,28,common\src\main\java\org\apache\syncope\common\services\ConnectorService.java,0,0,0,0
org.apache.syncope.common.services.EntitlementService, 0, 0, 0, 0, 0, 0, 0, 0, 0, 0, 0, 0, 0, 0,0.0,0.0,0.0,0.0,0.0,0.0,0.0,0.0,0.0,0.0,0.0,0.0,0.0,28,common\src\main\java\org\apache\syncope\common\services\EntitlementService.java,0,0,0,0
org.apache.syncope.common.services.JAXRSService, 0, 0, 0, 0, 0, 0, 0, 0, 0, 0, 0, 0, 0, 0,0.0,0.0,0.0,0.0,0.0,0.0,0.0,0.0,0.0,0.0,0.0,0.0,0.0,28,common\src\main\java\org\apache\syncope\common\services\JAXRSService.java,0,0,0,0
org.apache.syncope.common.services.LoggerService, 0, 0, 0, 0, 0, 0, 0, 0, 0, 0, 0, 0, 0, 0,0.0,0.0,0.0,0.0,0.0,0.0,0.0,0.0,0.0,0.0,0.0,0.0,0.0,28,common\src\main\java\org\apache\syncope\common\services\LoggerService.java,0,0,0,0
org.apache.syncope.common.services.NotificationService, 0, 0, 0, 0, 0, 0, 0, 0, 0, 0, 0, 0, 0, 0,0.0,0.0,0.0,0.0,0.0,0.0,0.0,0.0,0.0,0.0,0.0,0.0,0.0,28,common\src\main\java\org\apache\syncope\common\services\NotificationService.java,0,0,0,0
org.apache.syncope.common.services.PolicyService, 0, 0, 0, 0, 0, 0, 0, 0, 0, 0, 0, 0, 0, 0,0.0,0.0,0.0,0.0,0.0,0.0,0.0,0.0,0.0,0.0,0.0,0.0,0.0,28,common\src\main\java\org\apache\syncope\common\services\PolicyService.java,0,0,0,0
org.apache.syncope.common.services.ReportService, 0, 0, 0, 0, 0, 0, 0, 0, 0, 0, 0, 0, 0, 0,0.0,0.0,0.0,0.0,0.0,0.0,0.0,0.0,0.0,0.0,0.0,0.0,0.0,28,common\src\main\java\org\apache\syncope\common\services\ReportService.java,0,0,0,0
org.apache.syncope.common.services.ResourceService, 0, 0, 0, 0, 0, 0, 0, 0, 0, 0, 0, 0, 0, 0,0.0,0.0,0.0,0.0,0.0,0.0,0.0,0.0,0.0,0.0,0.0,0.0,0.0,28,common\src\main\java\org\apache\syncope\common\services\ResourceService.java,0,0,0,0
org.apache.syncope.common.services.RoleService, 0, 0, 0, 0, 0, 0, 0, 0, 0, 0, 0, 0, 0, 0,0.0,0.0,0.0,0.0,0.0,0.0,0.0,0.0,0.0,0.0,0.0,0.0,0.0,28,common\src\main\java\org\apache\syncope\common\services\RoleService.java,0,0,0,0
org.apache.syncope.common.services.SchemaService, 0, 0, 0, 0, 0, 0, 0, 0, 0, 0, 0, 0, 0, 0,0.0,0.0,0.0,0.0,0.0,0.0,0.0,0.0,0.0,0.0,0.0,0.0,0.0,28,common\src\main\java\org\apache\syncope\common\services\SchemaService.java,0,0,0,0
org.apache.syncope.common.services.SecurityQuestionService, 0, 0, 0, 0, 0, 0, 0, 0, 0, 0, 0, 0, 0, 0,0.0,0.0,0.0,0.0,0.0,0.0,0.0,0.0,0.0,0.0,0.0,0.0,0.0,28,common\src\main\java\org\apache\syncope\common\services\SecurityQuestionService.java,0,0,0,0
org.apache.syncope.common.services.TaskService, 0, 0, 0, 0, 0, 0, 0, 0, 0, 0, 0, 0, 0, 0,0.0,0.0,0.0,0.0,0.0,0.0,0.0,0.0,0.0,0.0,0.0,0.0,0.0,28,common\src\main\java\org\apache\syncope\common\services\TaskService.java,0,0,0,0
org.apache.syncope.common.services.UserSelfService, 0, 0, 0, 0, 0, 0, 0, 0, 0, 0, 0, 0, 0, 0,0.0,0.0,0.0,0.0,0.0,0.0,0.0,0.0,0.0,0.0,0.0,0.0,0.0,28,common\src\main\java\org\apache\syncope\common\services\UserSelfService.java,0,0,0,0
org.apache.syncope.common.services.UserService, 0, 0, 0, 0, 0, 0, 0, 0, 0, 0, 0, 0, 0, 0,0.0,0.0,0.0,0.0,0.0,0.0,0.0,0.0,0.0,0.0,0.0,0.0,0.0,28,common\src\main\java\org\apache\syncope\common\services\UserService.java,0,0,0,0
org.apache.syncope.common.services.UserWorkflowService, 0, 0, 0, 0, 0, 0, 0, 0, 0, 0, 0, 0, 0, 0,0.0,0.0,0.0,0.0,0.0,0.0,0.0,0.0,0.0,0.0,0.0,0.0,0.0,28,common\src\main\java\org\apache\syncope\common\services\UserWorkflowService.java,0,0,0,0
org.apache.syncope.common.services.WorkflowService, 0, 0, 0, 0, 0, 0, 0, 0, 0, 0, 0, 0, 0, 0,0.0,0.0,0.0,0.0,0.0,0.0,0.0,0.0,0.0,0.0,0.0,0.0,0.0,28,common\src\main\java\org\apache\syncope\common\services\WorkflowService.java,0,0,0,0
org.apache.syncope.common.to.AbstractExecTO, 0, 0, 0, 0, 0, 0, 0, 0, 0, 0, 0, 0, 0, 0,0.0,0.0,0.0,0.14285714285714285,0.0,0.0,0.0,0.42857142857142855,0.0,0.0,0.0,0.0,0.0,46,common\src\main\java\org\apache\syncope\common\to\AbstractExecTO.java,0,0,0,0
org.apache.syncope.common.to.AbstractPolicyTO, 0, 0, 0, 0, 0, 0, 0, 0, 0, 0, 0, 0, 0, 0,0.0,0.0,0.0,0.09090909090909091,0.0,0.0,0.0,0.09090909090909091,0.0,0.0,0.0,0.0,0.0,38,common\src\main\java\org\apache\syncope\common\to\AbstractPolicyTO.java,0,0,0,0
org.apache.syncope.common.to.AbstractSchemaTO, 0, 0, 0, 0, 0, 0, 0, 0, 0, 0, 0, 0, 0, 0,0.0,0.0,0.0,0.09090909090909091,0.0,0.0,0.0,0.36363636363636365,0.0,0.0,0.0,0.0,0.0,10,common\src\main\java\org\apache\syncope\common\to\AbstractSchemaTO.java,0,0,0,0
org.apache.syncope.common.to.AbstractSubjectTO, 0, 0, 0, 0, 0, 0, 0, 0, 0, 0, 0, 0, 0, 0,0.0,0.0,0.0,0.36363636363636365,0.0,0.0,0.0,0.45454545454545453,0.0,0.0,0.0,0.0,0.0,29,common\src\main\java\org\apache\syncope\common\to\AbstractSubjectTO.java,0,0,0,0
org.apache.syncope.common.to.AbstractSyncTaskTO, 0, 0, 0, 1, 0, 0, 0, 0, 0, 0, 0, 0, 0, 1,0.0,0.0,0.0,0.0,0.0,0.0,0.0,0.5,0.0,0.0,0.0,0.0,0.0,59,common\src\main\java\org\apache\syncope\common\to\AbstractSyncTaskTO.java,0,0,0,0
org.apache.syncope.common.to.AbstractSysInfoTO, 0, 0, 0, 0, 0, 0, 0, 0, 0, 0, 0, 0, 0, 0,0.0,0.0,0.0,0.2222222222222222,0.0,0.0,0.0,0.4444444444444444,0.0,0.0,0.0,0.0,0.0,39,common\src\main\java\org\apache\syncope\common\to\AbstractSysInfoTO.java,0,0,0,0
org.apache.syncope.common.to.AbstractTaskTO, 0, 0, 0, 0, 0, 0, 0, 0, 0, 0, 0, 0, 0, 0,0.0,0.0,0.0,0.1875,0.0,0.0,0.0,0.5,0.0,0.0,0.0,0.0,0.0,46,common\src\main\java\org\apache\syncope\common\to\AbstractTaskTO.java,0,0,0,0
org.apache.syncope.common.to.AccountPolicyTO, 0, 0, 0, 0, 0, 0, 0, 0, 0, 0, 0, 0, 0, 0,0.0,0.0,0.0,0.16666666666666666,0.0,0.0,0.0,0.16666666666666666,0.0,0.0,0.0,0.0,0.0,27,common\src\main\java\org\apache\syncope\common\to\AccountPolicyTO.java,0,0,0,0
org.apache.syncope.common.to.AttributeTO, 0, 0, 0, 0, 0, 0, 0, 0, 0, 0, 0, 0, 0, 0,0.0,0.0,0.0,0.1,0.0,0.0,0.0,0.4,0.0,0.0,0.0,0.0,0.0,29,common\src\main\java\org\apache\syncope\common\to\AttributeTO.java,0,0,0,0
org.apache.syncope.common.to.ConfTO, 0, 0, 0, 0, 0, 0, 0, 0, 0, 0, 0, 0, 0, 0,0.0,0.0,0.0,0.0,0.0,0.0,0.0,0.0,0.0,0.0,0.0,0.0,0.0,3,common\src\main\java\org\apache\syncope\common\to\ConfTO.java,0,0,0,0
org.apache.syncope.common.to.ConnBundleTO, 0, 0, 0, 0, 0, 0, 0, 0, 0, 0, 0, 0, 0, 0,0.0,0.0,0.0,0.0,0.0,0.0,0.0,0.0,0.0,0.0,0.0,0.0,0.0,45,common\src\main\java\org\apache\syncope\common\to\ConnBundleTO.java,0,0,0,0
org.apache.syncope.common.to.ConnIdObjectClassTO, 1, 0, 1, 0, 0, 0, 0, 0, 0, 0, 0, 0, 0, 2,0.0,0.0,0.0,0.0,0.0,0.0,0.0,0.5,0.0,0.0,0.0,0.0,0.0,29,common\src\main\java\org\apache\syncope\common\to\ConnIdObjectClassTO.java,0,0,0,0
org.apache.syncope.common.to.ConnPoolConfTO, 0, 0, 0, 0, 0, 0, 0, 0, 0, 0, 0, 0, 0, 0,0.0,0.0,0.0,0.0,0.0,0.0,0.0,0.0,0.0,0.0,0.0,0.0,0.0,38,common\src\main\java\org\apache\syncope\common\to\ConnPoolConfTO.java,0,0,0,0
org.apache.syncope.common.to.DerSchemaTO, 0, 0, 0, 0, 0, 0, 0, 0, 0, 0, 0, 0, 0, 0,0.0,0.0,0.0,0.0,0.0,0.0,0.0,0.6,0.0,0.0,0.0,0.0,0.0,10,common\src\main\java\org\apache\syncope\common\to\DerSchemaTO.java,0,0,0,0
org.apache.syncope.common.to.EventCategoryTO, 0, 0, 0, 0, 0, 0, 0, 0, 0, 0, 0, 0, 0, 0,0.0,0.0,0.0,0.0,0.0,0.0,0.0,0.0,0.0,0.0,0.0,0.0,0.0,37,common\src\main\java\org\apache\syncope\common\to\EventCategoryTO.java,0,0,0,0
org.apache.syncope.common.to.LoggerTO, 0, 0, 0, 0, 0, 0, 0, 0, 0, 0, 0, 0, 0, 0,0.0,0.0,0.0,0.0,0.0,0.0,0.0,0.25,0.0,0.0,0.0,0.0,0.0,17,common\src\main\java\org\apache\syncope\common\to\LoggerTO.java,0,0,0,0
org.apache.syncope.common.to.MappingItemTO, 0, 0, 0, 1, 0, 0, 0, 0, 0, 0, 0, 0, 0, 1,0.0,0.0,0.0,0.2,0.0,0.0,0.0,0.0,0.0,0.0,0.0,0.0,0.0,59,common\src\main\java\org\apache\syncope\common\to\MappingItemTO.java,0,0,0,0
org.apache.syncope.common.to.MappingTO, 0, 0, 0, 0, 0, 0, 0, 0, 0, 0, 0, 0, 0, 0,0.0,0.0,0.0,0.5,0.0,0.0,0.0,0.0,0.0,0.0,0.0,0.0,0.0,69,common\src\main\java\org\apache\syncope\common\to\MappingTO.java,0,0,0,0
org.apache.syncope.common.to.MembershipTO, 0, 0, 0, 0, 0, 0, 0, 0, 0, 0, 0, 0, 0, 0,0.0,0.0,0.0,0.3333333333333333,0.0,0.0,0.0,0.3333333333333333,0.0,0.0,0.0,0.0,0.0,17,common\src\main\java\org\apache\syncope\common\to\MembershipTO.java,0,0,0,0
org.apache.syncope.common.to.NotificationTO, 0, 0, 0, 1, 0, 0, 0, 0, 0, 0, 0, 0, 0, 1,0.0,0.0,0.0,0.0,0.0,0.0,0.0,0.14285714285714285,0.0,0.0,0.0,0.0,0.0,101,common\src\main\java\org\apache\syncope\common\to\NotificationTO.java,0,0,0,0
org.apache.syncope.common.to.NotificationTaskTO, 0, 0, 0, 0, 0, 0, 0, 0, 0, 0, 0, 0, 0, 0,0.0,0.0,0.0,0.0,0.0,0.0,0.0,0.3333333333333333,0.0,0.0,0.0,0.0,0.0,52,common\src\main\java\org\apache\syncope\common\to\NotificationTaskTO.java,0,0,0,0
org.apache.syncope.common.to.PasswordPolicyTO, 0, 0, 0, 0, 0, 0, 0, 0, 0, 0, 0, 0, 0, 0,0.0,0.0,0.0,0.16666666666666666,0.0,0.0,0.0,0.16666666666666666,0.0,0.0,0.0,0.0,0.0,20,common\src\main\java\org\apache\syncope\common\to\PasswordPolicyTO.java,0,0,0,0
org.apache.syncope.common.to.PropagationStatus, 0, 0, 0, 0, 0, 0, 0, 0, 0, 0, 0, 0, 0, 0,0.0,0.0,0.0,0.16666666666666666,0.0,0.0,0.0,0.5,0.0,0.0,0.0,0.0,0.0,38,common\src\main\java\org\apache\syncope\common\to\PropagationStatus.java,0,0,0,0
org.apache.syncope.common.to.PropagationTaskTO, 0, 0, 0, 1, 0, 0, 0, 0, 0, 0, 0, 0, 0, 1,0.0,0.0,0.0,0.0,0.0,0.0,0.0,0.6666666666666666,0.0,0.0,0.0,0.0,0.0,66,common\src\main\java\org\apache\syncope\common\to\PropagationTaskTO.java,0,0,0,0
org.apache.syncope.common.to.PushTaskTO, 0, 0, 0, 0, 0, 0, 0, 0, 0, 0, 0, 0, 0, 0,0.0,0.0,0.0,0.3333333333333333,0.0,0.0,0.0,0.6666666666666666,0.0,0.0,0.0,0.0,0.0,17,common\src\main\java\org\apache\syncope\common\to\PushTaskTO.java,0,0,0,0
org.apache.syncope.common.to.ReportExecTO, 0, 0, 0, 0, 0, 0, 0, 0, 0, 0, 0, 0, 0, 0,0.0,0.0,0.0,0.0,0.0,0.0,0.0,0.5,0.0,0.0,0.0,0.0,0.0,10,common\src\main\java\org\apache\syncope\common\to\ReportExecTO.java,0,0,0,0
org.apache.syncope.common.to.ReportTO, 0, 0, 0, 1, 0, 0, 0, 0, 0, 0, 0, 0, 0, 1,0.0,0.0,0.0,0.0,0.0,0.0,0.0,0.3333333333333333,0.0,0.0,0.0,0.0,0.0,89,common\src\main\java\org\apache\syncope\common\to\ReportTO.java,0,0,0,0
org.apache.syncope.common.to.ResourceTO, 0, 0, 0, 1, 0, 0, 0, 0, 0, 0, 0, 0, 0, 1,0.0,0.0,0.0,0.09090909090909091,0.0,0.0,0.0,0.5454545454545454,0.0,0.0,0.0,0.0,0.0,160,common\src\main\java\org\apache\syncope\common\to\ResourceTO.java,0,0,0,0
org.apache.syncope.common.to.RoleTO, 0, 0, 0, 1, 0, 0, 0, 0, 0, 0, 0, 0, 0, 1,0.0,0.0,0.0,0.13333333333333333,0.0,0.0,0.0,0.4666666666666667,0.0,0.0,0.0,0.0,0.0,157,common\src\main\java\org\apache\syncope\common\to\RoleTO.java,0,0,0,0
org.apache.syncope.common.to.SchedTaskTO, 0, 0, 0, 0, 0, 0, 0, 0, 0, 0, 0, 0, 0, 0,0.0,0.0,0.0,0.2857142857142857,0.0,0.0,0.0,0.7142857142857143,0.0,0.0,0.0,0.0,0.0,53,common\src\main\java\org\apache\syncope\common\to\SchedTaskTO.java,0,0,0,0
org.apache.syncope.common.to.SchemaTO, 0, 0, 0, 1, 0, 0, 0, 0, 0, 0, 0, 0, 0, 1,0.0,0.0,0.0,0.0,0.0,0.0,0.0,0.6,0.0,0.0,0.0,0.0,0.0,89,common\src\main\java\org\apache\syncope\common\to\SchemaTO.java,0,0,0,0
org.apache.syncope.common.to.SecurityQuestionTO, 0, 0, 0, 0, 0, 0, 0, 0, 0, 0, 0, 0, 0, 0,0.0,0.0,0.0,0.0,0.0,0.0,0.0,0.14285714285714285,0.0,0.0,0.0,0.0,0.0,17,common\src\main\java\org\apache\syncope\common\to\SecurityQuestionTO.java,0,0,0,0
org.apache.syncope.common.to.SyncPolicyTO, 0, 0, 0, 0, 0, 0, 0, 0, 0, 0, 0, 0, 0, 0,0.0,0.0,0.0,0.0,0.0,0.0,0.0,0.16666666666666666,0.0,0.0,0.0,0.0,0.0,20,common\src\main\java\org\apache\syncope\common\to\SyncPolicyTO.java,0,0,0,0
org.apache.syncope.common.to.SyncTaskTO, 0, 0, 0, 0, 0, 0, 0, 0, 0, 0, 0, 0, 0, 0,0.0,0.0,0.0,0.375,0.0,0.0,0.0,0.75,0.0,0.0,0.0,0.0,0.0,24,common\src\main\java\org\apache\syncope\common\to\SyncTaskTO.java,0,0,0,0
org.apache.syncope.common.to.TaskExecTO, 0, 0, 0, 0, 0, 0, 0, 0, 0, 0, 0, 0, 0, 0,0.0,0.0,0.0,0.25,0.0,0.0,0.0,0.75,0.0,0.0,0.0,0.0,0.0,10,common\src\main\java\org\apache\syncope\common\to\TaskExecTO.java,0,0,0,0
org.apache.syncope.common.to.VirSchemaTO, 0, 0, 0, 0, 0, 0, 0, 0, 0, 0, 0, 0, 0, 0,0.0,0.0,0.0,0.0,0.0,0.0,0.0,0.75,0.0,0.0,0.0,0.0,0.0,10,common\src\main\java\org\apache\syncope\common\to\VirSchemaTO.java,0,0,0,0
org.apache.syncope.common.types.AbstractPolicySpec, 0, 0, 0, 0, 0, 0, 0, 0, 0, 0, 0, 0, 0, 0,0.0,0.0,0.0,0.4,0.0,0.0,0.0,0.2,0.0,0.0,0.0,0.0,0.0,3,common\src\main\java\org\apache\syncope\common\types\AbstractPolicySpec.java,0,0,0,0
org.apache.syncope.common.types.AccountPolicySpec, 0, 0, 0, 1, 0, 0, 0, 0, 0, 0, 0, 0, 0, 1,0.0,0.0,0.0,0.0,0.0,0.0,0.0,0.16666666666666666,0.0,0.0,0.0,0.0,0.0,93,common\src\main\java\org\apache\syncope\common\types\AccountPolicySpec.java,0,0,0,0
org.apache.syncope.common.types.AuditElements, 0, 0, 0, 0, 0, 0, 0, 0, 0, 0, 0, 0, 0, 0,0.0,0.0,0.0,0.0,0.0,0.0,0.0,0.0,0.0,0.0,0.0,0.0,0.0,27,common\src\main\java\org\apache\syncope\common\types\AuditElements.java,0,0,0,0
org.apache.syncope.common.types.ConnConfPropSchema, 0, 0, 0, 1, 0, 0, 0, 0, 0, 0, 0, 0, 0, 1,0.0,0.0,0.0,0.1111111111111111,0.0,0.0,0.0,0.3333333333333333,0.0,0.0,0.0,0.0,0.0,69,common\src\main\java\org\apache\syncope\common\types\ConnConfPropSchema.java,0,0,0,0
org.apache.syncope.common.types.ConnConfProperty, 0, 0, 0, 0, 0, 0, 0, 0, 0, 0, 0, 0, 0, 0,0.0,0.0,0.0,0.2222222222222222,0.0,0.0,0.0,0.3333333333333333,0.0,0.0,0.0,0.0,0.0,28,common\src\main\java\org\apache\syncope\common\types\ConnConfProperty.java,0,0,0,0
org.apache.syncope.common.types.PasswordPolicySpec, 0, 0, 0, 1, 0, 0, 0, 0, 0, 0, 0, 0, 0, 1,0.0,0.0,0.0,0.0,0.0,0.0,0.0,0.0,0.0,0.0,0.0,0.0,0.0,191,common\src\main\java\org\apache\syncope\common\types\PasswordPolicySpec.java,0,0,0,0
org.apache.syncope.common.types.RESTHeaders, 0, 0, 0, 0, 0, 0, 0, 0, 0, 0, 0, 0, 0, 0,0.0,0.0,0.0,0.0,0.0,0.0,0.0,0.0,0.0,0.0,0.0,0.0,0.0,17,common\src\main\java\org\apache\syncope\common\types\RESTHeaders.java,0,0,0,0
org.apache.syncope.common.types.SyncPolicySpec, 0, 0, 0, 0, 0, 0, 0, 0, 0, 0, 0, 0, 0, 0,0.0,0.0,0.0,0.2,0.0,0.0,0.0,0.2,0.0,0.0,0.0,0.0,0.0,44,common\src\main\java\org\apache\syncope\common\types\SyncPolicySpec.java,0,0,0,0
org.apache.syncope.common.types.WorkflowTasks, 0, 0, 0, 0, 0, 0, 0, 0, 0, 0, 0, 0, 0, 0,0.0,0.0,0.0,0.0,0.0,0.0,0.0,0.0,0.0,0.0,0.0,0.0,0.0,16,common\src\main\java\org\apache\syncope\common\types\WorkflowTasks.java,0,0,0,0
org.apache.syncope.common.util.CollectionWrapper, 0, 0, 0, 0, 0, 0, 0, 0, 0, 0, 0, 0, 0, 0,0.0,0.0,0.0,0.0,0.0,0.0,0.0,0.46153846153846156,0.0,0.0,0.0,0.0,0.0,42,common\src\main\java\org\apache\syncope\common\util\CollectionWrapper.java,0,0,0,0
org.apache.syncope.common.wrap.AbstractWrappable, 0, 0, 0, 0, 0, 0, 0, 0, 0, 0, 0, 0, 0, 0,0.0,0.0,0.0,0.0,0.0,0.0,0.0,0.23529411764705882,0.0,0.0,0.0,0.0,0.0,19,common\src\main\java\org\apache\syncope\common\wrap\AbstractWrappable.java,0,0,0,0
org.apache.syncope.common.wrap.CorrelationRuleClass, 0, 0, 0, 0, 0, 0, 0, 0, 0, 0, 0, 0, 0, 0,0.0,0.0,0.0,0.0,0.0,0.0,0.0,0.0,0.0,0.0,0.0,0.0,0.0,3,common\src\main\java\org\apache\syncope\common\wrap\CorrelationRuleClass.java,0,0,0,0
org.apache.syncope.common.wrap.EntitlementTO, 0, 0, 0, 0, 0, 0, 0, 0, 0, 0, 0, 0, 0, 0,0.0,0.0,0.0,0.0,0.0,0.0,0.0,0.0,0.0,0.0,0.0,0.0,0.0,3,common\src\main\java\org\apache\syncope\common\wrap\EntitlementTO.java,0,0,0,0
org.apache.syncope.common.wrap.JobClass, 0, 0, 0, 0, 0, 0, 0, 0, 0, 0, 0, 0, 0, 0,0.0,0.0,0.0,0.0,0.0,0.0,0.0,0.0,0.0,0.0,0.0,0.0,0.0,3,common\src\main\java\org\apache\syncope\common\wrap\JobClass.java,0,0,0,0
org.apache.syncope.common.wrap.MailTemplate, 0, 0, 0, 0, 0, 0, 0, 0, 0, 0, 0, 0, 0, 0,0.0,0.0,0.0,0.0,0.0,0.0,0.0,0.0,0.0,0.0,0.0,0.0,0.0,3,common\src\main\java\org\apache\syncope\common\wrap\MailTemplate.java,0,0,0,0
org.apache.syncope.common.wrap.PropagationActionClass, 0, 0, 0, 0, 0, 0, 0, 0, 0, 0, 0, 0, 0, 0,0.0,0.0,0.0,0.0,0.0,0.0,0.0,0.0,0.0,0.0,0.0,0.0,0.0,3,common\src\main\java\org\apache\syncope\common\wrap\PropagationActionClass.java,0,0,0,0
org.apache.syncope.common.wrap.PushActionClass, 0, 0, 0, 0, 0, 0, 0, 0, 0, 0, 0, 0, 0, 0,0.0,0.0,0.0,0.0,0.0,0.0,0.0,0.0,0.0,0.0,0.0,0.0,0.0,3,common\src\main\java\org\apache\syncope\common\wrap\PushActionClass.java,0,0,0,0
org.apache.syncope.common.wrap.ReportletConfClass, 0, 0, 0, 0, 0, 0, 0, 0, 0, 0, 0, 0, 0, 0,0.0,0.0,0.0,0.0,0.0,0.0,0.0,0.0,0.0,0.0,0.0,0.0,0.0,3,common\src\main\java\org\apache\syncope\common\wrap\ReportletConfClass.java,0,0,0,0
org.apache.syncope.common.wrap.ResourceName, 0, 0, 0, 0, 0, 0, 0, 0, 0, 0, 0, 0, 0, 0,0.0,0.0,0.0,0.0,0.0,0.0,0.0,0.0,0.0,0.0,0.0,0.0,0.0,3,common\src\main\java\org\apache\syncope\common\wrap\ResourceName.java,0,0,0,0
org.apache.syncope.common.wrap.SubjectId, 0, 0, 0, 0, 0, 0, 0, 0, 0, 0, 0, 0, 0, 0,0.0,0.0,0.0,0.0,0.0,0.0,0.0,0.0,0.0,0.0,0.0,0.0,0.0,3,common\src\main\java\org\apache\syncope\common\wrap\SubjectId.java,0,0,0,0
org.apache.syncope.common.wrap.SyncActionClass, 0, 0, 0, 0, 0, 0, 0, 0, 0, 0, 0, 0, 0, 0,0.0,0.0,0.0,0.0,0.0,0.0,0.0,0.0,0.0,0.0,0.0,0.0,0.0,3,common\src\main\java\org\apache\syncope\common\wrap\SyncActionClass.java,0,0,0,0
org.apache.syncope.common.wrap.Validator, 0, 0, 0, 0, 0, 0, 0, 0, 0, 0, 0, 0, 0, 0,0.0,0.0,0.0,0.0,0.0,0.0,0.0,0.0,0.0,0.0,0.0,0.0,0.0,3,common\src\main\java\org\apache\syncope\common\wrap\Validator.java,0,0,0,0
org.apache.syncope.console.AbstractTest, 0, 0, 0, 0, 0, 0, 0, 0, 0, 0, 0, 0, 0, 0,0.0,0.0,0.0,0.0,0.0,0.0,0.0,0.0,0.0,0.0,0.0,0.0,0.0,30,console\src\test\java\org\apache\syncope\console\AbstractTest.java,0,0,0,0
org.apache.syncope.console.AccessTestITCase, 0, 0, 0, 0, 0, 0, 0, 0, 0, 0, 0, 0, 0, 0,0.0,0.0,0.0,0.0,0.0,0.0,0.0,0.0,0.0,0.0,0.0,0.0,0.0,39,console\src\test\java\org\apache\syncope\console\AccessTestITCase.java,0,0,0,0
org.apache.syncope.console.ConfigurationTestITCase, 0, 0, 0, 0, 0, 0, 0, 0, 0, 0, 0, 0, 0, 0,0.0,0.0,0.0,0.0,0.0,0.0,0.0,0.0,0.0,0.0,0.0,0.0,0.0,258,console\src\test\java\org\apache\syncope\console\ConfigurationTestITCase.java,0,0,0,0
org.apache.syncope.console.ConnInstanceTestITCase, 0, 0, 0, 0, 0, 0, 0, 0, 0, 0, 0, 0, 0, 0,0.0,0.0,0.0,0.0,0.0,0.0,0.0,0.0,0.0,0.0,0.0,0.0,0.0,133,console\src\test\java\org\apache\syncope\console\ConnInstanceTestITCase.java,0,0,0,0
org.apache.syncope.console.EditProfileTestITCase, 0, 0, 0, 0, 0, 0, 0, 0, 0, 0, 0, 0, 0, 0,0.0,0.0,0.0,0.0,0.0,0.0,0.0,0.0,0.0,0.0,0.0,0.0,0.0,47,console\src\test\java\org\apache\syncope\console\EditProfileTestITCase.java,1,0,0,1
org.apache.syncope.console.ReportTestITCase, 0, 0, 0, 0, 0, 0, 0, 0, 0, 0, 0, 0, 0, 0,0.0,0.0,0.0,0.0,0.0,0.0,0.0,0.0,0.0,0.0,0.0,0.0,0.0,62,console\src\test\java\org\apache\syncope\console\ReportTestITCase.java,0,0,0,0
org.apache.syncope.console.ResourceTestITCase, 0, 0, 0, 0, 0, 0, 0, 0, 0, 0, 0, 0, 0, 0,0.0,0.0,0.0,0.0,0.0,0.0,0.0,0.0,0.0,0.0,0.0,0.0,0.0,76,console\src\test\java\org\apache\syncope\console\ResourceTestITCase.java,0,0,0,0
org.apache.syncope.console.RoleTestITCase, 0, 0, 0, 0, 0, 0, 0, 0, 0, 0, 0, 0, 0, 0,0.0,0.0,0.0,0.0,0.0,0.0,0.0,0.0,0.0,0.0,0.0,0.0,0.0,119,console\src\test\java\org\apache\syncope\console\RoleTestITCase.java,0,0,0,0
org.apache.syncope.console.SchemaTestITCase, 0, 0, 0, 0, 0, 0, 0, 0, 0, 0, 0, 0, 0, 0,0.0,0.0,0.0,0.0,0.0,0.0,0.0,0.0,0.0,0.0,0.0,0.0,0.0,30,console\src\test\java\org\apache\syncope\console\SchemaTestITCase.java,0,0,0,0
org.apache.syncope.console.SyncopeApplication, 0, 0, 0, 0, 0, 0, 0, 1, 0, 0, 0, 0, 0, 1,0.0,0.0,0.0,0.0,0.0,0.0,0.0,0.0,0.0,0.0,0.0,0.0,0.0,182,console\src\main\java\org\apache\syncope\console\SyncopeApplication.java,0,0,0,0
org.apache.syncope.console.SyncopeRequestCycleListener, 0, 0, 0, 0, 0, 0, 0, 0, 0, 0, 0, 0, 0, 0,0.0,0.0,0.0,0.0,0.0,0.0,0.0,0.0,0.0,0.0,0.0,0.0,0.0,28,console\src\main\java\org\apache\syncope\console\SyncopeRequestCycleListener.java,0,0,0,0
org.apache.syncope.console.TaskTestITCase, 0, 0, 0, 0, 0, 0, 0, 0, 0, 0, 0, 0, 0, 0,0.0,0.0,0.0,0.0,0.0,0.0,0.0,0.0,0.0,0.0,0.0,0.0,0.0,59,console\src\test\java\org\apache\syncope\console\TaskTestITCase.java,0,0,0,0
org.apache.syncope.console.UserTestITCase, 0, 0, 0, 0, 0, 0, 0, 0, 0, 0, 0, 0, 0, 0,0.0,0.0,0.0,0.0,0.0,0.0,0.0,0.0,0.0,0.0,0.0,0.0,0.0,104,console\src\test\java\org\apache\syncope\console\UserTestITCase.java,0,0,0,0
org.apache.syncope.console.commons.ActionTableCheckGroup, 0, 0, 0, 0, 0, 0, 0, 0, 0, 0, 0, 0, 0, 0,0.0,0.0,0.0,0.0,0.0,0.0,0.0,1.0,0.0,0.0,0.0,0.0,0.0,12,console\src\main\java\org\apache\syncope\console\commons\ActionTableCheckGroup.java,0,0,0,0
org.apache.syncope.console.commons.ConnIdAttribute, 0, 0, 0, 0, 0, 0, 0, 0, 0, 0, 0, 0, 0, 0,0.0,0.0,0.0,0.0,0.0,0.0,0.0,0.0,0.0,0.0,0.0,0.0,0.0,8,console\src\main\java\org\apache\syncope\console\commons\ConnIdAttribute.java,0,0,0,0
org.apache.syncope.console.commons.ConnIdSpecialAttributeName, 0, 0, 0, 0, 0, 0, 0, 0, 0, 0, 0, 0, 0, 0,0.0,0.0,0.0,0.0,0.0,0.0,0.0,0.0,0.0,0.0,0.0,0.0,0.0,8,console\src\main\java\org\apache\syncope\console\commons\ConnIdSpecialAttributeName.java,0,0,0,0
org.apache.syncope.console.commons.Constants, 0, 0, 0, 1, 0, 0, 0, 0, 0, 0, 0, 0, 0, 1,0.0,0.0,0.0,0.0,0.0,0.0,0.0,0.0,0.0,0.0,0.0,0.0,0.0,43,console\src\main\java\org\apache\syncope\console\commons\Constants.java,0,0,0,0
org.apache.syncope.console.commons.DateFormatROModel, 0, 0, 0, 0, 0, 0, 0, 0, 0, 0, 0, 0, 0, 0,0.0,0.0,0.0,0.0,0.0,0.0,0.0,1.0,0.0,0.0,0.0,0.0,0.0,18,console\src\main\java\org\apache\syncope\console\commons\DateFormatROModel.java,0,0,0,0
org.apache.syncope.console.commons.HttpResourceStream, 0, 0, 0, 0, 0, 0, 0, 0, 0, 0, 0, 0, 0, 0,0.0,0.0,0.0,0.0,0.0,0.0,0.0,0.0,0.0,0.0,0.0,0.0,0.0,53,console\src\main\java\org\apache\syncope\console\commons\HttpResourceStream.java,0,0,0,0
org.apache.syncope.console.commons.JexlHelpUtil, 0, 0, 0, 0, 0, 0, 0, 0, 0, 0, 0, 0, 0, 0,0.0,0.0,0.0,0.0,0.0,0.0,0.0,1.0,0.0,0.0,0.0,0.0,0.0,26,console\src\main\java\org\apache\syncope\console\commons\JexlHelpUtil.java,0,0,0,0
org.apache.syncope.console.commons.RoleUtils, 0, 0, 0, 0, 0, 0, 0, 0, 0, 0, 0, 0, 0, 0,0.0,0.0,0.0,1.0,0.0,0.0,0.0,0.0,0.0,0.0,0.0,0.0,0.0,13,console\src\main\java\org\apache\syncope\console\commons\RoleUtils.java,0,0,0,0
org.apache.syncope.console.commons.SchemaModalPageFactory, 0, 0, 0, 0, 0, 0, 0, 0, 0, 0, 0, 0, 0, 0,0.0,0.0,0.0,0.0,0.0,0.0,0.0,1.0,0.0,0.0,0.0,0.0,0.0,22,console\src\main\java\org\apache\syncope\console\commons\SchemaModalPageFactory.java,0,0,0,0
org.apache.syncope.console.commons.SelectChoiceRenderer, 0, 0, 0, 0, 0, 0, 0, 0, 0, 0, 0, 0, 0, 0,0.0,0.0,0.0,0.0,0.0,0.0,0.0,0.0,0.0,0.0,0.0,0.0,0.0,15,console\src\main\java\org\apache\syncope\console\commons\SelectChoiceRenderer.java,0,0,0,0
org.apache.syncope.console.commons.SelectOption, 0, 0, 0, 0, 0, 0, 0, 0, 0, 0, 0, 0, 0, 0,0.0,0.0,0.0,0.0,0.0,0.0,0.0,0.0,0.0,0.0,0.0,0.0,0.0,37,console\src\main\java\org\apache\syncope\console\commons\SelectOption.java,0,0,0,0
org.apache.syncope.console.commons.status.ConnObjectWrapper, 0, 0, 0, 0, 0, 0, 0, 1, 0, 0, 0, 0, 0, 1,0.0,0.0,0.0,0.0,0.0,0.0,0.0,1.0,0.0,0.0,0.0,0.0,0.0,21,console\src\main\java\org\apache\syncope\console\commons\status\ConnObjectWrapper.java,0,0,0,0
org.apache.syncope.console.commons.status.StatusBean, 0, 0, 0, 0, 0, 0, 0, 0, 0, 0, 0, 0, 0, 0,0.0,0.0,0.0,0.5,0.0,0.0,0.0,0.5,0.0,0.0,0.0,0.0,0.0,54,console\src\main\java\org\apache\syncope\console\commons\status\StatusBean.java,0,0,0,0
org.apache.syncope.console.init.SpringContextInitializer, 0, 0, 0, 0, 0, 0, 0, 0, 0, 0, 0, 0, 0, 0,0.0,0.0,0.0,0.0,0.0,0.0,0.0,0.0,0.0,0.0,0.0,0.0,0.0,11,console\src\main\java\org\apache\syncope\console\init\SpringContextInitializer.java,0,0,0,0
org.apache.syncope.console.markup.html.list.AltListView, 0, 0, 0, 0, 0, 0, 0, 0, 0, 0, 0, 0, 0, 0,0.0,0.0,0.0,0.0,0.0,0.0,0.0,1.0,0.0,0.0,0.0,0.0,0.0,25,console\src\main\java\org\apache\syncope\console\markup\html\list\AltListView.java,0,0,0,0
org.apache.syncope.console.markup.html.list.ConnConfPropertyListView, 0, 0, 0, 0, 0, 0, 0, 1, 0, 0, 0, 0, 0, 1,0.0,0.0,0.0,0.14285714285714285,0.0,0.0,0.0,0.42857142857142855,0.0,0.0,0.0,0.0,0.0,86,console\src\main\java\org\apache\syncope\console\markup\html\list\ConnConfPropertyListView.java,0,0,0,0
org.apache.syncope.console.pages.AbstractBasePage, 0, 0, 0, 1, 0, 0, 0, 0, 0, 0, 0, 0, 0, 1,0.0,0.0,0.0,0.06666666666666667,0.0,0.0,0.0,0.6666666666666666,0.0,0.0,0.0,0.0,0.0,56,console\src\main\java\org\apache\syncope\console\pages\AbstractBasePage.java,0,0,0,0
org.apache.syncope.console.pages.AbstractSchedTaskModalPage, 0, 0, 0, 0, 0, 0, 0, 1, 0, 0, 0, 0, 0, 1,0.0,0.0,0.0,0.0,0.0,0.0,0.0,0.4,0.0,0.0,0.0,0.0,0.0,68,console\src\main\java\org\apache\syncope\console\pages\AbstractSchedTaskModalPage.java,0,0,0,0
org.apache.syncope.console.pages.AbstractSchemaModalPage, 0, 0, 0, 0, 0, 0, 0, 1, 0, 0, 0, 0, 0, 1,0.0,0.0,0.0,0.0,0.0,0.0,0.0,0.6666666666666666,0.0,0.0,0.0,0.0,0.0,12,console\src\main\java\org\apache\syncope\console\pages\AbstractSchemaModalPage.java,0,0,0,0
org.apache.syncope.console.pages.AbstractStatusModalPage, 0, 0, 0, 0, 0, 0, 0, 0, 0, 0, 0, 0, 0, 0,0.0,0.0,0.0,0.0,0.0,0.0,0.0,0.5,0.0,0.0,0.0,0.0,0.0,6,console\src\main\java\org\apache\syncope\console\pages\AbstractStatusModalPage.java,0,0,0,0
org.apache.syncope.console.pages.ActivitiModelerPopupPage, 0, 0, 0, 0, 0, 0, 0, 0, 0, 0, 0, 0, 0, 0,0.0,0.0,0.0,0.0,0.0,0.0,0.0,0.0,0.0,0.0,0.0,0.0,0.0,3,console\src\main\java\org\apache\syncope\console\pages\ActivitiModelerPopupPage.java,0,0,0,0
org.apache.syncope.console.pages.BaseModalPage, 0, 0, 0, 0, 0, 0, 0, 0, 0, 0, 0, 0, 0, 0,0.0,0.0,0.0,0.047619047619047616,0.0,0.0,0.0,0.6190476190476191,0.0,0.0,0.0,0.0,0.0,7,console\src\main\java\org\apache\syncope\console\pages\BaseModalPage.java,0,0,0,0
org.apache.syncope.console.pages.BasePage, 0, 0, 0, 0, 0, 0, 0, 0, 0, 0, 0, 0, 0, 0,0.0,0.0,0.0,0.14285714285714285,0.0,0.0,0.0,0.42857142857142855,0.0,0.0,0.0,0.0,0.0,53,console\src\main\java\org\apache\syncope\console\pages\BasePage.java,0,0,0,0
org.apache.syncope.console.pages.BasePopupPage, 0, 0, 0, 0, 0, 0, 0, 0, 0, 0, 0, 0, 0, 0,0.0,0.0,0.0,0.5,0.0,0.0,0.0,0.0,0.0,0.0,0.0,0.0,0.0,3,console\src\main\java\org\apache\syncope\console\pages\BasePopupPage.java,0,0,0,0
org.apache.syncope.console.pages.BulkActionModalPage, 0, 0, 0, 0, 0, 0, 0, 1, 0, 0, 0, 0, 0, 1,0.0,0.0,0.0,0.0,0.0,0.0,0.0,0.25,0.0,0.0,0.0,0.0,0.0,97,console\src\main\java\org\apache\syncope\console\pages\BulkActionModalPage.java,0,0,0,0
org.apache.syncope.console.pages.BulkActionResultModalPage, 0, 0, 0, 0, 0, 0, 0, 1, 0, 0, 0, 0, 0, 1,0.0,0.0,0.0,0.0,0.0,0.0,0.0,0.6666666666666666,0.0,0.0,0.0,0.0,0.0,41,console\src\main\java\org\apache\syncope\console\pages\BulkActionResultModalPage.java,0,0,0,0
org.apache.syncope.console.pages.ConfModalPage, 0, 0, 0, 0, 0, 0, 0, 1, 0, 0, 0, 0, 0, 1,0.0,0.0,0.0,0.0,0.0,0.0,0.0,0.0,0.0,0.0,0.0,0.0,0.0,57,console\src\main\java\org\apache\syncope\console\pages\ConfModalPage.java,0,0,0,0
org.apache.syncope.console.pages.ConfirmPasswordResetModalPage, 0, 0, 0, 0, 0, 0, 0, 0, 0, 0, 0, 0, 0, 0,0.0,0.0,0.0,0.0,0.0,0.0,0.0,0.3333333333333333,0.0,0.0,0.0,0.0,0.0,51,console\src\main\java\org\apache\syncope\console\pages\ConfirmPasswordResetModalPage.java,0,0,0,0
org.apache.syncope.console.pages.DerSchemaModalPage, 0, 0, 0, 0, 0, 0, 0, 1, 0, 0, 0, 0, 0, 1,0.0,0.0,0.0,0.0,0.0,0.0,0.0,0.3333333333333333,0.0,0.0,0.0,0.0,0.0,69,console\src\main\java\org\apache\syncope\console\pages\DerSchemaModalPage.java,0,0,0,0
org.apache.syncope.console.pages.EditUserModalPage, 0, 0, 0, 0, 0, 0, 0, 1, 0, 0, 0, 0, 0, 1,0.0,0.0,0.0,0.0,0.0,0.0,0.0,0.5,0.0,0.0,0.0,0.0,0.0,44,console\src\main\java\org\apache\syncope\console\pages\EditUserModalPage.java,0,0,0,0
org.apache.syncope.console.pages.ErrorPage, 0, 0, 0, 0, 0, 0, 0, 0, 0, 0, 0, 0, 0, 0,0.0,0.0,0.0,0.0,0.0,0.0,0.0,0.0,0.0,0.0,0.0,0.0,0.0,9,console\src\main\java\org\apache\syncope\console\pages\ErrorPage.java,0,0,0,0
org.apache.syncope.console.pages.ExecMessageModalPage, 0, 0, 0, 0, 0, 0, 0, 0, 0, 0, 0, 0, 0, 0,0.0,0.0,0.0,0.0,0.0,0.0,0.0,0.0,0.0,0.0,0.0,0.0,0.0,7,console\src\main\java\org\apache\syncope\console\pages\ExecMessageModalPage.java,0,0,0,0
org.apache.syncope.console.pages.FailureMessageModalPage, 0, 0, 0, 0, 0, 0, 0, 0, 0, 0, 0, 0, 0, 0,0.0,0.0,0.0,0.0,0.0,0.0,0.0,0.0,0.0,0.0,0.0,0.0,0.0,12,console\src\main\java\org\apache\syncope\console\pages\FailureMessageModalPage.java,0,0,0,0
org.apache.syncope.console.pages.HomePage, 0, 0, 0, 0, 0, 0, 0, 0, 0, 0, 0, 0, 0, 0,0.0,0.0,0.0,0.0,0.0,0.0,0.0,0.0,0.0,0.0,0.0,0.0,0.0,6,console\src\main\java\org\apache\syncope\console\pages\HomePage.java,0,0,0,0
org.apache.syncope.console.pages.InfoModalPage, 0, 0, 0, 0, 0, 0, 0, 0, 0, 0, 0, 0, 0, 0,0.0,0.0,0.0,0.0,0.0,0.0,0.0,0.0,0.0,0.0,0.0,0.0,0.0,13,console\src\main\java\org\apache\syncope\console\pages\InfoModalPage.java,0,0,0,0
org.apache.syncope.console.pages.Login, 0, 0, 0, 0, 0, 0, 0, 0, 0, 0, 0, 0, 0, 0,0.0,0.0,0.0,0.0,0.0,0.0,0.0,0.25,0.0,0.0,0.0,0.0,0.0,213,console\src\main\java\org\apache\syncope\console\pages\Login.java,0,0,0,0
org.apache.syncope.console.pages.Logout, 0, 0, 0, 0, 0, 0, 0, 0, 0, 0, 0, 0, 0, 0,0.0,0.0,0.0,0.0,0.0,0.0,0.0,0.0,0.0,0.0,0.0,0.0,0.0,8,console\src\main\java\org\apache\syncope\console\pages\Logout.java,0,0,0,0
org.apache.syncope.console.pages.MembershipModalPage, 0, 0, 0, 0, 0, 0, 0, 1, 0, 0, 0, 0, 0, 1,0.0,0.0,0.0,0.0,0.0,0.0,0.0,0.25,0.0,0.0,0.0,0.0,0.0,44,console\src\main\java\org\apache\syncope\console\pages\MembershipModalPage.java,0,0,0,0
org.apache.syncope.console.pages.NotificationModalPage, 0, 0, 0, 0, 0, 0, 0, 1, 0, 0, 0, 0, 0, 1,0.0,0.0,0.0,0.1111111111111111,0.0,0.0,0.0,0.4444444444444444,0.0,0.0,0.0,0.0,0.0,304,console\src\main\java\org\apache\syncope\console\pages\NotificationModalPage.java,0,0,0,0
org.apache.syncope.console.pages.NotificationTaskModalPage, 0, 0, 0, 0, 0, 0, 0, 0, 0, 0, 0, 0, 0, 0,0.0,0.0,0.0,0.0,0.0,0.0,0.0,0.3333333333333333,0.0,0.0,0.0,0.0,0.0,33,console\src\main\java\org\apache\syncope\console\pages\NotificationTaskModalPage.java,0,0,0,0
org.apache.syncope.console.pages.PolicyModalPage, 0, 0, 0, 0, 0, 0, 0, 1, 0, 0, 0, 0, 0, 1,0.0,0.0,0.0,0.07692307692307693,0.0,0.0,0.0,0.3076923076923077,0.0,0.0,0.0,0.0,0.0,294,console\src\main\java\org\apache\syncope\console\pages\PolicyModalPage.java,0,0,0,0
org.apache.syncope.console.pages.PropagationTaskModalPage, 0, 0, 0, 0, 0, 0, 0, 0, 0, 0, 0, 0, 0, 0,0.0,0.0,0.0,0.0,0.0,0.0,0.0,0.5,0.0,0.0,0.0,0.0,0.0,14,console\src\main\java\org\apache\syncope\console\pages\PropagationTaskModalPage.java,0,0,0,0
org.apache.syncope.console.pages.PushTaskModalPage, 0, 0, 0, 0, 0, 0, 0, 1, 0, 0, 0, 0, 0, 1,0.0,0.0,0.0,0.14285714285714285,0.0,0.0,0.0,0.14285714285714285,0.0,0.0,0.0,0.0,0.0,66,console\src\main\java\org\apache\syncope\console\pages\PushTaskModalPage.java,0,0,0,0
org.apache.syncope.console.pages.ReportExecResultDownloadModalPage, 0, 0, 0, 0, 0, 0, 0, 0, 0, 0, 0, 0, 0, 0,0.0,0.0,0.0,0.0,0.0,0.0,0.0,0.3333333333333333,0.0,0.0,0.0,0.0,0.0,30,console\src\main\java\org\apache\syncope\console\pages\ReportExecResultDownloadModalPage.java,0,0,0,0
org.apache.syncope.console.pages.RequestPasswordResetModalPage, 0, 0, 0, 0, 0, 0, 0, 0, 0, 0, 0, 0, 0, 0,0.0,0.0,0.0,0.0,0.0,0.0,0.0,0.2,0.0,0.0,0.0,0.0,0.0,94,console\src\main\java\org\apache\syncope\console\pages\RequestPasswordResetModalPage.java,0,0,0,0
org.apache.syncope.console.pages.ResourceModalPage, 0, 0, 0, 0, 0, 0, 0, 1, 0, 0, 0, 0, 0, 1,0.0,0.0,0.0,0.2,0.0,0.0,0.0,0.4,0.0,0.0,0.0,0.0,0.0,108,console\src\main\java\org\apache\syncope\console\pages\ResourceModalPage.java,0,0,0,0
org.apache.syncope.console.pages.RoleModalPage, 0, 0, 0, 0, 0, 0, 0, 1, 0, 0, 0, 0, 0, 1,0.0,0.0,0.0,0.3333333333333333,0.0,0.0,0.0,0.3333333333333333,0.0,0.0,0.0,0.0,0.0,87,console\src\main\java\org\apache\syncope\console\pages\RoleModalPage.java,0,0,0,0
org.apache.syncope.console.pages.RoleSelectModalPage, 0, 0, 0, 0, 0, 0, 0, 1, 0, 0, 0, 0, 0, 1,0.0,0.0,0.0,0.0,0.0,0.0,0.0,0.0,0.0,0.0,0.0,0.0,0.0,46,console\src\main\java\org\apache\syncope\console\pages\RoleSelectModalPage.java,0,0,0,0
org.apache.syncope.console.pages.RoleTemplateModalPage, 0, 0, 0, 0, 0, 0, 0, 1, 0, 0, 0, 0, 0, 1,0.0,0.0,0.0,0.0,0.0,0.0,0.0,0.6666666666666666,0.0,0.0,0.0,0.0,0.0,16,console\src\main\java\org\apache\syncope\console\pages\RoleTemplateModalPage.java,0,0,0,0
org.apache.syncope.console.pages.Roles, 0, 0, 0, 0, 0, 0, 0, 1, 0, 0, 0, 0, 0, 1,0.0,0.0,0.0,0.2,0.0,0.0,0.0,0.6,0.0,0.0,0.0,0.0,0.0,103,console\src\main\java\org\apache\syncope\console\pages\Roles.java,0,0,0,0
org.apache.syncope.console.pages.SchedTaskModalPage, 0, 0, 0, 0, 0, 0, 0, 1, 0, 0, 0, 0, 0, 1,0.0,0.0,0.0,0.0,0.0,0.0,0.0,0.5,0.0,0.0,0.0,0.0,0.0,28,console\src\main\java\org\apache\syncope\console\pages\SchedTaskModalPage.java,0,0,0,0
org.apache.syncope.console.pages.SecurityQuestionModalPage, 0, 0, 0, 0, 0, 0, 0, 1, 0, 0, 0, 0, 0, 1,0.0,0.0,0.0,0.0,0.0,0.0,0.0,0.2,0.0,0.0,0.0,0.0,0.0,54,console\src\main\java\org\apache\syncope\console\pages\SecurityQuestionModalPage.java,1,0,0,1
org.apache.syncope.console.pages.StatusModalPage, 0, 0, 0, 0, 0, 0, 0, 1, 0, 0, 0, 0, 0, 1,0.0,0.0,0.0,0.0,0.0,0.0,0.0,0.4444444444444444,0.0,0.0,0.0,0.0,0.0,452,console\src\main\java\org\apache\syncope\console\pages\StatusModalPage.java,0,0,0,0
org.apache.syncope.console.pages.SyncTaskModalPage, 0, 0, 0, 0, 0, 0, 0, 1, 0, 0, 0, 0, 0, 1,0.0,0.0,0.0,0.2,0.0,0.0,0.0,0.2,0.0,0.0,0.0,0.0,0.0,29,console\src\main\java\org\apache\syncope\console\pages\SyncTaskModalPage.java,0,0,0,0
org.apache.syncope.console.pages.UserModalPage, 0, 0, 0, 0, 0, 0, 0, 1, 0, 0, 0, 0, 0, 1,0.0,0.0,0.0,0.0,0.0,0.0,0.0,0.875,0.0,0.0,0.0,0.0,0.0,109,console\src\main\java\org\apache\syncope\console\pages\UserModalPage.java,0,0,0,0
org.apache.syncope.console.pages.UserOwnerSelectModalPage, 0, 0, 0, 0, 0, 0, 0, 1, 0, 0, 0, 0, 0, 1,0.0,0.0,0.0,0.3333333333333333,0.0,0.0,0.0,0.6666666666666666,0.0,0.0,0.0,0.0,0.0,35,console\src\main\java\org\apache\syncope\console\pages\UserOwnerSelectModalPage.java,0,0,0,0
org.apache.syncope.console.pages.UserSelfModalPage, 0, 0, 0, 0, 0, 0, 0, 1, 0, 0, 0, 0, 0, 1,0.0,0.0,0.0,0.0,0.0,0.0,0.0,0.25,0.0,0.0,0.0,0.0,0.0,27,console\src\main\java\org\apache\syncope\console\pages\UserSelfModalPage.java,0,0,0,0
org.apache.syncope.console.pages.UserTemplateModalPage, 0, 0, 0, 0, 0, 0, 0, 1, 0, 0, 0, 0, 0, 1,0.0,0.0,0.0,0.0,0.0,0.0,0.0,0.6666666666666666,0.0,0.0,0.0,0.0,0.0,21,console\src\main\java\org\apache\syncope\console\pages\UserTemplateModalPage.java,0,0,0,0
org.apache.syncope.console.pages.Users, 0, 0, 0, 0, 0, 0, 0, 1, 0, 0, 0, 0, 0, 1,0.0,0.0,0.0,0.25,0.0,0.0,0.0,0.75,0.0,0.0,0.0,0.0,0.0,87,console\src\main\java\org\apache\syncope\console\pages\Users.java,0,0,0,0
org.apache.syncope.console.pages.ViewUserModalPage, 0, 0, 0, 0, 0, 0, 0, 1, 0, 0, 0, 0, 0, 1,0.0,0.0,0.0,0.0,0.0,0.0,0.0,1.0,0.0,0.0,0.0,0.0,0.0,17,console\src\main\java\org\apache\syncope\console\pages\ViewUserModalPage.java,0,0,0,0
org.apache.syncope.console.pages.VirSchemaModalPage, 0, 0, 0, 0, 0, 0, 0, 1, 0, 0, 0, 0, 0, 1,0.0,0.0,0.0,0.0,0.0,0.0,0.0,0.4,0.0,0.0,0.0,0.0,0.0,63,console\src\main\java\org\apache\syncope\console\pages\VirSchemaModalPage.java,0,0,0,0
org.apache.syncope.console.pages.WelcomePage, 0, 0, 0, 0, 0, 0, 0, 0, 0, 0, 0, 0, 0, 0,0.0,0.0,0.0,0.0,0.0,0.0,0.0,0.5,0.0,0.0,0.0,0.0,0.0,18,console\src\main\java\org\apache\syncope\console\pages\WelcomePage.java,0,0,0,0
org.apache.syncope.console.pages.XMLEditorPopupPage, 0, 0, 0, 0, 0, 0, 0, 0, 0, 0, 0, 0, 0, 0,0.0,0.0,0.0,0.0,0.0,0.0,0.0,0.0,0.0,0.0,0.0,0.0,0.0,42,console\src\main\java\org\apache\syncope\console\pages\XMLEditorPopupPage.java,0,0,0,0
org.apache.syncope.console.pages.panels.AbstractSearchResultPanel, 0, 0, 0, 1, 0, 0, 0, 1, 0, 0, 0, 0, 0, 2,0.0,0.0,0.0,0.1,0.0,0.0,0.0,0.8,0.0,0.0,0.0,0.0,0.0,162,console\src\main\java\org\apache\syncope\console\pages\panels\AbstractSearchResultPanel.java,0,0,0,0
org.apache.syncope.console.pages.panels.AbstractSyncTasksPanel, 0, 0, 0, 0, 0, 0, 0, 1, 0, 0, 0, 0, 0, 1,0.0,0.0,0.0,0.0,0.0,0.0,0.0,0.25,0.0,0.0,0.0,0.0,0.0,79,console\src\main\java\org\apache\syncope\console\pages\panels\AbstractSyncTasksPanel.java,0,0,0,0
org.apache.syncope.console.pages.panels.AbstractTasks, 0, 0, 0, 0, 0, 0, 0, 0, 0, 0, 0, 0, 0, 0,0.0,0.0,0.0,0.0,0.0,0.0,0.0,0.4,0.0,0.0,0.0,0.0,0.0,18,console\src\main\java\org\apache\syncope\console\pages\panels\AbstractTasks.java,0,0,0,0
org.apache.syncope.console.pages.panels.AccountInformationPanel, 0, 0, 0, 0, 0, 0, 0, 0, 0, 0, 0, 0, 0, 0,0.0,0.0,0.0,0.0,0.0,0.0,0.0,0.5,0.0,0.0,0.0,0.0,0.0,19,console\src\main\java\org\apache\syncope\console\pages\panels\AccountInformationPanel.java,0,0,0,0
org.apache.syncope.console.pages.panels.ActionDataTablePanel, 0, 0, 0, 0, 0, 0, 0, 1, 0, 0, 0, 0, 0, 1,0.0,0.0,0.0,0.0,0.0,0.0,0.0,0.6666666666666666,0.0,0.0,0.0,0.0,0.0,74,console\src\main\java\org\apache\syncope\console\pages\panels\ActionDataTablePanel.java,0,0,0,0
org.apache.syncope.console.pages.panels.AjaxDataTablePanel, 0, 0, 0, 0, 0, 0, 0, 1, 0, 0, 0, 0, 0, 1,0.0,0.0,0.0,0.125,0.0,0.0,0.0,0.375,0.0,0.0,0.0,0.0,0.0,73,console\src\main\java\org\apache\syncope\console\pages\panels\AjaxDataTablePanel.java,0,0,0,0
org.apache.syncope.console.pages.panels.DataTablePanel, 0, 0, 0, 0, 0, 0, 0, 0, 0, 0, 0, 0, 0, 0,0.0,0.0,0.0,0.3333333333333333,0.0,0.0,0.0,1.0,0.0,0.0,0.0,0.0,0.0,54,console\src\main\java\org\apache\syncope\console\pages\panels\DataTablePanel.java,0,0,0,0
org.apache.syncope.console.pages.panels.ImagePanel, 0, 0, 0, 0, 0, 0, 0, 0, 0, 0, 0, 0, 0, 0,0.0,0.0,0.0,0.0,0.0,0.0,0.0,0.0,0.0,0.0,0.0,0.0,0.0,14,console\src\main\java\org\apache\syncope\console\pages\panels\ImagePanel.java,0,0,0,0
org.apache.syncope.console.pages.panels.JQueryUITabbedPanel, 0, 0, 0, 0, 0, 0, 0, 0, 0, 0, 0, 0, 0, 0,0.0,0.0,0.0,0.0,0.0,0.0,0.0,0.0,0.0,0.0,0.0,0.0,0.0,14,console\src\main\java\org\apache\syncope\console\pages\panels\JQueryUITabbedPanel.java,0,0,0,0
org.apache.syncope.console.pages.panels.LayoutsPanel, 0, 0, 0, 0, 0, 0, 0, 1, 0, 0, 0, 0, 0, 1,0.0,0.0,0.0,0.0,0.0,0.0,0.0,0.6,0.0,0.0,0.0,0.0,0.0,62,console\src\main\java\org\apache\syncope\console\pages\panels\LayoutsPanel.java,0,0,0,0
org.apache.syncope.console.pages.panels.MembershipsPanel, 0, 0, 0, 0, 0, 0, 0, 1, 0, 0, 0, 0, 0, 1,0.0,0.0,0.0,0.0,0.0,0.0,0.0,0.6666666666666666,0.0,0.0,0.0,0.0,0.0,149,console\src\main\java\org\apache\syncope\console\pages\panels\MembershipsPanel.java,0,0,0,0
org.apache.syncope.console.pages.panels.NotificationPanel, 0, 0, 0, 0, 0, 0, 0, 1, 0, 0, 0, 0, 0, 1,0.0,0.0,0.0,0.5,0.0,0.0,0.0,0.5,0.0,0.0,0.0,0.0,0.0,55,console\src\main\java\org\apache\syncope\console\pages\panels\NotificationPanel.java,0,0,0,0
org.apache.syncope.console.pages.panels.NotificationTasks, 0, 0, 0, 0, 0, 0, 0, 0, 0, 0, 0, 0, 0, 0,0.0,0.0,0.0,0.0,0.0,0.0,0.0,0.5,0.0,0.0,0.0,0.0,0.0,151,console\src\main\java\org\apache\syncope\console\pages\panels\NotificationTasks.java,0,0,0,0
org.apache.syncope.console.pages.panels.PropagationTasks, 0, 0, 0, 0, 0, 0, 0, 0, 0, 0, 0, 0, 0, 0,0.0,0.0,0.0,0.0,0.0,0.0,0.0,0.6666666666666666,0.0,0.0,0.0,0.0,0.0,158,console\src\main\java\org\apache\syncope\console\pages\panels\PropagationTasks.java,0,0,0,0
org.apache.syncope.console.pages.panels.PushTasksPanel, 0, 0, 0, 0, 0, 0, 0, 0, 0, 0, 0, 0, 0, 0,0.0,0.0,0.0,0.0,0.0,0.0,0.0,1.0,0.0,0.0,0.0,0.0,0.0,106,console\src\main\java\org\apache\syncope\console\pages\panels\PushTasksPanel.java,0,0,0,0
org.apache.syncope.console.pages.panels.ResourceDetailsPanel, 0, 0, 0, 0, 0, 0, 0, 1, 0, 0, 0, 0, 0, 1,0.0,0.0,0.0,0.2,0.0,0.0,0.0,0.6,0.0,0.0,0.0,0.0,0.0,177,console\src\main\java\org\apache\syncope\console\pages\panels\ResourceDetailsPanel.java,0,0,0,0
org.apache.syncope.console.pages.panels.RoleDetailsPanel, 0, 0, 0, 0, 0, 0, 0, 1, 0, 0, 0, 0, 0, 1,0.0,0.0,0.0,0.16666666666666666,0.0,0.0,0.0,0.5,0.0,0.0,0.0,0.0,0.0,296,console\src\main\java\org\apache\syncope\console\pages\panels\RoleDetailsPanel.java,0,0,0,0
org.apache.syncope.console.pages.panels.RoleSearchPanel, 0, 0, 0, 0, 0, 0, 0, 0, 0, 0, 0, 0, 0, 0,0.0,0.0,0.0,0.0,0.0,0.0,0.0,1.0,0.0,0.0,0.0,0.0,0.0,52,console\src\main\java\org\apache\syncope\console\pages\panels\RoleSearchPanel.java,0,0,0,0
org.apache.syncope.console.pages.panels.RoleSearchResultPanel, 0, 0, 0, 0, 0, 0, 0, 1, 0, 0, 0, 0, 0, 1,0.0,0.0,0.0,0.3333333333333333,0.0,0.0,0.0,1.0,0.0,0.0,0.0,0.0,0.0,93,console\src\main\java\org\apache\syncope\console\pages\panels\RoleSearchResultPanel.java,0,0,0,0
org.apache.syncope.console.pages.panels.RoleSummaryPanel, 0, 0, 0, 0, 0, 0, 0, 0, 0, 0, 0, 0, 0, 0,0.0,0.0,0.0,0.25,0.0,0.0,0.0,0.75,0.0,0.0,0.0,0.0,0.0,84,console\src\main\java\org\apache\syncope\console\pages\panels\RoleSummaryPanel.java,0,0,0,0
org.apache.syncope.console.pages.panels.RoleTabPanel, 0, 0, 0, 0, 0, 0, 0, 1, 0, 0, 0, 0, 0, 1,0.0,0.0,0.0,0.16666666666666666,0.0,0.0,0.0,0.6666666666666666,0.0,0.0,0.0,0.0,0.0,109,console\src\main\java\org\apache\syncope\console\pages\panels\RoleTabPanel.java,0,0,0,0
org.apache.syncope.console.pages.panels.SchedTasks, 0, 0, 0, 0, 0, 0, 0, 0, 0, 0, 0, 0, 0, 0,0.0,0.0,0.0,0.0,0.0,0.0,0.0,0.6666666666666666,0.0,0.0,0.0,0.0,0.0,173,console\src\main\java\org\apache\syncope\console\pages\panels\SchedTasks.java,0,0,0,0
org.apache.syncope.console.pages.panels.SearchClause, 0, 0, 0, 0, 0, 0, 0, 0, 0, 0, 0, 0, 0, 0,0.0,0.0,0.0,0.0,0.0,0.0,0.0,0.0,0.0,0.0,0.0,0.0,0.0,74,console\src\main\java\org\apache\syncope\console\pages\panels\SearchClause.java,0,0,0,0
org.apache.syncope.console.pages.panels.SelectOnlyUserSearchResultPanel, 0, 0, 0, 0, 0, 0, 0, 1, 0, 0, 0, 0, 0, 1,0.0,0.0,0.0,0.0,0.0,0.0,0.0,1.0,0.0,0.0,0.0,0.0,0.0,38,console\src\main\java\org\apache\syncope\console\pages\panels\SelectOnlyUserSearchResultPanel.java,0,0,0,0
org.apache.syncope.console.pages.panels.SelectedEventsPanel, 0, 0, 0, 0, 0, 0, 0, 0, 0, 0, 0, 0, 0, 0,0.0,0.0,0.0,0.0,0.0,0.0,0.0,0.0,0.0,0.0,0.0,0.0,0.0,96,console\src\main\java\org\apache\syncope\console\pages\panels\SelectedEventsPanel.java,0,0,0,0
org.apache.syncope.console.pages.panels.SyncTasksPanel, 0, 0, 0, 0, 0, 0, 0, 0, 0, 0, 0, 0, 0, 0,0.0,0.0,0.0,0.0,0.0,0.0,0.0,1.0,0.0,0.0,0.0,0.0,0.0,134,console\src\main\java\org\apache\syncope\console\pages\panels\SyncTasksPanel.java,0,0,0,0
org.apache.syncope.console.pages.panels.SysInfoPanel, 0, 0, 0, 0, 0, 0, 0, 0, 0, 0, 0, 0, 0, 0,0.0,0.0,0.0,0.0,0.0,0.0,0.0,0.5,0.0,0.0,0.0,0.0,0.0,15,console\src\main\java\org\apache\syncope\console\pages\panels\SysInfoPanel.java,0,0,0,0
org.apache.syncope.console.pages.panels.UserDetailsPanel, 0, 0, 0, 0, 0, 0, 0, 1, 0, 0, 0, 0, 0, 1,0.0,0.0,0.0,0.0,0.0,0.0,0.0,0.6,0.0,0.0,0.0,0.0,0.0,57,console\src\main\java\org\apache\syncope\console\pages\panels\UserDetailsPanel.java,0,0,0,0
org.apache.syncope.console.pages.panels.UserSearchPanel, 0, 0, 0, 0, 0, 0, 0, 0, 0, 0, 0, 0, 0, 0,0.0,0.0,0.0,0.0,0.0,0.0,0.0,1.0,0.0,0.0,0.0,0.0,0.0,59,console\src\main\java\org\apache\syncope\console\pages\panels\UserSearchPanel.java,0,0,0,0
org.apache.syncope.console.pages.panels.UserSearchResultPanel, 0, 0, 0, 0, 0, 0, 0, 1, 0, 0, 0, 0, 0, 1,0.0,0.0,0.0,0.1111111111111111,0.0,0.0,0.0,1.0,0.0,0.0,0.0,0.0,0.0,173,console\src\main\java\org\apache\syncope\console\pages\panels\UserSearchResultPanel.java,0,0,0,0
org.apache.syncope.console.preview.PreviewUtil, 0, 0, 0, 0, 0, 0, 0, 0, 0, 0, 0, 0, 0, 0,0.0,0.0,0.0,0.0,0.0,0.0,0.0,1.0,0.0,0.0,0.0,0.0,0.0,25,console\src\main\java\org\apache\syncope\console\preview\PreviewUtil.java,0,0,0,0
org.apache.syncope.console.preview.PreviewerClassScanner, 0, 0, 0, 0, 0, 0, 0, 0, 0, 0, 0, 0, 0, 0,0.0,0.0,0.0,0.0,0.0,0.0,0.0,0.0,0.0,0.0,0.0,0.0,0.0,17,console\src\main\java\org\apache\syncope\console\preview\PreviewerClassScanner.java,0,0,0,0
org.apache.syncope.console.resources.FilesystemResource, 0, 0, 0, 0, 0, 0, 0, 0, 0, 0, 0, 0, 0, 0,0.0,0.0,0.0,0.0,0.0,0.0,0.0,0.0,0.0,0.0,0.0,0.0,0.0,38,console\src\main\java\org\apache\syncope\console\resources\FilesystemResource.java,0,0,0,0
org.apache.syncope.console.resources.WorkflowDefGETResource, 0, 0, 0, 0, 0, 0, 0, 0, 0, 0, 0, 0, 0, 0,0.0,0.0,0.0,0.0,0.0,0.0,0.0,0.0,0.0,0.0,0.0,0.0,0.0,19,console\src\main\java\org\apache\syncope\console\resources\WorkflowDefGETResource.java,0,0,0,0
org.apache.syncope.console.resources.WorkflowDefPUTResource, 0, 0, 0, 0, 0, 0, 0, 0, 0, 0, 0, 0, 0, 0,0.0,0.0,0.0,0.0,0.0,0.0,0.0,0.0,0.0,0.0,0.0,0.0,0.0,27,console\src\main\java\org\apache\syncope\console\resources\WorkflowDefPUTResource.java,0,0,0,0
org.apache.syncope.console.rest.AbstractSubjectRestClient, 0, 0, 0, 0, 0, 0, 0, 1, 0, 0, 0, 0, 0, 1,0.0,0.0,0.0,0.14285714285714285,0.0,0.0,0.0,0.7142857142857143,0.0,0.0,0.0,0.0,0.0,11,console\src\main\java\org\apache\syncope\console\rest\AbstractSubjectRestClient.java,0,0,0,0
org.apache.syncope.console.rest.ApprovalRestClient, 0, 0, 0, 0, 0, 0, 0, 0, 0, 0, 0, 0, 0, 0,0.0,0.0,0.0,0.0,0.0,0.0,0.0,0.0,0.0,0.0,0.0,0.0,0.0,12,console\src\main\java\org\apache\syncope\console\rest\ApprovalRestClient.java,0,0,0,0
org.apache.syncope.console.rest.AuthRestClient, 0, 0, 0, 0, 0, 0, 0, 0, 0, 0, 0, 0, 0, 0,0.0,0.0,0.0,0.0,0.0,0.0,0.0,0.0,0.0,0.0,0.0,0.0,0.0,11,console\src\main\java\org\apache\syncope\console\rest\AuthRestClient.java,0,0,0,0
org.apache.syncope.console.rest.BaseRestClient, 0, 0, 0, 0, 0, 0, 0, 0, 0, 0, 0, 0, 0, 0,0.0,0.0,0.0,0.0,0.0,0.0,0.0,0.5555555555555556,0.0,0.0,0.0,0.0,0.0,29,console\src\main\java\org\apache\syncope\console\rest\BaseRestClient.java,0,0,0,0
org.apache.syncope.console.rest.ConfigurationRestClient, 0, 0, 0, 0, 0, 0, 0, 0, 0, 0, 0, 0, 0, 0,0.0,0.0,0.0,0.1111111111111111,0.0,0.0,0.0,0.4444444444444444,0.0,0.0,0.0,0.0,0.0,52,console\src\main\java\org\apache\syncope\console\rest\ConfigurationRestClient.java,0,0,0,0
org.apache.syncope.console.rest.ExecutionRestClient, 0, 0, 0, 0, 0, 0, 0, 0, 0, 0, 0, 0, 0, 0,0.0,0.0,0.0,0.0,0.0,0.0,0.0,0.0,0.0,0.0,0.0,0.0,0.0,52,console\src\main\java\org\apache\syncope\console\rest\ExecutionRestClient.java,0,0,0,0
org.apache.syncope.console.rest.InvalidPolicyType, 0, 0, 0, 0, 0, 0, 0, 0, 0, 0, 0, 0, 0, 0,0.0,0.0,0.0,0.0,0.0,0.0,0.0,0.0,0.0,0.0,0.0,0.0,0.0,8,console\src\main\java\org\apache\syncope\console\rest\InvalidPolicyType.java,0,0,0,0
org.apache.syncope.console.rest.NotificationRestClient, 0, 0, 0, 0, 0, 0, 0, 0, 0, 0, 0, 0, 0, 0,0.0,0.0,0.0,0.3333333333333333,0.0,0.0,0.0,0.3333333333333333,0.0,0.0,0.0,0.0,0.0,18,console\src\main\java\org\apache\syncope\console\rest\NotificationRestClient.java,0,0,0,0
org.apache.syncope.console.rest.PolicyRestClient, 0, 0, 0, 0, 0, 0, 0, 0, 0, 0, 0, 0, 0, 0,0.0,0.0,0.0,0.0,0.0,0.0,0.0,0.25,0.0,0.0,0.0,0.0,0.0,59,console\src\main\java\org\apache\syncope\console\rest\PolicyRestClient.java,0,0,0,0
org.apache.syncope.console.rest.ReportRestClient, 0, 0, 0, 0, 0, 0, 0, 1, 0, 0, 0, 0, 0, 1,0.0,0.0,0.0,0.5,0.0,0.0,0.0,0.0,0.0,0.0,0.0,0.0,0.0,47,console\src\main\java\org\apache\syncope\console\rest\ReportRestClient.java,0,0,0,0
org.apache.syncope.console.rest.ResourceRestClient, 0, 0, 0, 0, 0, 0, 0, 1, 0, 0, 0, 0, 0, 1,0.0,0.0,0.0,0.2857142857142857,0.0,0.0,0.0,0.2857142857142857,0.0,0.0,0.0,0.0,0.0,49,console\src\main\java\org\apache\syncope\console\rest\ResourceRestClient.java,0,0,0,0
org.apache.syncope.console.rest.RoleRestClient, 0, 0, 0, 0, 0, 0, 0, 1, 0, 0, 0, 0, 0, 1,0.0,0.0,0.0,0.23076923076923078,0.0,0.0,0.0,0.38461538461538464,0.0,0.0,0.0,0.0,0.0,122,console\src\main\java\org\apache\syncope\console\rest\RoleRestClient.java,0,0,0,0
org.apache.syncope.console.rest.SchemaRestClient, 0, 0, 0, 0, 0, 0, 0, 1, 0, 0, 0, 0, 0, 1,0.0,0.0,0.0,0.18181818181818182,0.0,0.0,0.0,0.2727272727272727,0.0,0.0,0.0,0.0,0.0,167,console\src\main\java\org\apache\syncope\console\rest\SchemaRestClient.java,0,0,0,0
org.apache.syncope.console.rest.SecurityQuestionRestClient, 0, 0, 0, 0, 0, 0, 0, 0, 0, 0, 0, 0, 0, 0,0.0,0.0,0.0,0.0,0.0,0.0,0.0,0.25,0.0,0.0,0.0,0.0,0.0,18,console\src\main\java\org\apache\syncope\console\rest\SecurityQuestionRestClient.java,0,0,0,0
org.apache.syncope.console.rest.TaskRestClient, 0, 0, 0, 0, 0, 0, 0, 1, 0, 0, 0, 0, 0, 1,0.0,0.0,0.0,0.13333333333333333,0.0,0.0,0.0,0.3333333333333333,0.0,0.0,0.0,0.0,0.0,92,console\src\main\java\org\apache\syncope\console\rest\TaskRestClient.java,0,0,0,0
org.apache.syncope.console.rest.UserRestClient, 0, 0, 0, 0, 0, 0, 0, 1, 0, 0, 0, 0, 0, 1,0.0,0.0,0.0,0.08333333333333333,0.0,0.0,0.0,0.5,0.0,0.0,0.0,0.0,0.0,155,console\src\main\java\org\apache\syncope\console\rest\UserRestClient.java,0,0,0,0
org.apache.syncope.console.rest.UserSelfRestClient, 0, 0, 0, 0, 0, 0, 0, 0, 0, 0, 0, 0, 0, 0,0.0,0.0,0.0,0.1111111111111111,0.0,0.0,0.0,0.2222222222222222,0.0,0.0,0.0,0.0,0.0,54,console\src\main\java\org\apache\syncope\console\rest\UserSelfRestClient.java,0,0,0,0
org.apache.syncope.console.rest.WorkflowRestClient, 0, 0, 0, 0, 0, 0, 0, 0, 0, 0, 0, 0, 0, 0,0.0,0.0,0.0,0.0,0.0,0.0,0.0,0.0,0.0,0.0,0.0,0.0,0.0,37,console\src\main\java\org\apache\syncope\console\rest\WorkflowRestClient.java,0,0,0,0
org.apache.syncope.console.wicket.ajax.markup.html.ClearIndicatingAjaxButton, 0, 0, 0, 0, 0, 0, 0, 1, 0, 0, 0, 0, 0, 1,0.0,0.0,0.0,0.3333333333333333,0.0,0.0,0.0,0.6666666666666666,0.0,0.0,0.0,0.0,0.0,36,console\src\main\java\org\apache\syncope\console\wicket\ajax\markup\html\ClearIndicatingAjaxButton.java,0,0,0,0
org.apache.syncope.console.wicket.ajax.markup.html.ClearIndicatingAjaxLink, 0, 0, 0, 0, 0, 0, 0, 1, 0, 0, 0, 0, 0, 1,0.0,0.0,0.0,0.5,0.0,0.0,0.0,0.5,0.0,0.0,0.0,0.0,0.0,26,console\src\main\java\org\apache\syncope\console\wicket\ajax\markup\html\ClearIndicatingAjaxLink.java,0,0,0,0
org.apache.syncope.console.wicket.extensions.markup.html.repeater.data.table.ActionColumn, 0, 0, 0, 0, 0, 0, 0, 1, 0, 0, 0, 0, 0, 1,0.0,0.0,0.0,0.0,0.0,0.0,0.0,1.0,0.0,0.0,0.0,0.0,0.0,20,console\src\main\java\org\apache\syncope\console\wicket\extensions\markup\html\repeater\data\table\ActionColumn.java,0,0,0,0
org.apache.syncope.console.wicket.extensions.markup.html.repeater.data.table.ActionResultColumn, 0, 0, 0, 0, 0, 0, 0, 1, 0, 0, 0, 0, 0, 1,0.0,0.0,0.0,0.0,0.0,0.0,0.0,1.0,0.0,0.0,0.0,0.0,0.0,31,console\src\main\java\org\apache\syncope\console\wicket\extensions\markup\html\repeater\data\table\ActionResultColumn.java,0,0,0,0
org.apache.syncope.console.wicket.extensions.markup.html.repeater.data.table.AttrColumn, 0, 0, 0, 0, 0, 0, 0, 1, 0, 0, 0, 0, 0, 1,0.0,0.0,0.0,0.0,0.0,0.0,0.0,1.0,0.0,0.0,0.0,0.0,0.0,42,console\src\main\java\org\apache\syncope\console\wicket\extensions\markup\html\repeater\data\table\AttrColumn.java,0,0,0,0
org.apache.syncope.console.wicket.extensions.markup.html.repeater.data.table.CheckBoxGroupSelectorPanel, 0, 0, 0, 0, 0, 0, 0, 0, 0, 0, 0, 0, 0, 0,0.0,0.0,0.0,0.0,0.0,0.0,0.0,1.0,0.0,0.0,0.0,0.0,0.0,7,console\src\main\java\org\apache\syncope\console\wicket\extensions\markup\html\repeater\data\table\CheckBoxGroupSelectorPanel.java,0,0,0,0
org.apache.syncope.console.wicket.extensions.markup.html.repeater.data.table.CheckBoxPanel, 0, 0, 0, 0, 0, 0, 0, 1, 0, 0, 0, 0, 0, 1,0.0,0.0,0.0,0.0,0.0,0.0,0.0,0.5,0.0,0.0,0.0,0.0,0.0,14,console\src\main\java\org\apache\syncope\console\wicket\extensions\markup\html\repeater\data\table\CheckBoxPanel.java,0,0,0,0
org.apache.syncope.console.wicket.extensions.markup.html.repeater.data.table.CheckGroupColumn, 0, 0, 0, 0, 0, 0, 0, 1, 0, 0, 0, 0, 0, 1,0.0,0.0,0.0,0.0,0.0,0.0,0.0,0.75,0.0,0.0,0.0,0.0,0.0,20,console\src\main\java\org\apache\syncope\console\wicket\extensions\markup\html\repeater\data\table\CheckGroupColumn.java,0,0,0,0
org.apache.syncope.console.wicket.extensions.markup.html.repeater.data.table.CollectionPanel, 0, 0, 0, 0, 0, 0, 0, 0, 0, 0, 0, 0, 0, 0,0.0,0.0,0.0,0.0,0.0,0.0,0.0,1.0,0.0,0.0,0.0,0.0,0.0,15,console\src\main\java\org\apache\syncope\console\wicket\extensions\markup\html\repeater\data\table\CollectionPanel.java,0,0,0,0
org.apache.syncope.console.wicket.extensions.markup.html.repeater.data.table.CollectionPropertyColumn, 0, 0, 0, 0, 0, 0, 0, 1, 0, 0, 0, 0, 0, 1,0.0,0.0,0.0,0.0,0.0,0.0,0.0,0.0,0.0,0.0,0.0,0.0,0.0,19,console\src\main\java\org\apache\syncope\console\wicket\extensions\markup\html\repeater\data\table\CollectionPropertyColumn.java,0,0,0,0
org.apache.syncope.console.wicket.extensions.markup.html.repeater.data.table.DatePropertyColumn, 0, 0, 0, 0, 0, 0, 0, 1, 0, 0, 0, 0, 0, 1,0.0,0.0,0.0,0.0,0.0,0.0,0.0,0.2,0.0,0.0,0.0,0.0,0.0,15,console\src\main\java\org\apache\syncope\console\wicket\extensions\markup\html\repeater\data\table\DatePropertyColumn.java,0,0,0,0
org.apache.syncope.console.wicket.extensions.markup.html.repeater.data.table.TokenColumn, 0, 0, 0, 0, 0, 0, 0, 1, 0, 0, 0, 0, 0, 1,0.0,0.0,0.0,0.0,0.0,0.0,0.0,1.0,0.0,0.0,0.0,0.0,0.0,16,console\src\main\java\org\apache\syncope\console\wicket\extensions\markup\html\repeater\data\table\TokenColumn.java,0,0,0,0
org.apache.syncope.console.wicket.markup.html.form.AbstractFieldPanel, 0, 0, 0, 0, 0, 0, 0, 0, 0, 0, 0, 0, 0, 0,0.0,0.0,0.0,0.0,0.0,0.0,0.0,0.75,0.0,0.0,0.0,0.0,0.0,8,console\src\main\java\org\apache\syncope\console\wicket\markup\html\form\AbstractFieldPanel.java,0,0,0,0
org.apache.syncope.console.wicket.markup.html.form.ActionLink, 0, 0, 0, 0, 0, 0, 0, 0, 0, 0, 0, 0, 0, 0,0.0,0.0,0.0,0.0,0.0,0.0,0.0,1.0,0.0,0.0,0.0,0.0,0.0,49,console\src\main\java\org\apache\syncope\console\wicket\markup\html\form\ActionLink.java,0,0,0,0
org.apache.syncope.console.wicket.markup.html.form.ActionLinksPanel, 0, 0, 0, 0, 0, 0, 0, 1, 0, 0, 0, 0, 0, 1,0.0,0.0,0.0,0.0,0.0,0.0,0.0,0.7142857142857143,0.0,0.0,0.0,0.0,0.0,401,console\src\main\java\org\apache\syncope\console\wicket\markup\html\form\ActionLinksPanel.java,0,0,0,0
org.apache.syncope.console.wicket.markup.html.form.AjaxDecoratedCheckbox, 0, 0, 0, 0, 0, 0, 0, 0, 0, 0, 0, 0, 0, 0,0.0,0.0,0.0,0.0,0.0,0.0,0.0,0.0,0.0,0.0,0.0,0.0,0.0,19,console\src\main\java\org\apache\syncope\console\wicket\markup\html\form\AjaxDecoratedCheckbox.java,0,0,0,0
org.apache.syncope.console.wicket.markup.html.form.AjaxDropDownChoicePanel, 0, 0, 0, 0, 0, 0, 0, 1, 0, 0, 0, 0, 0, 1,0.0,0.0,0.0,0.0,0.0,0.0,0.0,0.6666666666666666,0.0,0.0,0.0,0.0,0.0,43,console\src\main\java\org\apache\syncope\console\wicket\markup\html\form\AjaxDropDownChoicePanel.java,0,0,0,0
org.apache.syncope.console.wicket.markup.html.form.AjaxPalettePanel, 0, 0, 0, 0, 0, 0, 0, 1, 0, 0, 0, 0, 0, 1,0.0,0.0,0.0,0.0,0.0,0.0,0.0,0.75,0.0,0.0,0.0,0.0,0.0,30,console\src\main\java\org\apache\syncope\console\wicket\markup\html\form\AjaxPalettePanel.java,0,0,0,0
org.apache.syncope.console.wicket.markup.html.form.AjaxPasswordFieldPanel, 0, 0, 0, 0, 0, 0, 0, 1, 0, 0, 0, 0, 0, 1,0.0,0.0,0.0,0.0,0.0,0.0,0.0,0.5,0.0,0.0,0.0,0.0,0.0,24,console\src\main\java\org\apache\syncope\console\wicket\markup\html\form\AjaxPasswordFieldPanel.java,0,0,0,0
org.apache.syncope.console.wicket.markup.html.form.AjaxTextFieldPanel, 0, 0, 0, 0, 0, 0, 0, 1, 0, 0, 0, 0, 0, 1,0.0,0.0,0.0,0.0,0.0,0.0,0.0,0.7142857142857143,0.0,0.0,0.0,0.0,0.0,47,console\src\main\java\org\apache\syncope\console\wicket\markup\html\form\AjaxTextFieldPanel.java,0,0,0,0
org.apache.syncope.console.wicket.markup.html.form.BinaryFieldPanel, 0, 0, 0, 0, 0, 0, 0, 1, 0, 0, 0, 0, 0, 1,0.0,0.0,0.0,0.0,0.0,0.0,0.0,0.0,0.0,0.0,0.0,0.0,0.0,126,console\src\main\java\org\apache\syncope\console\wicket\markup\html\form\BinaryFieldPanel.java,0,0,0,0
org.apache.syncope.console.wicket.markup.html.form.CheckBoxMultipleChoiceFieldPanel, 0, 0, 0, 0, 0, 0, 0, 1, 0, 0, 0, 0, 0, 1,0.0,0.0,0.0,0.0,0.0,0.0,0.0,0.0,0.0,0.0,0.0,0.0,0.0,15,console\src\main\java\org\apache\syncope\console\wicket\markup\html\form\CheckBoxMultipleChoiceFieldPanel.java,0,0,0,0
org.apache.syncope.console.wicket.markup.html.form.DateTextFieldPanel, 0, 0, 0, 0, 0, 0, 0, 1, 0, 0, 0, 0, 0, 1,0.0,0.0,0.0,0.0,0.0,0.0,0.0,0.0,0.0,0.0,0.0,0.0,0.0,39,console\src\main\java\org\apache\syncope\console\wicket\markup\html\form\DateTextFieldPanel.java,0,0,0,0
org.apache.syncope.console.wicket.markup.html.form.DateTimeFieldPanel, 0, 0, 0, 0, 0, 0, 0, 1, 0, 0, 0, 0, 0, 1,0.0,0.0,0.0,0.0,0.0,0.0,0.0,0.0,0.0,0.0,0.0,0.0,0.0,113,console\src\main\java\org\apache\syncope\console\wicket\markup\html\form\DateTimeFieldPanel.java,0,0,0,0
org.apache.syncope.console.wicket.markup.html.form.FieldPanel, 0, 0, 0, 0, 0, 0, 0, 0, 0, 0, 0, 0, 0, 0,0.0,0.0,0.0,0.0,0.0,0.0,0.0,0.8461538461538461,0.0,0.0,0.0,0.0,0.0,117,console\src\main\java\org\apache\syncope\console\wicket\markup\html\form\FieldPanel.java,0,0,0,0
org.apache.syncope.console.wicket.markup.html.form.LinkPanel, 0, 0, 0, 0, 0, 0, 0, 0, 0, 0, 0, 0, 0, 0,0.0,0.0,0.0,0.0,0.0,0.0,0.0,0.0,0.0,0.0,0.0,0.0,0.0,9,console\src\main\java\org\apache\syncope\console\wicket\markup\html\form\LinkPanel.java,0,0,0,0
org.apache.syncope.console.wicket.markup.html.form.MappingPurposePanel, 0, 0, 0, 0, 0, 0, 0, 1, 0, 0, 0, 0, 0, 1,0.0,0.0,0.0,0.0,0.0,0.0,0.0,0.0,0.0,0.0,0.0,0.0,0.0,80,console\src\main\java\org\apache\syncope\console\wicket\markup\html\form\MappingPurposePanel.java,0,0,0,0
org.apache.syncope.console.wicket.markup.html.form.MultiFieldPanel, 0, 0, 0, 0, 0, 0, 0, 1, 0, 0, 0, 0, 0, 1,0.0,0.0,0.0,0.0,0.0,0.0,0.0,0.5,0.0,0.0,0.0,0.0,0.0,97,console\src\main\java\org\apache\syncope\console\wicket\markup\html\form\MultiFieldPanel.java,0,0,0,0
org.apache.syncope.console.wicket.markup.html.form.NonI18nPalette, 0, 0, 0, 0, 0, 0, 0, 1, 0, 0, 0, 0, 0, 1,0.0,0.0,0.0,0.0,0.0,0.0,0.0,1.0,0.0,0.0,0.0,0.0,0.0,14,console\src\main\java\org\apache\syncope\console\wicket\markup\html\form\NonI18nPalette.java,0,0,0,0
org.apache.syncope.console.wicket.markup.html.form.preview.AbstractBinaryPreviewer, 0, 0, 0, 0, 0, 0, 0, 1, 0, 0, 0, 0, 0, 1,0.0,0.0,0.0,0.0,0.0,0.0,0.0,0.5,0.0,0.0,0.0,0.0,0.0,12,console\src\main\java\org\apache\syncope\console\wicket\markup\html\form\preview\AbstractBinaryPreviewer.java,0,0,0,0
org.apache.syncope.console.wicket.markup.html.form.preview.BinaryImagePreviewer, 0, 0, 0, 0, 0, 0, 0, 1, 0, 0, 0, 0, 0, 1,0.0,0.0,0.0,0.0,0.0,0.0,0.0,1.0,0.0,0.0,0.0,0.0,0.0,17,console\src\main\java\org\apache\syncope\console\wicket\markup\html\form\preview\BinaryImagePreviewer.java,0,0,0,0
org.apache.syncope.console.wicket.markup.html.link.VeilPopupSettings, 0, 0, 0, 0, 0, 0, 0, 0, 0, 0, 0, 0, 0, 0,0.0,0.0,0.0,0.0,0.0,0.0,0.0,0.0,0.0,0.0,0.0,0.0,0.0,7,console\src\main\java\org\apache\syncope\console\wicket\markup\html\link\VeilPopupSettings.java,0,0,0,0
org.apache.syncope.console.wicket.markup.html.tree.DefaultMutableTreeNodeExpansionModel, 0, 0, 0, 0, 0, 0, 0, 0, 0, 0, 0, 0, 0, 0,0.0,0.0,0.0,0.0,0.0,0.0,0.0,0.0,0.0,0.0,0.0,0.0,0.0,8,console\src\main\java\org\apache\syncope\console\wicket\markup\html\tree\DefaultMutableTreeNodeExpansionModel.java,0,0,0,0
org.apache.syncope.console.wicket.markup.html.tree.TreeRolePanel, 0, 0, 0, 0, 0, 0, 0, 0, 0, 0, 0, 0, 0, 0,0.0,0.0,0.0,0.0,0.0,0.0,0.0,0.5,0.0,0.0,0.0,0.0,0.0,58,console\src\main\java\org\apache\syncope\console\wicket\markup\html\tree\TreeRolePanel.java,0,0,0,0
org.apache.syncope.console.wicket.markup.html.tree.TreeRoleProvider, 0, 0, 0, 0, 0, 0, 0, 0, 0, 0, 0, 0, 0, 0,0.0,0.0,0.0,0.0,0.0,0.0,0.0,0.6666666666666666,0.0,0.0,0.0,0.0,0.0,13,console\src\main\java\org\apache\syncope\console\wicket\markup\html\tree\TreeRoleProvider.java,0,0,0,0
org.apache.syncope.core.AbstractNonDAOTest, 0, 0, 0, 0, 0, 1, 0, 0, 0, 0, 0, 0, 0, 1,0.0,0.0,0.0,0.0,0.0,0.0,0.0,0.0,0.0,0.0,0.0,0.0,0.0,2,core\src\test\java\org\apache\syncope\core\AbstractNonDAOTest.java,0,0,0,0
org.apache.syncope.core.cache.DisabledVirAttrCache, 0, 0, 0, 0, 0, 0, 0, 1, 0, 0, 0, 0, 0, 1,0.0,0.0,0.0,0.0,0.0,0.0,0.0,0.0,0.0,0.0,0.0,0.0,0.0,17,core\src\main\java\org\apache\syncope\core\cache\DisabledVirAttrCache.java,0,0,0,0
org.apache.syncope.core.cache.VirAttrCache, 0, 0, 0, 0, 0, 0, 0, 0, 0, 0, 0, 0, 0, 0,0.0,0.0,0.0,0.0,0.0,0.0,0.0,0.0,0.0,0.0,0.0,0.0,0.0,17,core\src\main\java\org\apache\syncope\core\cache\VirAttrCache.java,0,0,0,0
org.apache.syncope.core.cache.VirAttrCacheKey, 0, 0, 0, 0, 0, 0, 0, 1, 0, 0, 0, 0, 0, 1,0.0,0.0,0.0,0.0,0.0,0.0,0.0,0.0,0.0,0.0,0.0,0.0,0.0,31,core\src\main\java\org\apache\syncope\core\cache\VirAttrCacheKey.java,0,0,0,0
org.apache.syncope.core.connid.ConnPoolConfUtil, 0, 0, 0, 0, 0, 0, 0, 0, 0, 0, 0, 0, 0, 0,0.0,0.0,0.0,0.25,0.0,0.0,0.0,0.25,0.0,0.0,0.0,0.0,0.0,38,core\src\main\java\org\apache\syncope\core\connid\ConnPoolConfUtil.java,0,0,0,0
org.apache.syncope.core.connid.PasswordGenerator, 0, 0, 0, 0, 0, 0, 0, 0, 0, 0, 0, 0, 0, 0,0.0,0.0,0.0,0.42857142857142855,0.0,0.0,0.0,0.0,0.0,0.0,0.0,0.0,0.0,230,core\src\main\java\org\apache\syncope\core\connid\PasswordGenerator.java,0,0,0,0
org.apache.syncope.core.connid.PasswordGeneratorTest, 0, 0, 0, 0, 0, 0, 0, 0, 0, 0, 0, 0, 0, 0,0.0,0.0,0.0,0.4,0.0,0.2,0.0,0.0,0.0,0.0,0.0,0.0,0.0,110,core\src\test\java\org\apache\syncope\core\connid\PasswordGeneratorTest.java,0,0,0,0
org.apache.syncope.core.init.ConnectorManager, 0, 0, 0, 0, 0, 0, 0, 0, 0, 0, 0, 0, 0, 0,0.0,0.0,0.0,0.6,0.0,0.0,0.0,0.2,0.0,0.0,0.0,0.0,0.0,77,core\src\main\java\org\apache\syncope\core\init\ConnectorManager.java,0,0,0,0
org.apache.syncope.core.init.ConnectorManagerTest, 0, 0, 0, 0, 0, 0, 0, 0, 0, 0, 0, 0, 0, 0,0.0,0.0,0.0,0.4,0.0,0.2,0.0,0.0,0.0,0.0,0.0,0.0,0.0,30,core\src\test\java\org\apache\syncope\core\init\ConnectorManagerTest.java,0,0,0,0
org.apache.syncope.core.init.SpringContextInitializer, 0, 0, 0, 0, 0, 0, 0, 0, 0, 0, 0, 0, 0, 0,0.0,0.0,0.0,0.0,0.0,0.0,0.0,0.0,0.0,0.0,0.0,0.0,0.0,24,core\src\main\java\org\apache\syncope\core\init\SpringContextInitializer.java,0,0,0,0
org.apache.syncope.core.init.ThreadLocalCleanupListener, 0, 0, 0, 0, 0, 0, 0, 0, 0, 0, 0, 0, 0, 0,0.0,0.0,0.0,0.0,0.0,0.0,0.0,1.0,0.0,0.0,0.0,0.0,0.0,11,core\src\main\java\org\apache\syncope\core\init\ThreadLocalCleanupListener.java,0,0,0,0
org.apache.syncope.core.init.WorkflowAdapterLoader, 0, 0, 0, 0, 0, 0, 0, 0, 0, 0, 0, 0, 0, 0,0.0,0.0,0.0,0.0,0.0,0.0,0.0,0.0,0.0,0.0,0.0,0.0,0.0,44,core\src\main\java\org\apache\syncope\core\init\WorkflowAdapterLoader.java,0,0,0,0
org.apache.syncope.core.persistence.SysInfoListener, 0, 0, 0, 0, 0, 0, 0, 0, 0, 0, 0, 0, 0, 0,0.0,0.0,0.0,0.0,0.0,0.0,0.0,0.0,0.0,0.0,0.0,0.0,0.0,18,core\src\main\java\org\apache\syncope\core\persistence\SysInfoListener.java,0,0,0,0
org.apache.syncope.core.persistence.beans.AbstractAttr, 0, 0, 0, 0, 0, 0, 0, 0, 0, 0, 0, 0, 0, 0,0.0,0.0,0.0,0.09523809523809523,0.0,0.0,0.0,0.09523809523809523,0.0,0.0,0.0,0.0,0.0,44,core\src\main\java\org\apache\syncope\core\persistence\beans\AbstractAttr.java,0,0,0,0
org.apache.syncope.core.persistence.beans.AbstractAttrTemplate, 0, 0, 0, 0, 0, 0, 0, 0, 0, 0, 0, 0, 0, 0,0.0,0.0,0.0,0.0,0.0,0.0,0.0,0.0,0.0,0.0,0.0,0.0,0.0,7,core\src\main\java\org\apache\syncope\core\persistence\beans\AbstractAttrTemplate.java,0,0,0,0
org.apache.syncope.core.persistence.beans.AbstractAttrUniqueValue, 0, 0, 0, 0, 0, 0, 0, 0, 0, 0, 0, 0, 0, 0,0.0,0.0,0.0,0.0,0.0,0.0,0.0,0.0,0.0,0.0,0.0,0.0,0.0,5,core\src\main\java\org\apache\syncope\core\persistence\beans\AbstractAttrUniqueValue.java,0,0,0,0
org.apache.syncope.core.persistence.beans.AbstractDerAttr, 0, 0, 0, 0, 0, 0, 0, 0, 0, 0, 0, 0, 0, 0,0.0,0.0,0.0,0.1111111111111111,0.0,0.0,0.0,0.1111111111111111,0.0,0.0,0.0,0.0,0.0,18,core\src\main\java\org\apache\syncope\core\persistence\beans\AbstractDerAttr.java,0,0,0,0
org.apache.syncope.core.persistence.beans.AbstractDerSchema, 0, 0, 0, 0, 0, 0, 0, 0, 0, 0, 0, 0, 0, 0,0.0,0.0,0.0,0.0,0.0,0.0,0.0,0.1,0.0,0.0,0.0,0.0,0.0,36,core\src\main\java\org\apache\syncope\core\persistence\beans\AbstractDerSchema.java,0,0,0,0
org.apache.syncope.core.persistence.beans.AbstractExec, 0, 0, 0, 0, 0, 0, 0, 0, 0, 0, 0, 0, 0, 0,0.0,0.0,0.0,0.1111111111111111,0.0,0.0,0.0,0.2222222222222222,0.0,0.0,0.0,0.0,0.0,46,core\src\main\java\org\apache\syncope\core\persistence\beans\AbstractExec.java,0,0,0,0
org.apache.syncope.core.persistence.beans.AbstractMapping, 0, 0, 0, 0, 0, 0, 0, 0, 0, 0, 0, 0, 0, 0,0.0,0.0,0.0,0.3333333333333333,0.0,0.0,0.0,0.1111111111111111,0.0,0.0,0.0,0.0,0.0,42,core\src\main\java\org\apache\syncope\core\persistence\beans\AbstractMapping.java,0,0,0,0
org.apache.syncope.core.persistence.beans.AbstractMappingItem, 0, 0, 0, 1, 0, 0, 0, 0, 0, 0, 0, 0, 0, 1,0.0,0.0,0.0,0.16666666666666666,0.0,0.0,0.0,0.16666666666666666,0.0,0.0,0.0,0.0,0.0,98,core\src\main\java\org\apache\syncope\core\persistence\beans\AbstractMappingItem.java,0,0,0,0
org.apache.syncope.core.persistence.beans.AbstractNormalSchema, 0, 0, 0, 1, 0, 0, 0, 0, 0, 0, 0, 0, 0, 1,0.0,0.0,0.0,0.0,0.0,0.0,0.0,0.09523809523809523,0.0,0.0,0.0,0.0,0.0,154,core\src\main\java\org\apache\syncope\core\persistence\beans\AbstractNormalSchema.java,0,0,0,0
org.apache.syncope.core.persistence.beans.AbstractSchema, 0, 0, 0, 0, 0, 0, 0, 0, 0, 0, 0, 0, 0, 0,0.0,0.0,0.0,0.3333333333333333,0.0,0.0,0.0,0.0,0.0,0.0,0.0,0.0,0.0,5,core\src\main\java\org\apache\syncope\core\persistence\beans\AbstractSchema.java,0,0,0,0
org.apache.syncope.core.persistence.beans.AbstractSubject, 0, 0, 0, 0, 0, 0, 0, 0, 0, 0, 0, 0, 0, 0,0.0,0.0,0.0,0.3333333333333333,0.0,0.0,0.0,0.1111111111111111,0.0,0.0,0.0,0.0,0.0,27,core\src\main\java\org\apache\syncope\core\persistence\beans\AbstractSubject.java,0,0,0,0
org.apache.syncope.core.persistence.beans.AbstractSyncTask, 0, 0, 0, 1, 0, 0, 0, 0, 0, 0, 0, 0, 0, 1,0.0,0.0,0.0,0.16666666666666666,0.0,0.0,0.0,0.25,0.0,0.0,0.0,0.0,0.0,81,core\src\main\java\org\apache\syncope\core\persistence\beans\AbstractSyncTask.java,0,0,0,0
org.apache.syncope.core.persistence.beans.AbstractSysInfo, 0, 0, 0, 0, 0, 0, 0, 0, 0, 0, 0, 0, 0, 0,0.0,0.0,0.0,0.3333333333333333,0.0,0.0,0.0,0.0,0.0,0.0,0.0,0.0,0.0,37,core\src\main\java\org\apache\syncope\core\persistence\beans\AbstractSysInfo.java,0,0,0,0
org.apache.syncope.core.persistence.beans.AbstractVirAttr, 0, 0, 0, 0, 0, 0, 0, 0, 0, 0, 0, 0, 0, 0,0.0,0.0,0.0,0.1111111111111111,0.0,0.0,0.0,0.2222222222222222,0.0,0.0,0.0,0.0,0.0,29,core\src\main\java\org\apache\syncope\core\persistence\beans\AbstractVirAttr.java,0,0,0,0
org.apache.syncope.core.persistence.beans.AbstractVirSchema, 0, 0, 0, 0, 0, 0, 0, 0, 0, 0, 0, 0, 0, 0,0.0,0.0,0.0,0.0,0.0,0.0,0.0,0.2222222222222222,0.0,0.0,0.0,0.0,0.0,38,core\src\main\java\org\apache\syncope\core\persistence\beans\AbstractVirSchema.java,0,0,0,0
org.apache.syncope.core.persistence.beans.AccountPolicy, 0, 0, 0, 0, 0, 0, 0, 0, 0, 0, 0, 0, 0, 0,0.0,0.0,0.0,0.2,0.0,0.0,0.0,0.0,0.0,0.0,0.0,0.0,0.0,42,core\src\main\java\org\apache\syncope\core\persistence\beans\AccountPolicy.java,0,0,0,0
org.apache.syncope.core.persistence.beans.ConnInstance, 0, 0, 0, 1, 0, 0, 0, 0, 0, 0, 0, 0, 0, 1,0.0,0.0,0.0,0.125,0.0,0.0,0.0,0.1875,0.0,0.0,0.0,0.0,0.0,119,core\src\main\java\org\apache\syncope\core\persistence\beans\ConnInstance.java,0,0,0,0
org.apache.syncope.core.persistence.beans.ConnPoolConf, 0, 0, 0, 0, 0, 0, 0, 0, 0, 0, 0, 0, 0, 0,0.0,0.0,0.0,0.5,0.0,0.0,0.0,0.0,0.0,0.0,0.0,0.0,0.0,38,core\src\main\java\org\apache\syncope\core\persistence\beans\ConnPoolConf.java,0,0,0,0
org.apache.syncope.core.persistence.beans.Entitlement, 0, 0, 0, 0, 0, 0, 0, 0, 0, 0, 0, 0, 0, 0,0.0,0.0,0.0,0.0,0.0,0.0,0.0,0.0,0.0,0.0,0.0,0.0,0.0,19,core\src\main\java\org\apache\syncope\core\persistence\beans\Entitlement.java,0,0,0,0
org.apache.syncope.core.persistence.beans.ExternalResource, 0, 0, 0, 1, 0, 0, 0, 0, 0, 0, 0, 0, 0, 1,0.0,0.0,0.0,0.125,0.0,0.0,0.0,0.15,0.0,0.0,0.0,0.0,0.0,203,core\src\main\java\org\apache\syncope\core\persistence\beans\ExternalResource.java,0,0,0,0
org.apache.syncope.core.persistence.beans.Notification, 0, 0, 0, 1, 0, 0, 0, 0, 0, 0, 0, 0, 0, 1,0.0,0.0,0.0,0.0,0.0,0.0,0.0,0.0,0.0,0.0,0.0,0.0,0.0,144,core\src\main\java\org\apache\syncope\core\persistence\beans\Notification.java,0,0,0,0
org.apache.syncope.core.persistence.beans.NotificationTask, 0, 0, 0, 1, 0, 0, 0, 0, 0, 0, 0, 0, 0, 1,0.0,0.0,0.0,0.0,0.0,0.0,0.0,0.5,0.0,0.0,0.0,0.0,0.0,79,core\src\main\java\org\apache\syncope\core\persistence\beans\NotificationTask.java,0,0,0,0
org.apache.syncope.core.persistence.beans.PasswordPolicy, 0, 0, 0, 0, 0, 0, 0, 0, 0, 0, 0, 0, 0, 0,0.0,0.0,0.0,0.2,0.0,0.0,0.0,0.0,0.0,0.0,0.0,0.0,0.0,12,core\src\main\java\org\apache\syncope\core\persistence\beans\PasswordPolicy.java,0,0,0,0
org.apache.syncope.core.persistence.beans.Policy, 0, 0, 0, 0, 0, 0, 0, 0, 0, 0, 0, 0, 0, 0,0.0,0.0,0.0,0.0,0.0,0.0,0.0,0.0,0.0,0.0,0.0,0.0,0.0,31,core\src\main\java\org\apache\syncope\core\persistence\beans\Policy.java,0,0,0,0
org.apache.syncope.core.persistence.beans.PropagationTask, 0, 0, 0, 1, 0, 0, 0, 0, 0, 0, 0, 0, 0, 1,0.0,0.0,0.0,0.15384615384615385,0.0,0.0,0.0,0.3076923076923077,0.0,0.0,0.0,0.0,0.0,74,core\src\main\java\org\apache\syncope\core\persistence\beans\PropagationTask.java,0,0,0,0
org.apache.syncope.core.persistence.beans.PushPolicy, 0, 0, 0, 0, 0, 0, 0, 0, 0, 0, 0, 0, 0, 0,0.0,0.0,0.0,0.0,0.0,0.0,0.0,0.0,0.0,0.0,0.0,0.0,0.0,12,core\src\main\java\org\apache\syncope\core\persistence\beans\PushPolicy.java,0,0,0,0
org.apache.syncope.core.persistence.beans.PushTask, 0, 0, 0, 0, 0, 0, 0, 0, 0, 0, 0, 0, 0, 0,0.0,0.0,0.0,0.3333333333333333,0.0,0.0,0.0,0.6666666666666666,0.0,0.0,0.0,0.0,0.0,20,core\src\main\java\org\apache\syncope\core\persistence\beans\PushTask.java,0,0,0,0
org.apache.syncope.core.persistence.beans.Report, 0, 0, 0, 0, 0, 0, 0, 0, 0, 0, 0, 0, 0, 0,0.0,0.0,0.0,0.0,0.0,0.0,0.0,0.2222222222222222,0.0,0.0,0.0,0.0,0.0,85,core\src\main\java\org\apache\syncope\core\persistence\beans\Report.java,0,0,0,0
org.apache.syncope.core.persistence.beans.ReportExec, 0, 0, 0, 0, 0, 0, 0, 0, 0, 0, 0, 0, 0, 0,0.0,0.0,0.0,0.0,0.0,0.0,0.0,0.16666666666666666,0.0,0.0,0.0,0.0,0.0,28,core\src\main\java\org\apache\syncope\core\persistence\beans\ReportExec.java,0,0,0,0
org.apache.syncope.core.persistence.beans.ReportletConfInstance, 0, 0, 0, 0, 0, 0, 0, 0, 0, 0, 0, 0, 0, 0,0.0,0.0,0.0,0.0,0.0,0.0,0.0,0.0,0.0,0.0,0.0,0.0,0.0,28,core\src\main\java\org\apache\syncope\core\persistence\beans\ReportletConfInstance.java,0,0,0,0
org.apache.syncope.core.persistence.beans.SchedTask, 0, 0, 0, 0, 0, 0, 0, 0, 0, 0, 0, 0, 0, 0,0.0,0.0,0.0,0.3333333333333333,0.0,0.0,0.0,0.3333333333333333,0.0,0.0,0.0,0.0,0.0,33,core\src\main\java\org\apache\syncope\core\persistence\beans\SchedTask.java,0,0,0,0
org.apache.syncope.core.persistence.beans.SecurityQuestion, 0, 0, 0, 0, 0, 0, 0, 0, 0, 0, 0, 0, 0, 0,0.0,0.0,0.0,0.2,0.0,0.0,0.0,0.2,0.0,0.0,0.0,0.0,0.0,16,core\src\main\java\org\apache\syncope\core\persistence\beans\SecurityQuestion.java,0,0,0,0
org.apache.syncope.core.persistence.beans.SyncPolicy, 0, 0, 0, 0, 0, 0, 0, 0, 0, 0, 0, 0, 0, 0,0.0,0.0,0.0,0.2,0.0,0.0,0.0,0.0,0.0,0.0,0.0,0.0,0.0,12,core\src\main\java\org\apache\syncope\core\persistence\beans\SyncPolicy.java,0,0,0,0
org.apache.syncope.core.persistence.beans.SyncTask, 0, 0, 0, 0, 0, 0, 0, 0, 0, 0, 0, 0, 0, 0,0.0,0.0,0.0,0.4,0.0,0.0,0.0,0.2,0.0,0.0,0.0,0.0,0.0,36,core\src\main\java\org\apache\syncope\core\persistence\beans\SyncTask.java,0,0,0,0
org.apache.syncope.core.persistence.beans.SyncopeLogger, 0, 0, 0, 0, 0, 0, 0, 0, 0, 0, 0, 0, 0, 0,0.0,0.0,0.0,0.0,0.0,0.0,0.0,0.0,0.0,0.0,0.0,0.0,0.0,30,core\src\main\java\org\apache\syncope\core\persistence\beans\SyncopeLogger.java,0,0,0,0
org.apache.syncope.core.persistence.beans.Task, 0, 0, 0, 0, 0, 0, 0, 0, 0, 0, 0, 0, 0, 0,0.0,0.0,0.0,0.21428571428571427,0.0,0.0,0.0,0.14285714285714285,0.0,0.0,0.0,0.0,0.0,29,core\src\main\java\org\apache\syncope\core\persistence\beans\Task.java,0,0,0,0
org.apache.syncope.core.persistence.beans.conf.CAttr, 0, 0, 0, 0, 0, 0, 0, 0, 0, 0, 0, 0, 0, 0,0.0,0.0,0.0,0.09090909090909091,0.0,0.0,0.0,0.09090909090909091,0.0,0.0,0.0,0.0,0.0,78,core\src\main\java\org\apache\syncope\core\persistence\beans\conf\CAttr.java,0,0,0,0
org.apache.syncope.core.persistence.beans.conf.CAttrUniqueValue, 0, 0, 0, 0, 0, 0, 0, 0, 0, 0, 0, 0, 0, 0,0.0,0.0,0.0,0.0,0.0,0.0,0.0,0.0,0.0,0.0,0.0,0.0,0.0,38,core\src\main\java\org\apache\syncope\core\persistence\beans\conf\CAttrUniqueValue.java,0,0,0,0
org.apache.syncope.core.persistence.beans.conf.CAttrValue, 0, 0, 0, 0, 0, 0, 0, 0, 0, 0, 0, 0, 0, 0,0.0,0.0,0.0,0.0,0.0,0.0,0.0,0.0,0.0,0.0,0.0,0.0,0.0,25,core\src\main\java\org\apache\syncope\core\persistence\beans\conf\CAttrValue.java,0,0,0,0
org.apache.syncope.core.persistence.beans.conf.CSchema, 0, 0, 0, 0, 0, 0, 0, 0, 0, 0, 0, 0, 0, 0,0.0,0.0,0.0,0.3333333333333333,0.0,0.0,0.0,0.0,0.0,0.0,0.0,0.0,0.0,3,core\src\main\java\org\apache\syncope\core\persistence\beans\conf\CSchema.java,0,0,0,0
org.apache.syncope.core.persistence.beans.conf.SyncopeConf, 0, 0, 0, 0, 0, 0, 0, 0, 0, 0, 0, 0, 0, 0,0.0,0.0,0.0,0.0,0.0,0.0,0.0,0.0,0.0,0.0,0.0,0.0,0.0,75,core\src\main\java\org\apache\syncope\core\persistence\beans\conf\SyncopeConf.java,0,0,0,0
org.apache.syncope.core.persistence.beans.membership.MAttr, 0, 0, 0, 0, 0, 0, 0, 0, 0, 0, 0, 0, 0, 0,0.0,0.0,0.0,0.2857142857142857,0.0,0.0,0.0,0.14285714285714285,0.0,0.0,0.0,0.0,0.0,81,core\src\main\java\org\apache\syncope\core\persistence\beans\membership\MAttr.java,0,0,0,0
org.apache.syncope.core.persistence.beans.membership.MAttrTemplate, 0, 0, 0, 0, 0, 0, 0, 0, 0, 0, 0, 0, 0, 0,0.0,0.0,0.0,0.0,0.0,0.0,0.0,0.0,0.0,0.0,0.0,0.0,0.0,29,core\src\main\java\org\apache\syncope\core\persistence\beans\membership\MAttrTemplate.java,0,0,0,0
org.apache.syncope.core.persistence.beans.membership.MAttrUniqueValue, 0, 0, 0, 0, 0, 0, 0, 0, 0, 0, 0, 0, 0, 0,0.0,0.0,0.0,0.0,0.0,0.0,0.0,0.0,0.0,0.0,0.0,0.0,0.0,38,core\src\main\java\org\apache\syncope\core\persistence\beans\membership\MAttrUniqueValue.java,0,0,0,0
org.apache.syncope.core.persistence.beans.membership.MAttrValue, 0, 0, 0, 0, 0, 0, 0, 0, 0, 0, 0, 0, 0, 0,0.0,0.0,0.0,0.0,0.0,0.0,0.0,0.0,0.0,0.0,0.0,0.0,0.0,25,core\src\main\java\org\apache\syncope\core\persistence\beans\membership\MAttrValue.java,0,0,0,0
org.apache.syncope.core.persistence.beans.membership.MDerAttr, 0, 0, 0, 0, 0, 0, 0, 0, 0, 0, 0, 0, 0, 0,0.0,0.0,0.0,0.25,0.0,0.0,0.0,0.0,0.0,0.0,0.0,0.0,0.0,31,core\src\main\java\org\apache\syncope\core\persistence\beans\membership\MDerAttr.java,0,0,0,0
org.apache.syncope.core.persistence.beans.membership.MDerAttrTemplate, 0, 0, 0, 0, 0, 0, 0, 0, 0, 0, 0, 0, 0, 0,0.0,0.0,0.0,0.2,0.0,0.0,0.0,0.0,0.0,0.0,0.0,0.0,0.0,24,core\src\main\java\org\apache\syncope\core\persistence\beans\membership\MDerAttrTemplate.java,0,0,0,0
org.apache.syncope.core.persistence.beans.membership.MDerSchema, 0, 0, 0, 0, 0, 0, 0, 0, 0, 0, 0, 0, 0, 0,0.0,0.0,0.0,0.0,0.0,0.0,0.0,0.0,0.0,0.0,0.0,0.0,0.0,3,core\src\main\java\org\apache\syncope\core\persistence\beans\membership\MDerSchema.java,0,0,0,0
org.apache.syncope.core.persistence.beans.membership.MSchema, 0, 0, 0, 0, 0, 0, 0, 0, 0, 0, 0, 0, 0, 0,0.0,0.0,0.0,0.3333333333333333,0.0,0.0,0.0,0.0,0.0,0.0,0.0,0.0,0.0,3,core\src\main\java\org\apache\syncope\core\persistence\beans\membership\MSchema.java,0,0,0,0
org.apache.syncope.core.persistence.beans.membership.MVirAttr, 0, 0, 0, 0, 0, 0, 0, 0, 0, 0, 0, 0, 0, 0,0.0,0.0,0.0,0.25,0.0,0.0,0.0,0.0,0.0,0.0,0.0,0.0,0.0,31,core\src\main\java\org\apache\syncope\core\persistence\beans\membership\MVirAttr.java,0,0,0,0
org.apache.syncope.core.persistence.beans.membership.MVirAttrTemplate, 0, 0, 0, 0, 0, 0, 0, 0, 0, 0, 0, 0, 0, 0,0.0,0.0,0.0,0.25,0.0,0.0,0.0,0.0,0.0,0.0,0.0,0.0,0.0,24,core\src\main\java\org\apache\syncope\core\persistence\beans\membership\MVirAttrTemplate.java,0,0,0,0
org.apache.syncope.core.persistence.beans.membership.MVirSchema, 0, 0, 0, 0, 0, 0, 0, 0, 0, 0, 0, 0, 0, 0,0.0,0.0,0.0,0.0,0.0,0.0,0.0,0.0,0.0,0.0,0.0,0.0,0.0,3,core\src\main\java\org\apache\syncope\core\persistence\beans\membership\MVirSchema.java,0,0,0,0
org.apache.syncope.core.persistence.beans.membership.Membership, 0, 0, 0, 1, 0, 0, 0, 0, 0, 0, 0, 0, 0, 1,0.0,0.0,0.0,0.11764705882352941,0.0,0.0,0.0,0.11764705882352941,0.0,0.0,0.0,0.0,0.0,156,core\src\main\java\org\apache\syncope\core\persistence\beans\membership\Membership.java,0,0,0,0
org.apache.syncope.core.persistence.beans.role.RAttr, 0, 0, 0, 0, 0, 0, 0, 0, 0, 0, 0, 0, 0, 0,0.0,0.0,0.0,0.2,0.0,0.0,0.0,0.2,0.0,0.0,0.0,0.0,0.0,81,core\src\main\java\org\apache\syncope\core\persistence\beans\role\RAttr.java,0,0,0,0
org.apache.syncope.core.persistence.beans.role.RAttrTemplate, 0, 0, 0, 0, 0, 0, 0, 0, 0, 0, 0, 0, 0, 0,0.0,0.0,0.0,0.0,0.0,0.0,0.0,0.0,0.0,0.0,0.0,0.0,0.0,29,core\src\main\java\org\apache\syncope\core\persistence\beans\role\RAttrTemplate.java,0,0,0,0
org.apache.syncope.core.persistence.beans.role.RAttrUniqueValue, 0, 0, 0, 0, 0, 0, 0, 0, 0, 0, 0, 0, 0, 0,0.0,0.0,0.0,0.0,0.0,0.0,0.0,0.0,0.0,0.0,0.0,0.0,0.0,38,core\src\main\java\org\apache\syncope\core\persistence\beans\role\RAttrUniqueValue.java,0,0,0,0
org.apache.syncope.core.persistence.beans.role.RAttrValue, 0, 0, 0, 0, 0, 0, 0, 0, 0, 0, 0, 0, 0, 0,0.0,0.0,0.0,0.0,0.0,0.0,0.0,0.0,0.0,0.0,0.0,0.0,0.0,25,core\src\main\java\org\apache\syncope\core\persistence\beans\role\RAttrValue.java,0,0,0,0
org.apache.syncope.core.persistence.beans.role.RDerAttr, 0, 0, 0, 0, 0, 0, 0, 0, 0, 0, 0, 0, 0, 0,0.0,0.0,0.0,0.0,0.0,0.0,0.0,0.0,0.0,0.0,0.0,0.0,0.0,31,core\src\main\java\org\apache\syncope\core\persistence\beans\role\RDerAttr.java,0,0,0,0
org.apache.syncope.core.persistence.beans.role.RDerAttrTemplate, 0, 0, 0, 0, 0, 0, 0, 0, 0, 0, 0, 0, 0, 0,0.0,0.0,0.0,0.0,0.0,0.0,0.0,0.0,0.0,0.0,0.0,0.0,0.0,24,core\src\main\java\org\apache\syncope\core\persistence\beans\role\RDerAttrTemplate.java,0,0,0,0
org.apache.syncope.core.persistence.beans.role.RDerSchema, 0, 0, 0, 0, 0, 0, 0, 0, 0, 0, 0, 0, 0, 0,0.0,0.0,0.0,0.0,0.0,0.0,0.0,0.0,0.0,0.0,0.0,0.0,0.0,3,core\src\main\java\org\apache\syncope\core\persistence\beans\role\RDerSchema.java,0,0,0,0
org.apache.syncope.core.persistence.beans.role.RMapping, 0, 0, 0, 0, 0, 0, 0, 0, 0, 0, 0, 0, 0, 0,0.0,0.0,0.0,0.3333333333333333,0.0,0.0,0.0,0.3333333333333333,0.0,0.0,0.0,0.0,0.0,65,core\src\main\java\org\apache\syncope\core\persistence\beans\role\RMapping.java,0,0,0,0
org.apache.syncope.core.persistence.beans.role.RMappingItem, 0, 0, 0, 0, 0, 0, 0, 0, 0, 0, 0, 0, 0, 0,0.0,0.0,0.0,0.3333333333333333,0.0,0.0,0.0,0.0,0.0,0.0,0.0,0.0,0.0,24,core\src\main\java\org\apache\syncope\core\persistence\beans\role\RMappingItem.java,0,0,0,0
org.apache.syncope.core.persistence.beans.role.RSchema, 0, 0, 0, 0, 0, 0, 0, 0, 0, 0, 0, 0, 0, 0,0.0,0.0,0.0,0.3333333333333333,0.0,0.0,0.0,0.0,0.0,0.0,0.0,0.0,0.0,3,core\src\main\java\org\apache\syncope\core\persistence\beans\role\RSchema.java,0,0,0,0
org.apache.syncope.core.persistence.beans.role.RVirAttr, 0, 0, 0, 0, 0, 0, 0, 0, 0, 0, 0, 0, 0, 0,0.0,0.0,0.0,0.0,0.0,0.0,0.0,0.0,0.0,0.0,0.0,0.0,0.0,31,core\src\main\java\org\apache\syncope\core\persistence\beans\role\RVirAttr.java,0,0,0,0
org.apache.syncope.core.persistence.beans.role.RVirAttrTemplate, 0, 0, 0, 0, 0, 0, 0, 0, 0, 0, 0, 0, 0, 0,0.0,0.0,0.0,0.0,0.0,0.0,0.0,0.0,0.0,0.0,0.0,0.0,0.0,24,core\src\main\java\org\apache\syncope\core\persistence\beans\role\RVirAttrTemplate.java,0,0,0,0
org.apache.syncope.core.persistence.beans.role.RVirSchema, 0, 0, 0, 0, 0, 0, 0, 0, 0, 0, 0, 0, 0, 0,0.0,0.0,0.0,0.0,0.0,0.0,0.0,0.0,0.0,0.0,0.0,0.0,0.0,3,core\src\main\java\org\apache\syncope\core\persistence\beans\role\RVirSchema.java,0,0,0,0
org.apache.syncope.core.persistence.beans.user.SyncopeUser, 0, 0, 0, 1, 0, 0, 0, 0, 0, 0, 0, 0, 0, 1,0.0,0.0,0.0,0.11627906976744186,0.0,0.0,0.0,0.16279069767441862,0.0,0.0,0.0,0.0,0.0,352,core\src\main\java\org\apache\syncope\core\persistence\beans\user\SyncopeUser.java,0,0,0,0
org.apache.syncope.core.persistence.beans.user.UAttr, 0, 0, 0, 0, 0, 0, 0, 0, 0, 0, 0, 0, 0, 0,0.0,0.0,0.0,0.25,0.0,0.0,0.0,0.125,0.0,0.0,0.0,0.0,0.0,78,core\src\main\java\org\apache\syncope\core\persistence\beans\user\UAttr.java,0,0,0,0
org.apache.syncope.core.persistence.beans.user.UAttrUniqueValue, 0, 0, 0, 0, 0, 0, 0, 0, 0, 0, 0, 0, 0, 0,0.0,0.0,0.0,0.0,0.0,0.0,0.0,0.0,0.0,0.0,0.0,0.0,0.0,38,core\src\main\java\org\apache\syncope\core\persistence\beans\user\UAttrUniqueValue.java,0,0,0,0
org.apache.syncope.core.persistence.beans.user.UAttrValue, 0, 0, 0, 0, 0, 0, 0, 0, 0, 0, 0, 0, 0, 0,0.0,0.0,0.0,0.0,0.0,0.0,0.0,0.3333333333333333,0.0,0.0,0.0,0.0,0.0,25,core\src\main\java\org\apache\syncope\core\persistence\beans\user\UAttrValue.java,0,0,0,0
org.apache.syncope.core.persistence.beans.user.UDerAttr, 0, 0, 0, 0, 0, 0, 0, 0, 0, 0, 0, 0, 0, 0,0.0,0.0,0.0,0.2,0.0,0.0,0.0,0.0,0.0,0.0,0.0,0.0,0.0,27,core\src\main\java\org\apache\syncope\core\persistence\beans\user\UDerAttr.java,0,0,0,0
org.apache.syncope.core.persistence.beans.user.UDerSchema, 0, 0, 0, 0, 0, 0, 0, 0, 0, 0, 0, 0, 0, 0,0.0,0.0,0.0,0.0,0.0,0.0,0.0,0.0,0.0,0.0,0.0,0.0,0.0,3,core\src\main\java\org\apache\syncope\core\persistence\beans\user\UDerSchema.java,0,0,0,0
org.apache.syncope.core.persistence.beans.user.UMapping, 0, 0, 0, 0, 0, 0, 0, 0, 0, 0, 0, 0, 0, 0,0.0,0.0,0.0,0.3,0.0,0.0,0.0,0.2,0.0,0.0,0.0,0.0,0.0,79,core\src\main\java\org\apache\syncope\core\persistence\beans\user\UMapping.java,0,0,0,0
org.apache.syncope.core.persistence.beans.user.UMappingItem, 0, 0, 0, 0, 0, 0, 0, 0, 0, 0, 0, 0, 0, 0,0.0,0.0,0.0,0.3333333333333333,0.0,0.0,0.0,0.0,0.0,0.0,0.0,0.0,0.0,24,core\src\main\java\org\apache\syncope\core\persistence\beans\user\UMappingItem.java,0,0,0,0
org.apache.syncope.core.persistence.beans.user.USchema, 0, 0, 0, 0, 0, 0, 0, 0, 0, 0, 0, 0, 0, 0,0.0,0.0,0.0,0.3333333333333333,0.0,0.0,0.0,0.0,0.0,0.0,0.0,0.0,0.0,3,core\src\main\java\org\apache\syncope\core\persistence\beans\user\USchema.java,0,0,0,0
org.apache.syncope.core.persistence.beans.user.UVirAttr, 0, 0, 0, 0, 0, 0, 0, 0, 0, 0, 0, 0, 0, 0,0.0,0.0,0.0,0.25,0.0,0.0,0.0,0.0,0.0,0.0,0.0,0.0,0.0,27,core\src\main\java\org\apache\syncope\core\persistence\beans\user\UVirAttr.java,0,0,0,0
org.apache.syncope.core.persistence.beans.user.UVirSchema, 0, 0, 0, 0, 0, 0, 0, 0, 0, 0, 0, 0, 0, 0,0.0,0.0,0.0,0.0,0.0,0.0,0.0,0.0,0.0,0.0,0.0,0.0,0.0,3,core\src\main\java\org\apache\syncope\core\persistence\beans\user\UVirSchema.java,0,0,0,0
org.apache.syncope.core.persistence.dao.AbstractDAOTest, 0, 0, 0, 0, 0, 1, 0, 0, 0, 0, 0, 0, 0, 1,0.0,0.0,0.0,0.0,0.0,0.0,0.0,0.0,0.0,0.0,0.0,0.0,0.0,2,core\src\test\java\org\apache\syncope\core\persistence\dao\AbstractDAOTest.java,0,0,0,0
org.apache.syncope.core.persistence.dao.AttrDAO, 0, 0, 0, 0, 0, 0, 0, 0, 0, 0, 0, 0, 0, 0,0.0,0.0,0.0,0.0,0.0,0.0,0.0,0.0,0.0,0.0,0.0,0.0,0.0,2,core\src\main\java\org\apache\syncope\core\persistence\dao\AttrDAO.java,0,0,0,0
org.apache.syncope.core.persistence.dao.AttrTemplateDAO, 0, 0, 0, 0, 0, 0, 0, 0, 0, 0, 0, 0, 0, 0,0.0,0.0,0.0,0.0,0.0,0.0,0.0,0.0,0.0,0.0,0.0,0.0,0.0,2,core\src\main\java\org\apache\syncope\core\persistence\dao\AttrTemplateDAO.java,0,0,0,0
org.apache.syncope.core.persistence.dao.AttrTest, 0, 0, 0, 0, 0, 0, 0, 0, 0, 0, 0, 0, 0, 0,0.0,0.0,0.0,0.42857142857142855,0.0,0.14285714285714285,0.0,0.14285714285714285,0.0,0.0,0.0,0.0,0.0,146,core\src\test\java\org\apache\syncope\core\persistence\dao\AttrTest.java,0,0,0,0
org.apache.syncope.core.persistence.dao.AttrValueDAO, 0, 0, 0, 0, 0, 0, 0, 0, 0, 0, 0, 0, 0, 0,0.0,0.0,0.0,0.0,0.0,0.0,0.0,0.0,0.0,0.0,0.0,0.0,0.0,146,core\src\main\java\org\apache\syncope\core\persistence\dao\AttrValueDAO.java,0,0,0,0
org.apache.syncope.core.persistence.dao.AttributableSearchTest, 0, 0, 0, 1, 0, 0, 0, 0, 0, 0, 0, 0, 0, 1,0.0,0.0,0.0,0.25,0.0,0.0,0.0,0.0,0.0,0.0,0.0,0.0,0.0,336,core\src\test\java\org\apache\syncope\core\persistence\dao\AttributableSearchTest.java,0,0,0,0
org.apache.syncope.core.persistence.dao.ConfDAO, 0, 0, 0, 0, 0, 0, 0, 0, 0, 0, 0, 0, 0, 0,0.0,0.0,0.0,0.0,0.0,0.0,0.0,0.0,0.0,0.0,0.0,0.0,0.0,336,core\src\main\java\org\apache\syncope\core\persistence\dao\ConfDAO.java,0,0,0,0
org.apache.syncope.core.persistence.dao.ConfTest, 0, 0, 0, 0, 0, 0, 0, 0, 0, 0, 0, 0, 0, 0,0.0,0.0,0.0,0.4,0.0,0.2,0.0,0.2,0.0,0.0,0.0,0.0,0.0,50,core\src\test\java\org\apache\syncope\core\persistence\dao\ConfTest.java,0,0,0,0
org.apache.syncope.core.persistence.dao.ConnInstanceDAO, 0, 0, 0, 0, 0, 0, 0, 0, 0, 0, 0, 0, 0, 0,0.0,0.0,0.0,0.0,0.0,0.0,0.0,0.0,0.0,0.0,0.0,0.0,0.0,50,core\src\main\java\org\apache\syncope\core\persistence\dao\ConnInstanceDAO.java,0,0,0,0
org.apache.syncope.core.persistence.dao.ConnInstanceTest, 0, 0, 0, 0, 0, 0, 0, 0, 0, 0, 0, 0, 0, 0,0.0,0.0,0.0,0.5,0.0,0.25,0.0,0.0,0.0,0.0,0.0,0.0,0.0,69,core\src\test\java\org\apache\syncope\core\persistence\dao\ConnInstanceTest.java,0,0,0,0
org.apache.syncope.core.persistence.dao.ConnectorRegistry, 0, 0, 0, 0, 0, 0, 0, 0, 0, 0, 0, 0, 0, 0,0.0,0.0,0.0,0.0,0.0,0.0,0.0,0.0,0.0,0.0,0.0,0.0,0.0,69,core\src\main\java\org\apache\syncope\core\persistence\dao\ConnectorRegistry.java,0,0,0,0
org.apache.syncope.core.persistence.dao.DAO, 0, 0, 0, 0, 0, 0, 0, 0, 0, 0, 0, 0, 0, 0,0.0,0.0,0.0,0.0,0.0,0.0,0.0,0.0,0.0,0.0,0.0,0.0,0.0,69,core\src\main\java\org\apache\syncope\core\persistence\dao\DAO.java,0,0,0,0
org.apache.syncope.core.persistence.dao.DerAttrDAO, 0, 0, 0, 0, 0, 0, 0, 0, 0, 0, 0, 0, 0, 0,0.0,0.0,0.0,0.0,0.0,0.0,0.0,0.0,0.0,0.0,0.0,0.0,0.0,69,core\src\main\java\org\apache\syncope\core\persistence\dao\DerAttrDAO.java,0,0,0,0
org.apache.syncope.core.persistence.dao.DerAttrTest, 0, 0, 0, 0, 0, 0, 0, 0, 0, 0, 0, 0, 0, 0,0.0,0.0,0.0,0.18181818181818182,0.0,0.09090909090909091,0.0,0.0,0.0,0.0,0.0,0.0,0.0,163,core\src\test\java\org\apache\syncope\core\persistence\dao\DerAttrTest.java,0,0,0,0
org.apache.syncope.core.persistence.dao.DerSchemaDAO, 0, 0, 0, 0, 0, 0, 0, 0, 0, 0, 0, 0, 0, 0,0.0,0.0,0.0,0.0,0.0,0.0,0.0,0.0,0.0,0.0,0.0,0.0,0.0,163,core\src\main\java\org\apache\syncope\core\persistence\dao\DerSchemaDAO.java,0,0,0,0
org.apache.syncope.core.persistence.dao.DerSchemaTest, 0, 0, 0, 0, 0, 0, 0, 0, 0, 0, 0, 0, 0, 0,0.0,0.0,0.0,0.3333333333333333,0.0,0.3333333333333333,0.0,0.3333333333333333,0.0,0.0,0.0,0.0,0.0,48,core\src\test\java\org\apache\syncope\core\persistence\dao\DerSchemaTest.java,0,0,0,0
org.apache.syncope.core.persistence.dao.DummyConnectorRegistry, 0, 0, 0, 0, 0, 0, 0, 0, 0, 0, 0, 0, 0, 0,0.0,0.0,0.0,1.0,0.0,0.0,0.0,0.0,0.0,0.0,0.0,0.0,0.0,9,core\src\test\java\org\apache\syncope\core\persistence\dao\DummyConnectorRegistry.java,0,0,0,0
org.apache.syncope.core.persistence.dao.EntitlementDAO, 0, 0, 0, 0, 0, 0, 0, 0, 0, 0, 0, 0, 0, 0,0.0,0.0,0.0,0.0,0.0,0.0,0.0,0.0,0.0,0.0,0.0,0.0,0.0,9,core\src\main\java\org\apache\syncope\core\persistence\dao\EntitlementDAO.java,0,0,0,0
org.apache.syncope.core.persistence.dao.EntitlementTest, 0, 0, 0, 0, 0, 0, 0, 0, 0, 0, 0, 0, 0, 0,0.0,0.0,0.0,0.0,0.0,0.5,0.0,0.0,0.0,0.0,0.0,0.0,0.0,35,core\src\test\java\org\apache\syncope\core\persistence\dao\EntitlementTest.java,0,0,0,0
org.apache.syncope.core.persistence.dao.LoggerDAO, 0, 0, 0, 0, 0, 0, 0, 0, 0, 0, 0, 0, 0, 0,0.0,0.0,0.0,0.0,0.0,0.0,0.0,0.0,0.0,0.0,0.0,0.0,0.0,35,core\src\main\java\org\apache\syncope\core\persistence\dao\LoggerDAO.java,0,0,0,0
org.apache.syncope.core.persistence.dao.MembershipDAO, 0, 0, 0, 0, 0, 0, 0, 0, 0, 0, 0, 0, 0, 0,0.0,0.0,0.0,0.0,0.0,0.0,0.0,0.0,0.0,0.0,0.0,0.0,0.0,35,core\src\main\java\org\apache\syncope\core\persistence\dao\MembershipDAO.java,0,0,0,0
org.apache.syncope.core.persistence.dao.MembershipTest, 0, 0, 0, 0, 0, 0, 0, 0, 0, 0, 0, 0, 0, 0,0.0,0.0,0.0,0.5,0.0,0.5,0.0,0.0,0.0,0.0,0.0,0.0,0.0,36,core\src\test\java\org\apache\syncope\core\persistence\dao\MembershipTest.java,0,0,0,0
org.apache.syncope.core.persistence.dao.NotFoundException, 0, 0, 0, 0, 0, 0, 0, 0, 0, 0, 0, 0, 0, 0,0.0,0.0,0.0,0.3333333333333333,0.0,0.0,0.0,0.5833333333333334,0.0,0.0,0.0,0.0,0.0,9,core\src\main\java\org\apache\syncope\core\persistence\dao\NotFoundException.java,0,0,0,0
org.apache.syncope.core.persistence.dao.NotificationDAO, 0, 0, 0, 0, 0, 0, 0, 0, 0, 0, 0, 0, 0, 0,0.0,0.0,0.0,0.0,0.0,0.0,0.0,0.0,0.0,0.0,0.0,0.0,0.0,9,core\src\main\java\org\apache\syncope\core\persistence\dao\NotificationDAO.java,0,0,0,0
org.apache.syncope.core.persistence.dao.NotificationTest, 0, 0, 0, 0, 0, 0, 0, 0, 0, 0, 0, 0, 0, 0,0.0,0.0,0.0,0.3333333333333333,0.0,0.3333333333333333,0.0,0.3333333333333333,0.0,0.0,0.0,0.0,0.0,77,core\src\test\java\org\apache\syncope\core\persistence\dao\NotificationTest.java,0,0,0,0
org.apache.syncope.core.persistence.dao.PolicyDAO, 0, 0, 0, 0, 0, 0, 0, 0, 0, 0, 0, 0, 0, 0,0.0,0.0,0.0,0.0,0.0,0.0,0.0,0.0,0.0,0.0,0.0,0.0,0.0,77,core\src\main\java\org\apache\syncope\core\persistence\dao\PolicyDAO.java,0,0,0,0
org.apache.syncope.core.persistence.dao.PolicyTest, 0, 0, 0, 0, 0, 0, 0, 0, 0, 0, 0, 0, 0, 0,0.0,0.0,0.0,0.16666666666666666,0.0,0.16666666666666666,0.0,0.0,0.0,0.0,0.0,0.0,0.0,86,core\src\test\java\org\apache\syncope\core\persistence\dao\PolicyTest.java,0,0,0,0
org.apache.syncope.core.persistence.dao.ReportDAO, 0, 0, 0, 0, 0, 0, 0, 0, 0, 0, 0, 0, 0, 0,0.0,0.0,0.0,0.0,0.0,0.0,0.0,0.0,0.0,0.0,0.0,0.0,0.0,86,core\src\main\java\org\apache\syncope\core\persistence\dao\ReportDAO.java,0,0,0,0
org.apache.syncope.core.persistence.dao.ReportExecDAO, 0, 0, 0, 0, 0, 0, 0, 0, 0, 0, 0, 0, 0, 0,0.0,0.0,0.0,0.0,0.0,0.0,0.0,0.0,0.0,0.0,0.0,0.0,0.0,86,core\src\main\java\org\apache\syncope\core\persistence\dao\ReportExecDAO.java,0,0,0,0
org.apache.syncope.core.persistence.dao.ReportTest, 0, 0, 0, 0, 0, 0, 0, 0, 0, 0, 0, 0, 0, 0,0.0,0.0,0.0,0.0,0.0,0.3333333333333333,0.0,0.0,0.0,0.0,0.0,0.0,0.0,38,core\src\test\java\org\apache\syncope\core\persistence\dao\ReportTest.java,0,0,0,0
org.apache.syncope.core.persistence.dao.ResourceDAO, 0, 0, 0, 0, 0, 0, 0, 0, 0, 0, 0, 0, 0, 0,0.0,0.0,0.0,0.0,0.0,0.0,0.0,0.0,0.0,0.0,0.0,0.0,0.0,38,core\src\main\java\org\apache\syncope\core\persistence\dao\ResourceDAO.java,0,0,0,0
org.apache.syncope.core.persistence.dao.ResourceTest, 0, 0, 0, 0, 0, 0, 0, 0, 0, 0, 0, 0, 0, 0,0.0,0.0,0.0,0.5,0.0,0.16666666666666666,0.0,0.0,0.0,0.0,0.0,0.0,0.0,191,core\src\test\java\org\apache\syncope\core\persistence\dao\ResourceTest.java,0,0,0,0
org.apache.syncope.core.persistence.dao.RoleDAO, 0, 0, 0, 0, 0, 0, 0, 0, 0, 0, 0, 0, 0, 0,0.0,0.0,0.0,0.0,0.0,0.0,0.0,0.0,0.0,0.0,0.0,0.0,0.0,191,core\src\main\java\org\apache\syncope\core\persistence\dao\RoleDAO.java,0,0,0,0
org.apache.syncope.core.persistence.dao.RoleTest, 0, 0, 0, 0, 0, 0, 0, 0, 0, 0, 0, 0, 0, 0,0.0,0.0,0.0,0.0,0.0,0.5,0.0,0.0,0.0,0.0,0.0,0.0,0.0,75,core\src\test\java\org\apache\syncope\core\persistence\dao\RoleTest.java,0,0,0,0
org.apache.syncope.core.persistence.dao.SchemaDAO, 0, 0, 0, 0, 0, 0, 0, 0, 0, 0, 0, 0, 0, 0,0.0,0.0,0.0,0.0,0.0,0.0,0.0,0.0,0.0,0.0,0.0,0.0,0.0,75,core\src\main\java\org\apache\syncope\core\persistence\dao\SchemaDAO.java,0,0,0,0
org.apache.syncope.core.persistence.dao.SchemaTest, 0, 0, 0, 0, 0, 0, 0, 0, 0, 0, 0, 0, 0, 0,0.0,0.0,0.0,0.6666666666666666,0.0,0.3333333333333333,0.0,0.3333333333333333,0.0,0.0,0.0,0.0,0.0,95,core\src\test\java\org\apache\syncope\core\persistence\dao\SchemaTest.java,0,0,0,0
org.apache.syncope.core.persistence.dao.SecurityQuestionDAO, 0, 0, 0, 0, 0, 0, 0, 0, 0, 0, 0, 0, 0, 0,0.0,0.0,0.0,0.0,0.0,0.0,0.0,0.0,0.0,0.0,0.0,0.0,0.0,95,core\src\main\java\org\apache\syncope\core\persistence\dao\SecurityQuestionDAO.java,0,0,0,0
org.apache.syncope.core.persistence.dao.SecurityQuestionTest, 0, 0, 0, 0, 0, 0, 0, 0, 0, 0, 0, 0, 0, 0,0.0,0.0,0.0,0.0,0.0,0.5,0.0,0.0,0.0,0.0,0.0,0.0,0.0,29,core\src\test\java\org\apache\syncope\core\persistence\dao\SecurityQuestionTest.java,0,0,0,0
org.apache.syncope.core.persistence.dao.SubjectDAO, 0, 0, 0, 0, 0, 0, 0, 0, 0, 0, 0, 0, 0, 0,0.0,0.0,0.0,0.0,0.0,0.0,0.0,0.0,0.0,0.0,0.0,0.0,0.0,29,core\src\main\java\org\apache\syncope\core\persistence\dao\SubjectDAO.java,0,0,0,0
org.apache.syncope.core.persistence.dao.SubjectSearchDAO, 0, 0, 0, 0, 0, 0, 0, 0, 0, 0, 0, 0, 0, 0,0.0,0.0,0.0,0.0,0.0,0.0,0.0,0.0,0.0,0.0,0.0,0.0,0.0,29,core\src\main\java\org\apache\syncope\core\persistence\dao\SubjectSearchDAO.java,0,0,0,0
org.apache.syncope.core.persistence.dao.TaskDAO, 0, 0, 0, 0, 0, 0, 0, 0, 0, 0, 0, 0, 0, 0,0.0,0.0,0.0,0.0,0.0,0.0,0.0,0.0,0.0,0.0,0.0,0.0,0.0,29,core\src\main\java\org\apache\syncope\core\persistence\dao\TaskDAO.java,0,0,0,0
org.apache.syncope.core.persistence.dao.TaskExecDAO, 0, 0, 0, 0, 0, 0, 0, 0, 0, 0, 0, 0, 0, 0,0.0,0.0,0.0,0.0,0.0,0.0,0.0,0.0,0.0,0.0,0.0,0.0,0.0,29,core\src\main\java\org\apache\syncope\core\persistence\dao\TaskExecDAO.java,0,0,0,0
org.apache.syncope.core.persistence.dao.TaskExecTest, 0, 0, 0, 0, 0, 0, 0, 0, 0, 0, 0, 0, 0, 0,0.0,0.0,0.0,0.0,0.0,0.3333333333333333,0.0,0.0,0.0,0.0,0.0,0.0,0.0,42,core\src\test\java\org\apache\syncope\core\persistence\dao\TaskExecTest.java,0,0,0,0
org.apache.syncope.core.persistence.dao.TaskTest, 0, 0, 0, 0, 0, 0, 0, 0, 0, 0, 0, 0, 0, 0,0.0,0.0,0.0,0.5,0.0,0.25,0.0,0.0,0.0,0.0,0.0,0.0,0.0,56,core\src\test\java\org\apache\syncope\core\persistence\dao\TaskTest.java,0,0,0,0
org.apache.syncope.core.persistence.dao.UserDAO, 0, 0, 0, 0, 0, 0, 0, 0, 0, 0, 0, 0, 0, 0,0.0,0.0,0.0,0.0,0.0,0.0,0.0,0.0,0.0,0.0,0.0,0.0,0.0,56,core\src\main\java\org\apache\syncope\core\persistence\dao\UserDAO.java,0,0,0,0
org.apache.syncope.core.persistence.dao.UserTest, 0, 0, 0, 0, 0, 0, 0, 0, 0, 0, 0, 0, 0, 0,0.0,0.0,0.0,0.25,0.0,0.25,0.0,0.0,0.0,0.0,0.0,0.0,0.0,133,core\src\test\java\org\apache\syncope\core\persistence\dao\UserTest.java,0,0,0,0
org.apache.syncope.core.persistence.dao.VirAttrDAO, 0, 0, 0, 0, 0, 0, 0, 0, 0, 0, 0, 0, 0, 0,0.0,0.0,0.0,0.0,0.0,0.0,0.0,0.0,0.0,0.0,0.0,0.0,0.0,133,core\src\main\java\org\apache\syncope\core\persistence\dao\VirAttrDAO.java,0,0,0,0
org.apache.syncope.core.persistence.dao.VirAttrTest, 0, 0, 0, 0, 0, 0, 0, 0, 0, 0, 0, 0, 0, 0,0.0,0.0,0.0,0.14285714285714285,0.0,0.14285714285714285,0.0,0.0,0.0,0.0,0.0,0.0,0.0,72,core\src\test\java\org\apache\syncope\core\persistence\dao\VirAttrTest.java,0,0,0,0
org.apache.syncope.core.persistence.dao.VirSchemaDAO, 0, 0, 0, 0, 0, 0, 0, 0, 0, 0, 0, 0, 0, 0,0.0,0.0,0.0,0.0,0.0,0.0,0.0,0.0,0.0,0.0,0.0,0.0,0.0,72,core\src\main\java\org\apache\syncope\core\persistence\dao\VirSchemaDAO.java,0,0,0,0
org.apache.syncope.core.persistence.dao.VirSchemaTest, 0, 0, 0, 0, 0, 0, 0, 0, 0, 0, 0, 0, 0, 0,0.0,0.0,0.0,0.3333333333333333,0.0,0.3333333333333333,0.0,0.3333333333333333,0.0,0.0,0.0,0.0,0.0,47,core\src\test\java\org\apache\syncope\core\persistence\dao\VirSchemaTest.java,0,0,0,0
org.apache.syncope.core.persistence.dao.impl.AttrDAOImpl, 0, 0, 0, 0, 0, 0, 0, 0, 0, 0, 0, 0, 0, 0,0.0,0.0,0.0,0.0,0.0,0.0,0.0,0.0,0.0,0.0,0.0,0.0,0.0,21,core\src\main\java\org\apache\syncope\core\persistence\dao\impl\AttrDAOImpl.java,0,0,0,0
org.apache.syncope.core.persistence.dao.impl.AttrTemplateDAOImpl, 0, 0, 0, 0, 0, 0, 0, 0, 0, 0, 0, 0, 0, 0,0.0,0.0,0.0,0.0,0.0,0.0,0.0,0.0,0.0,0.0,0.0,0.0,0.0,33,core\src\main\java\org\apache\syncope\core\persistence\dao\impl\AttrTemplateDAOImpl.java,0,0,0,0
org.apache.syncope.core.persistence.dao.impl.AttrValueDAOImpl, 0, 0, 0, 0, 0, 0, 0, 0, 0, 0, 0, 0, 0, 0,0.0,0.0,0.0,0.0,0.0,0.0,0.0,0.0,0.0,0.0,0.0,0.0,0.0,30,core\src\main\java\org\apache\syncope\core\persistence\dao\impl\AttrValueDAOImpl.java,0,0,0,0
org.apache.syncope.core.persistence.dao.impl.ConfDAOImpl, 0, 0, 0, 0, 0, 0, 0, 0, 0, 0, 0, 0, 0, 0,0.0,0.0,0.0,0.4,0.0,0.0,0.0,0.2,0.0,0.0,0.0,0.0,0.0,55,core\src\main\java\org\apache\syncope\core\persistence\dao\impl\ConfDAOImpl.java,0,0,0,0
org.apache.syncope.core.persistence.dao.impl.ConnInstanceDAOImpl, 0, 0, 0, 0, 0, 0, 0, 0, 0, 0, 0, 0, 0, 0,0.0,0.0,0.0,0.6666666666666666,0.0,0.0,0.0,0.0,0.0,0.0,0.0,0.0,0.0,44,core\src\main\java\org\apache\syncope\core\persistence\dao\impl\ConnInstanceDAOImpl.java,0,0,0,0
org.apache.syncope.core.persistence.dao.impl.ContentLoader, 0, 0, 0, 0, 0, 0, 0, 0, 0, 0, 0, 0, 0, 0,0.0,0.0,0.0,0.0,0.0,0.0,0.0,0.0,0.0,0.0,0.0,0.0,0.0,44,core\src\main\java\org\apache\syncope\core\persistence\dao\impl\ContentLoader.java,0,0,0,0
org.apache.syncope.core.persistence.dao.impl.DerAttrDAOImpl, 0, 0, 0, 0, 0, 0, 0, 0, 0, 0, 0, 0, 0, 0,0.0,0.0,0.0,0.0,0.0,0.0,0.0,0.0,0.0,0.0,0.0,0.0,0.0,31,core\src\main\java\org\apache\syncope\core\persistence\dao\impl\DerAttrDAOImpl.java,0,0,0,0
org.apache.syncope.core.persistence.dao.impl.EntitlementDAOImpl, 0, 0, 0, 0, 0, 0, 0, 0, 0, 0, 0, 0, 0, 0,0.0,0.0,0.0,0.0,0.0,0.0,0.0,0.0,0.0,0.0,0.0,0.0,0.0,43,core\src\main\java\org\apache\syncope\core\persistence\dao\impl\EntitlementDAOImpl.java,0,0,0,0
org.apache.syncope.core.persistence.dao.impl.LoggerDAOImpl, 0, 0, 0, 0, 0, 0, 0, 0, 0, 0, 0, 0, 0, 0,0.0,0.0,0.0,0.0,0.0,0.0,0.0,0.0,0.0,0.0,0.0,0.0,0.0,32,core\src\main\java\org\apache\syncope\core\persistence\dao\impl\LoggerDAOImpl.java,0,0,0,0
org.apache.syncope.core.persistence.dao.impl.MembershipDAOImpl, 0, 0, 0, 0, 0, 0, 0, 0, 0, 0, 0, 0, 0, 0,0.0,0.0,0.0,1.0,0.0,0.0,0.0,0.0,0.0,0.0,0.0,0.0,0.0,41,core\src\main\java\org\apache\syncope\core\persistence\dao\impl\MembershipDAOImpl.java,0,0,0,0
org.apache.syncope.core.persistence.dao.impl.NotificationDAOImpl, 0, 0, 0, 0, 0, 0, 0, 0, 0, 0, 0, 0, 0, 0,0.0,0.0,0.0,1.0,0.0,0.0,0.0,0.0,0.0,0.0,0.0,0.0,0.0,20,core\src\main\java\org\apache\syncope\core\persistence\dao\impl\NotificationDAOImpl.java,0,0,0,0
org.apache.syncope.core.persistence.dao.impl.OrderBySupport, 0, 0, 0, 0, 0, 0, 0, 0, 0, 0, 0, 0, 0, 0,0.0,0.0,0.0,0.0,0.0,0.0,0.0,0.0,0.0,0.0,0.0,0.0,0.0,14,core\src\main\java\org\apache\syncope\core\persistence\dao\impl\OrderBySupport.java,0,0,0,0
org.apache.syncope.core.persistence.dao.impl.PolicyDAOImpl, 0, 0, 0, 0, 0, 0, 0, 0, 0, 0, 0, 0, 0, 0,0.0,0.0,0.0,0.2,0.0,0.0,0.0,0.0,0.0,0.0,0.0,0.0,0.0,82,core\src\main\java\org\apache\syncope\core\persistence\dao\impl\PolicyDAOImpl.java,0,0,0,0
org.apache.syncope.core.persistence.dao.impl.ReportDAOImpl, 0, 0, 0, 0, 0, 0, 0, 1, 0, 0, 0, 0, 0, 1,0.0,0.0,0.0,0.0,0.0,0.0,0.0,0.0,0.0,0.0,0.0,0.0,0.0,46,core\src\main\java\org\apache\syncope\core\persistence\dao\impl\ReportDAOImpl.java,0,0,0,0
org.apache.syncope.core.persistence.dao.impl.ReportExecDAOImpl, 0, 0, 0, 0, 0, 0, 0, 0, 0, 0, 0, 0, 0, 0,0.0,0.0,0.0,0.0,0.0,0.0,0.0,0.0,0.0,0.0,0.0,0.0,0.0,51,core\src\main\java\org\apache\syncope\core\persistence\dao\impl\ReportExecDAOImpl.java,0,0,0,0
org.apache.syncope.core.persistence.dao.impl.SearchSupport, 0, 0, 0, 0, 0, 0, 0, 0, 0, 0, 0, 0, 0, 0,0.0,0.0,0.0,0.0,0.0,0.0,0.0,0.0,0.0,0.0,0.0,0.0,0.0,80,core\src\main\java\org\apache\syncope\core\persistence\dao\impl\SearchSupport.java,0,0,0,0
org.apache.syncope.core.persistence.dao.impl.SecurityQuestionDAOImpl, 0, 0, 0, 0, 0, 0, 0, 0, 0, 0, 0, 0, 0, 0,0.0,0.0,0.0,0.5,0.0,0.0,0.0,0.0,0.0,0.0,0.0,0.0,0.0,31,core\src\main\java\org\apache\syncope\core\persistence\dao\impl\SecurityQuestionDAOImpl.java,0,0,0,0
org.apache.syncope.core.persistence.dao.impl.TestDbInitializer, 0, 0, 0, 0, 0, 0, 0, 0, 0, 0, 0, 0, 0, 0,0.0,0.0,0.0,0.0,0.0,0.0,0.0,0.0,0.0,0.0,0.0,0.0,0.0,8,core\src\test\java\org\apache\syncope\core\persistence\dao\impl\TestDbInitializer.java,0,0,0,0
org.apache.syncope.core.persistence.dao.impl.UserDAOImpl, 0, 0, 0, 0, 0, 0, 0, 1, 0, 0, 0, 0, 0, 1,0.0,0.0,0.0,0.45454545454545453,0.0,0.0,0.0,0.09090909090909091,0.0,0.0,0.0,0.0,0.0,143,core\src\main\java\org\apache\syncope\core\persistence\dao\impl\UserDAOImpl.java,0,0,1,2
org.apache.syncope.core.persistence.dao.impl.VirAttrDAOImpl, 0, 0, 0, 0, 0, 0, 0, 0, 0, 0, 0, 0, 0, 0,0.0,0.0,0.0,0.0,0.0,0.0,0.0,0.0,0.0,0.0,0.0,0.0,0.0,30,core\src\main\java\org\apache\syncope\core\persistence\dao\impl\VirAttrDAOImpl.java,0,0,0,0
org.apache.syncope.core.persistence.dao.search.AbstractSearchCond, 0, 0, 0, 0, 0, 0, 0, 0, 0, 0, 0, 0, 0, 0,0.0,0.0,0.0,0.2,0.0,0.0,0.0,0.0,0.0,0.0,0.0,0.0,0.0,16,core\src\main\java\org\apache\syncope\core\persistence\dao\search\AbstractSearchCond.java,0,0,0,0
org.apache.syncope.core.persistence.dao.search.AttributeCond, 0, 0, 0, 0, 0, 0, 0, 0, 0, 0, 0, 0, 0, 0,0.0,0.0,0.0,0.25,0.0,0.0,0.0,0.125,0.0,0.0,0.0,0.0,0.0,45,core\src\main\java\org\apache\syncope\core\persistence\dao\search\AttributeCond.java,0,0,0,0
org.apache.syncope.core.persistence.dao.search.EntitlementCond, 0, 0, 0, 0, 0, 0, 0, 0, 0, 0, 0, 0, 0, 0,0.0,0.0,0.0,0.3333333333333333,0.0,0.0,0.0,0.0,0.0,0.0,0.0,0.0,0.0,14,core\src\main\java\org\apache\syncope\core\persistence\dao\search\EntitlementCond.java,0,0,0,0
org.apache.syncope.core.persistence.dao.search.MembershipCond, 0, 0, 0, 0, 0, 0, 0, 0, 0, 0, 0, 0, 0, 0,0.0,0.0,0.0,0.5,0.0,0.0,0.0,0.0,0.0,0.0,0.0,0.0,0.0,17,core\src\main\java\org\apache\syncope\core\persistence\dao\search\MembershipCond.java,0,0,0,0
org.apache.syncope.core.persistence.dao.search.OrderByClause, 0, 0, 0, 0, 0, 0, 0, 0, 0, 0, 0, 0, 0, 0,0.0,0.0,0.0,1.0,0.0,0.0,0.0,0.0,0.0,0.0,0.0,0.0,0.0,32,core\src\main\java\org\apache\syncope\core\persistence\dao\search\OrderByClause.java,0,0,0,0
org.apache.syncope.core.persistence.dao.search.ResourceCond, 0, 0, 0, 0, 0, 0, 0, 0, 0, 0, 0, 0, 0, 0,0.0,0.0,0.0,0.5,0.0,0.0,0.0,0.0,0.0,0.0,0.0,0.0,0.0,14,core\src\main\java\org\apache\syncope\core\persistence\dao\search\ResourceCond.java,0,0,0,0
org.apache.syncope.core.persistence.dao.search.SearchCond, 0, 0, 0, 1, 0, 0, 0, 0, 0, 0, 0, 0, 0, 1,0.0,0.0,0.0,0.07692307692307693,0.0,0.0,0.0,0.15384615384615385,0.0,0.0,0.0,0.0,0.0,173,core\src\main\java\org\apache\syncope\core\persistence\dao\search\SearchCond.java,0,0,0,0
org.apache.syncope.core.persistence.dao.search.SubjectCond, 0, 0, 0, 0, 0, 0, 0, 0, 0, 0, 0, 0, 0, 0,0.0,0.0,0.0,0.4,0.0,0.0,0.0,0.2,0.0,0.0,0.0,0.0,0.0,8,core\src\main\java\org\apache\syncope\core\persistence\dao\search\SubjectCond.java,0,0,0,0
org.apache.syncope.core.persistence.relationships.AttrTest, 0, 0, 0, 0, 0, 0, 0, 0, 0, 0, 0, 0, 0, 0,0.0,0.0,0.0,0.3076923076923077,0.0,0.07692307692307693,0.0,0.07692307692307693,0.0,0.0,0.0,0.0,0.0,100,core\src\test\java\org\apache\syncope\core\persistence\relationships\AttrTest.java,0,0,0,0
org.apache.syncope.core.persistence.relationships.AttributableSearchTest, 0, 0, 0, 0, 0, 0, 0, 0, 0, 0, 0, 0, 0, 0,0.0,0.0,0.0,0.3333333333333333,0.0,0.0,0.0,0.0,0.0,0.0,0.0,0.0,0.0,26,core\src\test\java\org\apache\syncope\core\persistence\relationships\AttributableSearchTest.java,0,0,0,0
org.apache.syncope.core.persistence.relationships.ConnInstanceTest, 0, 0, 0, 0, 0, 0, 0, 0, 0, 0, 0, 0, 0, 0,0.0,0.0,0.0,0.6666666666666666,0.0,0.3333333333333333,0.0,0.0,0.0,0.0,0.0,0.0,0.0,47,core\src\test\java\org\apache\syncope\core\persistence\relationships\ConnInstanceTest.java,0,0,0,0
org.apache.syncope.core.persistence.relationships.DerSchemaTest, 0, 0, 0, 0, 0, 0, 0, 0, 0, 0, 0, 0, 0, 0,0.0,0.0,0.0,0.3333333333333333,0.0,0.3333333333333333,0.0,0.3333333333333333,0.0,0.0,0.0,0.0,0.0,17,core\src\test\java\org\apache\syncope\core\persistence\relationships\DerSchemaTest.java,0,0,0,0
org.apache.syncope.core.persistence.relationships.MembershipTest, 0, 0, 0, 0, 0, 0, 0, 0, 0, 0, 0, 0, 0, 0,0.0,0.0,0.0,0.6666666666666666,0.0,0.3333333333333333,0.0,0.0,0.0,0.0,0.0,0.0,0.0,32,core\src\test\java\org\apache\syncope\core\persistence\relationships\MembershipTest.java,0,0,0,0
org.apache.syncope.core.persistence.relationships.ReportTest, 0, 0, 0, 0, 0, 0, 0, 0, 0, 0, 0, 0, 0, 0,0.0,0.0,0.0,0.0,0.0,0.25,0.0,0.0,0.0,0.0,0.0,0.0,0.0,60,core\src\test\java\org\apache\syncope\core\persistence\relationships\ReportTest.java,0,0,0,0
org.apache.syncope.core.persistence.relationships.ResourceTest, 0, 0, 0, 0, 0, 0, 0, 0, 0, 0, 0, 0, 0, 0,0.0,0.0,0.0,0.36363636363636365,0.0,0.09090909090909091,0.0,0.0,0.0,0.0,0.0,0.0,0.0,165,core\src\test\java\org\apache\syncope\core\persistence\relationships\ResourceTest.java,0,0,0,0
org.apache.syncope.core.persistence.relationships.RoleTest, 0, 0, 0, 0, 0, 0, 0, 0, 0, 0, 0, 0, 0, 0,0.0,0.0,0.0,0.5,0.0,0.5,0.0,0.0,0.0,0.0,0.0,0.0,0.0,73,core\src\test\java\org\apache\syncope\core\persistence\relationships\RoleTest.java,0,0,0,0
org.apache.syncope.core.persistence.relationships.SchemaTest, 0, 0, 0, 0, 0, 0, 0, 0, 0, 0, 0, 0, 0, 0,0.0,0.0,0.0,0.6666666666666666,0.0,0.16666666666666666,0.0,0.16666666666666666,0.0,0.0,0.0,0.0,0.0,81,core\src\test\java\org\apache\syncope\core\persistence\relationships\SchemaTest.java,0,0,0,0
org.apache.syncope.core.persistence.relationships.SecurityQuestionTest, 0, 0, 0, 0, 0, 0, 0, 0, 0, 0, 0, 0, 0, 0,0.0,0.0,0.0,0.5,0.0,0.5,0.0,0.0,0.0,0.0,0.0,0.0,0.0,18,core\src\test\java\org\apache\syncope\core\persistence\relationships\SecurityQuestionTest.java,0,0,0,0
org.apache.syncope.core.persistence.relationships.TaskTest, 0, 0, 0, 0, 0, 0, 0, 0, 0, 0, 0, 0, 0, 0,0.0,0.0,0.0,0.25,0.0,0.25,0.0,0.0,0.0,0.0,0.0,0.0,0.0,107,core\src\test\java\org\apache\syncope\core\persistence\relationships\TaskTest.java,0,0,0,0
org.apache.syncope.core.persistence.relationships.UserTest, 0, 0, 0, 0, 0, 0, 0, 0, 0, 0, 0, 0, 0, 0,0.0,0.0,0.0,0.0,0.0,1.0,0.0,0.0,0.0,0.0,0.0,0.0,0.0,23,core\src\test\java\org\apache\syncope\core\persistence\relationships\UserTest.java,0,0,0,0
org.apache.syncope.core.persistence.validation.attrvalue.AbstractValidator, 0, 0, 0, 0, 0, 0, 0, 0, 0, 0, 0, 0, 0, 0,0.0,0.0,0.0,0.25,0.0,0.0,0.0,0.0,0.0,0.0,0.0,0.0,0.0,16,core\src\main\java\org\apache\syncope\core\persistence\validation\attrvalue\AbstractValidator.java,0,0,0,0
org.apache.syncope.core.persistence.validation.attrvalue.AlwaysTrueValidator, 0, 0, 0, 0, 0, 0, 0, 0, 0, 0, 0, 0, 0, 0,0.0,0.0,0.0,0.3333333333333333,0.0,0.0,0.0,0.0,0.0,0.0,0.0,0.0,0.0,14,core\src\main\java\org\apache\syncope\core\persistence\validation\attrvalue\AlwaysTrueValidator.java,0,0,0,0
org.apache.syncope.core.persistence.validation.attrvalue.BasicValidator, 0, 0, 0, 0, 0, 0, 0, 0, 0, 0, 0, 0, 0, 0,0.0,0.0,0.0,0.3333333333333333,0.0,0.0,0.0,0.0,0.0,0.0,0.0,0.0,0.0,22,core\src\main\java\org\apache\syncope\core\persistence\validation\attrvalue\BasicValidator.java,0,0,0,0
org.apache.syncope.core.persistence.validation.attrvalue.InvalidAttrValueException, 0, 0, 0, 0, 0, 0, 0, 0, 0, 0, 0, 0, 0, 0,0.0,0.0,0.0,0.0,0.0,0.0,0.0,0.0,0.0,0.0,0.0,0.0,0.0,15,core\src\main\java\org\apache\syncope\core\persistence\validation\attrvalue\InvalidAttrValueException.java,0,0,0,0
org.apache.syncope.core.persistence.validation.attrvalue.ParsingValidationException, 0, 0, 0, 0, 0, 0, 0, 0, 0, 0, 0, 0, 0, 0,0.0,0.0,0.0,0.0,0.0,0.0,0.0,0.0,0.0,0.0,0.0,0.0,0.0,6,core\src\main\java\org\apache\syncope\core\persistence\validation\attrvalue\ParsingValidationException.java,0,0,0,0
org.apache.syncope.core.persistence.validation.attrvalue.Validator, 0, 0, 0, 0, 0, 0, 0, 0, 0, 0, 0, 0, 0, 0,0.0,0.0,0.0,0.0,0.0,0.0,0.0,0.0,0.0,0.0,0.0,0.0,0.0,6,core\src\main\java\org\apache\syncope\core\persistence\validation\attrvalue\Validator.java,0,0,0,0
org.apache.syncope.core.persistence.validation.entity.AbstractSyncTaskValidator, 0, 0, 0, 0, 0, 0, 0, 0, 0, 0, 0, 0, 0, 0,0.0,0.0,0.0,0.3333333333333333,0.0,0.0,0.0,0.0,0.0,0.0,0.0,0.0,0.0,46,core\src\main\java\org\apache\syncope\core\persistence\validation\entity\AbstractSyncTaskValidator.java,0,0,0,0
org.apache.syncope.core.persistence.validation.entity.AbstractValidator, 0, 0, 0, 0, 0, 0, 0, 0, 0, 0, 0, 0, 0, 0,0.0,0.0,0.0,0.0,0.0,0.0,0.0,0.0,0.0,0.0,0.0,0.0,0.0,11,core\src\main\java\org\apache\syncope\core\persistence\validation\entity\AbstractValidator.java,0,0,0,0
org.apache.syncope.core.persistence.validation.entity.AttrValidator, 0, 0, 0, 0, 0, 0, 0, 0, 0, 0, 0, 0, 0, 0,0.0,0.0,0.0,0.3333333333333333,0.0,0.0,0.0,0.0,0.0,0.0,0.0,0.0,0.0,28,core\src\main\java\org\apache\syncope\core\persistence\validation\entity\AttrValidator.java,0,0,0,0
org.apache.syncope.core.persistence.validation.entity.AttrValueValidator, 0, 0, 0, 0, 0, 0, 0, 0, 0, 0, 0, 0, 0, 0,0.0,0.0,0.0,0.0,0.0,0.0,0.0,0.0,0.0,0.0,0.0,0.0,0.0,53,core\src\main\java\org\apache\syncope\core\persistence\validation\entity\AttrValueValidator.java,0,0,0,0
org.apache.syncope.core.persistence.validation.entity.ConnInstanceValidator, 0, 0, 0, 0, 0, 0, 0, 0, 0, 0, 0, 0, 0, 0,0.0,0.0,0.0,0.25,0.0,0.0,0.0,0.0,0.0,0.0,0.0,0.0,0.0,29,core\src\main\java\org\apache\syncope\core\persistence\validation\entity\ConnInstanceValidator.java,0,0,0,0
org.apache.syncope.core.persistence.validation.entity.EntityValidationListener, 0, 0, 0, 0, 0, 0, 0, 0, 0, 0, 0, 0, 0, 0,0.0,0.0,0.0,0.0,0.0,0.0,0.0,0.0,0.0,0.0,0.0,0.0,0.0,13,core\src\main\java\org\apache\syncope\core\persistence\validation\entity\EntityValidationListener.java,0,0,0,0
org.apache.syncope.core.persistence.validation.entity.ExternalResourceValidator, 0, 0, 0, 0, 0, 0, 0, 0, 0, 0, 0, 0, 0, 0,0.0,0.0,0.0,0.5,0.0,0.0,0.0,0.0,0.0,0.0,0.0,0.0,0.0,93,core\src\main\java\org\apache\syncope\core\persistence\validation\entity\ExternalResourceValidator.java,0,0,0,0
org.apache.syncope.core.persistence.validation.entity.NotificationValidator, 0, 0, 0, 0, 0, 0, 0, 0, 0, 0, 0, 0, 0, 0,0.0,0.0,0.0,0.5,0.0,0.0,0.0,0.0,0.0,0.0,0.0,0.0,0.0,26,core\src\main\java\org\apache\syncope\core\persistence\validation\entity\NotificationValidator.java,0,0,0,0
org.apache.syncope.core.persistence.validation.entity.PolicyValidator, 0, 0, 0, 0, 0, 0, 0, 0, 0, 0, 0, 0, 0, 0,0.0,0.0,0.0,0.0,0.0,0.0,0.0,0.0,0.0,0.0,0.0,0.0,0.0,19,core\src\main\java\org\apache\syncope\core\persistence\validation\entity\PolicyValidator.java,0,0,0,0
org.apache.syncope.core.persistence.validation.entity.PropagationTaskValidator, 0, 0, 0, 0, 0, 0, 0, 0, 0, 0, 0, 0, 0, 0,0.0,0.0,0.0,0.25,0.0,0.0,0.0,0.0,0.0,0.0,0.0,0.0,0.0,32,core\src\main\java\org\apache\syncope\core\persistence\validation\entity\PropagationTaskValidator.java,0,0,0,0
org.apache.syncope.core.persistence.validation.entity.ReportValidator, 0, 0, 0, 0, 0, 0, 0, 0, 0, 0, 0, 0, 0, 0,0.0,0.0,0.0,0.0,0.0,0.0,0.0,0.0,0.0,0.0,0.0,0.0,0.0,32,core\src\main\java\org\apache\syncope\core\persistence\validation\entity\ReportValidator.java,0,0,0,0
org.apache.syncope.core.persistence.validation.entity.SchedTaskValidator, 0, 0, 0, 0, 0, 0, 0, 0, 0, 0, 0, 0, 0, 0,0.0,0.0,0.0,0.0,0.0,0.0,0.0,0.0,0.0,0.0,0.0,0.0,0.0,34,core\src\main\java\org\apache\syncope\core\persistence\validation\entity\SchedTaskValidator.java,0,0,0,0
org.apache.syncope.core.persistence.validation.entity.SchemaValidator, 0, 0, 0, 0, 0, 0, 0, 0, 0, 0, 0, 0, 0, 0,0.0,0.0,0.0,0.5,0.0,0.0,0.0,0.0,0.0,0.0,0.0,0.0,0.0,33,core\src\main\java\org\apache\syncope\core\persistence\validation\entity\SchemaValidator.java,0,0,0,0
org.apache.syncope.core.persistence.validation.entity.SyncopeRoleValidator, 0, 0, 0, 0, 0, 0, 0, 0, 0, 0, 0, 0, 0, 0,0.0,0.0,0.0,0.0,0.0,0.0,0.0,0.0,0.0,0.0,0.0,0.0,0.0,15,core\src\main\java\org\apache\syncope\core\persistence\validation\entity\SyncopeRoleValidator.java,0,0,0,0
org.apache.syncope.core.persistence.validation.entity.SyncopeUserValidator, 0, 0, 0, 0, 0, 0, 0, 0, 0, 0, 0, 0, 0, 0,0.0,0.0,0.0,0.375,0.0,0.0,0.0,0.125,0.0,0.0,0.0,0.0,0.0,102,core\src\main\java\org\apache\syncope\core\persistence\validation\entity\SyncopeUserValidator.java,0,0,0,0
org.apache.syncope.core.policy.AccountPolicyEnforcer, 0, 0, 0, 0, 0, 0, 0, 1, 0, 0, 0, 0, 0, 1,0.0,0.0,0.0,0.2857142857142857,0.0,0.0,0.0,0.14285714285714285,0.0,0.0,0.0,0.0,0.0,51,core\src\main\java\org\apache\syncope\core\policy\AccountPolicyEnforcer.java,0,0,0,0
org.apache.syncope.core.policy.AccountPolicyEnforcerTest, 0, 0, 0, 0, 0, 0, 0, 0, 0, 0, 0, 0, 0, 0,0.0,0.0,0.0,0.5,0.0,0.0,0.0,0.25,0.0,0.0,0.0,0.0,0.0,58,core\src\test\java\org\apache\syncope\core\policy\AccountPolicyEnforcerTest.java,0,0,0,0
org.apache.syncope.core.policy.AccountPolicyException, 0, 0, 0, 0, 0, 0, 0, 0, 0, 0, 0, 0, 0, 0,0.0,0.0,0.0,0.0,0.0,0.0,0.0,0.3333333333333333,0.0,0.0,0.0,0.0,0.0,9,core\src\main\java\org\apache\syncope\core\policy\AccountPolicyException.java,0,0,0,0
org.apache.syncope.core.policy.PasswordPolicyException, 0, 0, 0, 0, 0, 0, 0, 0, 0, 0, 0, 0, 0, 0,0.0,0.0,0.0,0.0,0.0,0.0,0.0,0.0,0.0,0.0,0.0,0.0,0.0,9,core\src\main\java\org\apache\syncope\core\policy\PasswordPolicyException.java,0,0,0,0
org.apache.syncope.core.policy.PolicyEnforceException, 0, 0, 0, 0, 0, 0, 0, 0, 0, 0, 0, 0, 0, 0,0.0,0.0,0.0,0.0,0.0,0.0,0.0,1.0,0.0,0.0,0.0,0.0,0.0,9,core\src\main\java\org\apache\syncope\core\policy\PolicyEnforceException.java,0,0,0,0
org.apache.syncope.core.policy.PolicyEnforcer, 0, 0, 0, 0, 0, 0, 0, 1, 0, 0, 0, 0, 0, 1,0.0,0.0,0.0,0.0,0.0,0.0,0.0,1.0,0.0,0.0,0.0,0.0,0.0,5,core\src\main\java\org\apache\syncope\core\policy\PolicyEnforcer.java,0,0,0,0
org.apache.syncope.core.policy.PolicyEvaluator, 0, 0, 0, 0, 0, 0, 0, 0, 0, 0, 0, 0, 0, 0,0.0,0.0,0.0,0.5,0.0,0.0,0.0,0.0,0.0,0.0,0.0,0.0,0.0,59,core\src\main\java\org\apache\syncope\core\policy\PolicyEvaluator.java,0,0,0,0
org.apache.syncope.core.policy.PolicyPattern, 0, 0, 0, 0, 0, 0, 0, 0, 0, 0, 0, 0, 0, 0,0.0,0.0,0.0,0.0,0.0,0.0,0.0,0.0,0.0,0.0,0.0,0.0,0.0,13,core\src\main\java\org\apache\syncope\core\policy\PolicyPattern.java,0,0,0,0
org.apache.syncope.core.policy.UserSuspender, 0, 0, 0, 0, 0, 0, 0, 0, 0, 0, 0, 0, 0, 0,0.0,0.0,0.0,0.0,0.0,0.0,0.0,0.0,0.0,0.0,0.0,0.0,0.0,13,core\src\main\java\org\apache\syncope\core\policy\UserSuspender.java,0,0,0,0
org.apache.syncope.core.propagation.Connector, 0, 0, 0, 0, 0, 0, 0, 0, 0, 0, 0, 0, 0, 0,0.0,0.0,0.0,0.0,0.0,0.0,0.0,0.0,0.0,0.0,0.0,0.0,0.0,13,core\src\main\java\org\apache\syncope\core\propagation\Connector.java,0,0,0,0
org.apache.syncope.core.propagation.ConnectorFactory, 0, 0, 0, 0, 0, 0, 0, 0, 0, 0, 0, 0, 0, 0,0.0,0.0,0.0,0.0,0.0,0.0,0.0,0.0,0.0,0.0,0.0,0.0,0.0,13,core\src\main\java\org\apache\syncope\core\propagation\ConnectorFactory.java,0,0,0,0
org.apache.syncope.core.propagation.DefaultPropagationActions, 0, 0, 0, 0, 0, 0, 0, 1, 0, 0, 0, 0, 0, 1,0.0,0.0,0.0,0.25,0.0,0.0,0.0,0.0,0.0,0.0,0.0,0.0,0.0,8,core\src\main\java\org\apache\syncope\core\propagation\DefaultPropagationActions.java,0,0,0,0
org.apache.syncope.core.propagation.PropagationActions, 0, 0, 0, 0, 0, 0, 0, 0, 0, 0, 0, 0, 0, 0,0.0,0.0,0.0,0.0,0.0,0.0,0.0,0.0,0.0,0.0,0.0,0.0,0.0,8,core\src\main\java\org\apache\syncope\core\propagation\PropagationActions.java,0,0,0,0
org.apache.syncope.core.propagation.PropagationException, 0, 0, 0, 0, 0, 0, 0, 0, 0, 0, 0, 0, 0, 0,0.0,0.0,0.0,1.0,0.0,0.0,0.0,1.0,0.0,0.0,0.0,0.0,0.0,11,core\src\main\java\org\apache\syncope\core\propagation\PropagationException.java,0,0,0,0
org.apache.syncope.core.propagation.PropagationReporter, 0, 0, 0, 0, 0, 0, 0, 0, 0, 0, 0, 0, 0, 0,0.0,0.0,0.0,0.0,0.0,0.0,0.0,0.0,0.0,0.0,0.0,0.0,0.0,11,core\src\main\java\org\apache\syncope\core\propagation\PropagationReporter.java,0,0,0,0
org.apache.syncope.core.propagation.PropagationTaskExecutor, 0, 0, 0, 0, 0, 0, 0, 0, 0, 0, 0, 0, 0, 0,0.0,0.0,0.0,0.0,0.0,0.0,0.0,0.0,0.0,0.0,0.0,0.0,0.0,11,core\src\main\java\org\apache\syncope\core\propagation\PropagationTaskExecutor.java,0,0,0,0
org.apache.syncope.core.propagation.TimeoutException, 0, 0, 0, 0, 0, 0, 0, 0, 0, 0, 0, 0, 0, 0,0.0,0.0,0.0,0.0,0.0,0.0,0.0,0.0,0.0,0.0,0.0,0.0,0.0,9,core\src\main\java\org\apache\syncope\core\propagation\TimeoutException.java,0,0,0,0
org.apache.syncope.core.propagation.impl.AsyncConnectorFacade, 0, 0, 0, 0, 0, 0, 0, 1, 0, 0, 0, 0, 0, 1,0.0,0.0,0.0,1.0,0.0,0.0,0.0,1.0,0.0,0.0,0.0,0.0,0.0,123,core\src\main\java\org\apache\syncope\core\propagation\impl\AsyncConnectorFacade.java,0,0,0,0
org.apache.syncope.core.propagation.impl.ConnectorFacadeProxy, 0, 0, 0, 1, 0, 0, 0, 1, 0, 0, 0, 0, 0, 2,0.0,0.0,0.0,0.3333333333333333,0.0,0.0,0.0,0.1111111111111111,0.0,0.0,0.0,0.0,0.0,431,core\src\main\java\org\apache\syncope\core\propagation\impl\ConnectorFacadeProxy.java,0,0,0,0
org.apache.syncope.core.propagation.impl.DBPasswordPropagationActions, 0, 0, 0, 0, 0, 0, 0, 0, 0, 0, 0, 0, 0, 0,0.0,0.0,0.0,0.7142857142857143,0.0,0.0,0.0,0.14285714285714285,0.0,0.0,0.0,0.0,0.0,56,core\src\main\java\org\apache\syncope\core\propagation\impl\DBPasswordPropagationActions.java,0,0,0,0
org.apache.syncope.core.propagation.impl.DefaultPropagationReporter, 0, 0, 0, 0, 0, 0, 0, 1, 0, 0, 0, 0, 0, 1,0.0,0.0,0.0,0.6666666666666666,0.0,0.0,0.0,0.0,0.0,0.0,0.0,0.0,0.0,49,core\src\main\java\org\apache\syncope\core\propagation\impl\DefaultPropagationReporter.java,0,0,0,0
org.apache.syncope.core.propagation.impl.LDAPMembershipPropagationActions, 0, 0, 0, 0, 0, 0, 0, 0, 0, 0, 0, 0, 0, 0,0.0,0.0,0.0,0.42857142857142855,0.0,0.0,0.0,0.2857142857142857,0.0,0.0,0.0,0.0,0.0,48,core\src\main\java\org\apache\syncope\core\propagation\impl\LDAPMembershipPropagationActions.java,0,0,0,0
org.apache.syncope.core.propagation.impl.LDAPPasswordPropagationActions, 0, 0, 0, 0, 0, 0, 0, 0, 0, 0, 0, 0, 0, 0,0.0,0.0,0.0,0.7142857142857143,0.0,0.0,0.0,0.14285714285714285,0.0,0.0,0.0,0.0,0.0,59,core\src\main\java\org\apache\syncope\core\propagation\impl\LDAPPasswordPropagationActions.java,0,0,0,0
org.apache.syncope.core.quartz.AbstractTaskJob, 0, 0, 0, 0, 0, 0, 0, 0, 0, 0, 0, 0, 0, 0,0.0,0.0,0.0,0.0,0.0,0.0,0.0,0.0,0.0,0.0,0.0,0.0,0.0,68,core\src\main\java\org\apache\syncope\core\quartz\AbstractTaskJob.java,0,0,0,0
org.apache.syncope.core.quartz.AbstractTransactionalTaskJob, 0, 0, 0, 0, 0, 0, 0, 0, 0, 0, 0, 0, 0, 0,0.0,0.0,0.0,0.0,0.0,0.0,0.0,0.0,0.0,0.0,0.0,0.0,0.0,7,core\src\main\java\org\apache\syncope\core\quartz\AbstractTransactionalTaskJob.java,0,0,0,0
org.apache.syncope.core.quartz.SampleJob, 0, 0, 0, 0, 0, 0, 0, 0, 0, 0, 0, 0, 0, 0,0.0,0.0,0.0,0.0,0.0,0.0,0.0,0.0,0.0,0.0,0.0,0.0,0.0,19,core\src\main\java\org\apache\syncope\core\quartz\SampleJob.java,0,0,0,0
org.apache.syncope.core.quartz.SpringBeanJobFactory, 0, 0, 0, 0, 0, 0, 0, 0, 0, 0, 0, 0, 0, 0,0.0,0.0,0.0,0.0,0.0,0.0,0.0,0.0,0.0,0.0,0.0,0.0,0.0,52,core\src\main\java\org\apache\syncope\core\quartz\SpringBeanJobFactory.java,0,0,0,0
org.apache.syncope.core.quartz.TaskJob, 0, 0, 0, 0, 0, 0, 0, 0, 0, 0, 0, 0, 0, 0,0.0,0.0,0.0,0.0,0.0,0.0,0.0,0.0,0.0,0.0,0.0,0.0,0.0,52,core\src\main\java\org\apache\syncope\core\quartz\TaskJob.java,0,0,0,0
org.apache.syncope.core.report.AbstractReportlet, 0, 0, 0, 0, 0, 0, 0, 0, 0, 0, 0, 0, 0, 0,0.0,0.0,0.0,0.0,0.0,0.0,0.0,0.0,0.0,0.0,0.0,0.0,0.0,25,core\src\main\java\org\apache\syncope\core\report\AbstractReportlet.java,0,0,0,0
org.apache.syncope.core.report.ReportException, 0, 0, 0, 0, 0, 0, 0, 0, 0, 0, 0, 0, 0, 0,0.0,0.0,0.0,0.0,0.0,0.0,0.0,0.0,0.0,0.0,0.0,0.0,0.0,9,core\src\main\java\org\apache\syncope\core\report\ReportException.java,0,0,0,0
org.apache.syncope.core.report.ReportXMLConst, 0, 0, 0, 0, 0, 0, 0, 0, 0, 0, 0, 0, 0, 0,0.0,0.0,0.0,0.0,0.0,0.0,0.0,0.0,0.0,0.0,0.0,0.0,0.0,11,core\src\main\java\org\apache\syncope\core\report\ReportXMLConst.java,0,0,0,0
org.apache.syncope.core.report.Reportlet, 0, 0, 0, 0, 0, 0, 0, 0, 0, 0, 0, 0, 0, 0,0.0,0.0,0.0,0.0,0.0,0.0,0.0,0.0,0.0,0.0,0.0,0.0,0.0,11,core\src\main\java\org\apache\syncope\core\report\Reportlet.java,0,0,0,0
org.apache.syncope.core.report.StaticReportlet, 0, 0, 0, 0, 0, 0, 0, 0, 0, 0, 0, 0, 0, 0,0.0,0.0,0.0,0.0,0.0,0.0,0.0,0.3333333333333333,0.0,0.0,0.0,0.0,0.0,74,core\src\main\java\org\apache\syncope\core\report\StaticReportlet.java,0,0,0,0
org.apache.syncope.core.report.cocoon.TextSerializer, 0, 0, 0, 0, 0, 0, 0, 1, 0, 0, 0, 0, 0, 1,0.0,0.0,0.0,0.0,0.0,0.0,0.0,0.0,0.0,0.0,0.0,0.0,0.0,48,core\src\main\java\org\apache\syncope\core\report\cocoon\TextSerializer.java,0,0,0,0
org.apache.syncope.core.rest.DerivedSchemaTestITCase, 0, 0, 0, 0, 0, 0, 0, 0, 0, 0, 0, 0, 0, 0,0.0,0.0,0.0,0.0,0.0,0.0,0.0,0.0,0.0,0.0,0.0,0.0,0.0,94,core\src\test\java\org\apache\syncope\core\rest\DerivedSchemaTestITCase.java,0,0,0,0
org.apache.syncope.core.rest.LoggerTestITCase, 0, 0, 0, 0, 0, 0, 0, 0, 0, 0, 0, 0, 0, 0,0.0,0.0,0.0,0.0,0.0,0.0,0.0,0.0,0.0,0.0,0.0,0.0,0.0,146,core\src\test\java\org\apache\syncope\core\rest\LoggerTestITCase.java,0,0,0,0
org.apache.syncope.core.rest.NotificationTestITCase, 0, 0, 0, 0, 0, 0, 0, 0, 0, 0, 0, 0, 0, 0,0.0,0.0,0.0,0.5,0.0,0.0,0.0,0.5,0.0,0.0,0.0,0.0,0.0,113,core\src\test\java\org\apache\syncope\core\rest\NotificationTestITCase.java,0,0,0,0
org.apache.syncope.core.rest.PolicyTestITCase, 0, 0, 0, 0, 0, 0, 0, 0, 0, 0, 0, 0, 0, 0,0.0,0.0,0.0,0.2857142857142857,0.0,0.0,0.0,0.0,0.0,0.0,0.0,0.0,0.0,149,core\src\test\java\org\apache\syncope\core\rest\PolicyTestITCase.java,0,0,0,0
org.apache.syncope.core.rest.ReportTestITCase, 0, 0, 0, 0, 0, 0, 0, 0, 0, 0, 0, 0, 0, 0,0.0,0.0,0.0,0.3333333333333333,0.0,0.0,0.0,0.0,0.0,0.0,0.0,0.0,0.0,160,core\src\test\java\org\apache\syncope\core\rest\ReportTestITCase.java,0,0,0,0
org.apache.syncope.core.rest.ResourceTestITCase, 0, 0, 0, 0, 0, 0, 0, 0, 0, 0, 0, 0, 0, 0,0.0,0.0,0.0,0.42857142857142855,0.0,0.0,0.0,0.14285714285714285,0.0,0.0,0.0,0.0,0.0,416,core\src\test\java\org\apache\syncope\core\rest\ResourceTestITCase.java,0,3,0,3
org.apache.syncope.core.rest.SchemaTestITCase, 0, 0, 0, 0, 0, 0, 0, 0, 0, 0, 0, 0, 0, 0,0.0,0.0,0.0,0.3333333333333333,0.0,0.0,0.0,0.16666666666666666,0.0,0.0,0.0,0.0,0.0,221,core\src\test\java\org\apache\syncope\core\rest\SchemaTestITCase.java,0,0,0,0
org.apache.syncope.core.rest.SearchTestITCase, 0, 0, 0, 0, 0, 0, 0, 0, 0, 0, 0, 0, 0, 0,0.0,0.0,0.0,0.0,0.0,0.0,0.0,0.5,0.0,0.0,0.0,0.0,0.0,118,core\src\test\java\org\apache\syncope\core\rest\SearchTestITCase.java,0,0,0,0
org.apache.syncope.core.rest.SecurityQuestionTestITCase, 0, 0, 0, 0, 0, 0, 0, 0, 0, 0, 0, 0, 0, 0,0.0,0.0,0.0,0.0,0.0,0.0,0.0,0.0,0.0,0.0,0.0,0.0,0.0,51,core\src\test\java\org\apache\syncope\core\rest\SecurityQuestionTestITCase.java,0,0,0,0
org.apache.syncope.core.rest.UserTestITCase, 0, 0, 0, 1, 0, 0, 0, 0, 0, 0, 0, 0, 0, 1,0.0,0.0,0.0,0.17391304347826086,0.0,0.0,0.0,0.043478260869565216,0.0,0.0,0.0,0.0,0.0,1773,core\src\test\java\org\apache\syncope\core\rest\UserTestITCase.java,0,0,0,0
org.apache.syncope.core.rest.VirtualSchemaTestITCase, 0, 0, 0, 0, 0, 0, 0, 0, 0, 0, 0, 0, 0, 0,0.0,0.0,0.0,0.0,0.0,0.0,0.0,0.0,0.0,0.0,0.0,0.0,0.0,69,core\src\test\java\org\apache\syncope\core\rest\VirtualSchemaTestITCase.java,0,0,0,0
org.apache.syncope.core.rest.WorkflowTestITCase, 0, 0, 0, 0, 0, 0, 0, 0, 0, 0, 0, 0, 0, 0,0.0,0.0,0.0,0.0,0.0,0.0,0.0,1.0,0.0,0.0,0.0,0.0,0.0,43,core\src\test\java\org\apache\syncope\core\rest\WorkflowTestITCase.java,0,0,0,0
org.apache.syncope.core.rest.controller.AbstractResourceAssociator, 0, 0, 0, 0, 0, 0, 0, 1, 0, 0, 0, 0, 0, 1,0.0,0.0,0.0,0.0,0.0,0.0,0.0,1.0,0.0,0.0,0.0,0.0,0.0,8,core\src\main\java\org\apache\syncope\core\rest\controller\AbstractResourceAssociator.java,0,0,0,0
org.apache.syncope.core.rest.controller.AbstractSubjectController, 0, 0, 0, 0, 0, 0, 0, 1, 0, 0, 0, 0, 0, 1,0.0,0.0,0.0,0.6666666666666666,0.0,0.0,0.0,0.6666666666666666,0.0,0.0,0.0,0.0,0.0,10,core\src\main\java\org\apache\syncope\core\rest\controller\AbstractSubjectController.java,0,0,0,0
org.apache.syncope.core.rest.controller.AbstractTransactionalController, 0, 0, 0, 0, 0, 1, 0, 0, 0, 0, 0, 0, 0, 1,0.0,0.0,0.0,0.125,0.0,0.0,0.0,0.5,0.0,0.0,0.0,0.0,0.0,2,core\src\main\java\org\apache\syncope\core\rest\controller\AbstractTransactionalController.java,0,0,0,0
org.apache.syncope.core.rest.controller.ControllerHandler, 0, 0, 0, 0, 0, 0, 0, 0, 0, 0, 0, 0, 0, 0,0.0,0.0,0.0,0.0,0.0,0.0,0.0,0.0,0.0,0.0,0.0,0.0,0.0,56,core\src\main\java\org\apache\syncope\core\rest\controller\ControllerHandler.java,0,0,0,0
org.apache.syncope.core.rest.controller.EntitlementController, 0, 0, 0, 0, 0, 0, 0, 0, 0, 0, 0, 0, 0, 0,0.0,0.0,0.0,0.0,0.0,0.16666666666666666,0.0,0.0,0.0,0.0,0.0,0.0,0.0,20,core\src\main\java\org\apache\syncope\core\rest\controller\EntitlementController.java,0,0,0,0
org.apache.syncope.core.rest.controller.NotificationController, 0, 0, 0, 0, 0, 0, 0, 0, 0, 0, 0, 0, 0, 0,0.0,0.0,0.0,0.16666666666666666,0.0,0.16666666666666666,0.0,0.0,0.0,0.0,0.0,0.0,0.0,73,core\src\main\java\org\apache\syncope\core\rest\controller\NotificationController.java,0,0,0,0
org.apache.syncope.core.rest.controller.PolicyController, 0, 0, 0, 0, 0, 0, 0, 0, 0, 0, 0, 0, 0, 0,0.0,0.0,0.0,0.0,0.0,0.1111111111111111,0.0,0.0,0.0,0.0,0.0,0.0,0.0,120,core\src\main\java\org\apache\syncope\core\rest\controller\PolicyController.java,0,0,0,0
org.apache.syncope.core.rest.controller.ResourceController, 0, 0, 0, 0, 0, 0, 0, 1, 0, 0, 0, 0, 0, 1,0.0,0.0,0.0,0.375,0.0,0.125,0.0,0.25,0.0,0.0,0.0,0.0,0.0,177,core\src\main\java\org\apache\syncope\core\rest\controller\ResourceController.java,0,0,0,0
org.apache.syncope.core.rest.controller.RoleController, 0, 0, 0, 1, 0, 0, 0, 1, 0, 0, 0, 0, 0, 2,0.0,0.0,0.0,0.16666666666666666,0.0,0.0,0.0,0.2222222222222222,0.0,0.0,0.0,0.0,0.0,318,core\src\main\java\org\apache\syncope\core\rest\controller\RoleController.java,1,0,0,1
org.apache.syncope.core.rest.controller.SchemaController, 0, 0, 0, 0, 0, 0, 0, 1, 0, 0, 0, 0, 0, 1,0.0,0.0,0.0,0.25,0.0,0.125,0.0,0.375,0.0,0.0,0.0,0.0,0.0,205,core\src\main\java\org\apache\syncope\core\rest\controller\SchemaController.java,0,0,0,0
org.apache.syncope.core.rest.controller.SecurityQuestionController, 0, 0, 0, 0, 0, 0, 0, 0, 0, 0, 0, 0, 0, 0,0.0,0.0,0.0,0.14285714285714285,0.0,0.14285714285714285,0.0,0.0,0.0,0.0,0.0,0.0,0.0,89,core\src\main\java\org\apache\syncope\core\rest\controller\SecurityQuestionController.java,0,0,0,0
org.apache.syncope.core.rest.controller.TaskController, 0, 0, 0, 1, 0, 0, 0, 1, 0, 0, 0, 0, 0, 2,0.0,0.0,0.0,0.0625,0.0,0.0625,0.0,0.125,0.0,0.0,0.0,0.0,0.0,273,core\src\main\java\org\apache\syncope\core\rest\controller\TaskController.java,0,0,0,0
org.apache.syncope.core.rest.controller.UnauthorizedException, 0, 0, 0, 0, 0, 0, 0, 0, 0, 0, 0, 0, 0, 0,0.0,0.0,0.0,0.0,0.0,0.0,0.0,0.0,0.0,0.0,0.0,0.0,0.0,6,core\src\main\java\org\apache\syncope\core\rest\controller\UnauthorizedException.java,0,0,0,0
org.apache.syncope.core.rest.controller.UnauthorizedRoleException, 0, 0, 0, 0, 0, 0, 0, 0, 0, 0, 0, 0, 0, 0,0.0,0.0,0.0,1.0,0.0,0.0,0.0,1.0,0.0,0.0,0.0,0.0,0.0,14,core\src\main\java\org\apache\syncope\core\rest\controller\UnauthorizedRoleException.java,0,0,0,0
org.apache.syncope.core.rest.controller.UnresolvedReferenceException, 0, 0, 0, 0, 0, 0, 0, 0, 0, 0, 0, 0, 0, 0,0.0,0.0,0.0,0.2,0.0,0.0,0.0,0.5,0.0,0.0,0.0,0.0,0.0,9,core\src\main\java\org\apache\syncope\core\rest\controller\UnresolvedReferenceException.java,0,0,0,0
org.apache.syncope.core.rest.controller.WorkflowController, 0, 0, 0, 0, 0, 0, 0, 1, 0, 0, 0, 0, 0, 1,0.0,0.0,0.0,0.0,0.0,0.25,0.0,0.0,0.0,0.0,0.0,0.0,0.0,61,core\src\main\java\org\apache\syncope\core\rest\controller\WorkflowController.java,0,0,0,0
org.apache.syncope.core.rest.data.AttributableTransformer, 0, 0, 0, 0, 0, 0, 0, 0, 0, 0, 0, 0, 0, 0,0.0,0.0,0.0,0.0,0.0,0.0,0.0,0.0,0.0,0.0,0.0,0.0,0.0,61,core\src\main\java\org\apache\syncope\core\rest\data\AttributableTransformer.java,0,0,0,0
org.apache.syncope.core.rest.data.ConfigurationDataBinder, 0, 0, 0, 0, 0, 0, 0, 0, 0, 0, 0, 0, 0, 0,0.0,0.0,0.0,0.25,0.0,0.0,0.0,0.125,0.0,0.0,0.0,0.0,0.0,32,core\src\main\java\org\apache\syncope\core\rest\data\ConfigurationDataBinder.java,0,0,0,0
org.apache.syncope.core.rest.data.DefaultAttributableTransformer, 0, 0, 0, 0, 0, 0, 0, 0, 0, 0, 0, 0, 0, 0,0.0,0.0,0.0,0.0,0.0,0.0,0.0,0.0,0.0,0.0,0.0,0.0,0.0,10,core\src\main\java\org\apache\syncope\core\rest\data\DefaultAttributableTransformer.java,0,0,0,0
org.apache.syncope.core.rest.data.DoubleValueAttributableTransformer, 0, 0, 0, 0, 0, 0, 0, 0, 0, 0, 0, 0, 0, 0,0.0,0.0,0.0,0.0,0.0,0.0,0.0,0.0,0.0,0.0,0.0,0.0,0.0,37,core\src\test\java\org\apache\syncope\core\rest\data\DoubleValueAttributableTransformer.java,0,0,0,0
org.apache.syncope.core.rest.data.NotificationDataBinder, 0, 0, 0, 0, 0, 0, 0, 0, 0, 0, 0, 0, 0, 0,0.0,0.0,0.0,0.6666666666666666,0.0,0.0,0.0,0.0,0.0,0.0,0.0,0.0,0.0,23,core\src\main\java\org\apache\syncope\core\rest\data\NotificationDataBinder.java,0,0,0,0
org.apache.syncope.core.rest.data.PolicyDataBinder, 0, 0, 0, 0, 0, 0, 0, 0, 0, 0, 0, 0, 0, 0,0.0,0.0,0.0,0.1,0.0,0.0,0.0,0.0,0.0,0.0,0.0,0.0,0.0,125,core\src\main\java\org\apache\syncope\core\rest\data\PolicyDataBinder.java,0,0,0,0
org.apache.syncope.core.rest.data.ReportDataBinder, 0, 0, 0, 0, 0, 0, 0, 0, 0, 0, 0, 0, 0, 0,0.0,0.0,0.0,0.16666666666666666,0.0,0.0,0.0,0.0,0.0,0.0,0.0,0.0,0.0,99,core\src\main\java\org\apache\syncope\core\rest\data\ReportDataBinder.java,0,0,0,0
org.apache.syncope.core.rest.data.ResourceDataBinderTest, 0, 0, 0, 0, 0, 0, 0, 0, 0, 0, 0, 0, 0, 0,0.0,0.0,0.0,0.625,0.0,0.125,0.0,0.0,0.0,0.0,0.0,0.0,0.0,79,core\src\test\java\org\apache\syncope\core\rest\data\ResourceDataBinderTest.java,0,0,0,0
org.apache.syncope.core.rest.data.SchemaDataBinder, 0, 0, 0, 0, 0, 0, 0, 1, 0, 0, 0, 0, 0, 1,0.0,0.0,0.0,0.42857142857142855,0.0,0.0,0.0,0.42857142857142855,0.0,0.0,0.0,0.0,0.0,89,core\src\main\java\org\apache\syncope\core\rest\data\SchemaDataBinder.java,0,0,0,0
org.apache.syncope.core.rest.data.SearchCondConverter, 0, 0, 0, 0, 0, 0, 0, 0, 0, 0, 0, 0, 0, 0,0.0,0.0,0.0,0.3333333333333333,0.0,0.0,0.0,0.3333333333333333,0.0,0.0,0.0,0.0,0.0,11,core\src\main\java\org\apache\syncope\core\rest\data\SearchCondConverter.java,0,0,0,0
org.apache.syncope.core.rest.data.SearchCondConverterTest, 0, 0, 0, 0, 0, 0, 0, 0, 0, 0, 0, 0, 0, 0,0.0,0.0,0.0,0.1111111111111111,0.0,0.1111111111111111,0.0,0.1111111111111111,0.0,0.0,0.0,0.0,0.0,104,core\src\test\java\org\apache\syncope\core\rest\data\SearchCondConverterTest.java,0,0,0,0
org.apache.syncope.core.rest.data.SecurityQuestionDataBinder, 0, 0, 0, 0, 0, 0, 0, 0, 0, 0, 0, 0, 0, 0,0.0,0.0,0.0,0.0,0.0,0.0,0.0,0.0,0.0,0.0,0.0,0.0,0.0,15,core\src\main\java\org\apache\syncope\core\rest\data\SecurityQuestionDataBinder.java,0,0,0,0
org.apache.syncope.core.rest.data.TaskDataBinder, 0, 0, 0, 0, 0, 0, 0, 1, 0, 0, 0, 0, 0, 1,0.0,0.0,0.0,0.34782608695652173,0.0,0.0,0.0,0.08695652173913043,0.0,0.0,0.0,0.0,0.0,211,core\src\main\java\org\apache\syncope\core\rest\data\TaskDataBinder.java,0,0,0,0
org.apache.syncope.core.security.AsymmetricCipher, 0, 0, 0, 0, 0, 0, 0, 0, 0, 0, 0, 0, 0, 0,0.0,0.0,0.0,0.0,0.0,0.0,0.0,0.0,0.0,0.0,0.0,0.0,0.0,31,core\src\main\java\org\apache\syncope\core\security\AsymmetricCipher.java,0,0,0,0
org.apache.syncope.core.security.EncodePasswordCLI, 0, 0, 0, 0, 0, 0, 0, 0, 0, 0, 0, 0, 0, 0,0.0,0.0,0.0,0.0,0.0,0.0,0.0,0.0,0.0,0.0,0.0,0.0,0.0,25,core\src\main\java\org\apache\syncope\core\security\EncodePasswordCLI.java,0,0,0,0
org.apache.syncope.core.security.EncryptorTest, 0, 0, 0, 0, 0, 0, 0, 0, 0, 0, 0, 0, 0, 0,0.0,0.0,0.0,0.0,0.0,0.0,0.0,0.0,0.0,0.0,0.0,0.0,0.0,19,core\src\test\java\org\apache\syncope\core\security\EncryptorTest.java,0,0,0,0
org.apache.syncope.core.security.SyncopeAuthenticationProvider, 0, 0, 0, 0, 0, 0, 0, 0, 0, 0, 0, 0, 0, 0,0.0,0.0,0.0,0.42857142857142855,0.0,0.0,0.0,0.14285714285714285,0.0,0.0,0.0,0.0,0.0,175,core\src\main\java\org\apache\syncope\core\security\SyncopeAuthenticationProvider.java,0,0,0,0
org.apache.syncope.core.security.SyncopeUserDetailsService, 0, 0, 0, 0, 0, 0, 0, 0, 0, 0, 0, 0, 0, 0,0.0,0.0,0.0,0.25,0.0,0.0,0.0,0.0,0.0,0.0,0.0,0.0,0.0,49,core\src\main\java\org\apache\syncope\core\security\SyncopeUserDetailsService.java,0,0,0,0
org.apache.syncope.core.services.AddETagFilter, 0, 0, 0, 0, 0, 0, 0, 0, 0, 0, 0, 0, 0, 0,0.0,0.0,0.0,0.0,0.0,0.0,0.0,0.0,0.0,0.0,0.0,0.0,0.0,12,core\src\main\java\org\apache\syncope\core\services\AddETagFilter.java,0,0,0,0
org.apache.syncope.core.services.ConfigurationServiceImpl, 0, 0, 0, 0, 0, 0, 0, 0, 0, 0, 0, 0, 0, 0,0.0,0.0,0.0,0.0,0.0,0.0,0.0,0.0,0.0,0.0,0.0,0.0,0.0,43,core\src\main\java\org\apache\syncope\core\services\ConfigurationServiceImpl.java,0,0,0,0
org.apache.syncope.core.services.ConnectorServiceImpl, 0, 0, 0, 0, 0, 0, 0, 1, 0, 0, 0, 0, 0, 1,0.3333333333333333,0.0,0.3333333333333333,0.0,0.0,0.0,0.0,0.0,0.0,0.0,0.0,0.0,0.0,77,core\src\main\java\org\apache\syncope\core\services\ConnectorServiceImpl.java,0,0,0,0
org.apache.syncope.core.services.EntitlementServiceImpl, 0, 0, 0, 0, 0, 0, 0, 0, 0, 0, 0, 0, 0, 0,0.0,0.0,0.0,0.0,0.0,0.0,0.0,0.0,0.0,0.0,0.0,0.0,0.0,12,core\src\main\java\org\apache\syncope\core\services\EntitlementServiceImpl.java,0,0,0,0
org.apache.syncope.core.services.LoggerServiceImpl, 0, 0, 0, 0, 0, 0, 0, 1, 0, 0, 0, 0, 0, 1,0.0,0.0,0.0,0.0,0.0,0.0,0.0,0.0,0.0,0.0,0.0,0.0,0.0,66,core\src\main\java\org\apache\syncope\core\services\LoggerServiceImpl.java,0,0,0,0
org.apache.syncope.core.services.NotificationServiceImpl, 0, 0, 0, 0, 0, 0, 0, 0, 0, 0, 0, 0, 0, 0,0.0,0.0,0.0,0.5,0.0,0.0,0.0,0.0,0.0,0.0,0.0,0.0,0.0,29,core\src\main\java\org\apache\syncope\core\services\NotificationServiceImpl.java,0,0,0,0
org.apache.syncope.core.services.PolicyServiceImpl, 0, 0, 0, 0, 0, 0, 0, 0, 0, 0, 0, 0, 0, 0,0.0,0.0,0.0,0.0,0.0,0.0,0.0,0.0,0.0,0.0,0.0,0.0,0.0,70,core\src\main\java\org\apache\syncope\core\services\PolicyServiceImpl.java,0,0,0,0
org.apache.syncope.core.services.ReportServiceImpl, 0, 0, 0, 0, 0, 0, 0, 1, 0, 0, 0, 0, 0, 1,0.0,0.0,0.0,0.2,0.0,0.0,0.0,0.0,0.0,0.0,0.0,0.0,0.0,74,core\src\main\java\org\apache\syncope\core\services\ReportServiceImpl.java,0,0,0,0
org.apache.syncope.core.services.ResourceServiceImpl, 0, 0, 0, 0, 0, 0, 0, 1, 0, 0, 0, 0, 0, 1,0.0,0.0,0.0,0.3333333333333333,0.0,0.0,0.0,0.5,0.0,0.0,0.0,0.0,0.0,79,core\src\main\java\org\apache\syncope\core\services\ResourceServiceImpl.java,0,0,0,0
org.apache.syncope.core.services.RoleServiceImpl, 0, 0, 0, 0, 0, 0, 0, 1, 0, 0, 0, 0, 0, 1,0.0,0.0,0.0,0.2727272727272727,0.0,0.0,0.0,0.09090909090909091,0.0,0.0,0.0,0.0,0.0,146,core\src\main\java\org\apache\syncope\core\services\RoleServiceImpl.java,0,0,0,0
org.apache.syncope.core.services.SchemaServiceImpl, 0, 0, 0, 0, 0, 0, 0, 1, 0, 0, 0, 0, 0, 1,0.0,0.0,0.0,0.0,0.0,0.0,0.0,0.5,0.0,0.0,0.0,0.0,0.0,32,core\src\main\java\org\apache\syncope\core\services\SchemaServiceImpl.java,0,0,0,0
org.apache.syncope.core.services.SecurityQuestionServiceImpl, 0, 0, 0, 0, 0, 0, 0, 0, 0, 0, 0, 0, 0, 0,0.0,0.0,0.0,0.0,0.0,0.0,0.0,0.0,0.0,0.0,0.0,0.0,0.0,33,core\src\main\java\org\apache\syncope\core\services\SecurityQuestionServiceImpl.java,0,0,0,0
org.apache.syncope.core.services.TaskServiceImpl, 0, 0, 0, 0, 0, 0, 0, 1, 0, 0, 0, 0, 0, 1,0.0,0.0,0.0,0.14285714285714285,0.0,0.0,0.0,0.14285714285714285,0.0,0.0,0.0,0.0,0.0,91,core\src\main\java\org\apache\syncope\core\services\TaskServiceImpl.java,0,0,0,0
org.apache.syncope.core.services.UserSelfServiceImpl, 0, 0, 0, 0, 0, 0, 0, 0, 0, 0, 0, 0, 0, 0,0.0,0.0,0.0,0.0,0.0,0.0,0.0,0.0,0.0,0.0,0.0,0.0,0.0,55,core\src\main\java\org\apache\syncope\core\services\UserSelfServiceImpl.java,0,0,0,0
org.apache.syncope.core.services.UserServiceImpl, 0, 0, 0, 0, 0, 0, 0, 1, 0, 0, 0, 0, 0, 1,0.0,0.0,0.0,0.0,0.0,0.0,0.0,0.0,0.0,0.0,0.0,0.0,0.0,164,core\src\main\java\org\apache\syncope\core\services\UserServiceImpl.java,0,0,0,0
org.apache.syncope.core.services.UserWorkflowServiceImpl, 0, 0, 0, 0, 0, 0, 0, 0, 0, 0, 0, 0, 0, 0,0.0,0.0,0.0,0.0,0.0,0.0,0.0,0.0,0.0,0.0,0.0,0.0,0.0,28,core\src\main\java\org\apache\syncope\core\services\UserWorkflowServiceImpl.java,0,0,0,0
org.apache.syncope.core.services.WorkflowServiceImpl, 0, 0, 0, 0, 0, 0, 0, 0, 0, 0, 0, 0, 0, 0,0.0,0.0,0.0,0.0,0.0,0.0,0.0,1.0,0.0,0.0,0.0,0.0,0.0,69,core\src\main\java\org\apache\syncope\core\services\WorkflowServiceImpl.java,0,0,0,0
org.apache.syncope.core.sync.AbstractSyncActions, 0, 0, 0, 0, 0, 0, 0, 0, 0, 0, 0, 0, 0, 0,0.0,0.0,0.0,0.0,0.0,0.0,0.0,0.0,0.0,0.0,0.0,0.0,0.0,69,core\src\main\java\org\apache\syncope\core\sync\AbstractSyncActions.java,0,0,0,0
org.apache.syncope.core.sync.DefaultPushActions, 0, 0, 0, 0, 0, 0, 0, 1, 0, 0, 0, 0, 0, 1,0.0,0.0,0.0,0.0,0.0,0.0,0.0,0.0,0.0,0.0,0.0,0.0,0.0,65,core\src\main\java\org\apache\syncope\core\sync\DefaultPushActions.java,0,0,0,0
org.apache.syncope.core.sync.DefaultSyncActions, 0, 0, 0, 0, 0, 0, 0, 1, 0, 0, 0, 0, 0, 1,0.0,0.0,0.0,0.0,0.0,0.0,0.0,0.75,0.0,0.0,0.0,0.0,0.0,76,core\src\main\java\org\apache\syncope\core\sync\DefaultSyncActions.java,0,0,0,0
org.apache.syncope.core.sync.SyncActions, 0, 0, 0, 0, 0, 0, 0, 0, 0, 0, 0, 0, 0, 0,0.0,0.0,0.0,0.0,0.0,0.0,0.0,0.0,0.0,0.0,0.0,0.0,0.0,76,core\src\main\java\org\apache\syncope\core\sync\SyncActions.java,0,0,29,58
org.apache.syncope.core.sync.SyncCorrelationRule, 0, 0, 0, 0, 0, 0, 0, 0, 0, 0, 0, 0, 0, 0,0.0,0.0,0.0,0.0,0.0,0.0,0.0,0.0,0.0,0.0,0.0,0.0,0.0,76,core\src\main\java\org\apache\syncope\core\sync\SyncCorrelationRule.java,0,0,0,0
org.apache.syncope.core.sync.SyncProfile, 0, 0, 0, 0, 0, 0, 0, 0, 0, 0, 0, 0, 0, 0,0.0,0.0,0.0,0.1111111111111111,0.0,0.0,0.0,0.5555555555555556,0.0,0.0,0.0,0.0,0.0,42,core\src\main\java\org\apache\syncope\core\sync\SyncProfile.java,0,0,0,0
org.apache.syncope.core.sync.SyncTaskTest, 0, 0, 0, 0, 0, 0, 0, 0, 0, 0, 0, 0, 0, 0,0.0,0.0,0.0,0.2,0.0,0.2,0.0,0.0,0.0,0.0,0.0,0.0,0.0,72,core\src\test\java\org\apache\syncope\core\sync\SyncTaskTest.java,0,0,0,0
org.apache.syncope.core.sync.TestSyncActions, 0, 0, 0, 0, 0, 0, 0, 1, 0, 0, 0, 0, 0, 1,0.0,0.0,0.0,0.0,0.0,0.0,0.0,0.25,0.0,0.0,0.0,0.0,0.0,45,core\src\test\java\org\apache\syncope\core\sync\TestSyncActions.java,2,9,1,13
org.apache.syncope.core.sync.TestSyncRule, 0, 0, 0, 0, 0, 0, 0, 0, 0, 0, 0, 0, 0, 0,0.0,0.0,0.0,0.5,0.0,0.0,0.0,0.0,0.0,0.0,0.0,0.0,0.0,10,core\src\test\java\org\apache\syncope\core\sync\TestSyncRule.java,0,0,0,0
org.apache.syncope.core.sync.impl.AbstractSubjectPushResultHandler, 0, 0, 0, 0, 0, 0, 0, 0, 0, 0, 0, 0, 0, 0,0.0,0.0,0.0,0.3157894736842105,0.0,0.0,0.0,0.10526315789473684,0.0,0.0,0.0,0.0,0.0,262,core\src\main\java\org\apache\syncope\core\sync\impl\AbstractSubjectPushResultHandler.java,4,12,8,32
org.apache.syncope.core.sync.impl.AbstractSubjectSyncResultHandler, 0, 0, 0, 1, 0, 0, 0, 1, 0, 0, 0, 0, 0, 2,0.0,0.0,0.0,0.3,0.0,0.0,0.0,0.1,0.0,0.0,0.0,0.0,0.0,483,core\src\main\java\org\apache\syncope\core\sync\impl\AbstractSubjectSyncResultHandler.java,3,21,13,50
org.apache.syncope.core.sync.impl.AbstractSyncopeResultHandler, 0, 0, 0, 0, 0, 0, 0, 0, 0, 0, 0, 0, 0, 0,0.0,0.0,0.0,0.25,0.0,0.0,0.0,0.5,0.0,0.0,0.0,0.0,0.0,28,core\src\main\java\org\apache\syncope\core\sync\impl\AbstractSyncopeResultHandler.java,0,4,0,4
org.apache.syncope.core.sync.impl.DBPasswordSyncActions, 0, 0, 0, 0, 0, 0, 0, 1, 0, 0, 0, 0, 0, 1,0.0,0.0,0.0,0.42857142857142855,0.0,0.0,0.0,0.14285714285714285,0.0,0.0,0.0,0.0,0.0,76,core\src\main\java\org\apache\syncope\core\sync\impl\DBPasswordSyncActions.java,0,0,0,0
org.apache.syncope.core.sync.impl.LDAPPasswordSyncActions, 0, 0, 0, 0, 0, 0, 0, 1, 0, 0, 0, 0, 0, 1,0.0,0.0,0.0,0.3333333333333333,0.0,0.0,0.0,0.3333333333333333,0.0,0.0,0.0,0.0,0.0,67,core\src\main\java\org\apache\syncope\core\sync\impl\LDAPPasswordSyncActions.java,0,0,0,0
org.apache.syncope.core.sync.impl.PushJob, 0, 0, 0, 0, 0, 0, 0, 1, 0, 0, 0, 0, 0, 1,0.0,0.0,0.0,0.25,0.0,0.0,0.0,0.0,0.0,0.0,0.0,0.0,0.0,92,core\src\main\java\org\apache\syncope\core\sync\impl\PushJob.java,0,0,0,0
org.apache.syncope.core.sync.impl.RolePushResultHandler, 0, 0, 0, 0, 0, 0, 0, 0, 0, 0, 0, 0, 0, 0,0.0,0.0,0.0,0.3,0.0,0.0,0.0,0.1,0.0,0.0,0.0,0.0,0.0,99,core\src\main\java\org\apache\syncope\core\sync\impl\RolePushResultHandler.java,0,0,0,0
org.apache.syncope.core.sync.impl.UserPushResultHandler, 0, 0, 0, 0, 0, 0, 0, 0, 0, 0, 0, 0, 0, 0,0.0,0.0,0.0,0.2727272727272727,0.0,0.0,0.0,0.09090909090909091,0.0,0.0,0.0,0.0,0.0,103,core\src\main\java\org\apache\syncope\core\sync\impl\UserPushResultHandler.java,0,0,0,0
org.apache.syncope.core.util.ApplicationContextProvider, 0, 0, 0, 0, 0, 0, 0, 0, 0, 0, 0, 0, 0, 0,0.0,0.0,0.0,0.3333333333333333,0.0,0.0,0.0,0.5,0.0,0.0,0.0,0.0,0.0,13,core\src\main\java\org\apache\syncope\core\util\ApplicationContextProvider.java,0,0,0,0
org.apache.syncope.core.util.AttributableUtil, 0, 0, 0, 1, 0, 0, 0, 1, 0, 0, 0, 0, 0, 2,0.0,0.0,0.0,0.1,0.0,0.0,0.0,0.16666666666666666,0.0,0.0,0.0,0.0,0.0,651,core\src\main\java\org\apache\syncope\core\util\AttributableUtil.java,13,0,0,13
org.apache.syncope.core.util.AttributeDeserializer, 0, 0, 0, 0, 0, 0, 0, 0, 0, 0, 0, 0, 0, 0,0.0,0.0,0.0,0.0,0.0,0.0,0.0,0.0,0.0,0.0,0.0,0.0,0.0,39,core\src\main\java\org\apache\syncope\core\util\AttributeDeserializer.java,0,0,0,0
org.apache.syncope.core.util.AttributeSerializer, 0, 0, 0, 0, 0, 0, 0, 1, 0, 0, 0, 0, 0, 1,0.0,0.0,0.0,0.0,0.0,0.0,0.0,0.0,0.0,0.0,0.0,0.0,0.0,38,core\src\main\java\org\apache\syncope\core\util\AttributeSerializer.java,0,0,0,0
org.apache.syncope.core.util.DataFormat, 0, 0, 0, 0, 0, 0, 0, 1, 0, 0, 0, 0, 0, 1,0.0,0.0,0.0,0.0,0.0,0.0,0.0,0.3333333333333333,0.0,0.0,0.0,0.0,0.0,70,core\src\main\java\org\apache\syncope\core\util\DataFormat.java,0,0,0,0
org.apache.syncope.core.util.EntitlementUtil, 0, 0, 0, 0, 0, 0, 0, 0, 0, 0, 0, 0, 0, 0,0.0,0.0,0.0,0.2727272727272727,0.0,0.0,0.0,0.2727272727272727,0.0,0.0,0.0,0.0,0.0,64,core\src\main\java\org\apache\syncope\core\util\EntitlementUtil.java,0,0,0,0
org.apache.syncope.core.util.GuardedStringDeserializer, 0, 0, 0, 0, 0, 0, 0, 0, 0, 0, 0, 0, 0, 0,0.0,0.0,0.0,0.0,0.0,0.0,0.0,0.0,0.0,0.0,0.0,0.0,0.0,50,core\src\main\java\org\apache\syncope\core\util\GuardedStringDeserializer.java,0,0,0,0
org.apache.syncope.core.util.InvalidPasswordPolicySpecException, 0, 0, 0, 0, 0, 0, 0, 0, 0, 0, 0, 0, 0, 0,0.0,0.0,0.0,0.0,0.0,0.0,0.0,0.0,0.0,0.0,0.0,0.0,0.0,9,core\src\main\java\org\apache\syncope\core\util\InvalidPasswordPolicySpecException.java,0,0,0,0
org.apache.syncope.core.util.POJOHelper, 0, 0, 0, 0, 0, 0, 0, 0, 0, 0, 0, 0, 0, 0,0.0,0.0,0.0,0.5,0.0,0.0,0.0,0.0,0.0,0.0,0.0,0.0,0.0,36,core\src\main\java\org\apache\syncope\core\util\POJOHelper.java,0,0,0,0
org.apache.syncope.core.util.ResourceWithFallbackLoader, 0, 0, 0, 0, 0, 0, 0, 0, 0, 0, 0, 0, 0, 0,0.0,0.0,0.0,0.0,0.0,0.0,0.0,0.0,0.0,0.0,0.0,0.0,0.0,41,core\src\main\java\org\apache\syncope\core\util\ResourceWithFallbackLoader.java,0,0,0,0
org.apache.syncope.core.util.SecureRandomUtil, 0, 0, 0, 0, 0, 0, 0, 0, 0, 0, 0, 0, 0, 0,0.0,0.0,0.0,0.5,0.0,0.0,0.0,0.0,0.0,0.0,0.0,0.0,0.0,15,core\src\main\java\org\apache\syncope\core\util\SecureRandomUtil.java,0,0,0,0
org.apache.syncope.core.util.SpringVelocityResourceLoader, 0, 0, 0, 0, 0, 0, 0, 0, 0, 0, 0, 0, 0, 0,0.0,0.0,0.0,0.0,0.0,0.0,0.0,0.0,0.0,0.0,0.0,0.0,0.0,37,core\src\main\java\org\apache\syncope\core\util\SpringVelocityResourceLoader.java,0,0,0,0
org.apache.syncope.core.util.SyncTokenDeserializer, 0, 0, 0, 0, 0, 0, 0, 0, 0, 0, 0, 0, 0, 0,0.0,0.0,0.0,0.0,0.0,0.0,0.0,0.0,0.0,0.0,0.0,0.0,0.0,29,core\src\main\java\org\apache\syncope\core\util\SyncTokenDeserializer.java,0,0,0,0
org.apache.syncope.core.util.SyncTokenSerializer, 0, 0, 0, 0, 0, 0, 0, 1, 0, 0, 0, 0, 0, 1,0.0,0.0,0.0,0.0,0.0,0.0,0.0,0.0,0.0,0.0,0.0,0.0,0.0,24,core\src\main\java\org\apache\syncope\core\util\SyncTokenSerializer.java,0,0,0,0
org.apache.syncope.core.util.TaskUtil, 0, 0, 0, 0, 0, 0, 0, 0, 0, 0, 0, 0, 0, 0,0.0,0.0,0.0,0.25,0.0,0.0,0.0,0.5,0.0,0.0,0.0,0.0,0.0,110,core\src\main\java\org\apache\syncope\core\util\TaskUtil.java,0,0,0,0
org.apache.syncope.core.util.URIUtil, 0, 0, 0, 0, 0, 0, 0, 0, 0, 0, 0, 0, 0, 0,0.0,0.0,0.0,0.0,0.0,0.0,0.0,0.0,0.0,0.0,0.0,0.0,0.0,18,core\src\main\java\org\apache\syncope\core\util\URIUtil.java,0,0,0,0
org.apache.syncope.core.util.VelocityEngineFactoryBean, 0, 0, 0, 0, 0, 0, 0, 0, 0, 0, 0, 0, 0, 0,0.0,0.0,0.0,0.0,0.0,0.0,0.0,0.0,0.0,0.0,0.0,0.0,0.0,49,core\src\main\java\org\apache\syncope\core\util\VelocityEngineFactoryBean.java,0,0,0,0
org.apache.syncope.core.util.jexl.ClassFreeUberspectImpl, 0, 0, 0, 0, 0, 0, 0, 1, 0, 0, 0, 0, 0, 1,0.0,0.0,0.0,0.0,0.0,0.0,0.0,1.0,0.0,0.0,0.0,0.0,0.0,13,core\src\main\java\org\apache\syncope\core\util\jexl\ClassFreeUberspectImpl.java,0,0,0,0
org.apache.syncope.core.util.jexl.EmptyClassLoader, 0, 0, 0, 0, 0, 0, 0, 0, 0, 0, 0, 0, 0, 0,0.0,0.0,0.0,0.0,0.0,0.0,0.0,0.0,0.0,0.0,0.0,0.0,0.0,10,core\src\main\java\org\apache\syncope\core\util\jexl\EmptyClassLoader.java,0,0,0,0
org.apache.syncope.core.util.jexl.JexlUtil, 0, 0, 0, 0, 0, 0, 0, 1, 0, 0, 0, 0, 0, 1,0.0,0.0,0.0,0.08333333333333333,0.0,0.0,0.0,0.3333333333333333,0.0,0.0,0.0,0.0,0.0,171,core\src\main\java\org\apache\syncope\core\util\jexl\JexlUtil.java,0,0,0,0
org.apache.syncope.core.util.multiparent.MultiParentNode, 0, 0, 0, 0, 0, 0, 0, 0, 0, 0, 0, 0, 0, 0,0.0,0.0,0.0,0.0,0.0,0.0,0.0,0.0,0.0,0.0,0.0,0.0,0.0,62,core\src\main\java\org\apache\syncope\core\util\multiparent\MultiParentNode.java,0,0,0,0
org.apache.syncope.core.util.multiparent.MultiParentNodeOp, 0, 0, 0, 0, 0, 0, 0, 0, 0, 0, 0, 0, 0, 0,0.0,0.0,0.0,0.0,0.0,0.0,0.0,0.0,0.0,0.0,0.0,0.0,0.0,20,core\src\main\java\org\apache\syncope\core\util\multiparent\MultiParentNodeOp.java,0,0,0,0
org.apache.syncope.core.workflow.WorkflowAdapter, 0, 0, 0, 0, 0, 0, 0, 0, 0, 0, 0, 0, 0, 0,0.0,0.0,0.0,0.0,0.0,0.0,0.0,0.0,0.0,0.0,0.0,0.0,0.0,20,core\src\main\java\org\apache\syncope\core\workflow\WorkflowAdapter.java,0,0,0,0
org.apache.syncope.core.workflow.WorkflowException, 0, 0, 0, 0, 0, 0, 0, 0, 0, 0, 0, 0, 0, 0,0.0,0.0,0.0,0.0,0.0,0.0,0.0,0.3333333333333333,0.0,0.0,0.0,0.0,0.0,9,core\src\main\java\org\apache\syncope\core\workflow\WorkflowException.java,0,0,0,0
org.apache.syncope.core.workflow.WorkflowInstanceLoader, 0, 0, 0, 0, 0, 0, 0, 0, 0, 0, 0, 0, 0, 0,0.0,0.0,0.0,0.0,0.0,0.0,0.0,0.0,0.0,0.0,0.0,0.0,0.0,9,core\src\main\java\org\apache\syncope\core\workflow\WorkflowInstanceLoader.java,0,0,0,0
org.apache.syncope.core.workflow.WorkflowResult, 0, 0, 0, 0, 0, 0, 0, 1, 0, 0, 0, 0, 0, 1,0.0,0.0,0.0,0.3333333333333333,0.0,0.0,0.0,0.3333333333333333,0.0,0.0,0.0,0.0,0.0,43,core\src\main\java\org\apache\syncope\core\workflow\WorkflowResult.java,0,0,0,0
org.apache.syncope.core.workflow.role.AbstractRoleWorkflowAdapter, 0, 0, 0, 0, 0, 0, 0, 0, 0, 0, 0, 0, 0, 0,0.0,0.0,0.0,0.25,0.0,0.0,0.0,0.25,0.0,0.0,0.0,0.0,0.0,22,core\src\main\java\org\apache\syncope\core\workflow\role\AbstractRoleWorkflowAdapter.java,0,0,0,0
org.apache.syncope.core.workflow.role.NoOpRoleWorkflowAdapter, 0, 0, 0, 0, 0, 0, 0, 0, 0, 0, 0, 0, 0, 0,0.0,0.0,0.0,0.2,0.0,0.0,0.0,0.2,0.0,0.0,0.0,0.0,0.0,66,core\src\main\java\org\apache\syncope\core\workflow\role\NoOpRoleWorkflowAdapter.java,0,0,0,0
org.apache.syncope.core.workflow.role.RoleWorkflowAdapter, 0, 0, 0, 0, 0, 0, 0, 0, 0, 0, 0, 0, 0, 0,0.0,0.0,0.0,0.0,0.0,0.0,0.0,0.0,0.0,0.0,0.0,0.0,0.0,66,core\src\main\java\org\apache\syncope\core\workflow\role\RoleWorkflowAdapter.java,0,0,0,0
org.apache.syncope.core.workflow.user.activiti.ActivitiImportUtils, 0, 0, 0, 0, 0, 0, 0, 1, 0, 0, 0, 0, 0, 1,0.0,0.0,0.0,0.0,0.0,0.0,0.0,0.0,0.0,0.0,0.0,0.0,0.0,46,core\src\main\java\org\apache\syncope\core\workflow\user\activiti\ActivitiImportUtils.java,0,0,0,0
org.apache.syncope.core.workflow.user.activiti.ActivitiWorkflowLoader, 0, 0, 0, 0, 0, 0, 0, 0, 0, 0, 0, 0, 0, 0,0.0,0.0,0.0,0.0,0.0,0.0,0.0,0.5,0.0,0.0,0.0,0.0,0.0,51,core\src\main\java\org\apache\syncope\core\workflow\user\activiti\ActivitiWorkflowLoader.java,0,0,0,0
org.apache.syncope.core.workflow.user.activiti.SyncopeEntitiesVariableType, 0, 0, 0, 0, 0, 0, 0, 0, 0, 0, 0, 0, 0, 0,0.0,0.0,0.0,0.0,0.0,0.0,0.0,0.0,0.0,0.0,0.0,0.0,0.0,6,core\src\main\java\org\apache\syncope\core\workflow\user\activiti\SyncopeEntitiesVariableType.java,0,0,0,0
org.apache.syncope.core.workflow.user.activiti.SyncopeGroupQueryImpl, 0, 0, 0, 0, 0, 0, 0, 0, 0, 0, 0, 0, 0, 0,0.0,0.0,0.0,0.0,0.0,0.0,0.0,0.0,0.0,0.0,0.0,0.0,0.0,103,core\src\main\java\org\apache\syncope\core\workflow\user\activiti\SyncopeGroupQueryImpl.java,0,0,0,0
org.apache.syncope.core.workflow.user.activiti.SyncopeSession, 0, 0, 0, 0, 0, 0, 0, 0, 0, 0, 0, 0, 0, 0,0.0,0.0,0.0,0.0,0.0,0.0,0.0,0.0,0.0,0.0,0.0,0.0,0.0,103,core\src\main\java\org\apache\syncope\core\workflow\user\activiti\SyncopeSession.java,0,0,0,0
org.apache.syncope.core.workflow.user.activiti.SyncopeSessionFactory, 0, 0, 0, 0, 0, 0, 0, 0, 0, 0, 0, 0, 0, 0,0.0,0.0,0.0,0.0,0.0,0.0,0.0,0.0,0.0,0.0,0.0,0.0,0.0,17,core\src\main\java\org\apache\syncope\core\workflow\user\activiti\SyncopeSessionFactory.java,0,0,0,0
org.apache.syncope.core.workflow.user.activiti.SyncopeUserQueryImpl, 0, 0, 0, 1, 0, 0, 0, 1, 0, 0, 0, 0, 0, 2,0.0,0.0,0.0,0.6666666666666666,0.0,0.0,0.0,0.0,0.0,0.0,0.0,0.0,0.0,152,core\src\main\java\org\apache\syncope\core\workflow\user\activiti\SyncopeUserQueryImpl.java,0,0,0,0
org.apache.syncope.core.workflow.user.activiti.task.AbstractActivitiServiceTask, 0, 0, 0, 0, 0, 0, 0, 0, 0, 0, 0, 0, 0, 0,0.0,0.0,0.0,0.0,0.0,0.0,0.0,0.0,0.0,0.0,0.0,0.0,0.0,10,core\src\main\java\org\apache\syncope\core\workflow\user\activiti\task\AbstractActivitiServiceTask.java,0,0,0,0
org.apache.syncope.core.workflow.user.activiti.task.AutoActivate, 0, 0, 0, 0, 0, 0, 0, 0, 0, 0, 0, 0, 0, 0,0.0,0.0,0.0,0.0,0.0,0.0,0.0,0.0,0.0,0.0,0.0,0.0,0.0,6,core\src\main\java\org\apache\syncope\core\workflow\user\activiti\task\AutoActivate.java,0,0,0,0
org.apache.syncope.core.workflow.user.activiti.task.Create, 0, 0, 0, 0, 0, 0, 0, 0, 0, 0, 0, 0, 0, 0,0.0,0.0,0.0,0.5,0.0,0.0,0.0,0.0,0.0,0.0,0.0,0.0,0.0,14,core\src\main\java\org\apache\syncope\core\workflow\user\activiti\task\Create.java,0,0,0,0
org.apache.syncope.core.workflow.user.activiti.task.Delete, 0, 0, 0, 0, 0, 0, 0, 0, 0, 0, 0, 0, 0, 0,0.0,0.0,0.0,0.5,0.0,0.0,0.0,0.0,0.0,0.0,0.0,0.0,0.0,11,core\src\main\java\org\apache\syncope\core\workflow\user\activiti\task\Delete.java,0,0,0,0
org.apache.syncope.core.workflow.user.activiti.task.GenerateToken, 0, 0, 0, 0, 0, 0, 0, 0, 0, 0, 0, 0, 0, 0,0.0,0.0,0.0,0.3333333333333333,0.0,0.0,0.0,0.0,0.0,0.0,0.0,0.0,0.0,13,core\src\main\java\org\apache\syncope\core\workflow\user\activiti\task\GenerateToken.java,0,0,0,0
org.apache.syncope.core.workflow.user.activiti.task.Notify, 0, 0, 0, 0, 0, 0, 0, 0, 0, 0, 0, 0, 0, 0,0.0,0.0,0.0,0.5,0.0,0.0,0.0,0.0,0.0,0.0,0.0,0.0,0.0,24,core\src\main\java\org\apache\syncope\core\workflow\user\activiti\task\Notify.java,0,0,0,0
org.apache.syncope.core.workflow.user.activiti.task.PasswordReset, 0, 0, 0, 0, 0, 0, 0, 0, 0, 0, 0, 0, 0, 0,0.0,0.0,0.0,0.3333333333333333,0.0,0.0,0.0,0.0,0.0,0.0,0.0,0.0,0.0,15,core\src\main\java\org\apache\syncope\core\workflow\user\activiti\task\PasswordReset.java,0,0,0,0
org.apache.syncope.core.workflow.user.activiti.task.Reactivate, 0, 0, 0, 0, 0, 0, 0, 0, 0, 0, 0, 0, 0, 0,0.0,0.0,0.0,0.0,0.0,0.0,0.0,0.0,0.0,0.0,0.0,0.0,0.0,5,core\src\main\java\org\apache\syncope\core\workflow\user\activiti\task\Reactivate.java,0,0,0,0
org.apache.syncope.core.workflow.user.activiti.task.Suspend, 0, 0, 0, 0, 0, 0, 0, 0, 0, 0, 0, 0, 0, 0,0.0,0.0,0.0,0.0,0.0,0.0,0.0,0.0,0.0,0.0,0.0,0.0,0.0,5,core\src\main\java\org\apache\syncope\core\workflow\user\activiti\task\Suspend.java,0,0,0,0
org.apache.syncope.core.workflow.user.activiti.task.Update, 0, 0, 0, 0, 0, 0, 0, 0, 0, 0, 0, 0, 0, 0,0.0,0.0,0.0,0.0,0.0,0.0,0.0,0.0,0.0,0.0,0.0,0.0,0.0,18,core\src\main\java\org\apache\syncope\core\workflow\user\activiti\task\Update.java,0,0,0,0
org.apache.syncope.installer.containers.AbstractContainer, 0, 0, 0, 0, 0, 0, 0, 0, 0, 0, 0, 0, 0, 0,0.0,0.0,0.0,0.0,0.0,0.0,0.0,0.5,0.0,0.0,0.0,0.0,0.0,6,installer\src\main\java\org\apache\syncope\installer\containers\AbstractContainer.java,0,0,0,0
org.apache.syncope.installer.containers.Glassfish, 0, 0, 0, 0, 0, 0, 0, 0, 0, 0, 0, 0, 0, 0,0.0,0.0,0.0,0.0,0.0,0.0,0.0,0.0,0.0,0.0,0.0,0.0,0.0,20,installer\src\main\java\org\apache\syncope\installer\containers\Glassfish.java,0,0,0,0
org.apache.syncope.installer.containers.jboss.JBoss, 0, 0, 0, 0, 0, 0, 0, 1, 0, 0, 0, 0, 0, 1,0.0,0.0,0.2,0.0,0.0,0.0,0.0,0.2,0.0,0.0,0.0,0.0,0.0,38,installer\src\main\java\org\apache\syncope\installer\containers\jboss\JBoss.java,0,0,0,0
org.apache.syncope.installer.containers.jboss.JBossAddResponse, 0, 0, 1, 0, 0, 0, 0, 0, 0, 0, 0, 0, 0, 1,0.0,0.0,0.0,0.0,0.0,0.0,0.0,0.5,0.0,0.0,0.0,0.0,0.0,36,installer\src\main\java\org\apache\syncope\installer\containers\jboss\JBossAddResponse.java,0,0,0,0
org.apache.syncope.installer.containers.jboss.JBossDeployRequestContent, 0, 0, 0, 0, 0, 0, 0, 0, 0, 0, 0, 0, 0, 0,0.0,0.0,0.0,0.0,0.0,0.0,0.0,0.5,0.0,0.0,0.0,0.0,0.0,34,installer\src\main\java\org\apache\syncope\installer\containers\jboss\JBossDeployRequestContent.java,0,0,0,0
org.apache.syncope.installer.files.CoreWebXml, 0, 0, 0, 0, 0, 0, 0, 0, 0, 0, 0, 0, 0, 0,0.0,0.0,0.0,0.0,0.0,0.0,0.0,0.0,0.0,0.0,0.0,0.0,0.0,70,installer\src\main\java\org\apache\syncope\installer\files\CoreWebXml.java,0,0,0,0
org.apache.syncope.installer.files.GlassfishCoreWebXml, 0, 0, 0, 0, 0, 0, 0, 0, 0, 0, 0, 0, 0, 0,0.0,0.0,0.0,0.0,0.0,0.0,0.0,0.0,0.0,0.0,0.0,0.0,0.0,32,installer\src\main\java\org\apache\syncope\installer\files\GlassfishCoreWebXml.java,0,0,0,0
org.apache.syncope.installer.files.JBossDeploymentStructureXml, 0, 0, 0, 0, 0, 0, 0, 0, 0, 0, 0, 0, 0, 0,0.0,0.0,0.0,0.0,0.0,0.0,0.0,0.0,0.0,0.0,0.0,0.0,0.0,30,installer\src\main\java\org\apache\syncope\installer\files\JBossDeploymentStructureXml.java,0,0,0,0
org.apache.syncope.installer.files.ModelerPom, 0, 0, 0, 0, 0, 0, 0, 0, 0, 0, 0, 0, 0, 0,0.0,0.0,0.0,0.0,0.0,0.0,0.0,0.0,0.0,0.0,0.0,0.0,0.0,57,installer\src\main\java\org\apache\syncope\installer\files\ModelerPom.java,0,0,0,0
org.apache.syncope.installer.files.ModelerTokenValueMap, 0, 0, 0, 0, 0, 0, 0, 0, 0, 0, 0, 0, 0, 0,0.0,0.0,0.0,0.0,0.0,0.0,0.0,0.0,0.0,0.0,0.0,0.0,0.0,35,installer\src\main\java\org\apache\syncope\installer\files\ModelerTokenValueMap.java,0,0,0,0
org.apache.syncope.installer.files.OrmXml, 0, 0, 0, 0, 0, 0, 0, 0, 0, 0, 0, 0, 0, 0,0.0,0.0,0.0,0.0,0.0,0.0,0.0,0.0,0.0,0.0,0.0,0.0,0.0,306,installer\src\main\java\org\apache\syncope\installer\files\OrmXml.java,0,0,0,0
org.apache.syncope.installer.files.ParentPom, 0, 0, 0, 0, 0, 0, 0, 0, 0, 0, 0, 0, 0, 0,0.0,0.0,0.0,0.0,0.0,0.0,0.0,0.0,0.0,0.0,0.0,0.0,0.0,76,installer\src\main\java\org\apache\syncope\installer\files\ParentPom.java,0,0,0,0
org.apache.syncope.installer.files.PersistenceContextEMFactoryXml, 0, 0, 0, 0, 0, 0, 0, 0, 0, 0, 0, 0, 0, 0,0.0,0.0,0.0,0.0,0.0,0.0,0.0,0.0,0.0,0.0,0.0,0.0,0.0,45,installer\src\main\java\org\apache\syncope\installer\files\PersistenceContextEMFactoryXml.java,0,0,0,0
org.apache.syncope.installer.files.PersistenceProperties, 0, 0, 0, 0, 0, 0, 0, 0, 0, 0, 0, 0, 0, 0,0.0,0.0,0.0,0.0,0.0,0.0,0.0,0.0,0.0,0.0,0.0,0.0,0.0,71,installer\src\main\java\org\apache\syncope\installer\files\PersistenceProperties.java,0,0,0,0
org.apache.syncope.installer.utilities.DriverLoader, 0, 0, 0, 0, 0, 0, 0, 1, 0, 0, 0, 0, 0, 1,0.0,0.0,0.0,0.0,0.0,0.0,0.0,0.0,0.0,0.0,0.0,0.0,0.0,70,installer\src\main\java\org\apache\syncope\installer\utilities\DriverLoader.java,0,0,0,0
org.apache.syncope.installer.utilities.FileSystemUtils, 0, 0, 0, 0, 0, 0, 0, 0, 0, 0, 0, 0, 0, 0,0.0,0.0,0.0,0.0,0.0,0.0,0.0,0.0,0.0,0.0,0.0,0.0,0.0,84,installer\src\main\java\org\apache\syncope\installer\utilities\FileSystemUtils.java,0,0,0,0
org.apache.syncope.installer.utilities.HttpUtils, 0, 0, 0, 0, 0, 0, 0, 1, 0, 0, 0, 0, 0, 1,0.0,0.0,0.0,0.0,0.0,0.0,0.0,0.5,0.0,0.0,0.0,0.0,0.0,134,installer\src\main\java\org\apache\syncope\installer\utilities\HttpUtils.java,0,0,0,0
org.apache.syncope.installer.utilities.InstallLog, 0, 0, 0, 0, 0, 0, 0, 0, 0, 0, 0, 0, 0, 0,0.0,0.0,0.0,0.0,0.0,0.0,0.0,0.5,0.0,0.0,0.0,0.0,0.0,34,installer\src\main\java\org\apache\syncope\installer\utilities\InstallLog.java,0,0,0,0
org.apache.syncope.installer.utilities.JsonUtils, 0, 0, 0, 0, 0, 0, 0, 0, 0, 0, 0, 0, 0, 0,0.0,0.0,0.3333333333333333,0.0,0.0,0.0,0.0,0.3333333333333333,0.0,0.0,0.0,0.0,0.0,19,installer\src\main\java\org\apache\syncope\installer\utilities\JsonUtils.java,0,0,0,0
org.apache.syncope.installer.utilities.PasswordGenerator, 0, 0, 0, 0, 0, 0, 0, 0, 0, 0, 0, 0, 0, 0,0.0,0.0,0.0,0.0,0.0,0.0,0.0,0.0,0.0,0.0,0.0,0.0,0.0,12,installer\src\main\java\org\apache\syncope\installer\utilities\PasswordGenerator.java,0,0,0,0
org.apache.syncope.installer.validators.AbstractValidator, 0, 0, 0, 0, 0, 0, 0, 0, 0, 0, 0, 0, 0, 0,0.0,0.0,0.0,0.0,0.0,0.0,0.0,0.0,0.0,0.0,0.0,0.0,0.0,5,installer\src\main\java\org\apache\syncope\installer\validators\AbstractValidator.java,0,0,0,0
org.apache.syncope.markup.head.MetaHeaderItem, 0, 0, 0, 0, 0, 0, 0, 0, 0, 0, 0, 0, 0, 0,0.0,0.0,0.0,0.0,0.0,0.0,0.0,0.0,0.0,0.0,0.0,0.0,0.0,18,console\src\main\java\org\apache\syncope\markup\head\MetaHeaderItem.java,0,0,0,0
org.apache.syncope.upgrader.util.XMLDeserializer, 0, 0, 0, 0, 0, 0, 0, 0, 0, 0, 0, 0, 0, 0,0.0,0.0,0.0,0.0,0.0,0.0,0.0,0.0,0.0,0.0,0.0,0.0,0.0,17,core-upgrader\src\main\java\org\apache\syncope\upgrader\util\XMLDeserializer.java,0,0,0,0
,0.0,0.0,0.0,0.0,0.0,0.0,0.0,0.0,0.0,0.0,0.0,0.0,0.0,17,build-tools\src\main\java\org\apache\syncope\buildtools\ApacheDSRootDseServlet.java,0,0,0,0
