ClassName,AntiSingleton,Blob,ClassDataShouldBePrivate,ComplexClass,LargeClass,LazyClass,LongMethod,LongParameterList,MessageChains,RefusedParentBequest,SpaghettiCode,SpeculativeGenerality,SwissArmyKnife,NumOfAPs,AntiSingleton,Blob,ClassDataShouldBePrivate,ComplexClass,LargeClass,LazyClass,LongMethod,LongParameterList,MessageChains,RefusedParentBequest,SpaghettiCode,SpeculativeGenerality,SwissArmyKnife,LOC,name,deleted,added,changed,all
org.apache.synapse.FaultHandler, 0, 0, 0, 0, 0, 0, 0, 0, 0, 0, 0, 0, 0, 0,0.0,0.0,0.0,0.21428571428571427,0.0,0.0,0.0,0.0,0.0,0.0,0.0,0.0,0.0,59,modules\core\src\main\java\org\apache\synapse\FaultHandler.java,0,0,0,0
org.apache.synapse.ManagedLifecycle, 0, 0, 0, 0, 0, 0, 0, 0, 0, 0, 0, 0, 0, 0,0.0,0.0,0.0,0.0,0.0,0.0,0.0,0.0,0.0,0.0,0.0,0.0,0.0,59,modules\core\src\main\java\org\apache\synapse\ManagedLifecycle.java,0,0,0,0
org.apache.synapse.Mediator, 0, 0, 0, 0, 0, 0, 0, 0, 0, 0, 0, 0, 0, 0,0.0,0.0,0.0,0.0,0.0,0.0,0.0,0.0,0.0,0.0,0.0,0.0,0.0,59,modules\core\src\main\java\org\apache\synapse\Mediator.java,0,0,0,0
org.apache.synapse.ServerManager, 0, 0, 0, 0, 0, 0, 0, 0, 0, 0, 0, 0, 0, 0,0.0,0.0,0.0,0.0,0.0,0.0,0.0,0.0,0.0,0.0,0.0,0.0,0.0,159,modules\core\src\main\java\org\apache\synapse\ServerManager.java,0,0,0,0
org.apache.synapse.Startup, 0, 0, 0, 0, 0, 0, 0, 0, 0, 0, 0, 0, 0, 0,0.0,0.0,0.0,0.0,0.0,0.0,0.0,0.0,0.0,0.0,0.0,0.0,0.0,159,modules\core\src\main\java\org\apache\synapse\Startup.java,0,0,0,0
org.apache.synapse.SynapseConstants, 0, 0, 0, 1, 0, 0, 0, 0, 0, 0, 0, 0, 0, 1,0.0,0.0,0.0,0.0,0.0,0.0,0.0,0.0,0.0,0.0,0.0,0.0,0.0,81,modules\core\src\main\java\org\apache\synapse\SynapseConstants.java,0,0,0,0
org.apache.synapse.SynapseException, 0, 0, 0, 0, 0, 0, 0, 0, 0, 0, 0, 0, 0, 0,0.025,0.0,0.0,0.1125,0.0,0.0,0.0,0.0375,0.0,0.0,0.0,0.0,0.0,12,modules\core\src\main\java\org\apache\synapse\SynapseException.java,0,0,0,0
org.apache.synapse.SynapseServer, 0, 0, 0, 0, 0, 0, 0, 0, 0, 0, 0, 0, 0, 0,0.0,0.0,0.0,0.0,0.0,0.0,0.0,0.0,0.0,0.0,0.0,0.0,0.0,32,modules\core\src\main\java\org\apache\synapse\SynapseServer.java,0,0,0,0
org.apache.synapse.TestMediateHandler, 0, 0, 0, 0, 0, 0, 0, 0, 0, 0, 0, 0, 0, 0,0.0,0.0,0.0,0.0,0.0,0.0,0.0,0.0,0.0,0.0,0.0,0.0,0.0,32,modules\extensions\src\test\java\org\apache\synapse\TestMediateHandler.java,0,0,0,0
org.apache.synapse.TestMediator, 0, 0, 0, 0, 0, 0, 0, 0, 0, 0, 0, 0, 0, 0,0.0,0.0,0.0,0.0,0.0,0.0,0.0,0.0,0.0,0.0,0.0,0.0,0.0,20,modules\extensions\src\test\java\org\apache\synapse\TestMediator.java,0,0,0,0
org.apache.synapse.config.Entry, 0, 0, 0, 1, 0, 0, 0, 0, 0, 0, 0, 0, 0, 1,0.0,0.0,0.0,0.25,0.0,0.0,0.0,0.08333333333333333,0.0,0.0,0.0,0.0,0.0,99,modules\core\src\main\java\org\apache\synapse\config\Entry.java,0,0,0,0
org.apache.synapse.config.SynapseConfigUtils, 0, 0, 0, 0, 0, 0, 0, 0, 0, 0, 0, 0, 0, 0,0.0,0.0,0.0,0.18181818181818182,0.0,0.0,0.0,0.0,0.0,0.0,0.0,0.0,0.0,294,modules\core\src\main\java\org\apache\synapse\config\SynapseConfigUtils.java,0,0,0,0
org.apache.synapse.config.SynapseConfigurationBuilder, 0, 0, 0, 0, 0, 0, 0, 0, 0, 0, 0, 0, 0, 0,0.0,0.0,0.0,0.0,0.0,0.0,0.0,0.0,0.0,0.0,0.0,0.0,0.0,48,modules\core\src\main\java\org\apache\synapse\config\SynapseConfigurationBuilder.java,0,0,0,0
org.apache.synapse.config.XMLToObjectMapper, 0, 0, 0, 0, 0, 0, 0, 0, 0, 0, 0, 0, 0, 0,0.0,0.0,0.0,0.0,0.0,0.0,0.0,0.0,0.0,0.0,0.0,0.0,0.0,48,modules\core\src\main\java\org\apache\synapse\config\XMLToObjectMapper.java,0,0,0,0
org.apache.synapse.config.xml.AbstractDBMediatorSerializer, 0, 0, 0, 0, 0, 0, 0, 0, 0, 0, 0, 0, 0, 0,0.25,0.0,0.0,0.0,0.0,0.0,0.0,0.0,0.0,0.0,0.0,0.0,0.0,132,modules\core\src\main\java\org\apache\synapse\config\xml\AbstractDBMediatorSerializer.java,0,0,0,0
org.apache.synapse.config.xml.AbstractListMediatorFactory, 0, 0, 0, 0, 0, 0, 0, 0, 0, 0, 0, 0, 0, 0,0.1111111111111111,0.0,0.0,0.0,0.0,0.0,0.0,0.0,0.0,0.0,0.0,0.0,0.0,16,modules\core\src\main\java\org\apache\synapse\config\xml\AbstractListMediatorFactory.java,0,0,0,0
org.apache.synapse.config.xml.AbstractListMediatorSerializer, 0, 0, 0, 0, 0, 0, 0, 0, 0, 0, 0, 0, 0, 0,0.1,0.0,0.0,0.0,0.0,0.0,0.0,0.0,0.0,0.0,0.0,0.0,0.0,14,modules\core\src\main\java\org\apache\synapse\config\xml\AbstractListMediatorSerializer.java,0,0,0,0
org.apache.synapse.config.xml.AbstractMediatorFactory, 1, 0, 0, 0, 0, 0, 0, 0, 0, 0, 0, 0, 0, 1,0.0,0.0,0.0,0.0,0.0,0.0,0.0,0.0,0.0,0.0,0.0,0.0,0.0,45,modules\core\src\main\java\org\apache\synapse\config\xml\AbstractMediatorFactory.java,0,0,0,0
org.apache.synapse.config.xml.AbstractMediatorSerializer, 1, 0, 0, 0, 0, 0, 0, 0, 0, 0, 0, 0, 0, 1,0.0,0.0,0.0,0.0,0.0,0.0,0.0,0.0,0.0,0.0,0.0,0.0,0.0,68,modules\core\src\main\java\org\apache\synapse\config\xml\AbstractMediatorSerializer.java,0,0,0,0
org.apache.synapse.config.xml.AbstractTestCase, 0, 0, 0, 0, 0, 0, 0, 0, 0, 0, 0, 0, 0, 0,0.0,0.0,0.0,0.0,0.0,0.0,0.0,0.05555555555555555,0.0,0.0,0.0,0.0,0.0,64,modules\core\src\test\java\org\apache\synapse\config\xml\AbstractTestCase.java,0,0,0,0
org.apache.synapse.config.xml.AggregateMediatorFactory, 0, 0, 0, 0, 0, 0, 0, 0, 0, 0, 0, 0, 0, 0,0.25,0.0,0.0,0.0,0.0,0.0,0.0,0.0,0.0,0.0,0.0,0.0,0.0,79,modules\core\src\main\java\org\apache\synapse\config\xml\AggregateMediatorFactory.java,0,0,0,0
org.apache.synapse.config.xml.AggregateMediatorSerializer, 0, 0, 0, 0, 0, 0, 0, 0, 0, 0, 0, 0, 0, 0,0.3333333333333333,0.0,0.0,0.0,0.0,0.0,0.0,0.0,0.0,0.0,0.0,0.0,0.0,49,modules\core\src\main\java\org\apache\synapse\config\xml\AggregateMediatorSerializer.java,0,0,0,0
org.apache.synapse.config.xml.AnnotatedCommandMediatorFactory, 0, 0, 0, 0, 0, 0, 0, 0, 0, 0, 0, 0, 0, 0,0.3333333333333333,0.0,0.0,0.0,0.0,0.0,0.0,0.0,0.0,0.0,0.0,0.0,0.0,56,modules\core\src\main\java\org\apache\synapse\config\xml\AnnotatedCommandMediatorFactory.java,0,0,0,0
org.apache.synapse.config.xml.AnonymousListMediator, 0, 0, 0, 0, 0, 0, 0, 0, 0, 0, 0, 0, 0, 0,0.0,0.0,0.0,0.0,0.0,0.0,0.0,0.0,0.0,0.0,0.0,0.0,0.0,5,modules\core\src\main\java\org\apache\synapse\config\xml\AnonymousListMediator.java,0,0,0,0
org.apache.synapse.config.xml.AnonymousListMediatorFactory, 0, 0, 0, 0, 0, 0, 0, 0, 0, 0, 0, 0, 0, 0,0.0,0.0,0.0,0.0,0.0,0.0,0.0,0.0,0.0,0.0,0.0,0.0,0.0,9,modules\core\src\main\java\org\apache\synapse\config\xml\AnonymousListMediatorFactory.java,0,0,0,0
org.apache.synapse.config.xml.AnonymousListMediatorSerializer, 0, 0, 0, 0, 0, 0, 0, 0, 0, 0, 0, 0, 0, 0,0.25,0.0,0.0,0.0,0.0,0.0,0.0,0.0,0.0,0.0,0.0,0.0,0.0,13,modules\core\src\main\java\org\apache\synapse\config\xml\AnonymousListMediatorSerializer.java,0,0,0,0
org.apache.synapse.config.xml.CacheMediatorFactory, 0, 0, 0, 0, 0, 0, 0, 0, 0, 0, 0, 0, 0, 0,0.3333333333333333,0.0,0.0,0.3333333333333333,0.0,0.0,0.0,0.3333333333333333,0.0,0.0,0.0,0.0,0.0,126,modules\core\src\main\java\org\apache\synapse\config\xml\CacheMediatorFactory.java,0,0,0,0
org.apache.synapse.config.xml.CacheMediatorSerializer, 0, 0, 0, 0, 0, 0, 0, 0, 0, 0, 0, 0, 0, 0,0.25,0.0,0.0,0.25,0.0,0.0,0.0,0.25,0.0,0.0,0.0,0.0,0.0,66,modules\core\src\main\java\org\apache\synapse\config\xml\CacheMediatorSerializer.java,0,0,0,0
org.apache.synapse.config.xml.CalloutMediatorFactory, 0, 0, 0, 0, 0, 0, 0, 0, 0, 0, 0, 0, 0, 0,0.3333333333333333,0.0,0.0,0.3333333333333333,0.0,0.0,0.0,0.0,0.0,0.0,0.0,0.0,0.0,58,modules\core\src\main\java\org\apache\synapse\config\xml\CalloutMediatorFactory.java,0,0,0,0
org.apache.synapse.config.xml.CalloutMediatorSerializer, 0, 0, 0, 0, 0, 0, 0, 0, 0, 0, 0, 0, 0, 0,0.5,0.0,0.0,0.5,0.0,0.0,0.0,0.0,0.0,0.0,0.0,0.0,0.0,39,modules\core\src\main\java\org\apache\synapse\config\xml\CalloutMediatorSerializer.java,0,0,0,0
org.apache.synapse.config.xml.ClassMediatorFactory, 0, 0, 0, 0, 0, 0, 0, 0, 0, 0, 0, 0, 0, 0,0.25,0.0,0.0,0.0,0.0,0.0,0.0,0.0,0.0,0.0,0.0,0.0,0.0,52,modules\core\src\main\java\org\apache\synapse\config\xml\ClassMediatorFactory.java,0,0,0,0
org.apache.synapse.config.xml.ClassMediatorSerializationTest, 0, 0, 0, 0, 0, 0, 0, 0, 0, 0, 0, 0, 0, 0,0.0,0.0,0.0,0.0,0.0,0.0,0.0,0.0,0.0,0.0,0.0,0.0,0.0,24,modules\core\src\test\java\org\apache\synapse\config\xml\ClassMediatorSerializationTest.java,0,0,0,0
org.apache.synapse.config.xml.ClassMediatorSerializer, 0, 0, 0, 0, 0, 0, 0, 0, 0, 0, 0, 0, 0, 0,0.5,0.0,0.0,0.0,0.0,0.0,0.0,0.0,0.0,0.0,0.0,0.0,0.0,36,modules\core\src\main\java\org\apache\synapse\config\xml\ClassMediatorSerializer.java,0,0,0,0
org.apache.synapse.config.xml.CloneMediatorFactory, 0, 0, 0, 0, 0, 0, 0, 0, 0, 0, 0, 0, 0, 0,0.25,0.0,0.0,0.0,0.0,0.0,0.0,0.0,0.0,0.0,0.0,0.0,0.0,22,modules\core\src\main\java\org\apache\synapse\config\xml\CloneMediatorFactory.java,0,0,0,0
org.apache.synapse.config.xml.CloneMediatorSerializationTest, 0, 0, 0, 0, 0, 0, 0, 0, 0, 0, 0, 0, 0, 0,0.0,0.0,0.0,0.0,0.0,0.0,0.0,0.0,0.0,0.0,0.0,0.0,0.0,42,modules\core\src\test\java\org\apache\synapse\config\xml\CloneMediatorSerializationTest.java,0,0,0,0
org.apache.synapse.config.xml.CloneMediatorSerializer, 0, 0, 0, 0, 0, 0, 0, 0, 0, 0, 0, 0, 0, 0,0.25,0.0,0.0,0.0,0.0,0.0,0.0,0.0,0.0,0.0,0.0,0.0,0.0,23,modules\core\src\main\java\org\apache\synapse\config\xml\CloneMediatorSerializer.java,0,0,0,0
org.apache.synapse.config.xml.ConfigurationFactory, 0, 0, 0, 0, 0, 0, 0, 0, 0, 0, 0, 0, 0, 0,0.0,0.0,0.0,0.0,0.0,0.0,0.0,0.0,0.0,0.0,0.0,0.0,0.0,23,modules\core\src\main\java\org\apache\synapse\config\xml\ConfigurationFactory.java,0,0,0,0
org.apache.synapse.config.xml.ConfigurationSerializer, 0, 0, 0, 0, 0, 0, 0, 0, 0, 0, 0, 0, 0, 0,0.0,0.0,0.0,0.0,0.0,0.0,0.0,0.0,0.0,0.0,0.0,0.0,0.0,23,modules\core\src\main\java\org\apache\synapse\config\xml\ConfigurationSerializer.java,0,0,0,0
org.apache.synapse.config.xml.DBLookupMediatorFactory, 0, 0, 0, 0, 0, 0, 0, 0, 0, 0, 0, 0, 0, 0,0.0,0.0,0.0,0.0,0.0,0.0,0.0,0.0,0.0,0.0,0.0,0.0,0.0,13,modules\core\src\main\java\org\apache\synapse\config\xml\DBLookupMediatorFactory.java,0,0,0,0
org.apache.synapse.config.xml.DBLookupMediatorSerializationTest, 0, 0, 0, 0, 0, 0, 0, 0, 0, 0, 0, 0, 0, 0,0.0,0.0,0.0,0.0,0.0,0.0,0.0,0.0,0.0,0.0,0.0,0.0,0.0,15,modules\core\src\test\java\org\apache\synapse\config\xml\DBLookupMediatorSerializationTest.java,0,0,0,0
org.apache.synapse.config.xml.DBLookupMediatorSerializer, 0, 0, 0, 0, 0, 0, 0, 0, 0, 0, 0, 0, 0, 0,0.3333333333333333,0.0,0.0,0.0,0.0,0.0,0.0,0.0,0.0,0.0,0.0,0.0,0.0,18,modules\core\src\main\java\org\apache\synapse\config\xml\DBLookupMediatorSerializer.java,0,0,0,0
org.apache.synapse.config.xml.DBReportMediatorFactory, 0, 0, 0, 0, 0, 0, 0, 0, 0, 0, 0, 0, 0, 0,0.0,0.0,0.0,0.0,0.0,0.0,0.0,0.0,0.0,0.0,0.0,0.0,0.0,13,modules\core\src\main\java\org\apache\synapse\config\xml\DBReportMediatorFactory.java,0,0,0,0
org.apache.synapse.config.xml.DBReportMediatorSerializer, 0, 0, 0, 0, 0, 0, 0, 0, 0, 0, 0, 0, 0, 0,0.5,0.0,0.0,0.0,0.0,0.0,0.0,0.0,0.0,0.0,0.0,0.0,0.0,18,modules\core\src\main\java\org\apache\synapse\config\xml\DBReportMediatorSerializer.java,0,0,0,0
org.apache.synapse.config.xml.DropMediatorFactory, 0, 0, 0, 0, 0, 0, 0, 0, 0, 0, 0, 0, 0, 0,0.5,0.0,0.0,0.0,0.0,0.0,0.0,0.0,0.0,0.0,0.0,0.0,0.0,11,modules\core\src\main\java\org\apache\synapse\config\xml\DropMediatorFactory.java,0,0,0,0
org.apache.synapse.config.xml.DropMediatorSerializationTest, 0, 0, 0, 0, 0, 0, 0, 0, 0, 0, 0, 0, 0, 0,0.0,0.0,0.0,0.0,0.0,0.0,0.0,0.0,0.0,0.0,0.0,0.0,0.0,14,modules\core\src\test\java\org\apache\synapse\config\xml\DropMediatorSerializationTest.java,0,0,0,0
org.apache.synapse.config.xml.DropMediatorSerializer, 0, 0, 0, 0, 0, 0, 0, 0, 0, 0, 0, 0, 0, 0,0.5,0.0,0.0,0.0,0.0,0.0,0.0,0.0,0.0,0.0,0.0,0.0,0.0,17,modules\core\src\main\java\org\apache\synapse\config\xml\DropMediatorSerializer.java,0,0,0,0
org.apache.synapse.config.xml.EntryFactory, 0, 0, 0, 0, 0, 0, 0, 0, 0, 0, 0, 0, 0, 0,0.0,0.0,0.0,0.25,0.0,0.0,0.0,0.0,0.0,0.0,0.0,0.0,0.0,46,modules\core\src\main\java\org\apache\synapse\config\xml\EntryFactory.java,0,0,0,0
org.apache.synapse.config.xml.EntrySerializer, 0, 0, 0, 0, 0, 0, 0, 0, 0, 0, 0, 0, 0, 0,0.0,0.0,0.0,0.5,0.0,0.0,0.0,0.0,0.0,0.0,0.0,0.0,0.0,44,modules\core\src\main\java\org\apache\synapse\config\xml\EntrySerializer.java,0,0,0,0
org.apache.synapse.config.xml.FaultMediatorFactory, 0, 0, 0, 0, 0, 0, 0, 0, 0, 0, 0, 0, 0, 0,0.2,0.0,0.0,0.2,0.0,0.0,0.0,0.2,0.0,0.0,0.0,0.0,0.0,123,modules\core\src\main\java\org\apache\synapse\config\xml\FaultMediatorFactory.java,0,0,0,0
org.apache.synapse.config.xml.FaultMediatorSerializationTest, 0, 0, 0, 0, 0, 0, 0, 1, 0, 0, 0, 0, 0, 1,0.0,0.0,0.0,0.0,0.0,0.0,0.0,0.0,0.0,0.0,0.0,0.0,0.0,32,modules\core\src\test\java\org\apache\synapse\config\xml\FaultMediatorSerializationTest.java,0,0,0,0
org.apache.synapse.config.xml.FaultMediatorSerializer, 0, 0, 0, 0, 0, 0, 0, 0, 0, 0, 0, 0, 0, 0,0.3333333333333333,0.0,0.0,0.3333333333333333,0.0,0.0,0.0,0.3333333333333333,0.0,0.0,0.0,0.0,0.0,63,modules\core\src\main\java\org\apache\synapse\config\xml\FaultMediatorSerializer.java,0,0,0,0
org.apache.synapse.config.xml.FilterMediatorFactory, 0, 0, 0, 0, 0, 0, 0, 0, 0, 0, 0, 0, 0, 0,0.2,0.0,0.0,0.0,0.0,0.0,0.0,0.0,0.0,0.0,0.0,0.0,0.0,59,modules\core\src\main\java\org\apache\synapse\config\xml\FilterMediatorFactory.java,0,0,0,0
org.apache.synapse.config.xml.FilterMediatorSerializationTest, 0, 0, 0, 0, 0, 0, 0, 0, 0, 0, 0, 0, 0, 0,0.0,0.0,0.0,0.0,0.0,0.0,0.0,0.0,0.0,0.0,0.0,0.0,0.0,19,modules\core\src\test\java\org\apache\synapse\config\xml\FilterMediatorSerializationTest.java,0,0,0,0
org.apache.synapse.config.xml.FilterMediatorSerializer, 0, 0, 0, 0, 0, 0, 0, 0, 0, 0, 0, 0, 0, 0,0.25,0.0,0.0,0.0,0.0,0.0,0.0,0.0,0.0,0.0,0.0,0.0,0.0,32,modules\core\src\main\java\org\apache\synapse\config\xml\FilterMediatorSerializer.java,0,0,0,0
org.apache.synapse.config.xml.HeaderMediatorFactory, 0, 0, 0, 0, 0, 0, 0, 0, 0, 0, 0, 0, 0, 0,0.2,0.0,0.0,0.0,0.0,0.0,0.0,0.0,0.0,0.0,0.0,0.0,0.0,59,modules\core\src\main\java\org\apache\synapse\config\xml\HeaderMediatorFactory.java,0,0,0,0
org.apache.synapse.config.xml.HeaderMediatorSerializationTest, 0, 0, 0, 0, 0, 0, 0, 0, 0, 0, 0, 0, 0, 0,0.0,0.0,0.0,0.0,0.0,0.0,0.0,0.0,0.0,0.0,0.0,0.0,0.0,19,modules\core\src\test\java\org\apache\synapse\config\xml\HeaderMediatorSerializationTest.java,0,0,0,0
org.apache.synapse.config.xml.HeaderMediatorSerializer, 0, 0, 0, 0, 0, 0, 0, 0, 0, 0, 0, 0, 0, 0,0.3333333333333333,0.0,0.0,0.0,0.0,0.0,0.0,0.0,0.0,0.0,0.0,0.0,0.0,46,modules\core\src\main\java\org\apache\synapse\config\xml\HeaderMediatorSerializer.java,0,0,0,0
org.apache.synapse.config.xml.InMediatorFactory, 0, 0, 0, 0, 0, 0, 0, 0, 0, 0, 0, 0, 0, 0,0.3333333333333333,0.0,0.0,0.0,0.0,0.0,0.0,0.0,0.0,0.0,0.0,0.0,0.0,12,modules\core\src\main\java\org\apache\synapse\config\xml\InMediatorFactory.java,0,0,0,0
org.apache.synapse.config.xml.InMediatorSerializationTest, 0, 0, 0, 0, 0, 0, 0, 0, 0, 0, 0, 0, 0, 0,0.0,0.0,0.0,0.0,0.0,0.0,0.0,0.0,0.0,0.0,0.0,0.0,0.0,14,modules\core\src\test\java\org\apache\synapse\config\xml\InMediatorSerializationTest.java,0,0,0,0
org.apache.synapse.config.xml.InMediatorSerializer, 0, 0, 0, 0, 0, 0, 0, 0, 0, 0, 0, 0, 0, 0,0.25,0.0,0.0,0.0,0.0,0.0,0.0,0.0,0.0,0.0,0.0,0.0,0.0,18,modules\core\src\main\java\org\apache\synapse\config\xml\InMediatorSerializer.java,0,0,0,0
org.apache.synapse.config.xml.IterateMediatorFactory, 0, 0, 0, 0, 0, 0, 0, 0, 0, 0, 0, 0, 0, 0,0.2,0.0,0.0,0.0,0.0,0.0,0.0,0.2,0.0,0.0,0.0,0.0,0.0,61,modules\core\src\main\java\org\apache\synapse\config\xml\IterateMediatorFactory.java,0,0,0,0
org.apache.synapse.config.xml.IterateMediatorSerializationTest, 0, 0, 0, 0, 0, 0, 0, 0, 0, 0, 0, 0, 0, 0,0.0,0.0,0.0,0.0,0.0,0.0,0.0,0.0,0.0,0.0,0.0,0.0,0.0,63,modules\core\src\test\java\org\apache\synapse\config\xml\IterateMediatorSerializationTest.java,0,0,0,0
org.apache.synapse.config.xml.IterateMediatorSerializer, 0, 0, 0, 0, 0, 0, 0, 0, 0, 0, 0, 0, 0, 0,0.25,0.0,0.0,0.0,0.0,0.0,0.0,0.25,0.0,0.0,0.0,0.0,0.0,34,modules\core\src\main\java\org\apache\synapse\config\xml\IterateMediatorSerializer.java,0,0,0,0
org.apache.synapse.config.xml.LogMediatorFactory, 0, 0, 0, 0, 0, 0, 0, 0, 0, 0, 0, 0, 0, 0,0.3333333333333333,0.0,0.0,0.0,0.0,0.0,0.0,0.0,0.0,0.0,0.0,0.0,0.0,35,modules\core\src\main\java\org\apache\synapse\config\xml\LogMediatorFactory.java,0,0,0,0
org.apache.synapse.config.xml.LogMediatorSerializationTest, 0, 0, 0, 0, 0, 0, 0, 0, 0, 0, 0, 0, 0, 0,0.0,0.0,0.0,0.0,0.0,0.0,0.0,0.0,0.0,0.0,0.0,0.0,0.0,35,modules\core\src\test\java\org\apache\synapse\config\xml\LogMediatorSerializationTest.java,0,0,0,0
org.apache.synapse.config.xml.LogMediatorSerializer, 0, 0, 0, 0, 0, 0, 0, 0, 0, 0, 0, 0, 0, 0,0.5,0.0,0.0,0.0,0.0,0.0,0.0,0.0,0.0,0.0,0.0,0.0,0.0,30,modules\core\src\main\java\org\apache\synapse\config\xml\LogMediatorSerializer.java,0,0,0,0
org.apache.synapse.config.xml.MediatorFactory, 0, 0, 0, 0, 0, 0, 0, 0, 0, 0, 0, 0, 0, 0,0.0,0.0,0.0,0.0,0.0,0.0,0.0,0.0,0.0,0.0,0.0,0.0,0.0,30,modules\core\src\main\java\org\apache\synapse\config\xml\MediatorFactory.java,0,0,0,0
org.apache.synapse.config.xml.MediatorPropertyFactory, 0, 0, 0, 0, 0, 0, 0, 0, 0, 0, 0, 0, 0, 0,0.0,0.0,0.0,0.0,0.0,0.0,0.0,0.0,0.0,0.0,0.0,0.0,0.0,53,modules\core\src\main\java\org\apache\synapse\config\xml\MediatorPropertyFactory.java,0,0,0,0
org.apache.synapse.config.xml.MediatorSerializer, 0, 0, 0, 0, 0, 0, 0, 0, 0, 0, 0, 0, 0, 0,0.0,0.0,0.0,0.0,0.0,0.0,0.0,0.0,0.0,0.0,0.0,0.0,0.0,53,modules\core\src\main\java\org\apache\synapse\config\xml\MediatorSerializer.java,0,0,0,0
org.apache.synapse.config.xml.OMElementUtils, 0, 0, 0, 0, 0, 0, 0, 0, 0, 0, 0, 0, 0, 0,0.0,0.0,0.0,0.0,0.0,0.0,0.0,0.0,0.0,0.0,0.0,0.0,0.0,52,modules\core\src\main\java\org\apache\synapse\config\xml\OMElementUtils.java,0,0,0,0
org.apache.synapse.config.xml.OutMediatorFactory, 0, 0, 0, 0, 0, 0, 0, 0, 0, 0, 0, 0, 0, 0,0.3333333333333333,0.0,0.0,0.0,0.0,0.0,0.0,0.0,0.0,0.0,0.0,0.0,0.0,12,modules\core\src\main\java\org\apache\synapse\config\xml\OutMediatorFactory.java,0,0,0,0
org.apache.synapse.config.xml.OutMediatorSerializationTest, 0, 0, 0, 0, 0, 0, 0, 0, 0, 0, 0, 0, 0, 0,0.0,0.0,0.0,0.0,0.0,0.0,0.0,0.0,0.0,0.0,0.0,0.0,0.0,14,modules\core\src\test\java\org\apache\synapse\config\xml\OutMediatorSerializationTest.java,0,0,0,0
org.apache.synapse.config.xml.OutMediatorSerializer, 0, 0, 0, 0, 0, 0, 0, 0, 0, 0, 0, 0, 0, 0,0.25,0.0,0.0,0.0,0.0,0.0,0.0,0.0,0.0,0.0,0.0,0.0,0.0,18,modules\core\src\main\java\org\apache\synapse\config\xml\OutMediatorSerializer.java,0,0,0,0
org.apache.synapse.config.xml.POJOCommandMediatorFactory, 0, 0, 0, 0, 0, 0, 0, 0, 0, 0, 0, 0, 0, 0,0.25,0.0,0.0,0.0,0.0,0.0,0.0,0.0,0.0,0.0,0.0,0.0,0.0,151,modules\core\src\main\java\org\apache\synapse\config\xml\POJOCommandMediatorFactory.java,0,0,0,0
org.apache.synapse.config.xml.POJOCommandMediatorSerializationTest, 0, 0, 0, 0, 0, 0, 0, 0, 0, 0, 0, 0, 0, 0,0.0,0.0,0.0,0.0,0.0,0.0,0.0,0.0,0.0,0.0,0.0,0.0,0.0,84,modules\core\src\test\java\org\apache\synapse\config\xml\POJOCommandMediatorSerializationTest.java,0,0,0,0
org.apache.synapse.config.xml.POJOCommandMediatorSerializer, 0, 0, 0, 0, 0, 0, 0, 0, 0, 0, 0, 0, 0, 0,0.5,0.0,0.0,0.0,0.0,0.0,0.0,0.0,0.0,0.0,0.0,0.0,0.0,116,modules\core\src\main\java\org\apache\synapse\config\xml\POJOCommandMediatorSerializer.java,0,0,0,0
org.apache.synapse.config.xml.PropertyHelper, 0, 0, 0, 0, 0, 0, 0, 0, 0, 0, 0, 0, 0, 0,0.0,0.0,0.0,0.0,0.0,0.0,0.0,0.0,0.0,0.0,0.0,0.0,0.0,112,modules\core\src\main\java\org\apache\synapse\config\xml\PropertyHelper.java,0,0,0,0
org.apache.synapse.config.xml.PropertyMediatorFactory, 0, 0, 0, 0, 0, 0, 0, 0, 0, 0, 0, 0, 0, 0,0.25,0.0,0.0,0.0,0.0,0.0,0.0,0.0,0.0,0.0,0.0,0.0,0.0,55,modules\core\src\main\java\org\apache\synapse\config\xml\PropertyMediatorFactory.java,0,0,0,0
org.apache.synapse.config.xml.PropertyMediatorSerializationTest, 0, 0, 0, 0, 0, 0, 0, 0, 0, 0, 0, 0, 0, 0,0.0,0.0,0.0,0.0,0.0,0.0,0.0,0.0,0.0,0.0,0.0,0.0,0.0,29,modules\core\src\test\java\org\apache\synapse\config\xml\PropertyMediatorSerializationTest.java,0,0,0,0
org.apache.synapse.config.xml.PropertyMediatorSerializer, 0, 0, 0, 0, 0, 0, 0, 0, 0, 0, 0, 0, 0, 0,0.5,0.0,0.0,0.0,0.0,0.0,0.0,0.0,0.0,0.0,0.0,0.0,0.0,40,modules\core\src\main\java\org\apache\synapse\config\xml\PropertyMediatorSerializer.java,0,0,0,0
org.apache.synapse.config.xml.ProxyServiceFactory, 0, 0, 0, 0, 0, 0, 0, 0, 0, 0, 0, 0, 0, 0,0.0,0.0,0.0,0.0,0.0,0.0,0.0,0.0,0.0,0.0,0.0,0.0,0.0,216,modules\core\src\main\java\org\apache\synapse\config\xml\ProxyServiceFactory.java,0,0,0,0
org.apache.synapse.config.xml.ProxyServiceSerializationTest, 0, 0, 0, 0, 0, 0, 0, 0, 0, 0, 0, 0, 0, 0,0.0,0.0,0.0,0.0,0.0,0.0,0.0,0.0,0.0,0.0,0.0,0.0,0.0,57,modules\core\src\test\java\org\apache\synapse\config\xml\ProxyServiceSerializationTest.java,0,0,0,0
org.apache.synapse.config.xml.ProxyServiceSerializer, 0, 0, 0, 0, 0, 0, 0, 0, 0, 0, 0, 0, 0, 0,0.0,0.0,0.0,0.0,0.0,0.0,0.0,0.0,0.0,0.0,0.0,0.0,0.0,176,modules\core\src\main\java\org\apache\synapse\config\xml\ProxyServiceSerializer.java,0,0,0,0
org.apache.synapse.config.xml.RMSequenceMediatorFactory, 0, 0, 0, 0, 0, 0, 0, 0, 0, 0, 0, 0, 0, 0,0.3333333333333333,0.0,0.0,0.0,0.0,0.0,0.0,0.0,0.0,0.0,0.0,0.0,0.0,93,modules\core\src\main\java\org\apache\synapse\config\xml\RMSequenceMediatorFactory.java,0,0,0,0
org.apache.synapse.config.xml.RMSequenceMediatorSerializer, 0, 0, 0, 0, 0, 0, 0, 0, 0, 0, 0, 0, 0, 0,1.0,0.0,0.0,0.0,0.0,0.0,0.0,0.0,0.0,0.0,0.0,0.0,0.0,43,modules\core\src\main\java\org\apache\synapse\config\xml\RMSequenceMediatorSerializer.java,0,0,0,0
org.apache.synapse.config.xml.RegistryFactory, 0, 0, 0, 0, 0, 0, 0, 0, 0, 0, 0, 0, 0, 0,0.0,0.0,0.0,0.0,0.0,0.0,0.0,0.0,0.0,0.0,0.0,0.0,0.0,57,modules\core\src\main\java\org\apache\synapse\config\xml\RegistryFactory.java,0,0,0,0
org.apache.synapse.config.xml.RegistrySerializationTest, 0, 0, 0, 0, 0, 0, 0, 0, 0, 0, 0, 0, 0, 0,0.0,0.0,0.0,0.0,0.0,0.0,0.0,0.0,0.0,0.0,0.0,0.0,0.0,22,modules\core\src\test\java\org\apache\synapse\config\xml\RegistrySerializationTest.java,0,0,0,0
org.apache.synapse.config.xml.RegistrySerializer, 0, 0, 0, 0, 0, 0, 0, 0, 0, 0, 0, 0, 0, 0,0.0,0.0,0.0,0.0,0.0,0.0,0.0,0.0,0.0,0.0,0.0,0.0,0.0,33,modules\core\src\main\java\org\apache\synapse\config\xml\RegistrySerializer.java,0,0,0,0
org.apache.synapse.config.xml.ResourceMapFactory, 0, 0, 0, 0, 0, 0, 0, 0, 0, 0, 0, 0, 0, 0,0.0,0.0,0.0,0.0,0.0,0.0,0.0,0.0,0.0,0.0,0.0,0.0,0.0,30,modules\core\src\main\java\org\apache\synapse\config\xml\ResourceMapFactory.java,0,0,0,0
org.apache.synapse.config.xml.SendMediatorFactory, 0, 0, 0, 0, 0, 0, 0, 0, 0, 0, 0, 0, 0, 0,0.25,0.0,0.0,0.0,0.0,0.0,0.0,0.0,0.0,0.0,0.0,0.0,0.0,24,modules\core\src\main\java\org\apache\synapse\config\xml\SendMediatorFactory.java,0,0,0,0
org.apache.synapse.config.xml.SendMediatorSerializationTest, 0, 0, 0, 0, 0, 0, 0, 0, 0, 0, 0, 0, 0, 0,0.0,0.0,0.0,0.375,0.0,0.0,0.0,0.0,0.0,0.0,0.0,0.0,0.0,204,modules\core\src\test\java\org\apache\synapse\config\xml\SendMediatorSerializationTest.java,0,0,0,0
org.apache.synapse.config.xml.SendMediatorSerializer, 0, 0, 0, 0, 0, 0, 0, 0, 0, 0, 0, 0, 0, 0,0.3333333333333333,0.0,0.0,0.0,0.0,0.0,0.0,0.0,0.0,0.0,0.0,0.0,0.0,24,modules\core\src\main\java\org\apache\synapse\config\xml\SendMediatorSerializer.java,0,0,0,0
org.apache.synapse.config.xml.SequenceMediatorFactory, 0, 0, 0, 0, 0, 0, 0, 0, 0, 0, 0, 0, 0, 0,0.1,0.0,0.0,0.1,0.0,0.0,0.0,0.0,0.0,0.0,0.0,0.0,0.0,73,modules\core\src\main\java\org\apache\synapse\config\xml\SequenceMediatorFactory.java,0,0,0,0
org.apache.synapse.config.xml.SequenceMediatorSerializationTest, 0, 0, 0, 0, 0, 0, 0, 0, 0, 0, 0, 0, 0, 0,0.0,0.0,0.0,0.0,0.0,0.0,0.0,0.0,0.0,0.0,0.0,0.0,0.0,34,modules\core\src\test\java\org\apache\synapse\config\xml\SequenceMediatorSerializationTest.java,0,0,0,0
org.apache.synapse.config.xml.SequenceMediatorSerializer, 0, 0, 0, 0, 0, 0, 0, 0, 0, 0, 0, 0, 0, 0,0.125,0.0,0.0,0.125,0.0,0.0,0.0,0.0,0.0,0.0,0.0,0.0,0.0,71,modules\core\src\main\java\org\apache\synapse\config\xml\SequenceMediatorSerializer.java,0,0,0,0
org.apache.synapse.config.xml.StartupFactory, 0, 0, 0, 0, 0, 0, 0, 0, 0, 0, 0, 0, 0, 0,0.0,0.0,0.0,0.0,0.0,0.0,0.0,0.0,0.0,0.0,0.0,0.0,0.0,71,modules\core\src\main\java\org\apache\synapse\config\xml\StartupFactory.java,0,0,0,0
org.apache.synapse.config.xml.StartupSerializer, 0, 0, 0, 0, 0, 0, 0, 0, 0, 0, 0, 0, 0, 0,0.0,0.0,0.0,0.0,0.0,0.0,0.0,0.0,0.0,0.0,0.0,0.0,0.0,71,modules\core\src\main\java\org\apache\synapse\config\xml\StartupSerializer.java,0,0,0,0
org.apache.synapse.config.xml.SwitchMediatorFactory, 0, 0, 0, 0, 0, 0, 0, 0, 0, 0, 0, 0, 0, 0,0.16666666666666666,0.0,0.0,0.0,0.0,0.0,0.0,0.0,0.0,0.0,0.0,0.0,0.0,56,modules\core\src\main\java\org\apache\synapse\config\xml\SwitchMediatorFactory.java,0,0,0,0
org.apache.synapse.config.xml.SwitchMediatorSerializationTest, 0, 0, 0, 0, 0, 0, 0, 0, 0, 0, 0, 0, 0, 0,0.0,0.0,0.0,0.0,0.0,0.0,0.0,0.0,0.0,0.0,0.0,0.0,0.0,31,modules\core\src\test\java\org\apache\synapse\config\xml\SwitchMediatorSerializationTest.java,0,0,0,0
org.apache.synapse.config.xml.SwitchMediatorSerializer, 0, 0, 0, 0, 0, 0, 0, 0, 0, 0, 0, 0, 0, 0,0.25,0.0,0.0,0.0,0.0,0.0,0.0,0.0,0.0,0.0,0.0,0.0,0.0,51,modules\core\src\main\java\org\apache\synapse\config\xml\SwitchMediatorSerializer.java,0,0,0,0
org.apache.synapse.config.xml.SynapseMediatorFactory, 0, 0, 0, 0, 0, 0, 0, 0, 0, 0, 0, 0, 0, 0,0.5,0.0,0.0,0.0,0.0,0.0,0.0,0.0,0.0,0.0,0.0,0.0,0.0,12,modules\core\src\main\java\org\apache\synapse\config\xml\SynapseMediatorFactory.java,0,0,0,0
org.apache.synapse.config.xml.SynapseMediatorSerializer, 0, 0, 0, 0, 0, 0, 0, 0, 0, 0, 0, 0, 0, 0,0.3333333333333333,0.0,0.0,0.0,0.0,0.0,0.0,0.0,0.0,0.0,0.0,0.0,0.0,18,modules\core\src\main\java\org\apache\synapse\config\xml\SynapseMediatorSerializer.java,0,0,0,0
org.apache.synapse.config.xml.SynapseXMLConfigurationFactory, 0, 0, 0, 0, 0, 0, 0, 0, 0, 0, 0, 0, 0, 0,0.0,0.0,0.0,0.18181818181818182,0.0,0.0,0.0,0.0,0.0,0.0,0.0,0.0,0.0,165,modules\core\src\main\java\org\apache\synapse\config\xml\SynapseXMLConfigurationFactory.java,0,0,0,0
org.apache.synapse.config.xml.TargetFactory, 0, 0, 0, 0, 0, 0, 0, 0, 0, 0, 0, 0, 0, 0,0.0,0.0,0.0,0.0,0.0,0.0,0.0,0.0,0.0,0.0,0.0,0.0,0.0,48,modules\core\src\main\java\org\apache\synapse\config\xml\TargetFactory.java,0,0,0,0
org.apache.synapse.config.xml.TargetSerializer, 0, 0, 0, 0, 0, 0, 0, 0, 0, 0, 0, 0, 0, 0,0.0,0.0,0.0,0.0,0.0,0.0,0.0,0.0,0.0,0.0,0.0,0.0,0.0,30,modules\core\src\main\java\org\apache\synapse\config\xml\TargetSerializer.java,0,0,0,0
org.apache.synapse.config.xml.TestMediator, 0, 0, 0, 0, 0, 0, 0, 0, 0, 0, 0, 0, 0, 0,0.0,0.0,0.0,0.0,0.0,0.0,0.0,0.0,0.0,0.0,0.0,0.0,0.0,22,modules\core\src\test\java\org\apache\synapse\config\xml\TestMediator.java,0,0,0,0
org.apache.synapse.config.xml.ValidateMediatorFactory, 0, 0, 0, 0, 0, 0, 0, 0, 0, 0, 0, 0, 0, 0,0.2,0.0,0.0,0.0,0.0,0.0,0.0,0.0,0.0,0.0,0.0,0.0,0.0,82,modules\core\src\main\java\org\apache\synapse\config\xml\ValidateMediatorFactory.java,0,0,0,0
org.apache.synapse.config.xml.ValidateMediatorSerializer, 0, 0, 0, 0, 0, 0, 0, 0, 0, 0, 0, 0, 0, 0,0.16666666666666666,0.0,0.0,0.0,0.0,0.0,0.0,0.0,0.0,0.0,0.0,0.0,0.0,48,modules\core\src\main\java\org\apache\synapse\config\xml\ValidateMediatorSerializer.java,0,0,0,0
org.apache.synapse.config.xml.XMLConfigConstants, 0, 0, 0, 1, 0, 0, 0, 0, 0, 0, 0, 0, 0, 1,0.0,0.0,0.0,0.0,0.0,0.0,0.0,0.0,0.0,0.0,0.0,0.0,0.0,29,modules\core\src\main\java\org\apache\synapse\config\xml\XMLConfigConstants.java,0,0,0,0
org.apache.synapse.config.xml.XMLConfigurationBuilder, 0, 0, 0, 0, 0, 0, 0, 0, 0, 0, 0, 0, 0, 0,0.0,0.0,0.0,0.0,0.0,0.0,0.0,0.0,0.0,0.0,0.0,0.0,0.0,8,modules\core\src\main\java\org\apache\synapse\config\xml\XMLConfigurationBuilder.java,0,0,0,0
org.apache.synapse.config.xml.XSLTMediatorFactory, 0, 0, 0, 0, 0, 0, 0, 0, 0, 0, 0, 0, 0, 0,0.25,0.0,0.0,0.25,0.0,0.0,0.0,0.0,0.0,0.0,0.0,0.0,0.0,60,modules\core\src\main\java\org\apache\synapse\config\xml\XSLTMediatorFactory.java,0,0,0,0
org.apache.synapse.config.xml.XSLTMediatorSerializer, 0, 0, 0, 0, 0, 0, 0, 0, 0, 0, 0, 0, 0, 0,0.3333333333333333,0.0,0.0,0.3333333333333333,0.0,0.0,0.0,0.0,0.0,0.0,0.0,0.0,0.0,51,modules\core\src\main\java\org\apache\synapse\config\xml\XSLTMediatorSerializer.java,0,0,0,0
org.apache.synapse.config.xml.endpoints.AddressEndpointFactory, 0, 0, 0, 0, 0, 0, 0, 0, 0, 0, 0, 0, 0, 0,0.0,0.0,0.0,0.5,0.0,0.0,0.0,0.0,0.0,0.0,0.0,0.0,0.0,183,modules\core\src\main\java\org\apache\synapse\config\xml\endpoints\AddressEndpointFactory.java,0,0,0,0
org.apache.synapse.config.xml.endpoints.AddressEndpointSerializer, 0, 0, 0, 0, 0, 0, 0, 0, 0, 0, 0, 0, 0, 0,0.0,0.0,0.0,0.6666666666666666,0.0,0.0,0.0,0.0,0.0,0.0,0.0,0.0,0.0,111,modules\core\src\main\java\org\apache\synapse\config\xml\endpoints\AddressEndpointSerializer.java,0,0,0,0
org.apache.synapse.config.xml.endpoints.EndpointAbstractFactory, 0, 0, 0, 0, 0, 0, 0, 0, 0, 0, 0, 0, 0, 0,0.0,0.0,0.0,0.0,0.0,0.0,0.0,0.0,0.0,0.0,0.0,0.0,0.0,40,modules\core\src\main\java\org\apache\synapse\config\xml\endpoints\EndpointAbstractFactory.java,0,0,0,0
org.apache.synapse.config.xml.endpoints.EndpointAbstractSerializer, 0, 0, 0, 0, 0, 0, 0, 0, 0, 0, 0, 0, 0, 0,0.0,0.0,0.0,0.0,0.0,0.0,0.0,0.0,0.0,0.0,0.0,0.0,0.0,19,modules\core\src\main\java\org\apache\synapse\config\xml\endpoints\EndpointAbstractSerializer.java,0,0,0,0
org.apache.synapse.config.xml.endpoints.EndpointFactory, 0, 0, 0, 0, 0, 0, 0, 0, 0, 0, 0, 0, 0, 0,0.0,0.0,0.0,0.0,0.0,0.0,0.0,0.0,0.0,0.0,0.0,0.0,0.0,19,modules\core\src\main\java\org\apache\synapse\config\xml\endpoints\EndpointFactory.java,0,0,0,0
org.apache.synapse.config.xml.endpoints.EndpointSerializer, 0, 0, 0, 0, 0, 0, 0, 0, 0, 0, 0, 0, 0, 0,0.0,0.0,0.0,0.0,0.0,0.0,0.0,0.0,0.0,0.0,0.0,0.0,0.0,19,modules\core\src\main\java\org\apache\synapse\config\xml\endpoints\EndpointSerializer.java,0,0,0,0
org.apache.synapse.config.xml.endpoints.FailoverEndpointFactory, 0, 0, 0, 0, 0, 0, 0, 0, 0, 0, 0, 0, 0, 0,0.0,0.0,0.0,0.0,0.0,0.0,0.0,0.0,0.0,0.0,0.0,0.0,0.0,52,modules\core\src\main\java\org\apache\synapse\config\xml\endpoints\FailoverEndpointFactory.java,0,0,0,0
org.apache.synapse.config.xml.endpoints.FailoverEndpointSerializer, 0, 0, 0, 0, 0, 0, 0, 0, 0, 0, 0, 0, 0, 0,0.0,0.0,0.0,0.0,0.0,0.0,0.0,0.0,0.0,0.0,0.0,0.0,0.0,26,modules\core\src\main\java\org\apache\synapse\config\xml\endpoints\FailoverEndpointSerializer.java,0,0,0,0
org.apache.synapse.config.xml.endpoints.IndirectEndpointFactory, 0, 0, 0, 0, 0, 0, 0, 0, 0, 0, 0, 0, 0, 0,0.0,0.0,0.0,0.0,0.0,0.0,0.0,0.0,0.0,0.0,0.0,0.0,0.0,30,modules\core\src\main\java\org\apache\synapse\config\xml\endpoints\IndirectEndpointFactory.java,0,0,0,0
org.apache.synapse.config.xml.endpoints.IndirectEndpointSerializer, 0, 0, 0, 0, 0, 0, 0, 0, 0, 0, 0, 0, 0, 0,0.0,0.0,0.0,0.0,0.0,0.0,0.0,0.0,0.0,0.0,0.0,0.0,0.0,16,modules\core\src\main\java\org\apache\synapse\config\xml\endpoints\IndirectEndpointSerializer.java,0,0,0,0
org.apache.synapse.config.xml.endpoints.LoadbalanceEndpointFactory, 0, 0, 0, 0, 0, 0, 0, 0, 0, 0, 0, 0, 0, 0,0.0,0.0,0.0,0.0,0.0,0.0,0.0,0.0,0.0,0.0,0.0,0.0,0.0,61,modules\core\src\main\java\org\apache\synapse\config\xml\endpoints\LoadbalanceEndpointFactory.java,0,0,0,0
org.apache.synapse.config.xml.endpoints.LoadbalanceEndpointSerializer, 0, 0, 0, 0, 0, 0, 0, 0, 0, 0, 0, 0, 0, 0,0.0,0.0,0.0,0.0,0.0,0.0,0.0,0.0,0.0,0.0,0.0,0.0,0.0,36,modules\core\src\main\java\org\apache\synapse\config\xml\endpoints\LoadbalanceEndpointSerializer.java,0,0,0,0
org.apache.synapse.config.xml.endpoints.SALoadbalanceEndpointFactory, 0, 0, 0, 0, 0, 0, 0, 0, 0, 0, 0, 0, 0, 0,0.0,0.0,0.0,0.25,0.0,0.0,0.0,0.0,0.0,0.0,0.0,0.0,0.0,74,modules\core\src\main\java\org\apache\synapse\config\xml\endpoints\SALoadbalanceEndpointFactory.java,0,0,0,0
org.apache.synapse.config.xml.endpoints.SALoadbalanceEndpointSerializer, 0, 0, 0, 0, 0, 0, 0, 0, 0, 0, 0, 0, 0, 0,0.0,0.0,0.0,0.3333333333333333,0.0,0.0,0.0,0.0,0.0,0.0,0.0,0.0,0.0,52,modules\core\src\main\java\org\apache\synapse\config\xml\endpoints\SALoadbalanceEndpointSerializer.java,0,0,0,0
org.apache.synapse.config.xml.endpoints.WSDLEndpointFactory, 0, 0, 0, 0, 0, 0, 0, 0, 0, 0, 0, 0, 0, 0,0.0,0.0,0.0,0.3333333333333333,0.0,0.0,0.0,0.0,0.0,0.0,0.0,0.0,0.0,223,modules\core\src\main\java\org\apache\synapse\config\xml\endpoints\WSDLEndpointFactory.java,0,0,0,0
org.apache.synapse.config.xml.endpoints.WSDLEndpointSerializer, 0, 0, 0, 0, 0, 0, 0, 0, 0, 0, 0, 0, 0, 0,0.0,0.0,0.0,0.6666666666666666,0.0,0.0,0.0,0.0,0.0,0.0,0.0,0.0,0.0,118,modules\core\src\main\java\org\apache\synapse\config\xml\endpoints\WSDLEndpointSerializer.java,0,0,0,0
org.apache.synapse.config.xml.endpoints.XMLToEndpointMapper, 0, 0, 0, 0, 0, 0, 0, 0, 0, 0, 0, 0, 0, 0,0.0,0.0,0.0,0.0,0.0,0.0,0.0,0.0,0.0,0.0,0.0,0.0,0.0,16,modules\core\src\main\java\org\apache\synapse\config\xml\endpoints\XMLToEndpointMapper.java,0,0,0,0
org.apache.synapse.config.xml.endpoints.utils.LoadbalanceAlgorithmFactory, 0, 0, 0, 0, 0, 0, 0, 0, 0, 0, 0, 0, 0, 0,0.0,0.0,0.0,0.0,0.0,0.0,0.0,0.0,0.0,0.0,0.0,0.0,0.0,14,modules\core\src\main\java\org\apache\synapse\config\xml\endpoints\utils\LoadbalanceAlgorithmFactory.java,0,0,0,0
org.apache.synapse.config.xml.endpoints.utils.WSDL11EndpointBuilder, 0, 0, 0, 0, 0, 0, 0, 0, 0, 0, 0, 0, 0, 0,0.0,0.0,0.0,0.25,0.0,0.0,0.0,0.0,0.0,0.0,0.0,0.0,0.0,99,modules\core\src\main\java\org\apache\synapse\config\xml\endpoints\utils\WSDL11EndpointBuilder.java,0,0,0,0
org.apache.synapse.config.xml.endpoints.utils.WSDL20EndpointBuilder, 0, 0, 0, 0, 0, 1, 0, 0, 0, 0, 0, 0, 0, 1,0.0,0.0,0.0,0.0,0.0,0.0,0.0,0.0,0.0,0.0,0.0,0.0,0.0,2,modules\core\src\main\java\org\apache\synapse\config\xml\endpoints\utils\WSDL20EndpointBuilder.java,0,0,0,0
org.apache.synapse.core.SynapseEnvironment, 0, 0, 0, 0, 0, 0, 0, 0, 0, 0, 0, 0, 0, 0,0.0,0.0,0.0,0.0,0.0,0.0,0.0,0.0,0.0,0.0,0.0,0.0,0.0,2,modules\core\src\main\java\org\apache\synapse\core\SynapseEnvironment.java,0,0,0,0
org.apache.synapse.core.axis2.AnonymousServiceFactory, 0, 0, 0, 0, 0, 0, 0, 1, 0, 0, 0, 0, 0, 1,0.0,0.0,0.0,0.0,0.0,0.0,0.0,0.0,0.0,0.0,0.0,0.0,0.0,102,modules\core\src\main\java\org\apache\synapse\core\axis2\AnonymousServiceFactory.java,0,0,0,0
org.apache.synapse.core.axis2.AsyncCallback, 0, 0, 0, 0, 0, 0, 0, 0, 0, 0, 0, 0, 0, 0,0.0,0.0,0.0,0.0,0.0,0.0,0.0,0.0,0.0,0.0,0.0,0.0,0.0,27,modules\core\src\main\java\org\apache\synapse\core\axis2\AsyncCallback.java,0,0,0,0
org.apache.synapse.core.axis2.Axis2FlexibleMEPClient, 0, 0, 0, 0, 0, 0, 0, 0, 0, 0, 0, 0, 0, 0,0.0,0.0,0.0,0.16666666666666666,0.0,0.0,0.0,0.16666666666666666,0.0,0.0,0.0,0.0,0.0,218,modules\core\src\main\java\org\apache\synapse\core\axis2\Axis2FlexibleMEPClient.java,0,0,0,0
org.apache.synapse.core.axis2.Axis2Sender, 0, 0, 0, 0, 0, 0, 0, 0, 0, 0, 0, 0, 0, 0,0.0,0.0,0.0,0.3333333333333333,0.0,0.0,0.0,0.16666666666666666,0.0,0.0,0.0,0.0,0.0,45,modules\core\src\main\java\org\apache\synapse\core\axis2\Axis2Sender.java,0,0,0,0
org.apache.synapse.core.axis2.Axis2SynapseEnvironment, 0, 0, 0, 0, 0, 0, 0, 0, 0, 0, 0, 0, 0, 0,0.0,0.0,0.0,0.18181818181818182,0.0,0.0,0.0,0.09090909090909091,0.0,0.0,0.0,0.0,0.0,153,modules\core\src\main\java\org\apache\synapse\core\axis2\Axis2SynapseEnvironment.java,0,0,0,0
org.apache.synapse.core.axis2.CustomURIResolver, 0, 0, 0, 0, 0, 0, 0, 0, 0, 0, 0, 0, 0, 0,0.0,0.0,0.0,0.0,0.0,0.0,0.0,0.0,0.0,0.0,0.0,0.0,0.0,22,modules\core\src\main\java\org\apache\synapse\core\axis2\CustomURIResolver.java,0,0,0,0
org.apache.synapse.core.axis2.CustomWSDLLocator, 0, 0, 0, 0, 0, 0, 0, 0, 0, 0, 0, 0, 0, 0,0.0,0.0,0.0,0.0,0.0,0.0,0.0,0.0,0.0,0.0,0.0,0.0,0.0,42,modules\core\src\main\java\org\apache\synapse\core\axis2\CustomWSDLLocator.java,0,0,0,0
org.apache.synapse.core.axis2.DynamicAxisOperation, 0, 0, 0, 0, 0, 0, 0, 0, 0, 0, 0, 0, 0, 0,0.0,0.0,0.0,0.0,0.0,0.0,0.0,1.0,0.0,0.0,0.0,0.0,0.0,111,modules\core\src\main\java\org\apache\synapse\core\axis2\DynamicAxisOperation.java,0,0,0,0
org.apache.synapse.core.axis2.MessageContextCreatorForAxis2, 0, 0, 0, 0, 0, 0, 0, 0, 0, 0, 0, 0, 0, 0,0.0,0.0,0.0,0.0,0.0,0.0,0.0,0.0,0.0,0.0,0.0,0.0,0.0,20,modules\core\src\main\java\org\apache\synapse\core\axis2\MessageContextCreatorForAxis2.java,0,0,0,0
org.apache.synapse.core.axis2.ProxyServiceMessageReceiver, 0, 0, 0, 0, 0, 0, 0, 0, 0, 0, 0, 0, 0, 0,0.0,0.0,0.0,0.0,0.0,0.0,0.0,0.0,0.0,0.0,0.0,0.0,0.0,142,modules\core\src\main\java\org\apache\synapse\core\axis2\ProxyServiceMessageReceiver.java,0,0,0,0
org.apache.synapse.core.axis2.SOAPUtils, 0, 0, 0, 0, 0, 0, 0, 0, 0, 0, 0, 0, 0, 0,0.0,0.0,0.0,0.0,0.0,0.0,0.0,0.0,0.0,0.0,0.0,0.0,0.0,198,modules\core\src\main\java\org\apache\synapse\core\axis2\SOAPUtils.java,0,0,0,0
org.apache.synapse.core.axis2.SynapseAxisServlet, 0, 0, 0, 0, 0, 0, 0, 0, 0, 0, 0, 0, 0, 0,0.0,0.0,0.0,0.0,0.0,0.0,0.0,0.0,0.0,0.0,0.0,0.0,0.0,22,modules\core\src\main\java\org\apache\synapse\core\axis2\SynapseAxisServlet.java,0,0,0,0
org.apache.synapse.core.axis2.SynapseDispatcher, 0, 0, 0, 0, 0, 0, 0, 0, 0, 0, 0, 0, 0, 0,0.0,0.0,0.0,0.0,0.0,0.0,0.0,0.0,0.0,0.0,0.0,0.0,0.0,16,modules\core\src\main\java\org\apache\synapse\core\axis2\SynapseDispatcher.java,0,0,0,0
org.apache.synapse.core.axis2.SynapseInitializationModule, 0, 0, 0, 0, 0, 0, 0, 0, 0, 0, 0, 0, 0, 0,0.0,0.0,0.0,0.0,0.0,0.0,0.0,0.0,0.0,0.0,0.0,0.0,0.0,126,modules\core\src\main\java\org\apache\synapse\core\axis2\SynapseInitializationModule.java,0,0,0,0
org.apache.synapse.core.axis2.SynapseMessageReceiver, 0, 0, 0, 0, 0, 0, 0, 0, 0, 0, 0, 0, 0, 0,0.0,0.0,0.0,0.0,0.0,0.0,0.0,0.0,0.0,0.0,0.0,0.0,0.0,67,modules\core\src\main\java\org\apache\synapse\core\axis2\SynapseMessageReceiver.java,0,0,0,0
org.apache.synapse.core.axis2.SynapseMustUnderstandHandler, 0, 0, 0, 0, 0, 0, 0, 0, 0, 0, 0, 0, 0, 0,0.0,0.0,0.0,0.0,0.0,0.0,0.0,0.0,0.0,0.0,0.0,0.0,0.0,18,modules\core\src\main\java\org\apache\synapse\core\axis2\SynapseMustUnderstandHandler.java,0,0,0,0
org.apache.synapse.core.axis2.SynapseStartUpServlet, 0, 0, 0, 0, 0, 0, 0, 0, 0, 0, 0, 0, 0, 0,0.0,0.0,0.0,0.0,0.0,0.0,0.0,0.0,0.0,0.0,0.0,0.0,0.0,84,modules\core\src\main\java\org\apache\synapse\core\axis2\SynapseStartUpServlet.java,0,0,0,0
org.apache.synapse.endpoints.AddressEndpoint, 0, 0, 0, 1, 0, 0, 0, 0, 0, 0, 0, 0, 0, 1,0.0,0.0,0.0,0.16666666666666666,0.0,0.0,0.0,0.0,0.0,0.0,0.0,0.0,0.0,128,modules\core\src\main\java\org\apache\synapse\endpoints\AddressEndpoint.java,0,0,0,0
org.apache.synapse.endpoints.Endpoint, 0, 0, 0, 0, 0, 0, 0, 0, 0, 0, 0, 0, 0, 0,0.0,0.0,0.0,0.0,0.0,0.0,0.0,0.0,0.0,0.0,0.0,0.0,0.0,128,modules\core\src\main\java\org\apache\synapse\endpoints\Endpoint.java,0,0,0,0
org.apache.synapse.endpoints.FailoverEndpoint, 0, 0, 0, 0, 0, 0, 0, 0, 0, 0, 0, 0, 0, 0,0.0,0.0,0.0,0.0,0.0,0.0,0.0,0.0,0.0,0.0,0.0,0.0,0.0,71,modules\core\src\main\java\org\apache\synapse\endpoints\FailoverEndpoint.java,0,0,0,0
org.apache.synapse.endpoints.IndirectEndpoint, 0, 0, 0, 0, 0, 0, 0, 0, 0, 0, 0, 0, 0, 0,0.0,0.0,0.0,0.42857142857142855,0.0,0.0,0.0,0.0,0.0,0.0,0.0,0.0,0.0,100,modules\core\src\main\java\org\apache\synapse\endpoints\IndirectEndpoint.java,0,0,0,0
org.apache.synapse.endpoints.LoadbalanceEndpoint, 0, 0, 0, 0, 0, 0, 0, 0, 0, 0, 0, 0, 0, 0,0.0,0.0,0.0,0.0,0.0,0.0,0.0,0.0,0.0,0.0,0.0,0.0,0.0,78,modules\core\src\main\java\org\apache\synapse\endpoints\LoadbalanceEndpoint.java,0,0,0,0
org.apache.synapse.endpoints.SALoadbalanceEndpoint, 0, 0, 0, 1, 0, 0, 0, 0, 0, 0, 0, 0, 0, 1,0.0,0.0,0.0,0.0,0.0,0.0,0.0,0.0,0.0,0.0,0.0,0.0,0.0,113,modules\core\src\main\java\org\apache\synapse\endpoints\SALoadbalanceEndpoint.java,0,0,0,0
org.apache.synapse.endpoints.WSDLEndpoint, 0, 0, 0, 1, 0, 0, 0, 0, 0, 0, 0, 0, 0, 1,0.0,0.0,0.0,0.16666666666666666,0.0,0.0,0.0,0.0,0.0,0.0,0.0,0.0,0.0,158,modules\core\src\main\java\org\apache\synapse\endpoints\WSDLEndpoint.java,0,0,0,0
org.apache.synapse.endpoints.algorithms.LoadbalanceAlgorithm, 0, 0, 0, 0, 0, 0, 0, 0, 0, 0, 0, 0, 0, 0,0.0,0.0,0.0,0.0,0.0,0.0,0.0,0.0,0.0,0.0,0.0,0.0,0.0,158,modules\core\src\main\java\org\apache\synapse\endpoints\algorithms\LoadbalanceAlgorithm.java,0,0,0,0
org.apache.synapse.endpoints.algorithms.RoundRobin, 0, 0, 0, 0, 0, 0, 0, 0, 0, 0, 0, 0, 0, 0,0.0,0.0,0.0,0.0,0.0,0.0,0.0,0.0,0.0,0.0,0.0,0.0,0.0,29,modules\core\src\main\java\org\apache\synapse\endpoints\algorithms\RoundRobin.java,0,0,0,0
org.apache.synapse.endpoints.dispatch.Dispatcher, 0, 0, 0, 0, 0, 0, 0, 0, 0, 0, 0, 0, 0, 0,0.0,0.0,0.0,0.0,0.0,0.0,0.0,0.0,0.0,0.0,0.0,0.0,0.0,29,modules\core\src\main\java\org\apache\synapse\endpoints\dispatch\Dispatcher.java,0,0,0,0
org.apache.synapse.endpoints.utils.EndpointDefinition, 0, 0, 0, 1, 0, 0, 0, 0, 0, 0, 0, 0, 0, 1,0.0,0.0,0.0,0.16666666666666666,0.0,0.0,0.0,0.0,0.0,0.0,0.0,0.0,0.0,128,modules\core\src\main\java\org\apache\synapse\endpoints\utils\EndpointDefinition.java,0,0,0,0
org.apache.synapse.handler.SynapseInHandler, 0, 0, 0, 0, 0, 0, 0, 0, 0, 0, 0, 0, 0, 0,0.0,0.0,0.0,0.0,0.0,0.0,0.0,0.0,0.0,0.0,0.0,0.0,0.0,32,modules\handler\src\main\java\org\apache\synapse\handler\SynapseInHandler.java,0,0,0,0
org.apache.synapse.handler.SynapseModule, 0, 0, 0, 0, 0, 0, 0, 0, 0, 0, 0, 0, 0, 0,0.0,0.0,0.0,0.0,0.0,0.0,0.0,0.0,0.0,0.0,0.0,0.0,0.0,67,modules\handler\src\main\java\org\apache\synapse\handler\SynapseModule.java,0,0,0,0
org.apache.synapse.handler.SynapseOutHandler, 0, 0, 0, 0, 0, 0, 0, 0, 0, 0, 0, 0, 0, 0,0.0,0.0,0.0,0.0,0.0,0.0,0.0,0.0,0.0,0.0,0.0,0.0,0.0,32,modules\handler\src\main\java\org\apache\synapse\handler\SynapseOutHandler.java,0,0,0,0
org.apache.synapse.mediators.AbstractListMediator, 0, 0, 0, 0, 0, 0, 0, 0, 0, 0, 0, 0, 0, 0,0.0,0.0,0.0,0.047619047619047616,0.0,0.0,0.0,0.0,0.0,0.0,0.0,0.0,0.0,64,modules\core\src\main\java\org\apache\synapse\mediators\AbstractListMediator.java,0,0,0,0
org.apache.synapse.mediators.AbstractMediator, 0, 0, 0, 0, 0, 0, 0, 0, 0, 0, 0, 0, 0, 0,0.03571428571428571,0.0,0.03571428571428571,0.25,0.0,0.0,0.0,0.10714285714285714,0.0,0.0,0.0,0.0,0.0,96,modules\core\src\main\java\org\apache\synapse\mediators\AbstractMediator.java,0,0,0,0
org.apache.synapse.mediators.AbstractMediatorTestCase, 0, 0, 0, 0, 0, 0, 0, 0, 0, 0, 0, 0, 0, 0,0.0,0.0,0.0,0.0,0.0,0.0,0.0,0.0,0.0,0.0,0.0,0.0,0.0,13,modules\core\src\test\java\org\apache\synapse\mediators\AbstractMediatorTestCase.java,0,0,0,0
org.apache.synapse.mediators.AbstractTestCase, 0, 0, 0, 0, 0, 0, 0, 0, 0, 0, 0, 0, 0, 0,0.0,0.0,0.0,0.0,0.0,0.0,0.0,0.0,0.0,0.0,0.0,0.0,0.0,65,modules\core\src\test\java\org\apache\synapse\mediators\AbstractTestCase.java,0,0,0,0
org.apache.synapse.mediators.FilterMediator, 0, 0, 0, 0, 0, 0, 0, 0, 0, 0, 0, 0, 0, 0,0.0,0.0,0.0,0.0,0.0,0.0,0.0,0.0,0.0,0.0,0.0,0.0,0.0,65,modules\core\src\main\java\org\apache\synapse\mediators\FilterMediator.java,0,0,0,0
org.apache.synapse.mediators.ListMediator, 0, 0, 0, 0, 0, 0, 0, 0, 0, 0, 0, 0, 0, 0,0.0,0.0,0.0,0.0,0.0,0.0,0.0,0.0,0.0,0.0,0.0,0.0,0.0,65,modules\core\src\main\java\org\apache\synapse\mediators\ListMediator.java,0,0,0,0
org.apache.synapse.mediators.MediatorFaultHandler, 0, 0, 0, 0, 0, 0, 0, 0, 0, 0, 0, 0, 0, 0,0.0,0.0,0.0,0.25,0.0,0.0,0.0,0.0,0.0,0.0,0.0,0.0,0.0,36,modules\core\src\main\java\org\apache\synapse\mediators\MediatorFaultHandler.java,0,0,0,0
org.apache.synapse.mediators.MediatorProperty, 0, 0, 0, 0, 0, 0, 0, 0, 0, 0, 0, 0, 0, 0,0.1111111111111111,0.0,0.0,0.2222222222222222,0.0,0.0,0.0,0.0,0.0,0.0,0.0,0.0,0.0,31,modules\core\src\main\java\org\apache\synapse\mediators\MediatorProperty.java,0,0,0,0
org.apache.synapse.mediators.MediatorWorker, 0, 0, 0, 0, 0, 0, 0, 0, 0, 0, 0, 0, 0, 0,0.0,0.0,0.0,0.0,0.0,0.0,0.0,0.0,0.0,0.0,0.0,0.0,0.0,53,modules\core\src\main\java\org\apache\synapse\mediators\MediatorWorker.java,0,0,0,0
org.apache.synapse.mediators.TestMediateHandler, 0, 0, 0, 0, 0, 0, 0, 0, 0, 0, 0, 0, 0, 0,0.0,0.0,0.0,0.0,0.0,0.0,0.0,0.0,0.0,0.0,0.0,0.0,0.0,53,modules\core\src\test\java\org\apache\synapse\mediators\TestMediateHandler.java,0,0,0,0
org.apache.synapse.mediators.TestMediator, 0, 0, 0, 0, 0, 0, 0, 0, 0, 0, 0, 0, 0, 0,0.0,0.0,0.0,0.0,0.0,0.0,0.0,0.0,0.0,0.0,0.0,0.0,0.0,20,modules\core\src\test\java\org\apache\synapse\mediators\TestMediator.java,0,0,0,0
org.apache.synapse.mediators.base.SequenceMediator, 0, 0, 0, 1, 0, 0, 0, 0, 0, 0, 0, 0, 0, 1,0.0,0.0,0.0,0.08333333333333333,0.0,0.0,0.0,0.16666666666666666,0.0,0.0,0.0,0.0,0.0,140,modules\core\src\main\java\org\apache\synapse\mediators\base\SequenceMediator.java,0,0,0,0
org.apache.synapse.mediators.base.SynapseMediator, 0, 0, 0, 0, 0, 0, 0, 0, 0, 0, 0, 0, 0, 0,0.0,0.0,0.0,0.0,0.0,0.0,0.0,0.0,0.0,0.0,0.0,0.0,0.0,34,modules\core\src\main\java\org\apache\synapse\mediators\base\SynapseMediator.java,0,0,0,0
org.apache.synapse.mediators.bsf.GroovyScriptMediatorTest, 0, 0, 0, 0, 0, 0, 0, 0, 0, 0, 0, 0, 0, 0,0.0,0.0,0.0,0.0,0.0,0.0,0.0,0.0,0.0,0.0,0.0,0.0,0.0,4,modules\extensions\src\test\java\org\apache\synapse\mediators\bsf\GroovyScriptMediatorTest.java,0,0,0,0
org.apache.synapse.mediators.bsf.ScriptMediatorSerializationTest, 0, 0, 0, 0, 0, 0, 0, 0, 0, 0, 0, 0, 0, 0,0.0,0.0,0.0,0.0,0.0,0.0,0.0,0.0,0.0,0.0,0.0,0.0,0.0,25,modules\extensions\src\test\java\org\apache\synapse\mediators\bsf\ScriptMediatorSerializationTest.java,0,0,0,0
org.apache.synapse.mediators.bsf.ScriptMediatorTest, 0, 0, 0, 0, 0, 0, 0, 0, 0, 0, 0, 0, 0, 0,0.0,0.0,0.0,0.0,0.0,0.0,0.0,0.0,0.0,0.0,0.0,0.0,0.0,31,modules\extensions\src\test\java\org\apache\synapse\mediators\bsf\ScriptMediatorTest.java,0,0,0,0
org.apache.synapse.mediators.bsf.javascript.JavaScriptMediatorTest, 0, 0, 0, 0, 0, 0, 0, 0, 0, 0, 0, 0, 0, 0,0.0,0.0,0.0,0.0,0.0,0.0,0.0,0.0,0.0,0.0,0.0,0.0,0.0,20,modules\extensions\src\test\java\org\apache\synapse\mediators\bsf\javascript\JavaScriptMediatorTest.java,0,0,0,0
org.apache.synapse.mediators.builtin.CacheMediator, 0, 0, 0, 1, 0, 0, 0, 1, 0, 0, 0, 0, 0, 2,0.0,0.0,0.0,0.14285714285714285,0.0,0.0,0.0,0.0,0.0,0.0,0.0,0.0,0.0,284,modules\core\src\main\java\org\apache\synapse\mediators\builtin\CacheMediator.java,0,0,0,0
org.apache.synapse.mediators.builtin.CalloutMediator, 0, 0, 0, 1, 0, 0, 0, 0, 0, 0, 0, 0, 0, 1,0.0,0.0,0.0,0.0,0.0,0.0,0.0,0.0,0.0,0.0,0.0,0.0,0.0,165,modules\core\src\main\java\org\apache\synapse\mediators\builtin\CalloutMediator.java,0,0,0,0
org.apache.synapse.mediators.builtin.DropMediator, 0, 0, 0, 0, 0, 0, 0, 0, 0, 0, 0, 0, 0, 0,0.0,0.0,0.0,0.0,0.0,0.0,0.0,0.0,0.0,0.0,0.0,0.0,0.0,19,modules\core\src\main\java\org\apache\synapse\mediators\builtin\DropMediator.java,0,0,0,0
org.apache.synapse.mediators.builtin.DropMediatorTest, 0, 0, 0, 0, 0, 0, 0, 0, 0, 0, 0, 0, 0, 0,0.0,0.0,0.0,0.0,0.0,0.0,0.0,0.0,0.0,0.0,0.0,0.0,0.0,9,modules\core\src\test\java\org\apache\synapse\mediators\builtin\DropMediatorTest.java,0,0,0,0
org.apache.synapse.mediators.builtin.PropertyMediatorTest, 0, 0, 0, 0, 0, 0, 0, 0, 0, 0, 0, 0, 0, 0,0.0,0.0,0.0,0.0,0.0,0.0,0.0,0.0,0.0,0.0,0.0,0.0,0.0,46,modules\core\src\test\java\org\apache\synapse\mediators\builtin\PropertyMediatorTest.java,0,0,0,0
org.apache.synapse.mediators.builtin.ValidateMediator, 0, 0, 0, 0, 0, 0, 0, 0, 0, 0, 0, 0, 0, 0,0.0,0.0,0.0,0.1111111111111111,0.0,0.0,0.0,0.0,0.0,0.0,0.0,0.0,0.0,198,modules\core\src\main\java\org\apache\synapse\mediators\builtin\ValidateMediator.java,0,0,0,0
org.apache.synapse.mediators.builtin.ValidateMediatorSerializationTest, 0, 0, 0, 0, 0, 0, 0, 0, 0, 0, 0, 0, 0, 0,0.0,0.0,0.0,0.0,0.0,0.0,0.0,0.0,0.0,0.0,0.0,0.0,0.0,18,modules\core\src\test\java\org\apache\synapse\mediators\builtin\ValidateMediatorSerializationTest.java,0,0,0,0
org.apache.synapse.mediators.db.DBLookupMediator, 0, 0, 0, 0, 0, 0, 0, 0, 0, 0, 0, 0, 0, 0,0.0,0.0,0.0,0.0,0.0,0.0,0.0,0.0,0.0,0.0,0.0,0.0,0.0,57,modules\core\src\main\java\org\apache\synapse\mediators\db\DBLookupMediator.java,0,0,0,0
org.apache.synapse.mediators.db.DBLookupMediatorTest, 0, 0, 0, 0, 0, 0, 0, 0, 0, 0, 0, 0, 0, 0,0.0,0.0,0.0,0.0,0.0,0.0,0.0,0.0,0.0,0.0,0.0,0.0,0.0,59,modules\core\src\test\java\org\apache\synapse\mediators\db\DBLookupMediatorTest.java,0,0,0,0
org.apache.synapse.mediators.db.DBReportMediator, 0, 0, 0, 0, 0, 0, 0, 0, 0, 0, 0, 0, 0, 0,0.0,0.0,0.0,0.0,0.0,0.0,0.0,0.0,0.0,0.0,0.0,0.0,0.0,33,modules\core\src\main\java\org\apache\synapse\mediators\db\DBReportMediator.java,0,0,0,0
org.apache.synapse.mediators.db.DBReportMediatorTest, 0, 0, 0, 0, 0, 0, 0, 0, 0, 0, 0, 0, 0, 0,0.0,0.0,0.0,0.0,0.0,0.0,0.0,0.0,0.0,0.0,0.0,0.0,0.0,58,modules\core\src\test\java\org\apache\synapse\mediators\db\DBReportMediatorTest.java,0,0,0,0
org.apache.synapse.mediators.eip.AbstractSplitMediatorTestCase, 0, 0, 0, 0, 0, 0, 0, 0, 0, 0, 0, 0, 0, 0,0.0,0.0,0.0,0.0,0.0,0.0,0.0,0.0,0.0,0.0,0.0,0.0,0.0,30,modules\core\src\test\java\org\apache\synapse\mediators\eip\AbstractSplitMediatorTestCase.java,0,0,0,0
org.apache.synapse.mediators.eip.CloneMediatorTest, 0, 0, 0, 0, 0, 0, 0, 0, 0, 0, 0, 0, 0, 0,0.0,0.0,0.0,0.0,0.0,0.0,0.0,0.0,0.0,0.0,0.0,0.0,0.0,51,modules\core\src\test\java\org\apache\synapse\mediators\eip\CloneMediatorTest.java,0,0,0,0
org.apache.synapse.mediators.eip.EIPConstants, 0, 0, 0, 0, 0, 0, 0, 0, 0, 0, 0, 0, 0, 0,0.0,0.0,0.0,0.0,0.0,0.0,0.0,0.0,0.0,0.0,0.0,0.0,0.0,5,modules\core\src\main\java\org\apache\synapse\mediators\eip\EIPConstants.java,0,0,0,0
org.apache.synapse.mediators.eip.EIPUtils, 0, 0, 0, 0, 0, 0, 0, 0, 0, 0, 0, 0, 0, 0,0.0,0.0,0.0,0.0,0.0,0.0,0.0,1.0,0.0,0.0,0.0,0.0,0.0,57,modules\core\src\main\java\org\apache\synapse\mediators\eip\EIPUtils.java,0,0,0,0
org.apache.synapse.mediators.eip.IterateMediatorTest, 0, 0, 0, 0, 0, 0, 0, 0, 0, 0, 0, 0, 0, 0,0.0,0.0,0.0,0.0,0.0,0.0,0.0,0.0,0.0,0.0,0.0,0.0,0.0,53,modules\core\src\test\java\org\apache\synapse\mediators\eip\IterateMediatorTest.java,0,0,0,0
org.apache.synapse.mediators.eip.SplitTestHelperMediator, 0, 0, 0, 0, 0, 0, 0, 0, 0, 0, 0, 0, 0, 0,0.0,0.0,0.0,0.0,0.0,0.0,0.0,0.0,0.0,0.0,0.0,0.0,0.0,45,modules\core\src\test\java\org\apache\synapse\mediators\eip\SplitTestHelperMediator.java,0,0,0,0
org.apache.synapse.mediators.eip.Target, 0, 0, 0, 0, 0, 0, 0, 0, 0, 0, 0, 0, 0, 0,0.0,0.0,0.0,0.2,0.0,0.0,0.0,0.2,0.0,0.0,0.0,0.0,0.0,70,modules\core\src\main\java\org\apache\synapse\mediators\eip\Target.java,0,0,0,0
org.apache.synapse.mediators.eip.aggregator.Aggregate, 0, 0, 0, 1, 0, 0, 0, 1, 0, 0, 0, 0, 0, 2,0.0,0.0,0.0,0.0,0.0,0.0,0.0,0.0,0.0,0.0,0.0,0.0,0.0,129,modules\core\src\main\java\org\apache\synapse\mediators\eip\aggregator\Aggregate.java,0,0,0,0
org.apache.synapse.mediators.eip.splitter.CloneMediator, 0, 0, 0, 0, 0, 0, 0, 0, 0, 0, 0, 0, 0, 0,0.0,0.0,0.0,0.2,0.0,0.0,0.0,0.0,0.0,0.0,0.0,0.0,0.0,78,modules\core\src\main\java\org\apache\synapse\mediators\eip\splitter\CloneMediator.java,0,0,0,0
org.apache.synapse.mediators.eip.splitter.IterateMediator, 0, 0, 0, 0, 0, 0, 0, 1, 0, 0, 0, 0, 0, 1,0.0,0.0,0.0,0.16666666666666666,0.0,0.0,0.0,0.0,0.0,0.0,0.0,0.0,0.0,123,modules\core\src\main\java\org\apache\synapse\mediators\eip\splitter\IterateMediator.java,0,0,0,0
org.apache.synapse.mediators.ext.AnnotatedCommand, 0, 0, 0, 0, 0, 0, 0, 0, 0, 0, 0, 0, 0, 0,0.0,0.0,0.0,0.0,0.0,0.0,0.0,0.0,0.0,0.0,0.0,0.0,0.0,14,modules\core\src\main\java\org\apache\synapse\mediators\ext\AnnotatedCommandMediator.java,0,0,0,0
org.apache.synapse.mediators.ext.AnnotatedCommand2, 1, 0, 0, 0, 0, 0, 0, 0, 0, 0, 0, 0, 0, 1,0.0,0.0,0.0,0.0,0.0,0.0,0.0,0.0,0.0,0.0,0.0,0.0,0.0,15,modules\core\src\test\java\org\apache\synapse\mediators\ext\AnnotatedCommand2.java,0,0,0,0
org.apache.synapse.mediators.ext.AnnotatedCommandMediatorTest, 0, 0, 0, 0, 0, 0, 0, 0, 0, 0, 0, 0, 0, 0,0.0,0.0,0.0,0.0,0.0,0.0,0.0,0.0,0.0,0.0,0.0,0.0,0.0,42,modules\core\src\test\java\org\apache\synapse\mediators\ext\AnnotatedCommandMediatorTest.java,0,0,0,0
org.apache.synapse.mediators.ext.ClassMediatorTest, 0, 0, 0, 0, 0, 0, 0, 0, 0, 0, 0, 0, 0, 0,0.0,0.0,0.0,0.0,0.0,0.0,0.0,0.0,0.0,0.0,0.0,0.0,0.0,35,modules\core\src\test\java\org\apache\synapse\mediators\ext\ClassMediatorTest.java,0,0,0,0
org.apache.synapse.mediators.ext.ClassMediatorTestMediator, 1, 0, 1, 0, 0, 0, 0, 0, 0, 0, 0, 0, 0, 2,0.0,0.0,0.0,0.0,0.0,0.0,0.0,0.0,0.0,0.0,0.0,0.0,0.0,25,modules\core\src\test\java\org\apache\synapse\mediators\ext\ClassMediatorTestMediator.java,0,0,0,0
org.apache.synapse.mediators.ext.POJOCommandMediatorTest, 0, 0, 0, 0, 0, 0, 0, 0, 0, 0, 0, 0, 0, 0,0.0,0.0,0.0,0.0,0.0,0.0,0.0,0.0,0.0,0.0,0.0,0.0,0.0,87,modules\core\src\test\java\org\apache\synapse\mediators\ext\POJOCommandMediatorTest.java,0,0,0,0
org.apache.synapse.mediators.ext.POJOCommandTestHelper, 0, 0, 0, 0, 0, 0, 0, 0, 0, 0, 0, 0, 0, 0,0.6666666666666666,0.0,0.6666666666666666,0.0,0.0,0.0,0.0,0.0,0.0,0.0,0.0,0.0,0.0,27,modules\core\src\test\java\org\apache\synapse\mediators\ext\POJOCommandTestHelper.java,0,0,0,0
org.apache.synapse.mediators.ext.POJOCommandTestImplementedMediator, 1, 0, 1, 0, 0, 0, 0, 0, 0, 0, 0, 0, 0, 2,0.0,0.0,0.0,0.0,0.0,0.0,0.0,0.0,0.0,0.0,0.0,0.0,0.0,21,modules\core\src\test\java\org\apache\synapse\mediators\ext\POJOCommandTestImplementedMediator.java,0,0,0,0
org.apache.synapse.mediators.ext.POJOCommandTestMediator, 1, 0, 1, 0, 0, 0, 0, 0, 0, 0, 0, 0, 0, 2,0.0,0.0,0.0,0.0,0.0,0.0,0.0,0.0,0.0,0.0,0.0,0.0,0.0,13,modules\core\src\test\java\org\apache\synapse\mediators\ext\POJOCommandTestMediator.java,0,0,0,0
org.apache.synapse.mediators.filters.FilterMediatorTest, 0, 0, 0, 0, 0, 0, 0, 0, 0, 0, 0, 0, 0, 0,0.0,0.0,0.0,0.0,0.0,0.0,0.0,0.0,0.0,0.0,0.0,0.0,0.0,67,modules\core\src\test\java\org\apache\synapse\mediators\filters\FilterMediatorTest.java,0,0,0,0
org.apache.synapse.mediators.filters.InMediator, 0, 0, 0, 0, 0, 0, 0, 0, 0, 0, 0, 0, 0, 0,0.0,0.0,0.0,0.0,0.0,0.0,0.0,0.0,0.0,0.0,0.0,0.0,0.0,30,modules\core\src\main\java\org\apache\synapse\mediators\filters\InMediator.java,0,0,0,0
org.apache.synapse.mediators.filters.OutMediator, 0, 0, 0, 0, 0, 0, 0, 0, 0, 0, 0, 0, 0, 0,0.0,0.0,0.0,0.0,0.0,0.0,0.0,0.0,0.0,0.0,0.0,0.0,0.0,30,modules\core\src\main\java\org\apache\synapse\mediators\filters\OutMediator.java,0,0,0,0
org.apache.synapse.mediators.filters.SwitchMediator, 0, 0, 0, 0, 0, 0, 0, 0, 0, 0, 0, 0, 0, 0,0.0,0.0,0.0,0.0,0.0,0.0,0.0,0.0,0.0,0.0,0.0,0.0,0.0,77,modules\core\src\main\java\org\apache\synapse\mediators\filters\SwitchMediator.java,0,0,0,0
org.apache.synapse.mediators.filters.SwitchMediatorTest, 0, 0, 0, 0, 0, 0, 0, 0, 0, 0, 0, 0, 0, 0,0.0,0.0,0.0,0.0,0.0,0.0,0.0,0.0,0.0,0.0,0.0,0.0,0.0,85,modules\core\src\test\java\org\apache\synapse\mediators\filters\SwitchMediatorTest.java,0,0,0,0
org.apache.synapse.mediators.spring.SpringMediator, 0, 0, 0, 0, 0, 0, 0, 0, 0, 0, 0, 0, 0, 0,0.0,0.0,0.0,0.2,0.0,0.0,0.0,0.0,0.0,0.0,0.0,0.0,0.0,85,modules\extensions\src\main\java\org\apache\synapse\mediators\spring\SpringMediator.java,0,0,0,0
org.apache.synapse.mediators.spring.SpringMediatorFactory, 0, 0, 0, 0, 0, 0, 0, 0, 0, 0, 0, 0, 0, 0,0.5,0.0,0.0,0.0,0.0,0.0,0.0,0.0,0.0,0.0,0.0,0.0,0.0,23,modules\extensions\src\main\java\org\apache\synapse\mediators\spring\SpringMediatorFactory.java,0,0,0,0
org.apache.synapse.mediators.spring.SpringMediatorSerializer, 0, 0, 0, 0, 0, 0, 0, 0, 0, 0, 0, 0, 0, 0,0.5,0.0,0.0,0.0,0.0,0.0,0.0,0.0,0.0,0.0,0.0,0.0,0.0,30,modules\extensions\src\main\java\org\apache\synapse\mediators\spring\SpringMediatorSerializer.java,0,0,0,0
org.apache.synapse.mediators.spring.SpringMediatorTest, 0, 0, 0, 0, 0, 0, 0, 0, 0, 0, 0, 0, 0, 0,0.0,0.0,0.0,0.0,0.0,0.0,0.0,0.0,0.0,0.0,0.0,0.0,0.0,9,modules\extensions\src\test\java\org\apache\synapse\mediators\spring\SpringMediatorTest.java,0,0,0,0
org.apache.synapse.mediators.spring.SpringTestBean, 0, 0, 0, 0, 0, 0, 0, 0, 0, 0, 0, 0, 0, 0,0.0,0.0,0.0,0.0,0.0,0.0,0.0,0.0,0.0,0.0,0.0,0.0,0.0,28,modules\extensions\src\test\java\org\apache\synapse\mediators\spring\SpringTestBean.java,0,0,0,0
org.apache.synapse.mediators.spring.TestMediateHandlerImpl, 1, 0, 1, 0, 0, 0, 0, 0, 0, 0, 0, 0, 0, 2,0.0,0.0,0.0,0.0,0.0,0.0,0.0,0.0,0.0,0.0,0.0,0.0,0.0,6,modules\extensions\src\test\java\org\apache\synapse\mediators\spring\TestMediateHandlerImpl.java,0,0,0,0
org.apache.synapse.mediators.throttle.ThrottleMediator, 0, 0, 0, 1, 0, 0, 0, 1, 0, 0, 0, 0, 0, 2,0.0,0.0,0.0,0.25,0.0,0.0,0.0,0.0,0.0,0.0,0.0,0.0,0.0,335,modules\extensions\src\main\java\org\apache\synapse\mediators\throttle\ThrottleMediator.java,0,0,0,0
org.apache.synapse.mediators.throttle.ThrottleMediatorFactory, 0, 0, 0, 0, 0, 0, 0, 0, 0, 0, 0, 0, 0, 0,0.25,0.0,0.0,0.25,0.0,0.0,0.0,0.25,0.0,0.0,0.0,0.0,0.0,68,modules\extensions\src\main\java\org\apache\synapse\mediators\throttle\ThrottleMediatorFactory.java,0,0,0,0
org.apache.synapse.mediators.throttle.ThrottleMediatorSerializationTest, 0, 0, 0, 0, 0, 0, 0, 0, 0, 0, 0, 0, 0, 0,0.0,0.0,0.0,0.0,0.0,0.0,0.0,0.0,0.0,0.0,0.0,0.0,0.0,14,modules\extensions\src\test\java\org\apache\synapse\mediators\throttle\ThrottleMediatorSerializationTest.java,0,0,0,0
org.apache.synapse.mediators.throttle.ThrottleMediatorSerializer, 0, 0, 0, 0, 0, 0, 0, 0, 0, 0, 0, 0, 0, 0,0.25,0.0,0.0,0.25,0.0,0.0,0.0,0.25,0.0,0.0,0.0,0.0,0.0,64,modules\extensions\src\main\java\org\apache\synapse\mediators\throttle\ThrottleMediatorSerializer.java,0,0,0,0
org.apache.synapse.mediators.throttle.ThrottleMediatorTest, 0, 0, 0, 0, 0, 0, 0, 0, 0, 0, 0, 0, 0, 0,0.0,0.0,0.0,0.5,0.0,0.0,0.0,0.0,0.0,0.0,0.0,0.0,0.0,241,modules\extensions\src\test\java\org\apache\synapse\mediators\throttle\ThrottleMediatorTest.java,0,0,0,0
org.apache.synapse.mediators.transform.FaultMediator, 0, 0, 0, 1, 0, 0, 0, 0, 0, 0, 0, 0, 0, 1,0.0,0.0,0.0,0.0,0.0,0.0,0.0,0.0,0.0,0.0,0.0,0.0,0.0,240,modules\core\src\main\java\org\apache\synapse\mediators\transform\FaultMediator.java,0,0,0,0
org.apache.synapse.mediators.transform.FaultMediatorTest, 0, 0, 0, 0, 0, 0, 0, 0, 0, 0, 0, 0, 0, 0,0.0,0.0,0.0,1.0,0.0,0.0,0.0,0.0,0.0,0.0,0.0,0.0,0.0,22,modules\core\src\test\java\org\apache\synapse\mediators\transform\FaultMediatorTest.java,0,0,0,0
org.apache.synapse.mediators.transform.HeaderMediator, 0, 0, 0, 0, 0, 0, 0, 0, 0, 0, 0, 0, 0, 0,0.0,0.0,0.0,0.0,0.0,0.0,0.0,0.0,0.0,0.0,0.0,0.0,0.0,138,modules\core\src\main\java\org\apache\synapse\mediators\transform\HeaderMediator.java,0,0,0,0
org.apache.synapse.mediators.transform.HeaderMediatorTest, 0, 0, 0, 0, 0, 0, 0, 0, 0, 0, 0, 0, 0, 0,0.0,0.0,0.0,0.0,0.0,0.0,0.0,0.0,0.0,0.0,0.0,0.0,0.0,25,modules\core\src\test\java\org\apache\synapse\mediators\transform\HeaderMediatorTest.java,0,0,0,0
org.apache.synapse.mediators.transform.XSLTMediator, 0, 0, 0, 1, 0, 0, 0, 0, 0, 0, 0, 0, 0, 1,0.0,0.0,0.0,0.1111111111111111,0.0,0.0,0.0,0.0,0.0,0.0,0.0,0.0,0.0,390,modules\core\src\main\java\org\apache\synapse\mediators\transform\XSLTMediator.java,0,0,0,0
org.apache.synapse.mediators.xquery.MediatorBaseVariable, 0, 0, 0, 0, 0, 0, 0, 0, 0, 0, 0, 0, 0, 0,0.0,0.0,0.0,0.0,0.0,0.0,0.0,0.0,0.0,0.0,0.0,0.0,0.0,8,modules\extensions\src\main\java\org\apache\synapse\mediators\xquery\MediatorBaseVariable.java,0,0,0,0
org.apache.synapse.mediators.xquery.MediatorCustomVariable, 0, 0, 0, 0, 0, 0, 0, 0, 0, 0, 0, 0, 0, 0,0.0,0.0,0.0,0.16666666666666666,0.0,0.0,0.0,0.0,0.0,0.0,0.0,0.0,0.0,93,modules\extensions\src\main\java\org\apache\synapse\mediators\xquery\MediatorCustomVariable.java,0,0,0,0
org.apache.synapse.mediators.xquery.MediatorVariable, 0, 0, 0, 0, 0, 0, 0, 0, 0, 0, 0, 0, 0, 0,0.0,0.0,0.0,0.16666666666666666,0.0,0.0,0.0,0.0,0.0,0.0,0.0,0.0,0.0,27,modules\extensions\src\main\java\org\apache\synapse\mediators\xquery\MediatorVariable.java,0,0,0,0
org.apache.synapse.mediators.xquery.XQueryMediator, 0, 0, 0, 1, 0, 0, 0, 0, 0, 0, 0, 0, 0, 1,0.0,0.0,0.0,0.1111111111111111,0.0,0.0,0.0,0.0,0.0,0.0,0.0,0.0,0.0,474,modules\extensions\src\main\java\org\apache\synapse\mediators\xquery\XQueryMediator.java,0,0,0,0
org.apache.synapse.mediators.xquery.XQueryMediatorFactory, 0, 0, 0, 0, 0, 0, 0, 0, 0, 0, 0, 0, 0, 0,0.125,0.0,0.0,0.125,0.0,0.0,0.0,0.0,0.0,0.0,0.0,0.0,0.0,112,modules\extensions\src\main\java\org\apache\synapse\mediators\xquery\XQueryMediatorFactory.java,0,0,0,0
org.apache.synapse.mediators.xquery.XQueryMediatorSerializationTest, 0, 0, 0, 0, 0, 0, 0, 0, 0, 0, 0, 0, 0, 0,0.0,0.0,0.0,0.0,0.0,0.0,0.0,0.0,0.0,0.0,0.0,0.0,0.0,27,modules\extensions\src\test\java\org\apache\synapse\mediators\xquery\XQueryMediatorSerializationTest.java,0,0,0,0
org.apache.synapse.mediators.xquery.XQueryMediatorSerializer, 0, 0, 0, 0, 0, 0, 0, 0, 0, 0, 0, 0, 0, 0,0.2,0.0,0.0,0.2,0.0,0.0,0.0,0.0,0.0,0.0,0.0,0.0,0.0,144,modules\extensions\src\main\java\org\apache\synapse\mediators\xquery\XQueryMediatorSerializer.java,0,0,0,0
org.apache.synapse.mediators.xquery.XQueryMediatorTest, 0, 0, 0, 0, 0, 0, 0, 0, 0, 0, 0, 0, 0, 0,0.0,0.0,0.0,0.25,0.0,0.0,0.0,0.0,0.0,0.0,0.0,0.0,0.0,221,modules\extensions\src\test\java\org\apache\synapse\mediators\xquery\XQueryMediatorTest.java,0,0,0,0
org.apache.synapse.metrics.Counter, 0, 0, 0, 0, 0, 0, 0, 0, 0, 0, 0, 0, 0, 0,0.0,0.0,0.0,0.0,0.0,0.0,0.0,0.0,0.0,0.0,0.0,0.0,0.0,9,modules\core\src\main\java\org\apache\synapse\metrics\Counter.java,0,0,0,0
org.apache.synapse.metrics.GlobalRequestCountHandler, 0, 0, 0, 0, 0, 0, 0, 0, 0, 0, 0, 0, 0, 0,0.0,0.0,0.0,0.0,0.0,0.0,0.0,0.0,0.0,0.0,0.0,0.0,0.0,9,modules\core\src\main\java\org\apache\synapse\metrics\GlobalRequestCountHandler.java,0,0,0,0
org.apache.synapse.metrics.MetricsAggregatorModule, 0, 0, 0, 0, 0, 0, 0, 0, 0, 0, 0, 0, 0, 0,0.0,0.0,0.0,0.0,0.0,0.0,0.0,0.0,0.0,0.0,0.0,0.0,0.0,17,modules\core\src\main\java\org\apache\synapse\metrics\MetricsAggregatorModule.java,0,0,0,0
org.apache.synapse.metrics.MetricsConstants, 0, 0, 0, 0, 0, 0, 0, 0, 0, 0, 0, 0, 0, 0,0.0,0.0,0.0,0.0,0.0,0.0,0.0,0.0,0.0,0.0,0.0,0.0,0.0,4,modules\core\src\main\java\org\apache\synapse\metrics\MetricsConstants.java,0,0,0,0
org.apache.synapse.registry.RegistryEntry, 0, 0, 0, 0, 0, 0, 0, 0, 0, 0, 0, 0, 0, 0,0.0,0.0,0.0,0.0,0.0,0.0,0.0,0.0,0.0,0.0,0.0,0.0,0.0,4,modules\core\src\main\java\org\apache\synapse\registry\RegistryEntry.java,0,0,0,0
org.apache.synapse.registry.url.SimpleURLRegistry, 0, 0, 0, 0, 0, 0, 0, 0, 0, 0, 0, 0, 0, 0,0.0,0.0,0.0,0.0,0.0,0.0,0.0,0.0,0.0,0.0,0.0,0.0,0.0,175,modules\core\src\main\java\org\apache\synapse\registry\url\SimpleURLRegistry.java,0,0,0,0
org.apache.synapse.registry.url.SimpleURLRegistryTest, 0, 0, 0, 0, 0, 0, 0, 0, 0, 0, 0, 0, 0, 0,0.0,0.0,0.0,1.0,0.0,0.0,0.0,0.0,0.0,0.0,0.0,0.0,0.0,39,modules\core\src\test\java\org\apache\synapse\registry\url\SimpleURLRegistryTest.java,0,0,0,0
org.apache.synapse.samples.n2n.SynapseSample_100_Integration, 0, 0, 0, 0, 0, 0, 0, 0, 0, 0, 0, 0, 0, 0,0.0,0.0,0.0,0.0,0.0,0.0,0.0,0.0,0.0,0.0,0.0,0.0,0.0,12,modules\samples\src\test\java\org\apache\synapse\samples\n2n\SynapseSample_100_Integration.java,0,0,0,0
org.apache.synapse.samples.n2n.SynapseSample_101_Integration, 0, 0, 0, 0, 0, 0, 0, 0, 0, 0, 0, 0, 0, 0,0.0,0.0,0.0,0.0,0.0,0.0,0.0,0.0,0.0,0.0,0.0,0.0,0.0,16,modules\samples\src\test\java\org\apache\synapse\samples\n2n\SynapseSample_101_Integration.java,0,0,0,0
org.apache.synapse.samples.n2n.SynapseSample_102_Integration, 0, 0, 0, 0, 0, 0, 0, 0, 0, 0, 0, 0, 0, 0,0.0,0.0,0.0,0.0,0.0,0.0,0.0,0.0,0.0,0.0,0.0,0.0,0.0,19,modules\samples\src\test\java\org\apache\synapse\samples\n2n\SynapseSample_102_Integration.java,0,0,0,0
org.apache.synapse.samples.n2n.SynapseSample_103_Integration, 0, 0, 0, 0, 0, 0, 0, 0, 0, 0, 0, 0, 0, 0,0.0,0.0,0.0,0.0,0.0,0.0,0.0,0.0,0.0,0.0,0.0,0.0,0.0,13,modules\samples\src\test\java\org\apache\synapse\samples\n2n\SynapseSample_103_Integration.java,0,0,0,0
org.apache.synapse.samples.n2n.SynapseSample_104_Integration, 0, 0, 0, 0, 0, 0, 0, 0, 0, 0, 0, 0, 0, 0,0.0,0.0,0.0,0.0,0.0,0.0,0.0,0.0,0.0,0.0,0.0,0.0,0.0,15,modules\samples\src\test\java\org\apache\synapse\samples\n2n\SynapseSample_104_Integration.java,0,0,0,0
org.apache.synapse.samples.n2n.SynapseSample_10_Integration, 0, 0, 0, 0, 0, 0, 0, 0, 0, 0, 0, 0, 0, 0,0.0,0.0,0.0,0.0,0.0,0.0,0.0,0.0,0.0,0.0,0.0,0.0,0.0,13,modules\samples\src\test\java\org\apache\synapse\samples\n2n\SynapseSample_10_Integration.java,0,0,0,0
org.apache.synapse.samples.n2n.SynapseSample_110_Integration, 0, 0, 0, 0, 0, 0, 0, 0, 0, 0, 0, 0, 0, 0,0.0,0.0,0.0,0.0,0.0,0.0,0.0,0.0,0.0,0.0,0.0,0.0,0.0,8,modules\samples\src\test\java\org\apache\synapse\samples\n2n\SynapseSample_110_Integration.java,0,0,0,0
org.apache.synapse.samples.n2n.SynapseSample_111_Integration, 0, 0, 0, 0, 0, 0, 0, 0, 0, 0, 0, 0, 0, 0,0.0,0.0,0.0,0.0,0.0,0.0,0.0,0.0,0.0,0.0,0.0,0.0,0.0,8,modules\samples\src\test\java\org\apache\synapse\samples\n2n\SynapseSample_111_Integration.java,0,0,0,0
org.apache.synapse.samples.n2n.SynapseSample_112_Integration, 0, 0, 0, 0, 0, 0, 0, 0, 0, 0, 0, 0, 0, 0,0.0,0.0,0.0,0.0,0.0,0.0,0.0,0.0,0.0,0.0,0.0,0.0,0.0,11,modules\samples\src\test\java\org\apache\synapse\samples\n2n\SynapseSample_112_Integration.java,0,0,0,0
org.apache.synapse.samples.n2n.SynapseSample_113_Integration, 0, 0, 0, 0, 0, 0, 0, 0, 0, 0, 0, 0, 0, 0,0.0,0.0,0.0,0.0,0.0,0.0,0.0,0.0,0.0,0.0,0.0,0.0,0.0,9,modules\samples\src\test\java\org\apache\synapse\samples\n2n\SynapseSample_113_Integration.java,0,0,0,0
org.apache.synapse.samples.n2n.SynapseSample_114_Integration, 0, 0, 0, 0, 0, 0, 0, 0, 0, 0, 0, 0, 0, 0,0.0,0.0,0.0,0.0,0.0,0.0,0.0,0.0,0.0,0.0,0.0,0.0,0.0,9,modules\samples\src\test\java\org\apache\synapse\samples\n2n\SynapseSample_114_Integration.java,0,0,0,0
org.apache.synapse.samples.n2n.SynapseSample_11_Integration, 0, 0, 0, 0, 0, 0, 0, 0, 0, 0, 0, 0, 0, 0,0.0,0.0,0.0,0.0,0.0,0.0,0.0,0.0,0.0,0.0,0.0,0.0,0.0,13,modules\samples\src\test\java\org\apache\synapse\samples\n2n\SynapseSample_11_Integration.java,0,0,0,0
org.apache.synapse.samples.n2n.SynapseSample_1_Integration, 0, 0, 0, 0, 0, 0, 0, 0, 0, 0, 0, 0, 0, 0,0.0,0.0,0.0,0.0,0.0,0.0,0.0,0.0,0.0,0.0,0.0,0.0,0.0,12,modules\samples\src\test\java\org\apache\synapse\samples\n2n\SynapseSample_1_Integration.java,0,0,0,0
org.apache.synapse.samples.n2n.SynapseSample_2_Integration, 0, 0, 0, 0, 0, 0, 0, 0, 0, 0, 0, 0, 0, 0,0.0,0.0,0.0,0.0,0.0,0.0,0.0,0.0,0.0,0.0,0.0,0.0,0.0,14,modules\samples\src\test\java\org\apache\synapse\samples\n2n\SynapseSample_2_Integration.java,0,0,0,0
org.apache.synapse.samples.n2n.SynapseSample_3_Integration, 0, 0, 0, 0, 0, 0, 0, 0, 0, 0, 0, 0, 0, 0,0.0,0.0,0.0,0.0,0.0,0.0,0.0,0.0,0.0,0.0,0.0,0.0,0.0,13,modules\samples\src\test\java\org\apache\synapse\samples\n2n\SynapseSample_3_Integration.java,0,0,0,0
org.apache.synapse.samples.n2n.SynapseSample_4_Integration, 0, 0, 0, 0, 0, 0, 0, 0, 0, 0, 0, 0, 0, 0,0.0,0.0,0.0,0.0,0.0,0.0,0.0,0.0,0.0,0.0,0.0,0.0,0.0,15,modules\samples\src\test\java\org\apache\synapse\samples\n2n\SynapseSample_4_Integration.java,0,0,0,0
org.apache.synapse.samples.n2n.SynapseSample_500_Integration, 0, 0, 0, 0, 0, 0, 0, 0, 0, 0, 0, 0, 0, 0,0.0,0.0,0.0,0.0,0.0,0.0,0.0,0.0,0.0,0.0,0.0,0.0,0.0,14,modules\samples\src\test\java\org\apache\synapse\samples\n2n\SynapseSample_500_Integration.java,0,0,0,0
org.apache.synapse.samples.n2n.SynapseSample_501_Integration, 0, 0, 0, 0, 0, 0, 0, 0, 0, 0, 0, 0, 0, 0,0.0,0.0,0.0,0.0,0.0,0.0,0.0,0.0,0.0,0.0,0.0,0.0,0.0,14,modules\samples\src\test\java\org\apache\synapse\samples\n2n\SynapseSample_501_Integration.java,0,0,0,0
org.apache.synapse.samples.n2n.SynapseSample_502_Integration, 0, 0, 0, 0, 0, 0, 0, 0, 0, 0, 0, 0, 0, 0,0.0,0.0,0.0,0.0,0.0,0.0,0.0,0.0,0.0,0.0,0.0,0.0,0.0,13,modules\samples\src\test\java\org\apache\synapse\samples\n2n\SynapseSample_502_Integration.java,0,0,0,0
org.apache.synapse.samples.n2n.SynapseSample_503_Integration, 0, 0, 0, 0, 0, 0, 0, 0, 0, 0, 0, 0, 0, 0,0.0,0.0,0.0,0.0,0.0,0.0,0.0,0.0,0.0,0.0,0.0,0.0,0.0,14,modules\samples\src\test\java\org\apache\synapse\samples\n2n\SynapseSample_503_Integration.java,0,0,0,0
org.apache.synapse.samples.n2n.SynapseSample_50_Integration, 0, 0, 0, 0, 0, 0, 0, 0, 0, 0, 0, 0, 0, 0,0.0,0.0,0.0,0.0,0.0,0.0,0.0,0.0,0.0,0.0,0.0,0.0,0.0,12,modules\samples\src\test\java\org\apache\synapse\samples\n2n\SynapseSample_50_Integration.java,0,0,0,0
org.apache.synapse.samples.n2n.SynapseSample_510_Integration, 0, 0, 0, 0, 0, 0, 0, 0, 0, 0, 0, 0, 0, 0,0.0,0.0,0.0,0.0,0.0,0.0,0.0,0.0,0.0,0.0,0.0,0.0,0.0,14,modules\samples\src\test\java\org\apache\synapse\samples\n2n\SynapseSample_510_Integration.java,0,0,0,0
org.apache.synapse.samples.n2n.SynapseSample_51_Integration, 0, 0, 0, 0, 0, 0, 0, 0, 0, 0, 0, 0, 0, 0,0.0,0.0,0.0,0.0,0.0,0.0,0.0,0.0,0.0,0.0,0.0,0.0,0.0,11,modules\samples\src\test\java\org\apache\synapse\samples\n2n\SynapseSample_51_Integration.java,0,0,0,0
org.apache.synapse.samples.n2n.SynapseSample_52_Integration, 0, 0, 0, 0, 0, 0, 0, 0, 0, 0, 0, 0, 0, 0,0.0,0.0,0.0,0.0,0.0,0.0,0.0,0.0,0.0,0.0,0.0,0.0,0.0,13,modules\samples\src\test\java\org\apache\synapse\samples\n2n\SynapseSample_52_Integration.java,0,0,0,0
org.apache.synapse.samples.n2n.SynapseSample_53_Integration, 0, 0, 0, 0, 0, 0, 0, 0, 0, 0, 0, 0, 0, 0,0.0,0.0,0.0,0.0,0.0,0.0,0.0,0.0,0.0,0.0,0.0,0.0,0.0,14,modules\samples\src\test\java\org\apache\synapse\samples\n2n\SynapseSample_53_Integration.java,0,0,0,0
org.apache.synapse.samples.n2n.SynapseSample_55_Integration, 0, 0, 0, 0, 0, 0, 0, 0, 0, 0, 0, 0, 0, 0,0.0,0.0,0.0,0.0,0.0,0.0,0.0,0.0,0.0,0.0,0.0,0.0,0.0,14,modules\samples\src\test\java\org\apache\synapse\samples\n2n\SynapseSample_55_Integration.java,0,0,0,0
org.apache.synapse.samples.n2n.SynapseSample_56_Integration, 0, 0, 0, 0, 0, 0, 0, 0, 0, 0, 0, 0, 0, 0,0.0,0.0,0.0,0.0,0.0,0.0,0.0,0.0,0.0,0.0,0.0,0.0,0.0,14,modules\samples\src\test\java\org\apache\synapse\samples\n2n\SynapseSample_56_Integration.java,0,0,0,0
org.apache.synapse.samples.n2n.SynapseSample_57_Integration, 0, 0, 0, 0, 0, 0, 0, 0, 0, 0, 0, 0, 0, 0,0.0,0.0,0.0,0.0,0.0,0.0,0.0,0.0,0.0,0.0,0.0,0.0,0.0,14,modules\samples\src\test\java\org\apache\synapse\samples\n2n\SynapseSample_57_Integration.java,0,0,0,0
org.apache.synapse.samples.n2n.SynapseSample_5_Integration, 0, 0, 0, 0, 0, 0, 0, 0, 0, 0, 0, 0, 0, 0,0.0,0.0,0.0,0.0,0.0,0.0,0.0,0.0,0.0,0.0,0.0,0.0,0.0,22,modules\samples\src\test\java\org\apache\synapse\samples\n2n\SynapseSample_5_Integration.java,0,0,0,0
org.apache.synapse.samples.n2n.SynapseSample_600_Integration, 0, 0, 0, 0, 0, 0, 0, 0, 0, 0, 0, 0, 0, 0,0.0,0.0,0.0,0.0,0.0,0.0,0.0,0.0,0.0,0.0,0.0,0.0,0.0,22,modules\samples\src\test\java\org\apache\synapse\samples\n2n\SynapseSample_600_Integration.java,0,0,0,0
org.apache.synapse.samples.n2n.SynapseSample_60_Integration, 0, 0, 0, 0, 0, 0, 0, 0, 0, 0, 0, 0, 0, 0,0.0,0.0,0.0,0.0,0.0,0.0,0.0,0.0,0.0,0.0,0.0,0.0,0.0,14,modules\samples\src\test\java\org\apache\synapse\samples\n2n\SynapseSample_60_Integration.java,0,0,0,0
org.apache.synapse.samples.n2n.SynapseSample_6_Integration, 0, 0, 0, 0, 0, 0, 0, 0, 0, 0, 0, 0, 0, 0,0.0,0.0,0.0,0.0,0.0,0.0,0.0,0.0,0.0,0.0,0.0,0.0,0.0,12,modules\samples\src\test\java\org\apache\synapse\samples\n2n\SynapseSample_6_Integration.java,0,0,0,0
org.apache.synapse.samples.n2n.SynapseSample_7_Integration, 0, 0, 0, 0, 0, 0, 0, 0, 0, 0, 0, 0, 0, 0,0.0,0.0,0.0,0.0,0.0,0.0,0.0,0.0,0.0,0.0,0.0,0.0,0.0,15,modules\samples\src\test\java\org\apache\synapse\samples\n2n\SynapseSample_7_Integration.java,0,0,0,0
org.apache.synapse.samples.n2n.SynapseSample_8_Integration, 0, 0, 0, 0, 0, 0, 0, 0, 0, 0, 0, 0, 0, 0,0.0,0.0,0.0,0.0,0.0,0.0,0.0,0.0,0.0,0.0,0.0,0.0,0.0,12,modules\samples\src\test\java\org\apache\synapse\samples\n2n\SynapseSample_8_Integration.java,0,0,0,0
org.apache.synapse.samples.n2n.SynapseSample_9_Integration, 0, 0, 0, 0, 0, 0, 0, 0, 0, 0, 0, 0, 0, 0,0.0,0.0,0.0,0.0,0.0,0.0,0.0,0.0,0.0,0.0,0.0,0.0,0.0,13,modules\samples\src\test\java\org\apache\synapse\samples\n2n\SynapseSample_9_Integration.java,0,0,0,0
org.apache.synapse.startup.AbstractStartup, 0, 0, 0, 0, 0, 0, 0, 0, 0, 0, 0, 0, 0, 0,0.0,0.0,0.0,0.3333333333333333,0.0,0.0,0.0,0.0,0.0,0.0,0.0,0.0,0.0,9,modules\core\src\main\java\org\apache\synapse\startup\AbstractStartup.java,0,0,0,0
org.apache.synapse.startup.Task, 0, 0, 0, 0, 0, 0, 0, 0, 0, 0, 0, 0, 0, 0,0.0,0.0,0.0,0.0,0.0,0.0,0.0,0.0,0.0,0.0,0.0,0.0,0.0,9,modules\core\src\main\java\org\apache\synapse\startup\Task.java,0,0,0,0
org.apache.synapse.startup.quartz.SimpleQuartz, 0, 0, 0, 1, 0, 0, 0, 0, 0, 0, 0, 0, 0, 1,0.0,0.0,0.0,0.0,0.0,0.0,0.0,0.0,0.0,0.0,0.0,0.0,0.0,129,modules\core\src\main\java\org\apache\synapse\startup\quartz\SimpleQuartz.java,0,0,0,0
org.apache.synapse.startup.quartz.SimpleQuartzFactory, 0, 0, 0, 0, 0, 0, 0, 0, 0, 0, 0, 0, 0, 0,0.0,0.0,0.0,0.25,0.0,0.0,0.0,0.0,0.0,0.0,0.0,0.0,0.0,121,modules\core\src\main\java\org\apache\synapse\startup\quartz\SimpleQuartzFactory.java,0,0,0,0
org.apache.synapse.startup.quartz.SimpleQuartzJob, 0, 0, 0, 0, 0, 0, 0, 0, 0, 0, 0, 0, 0, 0,0.0,0.0,0.0,0.0,0.0,0.0,0.0,0.0,0.0,0.0,0.0,0.0,0.0,45,modules\core\src\main\java\org\apache\synapse\startup\quartz\SimpleQuartzJob.java,0,0,0,0
org.apache.synapse.startup.quartz.SimpleQuartzSerializer, 0, 0, 0, 0, 0, 0, 0, 0, 0, 0, 0, 0, 0, 0,0.0,0.0,0.0,0.3333333333333333,0.0,0.0,0.0,0.0,0.0,0.0,0.0,0.0,0.0,46,modules\core\src\main\java\org\apache\synapse\startup\quartz\SimpleQuartzSerializer.java,0,0,0,0
org.apache.synapse.startup.tasks.MessageInjector, 0, 0, 0, 0, 0, 0, 0, 0, 0, 0, 0, 0, 0, 0,0.0,0.0,0.0,0.0,0.0,0.0,0.0,0.0,0.0,0.0,0.0,0.0,0.0,44,modules\core\src\main\java\org\apache\synapse\startup\tasks\MessageInjector.java,0,0,0,0
org.apache.synapse.statistics.Statistics, 0, 0, 0, 0, 0, 0, 0, 0, 0, 0, 0, 0, 0, 0,0.0,0.0,0.0,0.0,0.0,0.0,0.0,0.0,0.0,0.0,0.0,0.0,0.0,44,modules\core\src\main\java\org\apache\synapse\statistics\Statistics.java,0,0,0,0
org.apache.synapse.statistics.StatisticsHolder, 0, 0, 0, 0, 0, 0, 0, 0, 0, 0, 0, 0, 0, 0,0.0,0.0,0.0,0.0,0.0,0.0,0.0,0.0,0.0,0.0,0.0,0.0,0.0,42,modules\core\src\main\java\org\apache\synapse\statistics\StatisticsHolder.java,0,0,0,0
org.apache.synapse.statistics.StatisticsStack, 0, 0, 0, 0, 0, 0, 0, 0, 0, 0, 0, 0, 0, 0,0.0,0.0,0.0,0.0,0.0,0.0,0.0,0.0,0.0,0.0,0.0,0.0,0.0,42,modules\core\src\main\java\org\apache\synapse\statistics\StatisticsStack.java,0,0,0,0
org.apache.synapse.statistics.StatisticsUtils, 0, 0, 0, 0, 0, 0, 0, 0, 0, 0, 0, 0, 0, 0,0.0,0.0,0.0,0.125,0.0,0.0,0.0,0.375,0.0,0.0,0.0,0.0,0.0,67,modules\core\src\main\java\org\apache\synapse\statistics\StatisticsUtils.java,0,0,0,0
org.apache.synapse.statistics.impl.EndPointStatisticsStack, 0, 0, 0, 0, 0, 0, 0, 1, 0, 0, 0, 0, 0, 1,0.0,0.0,0.0,0.0,0.0,0.0,0.0,0.0,0.0,0.0,0.0,0.0,0.0,126,modules\core\src\main\java\org\apache\synapse\statistics\impl\EndPointStatisticsStack.java,0,0,0,0
org.apache.synapse.statistics.impl.ProxyServiceStatisticsStack, 0, 0, 0, 0, 0, 0, 0, 1, 0, 0, 0, 0, 0, 1,0.0,0.0,0.0,0.0,0.0,0.0,0.0,0.0,0.0,0.0,0.0,0.0,0.0,50,modules\core\src\main\java\org\apache\synapse\statistics\impl\ProxyServiceStatisticsStack.java,0,0,0,0
org.apache.synapse.statistics.impl.SequenceStatisticsStack, 0, 0, 0, 0, 0, 0, 0, 1, 0, 0, 0, 0, 0, 1,0.0,0.0,0.0,0.0,0.0,0.0,0.0,0.0,0.0,0.0,0.0,0.0,0.0,85,modules\core\src\main\java\org\apache\synapse\statistics\impl\SequenceStatisticsStack.java,0,0,0,0
org.apache.synapse.transport.AbstractTransportTest, 0, 0, 0, 0, 0, 0, 0, 0, 0, 0, 0, 0, 0, 0,0.0,0.0,0.0,0.0,0.0,0.0,0.0,0.0,0.0,0.0,0.0,0.0,0.0,23,modules\transports\src\test\java\org\apache\synapse\transport\AbstractTransportTest.java,0,0,0,0
org.apache.synapse.transport.Echo, 0, 0, 0, 0, 0, 0, 0, 0, 0, 0, 0, 0, 0, 0,0.0,0.0,0.0,0.0,0.0,0.0,0.0,0.0,0.0,0.0,0.0,0.0,0.0,32,modules\transports\src\test\java\org\apache\synapse\transport\Echo.java,0,0,0,0
org.apache.synapse.transport.UtilsTransportServer, 0, 0, 0, 0, 0, 0, 0, 0, 0, 0, 0, 0, 0, 0,0.0,0.0,0.0,0.0,0.0,0.0,0.0,0.0,0.0,0.0,0.0,0.0,0.0,77,modules\transports\src\test\java\org\apache\synapse\transport\UtilsTransportServer.java,0,0,0,0
org.apache.synapse.transport.base.BaseConstants, 0, 0, 0, 0, 0, 0, 0, 0, 0, 0, 0, 0, 0, 0,0.0,0.0,0.0,0.0,0.0,0.0,0.0,0.0,0.0,0.0,0.0,0.0,0.0,19,modules\transports\src\main\java\org\apache\synapse\transport\base\BaseConstants.java,0,0,0,0
org.apache.synapse.transport.base.BaseTransportException, 0, 0, 0, 0, 0, 0, 0, 0, 0, 0, 0, 0, 0, 0,0.0,0.0,0.0,0.0,0.0,0.0,0.0,0.0,0.0,0.0,0.0,0.0,0.0,11,modules\transports\src\main\java\org\apache\synapse\transport\base\BaseTransportException.java,0,0,0,0
org.apache.synapse.transport.base.BaseUtils, 0, 0, 0, 0, 0, 0, 0, 0, 0, 0, 0, 0, 0, 0,0.0,0.0,0.0,0.0,0.0,0.0,0.0,0.0,0.0,0.0,0.0,0.0,0.0,202,modules\transports\src\main\java\org\apache\synapse\transport\base\BaseUtils.java,0,0,0,0
org.apache.synapse.transport.base.ManagementSupport, 0, 0, 0, 0, 0, 0, 0, 0, 0, 0, 0, 0, 0, 0,0.0,0.0,0.0,0.0,0.0,0.0,0.0,0.0,0.0,0.0,0.0,0.0,0.0,202,modules\transports\src\main\java\org\apache\synapse\transport\base\ManagementSupport.java,0,0,0,0
org.apache.synapse.transport.base.MetricsCollector, 0, 0, 0, 1, 0, 0, 0, 0, 0, 0, 0, 0, 0, 1,0.0,0.0,0.0,1.0,0.0,0.0,0.0,0.0,0.0,0.0,0.0,0.0,0.0,68,modules\transports\src\main\java\org\apache\synapse\transport\base\MetricsCollector.java,0,0,0,0
org.apache.synapse.transport.base.TransportView, 0, 0, 0, 0, 0, 0, 0, 0, 0, 0, 0, 0, 0, 0,0.0,0.0,0.0,1.0,0.0,0.0,0.0,0.0,0.0,0.0,0.0,0.0,0.0,73,modules\transports\src\main\java\org\apache\synapse\transport\base\TransportView.java,0,0,0,0
org.apache.synapse.transport.base.TransportViewMBean, 0, 0, 0, 0, 0, 0, 0, 0, 0, 0, 0, 0, 0, 0,0.0,0.0,0.0,0.0,0.0,0.0,0.0,0.0,0.0,0.0,0.0,0.0,0.0,73,modules\transports\src\main\java\org\apache\synapse\transport\base\TransportViewMBean.java,0,0,0,0
org.apache.synapse.transport.base.threads.WorkerPool, 0, 0, 0, 0, 0, 0, 0, 0, 0, 0, 0, 0, 0, 0,0.0,0.0,0.0,0.0,0.0,0.0,0.0,0.0,0.0,0.0,0.0,0.0,0.0,73,modules\transports\src\main\java\org\apache\synapse\transport\base\threads\WorkerPool.java,0,0,0,0
org.apache.synapse.transport.base.threads.WorkerPoolFactory, 0, 0, 0, 0, 0, 0, 0, 1, 0, 0, 0, 0, 0, 1,0.0,0.0,0.0,0.0,0.0,0.0,0.0,0.0,0.0,0.0,0.0,0.0,0.0,13,modules\transports\src\main\java\org\apache\synapse\transport\base\threads\WorkerPoolFactory.java,0,0,0,0
org.apache.synapse.transport.jms.AxisJMSException, 0, 0, 0, 0, 0, 0, 0, 0, 0, 0, 0, 0, 0, 0,0.0,0.0,0.0,0.0,0.0,0.0,0.0,0.0,0.0,0.0,0.0,0.0,0.0,11,modules\transports\src\main\java\org\apache\synapse\transport\jms\AxisJMSException.java,0,0,0,0
org.apache.synapse.transport.jms.JMSConstants, 0, 0, 0, 1, 0, 0, 0, 0, 0, 0, 0, 0, 0, 1,0.0,0.0,0.0,0.0,0.0,0.0,0.0,0.0,0.0,0.0,0.0,0.0,0.0,31,modules\transports\src\main\java\org\apache\synapse\transport\jms\JMSConstants.java,0,0,0,0
org.apache.synapse.transport.mail.MailConstants, 1, 0, 1, 1, 0, 0, 0, 0, 0, 0, 0, 0, 0, 3,0.0,0.0,0.0,0.0,0.0,0.0,0.0,0.0,0.0,0.0,0.0,0.0,0.0,45,modules\transports\src\main\java\org\apache\synapse\transport\mail\MailConstants.java,0,0,0,0
org.apache.synapse.transport.mail.MailOutTransportInfo, 0, 0, 0, 0, 0, 0, 0, 0, 0, 0, 0, 0, 0, 0,0.0,0.0,0.0,0.0,0.0,0.0,0.0,0.0,0.0,0.0,0.0,0.0,0.0,39,modules\transports\src\main\java\org\apache\synapse\transport\mail\MailOutTransportInfo.java,0,0,0,0
org.apache.synapse.transport.mail.MailUtils, 0, 0, 0, 0, 0, 0, 0, 0, 0, 0, 0, 0, 0, 0,0.0,0.0,0.0,0.0,0.0,0.0,0.0,0.0,0.0,0.0,0.0,0.0,0.0,87,modules\transports\src\main\java\org\apache\synapse\transport\mail\MailUtils.java,0,0,0,0
org.apache.synapse.transport.mail.UtilsMailServer, 0, 0, 0, 0, 0, 0, 0, 0, 0, 0, 0, 0, 0, 0,0.0,0.0,0.0,0.0,0.0,0.0,0.0,0.0,0.0,0.0,0.0,0.0,0.0,44,modules\transports\src\test\java\org\apache\synapse\transport\mail\UtilsMailServer.java,0,0,0,0
org.apache.synapse.transport.mail.WSMimeMessage, 0, 0, 0, 0, 0, 0, 0, 0, 0, 0, 0, 0, 0, 0,0.0,0.0,0.0,0.0,0.0,0.0,0.0,0.0,0.0,0.0,0.0,0.0,0.0,10,modules\transports\src\main\java\org\apache\synapse\transport\mail\WSMimeMessage.java,0,0,0,0
org.apache.synapse.transport.nhttp.ClientHandler, 0, 0, 0, 1, 0, 0, 0, 0, 0, 0, 0, 0, 0, 1,0.5,0.0,0.0,0.0,0.0,0.0,0.0,0.5,0.0,0.0,0.0,0.0,0.0,263,modules\transports\src\main\java\org\apache\synapse\transport\nhttp\ClientHandler.java,0,0,0,0
org.apache.synapse.transport.nhttp.HttpCoreNIOListener, 0, 0, 0, 1, 0, 0, 0, 0, 0, 0, 0, 0, 0, 1,0.0,0.0,0.0,0.25,0.0,0.0,0.0,0.0,0.0,0.0,0.0,0.0,0.0,258,modules\transports\src\main\java\org\apache\synapse\transport\nhttp\HttpCoreNIOListener.java,0,0,0,0
org.apache.synapse.transport.nhttp.HttpCoreNIOSSLListener, 0, 0, 0, 0, 0, 0, 0, 0, 0, 0, 0, 0, 0, 0,0.0,0.0,0.0,0.5,0.0,0.0,0.0,0.0,0.0,0.0,0.0,0.0,0.0,93,modules\transports\src\main\java\org\apache\synapse\transport\nhttp\HttpCoreNIOSSLListener.java,0,0,0,0
org.apache.synapse.transport.nhttp.HttpCoreNIOSSLSender, 0, 0, 0, 0, 0, 0, 0, 0, 0, 0, 0, 0, 0, 0,0.0,0.0,0.0,0.0,0.0,0.0,0.0,0.0,0.0,0.0,0.0,0.0,0.0,102,modules\transports\src\main\java\org\apache\synapse\transport\nhttp\HttpCoreNIOSSLSender.java,0,0,0,0
org.apache.synapse.transport.nhttp.HttpCoreRequestResponseTransport, 0, 0, 0, 0, 0, 0, 0, 0, 0, 0, 0, 0, 0, 0,0.0,0.0,0.0,0.0,0.0,0.0,0.0,0.0,0.0,0.0,0.0,0.0,0.0,38,modules\transports\src\main\java\org\apache\synapse\transport\nhttp\HttpCoreRequestResponseTransport.java,0,0,0,0
org.apache.synapse.transport.nhttp.LoggingNHttpClientConnection, 0, 0, 0, 0, 0, 0, 0, 0, 0, 0, 0, 0, 0, 0,0.0,0.0,0.0,0.0,0.0,0.0,0.0,0.0,0.0,0.0,0.0,0.0,0.0,25,modules\transports\src\main\java\org\apache\synapse\transport\nhttp\LoggingNHttpClientConnection.java,0,0,0,0
org.apache.synapse.transport.nhttp.LoggingNHttpClientHandler, 0, 0, 0, 0, 0, 0, 0, 0, 0, 0, 0, 0, 0, 0,0.0,0.0,0.0,0.0,0.0,0.0,0.0,0.0,0.0,0.0,0.0,0.0,0.0,77,modules\transports\src\main\java\org\apache\synapse\transport\nhttp\LoggingNHttpClientHandler.java,0,0,0,0
org.apache.synapse.transport.nhttp.LoggingNHttpServerConnection, 0, 0, 0, 0, 0, 0, 0, 0, 0, 0, 0, 0, 0, 0,0.0,0.0,0.0,0.0,0.0,0.0,0.0,0.0,0.0,0.0,0.0,0.0,0.0,25,modules\transports\src\main\java\org\apache\synapse\transport\nhttp\LoggingNHttpServerConnection.java,0,0,0,0
org.apache.synapse.transport.nhttp.NhttpConstants, 0, 0, 0, 0, 0, 0, 0, 0, 0, 0, 0, 0, 0, 0,0.0,0.0,0.0,0.0,0.0,0.0,0.0,0.0,0.0,0.0,0.0,0.0,0.0,8,modules\transports\src\main\java\org\apache\synapse\transport\nhttp\NhttpConstants.java,0,0,0,0
org.apache.synapse.transport.nhttp.NhttpUtils, 0, 0, 0, 0, 0, 0, 0, 0, 0, 0, 0, 0, 0, 0,0.0,0.0,0.0,0.0,0.0,0.0,0.0,0.0,0.0,0.0,0.0,0.0,0.0,42,modules\transports\src\main\java\org\apache\synapse\transport\nhttp\NhttpUtils.java,0,0,0,0
org.apache.synapse.transport.nhttp.PlainClientIOEventDispatch, 0, 0, 0, 0, 0, 0, 0, 0, 0, 0, 0, 0, 0, 0,0.0,0.0,0.0,0.0,0.0,0.0,0.0,0.0,0.0,0.0,0.0,0.0,0.0,46,modules\transports\src\main\java\org\apache\synapse\transport\nhttp\PlainClientIOEventDispatch.java,0,0,0,0
org.apache.synapse.transport.nhttp.PlainServerIOEventDispatch, 0, 0, 0, 0, 0, 0, 0, 0, 0, 0, 0, 0, 0, 0,0.0,0.0,0.0,0.5,0.0,0.0,0.0,0.0,0.0,0.0,0.0,0.0,0.0,45,modules\transports\src\main\java\org\apache\synapse\transport\nhttp\PlainServerIOEventDispatch.java,0,0,0,0
org.apache.synapse.transport.nhttp.SSLClientIOEventDispatch, 0, 0, 0, 0, 0, 0, 0, 0, 0, 0, 0, 0, 0, 0,0.0,0.0,0.0,0.0,0.0,0.0,0.0,0.0,0.0,0.0,0.0,0.0,0.0,106,modules\transports\src\main\java\org\apache\synapse\transport\nhttp\SSLClientIOEventDispatch.java,0,0,0,0
org.apache.synapse.transport.nhttp.SSLServerIOEventDispatch, 0, 0, 0, 0, 0, 0, 0, 0, 0, 0, 0, 0, 0, 0,0.0,0.0,0.0,0.0,0.0,0.0,0.0,0.0,0.0,0.0,0.0,0.0,0.0,105,modules\transports\src\main\java\org\apache\synapse\transport\nhttp\SSLServerIOEventDispatch.java,0,0,0,0
org.apache.synapse.transport.nhttp.util.PipeImpl, 1, 0, 0, 0, 0, 0, 0, 0, 0, 0, 0, 0, 0, 1,0.0,0.0,0.0,1.0,0.0,0.0,0.0,0.0,0.0,0.0,0.0,0.0,0.0,47,modules\transports\src\main\java\org\apache\synapse\transport\nhttp\util\PipeImpl.java,0,0,0,0
org.apache.synapse.transport.nhttp.util.WorkerPool, 0, 0, 0, 0, 0, 0, 0, 0, 0, 0, 0, 0, 0, 0,0.0,0.0,0.0,0.0,0.0,0.0,0.0,0.0,0.0,0.0,0.0,0.0,0.0,47,modules\transports\src\main\java\org\apache\synapse\transport\nhttp\util\WorkerPool.java,0,0,0,0
org.apache.synapse.transport.nhttp.util.WorkerPoolFactory, 0, 0, 0, 0, 0, 0, 0, 1, 0, 0, 0, 0, 0, 1,0.0,0.0,0.0,1.0,0.0,0.0,0.0,0.0,0.0,0.0,0.0,0.0,0.0,13,modules\transports\src\main\java\org\apache\synapse\transport\nhttp\util\WorkerPoolFactory.java,0,0,0,0
org.apache.synapse.transport.vfs.UtilsVFSServer, 0, 0, 0, 0, 0, 0, 0, 0, 0, 0, 0, 0, 0, 0,0.0,0.0,0.0,0.0,0.0,0.0,0.0,0.0,0.0,0.0,0.0,0.0,0.0,34,modules\transports\src\test\java\org\apache\synapse\transport\vfs\UtilsVFSServer.java,0,0,0,0
org.apache.synapse.transport.vfs.VFSConstants, 0, 0, 0, 1, 0, 0, 0, 0, 0, 0, 0, 0, 0, 1,0.0,0.0,0.0,0.0,0.0,0.0,0.0,0.0,0.0,0.0,0.0,0.0,0.0,23,modules\transports\src\main\java\org\apache\synapse\transport\vfs\VFSConstants.java,0,0,0,0
org.apache.synapse.transport.vfs.VFSEchoRawXMLTest, 0, 0, 0, 0, 0, 0, 0, 0, 0, 0, 0, 0, 0, 0,0.0,0.0,0.0,0.0,0.0,0.0,0.0,0.0,0.0,0.0,0.0,0.0,0.0,35,modules\transports\src\test\java\org\apache\synapse\transport\vfs\VFSEchoRawXMLTest.java,0,0,0,0
org.apache.synapse.transport.vfs.VFSTransportSender, 0, 0, 0, 0, 0, 0, 0, 0, 0, 0, 0, 0, 0, 0,0.0,0.0,0.0,0.0,0.0,0.0,0.0,0.0,0.0,0.0,0.0,0.0,0.0,166,modules\transports\src\main\java\org\apache\synapse\transport\vfs\VFSTransportSender.java,0,0,0,0
org.apache.synapse.util.ClasspathURLStreamHandler, 0, 0, 0, 0, 0, 0, 0, 0, 0, 0, 0, 0, 0, 0,0.0,0.0,0.0,0.0,0.0,0.0,0.0,0.0,0.0,0.0,0.0,0.0,0.0,23,modules\core\src\main\java\org\apache\synapse\util\ClasspathURLStreamHandler.java,0,0,0,0
org.apache.synapse.util.FixedByteArrayOutputStream, 0, 0, 0, 0, 0, 0, 0, 0, 0, 0, 0, 0, 0, 0,0.0,0.0,0.0,0.6666666666666666,0.0,0.0,0.0,0.3333333333333333,0.0,0.0,0.0,0.0,0.0,17,modules\core\src\main\java\org\apache\synapse\util\FixedByteArrayOutputStream.java,0,0,0,0
org.apache.synapse.util.HandlerUtil, 0, 0, 0, 0, 0, 0, 0, 0, 0, 0, 0, 0, 0, 0,0.0,0.0,0.0,0.0,0.0,0.0,0.0,0.0,0.0,0.0,0.0,0.0,0.0,20,modules\handler\src\main\java\org\apache\synapse\util\HandlerUtil.java,0,0,0,0
org.apache.synapse.util.PayloadHelper, 0, 0, 0, 1, 0, 0, 0, 0, 0, 0, 0, 0, 0, 1,0.0,0.0,0.0,0.0,0.0,0.0,0.0,0.0,0.0,0.0,0.0,0.0,0.0,235,modules\core\src\main\java\org\apache\synapse\util\PayloadHelper.java,0,0,0,0
org.apache.synapse.util.TextFileDataSource, 0, 0, 0, 0, 0, 0, 0, 0, 0, 0, 0, 0, 0, 0,0.0,0.0,0.0,0.3333333333333333,0.0,0.0,0.0,0.0,0.0,0.0,0.0,0.0,0.0,38,modules\core\src\main\java\org\apache\synapse\util\TextFileDataSource.java,0,0,0,0
org.apache.synapse.util.TextFileDataSourceTest, 0, 0, 0, 0, 0, 0, 0, 0, 0, 0, 0, 0, 0, 0,0.0,0.0,0.0,0.0,0.0,0.0,0.0,0.0,0.0,0.0,0.0,0.0,0.0,11,modules\core\src\test\java\org\apache\synapse\util\TextFileDataSourceTest.java,0,0,0,0
org.apache.synapse.util.WrappedTextNodeStreamReaderTest, 0, 0, 0, 0, 0, 0, 0, 0, 0, 0, 0, 0, 0, 0,0.0,0.0,0.0,0.0,0.0,0.0,0.0,0.0,0.0,0.0,0.0,0.0,0.0,94,modules\core\src\test\java\org\apache\synapse\util\WrappedTextNodeStreamReaderTest.java,0,0,0,0
org.apache.synapse.util.concurrent.SynapseThreadPool, 0, 0, 0, 0, 0, 0, 0, 1, 0, 0, 0, 0, 0, 1,0.0,0.0,0.0,0.0,0.0,0.0,0.0,0.0,0.0,0.0,0.0,0.0,0.0,30,modules\core\src\main\java\org\apache\synapse\util\concurrent\SynapseThreadPool.java,0,0,0,0
org.apache.synapse.utils.Services, 0, 0, 0, 0, 0, 0, 0, 0, 0, 0, 0, 0, 0, 0,0.0,0.0,0.0,0.0,0.0,0.0,0.0,0.0,0.0,0.0,0.0,0.0,0.0,5,modules\core\src\test\java\org\apache\synapse\utils\Services.java,0,0,0,0
samples.mediators.DiscountQuoteMediator, 0, 0, 0, 0, 0, 0, 0, 0, 0, 0, 0, 0, 0, 0,0.0,0.0,0.0,0.0,0.0,0.0,0.0,0.0,0.0,0.0,0.0,0.0,0.0,47,modules\samples\src\main\java\samples\mediators\DiscountQuoteMediator.java,0,0,0,0
samples.services.FastStockQuoteService, 0, 0, 0, 0, 0, 0, 0, 0, 0, 0, 0, 0, 0, 0,0.0,0.0,0.0,0.0,0.0,0.0,0.0,0.0,0.0,0.0,0.0,0.0,0.0,56,modules\samples\services\FastStockQuoteService\src\samples\services\FastStockQuoteService.java,0,0,0,0
samples.services.GetFullQuote, 0, 0, 0, 0, 0, 0, 0, 0, 0, 0, 0, 0, 0, 0,0.0,0.0,0.0,0.0,0.0,0.0,0.0,0.0,0.0,0.0,0.0,0.0,0.0,13,modules\samples\services\SecureStockQuoteService\src\samples\services\GetFullQuote.java,0,0,0,0
samples.services.GetFullQuoteResponse, 0, 0, 0, 0, 0, 0, 0, 0, 0, 0, 0, 0, 0, 0,0.0,0.0,0.0,0.5,0.0,0.0,0.0,0.0,0.0,0.0,0.0,0.0,0.0,18,modules\samples\services\SecureStockQuoteService\src\samples\services\GetFullQuoteResponse.java,0,0,0,0
samples.services.GetMarketActivity, 0, 0, 0, 0, 0, 0, 0, 0, 0, 0, 0, 0, 0, 0,0.0,0.0,0.0,0.0,0.0,0.0,0.0,0.0,0.0,0.0,0.0,0.0,0.0,13,modules\samples\services\SecureStockQuoteService\src\samples\services\GetMarketActivity.java,0,0,0,0
samples.services.GetMarketActivityResponse, 0, 0, 0, 0, 0, 0, 0, 0, 0, 0, 0, 0, 0, 0,0.0,0.0,0.0,1.0,0.0,0.0,0.0,0.0,0.0,0.0,0.0,0.0,0.0,17,modules\samples\services\SecureStockQuoteService\src\samples\services\GetMarketActivityResponse.java,0,0,0,0
samples.services.GetQuote, 0, 0, 0, 0, 0, 0, 0, 0, 0, 0, 0, 0, 0, 0,0.0,0.0,0.0,0.0,0.0,0.0,0.0,0.0,0.0,0.0,0.0,0.0,0.0,14,modules\samples\services\FastStockQuoteService\src\samples\services\GetQuote.java,0,0,0,0
samples.services.GetQuoteResponse, 0, 0, 0, 1, 0, 0, 0, 0, 0, 0, 0, 0, 0, 1,0.0,0.0,0.0,0.0,0.0,0.0,0.0,0.0,0.0,0.0,0.0,0.0,0.0,123,modules\samples\services\FastStockQuoteService\src\samples\services\GetQuoteResponse.java,0,0,0,0
samples.services.LBService1, 0, 0, 0, 0, 0, 0, 0, 0, 0, 0, 0, 0, 0, 0,0.0,0.0,0.0,0.0,0.0,0.0,0.0,0.0,0.0,0.0,0.0,0.0,0.0,58,modules\samples\services\LoadbalanceFailoverService\src\samples\services\LBService1.java,0,0,0,0
samples.services.LBService2, 0, 0, 0, 0, 0, 0, 0, 0, 0, 0, 0, 0, 0, 0,0.0,0.0,0.0,0.0,0.0,0.0,0.0,0.0,0.0,0.0,0.0,0.0,0.0,91,modules\samples\services\LoadbalanceFailoverService\src\samples\services\LBService2.java,0,0,0,0
samples.services.MTOMSwASampleService, 0, 0, 0, 0, 0, 0, 0, 0, 0, 0, 0, 0, 0, 0,0.0,0.0,0.0,0.0,0.0,0.0,0.0,0.0,0.0,0.0,0.0,0.0,0.0,87,modules\samples\services\MTOMSwASampleService\src\samples\services\MTOMSwASampleService.java,0,0,0,0
samples.services.PlaceOrder, 0, 0, 0, 0, 0, 0, 0, 0, 0, 0, 0, 0, 0, 0,0.0,0.0,0.0,0.0,0.0,0.0,0.0,0.0,0.0,0.0,0.0,0.0,0.0,23,modules\samples\services\FastStockQuoteService\src\samples\services\PlaceOrder.java,0,0,0,0
samples.services.ReliableStockQuoteService, 0, 0, 0, 0, 0, 0, 0, 0, 0, 0, 0, 0, 0, 0,0.0,0.0,0.0,0.3333333333333333,0.0,0.0,0.0,0.0,0.0,0.0,0.0,0.0,0.0,12,modules\samples\services\ReliableStockQuoteService\src\samples\services\GetQuote.java,0,0,0,0
samples.services.TradingDay, 0, 0, 0, 0, 0, 0, 0, 0, 0, 0, 0, 0, 0, 0,0.0,0.0,0.0,0.5,0.0,0.0,0.0,0.0,0.0,0.0,0.0,0.0,0.0,19,modules\samples\services\SecureStockQuoteService\src\samples\services\TradingDay.java,0,0,0,0
samples.userguide.LoadbalanceFailoverClient, 0, 0, 0, 0, 0, 0, 0, 0, 0, 0, 0, 0, 0, 0,0.0,0.0,0.0,0.0,0.0,0.0,0.0,0.0,0.0,0.0,0.0,0.0,0.0,213,modules\samples\src\main\java\samples\userguide\LoadbalanceFailoverClient.java,0,0,0,0
samples.userguide.MTOMSwAClient, 0, 0, 0, 0, 0, 0, 0, 0, 0, 0, 0, 0, 0, 0,0.0,0.0,0.0,0.0,0.0,0.0,0.0,0.0,0.0,0.0,0.0,0.0,0.0,105,modules\samples\src\main\java\samples\userguide\MTOMSwAClient.java,0,0,0,0
samples.userguide.PWCallback, 0, 0, 0, 0, 0, 0, 0, 0, 0, 0, 0, 0, 0, 0,0.0,0.0,0.0,0.0,0.0,0.0,0.0,0.0,0.0,0.0,0.0,0.0,0.0,47,modules\samples\src\main\java\samples\userguide\PWCallback.java,0,0,0,0
samples.userguide.ServiceInvoker, 0, 0, 0, 0, 0, 0, 0, 0, 0, 0, 0, 0, 0, 0,0.0,0.0,0.0,0.0,0.0,0.0,0.0,0.0,0.0,0.0,0.0,0.0,0.0,97,modules\samples\src\main\java\samples\userguide\ServiceInvoker.java,0,0,0,0
samples.userguide.StockQuoteClient, 0, 0, 0, 0, 0, 0, 0, 0, 0, 0, 0, 0, 0, 0,0.0,0.0,0.0,0.0,0.0,0.0,0.0,0.0,0.0,0.0,0.0,0.0,0.0,161,modules\samples\src\main\java\samples\userguide\StockQuoteClient.java,0,0,0,0
samples.userguide.ThreadedClient, 0, 0, 0, 0, 0, 0, 0, 0, 0, 0, 0, 0, 0, 0,0.0,0.0,0.0,0.0,0.0,0.0,0.0,0.0,0.0,0.0,0.0,0.0,0.0,89,modules\samples\src\main\java\samples\userguide\ThreadedClient.java,0,0,0,0
samples.util.SampleAxis2Server, 0, 0, 0, 0, 0, 0, 0, 0, 0, 0, 0, 0, 0, 0,0.0,0.0,0.0,0.0,0.0,0.0,0.0,0.0,0.0,0.0,0.0,0.0,0.0,28,modules\samples\src\main\java\samples\util\SampleAxis2Server.java,0,0,0,0
