ClassName,AntiSingleton,Blob,ClassDataShouldBePrivate,ComplexClass,LargeClass,LazyClass,LongMethod,LongParameterList,MessageChains,RefusedParentBequest,SpaghettiCode,SpeculativeGenerality,SwissArmyKnife,NumOfAPs,AntiSingleton,Blob,ClassDataShouldBePrivate,ComplexClass,LargeClass,LazyClass,LongMethod,LongParameterList,MessageChains,RefusedParentBequest,SpaghettiCode,SpeculativeGenerality,SwissArmyKnife,LOC,name,deleted,added,changed,all
at.newmedialab.ldpath.template.model.freemarker.TemplateNodeModel, 0, 0, 0, 0, 0, 0, 0, 0, 0, 0, 0, 0, 0, 0,0.0,0.0,0.0,0.0,0.0,0.0,0.0,0.0,0.0,0.0,0.0,0.0,0.0,52,commons\ldpathtemplate\src\main\java\at\newmedialab\ldpath\template\model\freemarker\TemplateNodeModel.java,0,55,0,55
at.newmedialab.ldpath.template.model.freemarker.TemplateStackModel, 0, 0, 0, 0, 0, 0, 0, 0, 0, 0, 0, 0, 0, 0,0.0,0.0,0.0,0.0,0.0,0.0,0.0,0.0,0.0,0.0,0.0,0.0,0.0,18,commons\ldpathtemplate\src\main\java\at\newmedialab\ldpath\template\model\freemarker\TemplateStackModel.java,0,21,0,21
at.newmedialab.ldpath.template.model.freemarker.TemplateWrapperModel, 0, 0, 0, 0, 0, 0, 0, 0, 0, 0, 0, 0, 0, 0,0.0,0.0,0.0,0.0,0.0,0.0,0.0,0.0,0.0,0.0,0.0,0.0,0.0,10,commons\ldpathtemplate\src\main\java\at\newmedialab\ldpath\template\model\freemarker\TemplateWrapperModel.java,0,12,0,12
at.newmedialab.ldpath.template.model.transformers.TemplateBooleanTransformer, 0, 0, 0, 0, 0, 0, 0, 0, 0, 0, 0, 0, 0, 0,0.0,0.0,0.0,0.0,0.0,0.0,0.0,0.0,0.0,0.0,0.0,0.0,0.0,15,commons\ldpathtemplate\src\main\java\at\newmedialab\ldpath\template\model\transformers\TemplateBooleanTransformer.java,0,21,0,21
at.newmedialab.ldpath.template.model.transformers.TemplateDateTransformer, 0, 0, 0, 0, 0, 0, 0, 0, 0, 0, 0, 0, 0, 0,0.0,0.0,0.0,0.0,0.0,0.0,0.0,0.0,0.0,0.0,0.0,0.0,0.0,23,commons\ldpathtemplate\src\main\java\at\newmedialab\ldpath\template\model\transformers\TemplateDateTransformer.java,0,30,0,30
at.newmedialab.ldpath.template.model.transformers.TemplateDoubleTransformer, 0, 0, 0, 0, 0, 0, 0, 0, 0, 0, 0, 0, 0, 0,0.0,0.0,0.0,0.0,0.0,0.0,0.0,0.0,0.0,0.0,0.0,0.0,0.0,15,commons\ldpathtemplate\src\main\java\at\newmedialab\ldpath\template\model\transformers\TemplateDoubleTransformer.java,0,21,0,21
at.newmedialab.ldpath.template.model.transformers.TemplateFloatTransformer, 0, 0, 0, 0, 0, 0, 0, 0, 0, 0, 0, 0, 0, 0,0.0,0.0,0.0,0.0,0.0,0.0,0.0,0.0,0.0,0.0,0.0,0.0,0.0,15,commons\ldpathtemplate\src\main\java\at\newmedialab\ldpath\template\model\transformers\TemplateFloatTransformer.java,0,21,0,21
at.newmedialab.ldpath.template.model.transformers.TemplateIntegerTransformer, 0, 0, 0, 0, 0, 0, 0, 0, 0, 0, 0, 0, 0, 0,0.0,0.0,0.0,0.0,0.0,0.0,0.0,0.0,0.0,0.0,0.0,0.0,0.0,15,commons\ldpathtemplate\src\main\java\at\newmedialab\ldpath\template\model\transformers\TemplateIntegerTransformer.java,0,21,0,21
at.newmedialab.ldpath.template.model.transformers.TemplateLongTransformer, 0, 0, 0, 0, 0, 0, 0, 0, 0, 0, 0, 0, 0, 0,0.0,0.0,0.0,0.0,0.0,0.0,0.0,0.0,0.0,0.0,0.0,0.0,0.0,15,commons\ldpathtemplate\src\main\java\at\newmedialab\ldpath\template\model\transformers\TemplateLongTransformer.java,0,21,0,21
at.newmedialab.ldpath.template.model.transformers.TemplateScalarTransformer, 0, 0, 0, 0, 0, 0, 0, 0, 0, 0, 0, 0, 0, 0,0.0,0.0,0.0,0.0,0.0,0.0,0.0,0.0,0.0,0.0,0.0,0.0,0.0,15,commons\ldpathtemplate\src\main\java\at\newmedialab\ldpath\template\model\transformers\TemplateScalarTransformer.java,0,21,0,21
at.newmedialab.ldpath.template.util.FormatUtil, 0, 0, 0, 0, 0, 0, 0, 0, 0, 0, 0, 0, 0, 0,0.0,0.0,0.0,0.0,0.0,0.0,0.0,0.0,0.0,0.0,0.0,0.0,0.0,18,commons\ldpathtemplate\src\main\java\at\newmedialab\ldpath\template\util\FormatUtil.java,0,23,0,23
net.paoding.analysis.analyzer.PaodingAnalyzer, 0, 0, 0, 0, 0, 0, 0, 0, 0, 0, 0, 0, 0, 0,0.0,0.0,0.0,0.0,0.0,0.0,0.0,0.0,0.0,0.0,0.0,0.0,0.0,41,solr\extras\paoding\src\main\java\net\paoding\analysis\analyzer\PaodingAnalyzer.java,48,0,0,48
net.paoding.analysis.analyzer.PaodingAnalyzerBean, 0, 0, 0, 0, 0, 0, 0, 0, 0, 0, 0, 0, 0, 0,0.0,0.0,0.0,0.0,0.0,0.0,0.0,0.0,0.0,0.0,0.0,0.0,0.0,88,solr\extras\paoding\src\main\java\net\paoding\analysis\analyzer\PaodingAnalyzerBean.java,95,0,0,95
net.paoding.analysis.analyzer.PaodingTokenizer, 0, 0, 0, 0, 0, 0, 0, 0, 0, 0, 0, 0, 0, 0,0.0,0.0,0.0,0.0,0.0,0.0,0.0,0.0,0.0,0.0,0.0,0.0,0.0,87,solr\extras\paoding\src\main\java\net\paoding\analysis\analyzer\PaodingTokenizer.java,101,0,0,101
net.paoding.analysis.analyzer.TokenCollector, 0, 0, 0, 0, 0, 0, 0, 0, 0, 0, 0, 0, 0, 0,0.0,0.0,0.0,0.0,0.0,0.0,0.0,0.0,0.0,0.0,0.0,0.0,0.0,87,solr\extras\paoding\src\main\java\net\paoding\analysis\analyzer\TokenCollector.java,7,0,0,7
net.paoding.analysis.analyzer.impl.MaxWordLengthTokenCollector, 0, 0, 0, 0, 0, 0, 0, 0, 0, 0, 0, 0, 0, 0,0.0,0.0,0.0,0.0,0.0,0.0,0.0,0.0,0.0,0.0,0.0,0.0,0.0,49,solr\extras\paoding\src\main\java\net\paoding\analysis\analyzer\impl\MaxWordLengthTokenCollector.java,54,0,0,54
net.paoding.analysis.dictionary.BinaryDictionary, 0, 0, 0, 0, 0, 0, 0, 0, 0, 0, 0, 0, 0, 0,0.0,0.0,0.0,0.0,0.0,0.0,0.0,0.0,0.0,0.0,0.0,0.0,0.0,72,solr\extras\paoding\src\main\java\net\paoding\analysis\dictionary\BinaryDictionary.java,73,0,0,73
net.paoding.analysis.dictionary.Dictionary, 0, 0, 0, 0, 0, 0, 0, 0, 0, 0, 0, 0, 0, 0,0.0,0.0,0.0,0.0,0.0,0.0,0.0,0.0,0.0,0.0,0.0,0.0,0.0,72,solr\extras\paoding\src\main\java\net\paoding\analysis\dictionary\Dictionary.java,6,0,0,6
net.paoding.analysis.dictionary.DictionaryDelegate, 0, 0, 0, 0, 0, 0, 0, 0, 0, 0, 0, 0, 0, 0,0.0,0.0,0.0,0.0,0.0,0.0,0.0,0.0,0.0,0.0,0.0,0.0,0.0,23,solr\extras\paoding\src\main\java\net\paoding\analysis\dictionary\DictionaryDelegate.java,24,0,0,24
net.paoding.analysis.dictionary.Hit, 0, 0, 0, 0, 0, 0, 0, 0, 0, 0, 0, 0, 0, 0,0.0,0.0,0.0,0.0,0.0,0.0,0.0,0.3333333333333333,0.0,0.0,0.0,0.0,0.0,75,solr\extras\paoding\src\main\java\net\paoding\analysis\dictionary\Hit.java,76,0,0,76
net.paoding.analysis.dictionary.support.detection.Detector, 0, 0, 0, 1, 0, 0, 0, 0, 0, 0, 0, 0, 0, 1,0.0,0.0,0.0,0.0,0.0,0.0,0.0,0.0,0.0,0.0,0.0,0.0,0.0,90,solr\extras\paoding\src\main\java\net\paoding\analysis\dictionary\support\detection\Detector.java,95,0,0,95
net.paoding.analysis.dictionary.support.detection.DifferenceListener, 0, 0, 0, 0, 0, 0, 0, 0, 0, 0, 0, 0, 0, 0,0.0,0.0,0.0,0.0,0.0,0.0,0.0,0.0,0.0,0.0,0.0,0.0,0.0,90,solr\extras\paoding\src\main\java\net\paoding\analysis\dictionary\support\detection\DifferenceListener.java,4,0,0,4
net.paoding.analysis.dictionary.support.detection.ExtensionFileFilter, 0, 0, 0, 0, 0, 0, 0, 0, 0, 0, 0, 0, 0, 0,0.0,0.0,0.0,1.0,0.0,0.0,0.0,0.0,0.0,0.0,0.0,0.0,0.0,17,solr\extras\paoding\src\main\java\net\paoding\analysis\dictionary\support\detection\ExtensionFileFilter.java,20,0,0,20
net.paoding.analysis.dictionary.support.detection.Node, 0, 0, 0, 0, 0, 0, 0, 0, 0, 0, 0, 0, 0, 0,0.0,0.0,0.0,0.0,0.0,0.0,0.0,0.0,0.0,0.0,0.0,0.0,0.0,52,solr\extras\paoding\src\main\java\net\paoding\analysis\dictionary\support\detection\Node.java,53,0,0,53
net.paoding.analysis.dictionary.support.filewords.ReadListener, 0, 0, 0, 0, 0, 0, 0, 0, 0, 0, 0, 0, 0, 0,0.0,0.0,0.0,0.0,0.0,0.0,0.0,0.0,0.0,0.0,0.0,0.0,0.0,52,solr\extras\paoding\src\main\java\net\paoding\analysis\dictionary\support\filewords\ReadListener.java,6,0,0,6
net.paoding.analysis.exception.PaodingAnalysisException, 0, 0, 0, 0, 0, 0, 0, 0, 0, 0, 0, 0, 0, 0,0.0,0.0,0.0,0.0,0.0,0.0,0.0,0.0,0.0,0.0,0.0,0.0,0.0,15,solr\extras\paoding\src\main\java\net\paoding\analysis\exception\PaodingAnalysisException.java,16,0,0,16
net.paoding.analysis.knife.CharSet, 0, 0, 0, 0, 0, 0, 0, 0, 0, 0, 0, 0, 0, 0,0.0,0.0,0.0,0.0,0.0,0.0,0.0,0.5,0.0,0.0,0.0,0.0,0.0,70,solr\extras\paoding\src\main\java\net\paoding\analysis\knife\CharSet.java,72,0,0,72
net.paoding.analysis.knife.Collector, 0, 0, 0, 0, 0, 0, 0, 0, 0, 0, 0, 0, 0, 0,0.0,0.0,0.0,0.0,0.0,0.0,0.0,0.0,0.0,0.0,0.0,0.0,0.0,70,solr\extras\paoding\src\main\java\net\paoding\analysis\knife\Collector.java,4,0,0,4
net.paoding.analysis.knife.CollectorStdoutImpl, 0, 0, 0, 0, 0, 0, 0, 0, 0, 0, 0, 0, 0, 0,0.0,0.0,0.0,0.0,0.0,0.0,0.0,0.0,0.0,0.0,0.0,0.0,0.0,13,solr\extras\paoding\src\main\java\net\paoding\analysis\knife\CollectorStdoutImpl.java,14,0,0,14
net.paoding.analysis.knife.CombinatoricsKnife, 0, 0, 0, 0, 0, 0, 0, 1, 0, 0, 0, 0, 0, 1,0.0,0.0,0.0,0.0,0.0,0.0,0.0,0.3333333333333333,0.0,0.0,0.0,0.0,0.0,110,solr\extras\paoding\src\main\java\net\paoding\analysis\knife\CombinatoricsKnife.java,114,0,0,114
net.paoding.analysis.knife.Dictionaries, 0, 0, 0, 0, 0, 0, 0, 0, 0, 0, 0, 0, 0, 0,0.0,0.0,0.0,0.0,0.0,0.0,0.0,0.0,0.0,0.0,0.0,0.0,0.0,110,solr\extras\paoding\src\main\java\net\paoding\analysis\knife\Dictionaries.java,13,0,0,13
net.paoding.analysis.knife.DictionariesCompiler, 0, 0, 0, 0, 0, 0, 0, 0, 0, 0, 0, 0, 0, 0,0.0,0.0,0.0,0.0,0.0,0.0,0.0,0.0,0.0,0.0,0.0,0.0,0.0,110,solr\extras\paoding\src\main\java\net\paoding\analysis\knife\DictionariesCompiler.java,7,0,0,7
net.paoding.analysis.knife.DictionariesWare, 0, 0, 0, 0, 0, 0, 0, 0, 0, 0, 0, 0, 0, 0,0.0,0.0,0.0,0.0,0.0,0.0,0.0,0.0,0.0,0.0,0.0,0.0,0.0,110,solr\extras\paoding\src\main\java\net\paoding\analysis\knife\DictionariesWare.java,4,0,0,4
net.paoding.analysis.knife.FakeKnife, 0, 0, 0, 0, 0, 0, 0, 0, 0, 0, 0, 0, 0, 0,0.0,0.0,0.0,0.0,0.0,0.0,0.0,0.0,0.0,0.0,0.0,0.0,0.0,44,solr\extras\paoding\src\main\java\net\paoding\analysis\knife\FakeKnife.java,47,0,0,47
net.paoding.analysis.knife.FileDictionariesDifferenceListener, 0, 0, 0, 0, 0, 0, 0, 0, 0, 0, 0, 0, 0, 0,0.0,0.0,0.0,0.0,0.0,0.0,0.0,0.0,0.0,0.0,0.0,0.0,0.0,42,solr\extras\paoding\src\main\java\net\paoding\analysis\knife\FileDictionariesDifferenceListener.java,49,0,0,49
net.paoding.analysis.knife.Knife, 0, 0, 0, 0, 0, 0, 0, 0, 0, 0, 0, 0, 0, 0,0.0,0.0,0.0,0.0,0.0,0.0,0.0,0.0,0.0,0.0,0.0,0.0,0.0,42,solr\extras\paoding\src\main\java\net\paoding\analysis\knife\Knife.java,8,0,0,8
net.paoding.analysis.knife.KnifeBox, 0, 0, 0, 0, 0, 0, 0, 0, 0, 0, 0, 0, 0, 0,0.0,0.0,0.0,0.0,0.0,0.0,0.0,0.0,0.0,0.0,0.0,0.0,0.0,50,solr\extras\paoding\src\main\java\net\paoding\analysis\knife\KnifeBox.java,54,0,0,54
net.paoding.analysis.knife.LetterKnife, 0, 0, 0, 0, 0, 0, 0, 0, 0, 0, 0, 0, 0, 0,0.0,0.0,0.0,0.0,0.0,0.0,0.0,0.5,0.0,0.0,0.0,0.0,0.0,25,solr\extras\paoding\src\main\java\net\paoding\analysis\knife\LetterKnife.java,26,0,0,26
net.paoding.analysis.knife.NumberKnife, 0, 0, 0, 0, 0, 0, 0, 1, 0, 0, 0, 0, 0, 1,0.0,0.0,0.0,0.0,0.0,0.0,0.0,0.5,0.0,0.0,0.0,0.0,0.0,38,solr\extras\paoding\src\main\java\net\paoding\analysis\knife\NumberKnife.java,111,0,0,111
net.paoding.analysis.knife.Paoding, 0, 0, 0, 0, 0, 1, 0, 0, 0, 0, 0, 0, 0, 1,0.0,0.0,0.0,0.0,0.0,0.0,0.0,0.0,0.0,0.0,0.0,0.0,0.0,2,solr\extras\paoding\src\main\java\net\paoding\analysis\knife\Paoding.java,3,0,0,3
net.paoding.analysis.knife.SmartKnifeBox, 0, 0, 0, 0, 0, 0, 0, 0, 0, 0, 0, 0, 0, 0,0.0,0.0,0.0,0.0,0.0,0.5,0.0,0.0,0.0,0.0,0.0,0.0,0.0,9,solr\extras\paoding\src\main\java\net\paoding\analysis\knife\SmartKnifeBox.java,10,0,0,10
org.apache.commons.opennlp.TextAnalyzerTest, 0, 0, 0, 0, 0, 0, 0, 0, 0, 0, 0, 0, 0, 0,0.0,0.0,0.0,0.0,0.0,0.0,0.0,0.0,0.0,0.0,0.0,0.0,0.0,139,commons\opennlp\src\test\java\org\apache\commons\opennlp\TextAnalyzerTest.java,0,152,0,152
org.apache.stanbol.commons.authentication.basic.BasicAuthentication, 0, 0, 0, 0, 0, 0, 0, 0, 0, 0, 0, 0, 0, 0,0.0,0.0,0.0,0.0,0.0,0.25,0.0,0.0,0.0,0.0,0.0,0.0,0.0,77,commons\security\authentication.basic\src\main\java\org\apache\stanbol\commons\authentication\basic\BasicAuthentication.java,0,100,0,100
org.apache.stanbol.commons.caslight.Feature, 0, 0, 0, 0, 0, 0, 0, 0, 0, 0, 0, 0, 0, 0,0.0,0.0,0.0,0.0,0.0,0.0,0.0,0.0,0.0,0.0,0.0,0.0,0.0,30,caslight\src\main\java\org\apache\stanbol\commons\caslight\Feature.java,31,0,0,31
org.apache.stanbol.commons.httpqueryheaders.Constants, 0, 0, 0, 0, 0, 0, 0, 0, 0, 0, 0, 0, 0, 0,0.0,0.0,0.0,0.0,0.0,0.0,0.0,0.0,0.0,0.0,0.0,0.0,0.0,4,commons\httpqueryheaders\src\main\java\org\apache\stanbol\commons\httpqueryheaders\Constants.java,0,5,0,5
org.apache.stanbol.commons.indexedgraph.IndexedGraph, 0, 0, 0, 0, 0, 0, 0, 0, 0, 0, 0, 0, 0, 0,0.0,0.0,0.0,0.0,0.0,0.0,0.0,0.0,0.0,0.0,0.0,0.0,0.0,17,commons\indexedgraph\src\main\java\org\apache\stanbol\commons\indexedgraph\IndexedGraph.java,0,26,0,26
org.apache.stanbol.commons.indexedgraph.IndexedGraphTest, 0, 0, 0, 1, 0, 0, 0, 0, 0, 0, 0, 0, 0, 1,0.0,0.0,0.0,0.0,0.0,0.0,0.0,0.0,0.0,0.0,0.0,0.0,0.0,364,commons\indexedgraph\src\test\java\org\apache\stanbol\commons\indexedgraph\IndexedGraphTest.java,0,432,0,432
org.apache.stanbol.commons.indexedgraph.IndexedMGraph, 0, 0, 0, 0, 0, 0, 0, 0, 0, 0, 0, 0, 0, 0,0.0,0.0,0.0,1.0,0.0,0.0,0.0,0.0,0.0,0.0,0.0,0.0,0.0,15,commons\indexedgraph\src\main\java\org\apache\stanbol\commons\indexedgraph\IndexedMGraph.java,0,21,0,21
org.apache.stanbol.commons.installer.provider.bundle.BundleInstallerConstants, 0, 0, 0, 0, 0, 0, 0, 0, 0, 0, 0, 0, 0, 0,0.0,0.0,0.0,0.0,0.0,0.0,0.0,0.0,0.0,0.0,0.0,0.0,0.0,4,commons\installer\bundleprovider\src\main\java\org\apache\stanbol\commons\installer\provider\bundle\BundleInstallerConstants.java,0,6,0,6
org.apache.stanbol.commons.installer.provider.bundle.impl.Activator, 0, 0, 0, 0, 0, 0, 0, 0, 0, 0, 0, 0, 0, 0,0.0,0.0,0.0,0.0,0.0,0.0,0.0,0.0,0.0,0.0,0.0,0.0,0.0,48,commons\installer\bundleprovider\src\main\java\org\apache\stanbol\commons\installer\provider\bundle\impl\Activator.java,0,57,0,57
org.apache.stanbol.commons.jobs.api.Job, 0, 0, 0, 0, 0, 0, 0, 0, 0, 0, 0, 0, 0, 0,0.0,0.0,0.0,0.0,0.0,0.0,0.0,0.0,0.0,0.0,0.0,0.0,0.0,48,commons\jobs\api\src\main\java\org\apache\stanbol\commons\jobs\api\Job.java,0,5,0,5
org.apache.stanbol.commons.jobs.api.JobInfo, 0, 0, 0, 0, 0, 0, 0, 0, 0, 0, 0, 0, 0, 0,0.0,0.0,0.0,0.0,0.0,0.0,0.0,0.0,0.0,0.0,0.0,0.0,0.0,48,commons\jobs\api\src\main\java\org\apache\stanbol\commons\jobs\api\JobInfo.java,0,16,0,16
org.apache.stanbol.commons.jobs.api.JobManager, 0, 0, 0, 0, 0, 0, 0, 0, 0, 0, 0, 0, 0, 0,0.0,0.0,0.0,0.0,0.0,0.0,0.0,0.0,0.0,0.0,0.0,0.0,0.0,48,commons\jobs\api\src\main\java\org\apache\stanbol\commons\jobs\api\JobManager.java,0,11,0,11
org.apache.stanbol.commons.jobs.api.JobResult, 0, 0, 0, 0, 0, 0, 0, 0, 0, 0, 0, 0, 0, 0,0.0,0.0,0.0,0.0,0.0,0.0,0.0,0.0,0.0,0.0,0.0,0.0,0.0,48,commons\jobs\api\src\main\java\org\apache\stanbol\commons\jobs\api\JobResult.java,0,5,0,5
org.apache.stanbol.commons.jobs.impl.JobInfoImpl, 0, 0, 0, 0, 0, 0, 0, 0, 0, 0, 0, 0, 0, 0,0.0,0.0,0.0,0.0,0.0,0.0,0.0,0.0,0.0,0.0,0.0,0.0,0.0,45,commons\jobs\api\src\main\java\org\apache\stanbol\commons\jobs\impl\JobInfoImpl.java,0,49,0,49
org.apache.stanbol.commons.jobs.web.JobsFragment, 0, 0, 0, 0, 0, 0, 0, 0, 0, 0, 0, 0, 0, 0,0.0,0.0,0.0,0.0,0.0,0.0,0.0,0.0,0.0,0.0,0.0,0.0,0.0,36,commons\jobs\web\src\main\java\org\apache\stanbol\commons\jobs\web\JobsFragment.java,0,54,0,54
org.apache.stanbol.commons.jsonld.JsonLdIRI, 0, 0, 0, 0, 0, 0, 0, 0, 0, 0, 0, 0, 0, 0,0.0,0.0,0.0,0.0,0.0,0.0,0.0,0.0,0.0,0.0,0.0,0.0,0.0,9,commons\jsonld\src\main\java\org\apache\stanbol\commons\jsonld\JsonLdIRI.java,0,10,0,10
org.apache.stanbol.commons.jsonld.JsonLdParserCommon, 0, 0, 0, 0, 0, 0, 0, 0, 0, 0, 0, 0, 0, 0,0.0,0.0,0.0,0.0,0.0,0.0,0.0,0.0,0.0,0.0,0.0,0.0,0.0,13,commons\jsonld\src\main\java\org\apache\stanbol\commons\jsonld\JsonLdParserCommon.java,0,18,0,18
org.apache.stanbol.commons.jsonld.JsonLdProfileParser, 0, 0, 0, 0, 0, 0, 0, 0, 0, 0, 0, 0, 0, 0,0.0,0.0,0.0,0.0,0.0,0.0,0.0,0.0,0.0,0.0,0.0,0.0,0.0,52,commons\jsonld\src\main\java\org\apache\stanbol\commons\jsonld\JsonLdProfileParser.java,0,57,0,57
org.apache.stanbol.commons.jsonld.JsonLdProperty, 0, 0, 0, 0, 0, 0, 0, 0, 0, 0, 0, 0, 0, 0,0.0,0.0,0.0,0.0,0.0,0.0,0.0,0.0,0.0,0.0,0.0,0.0,0.0,61,commons\jsonld\src\main\java\org\apache\stanbol\commons\jsonld\JsonLdProperty.java,0,64,0,64
org.apache.stanbol.commons.jsonld.JsonLdPropertyValue, 0, 0, 0, 0, 0, 0, 0, 0, 0, 0, 0, 0, 0, 0,0.0,0.0,0.0,0.0,0.0,0.0,0.0,0.0,0.0,0.0,0.0,0.0,0.0,38,commons\jsonld\src\main\java\org\apache\stanbol\commons\jsonld\JsonLdPropertyValue.java,0,39,0,39
org.apache.stanbol.commons.jsonld.ShorteningException, 0, 0, 0, 0, 0, 0, 0, 0, 0, 0, 0, 0, 0, 0,0.0,0.0,0.0,0.0,0.0,0.0,0.0,0.0,0.0,0.0,0.0,0.0,0.0,3,commons\jsonld\src\main\java\org\apache\stanbol\commons\jsonld\ShorteningException.java,0,4,0,4
org.apache.stanbol.commons.ldpath.clerezza.ClerezzaBackend, 0, 0, 0, 1, 0, 0, 0, 0, 0, 0, 0, 0, 0, 1,0.0,0.0,0.0,0.0,0.0,0.0,0.0,0.0,0.0,0.0,0.0,0.0,0.0,259,commons\ldpath\clerezza\src\main\java\org\apache\stanbol\commons\ldpath\clerezza\ClerezzaBackend.java,0,291,0,291
org.apache.stanbol.commons.ldpathtemplate.LdRenderer, 0, 0, 0, 0, 0, 0, 0, 0, 0, 0, 0, 0, 0, 0,0.0,0.0,0.0,0.25,0.0,0.0,0.0,0.5,0.0,0.0,0.0,0.0,0.0,93,commons\ldpathtemplate\src\main\java\org\apache\stanbol\commons\ldpathtemplate\LdRenderer.java,0,37,0,37
org.apache.stanbol.commons.namespaceprefix.NamespaceMappingUtils, 0, 0, 0, 0, 0, 0, 0, 0, 0, 0, 0, 0, 0, 0,0.0,0.0,0.0,0.0,0.0,0.0,0.0,0.0,0.0,0.0,0.0,0.0,0.0,102,commons\namespaceprefix\service\src\main\java\org\apache\stanbol\commons\namespaceprefix\NamespaceMappingUtils.java,0,107,0,107
org.apache.stanbol.commons.namespaceprefix.NamespaceMappingsUtilsTest, 0, 0, 0, 0, 0, 0, 0, 0, 0, 0, 0, 0, 0, 0,0.0,0.0,0.0,0.0,0.0,0.0,0.0,0.0,0.0,0.0,0.0,0.0,0.0,80,commons\namespaceprefix\service\src\test\java\org\apache\stanbol\commons\namespaceprefix\NamespaceMappingsUtilsTest.java,0,84,0,84
org.apache.stanbol.commons.namespaceprefix.NamespacePrefixProvider, 0, 0, 0, 0, 0, 0, 0, 0, 0, 0, 0, 0, 0, 0,0.0,0.0,0.0,0.0,0.0,0.0,0.0,0.0,0.0,0.0,0.0,0.0,0.0,80,commons\namespaceprefix\service\src\main\java\org\apache\stanbol\commons\namespaceprefix\NamespacePrefixProvider.java,0,7,0,7
org.apache.stanbol.commons.namespaceprefix.NamespacePrefixService, 0, 0, 0, 0, 0, 0, 0, 0, 0, 0, 0, 0, 0, 0,0.0,0.0,0.0,0.0,0.0,0.0,0.0,0.0,0.0,0.0,0.0,0.0,0.0,80,commons\namespaceprefix\service\src\main\java\org\apache\stanbol\commons\namespaceprefix\NamespacePrefixService.java,0,6,0,6
org.apache.stanbol.commons.namespaceprefix.provider.prefixcc.PrefixccProvider, 0, 0, 0, 0, 0, 0, 0, 0, 0, 0, 0, 0, 0, 0,0.0,0.0,0.0,0.0,0.0,0.0,0.0,0.0,0.0,0.0,0.0,0.0,0.0,90,commons\namespaceprefix\prefixccprovider\src\main\java\org\apache\stanbol\commons\namespaceprefix\provider\prefixcc\PrefixccProvider.java,0,124,0,124
org.apache.stanbol.commons.namespaceprefix.provider.prefixcc.PrefixccProviderTest, 0, 0, 0, 0, 0, 0, 0, 0, 0, 0, 0, 0, 0, 0,0.0,0.0,0.0,0.0,0.0,0.0,0.0,0.0,0.0,0.0,0.0,0.0,0.0,53,commons\namespaceprefix\prefixccprovider\src\test\java\org\apache\stanbol\commons\namespaceprefix\provider\prefixcc\PrefixccProviderTest.java,0,87,0,87
org.apache.stanbol.commons.namespaceprefix.provider.stanbol.DefaultProviderTest, 0, 0, 0, 0, 0, 0, 0, 0, 0, 0, 0, 0, 0, 0,0.0,0.0,0.0,0.0,0.0,0.0,0.0,0.0,0.0,0.0,0.0,0.0,0.0,27,commons\namespaceprefix\stanbolprovider\src\test\java\org\apache\stanbol\commons\namespaceprefix\provider\stanbol\DefaultProviderTest.java,0,38,0,38
org.apache.stanbol.commons.namespaceprefix.service.StanbolNamespacePrefixServiceTest, 0, 0, 0, 0, 0, 0, 0, 0, 0, 0, 0, 0, 0, 0,0.0,0.0,0.0,0.0,0.0,0.0,0.0,0.0,0.0,0.0,0.0,0.0,0.0,48,commons\namespaceprefix\service\src\test\java\org\apache\stanbol\commons\namespaceprefix\service\StanbolNamespacePrefixServiceTest.java,0,70,0,70
org.apache.stanbol.commons.opennlp.KeywordTokenizer, 0, 0, 0, 0, 0, 0, 0, 0, 0, 0, 0, 0, 0, 0,0.0,0.0,0.0,0.0,0.0,0.0,0.0,0.0,0.0,0.0,0.0,0.0,0.0,34,commons\opennlp\src\main\java\org\apache\stanbol\commons\opennlp\KeywordTokenizer.java,0,41,0,41
org.apache.stanbol.commons.owl.OWLOntologyManagerFactory, 0, 0, 0, 0, 0, 0, 0, 0, 0, 0, 0, 0, 0, 0,0.0,0.0,0.0,0.0,0.0,0.0,0.0,0.0,0.0,0.0,0.0,0.0,0.0,25,commons\owl\src\main\java\org\apache\stanbol\commons\owl\OWLOntologyManagerFactory.java,0,34,0,34
org.apache.stanbol.commons.owl.OntologyLookaheadMGraph, 0, 0, 0, 0, 0, 0, 0, 0, 0, 0, 0, 0, 0, 0,0.0,0.0,0.0,0.0,0.0,0.0,0.0,1.0,0.0,0.0,0.0,0.0,0.0,74,commons\owl\src\main\java\org\apache\stanbol\commons\owl\OntologyLookaheadMGraph.java,0,86,0,86
org.apache.stanbol.commons.owl.PhonyIRIMapper, 0, 0, 0, 0, 0, 0, 0, 0, 0, 0, 0, 0, 0, 0,0.0,0.0,0.0,0.0,0.0,0.0,0.0,0.0,0.0,0.0,0.0,0.0,0.0,18,commons\owl\src\main\java\org\apache\stanbol\commons\owl\PhonyIRIMapper.java,0,23,0,23
org.apache.stanbol.commons.owl.transformation.JenaToClerezzaConverter, 0, 0, 0, 0, 0, 0, 0, 0, 0, 0, 0, 0, 0, 0,0.0,0.0,0.0,0.0,0.0,0.0,0.0,0.0,0.0,0.0,0.0,0.0,0.0,39,commons\owl\src\main\java\org\apache\stanbol\commons\owl\transformation\JenaToClerezzaConverter.java,0,55,0,55
org.apache.stanbol.commons.owl.transformation.JenaToClerezzaConverterTest, 0, 0, 0, 0, 0, 0, 0, 0, 0, 0, 0, 0, 0, 0,0.0,0.0,0.0,0.0,0.0,0.0,0.0,0.0,0.0,0.0,0.0,0.0,0.0,62,commons\owl\src\test\java\org\apache\stanbol\commons\owl\transformation\JenaToClerezzaConverterTest.java,0,85,0,85
org.apache.stanbol.commons.owl.transformation.JenaToOwlConvert, 0, 0, 0, 0, 0, 0, 0, 0, 0, 0, 0, 0, 0, 0,0.0,0.0,0.0,0.0,0.0,0.0,0.0,0.0,0.0,0.0,0.0,0.0,0.0,450,commons\owl\src\main\java\org\apache\stanbol\commons\owl\transformation\JenaToOwlConvert.java,0,494,0,494
org.apache.stanbol.commons.owl.transformation.OWLAPIToClerezzaConverter, 0, 0, 0, 0, 0, 0, 0, 0, 0, 0, 0, 0, 0, 0,0.0,0.0,0.0,0.0,0.0,0.0,0.0,0.3333333333333333,0.0,0.0,0.0,0.0,0.0,49,commons\owl\src\main\java\org\apache\stanbol\commons\owl\transformation\OWLAPIToClerezzaConverter.java,0,77,0,77
org.apache.stanbol.commons.owl.transformation.OWLAPIToClerezzaConverterTest, 0, 0, 0, 0, 0, 0, 0, 0, 0, 0, 0, 0, 0, 0,0.0,0.0,0.0,0.0,0.0,0.0,0.0,0.0,0.0,0.0,0.0,0.0,0.0,68,commons\owl\src\test\java\org\apache\stanbol\commons\owl\transformation\OWLAPIToClerezzaConverterTest.java,0,95,0,95
org.apache.stanbol.commons.owl.util.OWL2Constants, 0, 0, 0, 0, 0, 0, 0, 0, 0, 0, 0, 0, 0, 0,0.0,0.0,0.0,0.0,0.0,0.0,0.0,0.0,0.0,0.0,0.0,0.0,0.0,4,commons\owl\src\main\java\org\apache\stanbol\commons\owl\util\OWL2Constants.java,0,5,0,5
org.apache.stanbol.commons.owl.util.OWLUtils, 0, 0, 0, 0, 0, 0, 0, 1, 0, 0, 0, 0, 0, 1,0.0,0.0,0.0,0.0,0.0,0.0,0.0,0.0,0.0,0.0,0.0,0.0,0.0,79,commons\owl\src\main\java\org\apache\stanbol\commons\owl\util\OWLUtils.java,0,97,0,97
org.apache.stanbol.commons.owl.util.TestOWLUtils, 0, 0, 0, 0, 0, 0, 0, 0, 0, 0, 0, 0, 0, 0,0.0,0.0,0.0,0.0,0.0,0.0,0.0,1.0,0.0,0.0,0.0,0.0,0.0,122,commons\owl\src\test\java\org\apache\stanbol\commons\owl\util\TestOWLUtils.java,0,144,0,144
org.apache.stanbol.commons.owl.util.TestUriUtils, 0, 0, 0, 0, 0, 0, 0, 0, 0, 0, 0, 0, 0, 0,0.0,0.0,0.0,0.0,0.0,0.0,0.0,0.0,0.0,0.0,0.0,0.0,0.0,16,commons\owl\src\test\java\org\apache\stanbol\commons\owl\util\TestUriUtils.java,0,21,0,21
org.apache.stanbol.commons.owl.util.URIUtils, 0, 0, 0, 0, 0, 0, 0, 0, 0, 0, 0, 0, 0, 0,0.0,0.0,0.0,0.0,0.0,0.0,0.0,0.0,0.0,0.0,0.0,0.0,0.0,53,commons\owl\src\main\java\org\apache\stanbol\commons\owl\util\URIUtils.java,0,57,0,57
org.apache.stanbol.commons.owl.web.OWLFragment, 0, 0, 0, 0, 0, 0, 0, 0, 0, 0, 0, 0, 0, 0,0.0,0.0,0.0,0.0,0.0,0.0,0.0,0.0,0.0,0.0,0.0,0.0,0.0,37,commons\owl\src\main\java\org\apache\stanbol\commons\owl\web\OWLFragment.java,0,54,0,54
org.apache.stanbol.commons.owl.web.OWLOntologyWriter, 0, 0, 0, 0, 0, 0, 0, 1, 0, 0, 0, 0, 0, 1,0.0,0.0,0.0,0.0,0.0,0.0,0.0,0.0,0.0,0.0,0.0,0.0,0.0,64,commons\owl\src\main\java\org\apache\stanbol\commons\owl\web\OWLOntologyWriter.java,0,118,0,118
org.apache.stanbol.commons.security.PasswordUtil, 0, 0, 0, 0, 0, 0, 0, 0, 0, 0, 0, 0, 0, 0,0.0,0.0,0.0,0.0,0.0,0.0,0.0,0.5,0.0,0.0,0.0,0.0,0.0,21,commons\security\core\src\main\java\org\apache\stanbol\commons\security\PasswordUtil.java,0,25,0,25
org.apache.stanbol.commons.security.PermissionDefinitions, 0, 0, 0, 0, 0, 0, 0, 0, 0, 0, 0, 0, 0, 0,0.0,0.0,0.0,0.0,0.0,0.0,0.0,0.0,0.0,0.0,0.0,0.0,0.0,39,commons\security\core\src\main\java\org\apache\stanbol\commons\security\PermissionDefinitions.java,0,52,0,52
org.apache.stanbol.commons.security.PermissionDefinitionsTest, 0, 0, 0, 0, 0, 0, 0, 0, 0, 0, 0, 0, 0, 0,0.0,0.0,0.0,0.0,0.0,0.0,0.0,0.0,0.0,0.0,0.0,0.0,0.0,44,commons\security\core\src\test\java\org\apache\stanbol\commons\security\PermissionDefinitionsTest.java,0,54,0,54
org.apache.stanbol.commons.security.SecurityActivator, 0, 0, 0, 0, 0, 0, 0, 0, 0, 0, 0, 0, 0, 0,0.0,0.0,0.0,0.0,0.0,0.0,0.0,0.0,0.0,0.0,0.0,0.0,0.0,28,commons\security\core\src\main\java\org\apache\stanbol\commons\security\SecurityActivator.java,0,44,0,44
org.apache.stanbol.commons.security.UserUnregisteredException, 0, 0, 0, 0, 0, 1, 0, 0, 0, 0, 0, 0, 0, 1,0.0,0.0,0.0,0.0,0.0,0.0,0.0,0.0,0.0,0.0,0.0,0.0,0.0,5,commons\security\core\src\main\java\org\apache\stanbol\commons\security\UserUnregisteredException.java,0,6,0,6
org.apache.stanbol.commons.security.UserUtil, 0, 0, 0, 0, 0, 0, 0, 0, 0, 0, 0, 0, 0, 0,0.0,0.0,0.0,0.0,0.0,0.0,0.0,0.0,0.0,0.0,0.0,0.0,0.0,44,commons\security\core\src\main\java\org\apache\stanbol\commons\security\UserUtil.java,0,55,0,55
org.apache.stanbol.commons.security.WebIdBasedPermissionProvider, 0, 0, 0, 0, 0, 0, 0, 0, 0, 0, 0, 0, 0, 0,0.0,0.0,0.0,0.0,0.0,0.0,0.0,0.0,0.0,0.0,0.0,0.0,0.0,44,commons\security\core\src\main\java\org\apache\stanbol\commons\security\WebIdBasedPermissionProvider.java,0,6,0,6
org.apache.stanbol.commons.security.auth.AuthenticationChecker, 0, 0, 0, 0, 0, 0, 0, 0, 0, 0, 0, 0, 0, 0,0.0,0.0,0.0,0.0,0.0,0.0,0.0,0.0,0.0,0.0,0.0,0.0,0.0,44,commons\security\core\src\main\java\org\apache\stanbol\commons\security\auth\AuthenticationChecker.java,0,4,0,4
org.apache.stanbol.commons.security.auth.AuthenticationCheckerImpl, 0, 0, 0, 0, 0, 0, 0, 0, 0, 0, 0, 0, 0, 0,0.0,0.0,0.0,0.0,0.0,0.0,0.0,0.0,0.0,0.0,0.0,0.0,0.0,53,commons\security\core\src\main\java\org\apache\stanbol\commons\security\auth\AuthenticationCheckerImpl.java,0,73,0,73
org.apache.stanbol.commons.security.auth.AuthenticationMethod, 0, 0, 0, 0, 0, 0, 0, 0, 0, 0, 0, 0, 0, 0,0.0,0.0,0.0,0.0,0.0,0.0,0.0,0.0,0.0,0.0,0.0,0.0,0.0,53,commons\security\core\src\main\java\org\apache\stanbol\commons\security\auth\AuthenticationMethod.java,0,12,0,12
org.apache.stanbol.commons.security.auth.AuthenticationService, 0, 0, 0, 0, 0, 0, 0, 0, 0, 0, 0, 0, 0, 0,0.0,0.0,0.0,0.0,0.0,0.5,0.0,0.0,0.0,0.0,0.0,0.0,0.0,31,commons\security\core\src\main\java\org\apache\stanbol\commons\security\auth\AuthenticationService.java,0,47,0,47
org.apache.stanbol.commons.security.auth.CheckAuthenticationPermission, 0, 0, 0, 0, 0, 0, 0, 0, 0, 0, 0, 0, 0, 0,0.0,0.0,0.0,0.0,0.0,0.0,0.0,0.0,0.0,0.0,0.0,0.0,0.0,33,commons\security\core\src\main\java\org\apache\stanbol\commons\security\auth\CheckAuthenticationPermission.java,0,35,0,35
org.apache.stanbol.commons.security.auth.LoginException, 0, 0, 0, 0, 0, 0, 0, 0, 0, 0, 0, 0, 0, 0,0.0,0.0,0.0,0.0,0.0,0.0,0.0,0.0,0.0,0.0,0.0,0.0,0.0,11,commons\security\core\src\main\java\org\apache\stanbol\commons\security\auth\LoginException.java,0,12,0,12
org.apache.stanbol.commons.security.auth.LoginListener, 0, 0, 0, 0, 0, 0, 0, 0, 0, 0, 0, 0, 0, 0,0.0,0.0,0.0,0.0,0.0,0.0,0.0,0.0,0.0,0.0,0.0,0.0,0.0,11,commons\security\core\src\main\java\org\apache\stanbol\commons\security\auth\LoginListener.java,0,4,0,4
org.apache.stanbol.commons.security.auth.NoSuchAgent, 0, 0, 0, 0, 0, 1, 0, 0, 0, 0, 0, 0, 0, 1,0.0,0.0,0.0,0.0,0.0,0.0,0.0,0.0,0.0,0.0,0.0,0.0,0.0,2,commons\security\core\src\main\java\org\apache\stanbol\commons\security\auth\NoSuchAgent.java,0,3,0,3
org.apache.stanbol.commons.security.auth.PrincipalImpl, 0, 0, 0, 0, 0, 0, 0, 0, 0, 0, 0, 0, 0, 0,0.0,0.0,0.0,0.0,0.0,0.0,0.0,0.0,0.0,0.0,0.0,0.0,0.0,21,commons\security\core\src\main\java\org\apache\stanbol\commons\security\auth\PrincipalImpl.java,0,23,0,23
org.apache.stanbol.commons.security.auth.WeightedAuthenticationMethod, 0, 0, 0, 0, 0, 0, 0, 0, 0, 0, 0, 0, 0, 0,0.0,0.0,0.0,0.0,0.0,0.0,0.0,0.0,0.0,0.0,0.0,0.0,0.0,21,commons\security\core\src\main\java\org\apache\stanbol\commons\security\auth\WeightedAuthenticationMethod.java,0,4,0,4
org.apache.stanbol.commons.security.auth.felix.WebConsoleSecurityProvider, 0, 0, 0, 0, 0, 0, 0, 0, 0, 0, 0, 0, 0, 0,0.0,0.0,0.0,0.0,0.0,0.0,0.0,0.0,0.0,0.0,0.0,0.0,0.0,16,commons\security\felixwebconsole\src\main\java\org\apache\stanbol\commons\security\auth\felix\WebConsoleSecurityProvider.java,0,26,0,26
org.apache.stanbol.commons.solr.RegisteredSolrServerTracker, 0, 0, 0, 0, 0, 0, 0, 0, 0, 0, 0, 0, 0, 0,0.0,0.0,0.0,0.0,0.0,0.0,0.0,0.0,0.0,0.0,0.0,0.0,0.0,131,commons\solr\core\src\main\java\org\apache\stanbol\commons\solr\RegisteredSolrServerTracker.java,0,150,0,150
org.apache.stanbol.commons.solr.SolrConstants, 0, 0, 0, 0, 0, 0, 0, 0, 0, 0, 0, 0, 0, 0,0.0,0.0,0.0,0.0,0.0,0.0,0.0,0.0,0.0,0.0,0.0,0.0,0.0,23,commons\solr\core\src\main\java\org\apache\stanbol\commons\solr\SolrConstants.java,0,38,0,38
org.apache.stanbol.commons.solr.install.IndexInstallerConstants, 0, 0, 0, 0, 0, 0, 0, 0, 0, 0, 0, 0, 0, 0,0.0,0.0,0.0,0.0,0.0,0.0,0.0,0.0,0.0,0.0,0.0,0.0,0.0,6,commons\solr\install\src\main\java\org\apache\stanbol\commons\solr\install\IndexInstallerConstants.java,0,8,0,8
org.apache.stanbol.commons.solr.managed.ManagedIndexConstants, 0, 0, 0, 0, 0, 0, 0, 0, 0, 0, 0, 0, 0, 0,0.0,0.0,0.0,0.0,0.0,0.0,0.0,0.0,0.0,0.0,0.0,0.0,0.0,7,commons\solr\managed\src\main\java\org\apache\stanbol\commons\solr\managed\ManagedIndexConstants.java,0,8,0,8
org.apache.stanbol.commons.solr.managed.ManagedSolrServer, 0, 0, 0, 0, 0, 0, 0, 0, 0, 0, 0, 0, 0, 0,0.0,0.0,0.0,0.0,0.0,0.0,0.0,0.0,0.0,0.0,0.0,0.0,0.0,7,commons\solr\managed\src\main\java\org\apache\stanbol\commons\solr\managed\ManagedSolrServer.java,0,35,0,35
org.apache.stanbol.commons.solr.managed.ManagedSolrServerTest, 0, 0, 0, 0, 0, 0, 0, 0, 0, 0, 0, 0, 0, 0,0.0,0.0,0.0,0.0,0.0,0.0,0.0,0.0,0.0,0.0,0.0,0.0,0.0,99,commons\solr\managed\src\test\java\org\apache\stanbol\commons\solr\managed\ManagedSolrServerTest.java,0,119,0,119
org.apache.stanbol.commons.solr.managed.impl.ReferencedSolrServer, 0, 0, 0, 0, 0, 0, 0, 0, 0, 0, 0, 0, 0, 0,0.0,0.0,0.0,0.0,0.0,0.0,0.0,0.0,0.0,0.0,0.0,0.0,0.0,75,commons\solr\managed\src\main\java\org\apache\stanbol\commons\solr\managed\impl\ReferencedSolrServer.java,0,112,0,112
org.apache.stanbol.commons.solr.managed.standalone.DefaultStandaloneManagedSolrServerWrapper, 0, 0, 0, 0, 0, 0, 0, 0, 0, 0, 0, 0, 0, 0,0.0,0.0,0.0,0.0,0.0,0.0,0.0,0.0,0.0,0.0,0.0,0.0,0.0,72,commons\solr\managed\src\main\java\org\apache\stanbol\commons\solr\managed\standalone\DefaultStandaloneManagedSolrServerWrapper.java,0,85,0,85
org.apache.stanbol.commons.solr.managed.standalone.StandaloneEmbeddedSolrServerProvider, 0, 0, 0, 0, 0, 0, 0, 0, 0, 0, 0, 0, 0, 0,0.0,0.0,0.0,0.0,0.0,0.0,0.0,0.0,0.0,0.0,0.0,0.0,0.0,43,commons\solr\managed\src\main\java\org\apache\stanbol\commons\solr\managed\standalone\StandaloneEmbeddedSolrServerProvider.java,0,75,0,75
org.apache.stanbol.commons.solr.utils.DataFileResourceLoader, 0, 0, 0, 0, 0, 0, 0, 0, 0, 0, 0, 0, 0, 0,0.0,0.0,0.0,0.0,0.0,0.0,0.0,0.0,0.0,0.0,0.0,0.0,0.0,31,commons\solr\core\src\main\java\org\apache\stanbol\commons\solr\utils\DataFileResourceLoader.java,0,49,0,49
org.apache.stanbol.commons.solr.utils.ServiceReferenceRankingComparator, 1, 0, 1, 0, 0, 0, 0, 0, 0, 0, 0, 0, 0, 2,0.0,0.0,0.0,0.0,0.0,0.0,0.0,0.0,0.0,0.0,0.0,0.0,0.0,20,commons\solr\core\src\main\java\org\apache\stanbol\commons\solr\utils\ServiceReferenceRankingComparator.java,0,24,0,24
org.apache.stanbol.commons.solr.utils.SolrUtil, 0, 0, 0, 0, 0, 0, 0, 0, 0, 0, 0, 0, 0, 0,0.0,0.0,0.0,0.0,0.0,0.0,0.0,0.0,0.0,0.0,0.0,0.0,0.0,16,commons\solr\core\src\main\java\org\apache\stanbol\commons\solr\utils\SolrUtil.java,0,18,0,18
org.apache.stanbol.commons.solr.utils.StanbolResourceLoader, 0, 0, 0, 0, 0, 0, 0, 0, 0, 0, 0, 0, 0, 0,0.0,0.0,0.0,0.0,0.0,0.0,0.0,0.0,0.0,0.0,0.0,0.0,0.0,108,commons\solr\core\src\main\java\org\apache\stanbol\commons\solr\utils\StanbolResourceLoader.java,0,127,0,127
org.apache.stanbol.commons.solr.utils.StreamQueryRequest, 0, 0, 0, 0, 0, 0, 0, 0, 0, 0, 0, 0, 0, 0,0.0,0.0,0.0,0.0,0.0,0.0,0.0,0.0,0.0,0.0,0.0,0.0,0.0,16,commons\solr\core\src\main\java\org\apache\stanbol\commons\solr\utils\StreamQueryRequest.java,0,25,0,25
org.apache.stanbol.commons.solr.web.dispatch.DelegatingSolrDispatchFilter, 0, 0, 0, 0, 0, 0, 0, 0, 0, 0, 0, 0, 0, 0,0.0,0.0,0.0,0.0,0.0,0.0,0.0,0.0,0.0,0.0,0.0,0.0,0.0,35,commons\solr\web\src\main\java\org\apache\stanbol\commons\solr\web\dispatch\DelegatingSolrDispatchFilter.java,0,31,0,31
org.apache.stanbol.commons.solr.web.dispatch.ReferencedSolrDispatchFilter, 0, 0, 0, 0, 0, 0, 0, 0, 0, 0, 0, 0, 0, 0,0.0,0.0,0.0,0.0,0.0,0.0,0.0,0.0,0.0,0.0,0.0,0.0,0.0,45,commons\solr\web\src\main\java\org\apache\stanbol\commons\solr\web\dispatch\ReferencedSolrDispatchFilter.java,0,53,0,53
org.apache.stanbol.commons.stanboltools.datafileprovider.DataFileListener, 0, 0, 0, 0, 0, 0, 0, 0, 0, 0, 0, 0, 0, 0,0.0,0.0,0.0,0.0,0.0,0.0,0.0,0.0,0.0,0.0,0.0,0.0,0.0,45,commons\stanboltools\datafileprovider\src\main\java\org\apache\stanbol\commons\stanboltools\datafileprovider\DataFileListener.java,0,6,0,6
org.apache.stanbol.commons.stanboltools.datafileprovider.bundle.BundleResourceProviderConstants, 0, 0, 0, 0, 0, 0, 0, 0, 0, 0, 0, 0, 0, 0,0.0,0.0,0.0,0.0,0.0,0.0,0.0,0.0,0.0,0.0,0.0,0.0,0.0,45,commons\stanboltools\bundledatafileprovider\src\main\java\org\apache\stanbol\commons\stanboltools\datafileprovider\bundle\BundleResourceProviderConstants.java,0,6,0,6
org.apache.stanbol.commons.stanboltools.datafileprovider.bundle.impl.Activator, 0, 0, 0, 0, 0, 0, 0, 0, 0, 0, 0, 0, 0, 0,0.0,0.0,0.0,0.0,0.0,0.0,0.0,0.0,0.0,0.0,0.0,0.0,0.0,12,commons\stanboltools\bundledatafileprovider\src\main\java\org\apache\stanbol\commons\stanboltools\datafileprovider\bundle\impl\Activator.java,0,15,0,15
org.apache.stanbol.commons.stanboltools.offline.Activator, 0, 0, 0, 0, 0, 0, 0, 0, 0, 0, 0, 0, 0, 0,0.0,0.0,0.0,0.0,0.0,0.0,0.0,0.0,0.0,0.0,0.0,0.0,0.0,28,commons\stanboltools\offline\src\main\java\org\apache\stanbol\commons\stanboltools\offline\Activator.java,0,34,0,34
org.apache.stanbol.commons.stanboltools.offline.OfflineMode, 0, 0, 0, 0, 0, 0, 0, 0, 0, 0, 0, 0, 0, 0,0.0,0.0,0.0,0.0,0.0,0.0,0.0,0.0,0.0,0.0,0.0,0.0,0.0,28,commons\stanboltools\offline\src\main\java\org\apache\stanbol\commons\stanboltools\offline\OfflineMode.java,0,3,0,3
org.apache.stanbol.commons.stanboltools.offline.OnlineMode, 0, 0, 0, 0, 0, 0, 0, 0, 0, 0, 0, 0, 0, 0,0.0,0.0,0.0,0.0,0.0,0.0,0.0,0.0,0.0,0.0,0.0,0.0,0.0,28,commons\stanboltools\offline\src\main\java\org\apache\stanbol\commons\stanboltools\offline\OnlineMode.java,0,3,0,3
org.apache.stanbol.commons.testing.http.RetryLoop, 0, 0, 0, 0, 0, 0, 0, 0, 0, 0, 0, 0, 0, 0,0.0,0.0,0.0,0.0,0.0,0.0,0.0,0.0,0.0,0.0,0.0,0.0,0.0,33,commons\testing\http\src\main\java\org\apache\stanbol\commons\testing\http\RetryLoop.java,0,36,0,36
org.apache.stanbol.commons.usermanagement.Ontology, 0, 0, 0, 0, 0, 0, 0, 0, 0, 0, 0, 0, 0, 0,0.0,0.0,0.0,0.0,0.0,0.0,0.0,0.0,0.0,0.0,0.0,0.0,0.0,4,commons\security\usermanagement\src\main\java\org\apache\stanbol\commons\usermanagement\Ontology.java,0,15,0,15
org.apache.stanbol.commons.usermanagement.WebConsolePlugin, 0, 0, 0, 0, 0, 0, 0, 0, 0, 0, 0, 0, 0, 0,0.0,0.0,0.0,0.0,0.0,0.0,0.0,0.5,0.0,0.0,0.0,0.0,0.0,41,commons\security\usermanagement\src\main\java\org\apache\stanbol\commons\usermanagement\WebConsolePlugin.java,0,64,0,64
org.apache.stanbol.commons.usermanagement.resource.UserResource, 0, 0, 0, 0, 0, 0, 0, 1, 0, 0, 0, 0, 0, 1,0.0,0.0,0.0,0.0,0.0,0.0,0.0,0.0,0.0,0.0,0.0,0.0,0.0,101,commons\security\usermanagement\src\main\java\org\apache\stanbol\commons\usermanagement\resource\UserResource.java,0,788,0,788
org.apache.stanbol.commons.usermanagement.webfragment.UserManagementWebFragment, 0, 0, 0, 0, 0, 0, 0, 0, 0, 0, 0, 0, 0, 0,0.0,0.0,0.0,0.0,0.0,0.0,0.0,1.0,0.0,0.0,0.0,0.0,0.0,40,security\usermanagement\src\main\java\org\apache\stanbol\commons\usermanagement\webfragment\UserManagementWebFragment.java,58,0,0,58
org.apache.stanbol.commons.viewable.RdfViewable, 0, 0, 0, 0, 0, 0, 0, 0, 0, 0, 0, 0, 0, 0,0.0,0.0,0.0,0.0,0.0,0.0,0.0,1.0,0.0,0.0,0.0,0.0,0.0,23,commons\web\viewable\src\main\java\org\apache\stanbol\commons\viewable\RdfViewable.java,0,10,0,10
org.apache.stanbol.commons.viewable.Viewable, 0, 0, 0, 0, 0, 0, 0, 0, 0, 0, 0, 0, 0, 0,0.0,0.0,0.0,0.0,0.0,0.0,0.0,0.5,0.0,0.0,0.0,0.0,0.0,22,commons\web\viewable\src\main\java\org\apache\stanbol\commons\viewable\Viewable.java,0,10,0,10
org.apache.stanbol.commons.viewable.mbw.LdViewableWriter, 0, 0, 0, 0, 0, 0, 0, 1, 0, 0, 0, 0, 0, 1,0.0,0.0,0.0,0.0,0.0,0.0,0.0,0.0,0.0,0.0,0.0,0.0,0.0,24,web\viewable\src\main\java\org\apache\stanbol\commons\viewable\mbw\LdViewableWriter.java,46,0,0,46
org.apache.stanbol.commons.viewable.mbw.ViewableWriter, 0, 0, 0, 0, 0, 0, 0, 1, 0, 0, 0, 0, 0, 1,0.0,0.0,0.0,0.0,0.0,0.0,0.0,0.0,0.0,0.0,0.0,0.0,0.0,33,web\viewable\src\main\java\org\apache\stanbol\commons\viewable\mbw\ViewableWriter.java,55,0,0,55
org.apache.stanbol.commons.viewable.webfragment.LdViewableWebFragment, 0, 0, 0, 0, 0, 0, 0, 0, 0, 0, 0, 0, 0, 0,0.0,0.0,0.0,0.0,0.0,0.0,0.0,1.0,0.0,0.0,0.0,0.0,0.0,43,web\viewable\src\main\java\org\apache\stanbol\commons\viewable\webfragment\LdViewableWebFragment.java,62,0,0,62
org.apache.stanbol.commons.web.base.ContextHelper, 0, 0, 0, 0, 0, 0, 0, 0, 0, 0, 0, 0, 0, 0,0.0,0.0,0.0,0.0,0.0,0.0,0.0,1.0,0.0,0.0,0.0,0.0,0.0,15,commons\web\base\src\main\java\org\apache\stanbol\commons\web\base\ContextHelper.java,0,19,0,19
org.apache.stanbol.commons.web.base.CorsConstants, 0, 0, 0, 0, 0, 0, 0, 0, 0, 0, 0, 0, 0, 0,0.0,0.0,0.0,0.0,0.0,0.0,0.0,0.0,0.0,0.0,0.0,0.0,0.0,4,commons\web\base\src\main\java\org\apache\stanbol\commons\web\base\CorsConstants.java,0,5,0,5
org.apache.stanbol.commons.web.base.DefaultApplication, 0, 0, 0, 0, 0, 0, 0, 0, 0, 0, 0, 0, 0, 0,0.0,0.0,0.0,0.0,0.0,0.0,0.0,0.0,0.0,0.0,0.0,0.0,0.0,35,commons\web\base\src\main\java\org\apache\stanbol\commons\web\base\DefaultApplication.java,0,38,0,38
org.apache.stanbol.commons.web.base.LinkResource, 0, 0, 0, 0, 0, 0, 0, 0, 0, 0, 0, 0, 0, 0,0.0,0.0,0.0,0.0,0.0,0.0,0.0,0.0,0.0,0.0,0.0,0.0,0.0,25,commons\web\base\src\main\java\org\apache\stanbol\commons\web\base\LinkResource.java,0,26,0,26
org.apache.stanbol.commons.web.base.NavigationLink, 0, 0, 0, 0, 0, 0, 0, 0, 0, 0, 0, 0, 0, 0,0.0,0.0,0.0,0.0,0.0,0.0,0.0,0.0,0.0,0.0,0.0,0.0,0.0,37,commons\web\base\src\main\java\org\apache\stanbol\commons\web\base\NavigationLink.java,0,64,0,64
org.apache.stanbol.commons.web.base.ScriptResource, 0, 0, 0, 0, 0, 0, 0, 0, 0, 0, 0, 0, 0, 0,0.0,0.0,0.0,0.0,0.0,0.0,0.0,0.0,0.0,0.0,0.0,0.0,0.0,25,commons\web\base\src\main\java\org\apache\stanbol\commons\web\base\ScriptResource.java,0,26,0,26
org.apache.stanbol.commons.web.base.WebFragment, 0, 0, 0, 0, 0, 0, 0, 0, 0, 0, 0, 0, 0, 0,0.0,0.0,0.0,0.0,0.0,0.0,0.0,0.0,0.0,0.0,0.0,0.0,0.0,25,commons\web\base\src\main\java\org\apache\stanbol\commons\web\base\WebFragment.java,0,11,0,11
org.apache.stanbol.commons.web.base.format.KRFormat, 0, 0, 0, 0, 0, 0, 0, 0, 0, 0, 0, 0, 0, 0,0.0,0.0,0.0,0.0,0.0,0.0,0.0,0.0,0.0,0.0,0.0,0.0,0.0,20,commons\web\base\src\main\java\org\apache\stanbol\commons\web\base\format\KRFormat.java,0,22,0,22
org.apache.stanbol.commons.web.base.readers.GraphReader, 0, 0, 0, 0, 0, 0, 0, 1, 0, 0, 0, 0, 0, 1,0.0,0.0,0.0,0.0,0.0,0.0,0.0,0.0,0.0,0.0,0.0,0.0,0.0,38,commons\web\base\src\main\java\org\apache\stanbol\commons\web\base\readers\GraphReader.java,0,64,0,64
org.apache.stanbol.commons.web.base.resource.BaseStanbolResource, 0, 0, 0, 0, 0, 0, 0, 0, 0, 0, 0, 0, 0, 0,0.0,0.0,0.0,0.0,0.0,0.0,0.0,0.0,0.0,0.0,0.0,0.0,0.0,90,commons\web\base\src\main\java\org\apache\stanbol\commons\web\base\resource\BaseStanbolResource.java,0,111,0,111
org.apache.stanbol.commons.web.base.utils.MediaTypeUtil, 0, 0, 0, 0, 0, 0, 0, 0, 0, 0, 0, 0, 0, 0,0.0,0.0,0.0,0.0,0.0,0.0,0.0,0.0,0.0,0.0,0.0,0.0,0.0,60,commons\web\base\src\main\java\org\apache\stanbol\commons\web\base\utils\MediaTypeUtil.java,0,77,0,77
org.apache.stanbol.commons.web.base.writers.GraphWriter, 0, 0, 0, 0, 0, 0, 0, 1, 0, 0, 0, 0, 0, 1,0.0,0.0,0.0,0.0,0.0,0.0,0.0,0.0,0.0,0.0,0.0,0.0,0.0,52,commons\web\base\src\main\java\org\apache\stanbol\commons\web\base\writers\GraphWriter.java,0,82,0,82
org.apache.stanbol.commons.web.base.writers.JenaModelWriter, 0, 0, 0, 0, 0, 0, 0, 1, 0, 0, 0, 0, 0, 1,0.0,0.0,0.0,0.0,0.0,0.0,0.0,0.0,0.0,0.0,0.0,0.0,0.0,43,commons\web\base\src\main\java\org\apache\stanbol\commons\web\base\writers\JenaModelWriter.java,0,66,0,66
org.apache.stanbol.commons.web.base.writers.ResultSetToXml, 0, 0, 0, 0, 0, 0, 0, 0, 0, 0, 0, 0, 0, 0,0.0,0.0,0.0,0.0,0.0,0.0,0.0,1.0,0.0,0.0,0.0,0.0,0.0,68,commons\web\base\src\main\java\org\apache\stanbol\commons\web\base\writers\ResultSetToXml.java,0,83,0,83
org.apache.stanbol.commons.web.base.writers.ResultSetWriter, 0, 0, 0, 0, 0, 0, 0, 1, 0, 0, 0, 0, 0, 1,0.0,0.0,0.0,0.0,0.0,0.0,0.0,0.0,0.0,0.0,0.0,0.0,0.0,46,commons\web\base\src\main\java\org\apache\stanbol\commons\web\base\writers\ResultSetWriter.java,0,78,0,78
org.apache.stanbol.commons.web.home.HomeWebFragment, 0, 0, 0, 0, 0, 0, 0, 0, 0, 0, 0, 0, 0, 0,0.0,0.0,0.0,0.0,0.0,0.0,0.0,0.0,0.0,0.0,0.0,0.0,0.0,39,commons\web\home\src\main\java\org\apache\stanbol\commons\web\home\HomeWebFragment.java,0,59,0,59
org.apache.stanbol.commons.web.home.resource.StanbolRootResource, 0, 0, 0, 0, 0, 0, 0, 0, 0, 0, 0, 0, 0, 0,0.0,0.0,0.0,0.0,0.0,0.0,0.0,0.0,0.0,0.0,0.0,0.0,0.0,7,commons\web\home\src\main\java\org\apache\stanbol\commons\web\home\resource\StanbolRootResource.java,0,16,0,16
org.apache.stanbol.commons.web.sparql.SparqlEndpointWebFragment, 0, 0, 0, 0, 0, 0, 0, 0, 0, 0, 0, 0, 0, 0,0.0,0.0,0.0,0.0,0.0,0.0,0.0,0.0,0.0,0.0,0.0,0.0,0.0,36,commons\web\sparql\src\main\java\org\apache\stanbol\commons\web\sparql\SparqlEndpointWebFragment.java,0,60,0,60
org.apache.stanbol.reasoners.jobs.TestJobManagerImpl, 0, 0, 0, 0, 0, 0, 0, 0, 0, 0, 0, 0, 0, 0,0.0,0.0,0.0,0.0,0.0,0.0,0.0,0.0,0.0,0.0,0.0,0.0,0.0,137,commons\jobs\api\src\test\java\org\apache\stanbol\reasoners\jobs\TestJobManagerImpl.java,0,155,0,155
,0.0,0.0,0.0,0.0,0.0,0.0,0.0,0.0,0.0,0.0,0.0,0.0,0.0,137,caslight\src\main\java\org\apache\stanbol\commons\caslight\Feature.java,31,0,0,31
