ClassName,AntiSingleton,Blob,ClassDataShouldBePrivate,ComplexClass,LargeClass,LazyClass,LongMethod,LongParameterList,MessageChains,RefusedParentBequest,SpaghettiCode,SpeculativeGenerality,SwissArmyKnife,NumOfAPs,AntiSingleton,Blob,ClassDataShouldBePrivate,ComplexClass,LargeClass,LazyClass,LongMethod,LongParameterList,MessageChains,RefusedParentBequest,SpaghettiCode,SpeculativeGenerality,SwissArmyKnife,LOC,name,deleted,added,changed,all
$.CustomUserService, 0, 0, 0, 0, 0, 0, 0, 1, 0, 0, 0, 0, 0, 1,0.0,0.0,0.0,0.0,0.0,0.0,0.0,0.0,0.0,0.0,0.0,0.0,0.0,null,null
$.CustomUserServiceTest, 0, 0, 0, 0, 0, 0, 0, 0, 0, 0, 0, 0, 0, 0,0.0,0.0,0.0,0.0,0.0,0.0,0.0,0.0,0.0,0.0,0.0,0.0,0.0,null,null
org.apache.rave.exception.DataSerializationException, 0, 0, 0, 0, 0, 0, 0, 0, 0, 0, 0, 0, 0, 0,0.0,0.0,0.0,0.0,0.0,0.0,0.0,0.0,0.0,0.0,0.0,0.0,0.0,13,rave-components\rave-commons\src\main\java\org\apache\rave\exception\DataSerializationException.java,0,0,0,0
org.apache.rave.exception.DuplicateItemException, 0, 0, 0, 0, 0, 0, 0, 0, 0, 0, 0, 0, 0, 0,0.0,0.0,0.0,0.0,0.0,0.0,0.0,0.0,0.0,0.0,0.0,0.0,0.0,8,rave-components\rave-commons\src\main\java\org\apache\rave\exception\DuplicateItemException.java,0,0,0,0
org.apache.rave.exception.DuplicateItemExceptionTest, 0, 0, 0, 0, 0, 0, 0, 0, 0, 0, 0, 0, 0, 0,0.0,0.0,0.0,0.0,0.0,0.0,0.0,0.0,0.0,0.0,0.0,0.0,0.0,21,rave-components\rave-commons\src\test\java\org\apache\rave\exception\DuplicateItemExceptionTest.java,0,0,0,0
org.apache.rave.exception.EmailException, 0, 0, 0, 0, 0, 0, 0, 0, 0, 0, 0, 0, 0, 0,0.0,0.0,0.0,0.0,0.0,0.0,0.0,0.0,0.0,0.0,0.0,0.0,0.0,14,rave-components\rave-commons\src\main\java\org\apache\rave\exception\EmailException.java,0,0,0,0
org.apache.rave.exception.NotSupportedException, 0, 0, 0, 0, 0, 0, 0, 0, 0, 0, 0, 0, 0, 0,0.0,0.0,0.0,0.0,0.0,0.0,0.0,0.0,0.0,0.0,0.0,0.0,0.0,13,rave-components\rave-commons\src\main\java\org\apache\rave\exception\NotSupportedException.java,0,0,0,0
org.apache.rave.exception.NotSupportedExceptionTest, 0, 0, 0, 0, 0, 0, 0, 0, 0, 0, 0, 0, 0, 0,0.0,0.0,0.0,0.0,0.0,0.0,0.0,0.0,0.0,0.0,0.0,0.0,0.0,39,rave-components\rave-commons\src\test\java\org\apache\rave\exception\NotSupportedExceptionTest.java,0,0,0,0
org.apache.rave.exception.ResourceNotFoundException, 0, 0, 0, 0, 0, 0, 0, 0, 0, 0, 0, 0, 0, 0,0.0,0.0,0.0,0.0,0.0,0.0,0.0,0.0,0.0,0.0,0.0,0.0,0.0,13,rave-components\rave-commons\src\main\java\org\apache\rave\exception\ResourceNotFoundException.java,0,0,0,0
org.apache.rave.gadgets.oauth.inject.DefaultOAuthStore, 0, 0, 0, 0, 0, 0, 0, 1, 0, 0, 0, 0, 0, 1,0.0,0.0,0.0,0.5,0.0,0.0,0.0,0.5,0.0,0.0,0.0,0.0,0.0,86,rave-providers\rave-opensocial-provider\rave-opensocial-core\src\main\java\org\apache\rave\gadgets\oauth\inject\DefaultOAuthStore.java,0,0,0,0
org.apache.rave.gadgets.oauth.inject.DefaultOAuthStoreTest, 0, 0, 0, 0, 0, 0, 0, 0, 0, 0, 0, 0, 0, 0,0.0,0.0,0.0,0.5,0.0,0.0,0.0,1.0,0.0,0.0,0.0,0.0,0.0,67,rave-providers\rave-opensocial-provider\rave-opensocial-core\src\test\java\org\apache\rave\gadgets\oauth\inject\DefaultOAuthStoreTest.java,0,0,0,0
org.apache.rave.gadgets.oauth.inject.OAuthGuiceModule, 0, 0, 0, 0, 0, 0, 0, 0, 0, 0, 0, 0, 0, 0,0.0,0.0,0.0,0.0,0.0,0.0,0.0,0.0,0.0,0.0,0.0,0.0,0.0,11,rave-providers\rave-opensocial-provider\rave-opensocial-core\src\main\java\org\apache\rave\gadgets\oauth\inject\OAuthGuiceModule.java,0,0,0,0
org.apache.rave.gadgets.oauth.service.DefaultOAuthConsumerStoreServiceTest, 0, 0, 0, 0, 0, 0, 0, 0, 0, 0, 0, 0, 0, 0,0.0,0.0,0.0,0.0,0.0,0.0,0.0,0.0,0.0,0.0,0.0,0.0,0.0,39,rave-providers\rave-opensocial-provider\rave-opensocial-core\src\test\java\org\apache\rave\gadgets\oauth\service\DefaultOAuthConsumerStoreServiceTest.java,4,4,0,8
org.apache.rave.gadgets.oauth.service.DefaultOAuthTokenInfoServiceTest, 0, 0, 0, 0, 0, 0, 0, 0, 0, 0, 0, 0, 0, 0,0.0,0.0,0.0,0.5,0.0,0.0,0.0,1.0,0.0,0.0,0.0,0.0,0.0,61,rave-providers\rave-opensocial-provider\rave-opensocial-core\src\test\java\org\apache\rave\gadgets\oauth\service\DefaultOAuthTokenInfoServiceTest.java,1,5,2,10
org.apache.rave.gadgets.oauth.service.OAuthConsumerStoreService, 0, 0, 0, 0, 0, 0, 0, 0, 0, 0, 0, 0, 0, 0,0.0,0.0,0.0,0.0,0.0,0.0,0.0,0.0,0.0,0.0,0.0,0.0,0.0,61,rave-providers\rave-opensocial-provider\rave-opensocial-core\src\main\java\org\apache\rave\gadgets\oauth\service\OAuthConsumerStoreService.java,0,0,0,0
org.apache.rave.gadgets.oauth.service.OAuthTokenInfoService, 0, 0, 0, 0, 0, 0, 0, 0, 0, 0, 0, 0, 0, 0,0.0,0.0,0.0,0.0,0.0,0.0,0.0,0.0,0.0,0.0,0.0,0.0,0.0,61,rave-providers\rave-opensocial-provider\rave-opensocial-core\src\main\java\org\apache\rave\gadgets\oauth\service\OAuthTokenInfoService.java,0,0,0,0
org.apache.rave.gadgets.oauth.service.impl.DefaultOAuthConsumerStoreService, 0, 0, 0, 0, 0, 0, 0, 0, 0, 0, 0, 0, 0, 0,0.0,0.0,0.0,0.0,0.0,0.0,0.0,0.0,0.0,0.0,0.0,0.0,0.0,19,rave-providers\rave-opensocial-provider\rave-opensocial-core\src\main\java\org\apache\rave\gadgets\oauth\service\impl\DefaultOAuthConsumerStoreService.java,0,0,0,0
org.apache.rave.gadgets.oauth.service.impl.DefaultOAuthTokenInfoService, 0, 0, 0, 0, 0, 0, 0, 1, 0, 0, 0, 0, 0, 1,0.0,0.0,0.0,0.0,0.0,0.0,0.0,0.0,0.0,0.0,0.0,0.0,0.0,26,rave-providers\rave-opensocial-provider\rave-opensocial-core\src\main\java\org\apache\rave\gadgets\oauth\service\impl\DefaultOAuthTokenInfoService.java,0,0,0,0
org.apache.rave.inject.GuiceBindingSpringContextLoaderListener, 0, 0, 0, 0, 0, 0, 0, 0, 0, 0, 0, 0, 0, 0,0.0,0.0,0.0,0.0,0.0,0.0,0.0,0.0,0.0,0.0,0.0,0.0,0.0,26,rave-providers\rave-opensocial-provider\rave-opensocial-core\src\main\java\org\apache\rave\inject\GuiceBindingSpringContextLoaderListener.java,0,0,0,0
org.apache.rave.inject.GuiceBindingSpringContextLoaderListenerTest, 0, 0, 0, 0, 0, 0, 0, 0, 0, 0, 0, 0, 0, 0,0.0,0.0,0.0,0.0,0.0,0.0,0.0,0.0,0.0,0.0,0.0,0.0,0.0,16,rave-providers\rave-opensocial-provider\rave-opensocial-core\src\test\java\org\apache\rave\inject\GuiceBindingSpringContextLoaderListenerTest.java,0,0,0,0
org.apache.rave.inject.SpringBindingModuleTest, 0, 0, 0, 0, 0, 0, 0, 0, 0, 0, 0, 0, 0, 0,0.0,0.0,0.0,0.0,0.0,0.0,0.0,0.0,0.0,0.0,0.0,0.0,0.0,39,rave-providers\rave-opensocial-provider\rave-opensocial-core\src\test\java\org\apache\rave\inject\SpringBindingModuleTest.java,0,0,0,0
org.apache.rave.integrationtests.pages.Portal, 0, 0, 0, 0, 0, 0, 0, 0, 0, 0, 0, 0, 0, 0,0.0,0.0,0.0,0.0,0.0,0.0,0.0,0.0,0.0,0.0,0.0,0.0,0.0,63,rave-integration-tests\rave-core-tests\src\main\java\org\apache\rave\integrationtests\pages\Portal.java,0,0,0,0
org.apache.rave.integrationtests.steps.CategoryAdminSteps, 0, 0, 0, 0, 0, 0, 0, 0, 0, 0, 0, 0, 0, 0,0.0,0.0,0.0,0.0,0.0,0.0,0.0,0.0,0.0,0.0,0.0,0.0,0.0,83,rave-integration-tests\rave-admin-tests\src\main\java\org\apache\rave\integrationtests\steps\CategoryAdminSteps.java,2,1,2,7
org.apache.rave.integrationtests.steps.CommonSteps, 0, 0, 0, 0, 0, 0, 0, 0, 0, 0, 0, 0, 0, 0,0.0,0.0,0.0,0.0,0.0,0.0,0.0,0.0,0.0,0.0,0.0,0.0,0.0,45,rave-integration-tests\rave-admin-tests\src\main\java\org\apache\rave\integrationtests\steps\CommonSteps.java,0,0,6,12
org.apache.rave.integrationtests.steps.DefaultAccountSteps, 0, 0, 0, 0, 0, 0, 0, 0, 0, 0, 0, 0, 0, 0,0.0,0.0,0.0,0.0,0.0,0.0,0.0,0.0,0.0,0.0,0.0,0.0,0.0,45,rave-integration-tests\rave-default-account-tests\src\main\java\org\apache\rave\integrationtests\steps\DefaultAccountSteps.java,0,0,4,8
org.apache.rave.integrationtests.steps.LifecycleSteps, 0, 0, 0, 0, 0, 1, 0, 0, 0, 0, 0, 0, 0, 1,0.0,0.0,0.0,0.0,0.0,0.0,0.0,0.0,0.0,0.0,0.0,0.0,0.0,5,rave-integration-tests\rave-core-tests\src\main\java\org\apache\rave\integrationtests\steps\LifecycleSteps.java,0,0,0,0
org.apache.rave.integrationtests.steps.NewUserSteps, 0, 0, 0, 0, 0, 0, 0, 0, 0, 0, 0, 0, 0, 0,0.0,0.0,0.0,0.0,0.0,0.0,0.0,0.0,0.0,0.0,0.0,0.0,0.0,50,rave-integration-tests\rave-newuser-tests\src\main\java\org\apache\rave\integrationtests\steps\NewUserSteps.java,1,1,2,6
org.apache.rave.integrationtests.steps.PageOperationsSteps, 0, 0, 0, 0, 0, 0, 0, 0, 0, 0, 0, 0, 0, 0,0.0,0.0,0.0,0.0,0.0,0.0,0.0,0.0,0.0,0.0,0.0,0.0,0.0,57,rave-integration-tests\rave-default-account-tests\src\main\java\org\apache\rave\integrationtests\steps\PageOperationsSteps.java,0,0,0,0
org.apache.rave.integrationtests.steps.ProfileSteps, 0, 0, 0, 0, 0, 0, 0, 0, 0, 0, 0, 0, 0, 0,0.0,0.0,0.0,0.0,0.0,0.0,0.0,0.0,0.0,0.0,0.0,0.0,0.0,52,rave-integration-tests\rave-default-account-tests\src\main\java\org\apache\rave\integrationtests\steps\ProfileSteps.java,0,0,0,0
org.apache.rave.integrationtests.steps.UserAdminSteps, 0, 0, 0, 0, 0, 0, 0, 0, 0, 0, 0, 0, 0, 0,0.0,0.0,0.0,0.0,0.0,0.0,0.0,0.0,0.0,0.0,0.0,0.0,0.0,40,rave-integration-tests\rave-admin-tests\src\main\java\org\apache\rave\integrationtests\steps\UserAdminSteps.java,0,0,0,0
org.apache.rave.integrationtests.stories.AdminStories, 0, 0, 0, 0, 0, 0, 0, 0, 0, 0, 0, 0, 0, 0,0.0,0.0,0.0,0.0,0.0,0.0,0.0,0.0,0.0,0.0,0.0,0.0,0.0,11,rave-integration-tests\rave-admin-tests\src\main\java\org\apache\rave\integrationtests\stories\AdminStories.java,0,0,0,0
org.apache.rave.integrationtests.stories.DefaultAccountStories, 0, 0, 0, 0, 0, 0, 0, 0, 0, 0, 0, 0, 0, 0,0.0,0.0,0.0,0.0,0.0,0.0,0.0,0.0,0.0,0.0,0.0,0.0,0.0,6,rave-integration-tests\rave-default-account-tests\src\main\java\org\apache\rave\integrationtests\stories\DefaultAccountStories.java,0,0,0,0
org.apache.rave.integrationtests.stories.NewUserStories, 0, 0, 0, 0, 0, 0, 0, 0, 0, 0, 0, 0, 0, 0,0.0,0.0,0.0,0.0,0.0,0.0,0.0,0.0,0.0,0.0,0.0,0.0,0.0,6,rave-integration-tests\rave-newuser-tests\src\main\java\org\apache\rave\integrationtests\stories\NewUserStories.java,0,0,0,0
org.apache.rave.integrationtests.stories.PortalStories, 0, 0, 0, 0, 0, 0, 0, 0, 0, 0, 0, 0, 0, 0,0.0,0.0,0.0,0.0,0.0,0.0,0.0,0.0,0.0,0.0,0.0,0.0,0.0,23,rave-integration-tests\rave-core-tests\src\main\java\org\apache\rave\integrationtests\stories\PortalStories.java,0,0,0,0
org.apache.rave.jdbc.util.DataSourcePopulator, 0, 0, 0, 0, 0, 0, 0, 0, 0, 0, 0, 0, 0, 0,0.0,0.0,0.0,0.0,0.0,0.0,0.0,0.0,0.0,0.0,0.0,0.0,0.0,82,rave-components\rave-commons\src\main\java\org\apache\rave\jdbc\util\DataSourcePopulator.java,0,0,0,0
org.apache.rave.jdbc.util.DataSourcePopulatorTest, 0, 0, 0, 0, 0, 0, 0, 0, 0, 0, 0, 0, 0, 0,0.0,0.0,0.0,0.0,0.0,0.0,0.0,0.0,0.0,0.0,0.0,0.0,0.0,123,rave-components\rave-commons\src\test\java\org\apache\rave\jdbc\util\DataSourcePopulatorTest.java,0,0,0,0
org.apache.rave.model.ActivityStreamsEntry, 0, 0, 0, 0, 0, 0, 0, 0, 0, 0, 0, 0, 0, 0,0.0,0.0,0.0,0.0,0.0,0.0,0.0,0.0,0.0,0.0,0.0,0.0,0.0,123,rave-components\rave-core-api\src\main\java\org\apache\rave\model\ActivityStreamsEntry.java,0,0,0,0
org.apache.rave.model.ActivityStreamsObject, 0, 0, 0, 0, 0, 0, 0, 0, 0, 0, 0, 0, 0, 0,0.0,0.0,0.0,0.0,0.0,0.0,0.0,0.0,0.0,0.0,0.0,0.0,0.0,123,rave-components\rave-core-api\src\main\java\org\apache\rave\model\ActivityStreamsObject.java,0,0,0,0
org.apache.rave.model.Address, 0, 0, 0, 0, 0, 0, 0, 0, 0, 0, 0, 0, 0, 0,0.0,0.0,0.0,0.0,0.0,0.0,0.0,0.0,0.0,0.0,0.0,0.0,0.0,123,rave-components\rave-core-api\src\main\java\org\apache\rave\model\Address.java,0,0,0,0
org.apache.rave.model.Authority, 0, 0, 0, 0, 0, 0, 0, 0, 0, 0, 0, 0, 0, 0,0.0,0.0,0.0,0.0,0.0,0.0,0.0,0.0,0.0,0.0,0.0,0.0,0.0,123,rave-components\rave-core-api\src\main\java\org\apache\rave\model\Authority.java,0,0,0,0
org.apache.rave.model.Category, 0, 0, 0, 0, 0, 0, 0, 0, 0, 0, 0, 0, 0, 0,0.0,0.0,0.0,0.0,0.0,0.0,0.0,0.0,0.0,0.0,0.0,0.0,0.0,123,rave-components\rave-core-api\src\main\java\org\apache\rave\model\Category.java,0,0,0,0
org.apache.rave.model.FriendRequest, 0, 0, 0, 0, 0, 0, 0, 0, 0, 0, 0, 0, 0, 0,0.0,0.0,0.0,0.0,0.0,0.0,0.0,0.0,0.0,0.0,0.0,0.0,0.0,123,rave-components\rave-core-api\src\main\java\org\apache\rave\model\FriendRequest.java,0,0,0,0
org.apache.rave.model.Group, 0, 0, 0, 0, 0, 0, 0, 0, 0, 0, 0, 0, 0, 0,0.0,0.0,0.0,0.0,0.0,0.0,0.0,0.0,0.0,0.0,0.0,0.0,0.0,123,rave-components\rave-core-api\src\main\java\org\apache\rave\model\Group.java,0,0,0,0
org.apache.rave.model.ModelConverter, 0, 0, 0, 0, 0, 0, 0, 0, 0, 0, 0, 0, 0, 0,0.0,0.0,0.0,0.0,0.0,0.0,0.0,0.0,0.0,0.0,0.0,0.0,0.0,123,rave-components\rave-commons\src\main\java\org\apache\rave\model\ModelConverter.java,0,0,0,0
org.apache.rave.model.OAuthConsumerStore, 0, 0, 0, 0, 0, 0, 0, 0, 0, 0, 0, 0, 0, 0,0.0,0.0,0.0,0.0,0.0,0.0,0.0,0.0,0.0,0.0,0.0,0.0,0.0,123,rave-components\rave-core-api\src\main\java\org\apache\rave\model\OAuthConsumerStore.java,0,0,0,0
org.apache.rave.model.OAuthTokenInfo, 0, 0, 0, 0, 0, 0, 0, 0, 0, 0, 0, 0, 0, 0,0.0,0.0,0.0,0.0,0.0,0.0,0.0,0.0,0.0,0.0,0.0,0.0,0.0,123,rave-components\rave-core-api\src\main\java\org\apache\rave\model\OAuthTokenInfo.java,0,0,0,0
org.apache.rave.model.Organization, 0, 0, 0, 0, 0, 0, 0, 0, 0, 0, 0, 0, 0, 0,0.0,0.0,0.0,0.0,0.0,0.0,0.0,0.0,0.0,0.0,0.0,0.0,0.0,123,rave-components\rave-core-api\src\main\java\org\apache\rave\model\Organization.java,0,0,0,0
org.apache.rave.model.Page, 0, 0, 0, 0, 0, 0, 0, 0, 0, 0, 0, 0, 0, 0,0.0,0.0,0.0,0.0,0.0,0.0,0.0,0.0,0.0,0.0,0.0,0.0,0.0,123,rave-components\rave-core-api\src\main\java\org\apache\rave\model\Page.java,0,5,2,9
org.apache.rave.model.PageLayout, 0, 0, 0, 0, 0, 0, 0, 0, 0, 0, 0, 0, 0, 0,0.0,0.0,0.0,0.0,0.0,0.0,0.0,0.0,0.0,0.0,0.0,0.0,0.0,123,rave-components\rave-core-api\src\main\java\org\apache\rave\model\PageLayout.java,0,0,0,0
org.apache.rave.model.PageTemplate, 0, 0, 0, 0, 0, 0, 0, 0, 0, 0, 0, 0, 0, 0,0.0,0.0,0.0,0.0,0.0,0.0,0.0,0.0,0.0,0.0,0.0,0.0,0.0,123,rave-components\rave-core-api\src\main\java\org\apache\rave\model\PageTemplate.java,0,0,2,4
org.apache.rave.model.PageTemplateRegion, 0, 0, 0, 0, 0, 0, 0, 0, 0, 0, 0, 0, 0, 0,0.0,0.0,0.0,0.0,0.0,0.0,0.0,0.0,0.0,0.0,0.0,0.0,0.0,123,rave-components\rave-core-api\src\main\java\org\apache\rave\model\PageTemplateRegion.java,0,0,0,0
org.apache.rave.model.PageTemplateWidget, 0, 0, 0, 0, 0, 0, 0, 0, 0, 0, 0, 0, 0, 0,0.0,0.0,0.0,0.0,0.0,0.0,0.0,0.0,0.0,0.0,0.0,0.0,0.0,123,rave-components\rave-core-api\src\main\java\org\apache\rave\model\PageTemplateWidget.java,0,0,0,0
org.apache.rave.model.PageUser, 0, 0, 0, 0, 0, 0, 0, 0, 0, 0, 0, 0, 0, 0,0.0,0.0,0.0,0.0,0.0,0.0,0.0,0.0,0.0,0.0,0.0,0.0,0.0,123,rave-components\rave-core-api\src\main\java\org\apache\rave\model\PageUser.java,0,0,0,0
org.apache.rave.model.Person, 0, 0, 0, 0, 0, 0, 0, 0, 0, 0, 0, 0, 0, 0,0.0,0.0,0.0,0.0,0.0,0.0,0.0,0.0,0.0,0.0,0.0,0.0,0.0,123,rave-components\rave-core-api\src\main\java\org\apache\rave\model\Person.java,0,0,0,0
org.apache.rave.model.PersonProperty, 0, 0, 0, 0, 0, 0, 0, 0, 0, 0, 0, 0, 0, 0,0.0,0.0,0.0,0.0,0.0,0.0,0.0,0.0,0.0,0.0,0.0,0.0,0.0,123,rave-components\rave-core-api\src\main\java\org\apache\rave\model\PersonProperty.java,0,0,0,0
org.apache.rave.model.PortalPreference, 0, 0, 0, 0, 0, 0, 0, 0, 0, 0, 0, 0, 0, 0,0.0,0.0,0.0,0.0,0.0,0.0,0.0,0.0,0.0,0.0,0.0,0.0,0.0,123,rave-components\rave-core-api\src\main\java\org\apache\rave\model\PortalPreference.java,0,0,0,0
org.apache.rave.model.Region, 0, 0, 0, 0, 0, 0, 0, 0, 0, 0, 0, 0, 0, 0,0.0,0.0,0.0,0.0,0.0,0.0,0.0,0.0,0.0,0.0,0.0,0.0,0.0,123,rave-components\rave-core-api\src\main\java\org\apache\rave\model\Region.java,0,0,0,0
org.apache.rave.model.RegionWidget, 0, 0, 0, 0, 0, 0, 0, 0, 0, 0, 0, 0, 0, 0,0.0,0.0,0.0,0.0,0.0,0.0,0.0,0.0,0.0,0.0,0.0,0.0,0.0,123,rave-components\rave-core-api\src\main\java\org\apache\rave\model\RegionWidget.java,0,0,0,0
org.apache.rave.model.RegionWidgetPreference, 0, 0, 0, 0, 0, 0, 0, 0, 0, 0, 0, 0, 0, 0,0.0,0.0,0.0,0.0,0.0,0.0,0.0,0.0,0.0,0.0,0.0,0.0,0.0,123,rave-components\rave-core-api\src\main\java\org\apache\rave\model\RegionWidgetPreference.java,0,0,0,0
org.apache.rave.model.Tag, 0, 0, 0, 0, 0, 0, 0, 0, 0, 0, 0, 0, 0, 0,0.0,0.0,0.0,0.0,0.0,0.0,0.0,0.0,0.0,0.0,0.0,0.0,0.0,123,rave-components\rave-core-api\src\main\java\org\apache\rave\model\Tag.java,0,0,0,0
org.apache.rave.model.User, 0, 0, 0, 0, 0, 0, 0, 0, 0, 0, 0, 0, 0, 0,0.0,0.0,0.0,0.0,0.0,0.0,0.0,0.0,0.0,0.0,0.0,0.0,0.0,123,rave-components\rave-core-api\src\main\java\org\apache\rave\model\User.java,0,0,0,0
org.apache.rave.model.Widget, 0, 0, 0, 0, 0, 0, 0, 0, 0, 0, 0, 0, 0, 0,0.0,0.0,0.0,0.0,0.0,0.0,0.0,0.0,0.0,0.0,0.0,0.0,0.0,123,rave-components\rave-core-api\src\main\java\org\apache\rave\model\Widget.java,0,3,0,3
org.apache.rave.model.WidgetComment, 0, 0, 0, 0, 0, 0, 0, 0, 0, 0, 0, 0, 0, 0,0.0,0.0,0.0,0.0,0.0,0.0,0.0,0.0,0.0,0.0,0.0,0.0,0.0,123,rave-components\rave-core-api\src\main\java\org\apache\rave\model\WidgetComment.java,0,0,0,0
org.apache.rave.model.WidgetRating, 0, 0, 0, 0, 0, 0, 0, 0, 0, 0, 0, 0, 0, 0,0.0,0.0,0.0,0.0,0.0,0.0,0.0,0.0,0.0,0.0,0.0,0.0,0.0,123,rave-components\rave-core-api\src\main\java\org\apache\rave\model\WidgetRating.java,0,0,0,0
org.apache.rave.model.WidgetTag, 0, 0, 0, 0, 0, 0, 0, 0, 0, 0, 0, 0, 0, 0,0.0,0.0,0.0,0.0,0.0,0.0,0.0,0.0,0.0,0.0,0.0,0.0,0.0,123,rave-components\rave-core-api\src\main\java\org\apache\rave\model\WidgetTag.java,0,0,0,0
org.apache.rave.opensocial.repository.OpenSocialPersonRepository, 0, 0, 0, 0, 0, 0, 0, 0, 0, 0, 0, 0, 0, 0,0.0,0.0,0.0,0.0,0.0,0.0,0.0,0.0,0.0,0.0,0.0,0.0,0.0,123,rave-providers\rave-opensocial-provider\rave-opensocial-core\src\main\java\org\apache\rave\opensocial\repository\OpenSocialPersonRepository.java,0,0,0,0
org.apache.rave.opensocial.service.FieldRestrictingPersonTest, 0, 0, 0, 1, 0, 0, 0, 0, 0, 0, 0, 0, 0, 1,0.0,0.0,0.0,0.0,0.0,0.0,0.0,1.0,0.0,0.0,0.0,0.0,0.0,564,rave-providers\rave-opensocial-provider\rave-opensocial-core\src\test\java\org\apache\rave\opensocial\service\FieldRestrictingPersonTest.java,0,0,0,0
org.apache.rave.opensocial.service.GroupServiceTest, 0, 0, 0, 0, 0, 1, 0, 0, 0, 0, 0, 0, 0, 1,0.0,0.0,0.0,0.0,0.0,0.0,0.0,0.0,0.0,0.0,0.0,0.0,0.0,2,rave-providers\rave-opensocial-provider\rave-opensocial-core\src\test\java\org\apache\rave\opensocial\service\GroupServiceTest.java,0,0,0,0
org.apache.rave.opensocial.service.MultiFormatActivityServiceTest, 0, 0, 0, 0, 0, 1, 0, 0, 0, 0, 0, 0, 0, 1,0.0,0.0,0.0,0.0,0.0,0.0,0.0,0.0,0.0,0.0,0.0,0.0,0.0,2,rave-providers\rave-opensocial-provider\rave-opensocial-core\src\test\java\org\apache\rave\opensocial\service\MultiFormatActivityServiceTest.java,0,0,0,0
org.apache.rave.opensocial.service.PersonServiceTest, 0, 0, 0, 1, 0, 0, 0, 0, 0, 0, 0, 0, 0, 1,0.0,0.0,0.0,0.3333333333333333,0.0,0.0,0.0,0.6666666666666666,0.0,0.0,0.0,0.0,0.0,374,rave-providers\rave-opensocial-provider\rave-opensocial-core\src\test\java\org\apache\rave\opensocial\service\PersonServiceTest.java,0,0,0,0
org.apache.rave.opensocial.service.SimplePersonService, 0, 0, 0, 0, 0, 0, 0, 0, 0, 0, 0, 0, 0, 0,0.0,0.0,0.0,0.0,0.0,0.0,0.0,0.0,0.0,0.0,0.0,0.0,0.0,374,rave-providers\rave-opensocial-provider\rave-opensocial-core\src\main\java\org\apache\rave\opensocial\service\SimplePersonService.java,0,0,0,0
org.apache.rave.opensocial.service.impl.DefaultGroupService, 0, 0, 0, 0, 0, 0, 0, 0, 0, 0, 0, 0, 0, 0,0.0,0.0,0.0,0.0,0.0,0.0,0.0,0.0,0.0,0.0,0.0,0.0,0.0,6,rave-providers\rave-opensocial-provider\rave-opensocial-core\src\main\java\org\apache\rave\opensocial\service\impl\DefaultGroupService.java,0,0,0,0
org.apache.rave.opensocial.service.impl.DefaultMediaItemService, 0, 0, 0, 0, 0, 0, 0, 1, 0, 0, 0, 0, 0, 1,0.0,0.0,0.0,0.0,0.0,0.0,0.0,0.0,0.0,0.0,0.0,0.0,0.0,30,rave-providers\rave-opensocial-provider\rave-opensocial-core\src\main\java\org\apache\rave\opensocial\service\impl\DefaultMediaItemService.java,0,0,0,0
org.apache.rave.opensocial.service.impl.DefaultOAuth2Service, 0, 0, 0, 0, 0, 0, 0, 0, 0, 0, 0, 0, 0, 0,0.0,0.0,0.0,0.0,0.0,0.0,0.0,0.0,0.0,0.0,0.0,0.0,0.0,46,rave-providers\rave-opensocial-provider\rave-opensocial-core\src\main\java\org\apache\rave\opensocial\service\impl\DefaultOAuth2Service.java,0,0,0,0
org.apache.rave.opensocial.service.impl.DefaultPersonService, 0, 0, 0, 0, 0, 0, 0, 1, 0, 0, 0, 0, 0, 1,0.0,0.0,0.0,1.0,0.0,0.0,0.0,0.0,0.0,0.0,0.0,0.0,0.0,143,rave-providers\rave-opensocial-provider\rave-opensocial-core\src\main\java\org\apache\rave\opensocial\service\impl\DefaultPersonService.java,1,1,2,6
org.apache.rave.opensocial.service.impl.OpenSocialActivityService, 0, 0, 0, 0, 0, 0, 0, 1, 0, 0, 0, 0, 0, 1,0.0,0.0,0.0,0.0,0.0,0.0,0.0,0.0,0.0,0.0,0.0,0.0,0.0,22,rave-providers\rave-opensocial-provider\rave-opensocial-core\src\main\java\org\apache\rave\opensocial\service\impl\OpenSocialActivityService.java,0,0,0,0
org.apache.rave.opensocial.util.ActivityConversionUtilTest, 0, 0, 0, 0, 0, 0, 0, 0, 0, 0, 0, 0, 0, 0,0.0,0.0,0.0,0.0,0.0,0.0,0.0,0.0,0.0,0.0,0.0,0.0,0.0,96,rave-providers\rave-opensocial-provider\rave-opensocial-core\src\test\java\org\apache\rave\opensocial\util\ActivityConversionUtilTest.java,0,0,0,0
org.apache.rave.persistence.impl.TranslatedH2Exception, 0, 0, 0, 0, 0, 0, 0, 0, 0, 0, 0, 0, 0, 0,0.0,0.0,0.0,0.0,0.0,0.0,0.0,0.0,0.0,0.0,0.0,0.0,0.0,16,rave-components\rave-commons\src\main\java\org\apache\rave\persistence\impl\TranslatedH2Exception.java,0,0,0,0
org.apache.rave.persistence.impl.TranslatedH2ExceptionTest, 0, 0, 0, 0, 0, 0, 0, 0, 0, 0, 0, 0, 0, 0,0.0,0.0,0.0,0.0,0.0,0.0,0.0,0.0,0.0,0.0,0.0,0.0,0.0,22,rave-components\rave-commons\src\test\java\org\apache\rave\persistence\impl\TranslatedH2ExceptionTest.java,0,0,0,0
org.apache.rave.persistence.jpa.PopulatedLocalContainerEntityManagerFactory, 0, 0, 0, 0, 0, 0, 0, 0, 0, 0, 0, 0, 0, 0,0.0,0.0,0.0,0.0,0.0,0.0,0.0,0.0,0.0,0.0,0.0,0.0,0.0,23,rave-components\rave-jpa\src\main\java\org\apache\rave\persistence\jpa\PopulatedLocalContainerEntityManagerFactory.java,0,0,0,0
org.apache.rave.persistence.jpa.PopulatedLocalContainerEntityManagerFactoryTest, 0, 0, 0, 0, 0, 0, 0, 0, 0, 0, 0, 0, 0, 0,0.0,0.0,0.0,0.0,0.0,0.0,0.0,0.0,0.0,0.0,0.0,0.0,0.0,45,rave-components\rave-jpa\src\test\java\org\apache\rave\persistence\jpa\PopulatedLocalContainerEntityManagerFactoryTest.java,0,0,0,0
org.apache.rave.persistence.jpa.impl.H2OpenJpaDialect, 0, 0, 0, 0, 0, 0, 0, 0, 0, 0, 0, 0, 0, 0,0.0,0.0,0.0,0.0,0.0,0.0,0.0,0.0,0.0,0.0,0.0,0.0,0.0,22,rave-components\rave-jpa\src\main\java\org\apache\rave\persistence\jpa\impl\H2OpenJpaDialect.java,1,1,1,4
org.apache.rave.persistence.jpa.impl.H2OpenJpaDialectTest, 0, 0, 0, 0, 0, 0, 0, 0, 0, 0, 0, 0, 0, 0,0.0,0.0,0.0,0.0,0.0,0.0,0.0,0.0,0.0,0.0,0.0,0.0,0.0,26,rave-components\rave-jpa\src\test\java\org\apache\rave\persistence\jpa\impl\H2OpenJpaDialectTest.java,0,0,0,0
org.apache.rave.persistence.jpa.util.JpaUtil, 0, 0, 0, 0, 0, 0, 0, 0, 0, 0, 0, 0, 0, 0,0.0,0.0,0.0,0.0,0.0,0.0,0.0,0.03225806451612903,0.0,0.0,0.0,0.0,0.0,45,rave-components\rave-jpa\src\main\java\org\apache\rave\persistence\jpa\util\JpaUtil.java,0,0,0,0
org.apache.rave.persistence.jpa.util.JpaUtilTest, 0, 0, 0, 0, 0, 0, 0, 0, 0, 0, 0, 0, 0, 0,0.0,0.0,0.0,0.0,0.0,0.0,0.0,0.0,0.0,0.0,0.0,0.0,0.0,69,rave-components\rave-jpa\src\test\java\org\apache\rave\persistence\jpa\util\JpaUtilTest.java,0,0,0,0
org.apache.rave.portal.activities.model.impl.JpaActivityStreamsObjectTest, 0, 0, 0, 0, 0, 0, 0, 0, 0, 0, 0, 0, 0, 0,0.0,0.0,0.0,1.0,0.0,0.0,0.0,0.0,0.0,0.0,0.0,0.0,0.0,9,rave-components\rave-jpa\src\test\java\org\apache\rave\portal\activities\model\impl\JpaActivityStreamsObjectTest.java,0,0,0,0
org.apache.rave.portal.activities.repository.JpaActivityEntryRepositoryTest, 0, 0, 0, 0, 0, 0, 0, 0, 0, 0, 0, 0, 0, 0,0.0,0.0,0.0,1.0,0.0,0.0,0.0,0.0,0.0,0.0,0.0,0.0,0.0,74,rave-components\rave-jpa\src\test\java\org\apache\rave\portal\activities\repository\JpaActivityEntryRepositoryTest.java,0,0,0,0
org.apache.rave.portal.activities.util.ModelUtilTest, 0, 0, 0, 0, 0, 0, 0, 0, 0, 0, 0, 0, 0, 0,0.0,0.0,0.0,0.0,0.0,0.0,0.0,0.0,0.0,0.0,0.0,0.0,0.0,9,rave-components\rave-core\src\test\java\org\apache\rave\portal\activities\util\ModelUtilTest.java,0,0,0,0
org.apache.rave.portal.events.PortalPreferenceJavascriptDebugModeEventListener, 0, 0, 0, 0, 0, 0, 0, 0, 0, 0, 0, 0, 0, 0,0.0,0.0,0.0,0.0,0.0,0.0,0.0,0.0,0.0,0.0,0.0,0.0,0.0,9,rave-components\rave-core\src\main\java\org\apache\rave\portal\events\PortalPreferenceJavascriptDebugModeEventListener.java,0,0,0,0
org.apache.rave.portal.events.PortalPreferenceJavascriptDebugModeSaveEvent, 0, 0, 0, 0, 0, 1, 0, 0, 0, 0, 0, 0, 0, 1,0.0,0.0,0.0,0.0,0.0,0.0,0.0,0.0,0.0,0.0,0.0,0.0,0.0,5,rave-components\rave-core\src\main\java\org\apache\rave\portal\events\PortalPreferenceJavascriptDebugModeSaveEvent.java,0,0,0,0
org.apache.rave.portal.events.RaveEvent, 0, 0, 0, 0, 0, 0, 0, 0, 0, 0, 0, 0, 0, 0,0.0,0.0,0.0,0.0,0.0,0.0,0.0,0.0,0.0,0.0,0.0,0.0,0.0,5,rave-components\rave-core\src\main\java\org\apache\rave\portal\events\RaveEvent.java,0,0,0,0
org.apache.rave.portal.events.RaveEventListener, 0, 0, 0, 0, 0, 0, 0, 0, 0, 0, 0, 0, 0, 0,0.0,0.0,0.0,0.0,0.0,0.0,0.0,0.0,0.0,0.0,0.0,0.0,0.0,5,rave-components\rave-core\src\main\java\org\apache\rave\portal\events\RaveEventListener.java,0,0,0,0
org.apache.rave.portal.model.AuthorityTest, 0, 0, 0, 0, 0, 0, 0, 0, 0, 0, 0, 0, 0, 0,0.0,0.0,0.0,0.0,0.0,0.0,0.0,0.0,0.0,0.0,0.0,0.0,0.0,8,rave-components\rave-jpa\src\test\java\org\apache\rave\portal\model\AuthorityTest.java,0,0,1,2
org.apache.rave.portal.model.BasicEntity, 0, 0, 0, 0, 0, 0, 0, 0, 0, 0, 0, 0, 0, 0,0.0,0.0,0.0,0.0,0.0,0.0,0.0,0.0,0.0,0.0,0.0,0.0,0.0,8,rave-components\rave-jpa\src\main\java\org\apache\rave\portal\model\BasicEntity.java,0,0,0,0
org.apache.rave.portal.model.JpaActivityStreamsEntry, 0, 0, 0, 1, 0, 0, 0, 0, 0, 0, 0, 0, 0, 1,0.0,0.0,0.0,0.2,0.0,0.0,0.0,0.0,0.0,0.0,0.0,0.0,0.0,305,rave-components\rave-jpa\src\main\java\org\apache\rave\portal\model\JpaActivityStreamsEntry.java,0,0,0,0
org.apache.rave.portal.model.JpaActivityStreamsObject, 0, 0, 0, 1, 0, 0, 0, 0, 0, 0, 0, 0, 0, 1,0.0,0.0,0.0,0.2,0.0,0.0,0.0,0.0,0.0,0.0,0.0,0.0,0.0,338,rave-components\rave-jpa\src\main\java\org\apache\rave\portal\model\JpaActivityStreamsObject.java,0,0,0,0
org.apache.rave.portal.model.JpaAddress, 0, 0, 0, 1, 0, 0, 0, 0, 0, 0, 0, 0, 0, 1,0.0,0.0,0.0,0.3333333333333333,0.0,0.0,0.0,0.0,0.0,0.0,0.0,0.0,0.0,128,rave-components\rave-jpa\src\main\java\org\apache\rave\portal\model\JpaAddress.java,0,0,0,0
org.apache.rave.portal.model.JpaAuthority, 0, 0, 0, 0, 0, 0, 0, 0, 0, 0, 0, 0, 0, 0,0.0,0.0,0.0,0.0,0.0,0.0,0.0,0.0,0.0,0.0,0.0,0.0,0.0,93,rave-components\rave-jpa\src\main\java\org\apache\rave\portal\model\JpaAuthority.java,0,0,0,0
org.apache.rave.portal.model.JpaCategory, 0, 0, 0, 0, 0, 0, 0, 1, 0, 0, 0, 0, 0, 1,0.0,0.0,0.0,0.0,0.0,0.0,0.0,0.0,0.0,0.0,0.0,0.0,0.0,136,rave-components\rave-jpa\src\main\java\org\apache\rave\portal\model\JpaCategory.java,0,2,1,4
org.apache.rave.portal.model.JpaGroup, 0, 0, 0, 0, 0, 0, 0, 0, 0, 0, 0, 0, 0, 0,0.0,0.0,0.0,0.0,0.0,0.0,0.0,0.0,0.0,0.0,0.0,0.0,0.0,68,rave-components\rave-jpa\src\main\java\org\apache\rave\portal\model\JpaGroup.java,0,0,0,0
org.apache.rave.portal.model.JpaOAuthConsumerStore, 0, 0, 0, 1, 0, 0, 0, 0, 0, 0, 0, 0, 0, 1,0.0,0.0,0.0,0.0,0.0,0.0,0.0,0.0,0.0,0.0,0.0,0.0,0.0,133,rave-components\rave-jpa\src\main\java\org\apache\rave\portal\model\JpaOAuthConsumerStore.java,0,0,0,0
org.apache.rave.portal.model.JpaOAuthTokenInfo, 0, 0, 0, 1, 0, 0, 0, 0, 0, 0, 0, 0, 0, 1,0.0,0.0,0.0,0.0,0.0,0.0,0.0,0.25,0.0,0.0,0.0,0.0,0.0,157,rave-components\rave-jpa\src\main\java\org\apache\rave\portal\model\JpaOAuthTokenInfo.java,0,0,0,0
org.apache.rave.portal.model.JpaOrganization, 0, 0, 0, 1, 0, 0, 0, 0, 0, 0, 0, 0, 0, 1,0.0,0.0,0.0,0.3333333333333333,0.0,0.0,0.0,0.0,0.0,0.0,0.0,0.0,0.0,150,rave-components\rave-jpa\src\main\java\org\apache\rave\portal\model\JpaOrganization.java,0,0,0,0
org.apache.rave.portal.model.JpaPageLayout, 0, 0, 0, 0, 0, 0, 0, 0, 0, 0, 0, 0, 0, 0,0.0,0.0,0.0,0.25,0.0,0.0,0.0,0.0,0.0,0.0,0.0,0.0,0.0,84,rave-components\rave-jpa\src\main\java\org\apache\rave\portal\model\JpaPageLayout.java,0,0,0,0
org.apache.rave.portal.model.JpaPageTemplate, 0, 0, 0, 1, 0, 0, 0, 0, 0, 0, 0, 0, 0, 1,0.0,0.0,0.0,0.0,0.0,0.0,0.0,0.0,0.0,0.0,0.0,0.0,0.0,140,rave-components\rave-jpa\src\main\java\org\apache\rave\portal\model\JpaPageTemplate.java,1,2,5,13
org.apache.rave.portal.model.JpaPageTemplateRegion, 0, 0, 0, 0, 0, 0, 0, 0, 0, 0, 0, 0, 0, 0,0.0,0.0,0.0,0.16666666666666666,0.0,0.0,0.0,0.0,0.0,0.0,0.0,0.0,0.0,75,rave-components\rave-jpa\src\main\java\org\apache\rave\portal\model\JpaPageTemplateRegion.java,0,0,0,0
org.apache.rave.portal.model.JpaPageTemplateWidget, 0, 0, 0, 0, 0, 0, 0, 0, 0, 0, 0, 0, 0, 0,0.0,0.0,0.0,0.0,0.0,0.0,0.0,0.0,0.0,0.0,0.0,0.0,0.0,76,rave-components\rave-jpa\src\main\java\org\apache\rave\portal\model\JpaPageTemplateWidget.java,0,0,0,0
org.apache.rave.portal.model.JpaPageUser, 0, 0, 0, 0, 0, 0, 0, 0, 0, 0, 0, 0, 0, 0,0.0,0.0,0.0,0.0,0.0,0.0,0.0,0.0,0.0,0.0,0.0,0.0,0.0,91,rave-components\rave-jpa\src\main\java\org\apache\rave\portal\model\JpaPageUser.java,0,0,0,0
org.apache.rave.portal.model.JpaPerson, 0, 0, 0, 1, 0, 0, 0, 0, 0, 0, 0, 0, 0, 1,0.0,0.0,0.0,0.14285714285714285,0.0,0.0,0.0,0.0,0.0,0.0,0.0,0.0,0.0,212,rave-components\rave-jpa\src\main\java\org\apache\rave\portal\model\JpaPerson.java,0,4,0,4
org.apache.rave.portal.model.JpaPersonAssociation, 0, 0, 0, 0, 0, 0, 0, 0, 0, 0, 0, 0, 0, 0,0.0,0.0,0.0,1.0,0.0,0.0,0.0,0.0,0.0,0.0,0.0,0.0,0.0,61,rave-components\rave-jpa\src\main\java\org\apache\rave\portal\model\JpaPersonAssociation.java,0,0,0,0
org.apache.rave.portal.model.JpaPersonProperty, 0, 0, 0, 0, 0, 0, 0, 1, 0, 0, 0, 0, 0, 1,0.0,0.0,0.0,0.0,0.0,0.0,0.0,0.0,0.0,0.0,0.0,0.0,0.0,94,rave-components\rave-jpa\src\main\java\org\apache\rave\portal\model\JpaPersonProperty.java,0,0,0,0
org.apache.rave.portal.model.JpaRegion, 0, 0, 0, 0, 0, 0, 0, 0, 0, 0, 0, 0, 0, 0,0.0,0.0,0.0,0.0,0.0,0.0,0.0,0.0,0.0,0.0,0.0,0.0,0.0,114,rave-components\rave-jpa\src\main\java\org\apache\rave\portal\model\JpaRegion.java,0,6,3,12
org.apache.rave.portal.model.JpaRegionWidgetPreference, 0, 0, 0, 0, 0, 0, 0, 0, 0, 0, 0, 0, 0, 0,0.0,0.0,0.0,0.0,0.0,0.0,0.0,0.0,0.0,0.0,0.0,0.0,0.0,88,rave-components\rave-jpa\src\main\java\org\apache\rave\portal\model\JpaRegionWidgetPreference.java,0,0,0,0
org.apache.rave.portal.model.JpaTag, 0, 0, 0, 0, 0, 0, 0, 0, 0, 0, 0, 0, 0, 0,0.0,0.0,0.0,0.0,0.0,0.0,0.0,0.0,0.0,0.0,0.0,0.0,0.0,59,rave-components\rave-jpa\src\main\java\org\apache\rave\portal\model\JpaTag.java,0,0,0,0
org.apache.rave.portal.model.JpaWidget, 0, 0, 0, 1, 0, 0, 0, 0, 0, 0, 0, 0, 0, 1,0.0,0.0,0.0,0.0,0.0,0.0,0.0,0.0,0.0,0.0,0.0,0.0,0.0,331,rave-components\rave-jpa\src\main\java\org\apache\rave\portal\model\JpaWidget.java,19,33,8,68
org.apache.rave.portal.model.JpaWidgetComment, 0, 0, 0, 0, 0, 0, 0, 1, 0, 0, 0, 0, 0, 1,0.0,0.0,0.0,0.0,0.0,0.0,0.0,0.0,0.0,0.0,0.0,0.0,0.0,108,rave-components\rave-jpa\src\main\java\org\apache\rave\portal\model\JpaWidgetComment.java,0,0,0,0
org.apache.rave.portal.model.JpaWidgetRating, 0, 0, 0, 0, 0, 0, 0, 0, 0, 0, 0, 0, 0, 0,0.0,0.0,0.0,0.0,0.0,0.0,0.0,0.0,0.0,0.0,0.0,0.0,0.0,101,rave-components\rave-jpa\src\main\java\org\apache\rave\portal\model\JpaWidgetRating.java,0,0,0,0
org.apache.rave.portal.model.MongoDbAuthority, 0, 0, 0, 0, 0, 0, 0, 0, 0, 0, 0, 0, 0, 0,0.0,0.0,0.0,0.0,0.0,0.0,0.0,0.0,0.0,0.0,0.0,0.0,0.0,9,rave-components\rave-mongodb\src\main\java\org\apache\rave\portal\model\MongoDbAuthority.java,0,0,0,0
org.apache.rave.portal.model.MongoDbAuthorityTest, 0, 0, 0, 0, 0, 0, 0, 0, 0, 0, 0, 0, 0, 0,0.0,0.0,0.0,0.0,0.0,0.0,0.0,0.0,0.0,0.0,0.0,0.0,0.0,9,rave-components\rave-mongodb\src\test\java\org\apache\rave\portal\model\MongoDbAuthorityTest.java,0,0,0,0
org.apache.rave.portal.model.MongoDbCategory, 0, 0, 0, 0, 0, 0, 0, 0, 0, 0, 0, 0, 0, 0,0.0,0.0,0.0,0.0,0.0,0.0,0.0,0.0,0.0,0.0,0.0,0.0,0.0,19,rave-components\rave-mongodb\src\main\java\org\apache\rave\portal\model\MongoDbCategory.java,0,0,0,0
org.apache.rave.portal.model.MongoDbCategoryTest, 0, 0, 0, 0, 0, 0, 0, 0, 0, 0, 0, 0, 0, 0,0.0,0.0,0.0,0.0,0.0,0.0,0.0,0.0,0.0,0.0,0.0,0.0,0.0,37,rave-components\rave-mongodb\src\test\java\org\apache\rave\portal\model\MongoDbCategoryTest.java,0,0,0,0
org.apache.rave.portal.model.MongoDbGroup, 0, 0, 0, 0, 0, 1, 0, 0, 0, 0, 0, 0, 0, 1,0.0,0.0,0.0,0.0,0.0,0.0,0.0,0.0,0.0,0.0,0.0,0.0,0.0,2,rave-components\rave-mongodb\src\main\java\org\apache\rave\portal\model\MongoDbGroup.java,0,0,0,0
org.apache.rave.portal.model.MongoDbPage, 0, 0, 0, 0, 0, 0, 0, 0, 0, 0, 0, 0, 0, 0,0.0,0.0,0.25,0.0,0.0,0.0,0.0,0.0,0.0,0.0,0.0,0.0,0.0,21,rave-components\rave-mongodb\src\main\java\org\apache\rave\portal\model\MongoDbPage.java,0,0,0,0
org.apache.rave.portal.model.MongoDbPageLayout, 0, 0, 0, 0, 0, 0, 0, 0, 0, 0, 0, 0, 0, 0,0.0,0.0,0.0,0.0,0.0,0.0,0.0,0.0,0.0,0.0,0.0,0.0,0.0,24,rave-components\rave-mongodb\src\main\java\org\apache\rave\portal\model\MongoDbPageLayout.java,0,0,0,0
org.apache.rave.portal.model.MongoDbPageLayoutTest, 0, 0, 0, 0, 0, 0, 0, 0, 0, 0, 0, 0, 0, 0,0.0,0.0,0.0,0.0,0.0,0.0,0.0,0.0,0.0,0.0,0.0,0.0,0.0,56,rave-components\rave-mongodb\src\test\java\org\apache\rave\portal\model\MongoDbPageLayoutTest.java,0,0,0,0
org.apache.rave.portal.model.MongoDbPageTemplate, 0, 0, 0, 0, 0, 0, 0, 0, 0, 0, 0, 0, 0, 0,0.0,0.0,0.0,0.25,0.0,0.0,0.0,0.0,0.0,0.0,0.0,0.0,0.0,26,rave-components\rave-mongodb\src\main\java\org\apache\rave\portal\model\MongoDbPageTemplate.java,0,0,0,0
org.apache.rave.portal.model.MongoDbPageTemplateTest, 0, 0, 0, 0, 0, 0, 0, 0, 0, 0, 0, 0, 0, 0,0.0,0.0,0.0,0.0,0.0,0.0,0.0,0.0,0.0,0.0,0.0,0.0,0.0,18,rave-components\rave-mongodb\src\test\java\org\apache\rave\portal\model\MongoDbPageTemplateTest.java,0,0,0,0
org.apache.rave.portal.model.MongoDbPersonAssociation, 0, 0, 0, 0, 0, 0, 0, 0, 0, 0, 0, 0, 0, 0,0.0,0.0,0.0,0.0,0.0,0.0,0.0,0.0,0.0,0.0,0.0,0.0,0.0,26,rave-components\rave-mongodb\src\main\java\org\apache\rave\portal\model\MongoDbPersonAssociation.java,0,0,0,0
org.apache.rave.portal.model.MongoDbPersonAssociationTest, 0, 0, 0, 0, 0, 0, 0, 0, 0, 0, 0, 0, 0, 0,0.0,0.0,0.0,0.0,0.0,0.0,0.0,0.0,0.0,0.0,0.0,0.0,0.0,10,rave-components\rave-mongodb\src\test\java\org\apache\rave\portal\model\MongoDbPersonAssociationTest.java,0,0,0,0
org.apache.rave.portal.model.MongoDbPortalPreference, 0, 0, 0, 0, 0, 0, 0, 0, 0, 0, 0, 0, 0, 0,0.0,0.0,0.0,0.0,0.0,0.0,0.0,0.0,0.0,0.0,0.0,0.0,0.0,9,rave-components\rave-mongodb\src\main\java\org\apache\rave\portal\model\MongoDbPortalPreference.java,0,0,0,0
org.apache.rave.portal.model.MongoDbPortalPreferenceTest, 0, 0, 0, 0, 0, 0, 0, 0, 0, 0, 0, 0, 0, 0,0.0,0.0,0.0,0.0,0.0,0.0,0.0,0.0,0.0,0.0,0.0,0.0,0.0,9,rave-components\rave-mongodb\src\test\java\org\apache\rave\portal\model\MongoDbPortalPreferenceTest.java,0,0,0,0
org.apache.rave.portal.model.MongoDbUser, 0, 0, 0, 0, 0, 0, 0, 0, 0, 0, 0, 0, 0, 0,0.0,0.0,0.0,0.25,0.0,0.0,0.0,0.0,0.0,0.0,0.0,0.0,0.0,95,rave-components\rave-mongodb\src\main\java\org\apache\rave\portal\model\MongoDbUser.java,0,0,0,0
org.apache.rave.portal.model.MongoDbUserTest, 0, 0, 0, 0, 0, 0, 0, 0, 0, 0, 0, 0, 0, 0,0.0,0.0,0.0,0.25,0.0,0.0,0.0,0.0,0.0,0.0,0.0,0.0,0.0,116,rave-components\rave-mongodb\src\test\java\org\apache\rave\portal\model\MongoDbUserTest.java,0,0,0,0
org.apache.rave.portal.model.MongoDbWidget, 0, 0, 0, 0, 0, 0, 0, 0, 0, 0, 0, 0, 0, 0,0.0,0.0,0.0,0.25,0.0,0.0,0.0,0.0,0.0,0.0,0.0,0.0,0.0,64,rave-components\rave-mongodb\src\main\java\org\apache\rave\portal\model\MongoDbWidget.java,0,0,0,0
org.apache.rave.portal.model.MongoDbWidgetTest, 0, 0, 0, 0, 0, 0, 0, 0, 0, 0, 0, 0, 0, 0,0.0,0.0,0.0,0.3333333333333333,0.0,0.0,0.0,0.0,0.0,0.0,0.0,0.0,0.0,76,rave-components\rave-mongodb\src\test\java\org\apache\rave\portal\model\MongoDbWidgetTest.java,0,0,0,0
org.apache.rave.portal.model.PageTest, 0, 0, 0, 0, 0, 0, 0, 0, 0, 0, 0, 0, 0, 0,0.0,0.0,0.0,0.0,0.0,0.0,0.0,0.0,0.0,0.0,0.0,0.0,0.0,97,rave-components\rave-jpa\src\test\java\org\apache\rave\portal\model\PageTest.java,0,0,0,0
org.apache.rave.portal.model.PortalPreferenceTest, 0, 0, 0, 0, 0, 0, 0, 0, 0, 0, 0, 0, 0, 0,0.0,0.0,0.0,0.0,0.0,0.0,0.0,0.0,0.0,0.0,0.0,0.0,0.0,49,rave-components\rave-jpa\src\test\java\org\apache\rave\portal\model\PortalPreferenceTest.java,0,0,3,6
org.apache.rave.portal.model.TagTest, 0, 0, 0, 0, 0, 0, 0, 0, 0, 0, 0, 0, 0, 0,0.0,0.0,0.0,0.0,0.0,0.0,0.0,0.0,0.0,0.0,0.0,0.0,0.0,7,rave-components\rave-jpa\src\test\java\org\apache\rave\portal\model\TagTest.java,0,0,1,2
org.apache.rave.portal.model.UserTest, 0, 0, 0, 0, 0, 0, 0, 0, 0, 0, 0, 0, 0, 0,0.0,0.0,0.0,0.0,0.0,0.0,0.0,0.0,0.0,0.0,0.0,0.0,0.0,78,rave-components\rave-jpa\src\test\java\org\apache\rave\portal\model\UserTest.java,0,0,0,0
org.apache.rave.portal.model.WidgetRatingTest, 0, 0, 0, 0, 0, 0, 0, 0, 0, 0, 0, 0, 0, 0,0.0,0.0,0.0,0.0,0.0,0.0,0.0,0.0,0.0,0.0,0.0,0.0,0.0,43,rave-components\rave-jpa\src\test\java\org\apache\rave\portal\model\WidgetRatingTest.java,0,0,2,4
org.apache.rave.portal.model.WidgetTagTest, 0, 0, 0, 0, 0, 0, 0, 0, 0, 0, 0, 0, 0, 0,0.0,0.0,0.0,0.0,0.0,0.0,0.0,0.0,0.0,0.0,0.0,0.0,0.0,22,rave-components\rave-jpa\src\test\java\org\apache\rave\portal\model\WidgetTagTest.java,0,0,0,0
org.apache.rave.portal.model.WidgetTest, 0, 0, 0, 0, 0, 0, 0, 0, 0, 0, 0, 0, 0, 0,0.0,0.0,0.0,0.3333333333333333,0.0,0.0,0.0,0.0,0.0,0.0,0.0,0.0,0.0,67,rave-components\rave-jpa\src\test\java\org\apache\rave\portal\model\WidgetTest.java,0,0,1,2
org.apache.rave.portal.model.conversion.ConvertingListProxyFactory, 0, 0, 0, 0, 0, 0, 0, 0, 0, 0, 0, 0, 0, 0,0.0,0.0,0.0,0.5,0.0,0.0,0.0,0.125,0.0,0.0,0.0,0.0,0.0,40,rave-components\rave-jpa\src\main\java\org\apache\rave\portal\model\conversion\ConvertingListProxyFactory.java,0,0,0,0
org.apache.rave.portal.model.conversion.HydratingConverterFactory, 0, 0, 0, 0, 0, 0, 0, 0, 0, 0, 0, 0, 0, 0,0.0,0.0,0.0,0.0,0.0,0.0,0.0,0.0,0.0,0.0,0.0,0.0,0.0,40,rave-components\rave-mongodb\src\main\java\org\apache\rave\portal\model\conversion\HydratingConverterFactory.java,0,0,0,0
org.apache.rave.portal.model.conversion.HydratingModelConverter, 0, 0, 0, 0, 0, 0, 0, 0, 0, 0, 0, 0, 0, 0,0.0,0.0,0.0,0.0,0.0,0.0,0.0,0.0,0.0,0.0,0.0,0.0,0.0,40,rave-components\rave-mongodb\src\main\java\org\apache\rave\portal\model\conversion\HydratingModelConverter.java,0,0,0,0
org.apache.rave.portal.model.conversion.JpaActivityStreamsEntryConverter, 0, 0, 0, 0, 0, 0, 0, 0, 0, 0, 0, 0, 0, 0,0.0,0.0,0.0,0.25,0.0,0.0,0.0,0.0,0.0,0.0,0.0,0.0,0.0,73,rave-components\rave-jpa\src\main\java\org\apache\rave\portal\model\conversion\JpaActivityStreamsEntryConverter.java,0,0,0,0
org.apache.rave.portal.model.conversion.JpaActivityStreamsEntryConverterTest, 0, 0, 0, 0, 0, 0, 0, 0, 0, 0, 0, 0, 0, 0,0.0,0.0,0.0,0.5,0.0,0.0,0.0,0.0,0.0,0.0,0.0,0.0,0.0,47,rave-components\rave-jpa\src\test\java\org\apache\rave\portal\model\conversion\JpaActivityStreamsEntryConverterTest.java,0,0,0,0
org.apache.rave.portal.model.conversion.JpaActivityStreamsMediaLinkConverter, 0, 0, 0, 0, 0, 0, 0, 0, 0, 0, 0, 0, 0, 0,0.0,0.0,0.0,0.0,0.0,0.0,0.0,0.0,0.0,0.0,0.0,0.0,0.0,34,rave-components\rave-jpa\src\main\java\org\apache\rave\portal\model\conversion\JpaActivityStreamsMediaLinkConverter.java,0,0,0,0
org.apache.rave.portal.model.conversion.JpaActivityStreamsMediaLinkConverterTest, 0, 0, 0, 0, 0, 0, 0, 0, 0, 0, 0, 0, 0, 0,0.0,0.0,0.0,0.0,0.0,0.0,0.0,0.0,0.0,0.0,0.0,0.0,0.0,32,rave-components\rave-jpa\src\test\java\org\apache\rave\portal\model\conversion\JpaActivityStreamsMediaLinkConverterTest.java,0,0,0,0
org.apache.rave.portal.model.conversion.JpaActivityStreamsObjectConverter, 0, 0, 0, 0, 0, 0, 0, 0, 0, 0, 0, 0, 0, 0,0.0,0.0,0.0,0.3333333333333333,0.0,0.0,0.0,0.0,0.0,0.0,0.0,0.0,0.0,72,rave-components\rave-jpa\src\main\java\org\apache\rave\portal\model\conversion\JpaActivityStreamsObjectConverter.java,0,0,0,0
org.apache.rave.portal.model.conversion.JpaActivityStreamsObjectConverterTest, 0, 0, 0, 0, 0, 0, 0, 0, 0, 0, 0, 0, 0, 0,0.0,0.0,0.0,0.5,0.0,0.0,0.0,0.0,0.0,0.0,0.0,0.0,0.0,43,rave-components\rave-jpa\src\test\java\org\apache\rave\portal\model\conversion\JpaActivityStreamsObjectConverterTest.java,0,0,0,0
org.apache.rave.portal.model.conversion.JpaAddressConverter, 0, 0, 0, 0, 0, 0, 0, 0, 0, 0, 0, 0, 0, 0,0.0,0.0,0.0,0.3333333333333333,0.0,0.0,0.0,0.0,0.0,0.0,0.0,0.0,0.0,39,rave-components\rave-jpa\src\main\java\org\apache\rave\portal\model\conversion\JpaAddressConverter.java,0,0,0,0
org.apache.rave.portal.model.conversion.JpaAddressConverterTest, 0, 0, 0, 0, 0, 0, 0, 0, 0, 0, 0, 0, 0, 0,0.0,0.0,0.0,0.6666666666666666,0.0,0.0,0.0,0.0,0.0,0.0,0.0,0.0,0.0,31,rave-components\rave-jpa\src\test\java\org\apache\rave\portal\model\conversion\JpaAddressConverterTest.java,0,0,0,0
org.apache.rave.portal.model.conversion.JpaApplicationDataConverter, 0, 0, 0, 0, 0, 0, 0, 0, 0, 0, 0, 0, 0, 0,0.0,0.0,0.0,0.0,0.0,0.0,0.0,0.0,0.0,0.0,0.0,0.0,0.0,29,rave-components\rave-jpa\src\main\java\org\apache\rave\portal\model\conversion\JpaApplicationDataConverter.java,0,0,0,0
org.apache.rave.portal.model.conversion.JpaAuthorityConverter, 0, 0, 0, 0, 0, 0, 0, 0, 0, 0, 0, 0, 0, 0,0.0,0.0,0.0,0.0,0.0,0.0,0.0,0.0,0.0,0.0,0.0,0.0,0.0,32,rave-components\rave-jpa\src\main\java\org\apache\rave\portal\model\conversion\JpaAuthorityConverter.java,0,0,0,0
org.apache.rave.portal.model.conversion.JpaAuthorityConverterTest, 0, 0, 0, 0, 0, 0, 0, 0, 0, 0, 0, 0, 0, 0,0.0,0.0,0.0,0.25,0.0,0.0,0.0,0.0,0.0,0.0,0.0,0.0,0.0,30,rave-components\rave-jpa\src\test\java\org\apache\rave\portal\model\conversion\JpaAuthorityConverterTest.java,0,0,0,0
org.apache.rave.portal.model.conversion.JpaCategoryConverter, 0, 0, 0, 0, 0, 0, 0, 0, 0, 0, 0, 0, 0, 0,0.0,0.0,0.0,0.0,0.0,0.0,0.0,0.3333333333333333,0.0,0.0,0.0,0.0,0.0,32,rave-components\rave-jpa\src\main\java\org\apache\rave\portal\model\conversion\JpaCategoryConverter.java,0,0,0,0
org.apache.rave.portal.model.conversion.JpaCategoryConverterTest, 0, 0, 0, 0, 0, 0, 0, 0, 0, 0, 0, 0, 0, 0,0.0,0.0,0.0,0.0,0.0,0.0,0.0,0.3333333333333333,0.0,0.0,0.0,0.0,0.0,36,rave-components\rave-jpa\src\test\java\org\apache\rave\portal\model\conversion\JpaCategoryConverterTest.java,0,0,0,0
org.apache.rave.portal.model.conversion.JpaConverterTest, 0, 0, 0, 0, 0, 0, 0, 0, 0, 0, 0, 0, 0, 0,0.0,0.0,0.0,1.0,0.0,0.0,0.0,0.0,0.0,0.0,0.0,0.0,0.0,53,rave-components\rave-jpa\src\test\java\org\apache\rave\portal\model\conversion\JpaConverterTest.java,0,0,0,0
org.apache.rave.portal.model.conversion.JpaGroupConverter, 0, 0, 0, 0, 0, 0, 0, 0, 0, 0, 0, 0, 0, 0,0.0,0.0,0.0,0.0,0.0,0.0,0.0,0.0,0.0,0.0,0.0,0.0,0.0,31,rave-components\rave-jpa\src\main\java\org\apache\rave\portal\model\conversion\JpaGroupConverter.java,0,0,0,0
org.apache.rave.portal.model.conversion.JpaGroupConverterTest, 0, 0, 0, 0, 0, 0, 0, 0, 0, 0, 0, 0, 0, 0,0.0,0.0,0.0,0.0,0.0,0.0,0.0,0.0,0.0,0.0,0.0,0.0,0.0,46,rave-components\rave-jpa\src\test\java\org\apache\rave\portal\model\conversion\JpaGroupConverterTest.java,0,0,0,0
org.apache.rave.portal.model.conversion.JpaOAuthConsumerStoreConverter, 0, 0, 0, 0, 0, 0, 0, 0, 0, 0, 0, 0, 0, 0,0.0,0.0,0.0,0.3333333333333333,0.0,0.0,0.0,0.0,0.0,0.0,0.0,0.0,0.0,33,rave-components\rave-jpa\src\main\java\org\apache\rave\portal\model\conversion\JpaOAuthConsumerStoreConverter.java,0,0,0,0
org.apache.rave.portal.model.conversion.JpaOAuthConsumerStoreConverterTest, 0, 0, 0, 0, 0, 0, 0, 0, 0, 0, 0, 0, 0, 0,0.0,0.0,0.0,0.5,0.0,0.0,0.0,0.0,0.0,0.0,0.0,0.0,0.0,37,rave-components\rave-jpa\src\test\java\org\apache\rave\portal\model\conversion\JpaOAuthConsumerStoreConverterTest.java,0,0,0,0
org.apache.rave.portal.model.conversion.JpaOAuthTokenInfoConverter, 0, 0, 0, 0, 0, 0, 0, 0, 0, 0, 0, 0, 0, 0,0.0,0.0,0.0,0.3333333333333333,0.0,0.0,0.0,0.3333333333333333,0.0,0.0,0.0,0.0,0.0,34,rave-components\rave-jpa\src\main\java\org\apache\rave\portal\model\conversion\JpaOAuthTokenInfoConverter.java,0,0,0,0
org.apache.rave.portal.model.conversion.JpaOAuthTokenInfoConverterTest, 0, 0, 0, 0, 0, 0, 0, 0, 0, 0, 0, 0, 0, 0,0.0,0.0,0.0,0.6666666666666666,0.0,0.0,0.0,0.3333333333333333,0.0,0.0,0.0,0.0,0.0,40,rave-components\rave-jpa\src\test\java\org\apache\rave\portal\model\conversion\JpaOAuthTokenInfoConverterTest.java,0,0,0,0
org.apache.rave.portal.model.conversion.JpaOrganizationConverter, 0, 0, 0, 0, 0, 0, 0, 0, 0, 0, 0, 0, 0, 0,0.0,0.0,0.0,0.3333333333333333,0.0,0.0,0.0,0.0,0.0,0.0,0.0,0.0,0.0,38,rave-components\rave-jpa\src\main\java\org\apache\rave\portal\model\conversion\JpaOrganizationConverter.java,0,0,0,0
org.apache.rave.portal.model.conversion.JpaOrganizationConverterTest, 0, 0, 0, 0, 0, 0, 0, 0, 0, 0, 0, 0, 0, 0,0.0,0.0,0.0,0.6666666666666666,0.0,0.0,0.0,0.0,0.0,0.0,0.0,0.0,0.0,46,rave-components\rave-jpa\src\test\java\org\apache\rave\portal\model\conversion\JpaOrganizationConverterTest.java,0,0,0,0
org.apache.rave.portal.model.conversion.JpaPageConverter, 0, 0, 0, 0, 0, 0, 0, 0, 0, 0, 0, 0, 0, 0,0.0,0.0,0.0,0.0,0.0,0.0,0.0,0.0,0.0,0.0,0.0,0.0,0.0,42,rave-components\rave-jpa\src\main\java\org\apache\rave\portal\model\conversion\JpaPageConverter.java,3,6,1,11
org.apache.rave.portal.model.conversion.JpaPageConverterTest, 0, 0, 0, 0, 0, 0, 0, 0, 0, 0, 0, 0, 0, 0,0.0,0.0,0.0,0.0,0.0,0.0,0.0,0.0,0.0,0.0,0.0,0.0,0.0,38,rave-components\rave-jpa\src\test\java\org\apache\rave\portal\model\conversion\JpaPageConverterTest.java,0,5,1,7
org.apache.rave.portal.model.conversion.JpaPageLayoutConverter, 0, 0, 0, 0, 0, 0, 0, 0, 0, 0, 0, 0, 0, 0,0.0,0.0,0.0,0.0,0.0,0.0,0.0,0.0,0.0,0.0,0.0,0.0,0.0,31,rave-components\rave-jpa\src\main\java\org\apache\rave\portal\model\conversion\JpaPageLayoutConverter.java,0,0,0,0
org.apache.rave.portal.model.conversion.JpaPageTemplateConverter, 0, 0, 0, 0, 0, 0, 0, 0, 0, 0, 0, 0, 0, 0,0.0,0.0,0.0,0.5,0.0,0.0,0.0,0.0,0.0,0.0,0.0,0.0,0.0,35,rave-components\rave-jpa\src\main\java\org\apache\rave\portal\model\conversion\JpaPageTemplateConverter.java,2,4,2,10
org.apache.rave.portal.model.conversion.JpaPageTemplateConverterTest, 0, 0, 0, 0, 0, 0, 0, 0, 0, 0, 0, 0, 0, 0,0.0,0.0,0.0,0.5,0.0,0.0,0.0,0.0,0.0,0.0,0.0,0.0,0.0,43,rave-components\rave-jpa\src\test\java\org\apache\rave\portal\model\conversion\JpaPageTemplateConverterTest.java,0,0,1,2
org.apache.rave.portal.model.conversion.JpaPageTemplateRegionConverter, 0, 0, 0, 0, 0, 0, 0, 0, 0, 0, 0, 0, 0, 0,0.0,0.0,0.0,0.0,0.0,0.0,0.0,0.0,0.0,0.0,0.0,0.0,0.0,29,rave-components\rave-jpa\src\main\java\org\apache\rave\portal\model\conversion\JpaPageTemplateRegionConverter.java,0,0,0,0
org.apache.rave.portal.model.conversion.JpaPageTemplateRegionConverterTest, 0, 0, 0, 0, 0, 0, 0, 0, 0, 0, 0, 0, 0, 0,0.0,0.0,0.0,0.25,0.0,0.0,0.0,0.0,0.0,0.0,0.0,0.0,0.0,32,rave-components\rave-jpa\src\test\java\org\apache\rave\portal\model\conversion\JpaPageTemplateRegionConverterTest.java,0,0,0,0
org.apache.rave.portal.model.conversion.JpaPageTemplateWidgetConverter, 0, 0, 0, 0, 0, 0, 0, 0, 0, 0, 0, 0, 0, 0,0.0,0.0,0.0,0.0,0.0,0.0,0.0,0.0,0.0,0.0,0.0,0.0,0.0,30,rave-components\rave-jpa\src\main\java\org\apache\rave\portal\model\conversion\JpaPageTemplateWidgetConverter.java,0,0,0,0
org.apache.rave.portal.model.conversion.JpaPageTemplateWidgetConverterTest, 0, 0, 0, 0, 0, 0, 0, 0, 0, 0, 0, 0, 0, 0,0.0,0.0,0.0,0.2,0.0,0.0,0.0,0.0,0.0,0.0,0.0,0.0,0.0,37,rave-components\rave-jpa\src\test\java\org\apache\rave\portal\model\conversion\JpaPageTemplateWidgetConverterTest.java,0,0,0,0
org.apache.rave.portal.model.conversion.JpaPageUserConverter, 0, 0, 0, 0, 0, 0, 0, 0, 0, 0, 0, 0, 0, 0,0.0,0.0,0.0,0.0,0.0,0.0,0.0,0.0,0.0,0.0,0.0,0.0,0.0,30,rave-components\rave-jpa\src\main\java\org\apache\rave\portal\model\conversion\JpaPageUserConverter.java,0,0,0,0
org.apache.rave.portal.model.conversion.JpaPersonConverter, 0, 0, 0, 0, 0, 0, 0, 0, 0, 0, 0, 0, 0, 0,0.0,0.0,0.0,0.3333333333333333,0.0,0.0,0.0,0.0,0.0,0.0,0.0,0.0,0.0,41,rave-components\rave-jpa\src\main\java\org\apache\rave\portal\model\conversion\JpaPersonConverter.java,0,0,0,0
org.apache.rave.portal.model.conversion.JpaPersonConverterTest, 0, 0, 0, 0, 0, 0, 0, 0, 0, 0, 0, 0, 0, 0,0.0,0.0,0.0,0.5,0.0,0.0,0.0,0.0,0.0,0.0,0.0,0.0,0.0,52,rave-components\rave-jpa\src\test\java\org\apache\rave\portal\model\conversion\JpaPersonConverterTest.java,0,0,0,0
org.apache.rave.portal.model.conversion.JpaPersonPropertyConverter, 0, 0, 0, 0, 0, 0, 0, 0, 0, 0, 0, 0, 0, 0,0.0,0.0,0.0,0.0,0.0,0.0,0.0,0.5,0.0,0.0,0.0,0.0,0.0,26,rave-components\rave-jpa\src\main\java\org\apache\rave\portal\model\conversion\JpaPersonPropertyConverter.java,0,0,0,0
org.apache.rave.portal.model.conversion.JpaPersonPropertyConverterTest, 0, 0, 0, 0, 0, 0, 0, 0, 0, 0, 0, 0, 0, 0,0.0,0.0,0.0,0.0,0.0,0.0,0.0,0.6666666666666666,0.0,0.0,0.0,0.0,0.0,35,rave-components\rave-jpa\src\test\java\org\apache\rave\portal\model\conversion\JpaPersonPropertyConverterTest.java,0,0,0,0
org.apache.rave.portal.model.conversion.JpaPortalPreferenceConverter, 0, 0, 0, 0, 0, 0, 0, 0, 0, 0, 0, 0, 0, 0,0.0,0.0,0.0,0.0,0.0,0.0,0.0,0.0,0.0,0.0,0.0,0.0,0.0,29,rave-components\rave-jpa\src\main\java\org\apache\rave\portal\model\conversion\JpaPortalPreferenceConverter.java,0,0,0,0
org.apache.rave.portal.model.conversion.JpaPortalPreferenceConverterTest, 0, 0, 0, 0, 0, 0, 0, 0, 0, 0, 0, 0, 0, 0,0.0,0.0,0.0,0.0,0.0,0.0,0.0,0.0,0.0,0.0,0.0,0.0,0.0,28,rave-components\rave-jpa\src\test\java\org\apache\rave\portal\model\conversion\JpaPortalPreferenceConverterTest.java,0,0,0,0
org.apache.rave.portal.model.conversion.JpaRegionConverter, 0, 0, 0, 0, 0, 0, 0, 0, 0, 0, 0, 0, 0, 0,0.0,0.0,0.0,0.0,0.0,0.0,0.0,0.0,0.0,0.0,0.0,0.0,0.0,32,rave-components\rave-jpa\src\main\java\org\apache\rave\portal\model\conversion\JpaRegionConverter.java,0,0,0,0
org.apache.rave.portal.model.conversion.JpaRegionConverterTest, 0, 0, 0, 0, 0, 0, 0, 0, 0, 0, 0, 0, 0, 0,0.0,0.0,0.0,0.0,0.0,0.0,0.0,0.0,0.0,0.0,0.0,0.0,0.0,31,rave-components\rave-jpa\src\test\java\org\apache\rave\portal\model\conversion\JpaRegionConverterTest.java,0,0,0,0
org.apache.rave.portal.model.conversion.JpaRegionWidgetConverter, 0, 0, 0, 0, 0, 0, 0, 0, 0, 0, 0, 0, 0, 0,0.0,0.0,0.0,0.0,0.0,0.0,0.0,0.0,0.0,0.0,0.0,0.0,0.0,36,rave-components\rave-jpa\src\main\java\org\apache\rave\portal\model\conversion\JpaRegionWidgetConverter.java,0,0,0,0
org.apache.rave.portal.model.conversion.JpaRegionWidgetConverterTest, 0, 0, 0, 0, 0, 0, 0, 0, 0, 0, 0, 0, 0, 0,0.0,0.0,0.0,0.3333333333333333,0.0,0.0,0.0,0.0,0.0,0.0,0.0,0.0,0.0,39,rave-components\rave-jpa\src\test\java\org\apache\rave\portal\model\conversion\JpaRegionWidgetConverterTest.java,0,0,0,0
org.apache.rave.portal.model.conversion.JpaRegionWidgetPreferenceConverter, 0, 0, 0, 0, 0, 0, 0, 0, 0, 0, 0, 0, 0, 0,0.0,0.0,0.0,0.0,0.0,0.0,0.0,0.0,0.0,0.0,0.0,0.0,0.0,31,rave-components\rave-jpa\src\main\java\org\apache\rave\portal\model\conversion\JpaRegionWidgetPreferenceConverter.java,0,0,0,0
org.apache.rave.portal.model.conversion.JpaRegionWidgetPreferenceConverterTest, 0, 0, 0, 0, 0, 0, 0, 0, 0, 0, 0, 0, 0, 0,0.0,0.0,0.0,0.0,0.0,0.0,0.0,0.0,0.0,0.0,0.0,0.0,0.0,30,rave-components\rave-jpa\src\test\java\org\apache\rave\portal\model\conversion\JpaRegionWidgetPreferenceConverterTest.java,0,0,0,0
org.apache.rave.portal.model.conversion.JpaTagConverter, 0, 0, 0, 0, 0, 0, 0, 0, 0, 0, 0, 0, 0, 0,0.0,0.0,0.0,0.0,0.0,0.0,0.0,0.0,0.0,0.0,0.0,0.0,0.0,26,rave-components\rave-jpa\src\main\java\org\apache\rave\portal\model\conversion\JpaTagConverter.java,0,0,0,0
org.apache.rave.portal.model.conversion.JpaTagConverterTest, 0, 0, 0, 0, 0, 0, 0, 0, 0, 0, 0, 0, 0, 0,0.0,0.0,0.0,0.0,0.0,0.0,0.0,0.0,0.0,0.0,0.0,0.0,0.0,20,rave-components\rave-jpa\src\test\java\org\apache\rave\portal\model\conversion\JpaTagConverterTest.java,0,0,0,0
org.apache.rave.portal.model.conversion.JpaUserConverter, 0, 0, 0, 0, 0, 0, 0, 0, 0, 0, 0, 0, 0, 0,0.0,0.0,0.0,0.25,0.0,0.0,0.0,0.0,0.0,0.0,0.0,0.0,0.0,54,rave-components\rave-jpa\src\main\java\org\apache\rave\portal\model\conversion\JpaUserConverter.java,0,0,0,0
org.apache.rave.portal.model.conversion.JpaUserConverterTest, 0, 0, 0, 0, 0, 0, 0, 0, 0, 0, 0, 0, 0, 0,0.0,0.0,0.0,0.5,0.0,0.0,0.0,0.0,0.0,0.0,0.0,0.0,0.0,75,rave-components\rave-jpa\src\test\java\org\apache\rave\portal\model\conversion\JpaUserConverterTest.java,0,0,0,0
org.apache.rave.portal.model.conversion.JpaWidgetCommentConverter, 0, 0, 0, 0, 0, 0, 0, 0, 0, 0, 0, 0, 0, 0,0.0,0.0,0.0,0.0,0.0,0.0,0.0,0.5,0.0,0.0,0.0,0.0,0.0,29,rave-components\rave-jpa\src\main\java\org\apache\rave\portal\model\conversion\JpaWidgetCommentConverter.java,0,0,0,0
org.apache.rave.portal.model.conversion.JpaWidgetCommentConverterTest, 0, 0, 0, 0, 0, 0, 0, 0, 0, 0, 0, 0, 0, 0,0.0,0.0,0.0,0.0,0.0,0.0,0.0,0.3333333333333333,0.0,0.0,0.0,0.0,0.0,30,rave-components\rave-jpa\src\test\java\org\apache\rave\portal\model\conversion\JpaWidgetCommentConverterTest.java,0,0,0,0
org.apache.rave.portal.model.conversion.JpaWidgetConverter, 0, 0, 0, 0, 0, 0, 0, 0, 0, 0, 0, 0, 0, 0,0.0,0.0,0.0,0.5,0.0,0.0,0.0,0.0,0.0,0.0,0.0,0.0,0.0,41,rave-components\rave-jpa\src\main\java\org\apache\rave\portal\model\conversion\JpaWidgetConverter.java,0,1,0,1
org.apache.rave.portal.model.conversion.JpaWidgetConverterTest, 0, 0, 0, 0, 0, 0, 0, 0, 0, 0, 0, 0, 0, 0,0.0,0.0,0.0,0.6666666666666666,0.0,0.0,0.0,0.0,0.0,0.0,0.0,0.0,0.0,61,rave-components\rave-jpa\src\test\java\org\apache\rave\portal\model\conversion\JpaWidgetConverterTest.java,0,3,0,3
org.apache.rave.portal.model.conversion.JpaWidgetRatingConverter, 0, 0, 0, 0, 0, 0, 0, 0, 0, 0, 0, 0, 0, 0,0.0,0.0,0.0,0.0,0.0,0.0,0.0,0.0,0.0,0.0,0.0,0.0,0.0,22,rave-components\rave-jpa\src\main\java\org\apache\rave\portal\model\conversion\JpaWidgetRatingConverter.java,0,0,0,0
org.apache.rave.portal.model.conversion.JpaWidgetRatingConverterTest, 0, 0, 0, 0, 0, 0, 0, 0, 0, 0, 0, 0, 0, 0,0.0,0.0,0.0,0.0,0.0,0.0,0.0,0.0,0.0,0.0,0.0,0.0,0.0,28,rave-components\rave-jpa\src\test\java\org\apache\rave\portal\model\conversion\JpaWidgetRatingConverterTest.java,0,0,0,0
org.apache.rave.portal.model.conversion.JpaWidgetTagConverter, 0, 0, 0, 0, 0, 0, 0, 0, 0, 0, 0, 0, 0, 0,0.0,0.0,0.0,0.0,0.0,0.0,0.0,0.0,0.0,0.0,0.0,0.0,0.0,29,rave-components\rave-jpa\src\main\java\org\apache\rave\portal\model\conversion\JpaWidgetTagConverter.java,0,0,0,0
org.apache.rave.portal.model.conversion.JpaWidgetTagConverterTest, 0, 0, 0, 0, 0, 0, 0, 0, 0, 0, 0, 0, 0, 0,0.0,0.0,0.0,0.25,0.0,0.0,0.0,0.0,0.0,0.0,0.0,0.0,0.0,25,rave-components\rave-jpa\src\test\java\org\apache\rave\portal\model\conversion\JpaWidgetTagConverterTest.java,0,0,0,0
org.apache.rave.portal.model.conversion.impl.MongDbConverterTest, 0, 0, 1, 0, 0, 0, 0, 0, 0, 0, 0, 0, 0, 1,0.0,0.0,0.0,0.0,0.0,0.0,0.0,0.0,0.0,0.0,0.0,0.0,0.0,66,rave-components\rave-mongodb\src\test\java\org\apache\rave\portal\model\conversion\impl\MongDbConverterTest.java,0,0,0,0
org.apache.rave.portal.model.conversion.impl.MongoDbActivityStreamsEntryConverter, 0, 0, 0, 0, 0, 0, 0, 0, 0, 0, 0, 0, 0, 0,0.0,0.0,0.0,0.0,0.0,0.0,0.0,0.0,0.0,0.0,0.0,0.0,0.0,137,rave-components\rave-mongodb\src\main\java\org\apache\rave\portal\model\conversion\impl\MongoDbActivityStreamsEntryConverter.java,0,0,0,0
org.apache.rave.portal.model.conversion.impl.MongoDbActivityStreamsEntryConverterTest, 0, 0, 0, 0, 0, 0, 0, 0, 0, 0, 0, 0, 0, 0,0.0,0.0,0.0,0.0,0.0,0.0,0.0,0.0,0.0,0.0,0.0,0.0,0.0,64,rave-components\rave-mongodb\src\test\java\org\apache\rave\portal\model\conversion\impl\MongoDbActivityStreamsEntryConverterTest.java,0,0,0,0
org.apache.rave.portal.model.conversion.impl.MongoDbAuthorityConverter, 0, 0, 0, 0, 0, 0, 0, 0, 0, 0, 0, 0, 0, 0,0.0,0.0,0.0,0.0,0.0,0.0,0.0,0.0,0.0,0.0,0.0,0.0,0.0,16,rave-components\rave-mongodb\src\main\java\org\apache\rave\portal\model\conversion\impl\MongoDbAuthorityConverter.java,0,0,0,0
org.apache.rave.portal.model.conversion.impl.MongoDbAuthorityConverterTest, 0, 0, 0, 0, 0, 0, 0, 0, 0, 0, 0, 0, 0, 0,0.0,0.0,0.0,0.0,0.0,0.0,0.0,0.0,0.0,0.0,0.0,0.0,0.0,34,rave-components\rave-mongodb\src\test\java\org\apache\rave\portal\model\conversion\impl\MongoDbAuthorityConverterTest.java,0,0,0,0
org.apache.rave.portal.model.conversion.impl.MongoDbCategoryConverter, 0, 0, 0, 0, 0, 0, 0, 0, 0, 0, 0, 0, 0, 0,0.0,0.0,0.0,0.0,0.0,0.0,0.0,0.0,0.0,0.0,0.0,0.0,0.0,30,rave-components\rave-mongodb\src\main\java\org\apache\rave\portal\model\conversion\impl\MongoDbCategoryConverter.java,0,0,0,0
org.apache.rave.portal.model.conversion.impl.MongoDbCategoryConverterTest, 0, 0, 0, 0, 0, 0, 0, 0, 0, 0, 0, 0, 0, 0,0.0,0.0,0.0,0.0,0.0,0.0,0.0,0.0,0.0,0.0,0.0,0.0,0.0,52,rave-components\rave-mongodb\src\test\java\org\apache\rave\portal\model\conversion\impl\MongoDbCategoryConverterTest.java,0,0,0,0
org.apache.rave.portal.model.conversion.impl.MongoDbGroupConverter, 0, 0, 0, 0, 0, 0, 0, 0, 0, 0, 0, 0, 0, 0,0.0,0.0,0.0,0.0,0.0,0.3333333333333333,0.0,0.0,0.0,0.0,0.0,0.0,0.0,19,rave-components\rave-mongodb\src\main\java\org\apache\rave\portal\model\conversion\impl\MongoDbGroupConverter.java,0,0,0,0
org.apache.rave.portal.model.conversion.impl.MongoDbGroupConverterTest, 0, 0, 0, 0, 0, 0, 0, 0, 0, 0, 0, 0, 0, 0,0.0,0.0,0.0,0.0,0.0,0.0,0.0,0.0,0.0,0.0,0.0,0.0,0.0,43,rave-components\rave-mongodb\src\test\java\org\apache\rave\portal\model\conversion\impl\MongoDbGroupConverterTest.java,0,0,0,0
org.apache.rave.portal.model.conversion.impl.MongoDbPageConverter, 0, 0, 0, 0, 0, 0, 0, 0, 0, 0, 0, 0, 0, 0,0.0,0.0,0.0,0.14285714285714285,0.0,0.0,0.0,0.0,0.0,0.0,0.0,0.0,0.0,133,rave-components\rave-mongodb\src\main\java\org\apache\rave\portal\model\conversion\impl\MongoDbPageConverter.java,0,2,1,4
org.apache.rave.portal.model.conversion.impl.MongoDbPageConverterTest, 0, 0, 0, 0, 0, 0, 0, 0, 0, 0, 0, 0, 0, 0,0.0,0.0,0.0,0.125,0.0,0.0,0.0,0.0,0.0,0.0,0.0,0.0,0.0,206,rave-components\rave-mongodb\src\test\java\org\apache\rave\portal\model\conversion\impl\MongoDbPageConverterTest.java,0,2,2,6
org.apache.rave.portal.model.conversion.impl.MongoDbPageTemplateConverter, 0, 0, 0, 0, 0, 0, 0, 0, 0, 0, 0, 0, 0, 0,0.0,0.0,0.0,0.2,0.0,0.0,0.0,0.0,0.0,0.0,0.0,0.0,0.0,95,rave-components\rave-mongodb\src\main\java\org\apache\rave\portal\model\conversion\impl\MongoDbPageTemplateConverter.java,0,0,1,2
org.apache.rave.portal.model.conversion.impl.MongoDbPageTemplateConverterTest, 0, 0, 0, 0, 0, 0, 0, 0, 0, 0, 0, 0, 0, 0,0.0,0.0,0.0,0.25,0.0,0.0,0.0,0.0,0.0,0.0,0.0,0.0,0.0,250,rave-components\rave-mongodb\src\test\java\org\apache\rave\portal\model\conversion\impl\MongoDbPageTemplateConverterTest.java,0,0,2,4
org.apache.rave.portal.model.conversion.impl.MongoDbPortalPreferenceConverter, 0, 0, 0, 0, 0, 0, 0, 0, 0, 0, 0, 0, 0, 0,0.0,0.0,0.0,0.0,0.0,0.0,0.0,0.0,0.0,0.0,0.0,0.0,0.0,16,rave-components\rave-mongodb\src\main\java\org\apache\rave\portal\model\conversion\impl\MongoDbPortalPreferenceConverter.java,0,0,0,0
org.apache.rave.portal.model.conversion.impl.MongoDbPortalPreferenceConverterTest, 0, 0, 0, 0, 0, 0, 0, 0, 0, 0, 0, 0, 0, 0,0.0,0.0,0.0,0.0,0.0,0.0,0.0,0.0,0.0,0.0,0.0,0.0,0.0,35,rave-components\rave-mongodb\src\test\java\org\apache\rave\portal\model\conversion\impl\MongoDbPortalPreferenceConverterTest.java,0,0,0,0
org.apache.rave.portal.model.conversion.impl.MongoDbUserConverter, 0, 0, 0, 0, 0, 0, 0, 0, 0, 0, 0, 0, 0, 0,0.0,0.0,0.0,0.4,0.0,0.0,0.0,0.2,0.0,0.0,0.0,0.0,0.0,96,rave-components\rave-mongodb\src\main\java\org\apache\rave\portal\model\conversion\impl\MongoDbUserConverter.java,0,0,0,0
org.apache.rave.portal.model.conversion.impl.MongoDbUserConverterTest, 0, 0, 0, 0, 0, 0, 0, 0, 0, 0, 0, 0, 0, 0,0.0,0.0,0.0,0.375,0.0,0.0,0.0,0.125,0.0,0.0,0.0,0.0,0.0,130,rave-components\rave-mongodb\src\test\java\org\apache\rave\portal\model\conversion\impl\MongoDbUserConverterTest.java,0,0,0,0
org.apache.rave.portal.model.conversion.impl.MongoDbWidgetConverter, 0, 0, 0, 0, 0, 0, 0, 0, 0, 0, 0, 0, 0, 0,0.0,0.0,0.0,0.2,0.0,0.0,0.0,0.0,0.0,0.0,0.0,0.0,0.0,91,rave-components\rave-mongodb\src\main\java\org\apache\rave\portal\model\conversion\impl\MongoDbWidgetConverter.java,0,1,0,1
org.apache.rave.portal.model.conversion.impl.MongoDbWidgetConverterTest, 0, 0, 0, 0, 0, 0, 0, 0, 0, 0, 0, 0, 0, 0,0.0,0.0,0.0,0.14285714285714285,0.0,0.0,0.0,0.0,0.0,0.0,0.0,0.0,0.0,140,rave-components\rave-mongodb\src\test\java\org\apache\rave\portal\model\conversion\impl\MongoDbWidgetConverterTest.java,0,4,0,4
org.apache.rave.portal.model.conversion.impl.TagImplConverter, 0, 0, 0, 0, 0, 0, 0, 0, 0, 0, 0, 0, 0, 0,0.0,0.0,0.0,0.0,0.0,0.0,0.0,0.0,0.0,0.0,0.0,0.0,0.0,14,rave-components\rave-mongodb\src\main\java\org\apache\rave\portal\model\conversion\impl\TagImplConverter.java,0,0,0,0
org.apache.rave.portal.model.impl.AddressImpl, 0, 0, 0, 1, 0, 0, 0, 0, 0, 0, 0, 0, 0, 1,0.0,0.0,0.0,0.0,0.0,0.0,0.0,0.0,0.0,0.0,0.0,0.0,0.0,108,rave-components\rave-core\src\main\java\org\apache\rave\portal\model\impl\AddressImpl.java,0,0,0,0
org.apache.rave.portal.model.impl.AuthorityImpl, 0, 0, 0, 0, 0, 0, 0, 0, 0, 0, 0, 0, 0, 0,0.0,0.0,0.0,0.08333333333333333,0.0,0.0,0.0,0.0,0.0,0.0,0.0,0.0,0.0,60,rave-components\rave-core\src\main\java\org\apache\rave\portal\model\impl\AuthorityImpl.java,0,0,0,0
org.apache.rave.portal.model.impl.CategoryImpl, 0, 0, 0, 0, 0, 0, 0, 0, 0, 0, 0, 0, 0, 0,0.0,0.0,0.0,0.05555555555555555,0.0,0.0,0.0,0.05555555555555555,0.0,0.0,0.0,0.0,0.0,82,rave-components\rave-core\src\main\java\org\apache\rave\portal\model\impl\CategoryImpl.java,0,0,0,0
org.apache.rave.portal.model.impl.ExternalWidgetImpl, 0, 0, 0, 0, 0, 0, 0, 0, 0, 0, 0, 0, 0, 0,0.0,0.0,0.0,1.0,0.0,0.0,0.0,0.0,0.0,0.0,0.0,0.0,0.0,12,rave-components\rave-core\src\main\java\org\apache\rave\portal\model\impl\ExternalWidgetImpl.java,0,0,0,0
org.apache.rave.portal.model.impl.GroupImpl, 0, 0, 0, 0, 0, 0, 0, 0, 0, 0, 0, 0, 0, 0,0.0,0.0,0.0,0.0,0.0,0.25,0.0,0.0,0.0,0.0,0.0,0.0,0.0,66,rave-components\rave-core\src\main\java\org\apache\rave\portal\model\impl\GroupImpl.java,0,0,0,0
org.apache.rave.portal.model.impl.OAuthConsumerStoreImpl, 0, 0, 0, 0, 0, 0, 0, 0, 0, 0, 0, 0, 0, 0,0.0,0.0,0.0,0.0,0.0,0.0,0.0,0.0,0.0,0.0,0.0,0.0,0.0,74,rave-components\rave-core\src\main\java\org\apache\rave\portal\model\impl\OAuthConsumerStoreImpl.java,0,0,0,0
org.apache.rave.portal.model.impl.OAuthTokenInfoImpl, 0, 0, 0, 1, 0, 0, 0, 1, 0, 0, 0, 0, 0, 2,0.0,0.0,0.0,0.0,0.0,0.0,0.0,0.2,0.0,0.0,0.0,0.0,0.0,107,rave-components\rave-core\src\main\java\org\apache\rave\portal\model\impl\OAuthTokenInfoImpl.java,0,0,0,0
org.apache.rave.portal.model.impl.OrganizationImpl, 0, 0, 0, 1, 0, 0, 0, 0, 0, 0, 0, 0, 0, 1,0.0,0.0,0.0,0.0,0.0,0.0,0.0,0.0,0.0,0.0,0.0,0.0,0.0,112,rave-components\rave-core\src\main\java\org\apache\rave\portal\model\impl\OrganizationImpl.java,0,0,0,0
org.apache.rave.portal.model.impl.PageImpl, 0, 0, 0, 0, 0, 0, 0, 0, 0, 0, 0, 0, 0, 0,0.0,0.0,0.041666666666666664,0.375,0.0,0.0,0.0,0.041666666666666664,0.0,0.0,0.0,0.0,0.0,105,rave-components\rave-core\src\main\java\org\apache\rave\portal\model\impl\PageImpl.java,0,19,3,25
org.apache.rave.portal.model.impl.PageLayoutImpl, 0, 0, 0, 0, 0, 0, 0, 0, 0, 0, 0, 0, 0, 0,0.0,0.0,0.0,0.058823529411764705,0.0,0.0,0.0,0.0,0.0,0.0,0.0,0.0,0.0,55,rave-components\rave-core\src\main\java\org\apache\rave\portal\model\impl\PageLayoutImpl.java,0,0,0,0
org.apache.rave.portal.model.impl.PageTemplateImpl, 0, 0, 0, 1, 0, 0, 0, 0, 0, 0, 0, 0, 0, 1,0.0,0.0,0.0,0.2,0.0,0.0,0.0,0.0,0.0,0.0,0.0,0.0,0.0,109,rave-components\rave-core\src\main\java\org\apache\rave\portal\model\impl\PageTemplateImpl.java,0,0,3,6
org.apache.rave.portal.model.impl.PageTemplateRegionImpl, 0, 0, 0, 0, 0, 0, 0, 0, 0, 0, 0, 0, 0, 0,0.0,0.0,0.0,0.0,0.0,0.0,0.0,0.0,0.0,0.0,0.0,0.0,0.0,62,rave-components\rave-core\src\main\java\org\apache\rave\portal\model\impl\PageTemplateRegionImpl.java,0,0,0,0
org.apache.rave.portal.model.impl.PageTemplateWidgetImpl, 0, 0, 0, 0, 0, 0, 0, 0, 0, 0, 0, 0, 0, 0,0.0,0.0,0.0,0.0,0.0,0.0,0.0,0.0,0.0,0.0,0.0,0.0,0.0,71,rave-components\rave-core\src\main\java\org\apache\rave\portal\model\impl\PageTemplateWidgetImpl.java,0,0,0,0
org.apache.rave.portal.model.impl.PageUserImpl, 0, 0, 0, 0, 0, 0, 0, 0, 0, 0, 0, 0, 0, 0,0.0,0.0,0.0,0.2857142857142857,0.0,0.0,0.0,0.14285714285714285,0.0,0.0,0.0,0.0,0.0,93,rave-components\rave-core\src\main\java\org\apache\rave\portal\model\impl\PageUserImpl.java,0,0,0,0
org.apache.rave.portal.model.impl.PersonImpl, 0, 0, 0, 1, 0, 0, 0, 0, 0, 0, 0, 0, 0, 1,0.0,0.0,0.0,0.625,0.0,0.0,0.0,0.0,0.0,0.0,0.0,0.0,0.0,150,rave-components\rave-core\src\main\java\org\apache\rave\portal\model\impl\PersonImpl.java,0,0,0,0
org.apache.rave.portal.model.impl.PersonPropertyImpl, 0, 0, 0, 0, 0, 0, 0, 1, 0, 0, 0, 0, 0, 1,0.0,0.0,0.0,0.4,0.0,0.0,0.0,0.0,0.0,0.0,0.0,0.0,0.0,80,rave-components\rave-core\src\main\java\org\apache\rave\portal\model\impl\PersonPropertyImpl.java,0,0,0,0
org.apache.rave.portal.model.impl.PortalPreferenceImpl, 0, 0, 0, 0, 0, 0, 0, 0, 0, 0, 0, 0, 0, 0,0.0,0.0,0.0,0.0,0.0,0.0,0.0,0.0,0.0,0.0,0.0,0.0,0.0,53,rave-components\rave-core\src\main\java\org\apache\rave\portal\model\impl\PortalPreferenceImpl.java,0,0,0,0
org.apache.rave.portal.model.impl.RegionImpl, 0, 0, 0, 0, 0, 0, 0, 0, 0, 0, 0, 0, 0, 0,0.0,0.0,0.05263157894736842,0.2631578947368421,0.0,0.0,0.0,0.05263157894736842,0.0,0.0,0.0,0.0,0.0,89,rave-components\rave-core\src\main\java\org\apache\rave\portal\model\impl\RegionImpl.java,0,0,0,0
org.apache.rave.portal.model.impl.RegionWidgetImpl, 0, 0, 0, 1, 0, 0, 0, 0, 0, 0, 0, 0, 0, 1,0.0,0.0,0.058823529411764705,0.23529411764705882,0.0,0.0,0.0,0.058823529411764705,0.0,0.0,0.0,0.0,0.0,143,rave-components\rave-core\src\main\java\org\apache\rave\portal\model\impl\RegionWidgetImpl.java,0,0,0,0
org.apache.rave.portal.model.impl.RegionWidgetPreferenceImpl, 0, 0, 0, 0, 0, 0, 0, 0, 0, 0, 0, 0, 0, 0,0.0,0.0,0.0,0.0,0.0,0.0,0.0,0.0,0.0,0.0,0.0,0.0,0.0,47,rave-components\rave-core\src\main\java\org\apache\rave\portal\model\impl\RegionWidgetPreferenceImpl.java,0,0,0,0
org.apache.rave.portal.model.impl.TagImpl, 0, 0, 0, 0, 0, 0, 0, 0, 0, 0, 0, 0, 0, 0,0.0,0.0,0.0,0.0,0.0,0.0,0.0,0.0,0.0,0.0,0.0,0.0,0.0,21,rave-components\rave-core\src\main\java\org\apache\rave\portal\model\impl\TagImpl.java,0,0,0,0
org.apache.rave.portal.model.impl.UserImpl, 0, 0, 0, 1, 0, 0, 0, 0, 0, 0, 0, 0, 0, 1,0.0,0.0,0.0,0.21951219512195122,0.0,0.0,0.0,0.0975609756097561,0.0,0.0,0.0,0.0,0.0,182,rave-components\rave-core\src\main\java\org\apache\rave\portal\model\impl\UserImpl.java,0,0,0,0
org.apache.rave.portal.model.impl.WidgetCommentImpl, 0, 0, 0, 0, 0, 0, 0, 0, 0, 0, 0, 0, 0, 0,0.0,0.0,0.0,0.0,0.0,0.0,0.0,0.0,0.0,0.0,0.0,0.0,0.0,58,rave-components\rave-core\src\main\java\org\apache\rave\portal\model\impl\WidgetCommentImpl.java,0,0,0,0
org.apache.rave.portal.model.impl.WidgetImpl, 0, 0, 0, 1, 0, 0, 0, 0, 0, 0, 0, 0, 0, 1,0.0,0.0,0.0,0.07142857142857142,0.0,0.0,0.0,0.03571428571428571,0.0,0.0,0.0,0.0,0.0,195,rave-components\rave-core\src\main\java\org\apache\rave\portal\model\impl\WidgetImpl.java,0,8,0,8
org.apache.rave.portal.model.impl.WidgetRatingImpl, 0, 0, 0, 0, 0, 0, 0, 0, 0, 0, 0, 0, 0, 0,0.0,0.0,0.0,0.14285714285714285,0.0,0.0,0.0,0.0,0.0,0.0,0.0,0.0,0.0,50,rave-components\rave-core\src\main\java\org\apache\rave\portal\model\impl\WidgetRatingImpl.java,0,0,0,0
org.apache.rave.portal.model.impl.WidgetTagImpl, 0, 0, 0, 0, 0, 0, 0, 0, 0, 0, 0, 0, 0, 0,0.0,0.0,0.0,0.0,0.0,0.0,0.0,0.0,0.0,0.0,0.0,0.0,0.0,29,rave-components\rave-core\src\main\java\org\apache\rave\portal\model\impl\WidgetTagImpl.java,0,0,0,0
org.apache.rave.portal.model.util.InternationalString, 0, 0, 0, 0, 0, 0, 0, 0, 0, 0, 0, 0, 0, 0,0.0,0.0,0.0,0.0,0.0,0.0,0.0,0.0,0.0,0.0,0.0,0.0,0.0,32,rave-components\rave-core\src\main\java\org\apache\rave\portal\model\util\InternationalString.java,0,0,0,0
org.apache.rave.portal.model.util.LocalizedString, 0, 0, 0, 0, 0, 0, 0, 0, 0, 0, 0, 0, 0, 0,0.0,0.0,0.0,0.0,0.0,0.0,0.0,0.0,0.0,0.0,0.0,0.0,0.0,22,rave-components\rave-core\src\main\java\org\apache\rave\portal\model\util\LocalizedString.java,0,0,0,0
org.apache.rave.portal.model.util.ModelUtils, 0, 0, 0, 0, 0, 0, 0, 0, 0, 0, 0, 0, 0, 0,0.0,0.0,0.0,0.0,0.0,0.0,0.0,0.0,0.0,0.0,0.0,0.0,0.0,12,rave-components\rave-core\src\main\java\org\apache\rave\portal\model\util\ModelUtils.java,0,0,0,0
org.apache.rave.portal.model.util.ModelUtilsTest, 0, 0, 0, 0, 0, 0, 0, 0, 0, 0, 0, 0, 0, 0,0.0,0.0,0.0,0.0,0.0,0.0,0.0,0.0,0.0,0.0,0.0,0.0,0.0,21,rave-components\rave-core\src\test\java\org\apache\rave\portal\model\util\ModelUtilsTest.java,0,0,0,0
org.apache.rave.portal.model.util.SearchResult, 0, 0, 0, 0, 0, 0, 0, 0, 0, 0, 0, 0, 0, 0,0.0,0.0,0.1,0.1,0.0,0.0,0.0,0.1,0.0,0.0,0.0,0.0,0.0,49,rave-components\rave-core\src\main\java\org\apache\rave\portal\model\util\SearchResult.java,51,0,0,51
org.apache.rave.portal.model.util.SearchResultTest, 0, 0, 0, 0, 0, 0, 0, 0, 0, 0, 0, 0, 0, 0,0.0,0.0,0.0,0.0,0.0,0.0,0.0,0.0,0.0,0.0,0.0,0.0,0.0,36,rave-components\rave-core\src\test\java\org\apache\rave\portal\model\util\SearchResultTest.java,0,1,1,3
org.apache.rave.portal.model.util.WidgetMarketplaceSearchResult, 0, 0, 1, 0, 0, 0, 0, 0, 0, 0, 0, 0, 0, 1,0.0,0.0,0.0,0.0,0.0,0.0,0.0,0.0,0.0,0.0,0.0,0.0,0.0,49,rave-components\rave-core\src\main\java\org\apache\rave\portal\model\util\WidgetMarketplaceSearchResult.java,0,1,0,1
org.apache.rave.portal.model.util.WidgetMarketplaceWidgetResult, 0, 0, 1, 0, 0, 0, 0, 0, 0, 0, 0, 0, 0, 1,0.0,0.0,0.0,0.0,0.0,0.0,0.0,0.0,0.0,0.0,0.0,0.0,0.0,35,rave-components\rave-core\src\main\java\org\apache\rave\portal\model\util\WidgetMarketplaceWidgetResult.java,0,0,0,0
org.apache.rave.portal.model.util.WidgetStatistics, 0, 0, 0, 0, 0, 0, 0, 0, 0, 0, 0, 0, 0, 0,0.0,0.0,0.0,0.0,0.0,0.0,0.0,0.0,0.0,0.0,0.0,0.0,0.0,39,rave-components\rave-core\src\main\java\org\apache\rave\portal\model\util\WidgetStatistics.java,0,0,0,0
org.apache.rave.portal.model.util.omdl.BadOmdlXmlFormatException, 0, 0, 0, 0, 0, 0, 0, 0, 0, 0, 0, 0, 0, 0,0.0,0.0,0.0,0.0,0.0,0.0,0.0,0.0,0.0,0.0,0.0,0.0,0.0,15,rave-components\rave-core\src\main\java\org\apache\rave\portal\model\util\omdl\BadOmdlXmlFormatException.java,0,0,0,0
org.apache.rave.portal.model.util.omdl.OmdlConstants, 0, 0, 0, 0, 0, 0, 0, 0, 0, 0, 0, 0, 0, 0,0.0,0.0,0.0,0.0,0.0,0.0,0.0,0.0,0.0,0.0,0.0,0.0,0.0,15,rave-components\rave-core\src\main\java\org\apache\rave\portal\model\util\omdl\OmdlConstants.java,0,0,0,0
org.apache.rave.portal.model.util.omdl.OmdlModelUtils, 0, 0, 0, 0, 0, 0, 0, 0, 0, 0, 0, 0, 0, 0,0.0,0.0,0.0,0.0,0.0,0.0,0.0,0.0,0.0,0.0,0.0,0.0,0.0,174,rave-components\rave-core\src\main\java\org\apache\rave\portal\model\util\omdl\OmdlModelUtils.java,0,0,0,0
org.apache.rave.portal.model.util.omdl.OmdlOutputAdapter, 0, 0, 0, 0, 0, 0, 0, 0, 0, 0, 0, 0, 0, 0,0.0,0.0,0.0,0.0,0.0,0.0,0.0,0.0,0.0,0.0,0.0,0.0,0.0,175,rave-components\rave-core\src\main\java\org\apache\rave\portal\model\util\omdl\OmdlOutputAdapter.java,0,0,0,0
org.apache.rave.portal.model.util.omdl.OmdlTest, 0, 0, 0, 0, 0, 0, 0, 0, 0, 0, 0, 0, 0, 0,0.0,0.0,0.0,0.0,0.0,0.0,0.0,0.0,0.0,0.0,0.0,0.0,0.0,39,rave-components\rave-core\src\test\java\org\apache\rave\portal\model\util\omdl\OmdlTest.java,1,1,0,2
org.apache.rave.portal.repository.ActivityStreamsRepository, 0, 0, 0, 0, 0, 0, 0, 0, 0, 0, 0, 0, 0, 0,0.0,0.0,0.0,0.0,0.0,0.0,0.0,0.0,0.0,0.0,0.0,0.0,0.0,39,rave-components\rave-core\src\main\java\org\apache\rave\portal\repository\ActivityStreamsRepository.java,1,0,0,1
org.apache.rave.portal.repository.ApplicationDataRepository, 0, 0, 0, 0, 0, 0, 0, 0, 0, 0, 0, 0, 0, 0,0.0,0.0,0.0,0.0,0.0,0.0,0.0,0.0,0.0,0.0,0.0,0.0,0.0,39,rave-components\rave-core\src\main\java\org\apache\rave\portal\repository\ApplicationDataRepository.java,0,0,0,0
org.apache.rave.portal.repository.AuthorityRepository, 0, 0, 0, 0, 0, 0, 0, 0, 0, 0, 0, 0, 0, 0,0.0,0.0,0.0,0.0,0.0,0.0,0.0,0.0,0.0,0.0,0.0,0.0,0.0,39,rave-components\rave-core\src\main\java\org\apache\rave\portal\repository\AuthorityRepository.java,2,0,0,2
org.apache.rave.portal.repository.CategoryRepository, 0, 0, 0, 0, 0, 0, 0, 0, 0, 0, 0, 0, 0, 0,0.0,0.0,0.0,0.0,0.0,0.0,0.0,0.0,0.0,0.0,0.0,0.0,0.0,39,rave-components\rave-core\src\main\java\org\apache\rave\portal\repository\CategoryRepository.java,1,0,0,1
org.apache.rave.portal.repository.MongoGroupOperations, 0, 0, 0, 0, 0, 0, 0, 0, 0, 0, 0, 0, 0, 0,0.0,0.0,0.0,0.0,0.0,0.0,0.0,0.0,0.0,0.0,0.0,0.0,0.0,39,rave-components\rave-mongodb\src\main\java\org\apache\rave\portal\repository\MongoGroupOperations.java,0,0,0,0
org.apache.rave.portal.repository.MongoModelOperations, 0, 0, 0, 0, 0, 0, 0, 0, 0, 0, 0, 0, 0, 0,0.0,0.0,0.0,0.0,0.0,0.0,0.0,0.0,0.0,0.0,0.0,0.0,0.0,39,rave-components\rave-mongodb\src\main\java\org\apache\rave\portal\repository\MongoModelOperations.java,0,0,0,0
org.apache.rave.portal.repository.MongoPageOperations, 0, 0, 0, 0, 0, 0, 0, 0, 0, 0, 0, 0, 0, 0,0.0,0.0,0.0,0.0,0.0,0.0,0.0,0.0,0.0,0.0,0.0,0.0,0.0,39,rave-components\rave-mongodb\src\main\java\org\apache\rave\portal\repository\MongoPageOperations.java,0,0,0,0
org.apache.rave.portal.repository.MongoTagOperations, 0, 0, 0, 0, 0, 0, 0, 0, 0, 0, 0, 0, 0, 0,0.0,0.0,0.0,0.0,0.0,0.0,0.0,0.0,0.0,0.0,0.0,0.0,0.0,39,rave-components\rave-mongodb\src\main\java\org\apache\rave\portal\repository\MongoTagOperations.java,0,0,0,0
org.apache.rave.portal.repository.MongoUserOperations, 0, 0, 0, 0, 0, 0, 0, 0, 0, 0, 0, 0, 0, 0,0.0,0.0,0.0,0.0,0.0,0.0,0.0,0.0,0.0,0.0,0.0,0.0,0.0,39,rave-components\rave-mongodb\src\main\java\org\apache\rave\portal\repository\MongoUserOperations.java,0,0,0,0
org.apache.rave.portal.repository.MongoWidgetOperations, 0, 0, 0, 0, 0, 0, 0, 0, 0, 0, 0, 0, 0, 0,0.0,0.0,0.0,0.0,0.0,0.0,0.0,0.0,0.0,0.0,0.0,0.0,0.0,39,rave-components\rave-mongodb\src\main\java\org\apache\rave\portal\repository\MongoWidgetOperations.java,0,0,0,0
org.apache.rave.portal.repository.OAuthConsumerStoreRepository, 0, 0, 0, 0, 0, 0, 0, 0, 0, 0, 0, 0, 0, 0,0.0,0.0,0.0,0.0,0.0,0.0,0.0,0.0,0.0,0.0,0.0,0.0,0.0,39,rave-components\rave-core\src\main\java\org\apache\rave\portal\repository\OAuthConsumerStoreRepository.java,0,0,0,0
org.apache.rave.portal.repository.OAuthTokenInfoRepository, 0, 0, 0, 0, 0, 0, 0, 0, 0, 0, 0, 0, 0, 0,0.0,0.0,0.0,0.0,0.0,0.0,0.0,0.0,0.0,0.0,0.0,0.0,0.0,39,rave-components\rave-core\src\main\java\org\apache\rave\portal\repository\OAuthTokenInfoRepository.java,0,0,0,0
org.apache.rave.portal.repository.PageLayoutRepository, 0, 0, 0, 0, 0, 0, 0, 0, 0, 0, 0, 0, 0, 0,0.0,0.0,0.0,0.0,0.0,0.0,0.0,0.0,0.0,0.0,0.0,0.0,0.0,39,rave-components\rave-core\src\main\java\org\apache\rave\portal\repository\PageLayoutRepository.java,1,0,0,1
org.apache.rave.portal.repository.PageRepository, 0, 0, 0, 0, 0, 0, 0, 0, 0, 0, 0, 0, 0, 0,0.0,0.0,0.0,0.0,0.0,0.0,0.0,0.0,0.0,0.0,0.0,0.0,0.0,39,rave-components\rave-core\src\main\java\org\apache\rave\portal\repository\PageRepository.java,0,3,3,9
org.apache.rave.portal.repository.PageTemplateRepository, 0, 0, 0, 0, 0, 0, 0, 0, 0, 0, 0, 0, 0, 0,0.0,0.0,0.0,0.0,0.0,0.0,0.0,0.0,0.0,0.0,0.0,0.0,0.0,39,rave-components\rave-core\src\main\java\org\apache\rave\portal\repository\PageTemplateRepository.java,0,1,4,9
org.apache.rave.portal.repository.PortalPreferenceRepository, 0, 0, 0, 0, 0, 0, 0, 0, 0, 0, 0, 0, 0, 0,0.0,0.0,0.0,0.0,0.0,0.0,0.0,0.0,0.0,0.0,0.0,0.0,0.0,39,rave-components\rave-core\src\main\java\org\apache\rave\portal\repository\PortalPreferenceRepository.java,1,0,0,1
org.apache.rave.portal.repository.RegionRepository, 0, 0, 0, 0, 0, 0, 0, 0, 0, 0, 0, 0, 0, 0,0.0,0.0,0.0,0.0,0.0,0.0,0.0,0.0,0.0,0.0,0.0,0.0,0.0,39,rave-components\rave-core\src\main\java\org\apache\rave\portal\repository\RegionRepository.java,0,0,0,0
org.apache.rave.portal.repository.RegionWidgetRepository, 0, 0, 0, 0, 0, 0, 0, 0, 0, 0, 0, 0, 0, 0,0.0,0.0,0.0,0.0,0.0,0.0,0.0,0.0,0.0,0.0,0.0,0.0,0.0,39,rave-components\rave-core\src\main\java\org\apache\rave\portal\repository\RegionWidgetRepository.java,0,0,0,0
org.apache.rave.portal.repository.RepositoryTestUtils, 0, 0, 0, 0, 0, 0, 0, 0, 0, 0, 0, 0, 0, 0,0.0,0.0,0.0,0.0,0.0,0.0,0.0,0.0,0.0,0.0,0.0,0.0,0.0,36,rave-components\rave-jpa\src\test\java\org\apache\rave\portal\repository\RepositoryTestUtils.java,0,0,0,0
org.apache.rave.portal.repository.TagRepository, 0, 0, 0, 0, 0, 0, 0, 0, 0, 0, 0, 0, 0, 0,0.0,0.0,0.0,0.0,0.0,0.0,0.0,0.0,0.0,0.0,0.0,0.0,0.0,36,rave-components\rave-core\src\main\java\org\apache\rave\portal\repository\TagRepository.java,3,0,0,3
org.apache.rave.portal.repository.UserRepository, 0, 0, 0, 0, 0, 0, 0, 0, 0, 0, 0, 0, 0, 0,0.0,0.0,0.0,0.0,0.0,0.0,0.0,0.0,0.0,0.0,0.0,0.0,0.0,36,rave-components\rave-core\src\main\java\org\apache\rave\portal\repository\UserRepository.java,0,0,0,0
org.apache.rave.portal.repository.impl.JpaActivityStreamsRepository, 0, 0, 0, 0, 0, 0, 0, 0, 0, 0, 0, 0, 0, 0,0.0,0.0,0.0,0.3333333333333333,0.0,0.0,0.0,0.0,0.0,0.0,0.0,0.0,0.0,41,rave-components\rave-jpa\src\main\java\org\apache\rave\portal\repository\impl\JpaActivityStreamsRepository.java,0,9,0,9
org.apache.rave.portal.repository.impl.JpaAuthorityRepository, 0, 0, 0, 0, 0, 0, 0, 0, 0, 0, 0, 0, 0, 0,0.0,0.0,0.0,0.0,0.0,0.0,0.0,0.0,0.0,0.0,0.0,0.0,0.0,45,rave-components\rave-jpa\src\main\java\org\apache\rave\portal\repository\impl\JpaAuthorityRepository.java,0,5,0,5
org.apache.rave.portal.repository.impl.JpaAuthorityRepositoryTest, 0, 0, 0, 0, 0, 0, 0, 0, 0, 0, 0, 0, 0, 0,0.0,0.0,0.0,0.0,0.0,0.0,0.0,0.0,0.0,0.0,0.0,0.0,0.0,81,rave-components\rave-jpa\src\test\java\org\apache\rave\portal\repository\impl\JpaAuthorityRepositoryTest.java,0,0,0,0
org.apache.rave.portal.repository.impl.JpaCategoryRepository, 0, 0, 0, 0, 0, 0, 0, 0, 0, 0, 0, 0, 0, 0,0.0,0.0,0.0,0.0,0.0,0.0,0.0,0.3333333333333333,0.0,0.0,0.0,0.0,0.0,50,rave-components\rave-jpa\src\main\java\org\apache\rave\portal\repository\impl\JpaCategoryRepository.java,0,15,0,15
org.apache.rave.portal.repository.impl.JpaCategoryRepositoryTest, 0, 0, 0, 0, 0, 0, 0, 0, 0, 0, 0, 0, 0, 0,0.0,0.0,0.0,0.3333333333333333,0.0,0.0,0.0,0.3333333333333333,0.0,0.0,0.0,0.0,0.0,130,rave-components\rave-jpa\src\test\java\org\apache\rave\portal\repository\impl\JpaCategoryRepositoryTest.java,0,12,0,12
org.apache.rave.portal.repository.impl.JpaGroupRepository, 0, 0, 0, 0, 0, 0, 0, 0, 0, 0, 0, 0, 0, 0,0.0,0.0,0.0,0.0,0.0,0.0,0.0,0.0,0.0,0.0,0.0,0.0,0.0,35,rave-components\rave-jpa\src\main\java\org\apache\rave\portal\repository\impl\JpaGroupRepository.java,0,9,0,9
org.apache.rave.portal.repository.impl.JpaGroupRepositoryTest, 0, 0, 0, 0, 0, 0, 0, 0, 0, 0, 0, 0, 0, 0,0.0,0.0,0.0,0.0,0.0,0.0,0.0,0.0,0.0,0.0,0.0,0.0,0.0,72,rave-components\rave-jpa\src\test\java\org\apache\rave\portal\repository\impl\JpaGroupRepositoryTest.java,0,0,0,0
org.apache.rave.portal.repository.impl.JpaOAuthConsumerStoreRepository, 0, 0, 0, 0, 0, 0, 0, 0, 0, 0, 0, 0, 0, 0,0.0,0.0,0.0,0.3333333333333333,0.0,0.0,0.0,0.0,0.0,0.0,0.0,0.0,0.0,31,rave-components\rave-jpa\src\main\java\org\apache\rave\portal\repository\impl\JpaOAuthConsumerStoreRepository.java,0,14,0,14
org.apache.rave.portal.repository.impl.JpaOAuthConsumerStoreRepositoryTest, 0, 0, 0, 0, 0, 0, 0, 0, 0, 0, 0, 0, 0, 0,0.0,0.0,0.0,1.0,0.0,0.0,0.0,0.0,0.0,0.0,0.0,0.0,0.0,71,rave-components\rave-jpa\src\test\java\org\apache\rave\portal\repository\impl\JpaOAuthConsumerStoreRepositoryTest.java,1,5,2,10
org.apache.rave.portal.repository.impl.JpaOAuthTokenInfoRepository, 0, 0, 0, 0, 0, 0, 0, 1, 0, 0, 0, 0, 0, 1,0.0,0.0,0.0,0.3333333333333333,0.0,0.0,0.0,0.0,0.0,0.0,0.0,0.0,0.0,34,rave-components\rave-jpa\src\main\java\org\apache\rave\portal\repository\impl\JpaOAuthTokenInfoRepository.java,0,14,0,14
org.apache.rave.portal.repository.impl.JpaOAuthTokenInfoRepositoryTest, 0, 0, 0, 0, 0, 0, 0, 0, 0, 0, 0, 0, 0, 0,0.0,0.0,0.0,1.0,0.0,0.0,0.0,0.0,0.0,0.0,0.0,0.0,0.0,76,rave-components\rave-jpa\src\test\java\org\apache\rave\portal\repository\impl\JpaOAuthTokenInfoRepositoryTest.java,0,0,0,0
org.apache.rave.portal.repository.impl.JpaPageLayoutRepository, 0, 0, 0, 0, 0, 0, 0, 0, 0, 0, 0, 0, 0, 0,0.0,0.0,0.0,0.0,0.0,0.0,0.0,0.0,0.0,0.0,0.0,0.0,0.0,37,rave-components\rave-jpa\src\main\java\org\apache\rave\portal\repository\impl\JpaPageLayoutRepository.java,0,9,0,9
org.apache.rave.portal.repository.impl.JpaPageLayoutRepositoryTest, 0, 0, 0, 0, 0, 0, 0, 0, 0, 0, 0, 0, 0, 0,0.0,0.0,0.0,0.0,0.0,0.0,0.0,0.0,0.0,0.0,0.0,0.0,0.0,98,rave-components\rave-jpa\src\test\java\org\apache\rave\portal\repository\impl\JpaPageLayoutRepositoryTest.java,0,0,0,0
org.apache.rave.portal.repository.impl.JpaPageRepository, 0, 0, 0, 0, 0, 0, 0, 0, 0, 0, 0, 0, 0, 0,0.0,0.0,0.0,0.0,0.0,0.0,0.0,0.0,0.0,0.0,0.0,0.0,0.0,159,rave-components\rave-jpa\src\main\java\org\apache\rave\portal\repository\impl\JpaPageRepository.java,2,65,15,97
org.apache.rave.portal.repository.impl.JpaPageRepositoryTest, 0, 0, 0, 1, 0, 0, 0, 0, 0, 0, 0, 0, 0, 1,0.0,0.0,0.0,0.0,0.0,0.0,0.0,0.0,0.0,0.0,0.0,0.0,0.0,213,rave-components\rave-jpa\src\test\java\org\apache\rave\portal\repository\impl\JpaPageRepositoryTest.java,0,46,19,84
org.apache.rave.portal.repository.impl.JpaPageTemplateRepository, 0, 0, 0, 0, 0, 0, 0, 0, 0, 0, 0, 0, 0, 0,0.0,0.0,0.0,0.5,0.0,0.0,0.0,0.0,0.0,0.0,0.0,0.0,0.0,18,rave-components\rave-jpa\src\main\java\org\apache\rave\portal\repository\impl\JpaPageTemplateRepository.java,1,29,2,34
org.apache.rave.portal.repository.impl.JpaPageTemplateRepositoryTest, 0, 0, 0, 0, 0, 0, 0, 0, 0, 0, 0, 0, 0, 0,0.0,0.0,0.0,0.5,0.0,0.0,0.0,0.0,0.0,0.0,0.0,0.0,0.0,123,rave-components\rave-jpa\src\test\java\org\apache\rave\portal\repository\impl\JpaPageTemplateRepositoryTest.java,0,20,8,36
org.apache.rave.portal.repository.impl.JpaPersonRepositoryTest, 0, 0, 0, 1, 0, 0, 0, 0, 0, 0, 0, 0, 0, 1,0.0,0.0,0.0,1.0,0.0,0.0,0.0,0.0,0.0,0.0,0.0,0.0,0.0,264,rave-components\rave-jpa\src\test\java\org\apache\rave\portal\repository\impl\JpaPersonRepositoryTest.java,0,22,0,22
org.apache.rave.portal.repository.impl.JpaPortalPreferenceRepository, 0, 0, 0, 0, 0, 0, 0, 0, 0, 0, 0, 0, 0, 0,0.0,0.0,0.0,0.0,0.0,0.0,0.0,0.0,0.0,0.0,0.0,0.0,0.0,36,rave-components\rave-jpa\src\main\java\org\apache\rave\portal\repository\impl\JpaPortalPreferenceRepository.java,0,14,0,14
org.apache.rave.portal.repository.impl.JpaPortalPreferenceRepositoryTest, 0, 0, 0, 0, 0, 0, 0, 0, 0, 0, 0, 0, 0, 0,0.0,0.0,0.0,0.0,0.0,0.0,0.0,0.0,0.0,0.0,0.0,0.0,0.0,55,rave-components\rave-jpa\src\test\java\org\apache\rave\portal\repository\impl\JpaPortalPreferenceRepositoryTest.java,0,10,0,10
org.apache.rave.portal.repository.impl.JpaRegionRepository, 0, 0, 0, 0, 0, 0, 0, 0, 0, 0, 0, 0, 0, 0,0.0,0.0,0.0,0.0,0.0,0.0,0.0,0.0,0.0,0.0,0.0,0.0,0.0,23,rave-components\rave-jpa\src\main\java\org\apache\rave\portal\repository\impl\JpaRegionRepository.java,0,25,0,25
org.apache.rave.portal.repository.impl.JpaRegionRepositoryTest, 0, 0, 0, 0, 0, 0, 0, 0, 0, 0, 0, 0, 0, 0,0.0,0.0,0.0,0.0,0.0,0.0,0.0,0.0,0.0,0.0,0.0,0.0,0.0,107,rave-components\rave-jpa\src\test\java\org\apache\rave\portal\repository\impl\JpaRegionRepositoryTest.java,0,19,0,19
org.apache.rave.portal.repository.impl.JpaRegionWidgetRepository, 0, 0, 0, 0, 0, 0, 0, 0, 0, 0, 0, 0, 0, 0,0.0,0.0,0.0,0.0,0.0,0.0,0.0,0.0,0.0,0.0,0.0,0.0,0.0,22,rave-components\rave-jpa\src\main\java\org\apache\rave\portal\repository\impl\JpaRegionWidgetRepository.java,0,25,0,25
org.apache.rave.portal.repository.impl.JpaRegionWidgetRepositoryTest, 0, 0, 0, 0, 0, 0, 0, 0, 0, 0, 0, 0, 0, 0,0.0,0.0,0.0,0.5,0.0,0.0,0.0,0.0,0.0,0.0,0.0,0.0,0.0,115,rave-components\rave-jpa\src\test\java\org\apache\rave\portal\repository\impl\JpaRegionWidgetRepositoryTest.java,0,18,0,18
org.apache.rave.portal.repository.impl.JpaTagRepository, 0, 0, 0, 0, 0, 0, 0, 0, 0, 0, 0, 0, 0, 0,0.0,0.0,0.0,0.0,0.0,0.0,0.0,0.0,0.0,0.0,0.0,0.0,0.0,43,rave-components\rave-jpa\src\main\java\org\apache\rave\portal\repository\impl\JpaTagRepository.java,0,6,0,6
org.apache.rave.portal.repository.impl.JpaTagRepositoryTest, 0, 0, 0, 0, 0, 0, 0, 0, 0, 0, 0, 0, 0, 0,0.0,0.0,0.0,0.0,0.0,0.0,0.0,0.0,0.0,0.0,0.0,0.0,0.0,97,rave-components\rave-jpa\src\test\java\org\apache\rave\portal\repository\impl\JpaTagRepositoryTest.java,0,0,0,0
org.apache.rave.portal.repository.impl.JpaUserRepository, 0, 0, 0, 0, 0, 0, 0, 0, 0, 0, 0, 0, 0, 0,0.0,0.0,0.0,0.0,0.0,0.0,0.0,0.0,0.0,0.0,0.0,0.0,0.0,78,rave-components\rave-jpa\src\main\java\org\apache\rave\portal\repository\impl\JpaUserRepository.java,0,9,0,9
org.apache.rave.portal.repository.impl.JpaUserRepositoryTest, 0, 0, 0, 0, 0, 0, 0, 0, 0, 0, 0, 0, 0, 0,0.0,0.0,0.0,0.0,0.0,0.0,0.0,0.0,0.0,0.0,0.0,0.0,0.0,133,rave-components\rave-jpa\src\test\java\org\apache\rave\portal\repository\impl\JpaUserRepositoryTest.java,2,15,2,21
org.apache.rave.portal.repository.impl.JpaWidgetCommentRepositoryTest, 0, 0, 0, 0, 0, 0, 0, 0, 0, 0, 0, 0, 0, 0,0.0,0.0,0.0,0.3333333333333333,0.0,0.0,0.0,0.3333333333333333,0.0,0.0,0.0,0.0,0.0,71,rave-components\rave-jpa\src\test\java\org\apache\rave\portal\repository\impl\JpaWidgetCommentRepositoryTest.java,0,0,0,0
org.apache.rave.portal.repository.impl.JpaWidgetRatingRepositoryTest, 0, 0, 0, 0, 0, 0, 0, 0, 0, 0, 0, 0, 0, 0,0.0,0.0,0.0,0.0,0.0,0.0,0.0,0.0,0.0,0.0,0.0,0.0,0.0,63,rave-components\rave-jpa\src\test\java\org\apache\rave\portal\repository\impl\JpaWidgetRatingRepositoryTest.java,0,0,0,0
org.apache.rave.portal.repository.impl.JpaWidgetTagRepositoryTest, 0, 0, 0, 0, 0, 0, 0, 0, 0, 0, 0, 0, 0, 0,0.0,0.0,0.0,0.0,0.0,0.0,0.0,0.0,0.0,0.0,0.0,0.0,0.0,102,rave-components\rave-jpa\src\test\java\org\apache\rave\portal\repository\impl\JpaWidgetTagRepositoryTest.java,0,0,0,0
org.apache.rave.portal.repository.impl.MongoDbActivityStreamsRepository, 0, 0, 0, 0, 0, 0, 0, 0, 0, 0, 0, 0, 0, 0,0.0,0.0,0.0,0.0,0.0,0.0,0.0,0.0,0.0,0.0,0.0,0.0,0.0,40,rave-components\rave-mongodb\src\main\java\org\apache\rave\portal\repository\impl\MongoDbActivityStreamsRepository.java,0,9,0,9
org.apache.rave.portal.repository.impl.MongoDbActivityStreamsRepositoryTest, 0, 0, 0, 0, 0, 0, 0, 0, 0, 0, 0, 0, 0, 0,0.0,0.0,0.0,0.0,0.0,0.0,0.0,0.0,0.0,0.0,0.0,0.0,0.0,74,rave-components\rave-mongodb\src\test\java\org\apache\rave\portal\repository\impl\MongoDbActivityStreamsRepositoryTest.java,0,0,0,0
org.apache.rave.portal.repository.impl.MongoDbApplicationDataRepository, 0, 0, 0, 0, 0, 0, 0, 0, 0, 0, 0, 0, 0, 0,0.0,0.0,0.0,0.0,0.0,0.0,0.0,0.0,0.0,0.0,0.0,0.0,0.0,33,rave-components\rave-mongodb\src\main\java\org\apache\rave\portal\repository\impl\MongoDbApplicationDataRepository.java,0,13,0,13
org.apache.rave.portal.repository.impl.MongoDbApplicationDataRepositoryTest, 0, 0, 0, 0, 0, 0, 0, 0, 0, 0, 0, 0, 0, 0,0.0,0.0,0.0,0.0,0.0,0.0,0.0,0.0,0.0,0.0,0.0,0.0,0.0,68,rave-components\rave-mongodb\src\test\java\org\apache\rave\portal\repository\impl\MongoDbApplicationDataRepositoryTest.java,0,0,0,0
org.apache.rave.portal.repository.impl.MongoDbAuthorityRepository, 0, 0, 0, 0, 0, 0, 0, 0, 0, 0, 0, 0, 0, 0,0.0,0.0,0.0,0.0,0.0,0.0,0.0,0.0,0.0,0.0,0.0,0.0,0.0,60,rave-components\rave-mongodb\src\main\java\org\apache\rave\portal\repository\impl\MongoDbAuthorityRepository.java,0,4,0,4
org.apache.rave.portal.repository.impl.MongoDbAuthorityRepositoryTest, 0, 0, 0, 0, 0, 0, 0, 0, 0, 0, 0, 0, 0, 0,0.0,0.0,0.0,0.0,0.0,0.0,0.0,0.0,0.0,0.0,0.0,0.0,0.0,131,rave-components\rave-mongodb\src\test\java\org\apache\rave\portal\repository\impl\MongoDbAuthorityRepositoryTest.java,0,0,0,0
org.apache.rave.portal.repository.impl.MongoDbCategoryRepository, 0, 0, 0, 0, 0, 0, 0, 0, 0, 0, 0, 0, 0, 0,0.0,0.0,0.0,0.0,0.0,0.0,0.0,0.0,0.0,0.0,0.0,0.0,0.0,70,rave-components\rave-mongodb\src\main\java\org\apache\rave\portal\repository\impl\MongoDbCategoryRepository.java,0,9,0,9
org.apache.rave.portal.repository.impl.MongoDbCategoryRepositoryTest, 0, 0, 0, 0, 0, 0, 0, 0, 0, 0, 0, 0, 0, 0,0.0,0.0,0.0,0.0,0.0,0.0,0.0,0.0,0.0,0.0,0.0,0.0,0.0,98,rave-components\rave-mongodb\src\test\java\org\apache\rave\portal\repository\impl\MongoDbCategoryRepositoryTest.java,0,27,0,27
org.apache.rave.portal.repository.impl.MongoDbGroupRepository, 0, 0, 0, 0, 0, 0, 0, 0, 0, 0, 0, 0, 0, 0,0.0,0.0,0.0,0.0,0.0,0.0,0.0,0.0,0.0,0.0,0.0,0.0,0.0,31,rave-components\rave-mongodb\src\main\java\org\apache\rave\portal\repository\impl\MongoDbGroupRepository.java,0,9,0,9
org.apache.rave.portal.repository.impl.MongoDbGroupRepositoryTest, 0, 0, 0, 0, 0, 0, 0, 0, 0, 0, 0, 0, 0, 0,0.0,0.0,0.0,0.0,0.0,0.0,0.0,0.0,0.0,0.0,0.0,0.0,0.0,67,rave-components\rave-mongodb\src\test\java\org\apache\rave\portal\repository\impl\MongoDbGroupRepositoryTest.java,0,0,0,0
org.apache.rave.portal.repository.impl.MongoDbOAuthTokenInfoRepository, 0, 0, 0, 0, 0, 0, 0, 1, 0, 0, 0, 0, 0, 1,0.0,0.0,0.0,0.0,0.0,0.0,0.0,0.0,0.0,0.0,0.0,0.0,0.0,35,rave-components\rave-mongodb\src\main\java\org\apache\rave\portal\repository\impl\MongoDbOAuthTokenInfoRepository.java,0,14,0,14
org.apache.rave.portal.repository.impl.MongoDbOAuthTokenInfoRepositoryTest, 0, 0, 0, 0, 0, 0, 0, 0, 0, 0, 0, 0, 0, 0,0.0,0.0,0.0,0.5,0.0,0.0,0.0,1.0,0.0,0.0,0.0,0.0,0.0,81,rave-components\rave-mongodb\src\test\java\org\apache\rave\portal\repository\impl\MongoDbOAuthTokenInfoRepositoryTest.java,0,0,0,0
org.apache.rave.portal.repository.impl.MongoDbOauthConsumerStoreRepository, 0, 0, 0, 0, 0, 0, 0, 0, 0, 0, 0, 0, 0, 0,0.0,0.0,0.0,0.0,0.0,0.0,0.0,0.0,0.0,0.0,0.0,0.0,0.0,29,rave-components\rave-mongodb\src\main\java\org\apache\rave\portal\repository\impl\MongoDbOauthConsumerStoreRepository.java,0,14,0,14
org.apache.rave.portal.repository.impl.MongoDbOauthConsumerStoreRepositoryTest, 0, 0, 0, 0, 0, 0, 0, 0, 0, 0, 0, 0, 0, 0,0.0,0.0,0.0,0.0,0.0,0.0,0.0,0.0,0.0,0.0,0.0,0.0,0.0,62,rave-components\rave-mongodb\src\test\java\org\apache\rave\portal\repository\impl\MongoDbOauthConsumerStoreRepositoryTest.java,0,0,0,0
org.apache.rave.portal.repository.impl.MongoDbPageLayoutRepository, 0, 0, 0, 0, 0, 0, 0, 0, 0, 0, 0, 0, 0, 0,0.0,0.0,1.0,0.0,0.0,0.0,0.0,0.0,0.0,0.0,0.0,0.0,0.0,49,rave-components\rave-mongodb\src\main\java\org\apache\rave\portal\repository\impl\MongoDbPageLayoutRepository.java,1,9,2,14
org.apache.rave.portal.repository.impl.MongoDbPageLayoutRepositoryTest, 0, 0, 1, 0, 0, 0, 0, 0, 0, 0, 0, 0, 0, 1,0.0,0.0,0.0,0.0,0.0,0.0,0.0,0.0,0.0,0.0,0.0,0.0,0.0,90,rave-components\rave-mongodb\src\test\java\org\apache\rave\portal\repository\impl\MongoDbPageLayoutRepositoryTest.java,1,8,4,17
org.apache.rave.portal.repository.impl.MongoDbPageRepositoryTest, 0, 0, 0, 0, 0, 0, 0, 0, 0, 0, 0, 0, 0, 0,0.0,0.0,0.0,0.375,0.0,0.0,0.0,0.0,0.0,0.0,0.0,0.0,0.0,246,rave-components\rave-mongodb\src\test\java\org\apache\rave\portal\repository\impl\MongoDbPageRepositoryTest.java,1,43,10,64
org.apache.rave.portal.repository.impl.MongoDbPageTemplateRepository, 0, 0, 0, 0, 0, 0, 0, 0, 0, 0, 0, 0, 0, 0,0.0,0.0,0.0,0.0,0.0,0.0,0.0,0.0,0.0,0.0,0.0,0.0,0.0,33,rave-components\rave-mongodb\src\main\java\org\apache\rave\portal\repository\impl\MongoDbPageTemplateRepository.java,10,19,14,57
org.apache.rave.portal.repository.impl.MongoDbPageTemplateRepositoryTest, 0, 0, 0, 0, 0, 0, 0, 0, 0, 0, 0, 0, 0, 0,0.0,0.0,0.0,0.5,0.0,0.0,0.0,0.0,0.0,0.0,0.0,0.0,0.0,50,rave-components\rave-mongodb\src\test\java\org\apache\rave\portal\repository\impl\MongoDbPageTemplateRepositoryTest.java,12,1,10,33
org.apache.rave.portal.repository.impl.MongoDbPortalPreferenceRepository, 0, 0, 0, 0, 0, 0, 0, 0, 0, 0, 0, 0, 0, 0,0.0,0.0,0.0,0.0,0.0,0.0,0.0,0.0,0.0,0.0,0.0,0.0,0.0,44,rave-components\rave-mongodb\src\main\java\org\apache\rave\portal\repository\impl\MongoDbPortalPreferenceRepository.java,0,10,0,10
org.apache.rave.portal.repository.impl.MongoDbPortalPreferenceRepositoryTest, 0, 0, 0, 0, 0, 0, 0, 0, 0, 0, 0, 0, 0, 0,0.0,0.0,0.0,0.0,0.0,0.0,0.0,0.0,0.0,0.0,0.0,0.0,0.0,85,rave-components\rave-mongodb\src\test\java\org\apache\rave\portal\repository\impl\MongoDbPortalPreferenceRepositoryTest.java,0,19,0,19
org.apache.rave.portal.repository.impl.MongoDbRegionRepository, 0, 0, 0, 0, 0, 0, 0, 0, 0, 0, 0, 0, 0, 0,0.0,0.0,0.0,0.0,0.0,0.0,0.0,0.0,0.0,0.0,0.0,0.0,0.0,82,rave-components\rave-mongodb\src\main\java\org\apache\rave\portal\repository\impl\MongoDbRegionRepository.java,0,27,0,27
org.apache.rave.portal.repository.impl.MongoDbRegionRepositoryTest, 0, 0, 0, 0, 0, 0, 0, 0, 0, 0, 0, 0, 0, 0,0.0,0.0,0.0,0.0,0.0,0.0,0.0,0.0,0.0,0.0,0.0,0.0,0.0,86,rave-components\rave-mongodb\src\test\java\org\apache\rave\portal\repository\impl\MongoDbRegionRepositoryTest.java,0,61,0,61
org.apache.rave.portal.repository.impl.MongoDbRegionWidgetRepository, 0, 0, 0, 0, 0, 0, 0, 0, 0, 0, 0, 0, 0, 0,0.0,0.0,1.0,0.0,0.0,0.0,0.0,0.0,0.0,0.0,0.0,0.0,0.0,113,rave-components\rave-mongodb\src\main\java\org\apache\rave\portal\repository\impl\MongoDbRegionWidgetRepository.java,0,32,0,32
org.apache.rave.portal.repository.impl.MongoDbRegionWidgetRepositoryTest, 0, 0, 1, 0, 0, 0, 0, 0, 0, 0, 0, 0, 0, 1,0.0,0.0,0.0,0.2,0.0,0.0,0.0,0.0,0.0,0.0,0.0,0.0,0.0,228,rave-components\rave-mongodb\src\test\java\org\apache\rave\portal\repository\impl\MongoDbRegionWidgetRepositoryTest.java,0,96,0,96
org.apache.rave.portal.repository.impl.MongoDbTagRepository, 0, 0, 0, 0, 0, 0, 0, 0, 0, 0, 0, 0, 0, 0,0.0,0.0,0.0,0.0,0.0,0.0,0.0,0.0,0.0,0.0,0.0,0.0,0.0,35,rave-components\rave-mongodb\src\main\java\org\apache\rave\portal\repository\impl\MongoDbTagRepository.java,0,5,0,5
org.apache.rave.portal.repository.impl.MongoDbTagRepositoryTest, 0, 0, 0, 0, 0, 0, 0, 0, 0, 0, 0, 0, 0, 0,0.0,0.0,0.0,0.0,0.0,0.0,0.0,0.0,0.0,0.0,0.0,0.0,0.0,84,rave-components\rave-mongodb\src\test\java\org\apache\rave\portal\repository\impl\MongoDbTagRepositoryTest.java,0,9,0,9
org.apache.rave.portal.repository.impl.MongoDbUserRepository, 0, 0, 0, 0, 0, 0, 0, 0, 0, 0, 0, 0, 0, 0,0.0,0.0,0.0,0.0,0.0,0.0,0.0,0.0,0.0,0.0,0.0,0.0,0.0,80,rave-components\rave-mongodb\src\main\java\org\apache\rave\portal\repository\impl\MongoDbUserRepository.java,0,5,0,5
org.apache.rave.portal.repository.impl.MongoDbUserRepositoryTest, 0, 0, 0, 0, 0, 0, 0, 0, 0, 0, 0, 0, 0, 0,0.0,0.0,0.0,0.5,0.0,0.0,0.0,0.0,0.0,0.0,0.0,0.0,0.0,123,rave-components\rave-mongodb\src\test\java\org\apache\rave\portal\repository\impl\MongoDbUserRepositoryTest.java,0,7,0,7
org.apache.rave.portal.repository.impl.MongoDbWidgetCommentRepositoryTest, 0, 0, 0, 0, 0, 0, 0, 0, 0, 0, 0, 0, 0, 0,0.0,0.0,0.0,0.5,0.0,0.0,0.0,0.0,0.0,0.0,0.0,0.0,0.0,80,rave-components\rave-mongodb\src\test\java\org\apache\rave\portal\repository\impl\MongoDbWidgetCommentRepositoryTest.java,0,0,0,0
org.apache.rave.portal.repository.impl.MongoDbWidgetRatingRepositoryTest, 0, 0, 0, 0, 0, 0, 0, 0, 0, 0, 0, 0, 0, 0,0.0,0.0,0.0,0.5,0.0,0.0,0.0,0.0,0.0,0.0,0.0,0.0,0.0,207,rave-components\rave-mongodb\src\test\java\org\apache\rave\portal\repository\impl\MongoDbWidgetRatingRepositoryTest.java,0,0,0,0
org.apache.rave.portal.repository.impl.MongoDbWidgetTagRepositoryTest, 0, 0, 1, 0, 0, 0, 0, 0, 0, 0, 0, 0, 0, 1,0.0,0.0,0.0,0.0,0.0,0.0,0.0,0.0,0.0,0.0,0.0,0.0,0.0,12,rave-components\rave-mongodb\src\test\java\org\apache\rave\portal\repository\impl\MongoDbWidgetTagRepositoryTest.java,0,0,0,0
org.apache.rave.portal.repository.impl.MongoGroupTemplate, 0, 0, 0, 0, 0, 1, 0, 0, 0, 0, 0, 0, 0, 1,0.0,0.0,0.0,0.0,0.0,0.0,0.0,0.0,0.0,0.0,0.0,0.0,0.0,5,rave-components\rave-mongodb\src\main\java\org\apache\rave\portal\repository\impl\MongoGroupTemplate.java,0,0,0,0
org.apache.rave.portal.repository.impl.MongoModelTemplate, 0, 0, 0, 0, 0, 0, 0, 0, 0, 0, 0, 0, 0, 0,0.0,0.0,0.0,0.0,0.0,1.0,0.0,0.0,0.0,0.0,0.0,0.0,0.0,75,rave-components\rave-mongodb\src\main\java\org\apache\rave\portal\repository\impl\MongoModelTemplate.java,0,0,0,0
org.apache.rave.portal.repository.impl.MongoPageTemplate, 0, 0, 0, 0, 0, 1, 0, 0, 0, 0, 0, 0, 0, 1,0.0,0.0,0.0,0.0,0.0,0.0,0.0,0.0,0.0,0.0,0.0,0.0,0.0,5,rave-components\rave-mongodb\src\main\java\org\apache\rave\portal\repository\impl\MongoPageTemplate.java,0,0,0,0
org.apache.rave.portal.repository.impl.MongoTagTemplate, 0, 0, 0, 0, 0, 1, 0, 0, 0, 0, 0, 0, 0, 1,0.0,0.0,0.0,0.0,0.0,0.0,0.0,0.0,0.0,0.0,0.0,0.0,0.0,5,rave-components\rave-mongodb\src\main\java\org\apache\rave\portal\repository\impl\MongoTagTemplate.java,0,0,0,0
org.apache.rave.portal.repository.impl.MongoUserTemplate, 0, 0, 0, 0, 0, 1, 0, 0, 0, 0, 0, 0, 0, 1,0.0,0.0,0.0,0.0,0.0,0.0,0.0,0.0,0.0,0.0,0.0,0.0,0.0,5,rave-components\rave-mongodb\src\main\java\org\apache\rave\portal\repository\impl\MongoUserTemplate.java,0,0,0,0
org.apache.rave.portal.repository.impl.MongoWidgetTemplate, 0, 0, 0, 0, 0, 1, 0, 0, 0, 0, 0, 0, 0, 1,0.0,0.0,0.0,0.0,0.0,0.0,0.0,0.0,0.0,0.0,0.0,0.0,0.0,5,rave-components\rave-mongodb\src\main\java\org\apache\rave\portal\repository\impl\MongoWidgetTemplate.java,0,0,0,0
org.apache.rave.portal.repository.util.CollectionNames, 0, 0, 0, 0, 0, 0, 0, 0, 0, 0, 0, 0, 0, 0,0.0,0.0,0.0,0.0,0.0,0.0,0.0,0.0,0.0,0.0,0.0,0.0,0.0,21,rave-components\rave-mongodb\src\main\java\org\apache\rave\portal\repository\util\CollectionNames.java,0,0,0,0
org.apache.rave.portal.security.ModelPermissionEvaluator, 0, 0, 0, 0, 0, 0, 0, 0, 0, 0, 0, 0, 0, 0,0.0,0.0,0.0,0.0,0.0,0.0,0.0,0.0,0.0,0.0,0.0,0.0,0.0,21,rave-components\rave-core\src\main\java\org\apache\rave\portal\security\ModelPermissionEvaluator.java,0,0,0,0
org.apache.rave.portal.security.ModelPermissionEvaluatorTest, 0, 0, 0, 0, 0, 0, 0, 0, 0, 0, 0, 0, 0, 0,0.0,0.0,0.0,0.0,0.0,0.0,0.0,0.0,0.0,0.0,0.0,0.0,0.0,10,rave-components\rave-core\src\test\java\org\apache\rave\portal\security\ModelPermissionEvaluatorTest.java,0,0,0,0
org.apache.rave.portal.security.impl.AbstractModelPermissionEvaluator, 0, 0, 0, 0, 0, 0, 0, 0, 0, 0, 0, 0, 0, 0,0.0,0.0,0.0,0.0,0.0,0.0,0.0,0.0,0.0,0.0,0.0,0.0,0.0,10,rave-components\rave-core\src\main\java\org\apache\rave\portal\security\impl\AbstractModelPermissionEvaluator.java,0,0,0,0
org.apache.rave.portal.security.impl.AbstractModelPermissionEvaluatorTest, 0, 0, 0, 0, 0, 0, 0, 0, 0, 0, 0, 0, 0, 0,0.0,0.0,0.0,0.0,0.0,0.0,0.0,0.0,0.0,0.0,0.0,0.0,0.0,54,rave-components\rave-core\src\test\java\org\apache\rave\portal\security\impl\AbstractModelPermissionEvaluatorTest.java,0,0,0,0
org.apache.rave.portal.security.impl.DefaultCategoryPermissionEvaluatorTest, 0, 0, 0, 1, 0, 0, 0, 0, 0, 0, 0, 0, 0, 1,0.0,0.0,0.0,0.5,0.0,0.0,0.0,0.0,0.0,0.0,0.0,0.0,0.0,169,rave-components\rave-core\src\test\java\org\apache\rave\portal\security\impl\DefaultCategoryPermissionEvaluatorTest.java,0,0,0,0
org.apache.rave.portal.security.impl.DefaultPagePermissionEvaluatorTest, 0, 0, 0, 1, 0, 0, 0, 0, 0, 0, 0, 0, 0, 1,0.0,0.0,0.0,0.5,0.0,0.0,0.0,0.0,0.0,0.0,0.0,0.0,0.0,356,rave-components\rave-core\src\test\java\org\apache\rave\portal\security\impl\DefaultPagePermissionEvaluatorTest.java,0,0,4,8
org.apache.rave.portal.security.impl.DefaultRegionPermissionEvaluatorTest, 0, 0, 0, 1, 0, 0, 0, 0, 0, 0, 0, 0, 0, 1,0.0,0.0,0.0,0.4,0.0,0.0,0.0,0.0,0.0,0.0,0.0,0.0,0.0,260,rave-components\rave-core\src\test\java\org\apache\rave\portal\security\impl\DefaultRegionPermissionEvaluatorTest.java,0,0,0,0
org.apache.rave.portal.security.impl.DefaultRegionWidgetPermissionEvaluatorTest, 0, 0, 0, 1, 0, 0, 0, 0, 0, 0, 0, 0, 0, 1,0.0,0.0,0.0,0.5,0.0,0.0,0.0,0.0,0.0,0.0,0.0,0.0,0.0,264,rave-components\rave-core\src\test\java\org\apache\rave\portal\security\impl\DefaultRegionWidgetPermissionEvaluatorTest.java,0,0,0,0
org.apache.rave.portal.security.impl.DefaultWidgetCommentPermissionEvaluatorTest, 0, 0, 0, 0, 0, 0, 0, 0, 0, 0, 0, 0, 0, 0,0.0,0.0,0.0,0.5,0.0,0.0,0.0,0.0,0.0,0.0,0.0,0.0,0.0,156,rave-components\rave-core\src\test\java\org\apache\rave\portal\security\impl\DefaultWidgetCommentPermissionEvaluatorTest.java,0,0,0,0
org.apache.rave.portal.security.impl.DefaultWidgetPermissionEvaluator, 0, 0, 0, 0, 0, 0, 0, 0, 0, 0, 0, 0, 0, 0,0.0,0.0,0.0,0.3333333333333333,0.0,0.0,0.0,0.0,0.0,0.0,0.0,0.0,0.0,101,rave-components\rave-core\src\main\java\org\apache\rave\portal\security\impl\DefaultWidgetPermissionEvaluator.java,0,0,0,0
org.apache.rave.portal.security.impl.DefaultWidgetPermissionEvaluatorTest, 0, 0, 0, 1, 0, 0, 0, 0, 0, 0, 0, 0, 0, 1,0.0,0.0,0.0,0.5,0.0,0.0,0.0,0.0,0.0,0.0,0.0,0.0,0.0,275,rave-components\rave-core\src\test\java\org\apache\rave\portal\security\impl\DefaultWidgetPermissionEvaluatorTest.java,0,0,0,0
org.apache.rave.portal.security.impl.DefaultWidgetRatingPermissionEvaluatorTest, 0, 0, 0, 1, 0, 0, 0, 0, 0, 0, 0, 0, 0, 1,0.0,0.0,0.0,0.5,0.0,0.0,0.0,0.0,0.0,0.0,0.0,0.0,0.0,250,rave-components\rave-core\src\test\java\org\apache\rave\portal\security\impl\DefaultWidgetRatingPermissionEvaluatorTest.java,0,0,0,0
org.apache.rave.portal.security.impl.RaveMethodSecurityExpressionHandler, 0, 0, 0, 0, 0, 0, 0, 0, 0, 0, 0, 0, 0, 0,0.0,0.0,0.0,0.0,0.0,0.0,0.0,0.0,0.0,0.0,0.0,0.0,0.0,11,rave-components\rave-core\src\main\java\org\apache\rave\portal\security\impl\RaveMethodSecurityExpressionHandler.java,0,0,0,0
org.apache.rave.portal.security.impl.RavePermissionEvaluatorTest, 0, 0, 0, 0, 0, 0, 0, 0, 0, 0, 0, 0, 0, 0,0.0,0.0,0.0,0.0,0.0,0.0,0.0,0.0,0.0,0.0,0.0,0.0,0.0,137,rave-components\rave-core\src\test\java\org\apache\rave\portal\security\impl\RavePermissionEvaluatorTest.java,0,0,0,0
org.apache.rave.portal.security.impl.RaveSecurityContext, 0, 0, 0, 0, 0, 0, 0, 0, 0, 0, 0, 0, 0, 0,0.0,0.0,0.0,0.75,0.0,0.0,0.0,0.0,0.0,0.0,0.0,0.0,0.0,20,rave-components\rave-core\src\main\java\org\apache\rave\portal\security\impl\RaveSecurityContext.java,0,0,0,0
org.apache.rave.portal.security.util.AuthenticationUtils, 0, 0, 0, 0, 0, 0, 0, 0, 0, 0, 0, 0, 0, 0,0.0,0.0,0.0,0.0,0.0,0.0,0.0,0.0,0.0,0.0,0.0,0.0,0.0,18,rave-components\rave-core\src\main\java\org\apache\rave\portal\security\util\AuthenticationUtils.java,0,0,0,0
org.apache.rave.portal.security.util.AuthenticationUtilsTest, 0, 0, 0, 0, 0, 0, 0, 0, 0, 0, 0, 0, 0, 0,0.0,0.0,0.0,0.0,0.0,0.0,0.0,0.0,0.0,0.0,0.0,0.0,0.0,35,rave-components\rave-core\src\test\java\org\apache\rave\portal\security\util\AuthenticationUtilsTest.java,0,0,0,0
org.apache.rave.portal.service.AuthorityService, 0, 0, 0, 0, 0, 0, 0, 0, 0, 0, 0, 0, 0, 0,0.0,0.0,0.0,0.0,0.0,0.0,0.0,0.0,0.0,0.0,0.0,0.0,0.0,35,rave-components\rave-core\src\main\java\org\apache\rave\portal\service\AuthorityService.java,0,0,1,2
org.apache.rave.portal.service.CaptchaService, 0, 0, 0, 0, 0, 0, 0, 0, 0, 0, 0, 0, 0, 0,0.0,0.0,0.0,0.0,0.0,0.0,0.0,0.0,0.0,0.0,0.0,0.0,0.0,35,rave-components\rave-core\src\main\java\org\apache\rave\portal\service\CaptchaService.java,0,0,0,0
org.apache.rave.portal.service.CategoryService, 0, 0, 0, 0, 0, 0, 0, 0, 0, 0, 0, 0, 0, 0,0.0,0.0,0.0,0.0,0.0,0.0,0.0,0.0,0.0,0.0,0.0,0.0,0.0,35,rave-components\rave-core\src\main\java\org\apache\rave\portal\service\CategoryService.java,0,3,1,5
org.apache.rave.portal.service.NewAccountService, 0, 0, 0, 0, 0, 0, 0, 0, 0, 0, 0, 0, 0, 0,0.0,0.0,0.0,0.0,0.0,0.0,0.0,0.0,0.0,0.0,0.0,0.0,0.0,35,rave-components\rave-core\src\main\java\org\apache\rave\portal\service\NewAccountService.java,0,0,0,0
org.apache.rave.portal.service.OmdlService, 0, 0, 0, 0, 0, 0, 0, 0, 0, 0, 0, 0, 0, 0,0.0,0.0,0.0,0.0,0.0,0.0,0.0,0.0,0.0,0.0,0.0,0.0,0.0,35,rave-components\rave-core\src\main\java\org\apache\rave\portal\service\OmdlService.java,0,0,0,0
org.apache.rave.portal.service.PageLayoutService, 0, 0, 0, 0, 0, 0, 0, 0, 0, 0, 0, 0, 0, 0,0.0,0.0,0.0,0.0,0.0,0.0,0.0,0.0,0.0,0.0,0.0,0.0,0.0,35,rave-components\rave-core\src\main\java\org\apache\rave\portal\service\PageLayoutService.java,0,0,0,0
org.apache.rave.portal.service.PageService, 0, 0, 0, 0, 0, 0, 0, 0, 0, 0, 0, 0, 0, 0,0.0,0.0,0.0,0.0,0.0,0.0,0.0,0.0,0.0,0.0,0.0,0.0,0.0,35,rave-components\rave-core\src\main\java\org\apache\rave\portal\service\PageService.java,1,15,3,22
org.apache.rave.portal.service.RegionService, 0, 0, 0, 0, 0, 0, 0, 0, 0, 0, 0, 0, 0, 0,0.0,0.0,0.0,0.0,0.0,0.0,0.0,0.0,0.0,0.0,0.0,0.0,0.0,35,rave-components\rave-core\src\main\java\org\apache\rave\portal\service\RegionService.java,0,3,0,3
org.apache.rave.portal.service.RegionWidgetService, 0, 0, 0, 0, 0, 0, 0, 0, 0, 0, 0, 0, 0, 0,0.0,0.0,0.0,0.0,0.0,0.0,0.0,0.0,0.0,0.0,0.0,0.0,0.0,35,rave-components\rave-core\src\main\java\org\apache\rave\portal\service\RegionWidgetService.java,0,3,0,3
org.apache.rave.portal.service.RemoteWidgetResolverService, 0, 0, 0, 0, 0, 0, 0, 0, 0, 0, 0, 0, 0, 0,0.0,0.0,0.0,0.0,0.0,0.0,0.0,0.0,0.0,0.0,0.0,0.0,0.0,35,rave-components\rave-core\src\main\java\org\apache\rave\portal\service\RemoteWidgetResolverService.java,0,0,0,0
org.apache.rave.portal.service.TagService, 0, 0, 0, 0, 0, 0, 0, 0, 0, 0, 0, 0, 0, 0,0.0,0.0,0.0,0.0,0.0,0.0,0.0,0.0,0.0,0.0,0.0,0.0,0.0,35,rave-components\rave-core\src\main\java\org\apache\rave\portal\service\TagService.java,0,2,3,8
org.apache.rave.portal.service.WidgetMarketplaceService, 0, 0, 0, 0, 0, 0, 0, 0, 0, 0, 0, 0, 0, 0,0.0,0.0,0.0,0.0,0.0,0.0,0.0,0.0,0.0,0.0,0.0,0.0,0.0,35,rave-components\rave-core\src\main\java\org\apache\rave\portal\service\WidgetMarketplaceService.java,0,0,1,2
org.apache.rave.portal.service.WidgetMetadataResolver, 0, 0, 0, 0, 0, 0, 0, 0, 0, 0, 0, 0, 0, 0,0.0,0.0,0.0,0.0,0.0,0.0,0.0,0.0,0.0,0.0,0.0,0.0,0.0,35,rave-components\rave-core\src\main\java\org\apache\rave\portal\service\WidgetMetadataResolver.java,0,0,0,0
org.apache.rave.portal.service.WidgetProviderService, 0, 0, 0, 0, 0, 0, 0, 0, 0, 0, 0, 0, 0, 0,0.0,0.0,0.0,0.0,0.0,0.0,0.0,0.0,0.0,0.0,0.0,0.0,0.0,35,rave-components\rave-core\src\main\java\org\apache\rave\portal\service\WidgetProviderService.java,0,0,0,0
org.apache.rave.portal.service.impl.DefaultAuthorityService, 0, 0, 0, 0, 0, 0, 0, 0, 0, 0, 0, 0, 0, 0,0.0,0.0,0.0,0.0,0.0,0.0,0.0,0.0,0.0,0.0,0.0,0.0,0.0,26,rave-components\rave-core\src\main\java\org\apache\rave\portal\service\impl\DefaultAuthorityService.java,0,0,1,2
org.apache.rave.portal.service.impl.DefaultAuthorityServiceTest, 0, 0, 0, 0, 0, 0, 0, 0, 0, 0, 0, 0, 0, 0,0.0,0.0,0.0,0.0,0.0,0.0,0.0,0.0,0.0,0.0,0.0,0.0,0.0,79,rave-components\rave-core\src\test\java\org\apache\rave\portal\service\impl\DefaultAuthorityServiceTest.java,0,0,1,2
org.apache.rave.portal.service.impl.DefaultCategoryService, 0, 0, 0, 0, 0, 0, 0, 0, 0, 0, 0, 0, 0, 0,0.0,0.0,0.0,0.0,0.0,0.0,0.0,0.0,0.0,0.0,0.0,0.0,0.0,43,rave-components\rave-core\src\main\java\org\apache\rave\portal\service\impl\DefaultCategoryService.java,0,16,1,18
org.apache.rave.portal.service.impl.DefaultCategoryServiceTest, 0, 0, 0, 0, 0, 0, 0, 0, 0, 0, 0, 0, 0, 0,0.0,0.0,0.0,0.3333333333333333,0.0,0.0,0.0,0.0,0.0,0.0,0.0,0.0,0.0,106,rave-components\rave-core\src\test\java\org\apache\rave\portal\service\impl\DefaultCategoryServiceTest.java,0,28,2,32
org.apache.rave.portal.service.impl.DefaultGroupService, 0, 0, 0, 0, 0, 0, 0, 0, 0, 0, 0, 0, 0, 0,0.0,0.0,0.0,0.0,0.0,0.0,0.0,0.0,0.0,0.0,0.0,0.0,0.0,24,rave-components\rave-core\src\main\java\org\apache\rave\portal\service\impl\DefaultGroupService.java,0,0,0,0
org.apache.rave.portal.service.impl.DefaultGroupServiceTest, 0, 0, 0, 0, 0, 0, 0, 0, 0, 0, 0, 0, 0, 0,0.0,0.0,0.0,0.0,0.0,0.0,0.0,0.0,0.0,0.0,0.0,0.0,0.0,50,rave-components\rave-core\src\test\java\org\apache\rave\portal\service\impl\DefaultGroupServiceTest.java,0,0,0,0
org.apache.rave.portal.service.impl.DefaultNewAccountService, 0, 0, 0, 0, 0, 0, 0, 0, 0, 0, 0, 0, 0, 0,0.0,0.0,0.0,0.3333333333333333,0.0,0.0,0.0,0.0,0.0,0.0,0.0,0.0,0.0,57,rave-components\rave-core\src\main\java\org\apache\rave\portal\service\impl\DefaultNewAccountService.java,0,0,1,2
org.apache.rave.portal.service.impl.DefaultNewAccountServiceTest, 0, 0, 0, 0, 0, 0, 0, 0, 0, 0, 0, 0, 0, 0,0.0,0.0,0.0,0.3333333333333333,0.0,0.0,0.0,0.0,0.0,0.0,0.0,0.0,0.0,124,rave-components\rave-core\src\test\java\org\apache\rave\portal\service\impl\DefaultNewAccountServiceTest.java,0,5,3,11
org.apache.rave.portal.service.impl.DefaultOmdlService, 0, 0, 0, 0, 0, 0, 0, 0, 0, 0, 0, 0, 0, 0,0.0,0.0,0.0,0.0,0.0,0.0,0.0,0.0,0.0,0.0,0.0,0.0,0.0,191,rave-components\rave-core\src\main\java\org\apache\rave\portal\service\impl\DefaultOmdlService.java,0,0,0,0
org.apache.rave.portal.service.impl.DefaultPageLayoutService, 0, 0, 0, 0, 0, 0, 0, 0, 0, 0, 0, 0, 0, 0,0.0,0.0,0.0,0.0,0.0,0.0,0.0,0.0,0.0,0.0,0.0,0.0,0.0,19,rave-components\rave-core\src\main\java\org\apache\rave\portal\service\impl\DefaultPageLayoutService.java,0,0,0,0
org.apache.rave.portal.service.impl.DefaultPageLayoutServiceTest, 0, 0, 0, 0, 0, 0, 0, 0, 0, 0, 0, 0, 0, 0,0.0,0.0,0.0,0.0,0.0,0.0,0.0,0.0,0.0,0.0,0.0,0.0,0.0,43,rave-components\rave-core\src\test\java\org\apache\rave\portal\service\impl\DefaultPageLayoutServiceTest.java,0,0,0,0
org.apache.rave.portal.service.impl.DefaultPageService, 0, 0, 0, 1, 0, 0, 0, 1, 0, 0, 0, 0, 0, 2,0.0,0.0,0.0,0.4,0.0,0.0,0.0,0.0,0.0,0.0,0.0,0.0,0.0,472,rave-components\rave-core\src\main\java\org\apache\rave\portal\service\impl\DefaultPageService.java,0,56,14,84
org.apache.rave.portal.service.impl.DefaultPageServiceTest, 0, 0, 0, 1, 0, 0, 0, 0, 0, 0, 0, 0, 0, 1,0.0,0.0,0.0,0.6,0.0,0.0,0.0,0.1,0.0,0.0,0.0,0.0,0.0,1017,rave-components\rave-core\src\test\java\org\apache\rave\portal\service\impl\DefaultPageServiceTest.java,5,51,29,114
org.apache.rave.portal.service.impl.DefaultRegionService, 0, 0, 0, 0, 0, 0, 0, 0, 0, 0, 0, 0, 0, 0,0.0,0.0,0.0,0.0,0.0,0.0,0.0,0.0,0.0,0.0,0.0,0.0,0.0,11,rave-components\rave-core\src\main\java\org\apache\rave\portal\service\impl\DefaultRegionService.java,0,17,0,17
org.apache.rave.portal.service.impl.DefaultRegionWidgetService, 0, 0, 0, 0, 0, 0, 0, 0, 0, 0, 0, 0, 0, 0,0.0,0.0,0.0,0.0,0.0,0.0,0.0,0.0,0.0,0.0,0.0,0.0,0.0,72,rave-components\rave-core\src\main\java\org\apache\rave\portal\service\impl\DefaultRegionWidgetService.java,1,17,3,24
org.apache.rave.portal.service.impl.DefaultTagService, 0, 0, 0, 0, 0, 0, 0, 0, 0, 0, 0, 0, 0, 0,0.0,0.0,0.0,0.0,0.0,0.0,0.0,0.0,0.0,0.0,0.0,0.0,0.0,24,rave-components\rave-core\src\main\java\org\apache\rave\portal\service\impl\DefaultTagService.java,0,16,1,18
org.apache.rave.portal.service.impl.DefaultTagServiceTest, 0, 0, 0, 0, 0, 0, 0, 0, 0, 0, 0, 0, 0, 0,0.0,0.0,0.0,0.0,0.0,0.0,0.0,0.0,0.0,0.0,0.0,0.0,0.0,49,rave-components\rave-core\src\test\java\org\apache\rave\portal\service\impl\DefaultTagServiceTest.java,0,30,1,32
org.apache.rave.portal.service.impl.DefaultUserServiceTest, 0, 0, 0, 1, 0, 0, 0, 0, 0, 0, 0, 0, 0, 1,0.0,0.0,0.0,0.4,0.0,0.0,0.0,0.0,0.0,0.0,0.0,0.0,0.0,263,rave-components\rave-core\src\test\java\org\apache\rave\portal\service\impl\DefaultUserServiceTest.java,0,10,6,22
org.apache.rave.portal.service.impl.ReCaptchaService, 0, 0, 0, 0, 0, 0, 0, 1, 0, 0, 0, 0, 0, 1,0.0,0.0,0.0,0.0,0.0,0.0,0.0,0.0,0.0,0.0,0.0,0.0,0.0,69,rave-components\rave-core\src\main\java\org\apache\rave\portal\service\impl\ReCaptchaService.java,0,0,1,2
org.apache.rave.portal.service.impl.mock.MockCategoryRepository, 0, 0, 0, 0, 0, 0, 0, 0, 0, 0, 0, 0, 0, 0,0.0,0.0,0.0,0.0,0.0,0.0,0.0,0.0,0.0,0.0,0.0,0.0,0.0,25,rave-components\rave-core\src\test\java\org\apache\rave\portal\service\impl\mock\MockCategoryRepository.java,0,8,0,8
org.apache.rave.portal.util.DataImporterTest, 0, 0, 0, 0, 0, 0, 0, 0, 0, 0, 0, 0, 0, 0,0.0,0.0,0.0,0.42857142857142855,0.0,0.0,0.0,0.0,0.0,0.0,0.0,0.0,0.0,59,rave-components\rave-core\src\test\java\org\apache\rave\portal\util\DataImporterTest.java,0,3,3,9
org.apache.rave.portal.util.LocalizationUtilsTest, 0, 0, 0, 0, 0, 0, 0, 0, 0, 0, 0, 0, 0, 0,0.0,0.0,0.0,0.0,0.0,0.0,0.0,0.0,0.0,0.0,0.0,0.0,0.0,38,rave-components\rave-core\src\test\java\org\apache\rave\portal\util\LocalizationUtilsTest.java,0,0,0,0
org.apache.rave.portal.util.ModelUtil, 0, 0, 0, 0, 0, 0, 0, 0, 0, 0, 0, 0, 0, 0,0.0,0.0,0.0,0.0,0.0,0.0,0.0,0.0,0.0,0.0,0.0,0.0,0.0,12,rave-components\rave-core\src\main\java\org\apache\rave\portal\util\ModelUtil.java,0,0,0,0
org.apache.rave.portal.util.data.ModelWrapper, 0, 0, 0, 0, 0, 0, 0, 0, 0, 0, 0, 0, 0, 0,0.0,0.0,0.0,0.0,0.0,0.0,0.0,0.0,0.0,0.0,0.0,0.0,0.0,71,rave-components\rave-core\src\main\java\org\apache\rave\portal\util\data\ModelWrapper.java,0,0,0,0
org.apache.rave.portal.web.api.rest.AbstractRestApi, 0, 0, 0, 0, 0, 0, 0, 0, 0, 0, 0, 0, 0, 0,0.0,0.0,0.0,0.0,0.0,0.0,0.0,0.0,0.0,0.0,0.0,0.0,0.0,13,rave-components\rave-web\src\main\java\org\apache\rave\portal\web\api\rest\AbstractRestApi.java,0,0,0,0
org.apache.rave.portal.web.api.rest.AbstractRestApiTest, 0, 0, 0, 0, 0, 0, 0, 0, 0, 0, 0, 0, 0, 0,0.0,0.0,0.0,0.0,0.0,0.0,0.0,0.0,0.0,0.0,0.0,0.0,0.0,30,rave-components\rave-web\src\test\java\org\apache\rave\portal\web\api\rest\AbstractRestApiTest.java,0,0,0,0
org.apache.rave.portal.web.api.rest.PageApi, 0, 0, 0, 0, 0, 0, 0, 0, 0, 0, 0, 0, 0, 0,0.0,0.0,0.0,0.0,0.0,0.0,0.0,0.0,0.0,0.0,0.0,0.0,0.0,43,rave-components\rave-web\src\main\java\org\apache\rave\portal\web\api\rest\PageApi.java,0,0,0,0
org.apache.rave.portal.web.api.rest.PageApiTest, 0, 0, 0, 0, 0, 0, 0, 0, 0, 0, 0, 0, 0, 0,0.0,0.0,0.0,0.2,0.0,0.0,0.0,0.0,0.0,0.0,0.0,0.0,0.0,50,rave-components\rave-web\src\test\java\org\apache\rave\portal\web\api\rest\PageApiTest.java,0,0,0,0
org.apache.rave.portal.web.api.rest.RegionWidgetApi, 0, 0, 0, 0, 0, 0, 0, 0, 0, 0, 0, 0, 0, 0,0.0,0.0,0.0,0.0,0.0,0.0,0.0,0.0,0.0,0.0,0.0,0.0,0.0,43,rave-components\rave-web\src\main\java\org\apache\rave\portal\web\api\rest\RegionWidgetApi.java,1,5,2,10
org.apache.rave.portal.web.api.rest.RegionWidgetApiTest, 0, 0, 0, 0, 0, 0, 0, 0, 0, 0, 0, 0, 0, 0,0.0,0.0,0.0,0.25,0.0,0.0,0.0,0.0,0.0,0.0,0.0,0.0,0.0,72,rave-components\rave-web\src\test\java\org\apache\rave\portal\web\api\rest\RegionWidgetApiTest.java,0,0,0,0
org.apache.rave.portal.web.api.rest.WidgetApi, 0, 0, 0, 0, 0, 0, 0, 0, 0, 0, 0, 0, 0, 0,0.0,0.0,0.0,0.0,0.0,0.0,0.0,0.0,0.0,0.0,0.0,0.0,0.0,127,rave-components\rave-web\src\main\java\org\apache\rave\portal\web\api\rest\WidgetApi.java,0,0,1,2
org.apache.rave.portal.web.api.rest.WidgetApiTest, 0, 0, 0, 0, 0, 0, 0, 0, 0, 0, 0, 0, 0, 0,0.0,0.0,0.0,0.2857142857142857,0.0,0.0,0.0,0.0,0.0,0.0,0.0,0.0,0.0,198,rave-components\rave-web\src\test\java\org\apache\rave\portal\web\api\rest\WidgetApiTest.java,0,0,1,2
org.apache.rave.portal.web.api.rpc.MarketplaceAPI, 0, 0, 0, 0, 0, 0, 0, 0, 0, 0, 0, 0, 0, 0,0.0,0.0,0.0,0.0,0.0,0.0,0.0,0.0,0.0,0.0,0.0,0.0,0.0,41,rave-components\rave-web\src\main\java\org\apache\rave\portal\web\api\rpc\MarketplaceAPI.java,0,0,0,0
org.apache.rave.portal.web.api.rpc.PageApi, 0, 0, 0, 0, 0, 0, 0, 0, 0, 0, 0, 0, 0, 0,0.0,0.0,0.0,0.3333333333333333,0.0,0.0,0.0,0.0,0.0,0.0,0.0,0.0,0.0,180,rave-components\rave-web\src\main\java\org\apache\rave\portal\web\api\rpc\PageApi.java,0,0,0,0
org.apache.rave.portal.web.api.rpc.PageApiTest, 0, 0, 0, 1, 0, 0, 0, 0, 0, 0, 0, 0, 0, 1,0.0,0.0,0.0,0.2,0.0,0.0,0.0,0.0,0.0,0.0,0.0,0.0,0.0,269,rave-components\rave-web\src\test\java\org\apache\rave\portal\web\api\rpc\PageApiTest.java,0,0,0,0
org.apache.rave.portal.web.api.rpc.model.RpcOperation, 0, 0, 0, 0, 0, 0, 0, 0, 0, 0, 0, 0, 0, 0,0.0,0.0,0.0,0.0,0.0,0.0,0.0,0.0,0.0,0.0,0.0,0.0,0.0,19,rave-components\rave-web\src\main\java\org\apache\rave\portal\web\api\rpc\model\RpcOperation.java,0,0,0,0
org.apache.rave.portal.web.api.rpc.model.RpcOperationTest, 0, 0, 0, 0, 0, 0, 0, 0, 0, 0, 0, 0, 0, 0,0.0,0.0,0.0,0.0,0.0,0.0,0.0,0.0,0.0,0.0,0.0,0.0,0.0,51,rave-components\rave-web\src\test\java\org\apache\rave\portal\web\api\rpc\model\RpcOperationTest.java,0,0,0,0
org.apache.rave.portal.web.api.rpc.model.RpcResult, 0, 0, 0, 0, 0, 0, 0, 0, 0, 0, 0, 0, 0, 0,0.0,0.0,0.0,0.16666666666666666,0.0,0.0,0.0,0.0,0.0,0.0,0.0,0.0,0.0,59,rave-components\rave-web\src\main\java\org\apache\rave\portal\web\api\rpc\model\RpcResult.java,0,0,0,0
org.apache.rave.portal.web.api.rpc.model.RpcResultTest, 0, 0, 0, 0, 0, 0, 0, 0, 0, 0, 0, 0, 0, 0,0.0,0.0,0.0,0.0,0.0,0.0,0.0,0.0,0.0,0.0,0.0,0.0,0.0,10,rave-components\rave-web\src\test\java\org\apache\rave\portal\web\api\rpc\model\RpcResultTest.java,0,0,0,0
org.apache.rave.portal.web.context.RaveContextLoaderListener, 0, 0, 0, 0, 0, 0, 0, 0, 0, 0, 0, 0, 0, 0,0.0,0.0,0.0,0.0,0.0,0.0,0.0,0.0,0.0,0.0,0.0,0.0,0.0,10,rave-components\rave-web\src\main\java\org\apache\rave\portal\web\context\RaveContextLoaderListener.java,0,0,0,0
org.apache.rave.portal.web.controller.ChangePasswordController, 0, 0, 0, 0, 0, 0, 0, 0, 0, 0, 0, 0, 0, 0,0.0,0.0,0.0,0.4,0.0,0.0,0.0,0.0,0.0,0.0,0.0,0.0,0.0,39,rave-components\rave-web\src\main\java\org\apache\rave\portal\web\controller\ChangePasswordController.java,0,0,0,0
org.apache.rave.portal.web.controller.ChangePasswordControllerTest, 0, 0, 0, 0, 0, 0, 0, 0, 0, 0, 0, 0, 0, 0,0.0,0.0,0.0,0.3333333333333333,0.0,0.0,0.0,0.0,0.0,0.0,0.0,0.0,0.0,55,rave-components\rave-web\src\test\java\org\apache\rave\portal\web\controller\ChangePasswordControllerTest.java,0,0,0,0
org.apache.rave.portal.web.controller.NewAccountController, 0, 0, 0, 0, 0, 0, 0, 1, 0, 0, 0, 0, 0, 1,0.0,0.0,0.0,0.4,0.0,0.0,0.0,0.0,0.0,0.0,0.0,0.0,0.0,70,rave-components\rave-web\src\main\java\org\apache\rave\portal\web\controller\NewAccountController.java,0,0,0,0
org.apache.rave.portal.web.controller.NewAccountControllerTest, 0, 0, 0, 0, 0, 0, 0, 0, 0, 0, 0, 0, 0, 0,0.0,0.0,0.0,0.4,0.0,0.0,0.0,0.4,0.0,0.0,0.0,0.0,0.0,266,rave-components\rave-web\src\test\java\org\apache\rave\portal\web\controller\NewAccountControllerTest.java,0,0,0,0
org.apache.rave.portal.web.controller.PageController, 0, 0, 0, 0, 0, 0, 0, 1, 0, 0, 0, 0, 0, 1,0.0,0.0,0.0,0.0,0.0,0.0,0.0,0.5,0.0,0.0,0.0,0.0,0.0,80,rave-components\rave-web\src\main\java\org\apache\rave\portal\web\controller\PageController.java,0,0,0,0
org.apache.rave.portal.web.controller.PageControllerTest, 0, 0, 0, 0, 0, 0, 0, 0, 0, 0, 0, 0, 0, 0,0.0,0.0,0.0,0.16666666666666666,0.0,0.0,0.0,0.16666666666666666,0.0,0.0,0.0,0.0,0.0,137,rave-components\rave-web\src\test\java\org\apache\rave\portal\web\controller\PageControllerTest.java,0,0,0,0
org.apache.rave.portal.web.controller.ProfileController, 0, 0, 0, 0, 0, 0, 0, 1, 0, 0, 0, 0, 0, 1,0.0,0.0,0.0,0.3333333333333333,0.0,0.0,0.0,0.3333333333333333,0.0,0.0,0.0,0.0,0.0,83,rave-components\rave-web\src\main\java\org\apache\rave\portal\web\controller\ProfileController.java,0,0,0,0
org.apache.rave.portal.web.controller.ProfileControllerTest, 0, 0, 0, 0, 0, 0, 0, 0, 0, 0, 0, 0, 0, 0,0.0,0.0,0.0,0.5,0.0,0.0,0.0,0.16666666666666666,0.0,0.0,0.0,0.0,0.0,150,rave-components\rave-web\src\test\java\org\apache\rave\portal\web\controller\ProfileControllerTest.java,0,0,0,0
org.apache.rave.portal.web.controller.RegionWidgetController, 0, 0, 0, 0, 0, 0, 0, 0, 0, 0, 0, 0, 0, 0,0.0,0.0,0.0,0.0,0.0,0.0,0.0,0.0,0.0,0.0,0.0,0.0,0.0,16,rave-components\rave-web\src\main\java\org\apache\rave\portal\web\controller\RegionWidgetController.java,0,0,0,0
org.apache.rave.portal.web.controller.ReminderController, 0, 0, 0, 0, 0, 0, 0, 1, 0, 0, 0, 0, 0, 1,0.0,0.0,0.0,0.4,0.0,0.0,0.0,0.0,0.0,0.0,0.0,0.0,0.0,82,rave-components\rave-web\src\main\java\org\apache\rave\portal\web\controller\ReminderController.java,0,0,0,0
org.apache.rave.portal.web.controller.ReminderControllerTest, 0, 0, 0, 0, 0, 0, 0, 0, 0, 0, 0, 0, 0, 0,0.0,0.0,0.0,0.25,0.0,0.0,0.0,0.5,0.0,0.0,0.0,0.0,0.0,69,rave-components\rave-web\src\test\java\org\apache\rave\portal\web\controller\ReminderControllerTest.java,0,0,0,0
org.apache.rave.portal.web.controller.UserProfileController, 0, 0, 0, 0, 0, 0, 0, 1, 0, 0, 0, 0, 0, 1,0.0,0.0,0.0,0.3333333333333333,0.0,0.0,0.0,0.0,0.0,0.0,0.0,0.0,0.0,39,rave-components\rave-web\src\main\java\org\apache\rave\portal\web\controller\UserProfileController.java,0,0,0,0
org.apache.rave.portal.web.controller.WidgetMarketplaceController, 0, 0, 0, 0, 0, 0, 0, 0, 0, 0, 0, 0, 0, 0,0.0,0.0,0.0,0.0,0.0,0.0,0.0,1.0,0.0,0.0,0.0,0.0,0.0,109,rave-components\rave-web\src\main\java\org\apache\rave\portal\web\controller\WidgetMarketplaceController.java,0,0,0,0
org.apache.rave.portal.web.controller.WidgetStoreController, 0, 0, 0, 0, 0, 0, 0, 1, 0, 0, 0, 0, 0, 1,0.0,0.0,0.0,0.25,0.0,0.0,0.0,0.25,0.0,0.0,0.0,0.0,0.0,169,rave-components\rave-web\src\main\java\org\apache\rave\portal\web\controller\WidgetStoreController.java,0,0,2,4
org.apache.rave.portal.web.controller.admin.AdminControllerUtil, 0, 0, 0, 0, 0, 0, 0, 0, 0, 0, 0, 0, 0, 0,0.0,0.0,0.0,0.0,0.0,0.0,0.0,0.375,0.0,0.0,0.0,0.0,0.0,73,rave-components\rave-web\src\main\java\org\apache\rave\portal\web\controller\admin\AdminControllerUtil.java,0,0,2,4
org.apache.rave.portal.web.controller.admin.AdminControllerUtilTest, 0, 0, 0, 0, 0, 0, 0, 0, 0, 0, 0, 0, 0, 0,0.0,0.0,0.0,0.0,0.0,0.0,0.0,0.0,0.0,0.0,0.0,0.0,0.0,24,rave-components\rave-web\src\test\java\org\apache\rave\portal\web\controller\admin\AdminControllerUtilTest.java,1,1,0,2
org.apache.rave.portal.web.controller.admin.AdminHomeController, 0, 0, 0, 0, 0, 0, 0, 0, 0, 0, 0, 0, 0, 0,0.0,0.0,0.0,0.0,0.0,0.0,0.0,0.0,0.0,0.0,0.0,0.0,0.0,8,rave-components\rave-web\src\main\java\org\apache\rave\portal\web\controller\admin\AdminHomeController.java,0,0,0,0
org.apache.rave.portal.web.controller.admin.AdminHomeControllerTest, 0, 0, 0, 0, 0, 0, 0, 0, 0, 0, 0, 0, 0, 0,0.0,0.0,0.0,0.0,0.0,0.0,0.0,0.0,0.0,0.0,0.0,0.0,0.0,17,rave-components\rave-web\src\test\java\org\apache\rave\portal\web\controller\admin\AdminHomeControllerTest.java,2,2,0,4
org.apache.rave.portal.web.controller.admin.CategoryController, 0, 0, 0, 0, 0, 0, 0, 1, 0, 0, 0, 0, 0, 1,0.0,0.0,0.0,0.0,0.0,0.0,0.0,0.0,0.0,0.0,0.0,0.0,0.0,110,rave-components\rave-web\src\main\java\org\apache\rave\portal\web\controller\admin\CategoryController.java,0,0,1,2
org.apache.rave.portal.web.controller.admin.CategoryControllerTest, 0, 0, 0, 0, 0, 0, 0, 0, 0, 0, 0, 0, 0, 0,0.0,0.0,0.0,0.25,0.0,0.0,0.0,0.25,0.0,0.0,0.0,0.0,0.0,375,rave-components\rave-web\src\test\java\org\apache\rave\portal\web\controller\admin\CategoryControllerTest.java,0,7,6,19
org.apache.rave.portal.web.controller.admin.UserController, 0, 0, 0, 0, 0, 0, 0, 1, 0, 0, 0, 0, 0, 1,0.0,0.0,0.0,0.25,0.0,0.0,0.0,0.0,0.0,0.0,0.0,0.0,0.0,188,rave-components\rave-web\src\main\java\org\apache\rave\portal\web\controller\admin\UserController.java,0,0,2,4
org.apache.rave.portal.web.controller.admin.UserControllerTest, 0, 0, 0, 0, 0, 0, 0, 0, 0, 0, 0, 0, 0, 0,0.0,0.0,0.0,0.3333333333333333,0.0,0.0,0.0,0.1111111111111111,0.0,0.0,0.0,0.0,0.0,245,rave-components\rave-web\src\test\java\org\apache\rave\portal\web\controller\admin\UserControllerTest.java,0,8,4,16
org.apache.rave.portal.web.controller.admin.WidgetController, 0, 0, 0, 0, 0, 0, 0, 1, 0, 0, 0, 0, 0, 1,0.0,0.0,0.0,0.0,0.0,0.0,0.0,0.0,0.0,0.0,0.0,0.0,0.0,109,rave-components\rave-web\src\main\java\org\apache\rave\portal\web\controller\admin\WidgetController.java,0,0,4,8
org.apache.rave.portal.web.controller.admin.WidgetControllerTest, 0, 0, 0, 0, 0, 0, 0, 0, 0, 0, 0, 0, 0, 0,0.0,0.0,0.0,0.14285714285714285,0.0,0.0,0.0,0.14285714285714285,0.0,0.0,0.0,0.0,0.0,153,rave-components\rave-web\src\test\java\org\apache\rave\portal\web\controller\admin\WidgetControllerTest.java,0,0,3,6
org.apache.rave.portal.web.controller.handler.OpenIDAuthenticationFailureHandler, 0, 0, 0, 0, 0, 0, 0, 0, 0, 0, 0, 0, 0, 0,0.0,0.0,0.0,0.5,0.0,0.0,0.0,0.0,0.0,0.0,0.0,0.0,0.0,59,rave-components\rave-web\src\main\java\org\apache\rave\portal\web\controller\handler\OpenIDAuthenticationFailureHandler.java,5,5,1,12
org.apache.rave.portal.web.controller.handler.OpenIDAuthenticationFailureHandlerTest, 0, 0, 0, 0, 0, 0, 0, 0, 0, 0, 0, 0, 0, 0,0.0,0.0,0.0,0.0,0.0,0.0,0.0,0.0,0.0,0.0,0.0,0.0,0.0,35,rave-components\rave-web\src\test\java\org\apache\rave\portal\web\controller\handler\OpenIDAuthenticationFailureHandlerTest.java,0,0,0,0
org.apache.rave.portal.web.controller.util.CategoryEditor, 0, 0, 0, 0, 0, 0, 0, 0, 0, 0, 0, 0, 0, 0,0.0,0.0,0.0,0.0,0.0,0.0,0.0,0.3333333333333333,0.0,0.0,0.0,0.0,0.0,15,rave-components\rave-web\src\main\java\org\apache\rave\portal\web\controller\util\CategoryEditor.java,0,0,0,0
org.apache.rave.portal.web.controller.util.CategoryEditorTest, 0, 0, 0, 0, 0, 0, 0, 0, 0, 0, 0, 0, 0, 0,0.0,0.0,0.0,0.0,0.0,0.0,0.0,0.0,0.0,0.0,0.0,0.0,0.0,31,rave-components\rave-web\src\test\java\org\apache\rave\portal\web\controller\util\CategoryEditorTest.java,0,0,0,0
org.apache.rave.portal.web.controller.util.ControllerUtils, 0, 0, 0, 0, 0, 0, 0, 1, 0, 0, 0, 0, 0, 1,0.0,0.0,0.0,0.0,0.0,0.0,0.0,0.6,0.0,0.0,0.0,0.0,0.0,99,rave-components\rave-web\src\main\java\org\apache\rave\portal\web\controller\util\ControllerUtils.java,0,0,0,0
org.apache.rave.portal.web.controller.util.ControllerUtilsTest, 0, 0, 0, 0, 0, 0, 0, 0, 0, 0, 0, 0, 0, 0,0.0,0.0,0.0,0.3333333333333333,0.0,0.0,0.0,0.3333333333333333,0.0,0.0,0.0,0.0,0.0,53,rave-components\rave-web\src\test\java\org\apache\rave\portal\web\controller\util\ControllerUtilsTest.java,0,0,0,0
org.apache.rave.portal.web.controller.util.MockHttpUtil, 0, 0, 0, 0, 0, 0, 0, 0, 0, 0, 0, 0, 0, 0,0.0,0.0,0.0,0.0,0.0,0.0,0.0,0.0,0.0,0.0,0.0,0.0,0.0,10,rave-components\rave-web\src\test\java\org\apache\rave\portal\web\controller\util\MockHttpUtil.java,0,0,0,0
org.apache.rave.portal.web.controller.util.ModelUtils, 0, 0, 0, 0, 0, 0, 0, 0, 0, 0, 0, 0, 0, 0,0.0,0.0,0.0,0.2857142857142857,0.0,0.0,0.0,0.5714285714285714,0.0,0.0,0.0,0.0,0.0,22,rave-components\rave-web\src\main\java\org\apache\rave\portal\web\controller\util\ModelUtils.java,0,0,0,0
org.apache.rave.portal.web.controller.util.ViewNamesTest, 0, 0, 0, 0, 0, 0, 0, 0, 0, 0, 0, 0, 0, 0,0.0,0.0,0.0,0.0,0.0,0.0,0.0,0.0,0.0,0.0,0.0,0.0,0.0,6,rave-components\rave-web\src\test\java\org\apache\rave\portal\web\controller\util\ViewNamesTest.java,0,0,0,0
org.apache.rave.portal.web.interceptors.CommonModelHandlerInterceptor, 0, 0, 0, 0, 0, 0, 0, 0, 0, 0, 0, 0, 0, 0,0.0,0.0,0.0,0.0,0.0,0.0,0.0,0.0,0.0,0.0,0.0,0.0,0.0,18,rave-components\rave-web\src\main\java\org\apache\rave\portal\web\interceptors\CommonModelHandlerInterceptor.java,0,0,0,0
org.apache.rave.portal.web.model.MaterializedBeanObjectMapperFactory, 0, 0, 0, 0, 0, 0, 0, 0, 0, 0, 0, 0, 0, 0,0.0,0.0,0.0,0.0,0.0,0.0,0.0,0.0,0.0,0.0,0.0,0.0,0.0,16,rave-components\rave-web\src\main\java\org\apache\rave\portal\web\model\MaterializedBeanObjectMapperFactory.java,0,0,0,0
org.apache.rave.portal.web.model.NavigationItemTest, 0, 0, 0, 0, 0, 0, 0, 0, 0, 0, 0, 0, 0, 0,0.0,0.0,0.0,0.0,0.0,0.0,0.0,0.0,0.0,0.0,0.0,0.0,0.0,50,rave-components\rave-web\src\test\java\org\apache\rave\portal\web\model\NavigationItemTest.java,0,0,5,10
org.apache.rave.portal.web.model.NavigationMenuTest, 0, 0, 0, 0, 0, 0, 0, 0, 0, 0, 0, 0, 0, 0,0.0,0.0,0.0,0.0,0.0,0.0,0.0,0.0,0.0,0.0,0.0,0.0,0.0,18,rave-components\rave-web\src\test\java\org\apache\rave\portal\web\model\NavigationMenuTest.java,0,0,2,4
org.apache.rave.portal.web.model.RegionWidgetPreferenceListWrapper, 0, 0, 0, 0, 0, 0, 0, 0, 0, 0, 0, 0, 0, 0,0.0,0.0,0.0,0.0,0.0,0.0,0.0,0.0,0.0,0.0,0.0,0.0,0.0,20,rave-components\rave-web\src\main\java\org\apache\rave\portal\web\model\RegionWidgetPreferenceListWrapper.java,0,0,0,0
org.apache.rave.portal.web.model.UserForm, 0, 0, 0, 1, 0, 0, 0, 0, 0, 0, 0, 0, 0, 1,0.0,0.0,0.0,0.0,0.0,0.0,0.0,0.3333333333333333,0.0,0.0,0.0,0.0,0.0,188,rave-components\rave-web\src\main\java\org\apache\rave\portal\web\model\UserForm.java,0,0,0,0
org.apache.rave.portal.web.renderer.RegionWidgetRenderer, 0, 0, 0, 0, 0, 0, 0, 0, 0, 0, 0, 0, 0, 0,0.0,0.0,0.0,0.0,0.0,0.0,0.0,0.0,0.0,0.0,0.0,0.0,0.0,188,rave-components\rave-core\src\main\java\org\apache\rave\portal\web\renderer\RegionWidgetRenderer.java,0,0,0,0
org.apache.rave.portal.web.renderer.RegionWidgetWrapperRenderer, 0, 0, 0, 0, 0, 0, 0, 0, 0, 0, 0, 0, 0, 0,0.0,0.0,0.0,0.0,0.0,0.0,0.0,0.0,0.0,0.0,0.0,0.0,0.0,188,rave-components\rave-core\src\main\java\org\apache\rave\portal\web\renderer\RegionWidgetWrapperRenderer.java,0,0,0,0
org.apache.rave.portal.web.renderer.RenderService, 0, 0, 0, 0, 0, 0, 0, 0, 0, 0, 0, 0, 0, 0,0.0,0.0,0.0,0.0,0.0,0.0,0.0,0.0,0.0,0.0,0.0,0.0,0.0,188,rave-components\rave-core\src\main\java\org\apache\rave\portal\web\renderer\RenderService.java,0,0,0,0
org.apache.rave.portal.web.renderer.RenderServiceTest, 0, 0, 0, 0, 0, 0, 0, 0, 0, 0, 0, 0, 0, 0,0.0,0.0,0.0,0.6666666666666666,0.0,0.0,0.0,0.0,0.0,0.0,0.0,0.0,0.0,95,rave-components\rave-core\src\test\java\org\apache\rave\portal\web\renderer\RenderServiceTest.java,0,0,0,0
org.apache.rave.portal.web.renderer.Renderer, 0, 0, 0, 0, 0, 0, 0, 0, 0, 0, 0, 0, 0, 0,0.0,0.0,0.0,0.0,0.0,0.0,0.0,0.0,0.0,0.0,0.0,0.0,0.0,95,rave-components\rave-core\src\main\java\org\apache\rave\portal\web\renderer\Renderer.java,0,0,0,0
org.apache.rave.portal.web.renderer.ScriptManager, 0, 0, 0, 0, 0, 0, 0, 0, 0, 0, 0, 0, 0, 0,0.0,0.0,0.0,0.0,0.0,0.0,0.0,0.0,0.0,0.0,0.0,0.0,0.0,95,rave-components\rave-core\src\main\java\org\apache\rave\portal\web\renderer\ScriptManager.java,0,0,0,0
org.apache.rave.portal.web.renderer.model.RegionWidgetWrapper, 0, 0, 0, 0, 0, 0, 0, 0, 0, 0, 0, 0, 0, 0,0.0,0.0,0.0,0.0,0.0,0.0,0.0,0.0,0.0,0.0,0.0,0.0,0.0,21,rave-components\rave-core\src\main\java\org\apache\rave\portal\web\renderer\model\RegionWidgetWrapper.java,0,0,0,0
org.apache.rave.portal.web.security.LdapUserDetailsContextMapper, 0, 0, 0, 0, 0, 0, 0, 1, 0, 0, 0, 0, 0, 1,0.0,0.0,0.0,0.5,0.0,0.0,0.0,0.0,0.0,0.0,0.0,0.0,0.0,50,rave-components\rave-web\src\main\java\org\apache\rave\portal\web\security\LdapUserDetailsContextMapper.java,1,0,2,5
org.apache.rave.portal.web.security.LdapUserDetailsContextMapperTest, 0, 0, 0, 0, 0, 0, 0, 0, 0, 0, 0, 0, 0, 0,0.0,0.0,0.0,0.5,0.0,0.0,0.0,0.5,0.0,0.0,0.0,0.0,0.0,98,rave-components\rave-web\src\test\java\org\apache\rave\portal\web\security\LdapUserDetailsContextMapperTest.java,1,6,2,11
org.apache.rave.portal.web.tag.AbstractContextAwareSingletonBeanDependentTagTest, 0, 0, 0, 0, 0, 0, 0, 0, 0, 0, 0, 0, 0, 0,0.0,0.0,0.0,0.0,0.0,0.0,0.0,0.0,0.0,0.0,0.0,0.0,0.0,67,rave-components\rave-web\src\test\java\org\apache\rave\portal\web\tag\AbstractContextAwareSingletonBeanDependentTagTest.java,0,0,0,0
org.apache.rave.portal.web.tag.JavaScriptDebugModeTag, 0, 0, 0, 0, 0, 0, 0, 0, 0, 0, 0, 0, 0, 0,0.0,0.0,0.0,0.0,0.0,0.0,0.0,0.0,0.0,0.0,0.0,0.0,0.0,27,rave-components\rave-web\src\main\java\org\apache\rave\portal\web\tag\JavaScriptDebugModeTag.java,0,0,0,0
org.apache.rave.portal.web.tag.JavaScriptDebugModeTagTest, 0, 0, 0, 0, 0, 0, 0, 0, 0, 0, 0, 0, 0, 0,0.0,0.0,0.0,0.0,0.0,0.0,0.0,0.0,0.0,0.0,0.0,0.0,0.0,85,rave-components\rave-web\src\test\java\org\apache\rave\portal\web\tag\JavaScriptDebugModeTagTest.java,0,0,0,0
org.apache.rave.portal.web.tag.ModelContextTag, 0, 0, 0, 0, 0, 0, 0, 0, 0, 0, 0, 0, 0, 0,0.0,0.0,0.0,0.0,0.0,0.3333333333333333,0.0,0.0,0.0,0.0,0.0,0.0,0.0,62,rave-components\rave-web\src\main\java\org\apache\rave\portal\web\tag\ModelContextTag.java,0,0,0,0
org.apache.rave.portal.web.tag.PersonTag, 0, 0, 0, 0, 0, 0, 0, 0, 0, 0, 0, 0, 0, 0,0.0,0.0,0.0,0.0,0.0,0.0,0.0,0.0,0.0,0.0,0.0,0.0,0.0,9,rave-components\rave-web\src\main\java\org\apache\rave\portal\web\tag\PersonTag.java,0,0,0,0
org.apache.rave.portal.web.tag.PersonTagTest, 0, 0, 0, 0, 0, 0, 0, 0, 0, 0, 0, 0, 0, 0,0.0,0.0,0.0,0.0,0.0,0.0,0.0,0.0,0.0,0.0,0.0,0.0,0.0,101,rave-components\rave-web\src\test\java\org\apache\rave\portal\web\tag\PersonTagTest.java,0,0,0,0
org.apache.rave.portal.web.tag.RegionWidgetTag, 0, 0, 0, 0, 0, 0, 0, 0, 0, 0, 0, 0, 0, 0,0.0,0.0,0.0,0.0,0.0,0.0,0.0,0.0,0.0,0.0,0.0,0.0,0.0,52,rave-components\rave-web\src\main\java\org\apache\rave\portal\web\tag\RegionWidgetTag.java,0,0,4,8
org.apache.rave.portal.web.tag.RegionWidgetTagTest, 0, 0, 0, 0, 0, 0, 0, 0, 0, 0, 0, 0, 0, 0,0.0,0.0,0.0,0.4,0.0,0.0,0.0,0.0,0.0,0.0,0.0,0.0,0.0,124,rave-components\rave-web\src\test\java\org\apache\rave\portal\web\tag\RegionWidgetTagTest.java,0,0,0,0
org.apache.rave.portal.web.tag.RegisterInitializationScriptTagTest, 0, 0, 0, 0, 0, 0, 0, 0, 0, 0, 0, 0, 0, 0,0.0,0.0,0.0,0.0,0.0,0.0,0.0,0.0,0.0,0.0,0.0,0.0,0.0,70,rave-components\rave-web\src\test\java\org\apache\rave\portal\web\tag\RegisterInitializationScriptTagTest.java,0,0,0,0
org.apache.rave.portal.web.tag.RenderInitializationScriptTag, 0, 0, 0, 0, 0, 0, 0, 0, 0, 0, 0, 0, 0, 0,0.0,0.0,0.0,0.0,0.0,0.0,0.0,0.0,0.0,0.0,0.0,0.0,0.0,29,rave-components\rave-web\src\main\java\org\apache\rave\portal\web\tag\RenderInitializationScriptTag.java,0,0,0,0
org.apache.rave.portal.web.tag.RenderInitializationScriptTagTest, 0, 0, 0, 0, 0, 0, 0, 0, 0, 0, 0, 0, 0, 0,0.0,0.0,0.0,0.0,0.0,0.0,0.0,0.0,0.0,0.0,0.0,0.0,0.0,68,rave-components\rave-web\src\test\java\org\apache\rave\portal\web\tag\RenderInitializationScriptTagTest.java,0,0,0,0
org.apache.rave.portal.web.tag.ScriptTag, 0, 0, 0, 0, 0, 0, 0, 0, 0, 0, 0, 0, 0, 0,0.0,0.0,0.0,0.0,0.0,0.0,0.0,0.0,0.0,0.0,0.0,0.0,0.0,35,rave-components\rave-web\src\main\java\org\apache\rave\portal\web\tag\ScriptTag.java,0,0,0,0
org.apache.rave.portal.web.tag.ShowStackTraceTag, 0, 0, 0, 0, 0, 0, 0, 0, 0, 0, 0, 0, 0, 0,0.0,0.0,0.0,0.0,0.0,0.0,0.0,0.0,0.0,0.0,0.0,0.0,0.0,28,rave-components\rave-web\src\main\java\org\apache\rave\portal\web\tag\ShowStackTraceTag.java,0,0,0,0
org.apache.rave.portal.web.tag.ShowStackTraceTagTest, 0, 0, 0, 0, 0, 0, 0, 0, 0, 0, 0, 0, 0, 0,0.0,0.0,0.0,0.0,0.0,0.0,0.0,0.0,0.0,0.0,0.0,0.0,0.0,85,rave-components\rave-web\src\test\java\org\apache\rave\portal\web\tag\ShowStackTraceTagTest.java,0,0,0,0
org.apache.rave.portal.web.tag.StaticContentTag, 0, 0, 0, 0, 0, 0, 0, 0, 0, 0, 0, 0, 0, 0,0.0,0.0,0.0,0.0,0.0,0.0,0.0,0.0,0.0,0.0,0.0,0.0,0.0,22,rave-components\rave-web\src\main\java\org\apache\rave\portal\web\tag\StaticContentTag.java,0,0,0,0
org.apache.rave.portal.web.tag.StaticContentTagTest, 0, 0, 0, 0, 0, 0, 0, 0, 0, 0, 0, 0, 0, 0,0.0,0.0,0.0,0.0,0.0,0.0,0.0,0.0,0.0,0.0,0.0,0.0,0.0,44,rave-components\rave-web\src\test\java\org\apache\rave\portal\web\tag\StaticContentTagTest.java,0,0,0,0
org.apache.rave.portal.web.tag.WidgetTag, 0, 0, 0, 0, 0, 1, 0, 0, 0, 0, 0, 0, 0, 1,0.0,0.0,0.0,0.0,0.0,0.0,0.0,0.0,0.0,0.0,0.0,0.0,0.0,5,rave-components\rave-web\src\main\java\org\apache\rave\portal\web\tag\WidgetTag.java,0,0,0,0
org.apache.rave.portal.web.util.ModelKeys, 0, 0, 0, 1, 0, 0, 0, 0, 0, 0, 0, 0, 0, 1,0.0,0.0,0.0,0.0,0.0,0.0,0.0,0.0,0.0,0.0,0.0,0.0,0.0,36,rave-components\rave-web\src\main\java\org\apache\rave\portal\web\util\ModelKeys.java,0,0,0,0
org.apache.rave.portal.web.util.PortalPreferenceKeys, 0, 0, 0, 0, 0, 0, 0, 0, 0, 0, 0, 0, 0, 0,0.0,0.0,0.0,0.0,0.0,0.0,0.0,0.0,0.0,0.0,0.0,0.0,0.0,10,rave-components\rave-core\src\main\java\org\apache\rave\portal\web\util\PortalPreferenceKeys.java,0,0,0,0
org.apache.rave.portal.web.validator.ChangePasswordValidator, 0, 0, 0, 0, 0, 0, 0, 0, 0, 0, 0, 0, 0, 0,0.0,0.0,0.0,0.25,0.0,0.0,0.0,0.0,0.0,0.0,0.0,0.0,0.0,21,rave-components\rave-web\src\main\java\org\apache\rave\portal\web\validator\ChangePasswordValidator.java,0,0,0,0
org.apache.rave.portal.web.validator.NewAccountValidator, 0, 0, 0, 0, 0, 0, 0, 0, 0, 0, 0, 0, 0, 0,0.0,0.0,0.0,0.125,0.0,0.0,0.0,0.25,0.0,0.0,0.0,0.0,0.0,93,rave-components\rave-web\src\main\java\org\apache\rave\portal\web\validator\NewAccountValidator.java,0,0,1,2
org.apache.rave.portal.web.validator.NewAccountValidatorTest, 0, 0, 0, 0, 0, 0, 0, 0, 0, 0, 0, 0, 0, 0,0.0,0.0,0.0,0.5,0.0,0.0,0.0,0.0,0.0,0.0,0.0,0.0,0.0,150,rave-components\rave-web\src\test\java\org\apache\rave\portal\web\validator\NewAccountValidatorTest.java,0,5,2,9
org.apache.rave.portal.web.validator.NewPasswordValidator, 0, 0, 0, 0, 0, 0, 0, 0, 0, 0, 0, 0, 0, 0,0.0,0.0,0.0,0.0,0.0,0.0,0.0,0.3333333333333333,0.0,0.0,0.0,0.0,0.0,35,rave-components\rave-web\src\main\java\org\apache\rave\portal\web\validator\NewPasswordValidator.java,0,0,1,2
org.apache.rave.portal.web.validator.NewWidgetValidator, 0, 0, 0, 0, 0, 0, 0, 0, 0, 0, 0, 0, 0, 0,0.0,0.0,0.0,0.0,0.0,0.0,0.0,0.25,0.0,0.0,0.0,0.0,0.0,14,rave-components\rave-web\src\main\java\org\apache\rave\portal\web\validator\NewWidgetValidator.java,0,0,0,0
org.apache.rave.portal.web.validator.NewWidgetValidatorTest, 0, 0, 0, 0, 0, 0, 0, 0, 0, 0, 0, 0, 0, 0,0.0,0.0,0.0,0.3333333333333333,0.0,0.0,0.0,0.0,0.0,0.0,0.0,0.0,0.0,75,rave-components\rave-web\src\test\java\org\apache\rave\portal\web\validator\NewWidgetValidatorTest.java,0,5,2,9
org.apache.rave.portal.web.validator.PortalPreferenceFormValidator, 0, 0, 0, 0, 0, 0, 0, 0, 0, 0, 0, 0, 0, 0,0.0,0.0,0.0,0.0,0.0,0.0,0.0,0.0,0.0,0.0,0.0,0.0,0.0,28,rave-components\rave-web\src\main\java\org\apache\rave\portal\web\validator\PortalPreferenceFormValidator.java,0,0,0,0
org.apache.rave.portal.web.validator.UpdateWidgetValidator, 0, 0, 0, 0, 0, 0, 0, 0, 0, 0, 0, 0, 0, 0,0.0,0.0,0.0,0.0,0.0,0.0,0.0,0.25,0.0,0.0,0.0,0.0,0.0,16,rave-components\rave-web\src\main\java\org\apache\rave\portal\web\validator\UpdateWidgetValidator.java,0,0,0,0
org.apache.rave.portal.web.validator.UpdateWidgetValidatorTest, 0, 0, 0, 0, 0, 0, 0, 0, 0, 0, 0, 0, 0, 0,0.0,0.0,0.0,0.3333333333333333,0.0,0.0,0.0,0.0,0.0,0.0,0.0,0.0,0.0,76,rave-components\rave-web\src\test\java\org\apache\rave\portal\web\validator\UpdateWidgetValidatorTest.java,0,5,2,9
org.apache.rave.portal.web.validator.UserProfileValidator, 0, 0, 0, 0, 0, 0, 0, 0, 0, 0, 0, 0, 0, 0,0.0,0.0,0.0,0.0,0.0,0.0,0.0,0.5,0.0,0.0,0.0,0.0,0.0,62,rave-components\rave-web\src\main\java\org\apache\rave\portal\web\validator\UserProfileValidator.java,0,0,1,2
org.apache.rave.portal.web.validator.UserProfileValidatorTest, 0, 0, 0, 0, 0, 0, 0, 0, 0, 0, 0, 0, 0, 0,0.0,0.0,0.0,0.5,0.0,0.0,0.0,0.0,0.0,0.0,0.0,0.0,0.0,61,rave-components\rave-web\src\test\java\org\apache\rave\portal\web\validator\UserProfileValidatorTest.java,1,3,0,4
org.apache.rave.portal.web.validator.WidgetValidator, 0, 0, 0, 0, 0, 0, 0, 0, 0, 0, 0, 0, 0, 0,0.0,0.0,0.0,0.0,0.0,0.0,0.0,0.2857142857142857,0.0,0.0,0.0,0.0,0.0,45,rave-components\rave-web\src\main\java\org\apache\rave\portal\web\validator\WidgetValidator.java,0,0,1,2
org.apache.rave.portal.web.validator.WidgetValidatorTest, 0, 0, 0, 0, 0, 0, 0, 0, 0, 0, 0, 0, 0, 0,0.0,0.0,0.0,0.0,0.0,0.0,0.0,0.0,0.0,0.0,0.0,0.0,0.0,31,rave-components\rave-web\src\test\java\org\apache\rave\portal\web\validator\WidgetValidatorTest.java,0,0,2,4
org.apache.rave.provider.opensocial.Constants, 0, 0, 0, 0, 0, 0, 0, 0, 0, 0, 0, 0, 0, 0,0.0,0.0,0.0,0.0,0.0,0.0,0.0,0.0,0.0,0.0,0.0,0.0,0.0,21,rave-providers\rave-opensocial-provider\rave-opensocial-client\src\main\java\org\apache\rave\provider\opensocial\Constants.java,0,0,0,0
org.apache.rave.provider.opensocial.config.OpenSocialEnvironment, 0, 0, 0, 0, 0, 0, 0, 0, 0, 0, 0, 0, 0, 0,0.0,0.0,0.0,0.0,0.0,0.0,0.0,0.0,0.0,0.0,0.0,0.0,0.0,81,rave-providers\rave-opensocial-provider\rave-opensocial-client\src\main\java\org\apache\rave\provider\opensocial\config\OpenSocialEnvironment.java,0,0,1,2
org.apache.rave.provider.opensocial.exception.SecurityTokenException, 0, 0, 0, 0, 0, 0, 0, 0, 0, 0, 0, 0, 0, 0,0.0,0.0,0.0,0.0,0.0,0.0,0.0,0.0,0.0,0.0,0.0,0.0,0.0,13,rave-providers\rave-opensocial-provider\rave-opensocial-client\src\main\java\org\apache\rave\provider\opensocial\exception\SecurityTokenException.java,0,0,0,0
org.apache.rave.provider.opensocial.repository.GadgetMetadataRepository, 0, 0, 0, 0, 0, 0, 0, 0, 0, 0, 0, 0, 0, 0,0.0,0.0,0.0,0.0,0.0,0.0,0.0,0.0,0.0,0.0,0.0,0.0,0.0,13,rave-providers\rave-opensocial-provider\rave-opensocial-client\src\main\java\org\apache\rave\provider\opensocial\repository\GadgetMetadataRepository.java,0,0,0,0
org.apache.rave.provider.opensocial.repository.ShindigGadgetMetadataRepositoryTest, 0, 0, 0, 0, 0, 0, 0, 0, 0, 0, 0, 0, 0, 0,0.0,0.0,0.0,0.0,0.0,0.0,0.0,0.0,0.0,0.0,0.0,0.0,0.0,63,rave-providers\rave-opensocial-provider\rave-opensocial-client\src\test\java\org\apache\rave\provider\opensocial\repository\ShindigGadgetMetadataRepositoryTest.java,0,0,0,0
org.apache.rave.provider.opensocial.repository.impl.ShindigGadgetMetadataRepository, 0, 0, 0, 0, 0, 0, 0, 0, 0, 0, 0, 0, 0, 0,0.0,0.0,0.0,0.0,0.0,0.0,0.0,0.0,0.0,0.0,0.0,0.0,0.0,73,rave-providers\rave-opensocial-provider\rave-opensocial-client\src\main\java\org\apache\rave\provider\opensocial\repository\impl\ShindigGadgetMetadataRepository.java,0,0,0,0
org.apache.rave.provider.opensocial.service.OpenSocialService, 0, 0, 0, 0, 0, 0, 0, 0, 0, 0, 0, 0, 0, 0,0.0,0.0,0.0,0.0,0.0,0.0,0.0,0.0,0.0,0.0,0.0,0.0,0.0,73,rave-providers\rave-opensocial-provider\rave-opensocial-client\src\main\java\org\apache\rave\provider\opensocial\service\OpenSocialService.java,0,0,0,0
org.apache.rave.provider.opensocial.service.OpenSocialServiceTest, 0, 0, 0, 0, 0, 0, 0, 0, 0, 0, 0, 0, 0, 0,0.0,0.0,0.0,0.3333333333333333,0.0,0.0,0.0,0.0,0.0,0.0,0.0,0.0,0.0,54,rave-providers\rave-opensocial-provider\rave-opensocial-client\src\test\java\org\apache\rave\provider\opensocial\service\OpenSocialServiceTest.java,0,0,0,0
org.apache.rave.provider.opensocial.service.OpenSocialWidgetMetadataResolverTest, 0, 0, 0, 0, 0, 0, 0, 0, 0, 0, 0, 0, 0, 0,0.0,0.0,0.0,0.0,0.0,0.0,0.0,0.0,0.0,0.0,0.0,0.0,0.0,31,rave-providers\rave-opensocial-provider\rave-opensocial-client\src\test\java\org\apache\rave\provider\opensocial\service\OpenSocialWidgetMetadataResolverTest.java,0,0,0,0
org.apache.rave.provider.opensocial.service.SecurityTokenService, 0, 0, 0, 0, 0, 0, 0, 0, 0, 0, 0, 0, 0, 0,0.0,0.0,0.0,0.0,0.0,0.0,0.0,0.0,0.0,0.0,0.0,0.0,0.0,31,rave-providers\rave-opensocial-provider\rave-opensocial-client\src\main\java\org\apache\rave\provider\opensocial\service\SecurityTokenService.java,0,0,0,0
org.apache.rave.provider.opensocial.service.SecurityTokenServiceTest, 0, 0, 0, 0, 0, 0, 0, 0, 0, 0, 0, 0, 0, 0,0.0,0.0,0.0,0.6,0.0,0.0,0.0,0.0,0.0,0.0,0.0,0.0,0.0,101,rave-providers\rave-opensocial-provider\rave-opensocial-client\src\test\java\org\apache\rave\provider\opensocial\service\SecurityTokenServiceTest.java,0,0,0,0
org.apache.rave.provider.opensocial.service.impl.DefaultOpenSocialService, 0, 0, 0, 0, 0, 0, 0, 0, 0, 0, 0, 0, 0, 0,0.0,0.0,0.0,0.25,0.0,0.0,0.0,0.0,0.0,0.0,0.0,0.0,0.0,36,rave-providers\rave-opensocial-provider\rave-opensocial-client\src\main\java\org\apache\rave\provider\opensocial\service\impl\DefaultOpenSocialService.java,0,0,5,10
org.apache.rave.provider.opensocial.service.impl.OpenSocialWidgetMetadataResolver, 0, 0, 0, 0, 0, 0, 0, 0, 0, 0, 0, 0, 0, 0,0.0,0.0,0.0,0.5,0.0,0.0,0.0,0.0,0.0,0.0,0.0,0.0,0.0,69,rave-providers\rave-opensocial-provider\rave-opensocial-client\src\main\java\org\apache\rave\provider\opensocial\service\impl\OpenSocialWidgetMetadataResolver.java,0,0,0,0
org.apache.rave.provider.opensocial.web.model.OpenSocialRegionWidget, 0, 0, 0, 0, 0, 0, 0, 0, 0, 0, 0, 0, 0, 0,0.0,0.0,0.0,0.0,0.0,0.0,0.0,0.0,0.0,0.0,0.0,0.0,0.0,36,rave-providers\rave-opensocial-provider\rave-opensocial-client\src\main\java\org\apache\rave\provider\opensocial\web\model\OpenSocialRegionWidget.java,0,9,5,19
org.apache.rave.provider.opensocial.web.renderer.OpenSocialRegionWidgetRenderer, 0, 0, 0, 0, 0, 0, 0, 0, 0, 0, 0, 0, 0, 0,0.0,0.0,0.0,0.0,0.0,0.0,0.0,0.0,0.0,0.0,0.0,0.0,0.0,25,rave-providers\rave-opensocial-provider\rave-opensocial-client\src\main\java\org\apache\rave\provider\opensocial\web\renderer\OpenSocialRegionWidgetRenderer.java,0,0,0,0
org.apache.rave.provider.opensocial.web.renderer.OpenSocialWidgetRendererTest, 0, 0, 0, 0, 0, 0, 0, 0, 0, 0, 0, 0, 0, 0,0.0,0.0,0.0,0.2857142857142857,0.0,0.0,0.0,0.0,0.0,0.0,0.0,0.0,0.0,126,rave-providers\rave-opensocial-provider\rave-opensocial-client\src\test\java\org\apache\rave\provider\opensocial\web\renderer\OpenSocialWidgetRendererTest.java,0,11,6,23
org.apache.rave.provider.opensocial.web.renderer.OpenSocialWidgetWrapperRenderer, 0, 0, 0, 0, 0, 0, 0, 0, 0, 0, 0, 0, 0, 0,0.0,0.0,0.0,0.0,0.0,0.0,0.0,0.0,0.0,0.0,0.0,0.0,0.0,91,rave-providers\rave-opensocial-provider\rave-opensocial-client\src\main\java\org\apache\rave\provider\opensocial\web\renderer\OpenSocialWidgetWrapperRenderer.java,0,3,5,13
org.apache.rave.provider.w3c.Constants, 0, 0, 0, 0, 0, 0, 0, 0, 0, 0, 0, 0, 0, 0,0.0,0.0,0.0,0.0,0.0,0.0,0.0,0.0,0.0,0.0,0.0,0.0,0.0,4,rave-providers\rave-w3c-provider\src\main\java\org\apache\rave\provider\w3c\Constants.java,0,0,0,0
org.apache.rave.provider.w3c.repository.W3CWidgetMetadataRepository, 0, 0, 0, 0, 0, 0, 0, 0, 0, 0, 0, 0, 0, 0,0.0,0.0,0.0,0.0,0.0,0.0,0.0,0.0,0.0,0.0,0.0,0.0,0.0,4,rave-providers\rave-w3c-provider\src\main\java\org\apache\rave\provider\w3c\repository\W3CWidgetMetadataRepository.java,0,0,0,0
org.apache.rave.provider.w3c.repository.impl.WookieWidgetMetadataRepository, 0, 0, 0, 0, 0, 0, 0, 0, 0, 0, 0, 0, 0, 0,0.0,0.0,0.0,0.0,0.0,0.0,0.0,0.0,0.0,0.0,0.0,0.0,0.0,28,rave-providers\rave-w3c-provider\src\main\java\org\apache\rave\provider\w3c\repository\impl\WookieWidgetMetadataRepository.java,0,0,0,0
org.apache.rave.provider.w3c.service.impl.W3CWidget, 0, 0, 0, 0, 0, 0, 0, 0, 0, 0, 0, 0, 0, 0,0.0,0.0,0.0,0.3333333333333333,0.0,0.0,0.0,0.0,0.0,0.0,0.0,0.0,0.0,21,rave-providers\rave-w3c-provider\src\main\java\org\apache\rave\provider\w3c\service\impl\W3CWidget.java,0,0,0,0
org.apache.rave.provider.w3c.service.impl.WookieWidgetMetadataResolver, 0, 0, 0, 0, 0, 0, 0, 0, 0, 0, 0, 0, 0, 0,0.0,0.0,0.0,0.0,0.0,0.0,0.0,0.0,0.0,0.0,0.0,0.0,0.0,30,rave-providers\rave-w3c-provider\src\main\java\org\apache\rave\provider\w3c\service\impl\WookieWidgetMetadataResolver.java,0,0,0,0
org.apache.rave.provider.w3c.service.impl.WookieWidgetMetadataResolverTest, 0, 0, 0, 0, 0, 0, 0, 0, 0, 0, 0, 0, 0, 0,0.0,0.0,0.0,0.5,0.0,0.0,0.0,0.0,0.0,0.0,0.0,0.0,0.0,63,rave-providers\rave-w3c-provider\src\test\java\org\apache\rave\provider\w3c\service\impl\WookieWidgetMetadataResolverTest.java,0,0,0,0
org.apache.rave.provider.w3c.service.impl.WookieWidgetServiceTest, 0, 0, 0, 0, 0, 1, 0, 0, 0, 0, 0, 0, 0, 1,0.0,0.0,0.0,0.0,0.0,0.0,0.0,0.0,0.0,0.0,0.0,0.0,0.0,2,rave-providers\rave-w3c-provider\src\test\java\org\apache\rave\provider\w3c\service\impl\WookieWidgetServiceTest.java,0,0,0,0
org.apache.rave.provider.w3c.web.renderer.W3cWidgetRendererTest, 0, 0, 0, 0, 0, 0, 0, 0, 0, 0, 0, 0, 0, 0,0.0,0.0,0.0,0.375,0.0,0.0,0.0,0.0,0.0,0.0,0.0,0.0,0.0,66,rave-providers\rave-w3c-provider\src\test\java\org\apache\rave\provider\w3c\web\renderer\W3cWidgetRendererTest.java,0,0,1,2
org.apache.rave.provider.w3c.web.renderer.W3cWidgetWrapperRenderer, 0, 0, 0, 0, 0, 0, 0, 0, 0, 0, 0, 0, 0, 0,0.0,0.0,0.0,0.2,0.0,0.0,0.0,0.0,0.0,0.0,0.0,0.0,0.0,95,rave-providers\rave-w3c-provider\src\main\java\org\apache\rave\provider\w3c\web\renderer\W3cWidgetWrapperRenderer.java,0,3,4,11
org.apache.rave.repository.GroupRepository, 0, 0, 0, 0, 0, 0, 0, 0, 0, 0, 0, 0, 0, 0,0.0,0.0,0.0,0.0,0.0,0.0,0.0,0.0,0.0,0.0,0.0,0.0,0.0,95,rave-components\rave-core-api\src\main\java\org\apache\rave\repository\GroupRepository.java,1,0,0,1
org.apache.rave.repository.Repository, 0, 0, 0, 0, 0, 0, 0, 0, 0, 0, 0, 0, 0, 0,0.0,0.0,0.0,0.0,0.0,0.0,0.0,0.0,0.0,0.0,0.0,0.0,0.0,95,rave-components\rave-core-api\src\main\java\org\apache\rave\repository\Repository.java,0,4,0,4
org.apache.rave.rest.CategoriesResource, 0, 0, 0, 0, 0, 0, 0, 0, 0, 0, 0, 0, 0, 0,0.0,0.0,0.0,0.0,0.0,0.0,0.0,0.0,0.0,0.0,0.0,0.0,0.0,95,rave-components\rave-core-api\src\main\java\org\apache\rave\rest\CategoriesResource.java,0,1,10,21
org.apache.rave.rest.PagesResource, 0, 0, 0, 0, 0, 0, 0, 0, 0, 0, 0, 0, 0, 0,0.0,0.0,0.0,0.0,0.0,0.0,0.0,0.0,0.0,0.0,0.0,0.0,0.0,95,rave-components\rave-core-api\src\main\java\org\apache\rave\rest\PagesResource.java,70,0,28,126
org.apache.rave.rest.PeopleResource, 0, 0, 0, 0, 0, 0, 0, 0, 0, 0, 0, 0, 0, 0,0.0,0.0,0.0,0.0,0.0,0.0,0.0,0.0,0.0,0.0,0.0,0.0,0.0,95,rave-components\rave-core-api\src\main\java\org\apache\rave\rest\PeopleResource.java,0,2,2,6
org.apache.rave.rest.UsersResource, 0, 0, 0, 0, 0, 0, 0, 0, 0, 0, 0, 0, 0, 0,0.0,0.0,0.0,0.0,0.0,0.0,0.0,0.0,0.0,0.0,0.0,0.0,0.0,95,rave-components\rave-core-api\src\main\java\org\apache\rave\rest\UsersResource.java,0,0,0,0
org.apache.rave.rest.impl.DefaultCategoriesResource, 0, 0, 0, 0, 0, 0, 0, 0, 0, 0, 0, 0, 0, 0,0.0,0.0,0.0,0.0,0.0,0.0,0.0,0.0,0.0,0.0,0.0,0.0,0.0,40,rave-components\rave-core\src\main\java\org\apache\rave\rest\impl\DefaultCategoriesResource.java,5,5,14,38
org.apache.rave.rest.impl.DefaultPageResource, 0, 0, 0, 0, 0, 0, 0, 0, 0, 0, 0, 0, 0, 0,0.0,0.0,0.0,0.0,0.0,0.0,0.0,0.0,0.0,0.0,0.0,0.0,0.0,122,rave-components\rave-core\src\main\java\org\apache\rave\rest\impl\DefaultPageResource.java,34,30,49,162
org.apache.rave.rest.impl.DefaultPeopleResource, 0, 0, 0, 0, 0, 0, 0, 0, 0, 0, 0, 0, 0, 0,0.0,0.0,0.0,0.0,0.0,0.0,0.0,0.0,0.0,0.0,0.0,0.0,0.0,47,rave-components\rave-core\src\main\java\org\apache\rave\rest\impl\DefaultPeopleResource.java,1,13,6,26
org.apache.rave.rest.impl.DefaultUsersResource, 0, 0, 0, 0, 0, 0, 0, 0, 0, 0, 0, 0, 0, 0,0.0,0.0,0.0,0.0,0.0,0.0,0.0,0.0,0.0,0.0,0.0,0.0,0.0,31,rave-components\rave-core\src\main\java\org\apache\rave\rest\impl\DefaultUsersResource.java,2,3,2,9
org.apache.rave.rest.model.Category, 0, 0, 0, 0, 0, 0, 0, 0, 0, 0, 0, 0, 0, 0,0.0,0.0,0.0,0.0,0.0,0.0,0.0,0.0,0.0,0.0,0.0,0.0,0.0,29,rave-components\rave-core-api\src\main\java\org\apache\rave\rest\model\Category.java,0,0,1,2
org.apache.rave.rest.model.CategoryList, 0, 0, 0, 0, 0, 0, 0, 0, 0, 0, 0, 0, 0, 0,0.0,0.0,0.0,0.0,0.0,0.0,0.0,0.0,0.0,0.0,0.0,0.0,0.0,10,rave-components\rave-core-api\src\main\java\org\apache\rave\rest\model\CategoryList.java,19,0,0,19
org.apache.rave.rest.model.ModelTest, 0, 0, 0, 0, 0, 0, 0, 0, 0, 0, 0, 0, 0, 0,0.0,0.0,0.0,0.0,0.0,0.0,0.0,0.0,0.0,0.0,0.0,0.0,0.0,9,rave-components\rave-core-api\src\test\java\org.apache.rave.rest.model\ModelTest.java,0,0,0,0
org.apache.rave.rest.model.Page, 0, 0, 0, 0, 0, 0, 0, 0, 0, 0, 0, 0, 0, 0,0.0,0.0,0.0,0.0,0.0,0.0,0.0,0.0,0.0,0.0,0.0,0.0,0.0,113,rave-components\rave-core-api\src\main\java\org\apache\rave\rest\model\Page.java,0,10,1,12
org.apache.rave.rest.model.PageList, 0, 0, 0, 0, 0, 0, 0, 0, 0, 0, 0, 0, 0, 0,0.0,0.0,0.0,0.0,0.0,0.0,0.0,0.0,0.0,0.0,0.0,0.0,0.0,15,rave-components\rave-core-api\src\main\java\org\apache\rave\rest\model\PageList.java,24,0,0,24
org.apache.rave.rest.model.PageUser, 0, 0, 0, 0, 0, 0, 0, 0, 0, 0, 0, 0, 0, 0,0.0,0.0,0.0,0.0,0.0,0.0,0.0,0.0,0.0,0.0,0.0,0.0,0.0,32,rave-components\rave-core-api\src\main\java\org\apache\rave\rest\model\PageUser.java,0,0,0,0
org.apache.rave.rest.model.Person, 0, 0, 0, 0, 0, 0, 0, 0, 0, 0, 0, 0, 0, 0,0.0,0.0,0.0,0.0,0.0,0.0,0.0,0.0,0.0,0.0,0.0,0.0,0.0,50,rave-components\rave-core-api\src\main\java\org\apache\rave\rest\model\Person.java,0,0,1,2
org.apache.rave.rest.model.PersonList, 0, 0, 0, 0, 0, 0, 0, 0, 0, 0, 0, 0, 0, 0,0.0,0.0,0.0,0.0,0.0,0.0,0.0,0.0,0.0,0.0,0.0,0.0,0.0,10,rave-components\rave-core-api\src\main\java\org\apache\rave\rest\model\PersonList.java,19,0,0,19
org.apache.rave.rest.model.Region, 0, 0, 0, 0, 0, 0, 0, 0, 0, 0, 0, 0, 0, 0,0.0,0.0,0.0,0.0,0.0,0.0,0.0,0.0,0.0,0.0,0.0,0.0,0.0,35,rave-components\rave-core-api\src\main\java\org\apache\rave\rest\model\Region.java,0,8,1,10
org.apache.rave.rest.model.User, 0, 0, 0, 0, 0, 0, 0, 0, 0, 0, 0, 0, 0, 0,0.0,0.0,0.0,0.0,0.0,0.0,0.0,0.0,0.0,0.0,0.0,0.0,0.0,49,rave-components\rave-core-api\src\main\java\org\apache\rave\rest\model\User.java,0,0,1,2
org.apache.rave.service.GroupService, 0, 0, 0, 0, 0, 0, 0, 0, 0, 0, 0, 0, 0, 0,0.0,0.0,0.0,0.0,0.0,0.0,0.0,0.0,0.0,0.0,0.0,0.0,0.0,49,rave-components\rave-core-api\src\main\java\org\apache\rave\service\GroupService.java,0,0,0,0
org.apache.rave.service.LockService, 0, 0, 0, 0, 0, 0, 0, 0, 0, 0, 0, 0, 0, 0,0.0,0.0,0.0,0.0,0.0,0.0,0.0,0.0,0.0,0.0,0.0,0.0,0.0,49,rave-components\rave-commons\src\main\java\org\apache\rave\service\LockService.java,0,0,0,0
org.apache.rave.service.StaticContentFetcherConsumer, 0, 0, 0, 0, 0, 0, 0, 0, 0, 0, 0, 0, 0, 0,0.0,0.0,0.0,0.0,0.0,0.0,0.0,0.0,0.0,0.0,0.0,0.0,0.0,49,rave-components\rave-commons\src\main\java\org\apache\rave\service\StaticContentFetcherConsumer.java,0,0,0,0
org.apache.rave.service.StaticContentFetcherService, 0, 0, 0, 0, 0, 0, 0, 0, 0, 0, 0, 0, 0, 0,0.0,0.0,0.0,0.0,0.0,0.0,0.0,0.0,0.0,0.0,0.0,0.0,0.0,49,rave-components\rave-commons\src\main\java\org\apache\rave\service\StaticContentFetcherService.java,0,0,0,0
org.apache.rave.service.impl.DefaultLockServiceTest, 0, 0, 0, 0, 0, 0, 0, 0, 0, 0, 0, 0, 0, 0,0.0,0.0,0.0,0.0,0.0,0.0,0.0,0.0,0.0,0.0,0.0,0.0,0.0,96,rave-components\rave-commons\src\test\java\org\apache\rave\service\impl\DefaultLockServiceTest.java,0,0,0,0
org.apache.rave.synchronization.SynchronizingAspectTest, 0, 0, 0, 0, 0, 0, 0, 1, 0, 0, 0, 0, 0, 1,0.0,0.0,0.0,0.0,0.0,0.0,0.0,0.0,0.0,0.0,0.0,0.0,0.0,146,rave-components\rave-commons\src\test\java\org\apache\rave\synchronization\SynchronizingAspectTest.java,0,0,0,0
org.apache.rave.util.JsonUtils, 0, 0, 0, 0, 0, 0, 0, 0, 0, 0, 0, 0, 0, 0,0.0,0.0,0.0,0.0,0.0,0.0,0.0,0.0,0.0,0.0,0.0,0.0,0.0,32,rave-components\rave-commons\src\main\java\org\apache\rave\util\JsonUtils.java,0,0,0,0
org.apache.rave.util.OverridablePropertyPlaceholderConfigurerTest, 0, 0, 0, 0, 0, 0, 0, 0, 0, 0, 0, 0, 0, 0,0.0,0.0,0.0,0.0,0.0,0.0,0.0,0.0,0.0,0.0,0.0,0.0,0.0,15,rave-components\rave-commons\src\test\java\org\apache\rave\util\OverridablePropertyPlaceholderConfigurerTest.java,0,0,0,0
,0.0,0.0,0.0,0.0,0.0,0.0,0.0,0.0,0.0,0.0,0.0,0.0,0.0,15,rave-components\rave-commons\src\main\java\org\apache\rave\exception\DataSerializationException.java,0,0,0,0
