ClassName,AntiSingleton,Blob,ClassDataShouldBePrivate,ComplexClass,LargeClass,LazyClass,LongMethod,LongParameterList,MessageChains,RefusedParentBequest,SpaghettiCode,SpeculativeGenerality,SwissArmyKnife,NumOfAPs,AntiSingleton,Blob,ClassDataShouldBePrivate,ComplexClass,LargeClass,LazyClass,LongMethod,LongParameterList,MessageChains,RefusedParentBequest,SpaghettiCode,SpeculativeGenerality,SwissArmyKnife,LOC,name,deleted,added,changed,all
org.apache.http.ByteChannelMock, 0, 0, 0, 0, 0, 0, 0, 0, 0, 0, 0, 0, 0, 0,0.0,0.0,0.0,0.0,0.0,0.0,0.0,0.0,0.0,0.0,0.0,0.0,0.0,33,httpcore-nio\src\test\java\org\apache\http\ByteChannelMock.java,0,0,0,0
org.apache.http.ConnectionClosedException, 0, 0, 0, 0, 0, 0, 0, 0, 0, 0, 0, 0, 0, 0,0.0,0.0,0.0,0.1,0.0,0.0,0.0,0.2,0.0,0.0,0.0,0.0,0.0,6,httpcore\src\main\java\org\apache\http\ConnectionClosedException.java,0,0,0,0
org.apache.http.ConnectionReuseStrategy, 0, 0, 0, 0, 0, 0, 0, 0, 0, 0, 0, 0, 0, 0,0.0,0.0,0.0,0.0,0.0,0.0,0.0,0.0,0.0,0.0,0.0,0.0,0.0,6,httpcore\src\main\java\org\apache\http\ConnectionReuseStrategy.java,0,0,0,0
org.apache.http.Consts, 0, 0, 0, 0, 0, 0, 0, 0, 0, 0, 0, 0, 0, 0,0.0,0.0,0.0,0.0,0.0,0.0,0.0,0.0,0.0,0.0,0.0,0.0,0.0,11,httpcore\src\main\java\org\apache\http\Consts.java,0,0,0,0
org.apache.http.ContentTooLongException, 0, 0, 0, 0, 0, 0, 0, 0, 0, 0, 0, 0, 0, 0,0.0,0.0,0.0,0.0,0.0,0.0,0.0,0.0,0.0,0.0,0.0,0.0,0.0,6,httpcore\src\main\java\org\apache\http\ContentTooLongException.java,0,0,0,0
org.apache.http.ExceptionLogger, 0, 0, 0, 0, 0, 0, 0, 0, 0, 0, 0, 0, 0, 0,0.0,0.0,0.0,0.0,0.0,0.0,0.0,0.0,0.0,0.0,0.0,0.0,0.0,6,httpcore\src\main\java\org\apache\http\ExceptionLogger.java,0,0,0,0
org.apache.http.FormattedHeader, 0, 0, 0, 0, 0, 0, 0, 0, 0, 0, 0, 0, 0, 0,0.0,0.0,0.0,0.0,0.0,0.0,0.0,0.0,0.0,0.0,0.0,0.0,0.0,6,httpcore\src\main\java\org\apache\http\FormattedHeader.java,0,0,0,0
org.apache.http.Header, 0, 0, 0, 0, 0, 0, 0, 0, 0, 0, 0, 0, 0, 0,0.0,0.0,0.0,0.0,0.0,0.0,0.0,0.0,0.0,0.0,0.0,0.0,0.0,6,httpcore\src\main\java\org\apache\http\Header.java,0,0,0,0
org.apache.http.HeaderElement, 0, 0, 0, 0, 0, 0, 0, 0, 0, 0, 0, 0, 0, 0,0.0,0.0,0.0,0.0,0.0,0.0,0.0,0.0,0.0,0.0,0.0,0.0,0.0,6,httpcore\src\main\java\org\apache\http\HeaderElement.java,0,0,0,0
org.apache.http.HttpClientConnection, 0, 0, 0, 0, 0, 0, 0, 0, 0, 0, 0, 0, 0, 0,0.0,0.0,0.0,0.0,0.0,0.0,0.0,0.0,0.0,0.0,0.0,0.0,0.0,6,httpcore\src\main\java\org\apache\http\HttpClientConnection.java,0,0,0,0
org.apache.http.HttpConnection, 0, 0, 0, 0, 0, 0, 0, 0, 0, 0, 0, 0, 0, 0,0.0,0.0,0.0,0.0,0.0,0.0,0.0,0.0,0.0,0.0,0.0,0.0,0.0,6,httpcore\src\main\java\org\apache\http\HttpConnection.java,0,0,0,0
org.apache.http.HttpConnectionFactory, 0, 0, 0, 0, 0, 0, 0, 0, 0, 0, 0, 0, 0, 0,0.0,0.0,0.0,0.0,0.0,0.0,0.0,0.0,0.0,0.0,0.0,0.0,0.0,6,httpcore\src\main\java\org\apache\http\HttpConnectionFactory.java,0,0,0,0
org.apache.http.HttpConnectionMetrics, 0, 0, 0, 0, 0, 0, 0, 0, 0, 0, 0, 0, 0, 0,0.0,0.0,0.0,0.0,0.0,0.0,0.0,0.0,0.0,0.0,0.0,0.0,0.0,6,httpcore\src\main\java\org\apache\http\HttpConnectionMetrics.java,0,0,0,0
org.apache.http.HttpEntity, 0, 0, 0, 0, 0, 0, 0, 0, 0, 0, 0, 0, 0, 0,0.0,0.0,0.0,0.0,0.0,0.0,0.0,0.0,0.0,0.0,0.0,0.0,0.0,6,httpcore\src\main\java\org\apache\http\HttpEntity.java,0,0,1,2
org.apache.http.HttpEntityEnclosingRequest, 0, 0, 0, 0, 0, 0, 0, 0, 0, 0, 0, 0, 0, 0,0.0,0.0,0.0,0.0,0.0,0.0,0.0,0.0,0.0,0.0,0.0,0.0,0.0,6,httpcore\src\main\java\org\apache\http\HttpEntityEnclosingRequest.java,0,0,0,0
org.apache.http.HttpException, 0, 0, 0, 0, 0, 0, 0, 0, 0, 0, 0, 0, 0, 0,0.0,0.0,0.0,0.10526315789473684,0.0,0.0,0.0,0.10526315789473684,0.0,0.0,0.0,0.0,0.0,13,httpcore\src\main\java\org\apache\http\HttpException.java,0,0,0,0
org.apache.http.HttpHeaders, 0, 0, 0, 1, 0, 0, 0, 0, 0, 0, 0, 0, 0, 1,0.0,0.0,0.0,0.0,0.0,0.0,0.0,0.0,0.0,0.0,0.0,0.0,0.0,59,httpcore\src\main\java\org\apache\http\HttpHeaders.java,0,0,0,0
org.apache.http.HttpInetConnection, 0, 0, 0, 0, 0, 0, 0, 0, 0, 0, 0, 0, 0, 0,0.0,0.0,0.0,0.0,0.0,0.0,0.0,0.0,0.0,0.0,0.0,0.0,0.0,59,httpcore\src\main\java\org\apache\http\HttpInetConnection.java,0,0,0,0
org.apache.http.HttpMessage, 0, 0, 0, 0, 0, 0, 0, 0, 0, 0, 0, 0, 0, 0,0.0,0.0,0.0,0.0,0.0,0.0,0.0,0.0,0.0,0.0,0.0,0.0,0.0,59,httpcore\src\main\java\org\apache\http\HttpMessage.java,0,0,0,0
org.apache.http.HttpRequest, 0, 0, 0, 0, 0, 0, 0, 0, 0, 0, 0, 0, 0, 0,0.0,0.0,0.0,0.0,0.0,0.0,0.0,0.0,0.0,0.0,0.0,0.0,0.0,59,httpcore\src\main\java\org\apache\http\HttpRequest.java,0,0,0,0
org.apache.http.HttpRequestFactory, 0, 0, 0, 0, 0, 0, 0, 0, 0, 0, 0, 0, 0, 0,0.0,0.0,0.0,0.0,0.0,0.0,0.0,0.0,0.0,0.0,0.0,0.0,0.0,59,httpcore\src\main\java\org\apache\http\HttpRequestFactory.java,0,0,0,0
org.apache.http.HttpRequestInterceptor, 0, 0, 0, 0, 0, 0, 0, 0, 0, 0, 0, 0, 0, 0,0.0,0.0,0.0,0.0,0.0,0.0,0.0,0.0,0.0,0.0,0.0,0.0,0.0,59,httpcore\src\main\java\org\apache\http\HttpRequestInterceptor.java,0,0,0,0
org.apache.http.HttpResponse, 0, 0, 0, 0, 0, 0, 0, 0, 0, 0, 0, 0, 0, 0,0.0,0.0,0.0,0.0,0.0,0.0,0.0,0.0,0.0,0.0,0.0,0.0,0.0,59,httpcore\src\main\java\org\apache\http\HttpResponse.java,0,0,0,0
org.apache.http.HttpResponseFactory, 0, 0, 0, 0, 0, 0, 0, 0, 0, 0, 0, 0, 0, 0,0.0,0.0,0.0,0.0,0.0,0.0,0.0,0.0,0.0,0.0,0.0,0.0,0.0,59,httpcore\src\main\java\org\apache\http\HttpResponseFactory.java,0,0,0,0
org.apache.http.HttpResponseInterceptor, 0, 0, 0, 0, 0, 0, 0, 0, 0, 0, 0, 0, 0, 0,0.0,0.0,0.0,0.0,0.0,0.0,0.0,0.0,0.0,0.0,0.0,0.0,0.0,59,httpcore\src\main\java\org\apache\http\HttpResponseInterceptor.java,0,0,0,0
org.apache.http.HttpServerConnection, 0, 0, 0, 0, 0, 0, 0, 0, 0, 0, 0, 0, 0, 0,0.0,0.0,0.0,0.0,0.0,0.0,0.0,0.0,0.0,0.0,0.0,0.0,0.0,59,httpcore\src\main\java\org\apache\http\HttpServerConnection.java,0,0,0,0
org.apache.http.HttpStatus, 0, 0, 0, 0, 0, 0, 0, 0, 0, 0, 0, 0, 0, 0,0.0,0.0,0.0,0.0,0.0,0.0,0.0,0.0,0.0,0.0,0.0,0.0,0.0,59,httpcore\src\main\java\org\apache\http\HttpStatus.java,0,0,0,0
org.apache.http.HttpVersion, 0, 0, 0, 0, 0, 0, 0, 0, 0, 0, 0, 0, 0, 0,0.0,0.0,0.0,0.25,0.0,0.0,0.0,0.0,0.0,0.0,0.0,0.0,0.0,29,httpcore\src\main\java\org\apache\http\HttpVersion.java,0,0,0,0
org.apache.http.MalformedChunkCodingException, 0, 0, 0, 0, 0, 0, 0, 0, 0, 0, 0, 0, 0, 0,0.0,0.0,0.0,0.0,0.0,0.0,0.0,0.0,0.0,0.0,0.0,0.0,0.0,9,httpcore\src\main\java\org\apache\http\MalformedChunkCodingException.java,0,0,0,0
org.apache.http.MessageConstraintException, 0, 0, 0, 0, 0, 0, 0, 0, 0, 0, 0, 0, 0, 0,0.0,0.0,0.0,0.0,0.0,0.0,0.0,0.0,0.0,0.0,0.0,0.0,0.0,12,httpcore\src\main\java\org\apache\http\MessageConstraintException.java,0,0,0,0
org.apache.http.MethodNotSupportedException, 0, 0, 0, 0, 0, 0, 0, 0, 0, 0, 0, 0, 0, 0,0.0,0.0,0.0,0.0,0.0,0.0,0.0,0.0,0.0,0.0,0.0,0.0,0.0,9,httpcore\src\main\java\org\apache\http\MethodNotSupportedException.java,0,0,0,0
org.apache.http.NameValuePair, 0, 0, 0, 0, 0, 0, 0, 0, 0, 0, 0, 0, 0, 0,0.0,0.0,0.0,0.0,0.0,0.0,0.0,0.0,0.0,0.0,0.0,0.0,0.0,9,httpcore\src\main\java\org\apache\http\NameValuePair.java,0,0,0,0
org.apache.http.NoHttpResponseException, 0, 0, 0, 0, 0, 0, 0, 0, 0, 0, 0, 0, 0, 0,0.0,0.0,0.0,0.0,0.0,0.0,0.0,0.0,0.0,0.0,0.0,0.0,0.0,6,httpcore\src\main\java\org\apache\http\NoHttpResponseException.java,0,0,0,0
org.apache.http.OoopsieRuntimeException, 0, 0, 0, 0, 0, 0, 0, 0, 0, 0, 0, 0, 0, 0,0.0,0.0,0.0,0.0,0.0,0.0,0.0,0.0,0.0,0.0,0.0,0.0,0.0,6,httpcore-nio\src\test\java\org\apache\http\OoopsieRuntimeException.java,0,0,0,0
org.apache.http.ParseException, 0, 0, 0, 0, 0, 0, 0, 0, 0, 0, 0, 0, 0, 0,0.0,0.0,0.0,0.0,0.0,0.0,0.0,0.0,0.0,0.0,0.0,0.0,0.0,9,httpcore\src\main\java\org\apache\http\ParseException.java,0,0,0,0
org.apache.http.ProtocolException, 0, 0, 0, 0, 0, 0, 0, 0, 0, 0, 0, 0, 0, 0,0.0,0.0,0.0,0.0625,0.0,0.0,0.0,0.0,0.0,0.0,0.0,0.0,0.0,12,httpcore\src\main\java\org\apache\http\ProtocolException.java,0,0,0,0
org.apache.http.ReadableByteChannelMock, 0, 0, 0, 0, 0, 0, 0, 0, 0, 0, 0, 0, 0, 0,0.0,0.0,0.0,0.0,0.0,0.0,0.0,0.0,0.0,0.0,0.0,0.0,0.0,48,httpcore-nio\src\test\java\org\apache\http\ReadableByteChannelMock.java,0,0,0,0
org.apache.http.ReasonPhraseCatalog, 0, 0, 0, 0, 0, 0, 0, 0, 0, 0, 0, 0, 0, 0,0.0,0.0,0.0,0.0,0.0,0.0,0.0,0.0,0.0,0.0,0.0,0.0,0.0,48,httpcore\src\main\java\org\apache\http\ReasonPhraseCatalog.java,0,0,0,0
org.apache.http.RequestLine, 0, 0, 0, 0, 0, 0, 0, 0, 0, 0, 0, 0, 0, 0,0.0,0.0,0.0,0.0,0.0,0.0,0.0,0.0,0.0,0.0,0.0,0.0,0.0,48,httpcore\src\main\java\org\apache\http\RequestLine.java,0,0,0,0
org.apache.http.StatusLine, 0, 0, 0, 0, 0, 0, 0, 0, 0, 0, 0, 0, 0, 0,0.0,0.0,0.0,0.0,0.0,0.0,0.0,0.0,0.0,0.0,0.0,0.0,0.0,48,httpcore\src\main\java\org\apache\http\StatusLine.java,0,0,0,0
org.apache.http.TestHttpExceptions, 0, 0, 0, 0, 0, 0, 0, 0, 0, 0, 0, 0, 0, 0,0.0,0.0,0.0,0.0,0.0,0.0,0.0,0.0,0.0,0.0,0.0,0.0,0.0,18,httpcore\src\test\java\org\apache\http\TestHttpExceptions.java,0,0,0,0
org.apache.http.TestHttpHost, 0, 0, 0, 0, 0, 0, 0, 0, 0, 0, 0, 0, 0, 0,0.0,0.0,0.0,0.0,0.0,0.0,0.0,0.0,0.0,0.0,0.0,0.0,0.0,173,httpcore\src\test\java\org\apache\http\TestHttpHost.java,0,0,0,0
org.apache.http.TestHttpVersion, 0, 0, 0, 0, 0, 0, 0, 0, 0, 0, 0, 0, 0, 0,0.0,0.0,0.0,0.0,0.0,0.0,0.0,0.0,0.0,0.0,0.0,0.0,0.0,74,httpcore\src\test\java\org\apache\http\TestHttpVersion.java,0,0,0,0
org.apache.http.TruncatedChunkException, 0, 0, 0, 0, 0, 0, 0, 0, 0, 0, 0, 0, 0, 0,0.0,0.0,0.0,0.0,0.0,0.0,0.0,0.0,0.0,0.0,0.0,0.0,0.0,6,httpcore\src\main\java\org\apache\http\TruncatedChunkException.java,0,0,0,0
org.apache.http.UnsupportedHttpVersionException, 0, 0, 0, 0, 0, 0, 0, 0, 0, 0, 0, 0, 0, 0,0.0,0.0,0.0,0.0,0.0,0.0,0.0,0.0,0.0,0.0,0.0,0.0,0.0,9,httpcore\src\main\java\org\apache\http\UnsupportedHttpVersionException.java,0,0,0,0
org.apache.http.WritableByteChannelMock, 0, 0, 0, 0, 0, 0, 0, 0, 0, 0, 0, 0, 0, 0,0.0,0.0,0.0,0.0,0.0,0.0,0.0,0.0,0.0,0.0,0.0,0.0,0.0,99,httpcore-nio\src\test\java\org\apache\http\WritableByteChannelMock.java,0,0,0,0
org.apache.http.benchmark.BenchmarkConnection, 0, 0, 0, 0, 0, 0, 0, 0, 0, 0, 0, 0, 0, 0,0.0,0.0,0.0,0.2,0.0,0.0,0.0,0.2,0.0,0.0,0.0,0.0,0.0,15,httpcore-ab\src\main\java\org\apache\http\benchmark\BenchmarkConnection.java,0,0,0,0
org.apache.http.benchmark.BenchmarkWorker, 0, 0, 0, 0, 0, 0, 0, 0, 0, 0, 0, 0, 0, 0,0.06666666666666667,0.0,0.0,0.13333333333333333,0.0,0.0,0.0,0.06666666666666667,0.0,0.0,0.0,0.0,0.0,171,httpcore-ab\src\main\java\org\apache\http\benchmark\BenchmarkWorker.java,0,0,0,0
org.apache.http.benchmark.CommandLineUtils, 0, 0, 0, 0, 0, 0, 0, 0, 0, 0, 0, 0, 0, 0,0.0,0.0,0.0,0.5,0.0,0.0,0.0,0.0,0.0,0.0,0.0,0.0,0.0,159,httpcore-ab\src\main\java\org\apache\http\benchmark\CommandLineUtils.java,0,0,0,0
org.apache.http.benchmark.Config, 0, 0, 0, 1, 0, 0, 0, 0, 0, 0, 0, 0, 0, 1,0.0,0.0,0.0,0.0,0.0,0.0,0.0,0.0,0.0,0.0,0.0,0.0,0.0,198,httpcore-ab\src\main\java\org\apache\http\benchmark\Config.java,0,0,0,0
org.apache.http.benchmark.CountingInputStream, 0, 0, 0, 0, 0, 0, 0, 0, 0, 0, 0, 0, 0, 0,0.0,0.0,0.0,0.5,0.0,0.0,0.0,0.0,0.0,0.0,0.0,0.0,0.0,39,httpcore-ab\src\main\java\org\apache\http\benchmark\CountingInputStream.java,0,0,0,0
org.apache.http.benchmark.CountingOutputStream, 0, 0, 0, 0, 0, 0, 0, 0, 0, 0, 0, 0, 0, 0,0.0,0.0,0.0,0.5,0.0,0.0,0.0,0.0,0.0,0.0,0.0,0.0,0.0,22,httpcore-ab\src\main\java\org\apache\http\benchmark\CountingOutputStream.java,0,0,0,0
org.apache.http.benchmark.DefaultHeader, 0, 0, 0, 0, 0, 0, 0, 0, 0, 0, 0, 0, 0, 0,0.0,0.0,0.0,0.0,0.0,0.0,0.0,0.0,0.0,0.0,0.0,0.0,0.0,6,httpcore-ab\src\main\java\org\apache\http\benchmark\DefaultHeader.java,0,0,0,0
org.apache.http.benchmark.HttpBenchmark, 0, 0, 0, 0, 0, 0, 0, 0, 0, 0, 0, 0, 0, 0,0.1,0.0,0.0,0.1,0.0,0.0,0.0,0.0,0.0,0.0,0.0,0.0,0.0,143,httpcore-ab\src\main\java\org\apache\http\benchmark\HttpBenchmark.java,0,0,0,0
org.apache.http.benchmark.HttpServer, 0, 0, 0, 0, 0, 0, 0, 0, 0, 0, 0, 0, 0, 0,0.0,0.0,0.0,0.0,0.0,0.0,0.0,0.125,0.0,0.0,0.0,0.0,0.0,105,httpcore-ab\src\test\java\org\apache\http\benchmark\HttpServer.java,0,0,0,0
org.apache.http.benchmark.ResultProcessor, 1, 0, 0, 0, 0, 0, 0, 0, 0, 0, 0, 0, 0, 1,0.0,0.0,0.0,0.3333333333333333,0.0,0.0,0.0,0.0,0.0,0.0,0.0,0.0,0.0,81,httpcore-ab\src\main\java\org\apache\http\benchmark\ResultProcessor.java,0,0,0,0
org.apache.http.benchmark.SmokeTest, 0, 0, 0, 0, 0, 0, 0, 0, 0, 0, 0, 0, 0, 0,0.0,0.0,0.0,0.3333333333333333,0.0,0.0,0.0,0.0,0.0,0.0,0.0,0.0,0.0,42,httpcore-ab\src\test\java\org\apache\http\benchmark\SmokeTest.java,0,0,0,0
org.apache.http.benchmark.Stats, 0, 0, 0, 1, 0, 0, 0, 0, 0, 0, 0, 0, 0, 1,0.2,0.0,0.0,0.0,0.0,0.0,0.0,0.0,0.0,0.0,0.0,0.0,0.0,78,httpcore-ab\src\main\java\org\apache\http\benchmark\Stats.java,0,0,0,0
org.apache.http.concurrent.BasicFuture, 0, 0, 0, 0, 0, 0, 0, 0, 0, 0, 0, 0, 0, 0,0.0,0.0,0.0,0.2857142857142857,0.0,0.0,0.0,0.42857142857142855,0.0,0.0,0.0,0.0,0.0,104,httpcore\src\main\java\org\apache\http\concurrent\BasicFuture.java,0,0,0,0
org.apache.http.concurrent.BasicFutureCallback, 0, 0, 0, 0, 0, 0, 0, 0, 0, 0, 0, 0, 0, 0,0.0,0.0,0.0,0.0,0.0,0.0,0.0,0.0,0.0,0.0,0.0,0.0,0.0,36,httpcore\src\test\java\org\apache\http\concurrent\BasicFutureCallback.java,0,0,0,0
org.apache.http.concurrent.Cancellable, 0, 0, 0, 0, 0, 0, 0, 0, 0, 0, 0, 0, 0, 0,0.0,0.0,0.0,0.0,0.0,0.0,0.0,0.0,0.0,0.0,0.0,0.0,0.0,36,httpcore\src\main\java\org\apache\http\concurrent\Cancellable.java,0,0,0,0
org.apache.http.concurrent.FutureCallback, 0, 0, 0, 0, 0, 0, 0, 0, 0, 0, 0, 0, 0, 0,0.0,0.0,0.0,0.0,0.0,0.0,0.0,0.0,0.0,0.0,0.0,0.0,0.0,36,httpcore\src\main\java\org\apache\http\concurrent\FutureCallback.java,0,0,0,0
org.apache.http.concurrent.TestBasicFuture, 0, 0, 0, 0, 0, 0, 0, 0, 0, 0, 0, 0, 0, 0,0.0,0.0,0.0,0.0,0.0,0.0,0.0,0.0,0.0,0.0,0.0,0.0,0.0,163,httpcore\src\test\java\org\apache\http\concurrent\TestBasicFuture.java,0,0,0,0
org.apache.http.config.Lookup, 0, 0, 0, 0, 0, 0, 0, 0, 0, 0, 0, 0, 0, 0,0.0,0.0,0.0,0.0,0.0,0.0,0.0,0.0,0.0,0.0,0.0,0.0,0.0,163,httpcore\src\main\java\org\apache\http\config\Lookup.java,0,0,0,0
org.apache.http.config.TestRegistry, 0, 0, 0, 0, 0, 0, 0, 0, 0, 0, 0, 0, 0, 0,0.0,0.0,0.0,0.0,0.0,0.0,0.0,0.0,0.0,0.0,0.0,0.0,0.0,10,httpcore\src\test\java\org\apache\http\config\TestRegistry.java,0,0,0,0
org.apache.http.entity.BasicHttpEntity, 0, 0, 0, 0, 0, 0, 0, 0, 0, 0, 0, 0, 0, 0,0.0,0.0,0.0,0.25,0.0,0.0,0.0,0.0,0.0,0.0,0.0,0.0,0.0,45,httpcore\src\main\java\org\apache\http\entity\BasicHttpEntity.java,0,0,0,0
org.apache.http.entity.BufferedHttpEntity, 0, 0, 0, 0, 0, 0, 0, 0, 0, 0, 0, 0, 0, 0,0.0,0.0,0.0,0.0,0.0,0.0,0.0,0.0,0.0,0.0,0.0,0.0,0.0,48,httpcore\src\main\java\org\apache\http\entity\BufferedHttpEntity.java,0,0,0,0
org.apache.http.entity.ByteArrayEntity, 0, 0, 0, 0, 0, 0, 0, 0, 0, 0, 0, 0, 0, 0,0.0,0.0,0.0,0.0,0.0,0.0,0.0,0.0,0.0,0.0,0.0,0.0,0.0,66,httpcore\src\main\java\org\apache\http\entity\ByteArrayEntity.java,0,0,0,0
org.apache.http.entity.ContentLengthStrategy, 0, 0, 0, 0, 0, 0, 0, 0, 0, 0, 0, 0, 0, 0,0.0,0.0,0.0,0.0,0.0,0.0,0.0,0.0,0.0,0.0,0.0,0.0,0.0,66,httpcore\src\main\java\org\apache\http\entity\ContentLengthStrategy.java,0,0,0,0
org.apache.http.entity.ContentProducer, 0, 0, 0, 0, 0, 0, 0, 0, 0, 0, 0, 0, 0, 0,0.0,0.0,0.0,0.0,0.0,0.0,0.0,0.0,0.0,0.0,0.0,0.0,0.0,66,httpcore\src\main\java\org\apache\http\entity\ContentProducer.java,0,0,0,0
org.apache.http.entity.EntityTemplate, 0, 0, 0, 0, 0, 0, 0, 0, 0, 0, 0, 0, 0, 0,0.0,0.0,0.0,0.0,0.0,0.0,0.0,0.0,0.0,0.0,0.0,0.0,0.0,30,httpcore\src\main\java\org\apache\http\entity\EntityTemplate.java,0,0,0,0
org.apache.http.entity.FileEntity, 0, 0, 0, 0, 0, 0, 0, 0, 0, 0, 0, 0, 0, 0,0.0,0.0,0.0,0.0,0.0,0.0,0.0,0.0,0.0,0.0,0.0,0.0,0.0,55,httpcore\src\main\java\org\apache\http\entity\FileEntity.java,0,0,0,0
org.apache.http.entity.HttpEntityWrapper, 0, 0, 0, 0, 0, 0, 0, 0, 0, 0, 0, 0, 0, 0,0.0,0.0,0.0,0.0,0.0,0.0,0.0,0.0,0.0,0.0,0.0,0.0,0.0,46,httpcore\src\main\java\org\apache\http\entity\HttpEntityWrapper.java,0,0,0,0
org.apache.http.entity.InputStreamEntity, 0, 0, 0, 0, 0, 0, 0, 0, 0, 0, 0, 0, 0, 0,0.0,0.0,0.0,0.0,0.0,0.0,0.0,0.0,0.0,0.0,0.0,0.0,0.0,63,httpcore\src\main\java\org\apache\http\entity\InputStreamEntity.java,0,0,0,0
org.apache.http.entity.SerializableEntity, 0, 0, 0, 0, 0, 0, 0, 0, 0, 0, 0, 0, 0, 0,0.0,0.0,0.0,0.0,0.0,0.0,0.0,0.0,0.0,0.0,0.0,0.0,0.0,60,httpcore\src\main\java\org\apache\http\entity\SerializableEntity.java,0,0,0,0
org.apache.http.entity.StringEntity, 0, 0, 0, 0, 0, 0, 0, 0, 0, 0, 0, 0, 0, 0,0.0,0.0,0.0,0.08333333333333333,0.0,0.0,0.0,0.0,0.0,0.0,0.0,0.0,0.0,62,httpcore\src\main\java\org\apache\http\entity\StringEntity.java,0,0,0,0
org.apache.http.entity.TestAbstractHttpEntity, 0, 0, 0, 0, 0, 0, 0, 0, 0, 0, 0, 0, 0, 0,0.0,0.0,0.0,0.0,0.0,0.0,0.0,0.0,0.0,0.0,0.0,0.0,0.0,37,httpcore\src\test\java\org\apache\http\entity\TestAbstractHttpEntity.java,0,0,0,0
org.apache.http.entity.TestBasicHttpEntity, 0, 0, 0, 0, 0, 0, 0, 0, 0, 0, 0, 0, 0, 0,0.0,0.0,0.0,0.0,0.0,0.0,0.0,0.0,0.0,0.0,0.0,0.0,0.0,59,httpcore\src\test\java\org\apache\http\entity\TestBasicHttpEntity.java,0,0,0,0
org.apache.http.entity.TestBufferedHttpEntity, 0, 0, 0, 0, 0, 0, 0, 0, 0, 0, 0, 0, 0, 0,0.0,0.0,0.0,0.0,0.0,0.0,0.0,0.0,0.0,0.0,0.0,0.0,0.0,89,httpcore\src\test\java\org\apache\http\entity\TestBufferedHttpEntity.java,0,0,0,0
org.apache.http.entity.TestByteArrayEntity, 0, 0, 0, 0, 0, 0, 0, 0, 0, 0, 0, 0, 0, 0,0.0,0.0,0.0,0.0,0.0,0.0,0.0,0.0,0.0,0.0,0.0,0.0,0.0,93,httpcore\src\test\java\org\apache\http\entity\TestByteArrayEntity.java,0,0,0,0
org.apache.http.entity.TestContentType, 0, 0, 0, 0, 0, 0, 0, 0, 0, 0, 0, 0, 0, 0,0.0,0.0,0.0,0.0,0.0,0.0,0.0,0.0,0.0,0.0,0.0,0.0,0.0,178,httpcore\src\test\java\org\apache\http\entity\TestContentType.java,0,0,0,0
org.apache.http.entity.TestEntityTemplate, 0, 0, 0, 0, 0, 0, 0, 0, 0, 0, 0, 0, 0, 0,0.0,0.0,0.0,0.0,0.0,0.0,0.0,0.0,0.0,0.0,0.0,0.0,0.0,54,httpcore\src\test\java\org\apache\http\entity\TestEntityTemplate.java,0,0,0,0
org.apache.http.entity.TestFileEntity, 0, 0, 0, 0, 0, 0, 0, 0, 0, 0, 0, 0, 0, 0,0.0,0.0,0.0,0.0,0.0,0.0,0.0,0.0,0.0,0.0,0.0,0.0,0.0,53,httpcore\src\test\java\org\apache\http\entity\TestFileEntity.java,0,0,0,0
org.apache.http.entity.TestHttpEntityWrapper, 0, 0, 0, 0, 0, 0, 0, 0, 0, 0, 0, 0, 0, 0,0.0,0.0,0.0,0.0,0.0,0.0,0.0,0.0,0.0,0.0,0.0,0.0,0.0,60,httpcore\src\test\java\org\apache\http\entity\TestHttpEntityWrapper.java,0,0,0,0
org.apache.http.entity.TestInputStreamEntity, 0, 0, 0, 0, 0, 0, 0, 0, 0, 0, 0, 0, 0, 0,0.0,0.0,0.0,0.0,0.0,0.0,0.0,0.0,0.0,0.0,0.0,0.0,0.0,72,httpcore\src\test\java\org\apache\http\entity\TestInputStreamEntity.java,0,0,0,0
org.apache.http.entity.TestSerializableEntity, 0, 0, 0, 0, 0, 0, 0, 0, 0, 0, 0, 0, 0, 0,0.0,0.0,0.0,0.0,0.0,0.0,0.0,0.0,0.0,0.0,0.0,0.0,0.0,78,httpcore\src\test\java\org\apache\http\entity\TestSerializableEntity.java,0,0,0,0
org.apache.http.examples.ElementalHttpGet, 0, 0, 0, 0, 0, 0, 0, 0, 0, 0, 0, 0, 0, 0,0.0,0.0,0.0,0.0,0.0,0.0,0.0,0.1,0.0,0.0,0.0,0.0,0.0,43,httpcore\src\examples\org\apache\http\examples\ElementalHttpGet.java,0,0,0,0
org.apache.http.examples.ElementalHttpPost, 0, 0, 0, 0, 0, 0, 0, 0, 0, 0, 0, 0, 0, 0,0.0,0.0,0.0,0.0,0.0,0.0,0.0,0.07692307692307693,0.0,0.0,0.0,0.0,0.0,54,httpcore\src\examples\org\apache\http\examples\ElementalHttpPost.java,0,0,0,0
org.apache.http.examples.ElementalPoolingHttpGet, 0, 0, 0, 0, 0, 0, 0, 0, 0, 0, 0, 0, 0, 0,0.0,0.0,0.0,0.0,0.0,0.0,0.0,0.0,0.0,0.0,0.0,0.0,0.0,69,httpcore\src\examples\org\apache\http\examples\ElementalPoolingHttpGet.java,0,0,0,0
org.apache.http.examples.ElementalReverseProxy, 0, 0, 0, 0, 0, 0, 0, 0, 0, 0, 0, 0, 0, 0,0.0,0.0,0.0,0.0,0.0,0.0,0.0,0.0,0.0,0.0,0.0,0.0,0.0,176,httpcore\src\examples\org\apache\http\examples\ElementalReverseProxy.java,0,0,0,0
org.apache.http.examples.HttpFileServer, 0, 0, 0, 0, 0, 0, 0, 0, 0, 0, 0, 0, 0, 0,0.0,0.0,0.0,0.0,0.0,0.0,0.0,0.5,0.0,0.0,0.0,0.0,0.0,102,httpcore\src\examples\org\apache\http\examples\HttpFileServer.java,0,0,0,0
org.apache.http.examples.PrintVersionInfo, 0, 0, 0, 0, 0, 0, 0, 0, 0, 0, 0, 0, 0, 0,0.0,0.0,0.0,0.0,0.0,0.0,0.0,0.0,0.0,0.0,0.0,0.0,0.0,20,httpcore\src\examples\org\apache\http\examples\PrintVersionInfo.java,0,0,0,0
org.apache.http.examples.nio.ElementalEchoServer, 0, 0, 0, 0, 0, 0, 0, 0, 0, 0, 0, 0, 0, 0,0.0,0.0,0.0,0.0,0.0,0.0,0.0,0.0,0.0,0.0,0.0,0.0,0.0,59,httpcore-nio\src\examples\org\apache\http\examples\nio\ElementalEchoServer.java,0,0,0,0
org.apache.http.examples.nio.NHttpClient, 0, 0, 0, 0, 0, 0, 0, 0, 0, 0, 0, 0, 0, 0,0.0,0.0,0.0,0.0,0.0,0.0,0.0,0.0,0.0,0.0,0.0,0.0,0.0,64,httpcore-nio\src\examples\org\apache\http\examples\nio\NHttpClient.java,0,0,0,0
org.apache.http.examples.nio.NHttpFileServer, 0, 0, 0, 0, 0, 0, 0, 0, 0, 0, 0, 0, 0, 0,0.0,0.0,0.0,0.0,0.0,0.0,0.0,0.0,0.0,0.0,0.0,0.0,0.0,98,httpcore-nio\src\examples\org\apache\http\examples\nio\NHttpFileServer.java,0,0,0,0
org.apache.http.examples.nio.PipeliningHttpClient, 0, 0, 0, 0, 0, 0, 0, 0, 0, 0, 0, 0, 0, 0,0.0,0.0,0.0,0.0,0.0,0.0,0.0,0.0,0.0,0.0,0.0,0.0,0.0,69,httpcore-nio\src\examples\org\apache\http\examples\nio\PipeliningHttpClient.java,0,0,0,0
org.apache.http.impl.AbstractHttpClientConnection, 0, 0, 0, 0, 0, 0, 0, 0, 0, 0, 0, 0, 0, 0,0.0,0.0,0.0,0.0,0.0,0.0,0.0,0.0,0.0,0.0,0.0,0.0,0.0,132,httpcore\src\main\java-deprecated\org\apache\http\impl\AbstractHttpClientConnection.java,0,0,0,0
org.apache.http.impl.AbstractHttpServerConnection, 0, 0, 0, 0, 0, 0, 0, 0, 0, 0, 0, 0, 0, 0,0.0,0.0,0.0,0.0,0.0,0.0,0.0,0.0,0.0,0.0,0.0,0.0,0.0,121,httpcore\src\main\java-deprecated\org\apache\http\impl\AbstractHttpServerConnection.java,0,0,0,0
org.apache.http.impl.ConnSupport, 0, 0, 0, 0, 0, 0, 0, 0, 0, 0, 0, 0, 0, 0,0.0,0.0,0.0,0.0,0.0,0.0,0.0,0.3333333333333333,0.0,0.0,0.0,0.0,0.0,32,httpcore\src\main\java\org\apache\http\impl\ConnSupport.java,0,0,0,0
org.apache.http.impl.DefaultBHttpClientConnection, 0, 0, 0, 0, 0, 0, 0, 1, 0, 0, 0, 0, 0, 1,0.0,0.0,0.0,0.0,0.0,0.0,0.0,0.1111111111111111,0.0,0.0,0.0,0.0,0.0,94,httpcore\src\main\java\org\apache\http\impl\DefaultBHttpClientConnection.java,0,0,0,0
org.apache.http.impl.DefaultBHttpClientConnectionFactory, 0, 0, 0, 0, 0, 0, 0, 0, 0, 0, 0, 0, 0, 0,0.0,0.0,0.0,0.0,0.0,0.0,0.0,0.3333333333333333,0.0,0.0,0.0,0.0,0.0,49,httpcore\src\main\java\org\apache\http\impl\DefaultBHttpClientConnectionFactory.java,0,0,0,0
org.apache.http.impl.DefaultBHttpServerConnection, 0, 0, 0, 0, 0, 0, 0, 1, 0, 0, 0, 0, 0, 1,0.0,0.0,0.0,0.0,0.0,0.0,0.0,0.25,0.0,0.0,0.0,0.0,0.0,87,httpcore\src\main\java\org\apache\http\impl\DefaultBHttpServerConnection.java,0,0,0,0
org.apache.http.impl.DefaultBHttpServerConnectionFactory, 0, 0, 0, 0, 0, 0, 0, 0, 0, 0, 0, 0, 0, 0,0.0,0.0,0.0,0.0,0.0,0.0,0.0,0.5,0.0,0.0,0.0,0.0,0.0,49,httpcore\src\main\java\org\apache\http\impl\DefaultBHttpServerConnectionFactory.java,0,0,0,0
org.apache.http.impl.DefaultConnectionReuseStrategy, 0, 0, 0, 0, 0, 0, 0, 0, 0, 0, 0, 0, 0, 0,0.0,0.0,0.0,0.0,0.0,0.0,0.0,0.0,0.0,0.0,0.0,0.0,0.0,71,httpcore\src\main\java\org\apache\http\impl\DefaultConnectionReuseStrategy.java,0,0,0,0
org.apache.http.impl.DefaultHttpClientConnection, 0, 0, 0, 0, 0, 0, 0, 0, 0, 0, 0, 0, 0, 0,0.0,0.0,0.0,0.0,0.0,0.0,0.0,0.0,0.0,0.0,0.0,0.0,0.0,21,httpcore\src\main\java-deprecated\org\apache\http\impl\DefaultHttpClientConnection.java,0,0,0,0
org.apache.http.impl.DefaultHttpRequestFactory, 0, 0, 0, 0, 0, 0, 0, 0, 0, 0, 0, 0, 0, 0,0.0,0.0,0.0,0.0,0.0,0.0,0.0,0.0,0.0,0.0,0.0,0.0,0.0,57,httpcore\src\main\java\org\apache\http\impl\DefaultHttpRequestFactory.java,0,0,0,0
org.apache.http.impl.DefaultHttpResponseFactory, 0, 0, 0, 0, 0, 0, 0, 0, 0, 0, 0, 0, 0, 0,0.0,0.0,0.0,0.0,0.0,0.0,0.0,0.0,0.0,0.0,0.0,0.0,0.0,31,httpcore\src\main\java\org\apache\http\impl\DefaultHttpResponseFactory.java,0,0,0,0
org.apache.http.impl.DefaultHttpServerConnection, 0, 0, 0, 0, 0, 0, 0, 0, 0, 0, 0, 0, 0, 0,0.0,0.0,0.0,0.0,0.0,0.0,0.0,0.0,0.0,0.0,0.0,0.0,0.0,22,httpcore\src\main\java-deprecated\org\apache\http\impl\DefaultHttpServerConnection.java,0,0,0,0
org.apache.http.impl.EnglishReasonPhraseCatalog, 0, 0, 0, 0, 0, 0, 0, 0, 0, 0, 0, 0, 0, 0,0.0,0.0,0.0,0.0,0.0,0.0,0.0,0.0,0.0,0.0,0.0,0.0,0.0,128,httpcore\src\main\java\org\apache\http\impl\EnglishReasonPhraseCatalog.java,0,0,0,0
org.apache.http.impl.NoConnectionReuseStrategy, 0, 0, 0, 0, 0, 0, 0, 0, 0, 0, 0, 0, 0, 0,0.0,0.0,0.0,0.0,0.0,0.0,0.0,0.0,0.0,0.0,0.0,0.0,0.0,10,httpcore\src\main\java\org\apache\http\impl\NoConnectionReuseStrategy.java,0,0,0,0
org.apache.http.impl.SessionInputBufferMock, 0, 0, 0, 0, 0, 0, 0, 0, 0, 0, 0, 0, 0, 0,0.0,0.0,0.0,0.0,0.0,0.0,0.0,0.0,0.0,0.0,0.0,0.0,0.0,69,httpcore\src\test\java\org\apache\http\impl\SessionInputBufferMock.java,0,0,0,0
org.apache.http.impl.SessionOutputBufferMock, 0, 0, 0, 0, 0, 0, 0, 0, 0, 0, 0, 0, 0, 0,0.0,0.0,0.0,0.0,0.0,0.0,0.0,0.0,0.0,0.0,0.0,0.0,0.0,40,httpcore\src\test\java\org\apache\http\impl\SessionOutputBufferMock.java,0,0,0,0
org.apache.http.impl.TestBHttpConnectionBase, 0, 0, 0, 0, 0, 0, 0, 0, 0, 0, 0, 0, 0, 0,0.0,0.0,0.0,0.0,0.0,0.0,0.0,0.0,0.0,0.0,0.0,0.0,0.0,265,httpcore\src\test\java\org\apache\http\impl\TestBHttpConnectionBase.java,0,0,0,0
org.apache.http.impl.TestBasicRequest, 0, 0, 0, 0, 0, 0, 0, 0, 0, 0, 0, 0, 0, 0,0.0,0.0,0.0,0.0,0.0,0.0,0.0,0.0,0.0,0.0,0.0,0.0,0.0,24,httpcore\src\test\java\org\apache\http\impl\TestBasicRequest.java,0,0,0,0
org.apache.http.impl.TestDefaultBHttpClientConnection, 0, 0, 0, 0, 0, 0, 0, 0, 0, 0, 0, 0, 0, 0,0.0,0.0,0.0,0.0,0.0,0.0,0.0,0.25,0.0,0.0,0.0,0.0,0.0,86,httpcore\src\test\java\org\apache\http\impl\TestDefaultBHttpClientConnection.java,0,0,0,0
org.apache.http.impl.TestDefaultBHttpServerConnection, 0, 0, 0, 0, 0, 0, 0, 0, 0, 0, 0, 0, 0, 0,0.0,0.0,0.0,0.0,0.0,0.0,0.0,0.5,0.0,0.0,0.0,0.0,0.0,101,httpcore\src\test\java\org\apache\http\impl\TestDefaultBHttpServerConnection.java,0,0,0,0
org.apache.http.impl.TestDefaultConnectionReuseStrategy, 0, 0, 0, 1, 0, 0, 0, 0, 0, 0, 0, 0, 0, 1,0.0,0.0,0.0,0.0,0.0,0.0,0.0,0.0,0.0,0.0,0.0,0.0,0.0,169,httpcore\src\test\java\org\apache\http\impl\TestDefaultConnectionReuseStrategy.java,0,0,0,0
org.apache.http.impl.TestEnglishReasonPhraseCatalog, 0, 0, 0, 0, 0, 0, 0, 0, 0, 0, 0, 0, 0, 0,0.0,0.0,0.0,0.0,0.0,0.0,0.0,0.0,0.0,0.0,0.0,0.0,0.0,46,httpcore\src\test\java\org\apache\http\impl\TestEnglishReasonPhraseCatalog.java,0,0,0,0
org.apache.http.impl.TestNoConnectionReuseStrategy, 0, 0, 0, 0, 0, 0, 0, 0, 0, 0, 0, 0, 0, 0,0.0,0.0,0.0,0.0,0.0,0.0,0.0,0.0,0.0,0.0,0.0,0.0,0.0,13,httpcore\src\test\java\org\apache\http\impl\TestNoConnectionReuseStrategy.java,0,0,0,0
org.apache.http.impl.bootstrap.HttpServer, 0, 0, 0, 0, 0, 0, 0, 1, 0, 0, 0, 0, 0, 1,0.0,0.0,0.0,0.0,0.0,0.0,0.0,0.0,0.0,0.0,0.0,0.0,0.0,118,httpcore\src\main\java\org\apache\http\impl\bootstrap\HttpServer.java,0,0,0,0
org.apache.http.impl.bootstrap.RequestListener, 0, 0, 0, 0, 0, 0, 0, 0, 0, 0, 0, 0, 0, 0,0.0,0.0,0.0,0.0,0.0,0.0,0.0,0.3333333333333333,0.0,0.0,0.0,0.0,0.0,57,httpcore\src\main\java\org\apache\http\impl\bootstrap\RequestListener.java,0,0,0,0
org.apache.http.impl.bootstrap.SSLServerSetupHandler, 0, 0, 0, 0, 0, 0, 0, 0, 0, 0, 0, 0, 0, 0,0.0,0.0,0.0,0.0,0.0,0.0,0.0,0.0,0.0,0.0,0.0,0.0,0.0,57,httpcore\src\main\java\org\apache\http\impl\bootstrap\SSLServerSetupHandler.java,0,0,0,0
org.apache.http.impl.bootstrap.ThreadFactoryImpl, 0, 0, 0, 0, 0, 0, 0, 0, 0, 0, 0, 0, 0, 0,0.0,0.0,0.0,0.0,0.0,0.0,0.0,1.0,0.0,0.0,0.0,0.0,0.0,17,httpcore\src\main\java\org\apache\http\impl\bootstrap\ThreadFactoryImpl.java,0,0,0,0
org.apache.http.impl.bootstrap.Worker, 0, 0, 0, 0, 0, 0, 0, 0, 0, 0, 0, 0, 0, 0,0.0,0.0,0.0,0.0,0.0,0.0,0.0,0.25,0.0,0.0,0.0,0.0,0.0,37,httpcore\src\main\java\org\apache\http\impl\bootstrap\Worker.java,0,0,0,0
org.apache.http.impl.entity.DisallowIdentityContentLengthStrategy, 0, 0, 0, 0, 0, 0, 0, 0, 0, 0, 0, 0, 0, 0,0.0,0.0,0.0,0.0,0.0,0.0,0.0,0.25,0.0,0.0,0.0,0.0,0.0,17,httpcore\src\main\java\org\apache\http\impl\entity\DisallowIdentityContentLengthStrategy.java,0,0,0,0
org.apache.http.impl.entity.DummyHttpMessage, 0, 0, 0, 0, 0, 0, 0, 0, 0, 0, 0, 0, 0, 0,0.0,0.0,0.0,0.0,0.0,0.0,0.0,0.0,0.0,0.0,0.0,0.0,0.0,14,httpcore\src\test\java\org\apache\http\impl\entity\DummyHttpMessage.java,0,0,0,0
org.apache.http.impl.entity.EntityDeserializer, 0, 0, 0, 0, 0, 0, 0, 0, 0, 0, 0, 0, 0, 0,0.0,0.0,0.0,0.0,0.0,0.0,0.0,0.0,0.0,0.0,0.0,0.0,0.0,42,httpcore\src\main\java-deprecated\org\apache\http\impl\entity\EntityDeserializer.java,0,0,0,0
org.apache.http.impl.entity.EntitySerializer, 0, 0, 0, 0, 0, 0, 0, 0, 0, 0, 0, 0, 0, 0,0.0,0.0,0.0,0.0,0.0,0.0,0.0,0.0,0.0,0.0,0.0,0.0,0.0,30,httpcore\src\main\java-deprecated\org\apache\http\impl\entity\EntitySerializer.java,0,0,0,0
org.apache.http.impl.entity.LaxContentLengthStrategy, 0, 0, 0, 0, 0, 0, 0, 0, 0, 0, 0, 0, 0, 0,0.0,0.0,0.0,0.0,0.0,0.0,0.0,0.16666666666666666,0.0,0.0,0.0,0.0,0.0,54,httpcore\src\main\java\org\apache\http\impl\entity\LaxContentLengthStrategy.java,0,0,0,0
org.apache.http.impl.entity.StrictContentLengthStrategy, 0, 0, 0, 0, 0, 0, 0, 0, 0, 0, 0, 0, 0, 0,0.0,0.0,0.0,0.0,0.0,0.0,0.0,0.0,0.0,0.0,0.0,0.0,0.0,46,httpcore\src\main\java\org\apache\http\impl\entity\StrictContentLengthStrategy.java,0,0,0,0
org.apache.http.impl.entity.TestDisallowIdentityContentLengthStrategy, 0, 0, 0, 0, 0, 0, 0, 0, 0, 0, 0, 0, 0, 0,0.0,0.0,0.0,0.0,0.0,0.0,0.0,0.0,0.0,0.0,0.0,0.0,0.0,18,httpcore\src\test\java\org\apache\http\impl\entity\TestDisallowIdentityContentLengthStrategy.java,0,0,0,0
org.apache.http.impl.entity.TestLaxContentLengthStrategy, 0, 0, 0, 0, 0, 0, 0, 0, 0, 0, 0, 0, 0, 0,0.0,0.0,0.0,0.0,0.0,0.0,0.0,0.0,0.0,0.0,0.0,0.0,0.0,89,httpcore\src\test\java\org\apache\http\impl\entity\TestLaxContentLengthStrategy.java,0,0,0,0
org.apache.http.impl.entity.TestStrictContentLengthStrategy, 0, 0, 0, 0, 0, 0, 0, 0, 0, 0, 0, 0, 0, 0,0.0,0.0,0.0,0.0,0.0,0.0,0.0,0.0,0.0,0.0,0.0,0.0,0.0,57,httpcore\src\test\java\org\apache\http\impl\entity\TestStrictContentLengthStrategy.java,0,0,0,0
org.apache.http.impl.io.AbstractMessageParser, 0, 0, 0, 0, 0, 0, 0, 0, 0, 0, 0, 0, 0, 0,0.0,0.0,0.0,0.0,0.0,0.0,0.0,0.0,0.0,0.0,0.0,0.0,0.0,131,httpcore\src\main\java\org\apache\http\impl\io\AbstractMessageParser.java,0,0,0,0
org.apache.http.impl.io.AbstractMessageWriter, 0, 0, 0, 0, 0, 0, 0, 0, 0, 0, 0, 0, 0, 0,0.0,0.0,0.0,0.0,0.0,0.0,0.0,0.0,0.0,0.0,0.0,0.0,0.0,36,httpcore\src\main\java\org\apache\http\impl\io\AbstractMessageWriter.java,0,0,0,0
org.apache.http.impl.io.ChunkedInputStream, 0, 0, 0, 0, 0, 0, 0, 0, 0, 0, 0, 0, 0, 0,0.0,0.0,0.0,0.0,0.0,0.0,0.0,0.0,0.0,0.0,0.0,0.0,0.0,177,httpcore\src\main\java\org\apache\http\impl\io\ChunkedInputStream.java,0,0,0,0
org.apache.http.impl.io.ChunkedOutputStream, 0, 0, 0, 0, 0, 0, 0, 0, 0, 0, 0, 0, 0, 0,0.0,0.0,0.0,0.0,0.0,0.0,0.0,0.0,0.0,0.0,0.0,0.0,0.0,88,httpcore\src\main\java\org\apache\http\impl\io\ChunkedOutputStream.java,0,0,0,0
org.apache.http.impl.io.ContentLengthInputStream, 0, 0, 0, 0, 0, 0, 0, 0, 0, 0, 0, 0, 0, 0,0.0,0.0,0.0,0.0,0.0,0.0,0.0,0.0,0.0,0.0,0.0,0.0,0.0,100,httpcore\src\main\java\org\apache\http\impl\io\ContentLengthInputStream.java,0,0,0,0
org.apache.http.impl.io.ContentLengthOutputStream, 0, 0, 0, 0, 0, 0, 0, 0, 0, 0, 0, 0, 0, 0,0.0,0.0,0.0,0.0,0.0,0.0,0.0,0.0,0.0,0.0,0.0,0.0,0.0,51,httpcore\src\main\java\org\apache\http\impl\io\ContentLengthOutputStream.java,0,0,0,0
org.apache.http.impl.io.DefaultHttpRequestParser, 0, 0, 0, 0, 0, 0, 0, 0, 0, 0, 0, 0, 0, 0,0.0,0.0,0.0,0.0,0.0,0.0,0.0,0.0,0.0,0.0,0.0,0.0,0.0,45,httpcore\src\main\java\org\apache\http\impl\io\DefaultHttpRequestParser.java,0,0,0,0
org.apache.http.impl.io.DefaultHttpRequestParserFactory, 0, 0, 0, 0, 0, 0, 0, 0, 0, 0, 0, 0, 0, 0,0.0,0.0,0.0,0.0,0.0,0.0,0.0,0.0,0.0,0.0,0.0,0.0,0.0,20,httpcore\src\main\java\org\apache\http\impl\io\DefaultHttpRequestParserFactory.java,0,0,0,0
org.apache.http.impl.io.DefaultHttpRequestWriter, 0, 0, 0, 0, 0, 0, 0, 0, 0, 0, 0, 0, 0, 0,0.0,0.0,0.0,0.0,0.0,0.0,0.0,0.0,0.0,0.0,0.0,0.0,0.0,15,httpcore\src\main\java\org\apache\http\impl\io\DefaultHttpRequestWriter.java,0,0,0,0
org.apache.http.impl.io.DefaultHttpRequestWriterFactory, 0, 0, 0, 0, 0, 0, 0, 0, 0, 0, 0, 0, 0, 0,0.0,0.0,0.0,0.0,0.0,0.0,0.0,0.0,0.0,0.0,0.0,0.0,0.0,15,httpcore\src\main\java\org\apache\http\impl\io\DefaultHttpRequestWriterFactory.java,0,0,0,0
org.apache.http.impl.io.DefaultHttpResponseParser, 0, 0, 0, 0, 0, 0, 0, 0, 0, 0, 0, 0, 0, 0,0.0,0.0,0.0,0.0,0.0,0.0,0.0,0.0,0.0,0.0,0.0,0.0,0.0,45,httpcore\src\main\java\org\apache\http\impl\io\DefaultHttpResponseParser.java,0,0,0,0
org.apache.http.impl.io.DefaultHttpResponseParserFactory, 0, 0, 0, 0, 0, 0, 0, 0, 0, 0, 0, 0, 0, 0,0.0,0.0,0.0,0.0,0.0,0.0,0.0,0.0,0.0,0.0,0.0,0.0,0.0,20,httpcore\src\main\java\org\apache\http\impl\io\DefaultHttpResponseParserFactory.java,0,0,0,0
org.apache.http.impl.io.DefaultHttpResponseWriter, 0, 0, 0, 0, 0, 0, 0, 0, 0, 0, 0, 0, 0, 0,0.0,0.0,0.0,0.0,0.0,0.0,0.0,0.0,0.0,0.0,0.0,0.0,0.0,15,httpcore\src\main\java\org\apache\http\impl\io\DefaultHttpResponseWriter.java,0,0,0,0
org.apache.http.impl.io.DefaultHttpResponseWriterFactory, 0, 0, 0, 0, 0, 0, 0, 0, 0, 0, 0, 0, 0, 0,0.0,0.0,0.0,0.0,0.0,0.0,0.0,0.0,0.0,0.0,0.0,0.0,0.0,15,httpcore\src\main\java\org\apache\http\impl\io\DefaultHttpResponseWriterFactory.java,0,0,0,0
org.apache.http.impl.io.EmptyInputStream, 0, 0, 0, 0, 0, 0, 0, 0, 0, 0, 0, 0, 0, 0,0.0,0.0,0.0,0.0,0.0,0.0,0.0,0.0,0.0,0.0,0.0,0.0,0.0,38,httpcore\src\main\java\org\apache\http\impl\io\EmptyInputStream.java,0,0,0,0
org.apache.http.impl.io.HttpRequestParser, 0, 0, 0, 0, 0, 0, 0, 0, 0, 0, 0, 0, 0, 0,0.0,0.0,0.0,0.0,0.0,0.0,0.0,0.0,0.0,0.0,0.0,0.0,0.0,26,httpcore\src\main\java-deprecated\org\apache\http\impl\io\HttpRequestParser.java,0,0,0,0
org.apache.http.impl.io.HttpRequestWriter, 0, 0, 0, 0, 0, 0, 0, 0, 0, 0, 0, 0, 0, 0,0.0,0.0,0.0,0.0,0.0,0.0,0.0,0.0,0.0,0.0,0.0,0.0,0.0,12,httpcore\src\main\java-deprecated\org\apache\http\impl\io\HttpRequestWriter.java,0,0,0,0
org.apache.http.impl.io.HttpResponseParser, 0, 0, 0, 0, 0, 0, 0, 0, 0, 0, 0, 0, 0, 0,0.0,0.0,0.0,0.0,0.0,0.0,0.0,0.0,0.0,0.0,0.0,0.0,0.0,26,httpcore\src\main\java-deprecated\org\apache\http\impl\io\HttpResponseParser.java,0,0,0,0
org.apache.http.impl.io.HttpResponseWriter, 0, 0, 0, 0, 0, 0, 0, 0, 0, 0, 0, 0, 0, 0,0.0,0.0,0.0,0.0,0.0,0.0,0.0,0.0,0.0,0.0,0.0,0.0,0.0,12,httpcore\src\main\java-deprecated\org\apache\http\impl\io\HttpResponseWriter.java,0,0,0,0
org.apache.http.impl.io.HttpTransportMetricsImpl, 0, 0, 0, 0, 0, 0, 0, 0, 0, 0, 0, 0, 0, 0,0.0,0.0,0.0,0.0,0.0,0.0,0.0,0.14285714285714285,0.0,0.0,0.0,0.0,0.0,20,httpcore\src\main\java\org\apache\http\impl\io\HttpTransportMetricsImpl.java,0,0,0,0
org.apache.http.impl.io.IdentityInputStream, 0, 0, 0, 0, 0, 0, 0, 0, 0, 0, 0, 0, 0, 0,0.0,0.0,0.0,0.0,0.0,0.0,0.0,0.0,0.0,0.0,0.0,0.0,0.0,36,httpcore\src\main\java\org\apache\http\impl\io\IdentityInputStream.java,0,0,0,0
org.apache.http.impl.io.IdentityOutputStream, 0, 0, 0, 0, 0, 0, 0, 0, 0, 0, 0, 0, 0, 0,0.0,0.0,0.0,0.0,0.0,0.0,0.0,0.0,0.0,0.0,0.0,0.0,0.0,37,httpcore\src\main\java\org\apache\http\impl\io\IdentityOutputStream.java,0,0,0,0
org.apache.http.impl.io.SocketInputBuffer, 0, 0, 0, 0, 0, 0, 0, 0, 0, 0, 0, 0, 0, 0,0.0,0.0,0.0,0.0,0.0,0.0,0.0,0.0,0.0,0.0,0.0,0.0,0.0,44,httpcore\src\main\java-deprecated\org\apache\http\impl\io\SocketInputBuffer.java,0,0,0,0
org.apache.http.impl.io.SocketOutputBuffer, 0, 0, 0, 0, 0, 1, 0, 0, 0, 0, 0, 0, 0, 1,0.0,0.0,0.0,0.0,0.0,0.0,0.0,0.0,0.0,0.0,0.0,0.0,0.0,17,httpcore\src\main\java-deprecated\org\apache\http\impl\io\SocketOutputBuffer.java,0,0,0,0
org.apache.http.impl.io.TestChunkCoding, 0, 0, 0, 0, 0, 0, 0, 0, 0, 0, 0, 0, 0, 0,0.0,0.0,0.0,0.0,0.0,0.0,0.0,0.0,0.0,0.0,0.0,0.0,0.0,395,httpcore\src\test\java\org\apache\http\impl\io\TestChunkCoding.java,0,0,0,0
org.apache.http.impl.io.TestContentLengthInputStream, 0, 0, 0, 0, 0, 0, 0, 0, 0, 0, 0, 0, 0, 0,0.0,0.0,0.0,0.0,0.0,0.0,0.0,0.0,0.0,0.0,0.0,0.0,0.0,113,httpcore\src\test\java\org\apache\http\impl\io\TestContentLengthInputStream.java,0,0,0,0
org.apache.http.impl.io.TestContentLengthOutputStream, 0, 0, 0, 0, 0, 0, 0, 0, 0, 0, 0, 0, 0, 0,0.0,0.0,0.0,0.0,0.0,0.0,0.0,0.0,0.0,0.0,0.0,0.0,0.0,55,httpcore\src\test\java\org\apache\http\impl\io\TestContentLengthOutputStream.java,0,0,0,0
org.apache.http.impl.io.TestIdentityInputStream, 0, 0, 0, 0, 0, 0, 0, 0, 0, 0, 0, 0, 0, 0,0.0,0.0,0.0,0.0,0.0,0.0,0.0,0.0,0.0,0.0,0.0,0.0,0.0,52,httpcore\src\test\java\org\apache\http\impl\io\TestIdentityInputStream.java,0,0,0,0
org.apache.http.impl.io.TestIdentityOutputStream, 0, 0, 0, 0, 0, 0, 0, 0, 0, 0, 0, 0, 0, 0,0.0,0.0,0.0,0.0,0.0,0.0,0.0,0.0,0.0,0.0,0.0,0.0,0.0,88,httpcore\src\test\java\org\apache\http\impl\io\TestIdentityOutputStream.java,0,0,0,0
org.apache.http.impl.io.TestMessageParser, 0, 0, 0, 0, 0, 0, 0, 0, 0, 0, 0, 0, 0, 0,0.0,0.0,0.0,0.0,0.0,0.0,0.0,0.0,0.0,0.0,0.0,0.0,0.0,139,httpcore\src\test\java\org\apache\http\impl\io\TestMessageParser.java,0,0,0,0
org.apache.http.impl.io.TestRequestParser, 0, 0, 0, 0, 0, 0, 0, 0, 0, 0, 0, 0, 0, 0,0.0,0.0,0.0,0.0,0.0,0.0,0.0,0.0,0.0,0.0,0.0,0.0,0.0,68,httpcore\src\test\java\org\apache\http\impl\io\TestRequestParser.java,0,0,0,0
org.apache.http.impl.io.TestResponseParser, 0, 0, 0, 0, 0, 0, 0, 0, 0, 0, 0, 0, 0, 0,0.0,0.0,0.0,0.0,0.0,0.0,0.0,0.0,0.0,0.0,0.0,0.0,0.0,68,httpcore\src\test\java\org\apache\http\impl\io\TestResponseParser.java,0,0,0,0
org.apache.http.impl.io.TimeoutByteArrayInputStream, 0, 0, 0, 0, 0, 0, 0, 0, 0, 0, 0, 0, 0, 0,0.0,0.0,0.0,0.0,0.0,0.0,0.0,0.0,0.0,0.0,0.0,0.0,0.0,79,httpcore\src\test\java\org\apache\http\impl\io\TimeoutByteArrayInputStream.java,0,0,0,0
org.apache.http.impl.nio.DefaultClientIOEventDispatch, 0, 0, 0, 0, 0, 0, 0, 0, 0, 0, 0, 0, 0, 0,0.0,0.0,0.0,0.0,0.0,0.0,0.0,0.25,0.0,0.0,0.0,0.0,0.0,56,httpcore-nio\src\main\java-deprecated\org\apache\http\impl\nio\DefaultClientIOEventDispatch.java,0,0,0,0
org.apache.http.impl.nio.DefaultHttpClientIODispatch, 0, 0, 0, 0, 0, 0, 0, 0, 0, 0, 0, 0, 0, 0,0.0,0.0,0.0,0.0,0.0,0.0,0.0,0.3333333333333333,0.0,0.0,0.0,0.0,0.0,86,httpcore-nio\src\main\java\org\apache\http\impl\nio\DefaultHttpClientIODispatch.java,0,0,0,0
org.apache.http.impl.nio.DefaultHttpServerIODispatch, 0, 0, 0, 0, 0, 0, 0, 0, 0, 0, 0, 0, 0, 0,0.0,0.0,0.0,0.0,0.0,0.0,0.0,0.3333333333333333,0.0,0.0,0.0,0.0,0.0,85,httpcore-nio\src\main\java\org\apache\http\impl\nio\DefaultHttpServerIODispatch.java,0,0,0,0
org.apache.http.impl.nio.DefaultNHttpClientConnection, 0, 0, 0, 0, 0, 0, 0, 1, 0, 0, 0, 0, 0, 1,0.0,0.0,0.0,0.0,0.0,0.0,0.0,0.07142857142857142,0.0,0.0,0.0,0.0,0.0,192,httpcore-nio\src\main\java\org\apache\http\impl\nio\DefaultNHttpClientConnection.java,0,0,1,2
org.apache.http.impl.nio.DefaultNHttpClientConnectionFactory, 0, 0, 0, 0, 0, 0, 0, 0, 0, 0, 0, 0, 0, 0,0.0,0.0,0.0,0.14285714285714285,0.0,0.0,0.0,0.14285714285714285,0.0,0.0,0.0,0.0,0.0,87,httpcore-nio\src\main\java\org\apache\http\impl\nio\DefaultNHttpClientConnectionFactory.java,0,0,0,0
org.apache.http.impl.nio.DefaultNHttpServerConnection, 0, 0, 0, 0, 0, 0, 0, 1, 0, 0, 0, 0, 0, 1,0.0,0.0,0.0,0.0,0.0,0.0,0.0,0.0625,0.0,0.0,0.0,0.0,0.0,196,httpcore-nio\src\main\java\org\apache\http\impl\nio\DefaultNHttpServerConnection.java,0,0,1,2
org.apache.http.impl.nio.DefaultNHttpServerConnectionFactory, 0, 0, 0, 0, 0, 0, 0, 0, 0, 0, 0, 0, 0, 0,0.0,0.0,0.0,0.0,0.0,0.0,0.0,0.2,0.0,0.0,0.0,0.0,0.0,79,httpcore-nio\src\main\java\org\apache\http\impl\nio\DefaultNHttpServerConnectionFactory.java,0,0,0,0
org.apache.http.impl.nio.DefaultServerIOEventDispatch, 0, 0, 0, 0, 0, 0, 0, 0, 0, 0, 0, 0, 0, 0,0.0,0.0,0.0,0.0,0.0,0.0,0.0,0.25,0.0,0.0,0.0,0.0,0.0,55,httpcore-nio\src\main\java-deprecated\org\apache\http\impl\nio\DefaultServerIOEventDispatch.java,0,0,0,0
org.apache.http.impl.nio.NHttpClientEventHandlerAdaptor, 0, 0, 0, 0, 0, 0, 0, 0, 0, 0, 0, 0, 0, 0,0.0,0.0,0.0,0.0,0.0,0.0,0.0,1.0,0.0,0.0,0.0,0.0,0.0,59,httpcore-nio\src\main\java\org\apache\http\impl\nio\NHttpClientEventHandlerAdaptor.java,0,0,0,0
org.apache.http.impl.nio.NHttpServerEventHandlerAdaptor, 0, 0, 0, 0, 0, 0, 0, 0, 0, 0, 0, 0, 0, 0,0.0,0.0,0.0,0.0,0.0,0.0,0.0,1.0,0.0,0.0,0.0,0.0,0.0,59,httpcore-nio\src\main\java\org\apache\http\impl\nio\NHttpServerEventHandlerAdaptor.java,0,0,0,0
org.apache.http.impl.nio.SSLClientIOEventDispatch, 0, 0, 0, 0, 0, 0, 0, 0, 0, 0, 0, 0, 0, 0,0.0,0.0,0.0,0.0,0.0,0.0,0.0,0.5,0.0,0.0,0.0,0.0,0.0,113,httpcore-nio\src\main\java-deprecated\org\apache\http\impl\nio\SSLClientIOEventDispatch.java,0,0,0,0
org.apache.http.impl.nio.SSLContextUtils, 0, 0, 0, 0, 0, 0, 0, 0, 0, 0, 0, 0, 0, 0,0.0,0.0,0.0,0.0,0.0,0.0,0.0,0.0,0.0,0.0,0.0,0.0,0.0,16,httpcore-nio\src\main\java\org\apache\http\impl\nio\SSLContextUtils.java,0,0,0,0
org.apache.http.impl.nio.SSLNHttpClientConnectionFactory, 0, 0, 0, 0, 0, 0, 0, 1, 0, 0, 0, 0, 0, 1,0.0,0.0,0.0,0.0,0.0,0.0,0.0,0.14285714285714285,0.0,0.0,0.0,0.0,0.0,127,httpcore-nio\src\main\java\org\apache\http\impl\nio\SSLNHttpClientConnectionFactory.java,0,0,0,0
org.apache.http.impl.nio.SSLNHttpServerConnectionFactory, 0, 0, 0, 0, 0, 0, 0, 1, 0, 0, 0, 0, 0, 1,0.0,0.0,0.0,0.0,0.0,0.0,0.0,0.16666666666666666,0.0,0.0,0.0,0.0,0.0,125,httpcore-nio\src\main\java\org\apache\http\impl\nio\SSLNHttpServerConnectionFactory.java,0,0,0,0
org.apache.http.impl.nio.SSLServerIOEventDispatch, 0, 0, 0, 0, 0, 0, 0, 0, 0, 0, 0, 0, 0, 0,0.0,0.0,0.0,0.0,0.0,0.0,0.0,0.5,0.0,0.0,0.0,0.0,0.0,112,httpcore-nio\src\main\java-deprecated\org\apache\http\impl\nio\SSLServerIOEventDispatch.java,0,0,0,0
org.apache.http.impl.nio.SessionHttpContext, 0, 0, 0, 0, 0, 0, 0, 0, 0, 0, 0, 0, 0, 0,0.0,0.0,0.0,0.0,0.0,0.0,0.0,0.0,0.0,0.0,0.0,0.0,0.0,19,httpcore-nio\src\main\java\org\apache\http\impl\nio\SessionHttpContext.java,0,0,0,0
org.apache.http.impl.nio.TestContentChannel, 0, 0, 0, 0, 0, 0, 0, 0, 0, 0, 0, 0, 0, 0,0.0,0.0,0.0,0.0,0.0,0.0,0.0,0.0,0.0,0.0,0.0,0.0,0.0,28,httpcore-nio\src\test\java\org\apache\http\impl\nio\TestContentChannel.java,0,0,0,0
org.apache.http.impl.nio.TestDefaultNHttpClientConnection, 0, 0, 0, 0, 0, 0, 0, 0, 0, 0, 0, 0, 0, 0,0.0,0.0,0.0,0.0,0.0,0.0,0.0,0.1,0.0,0.0,0.0,0.0,0.0,466,httpcore-nio\src\test\java\org\apache\http\impl\nio\TestDefaultNHttpClientConnection.java,0,0,0,0
org.apache.http.impl.nio.TestDefaultNHttpServerConnection, 0, 0, 0, 0, 0, 0, 0, 0, 0, 0, 0, 0, 0, 0,0.0,0.0,0.0,0.0,0.0,0.0,0.0,0.125,0.0,0.0,0.0,0.0,0.0,463,httpcore-nio\src\test\java\org\apache\http\impl\nio\TestDefaultNHttpServerConnection.java,0,0,0,0
org.apache.http.impl.nio.TestNHttpConnectionBase, 0, 0, 0, 0, 0, 0, 0, 0, 0, 0, 0, 0, 0, 0,0.0,0.0,0.0,0.0,0.0,0.0,0.0,0.0,0.0,0.0,0.0,0.0,0.0,179,httpcore-nio\src\test\java\org\apache\http\impl\nio\TestNHttpConnectionBase.java,0,0,0,0
org.apache.http.impl.nio.bootstrap.HttpServer, 0, 0, 0, 0, 0, 0, 0, 0, 0, 0, 0, 0, 0, 0,0.0,0.0,0.0,0.16666666666666666,0.0,0.0,0.0,0.0,0.0,0.0,0.0,0.0,0.0,83,httpcore-nio\src\main\java\org\apache\http\impl\nio\bootstrap\HttpServer.java,0,0,0,0
org.apache.http.impl.nio.bootstrap.ThreadFactoryImpl, 0, 0, 0, 0, 0, 0, 0, 0, 0, 0, 0, 0, 0, 0,0.0,0.0,0.0,0.0,0.0,0.0,0.0,0.0,0.0,0.0,0.0,0.0,0.0,17,httpcore-nio\src\main\java\org\apache\http\impl\nio\bootstrap\ThreadFactoryImpl.java,0,0,0,0
org.apache.http.impl.nio.codecs.AbstractContentDecoder, 0, 0, 0, 0, 0, 0, 0, 0, 0, 0, 0, 0, 0, 0,0.0,0.0,0.0,0.0,0.0,0.0,0.0,0.0,0.0,0.0,0.0,0.0,0.0,52,httpcore-nio\src\main\java\org\apache\http\impl\nio\codecs\AbstractContentDecoder.java,0,0,0,0
org.apache.http.impl.nio.codecs.AbstractContentEncoder, 0, 0, 0, 0, 0, 0, 0, 0, 0, 0, 0, 0, 0, 0,0.0,0.0,0.0,0.0,0.0,0.0,0.0,0.0,0.0,0.0,0.0,0.0,0.0,82,httpcore-nio\src\main\java\org\apache\http\impl\nio\codecs\AbstractContentEncoder.java,0,0,0,0
org.apache.http.impl.nio.codecs.AbstractMessageParser, 0, 0, 0, 0, 0, 0, 0, 0, 0, 0, 0, 0, 0, 0,0.0,0.0,0.0,0.0,0.0,0.0,0.0,0.0,0.0,0.0,0.0,0.0,0.0,140,httpcore-nio\src\main\java\org\apache\http\impl\nio\codecs\AbstractMessageParser.java,0,0,0,0
org.apache.http.impl.nio.codecs.AbstractMessageWriter, 0, 0, 0, 0, 0, 0, 0, 0, 0, 0, 0, 0, 0, 0,0.0,0.0,0.0,0.0,0.0,0.0,0.0,0.0,0.0,0.0,0.0,0.0,0.0,39,httpcore-nio\src\main\java\org\apache\http\impl\nio\codecs\AbstractMessageWriter.java,0,0,0,0
org.apache.http.impl.nio.codecs.DefaultHttpRequestParser, 0, 0, 0, 0, 0, 0, 0, 0, 0, 0, 0, 0, 0, 0,0.0,0.0,0.0,0.0,0.0,0.0,0.0,0.25,0.0,0.0,0.0,0.0,0.0,34,httpcore-nio\src\main\java\org\apache\http\impl\nio\codecs\DefaultHttpRequestParser.java,0,0,0,0
org.apache.http.impl.nio.codecs.DefaultHttpRequestParserFactory, 0, 0, 0, 0, 0, 0, 0, 0, 0, 0, 0, 0, 0, 0,0.0,0.0,0.0,0.0,0.0,0.0,0.0,0.3333333333333333,0.0,0.0,0.0,0.0,0.0,20,httpcore-nio\src\main\java\org\apache\http\impl\nio\codecs\DefaultHttpRequestParserFactory.java,0,0,0,0
org.apache.http.impl.nio.codecs.DefaultHttpRequestWriter, 0, 0, 0, 0, 0, 0, 0, 0, 0, 0, 0, 0, 0, 0,0.0,0.0,0.0,0.0,0.0,0.0,0.0,0.3333333333333333,0.0,0.0,0.0,0.0,0.0,22,httpcore-nio\src\main\java\org\apache\http\impl\nio\codecs\DefaultHttpRequestWriter.java,0,0,0,0
org.apache.http.impl.nio.codecs.DefaultHttpRequestWriterFactory, 0, 0, 0, 0, 0, 0, 0, 0, 0, 0, 0, 0, 0, 0,0.0,0.0,0.0,0.0,0.0,0.0,0.0,0.0,0.0,0.0,0.0,0.0,0.0,15,httpcore-nio\src\main\java\org\apache\http\impl\nio\codecs\DefaultHttpRequestWriterFactory.java,0,0,0,0
org.apache.http.impl.nio.codecs.DefaultHttpResponseParser, 0, 0, 0, 0, 0, 0, 0, 0, 0, 0, 0, 0, 0, 0,0.0,0.0,0.0,0.0,0.0,0.0,0.0,0.25,0.0,0.0,0.0,0.0,0.0,35,httpcore-nio\src\main\java\org\apache\http\impl\nio\codecs\DefaultHttpResponseParser.java,0,0,0,0
org.apache.http.impl.nio.codecs.DefaultHttpResponseParserFactory, 0, 0, 0, 0, 0, 0, 0, 0, 0, 0, 0, 0, 0, 0,0.0,0.0,0.0,0.0,0.0,0.0,0.0,0.3333333333333333,0.0,0.0,0.0,0.0,0.0,20,httpcore-nio\src\main\java\org\apache\http\impl\nio\codecs\DefaultHttpResponseParserFactory.java,0,0,0,0
org.apache.http.impl.nio.codecs.DefaultHttpResponseWriter, 0, 0, 0, 0, 0, 0, 0, 0, 0, 0, 0, 0, 0, 0,0.0,0.0,0.0,0.0,0.0,0.0,0.0,0.3333333333333333,0.0,0.0,0.0,0.0,0.0,22,httpcore-nio\src\main\java\org\apache\http\impl\nio\codecs\DefaultHttpResponseWriter.java,0,0,0,0
org.apache.http.impl.nio.codecs.DefaultHttpResponseWriterFactory, 0, 0, 0, 0, 0, 0, 0, 0, 0, 0, 0, 0, 0, 0,0.0,0.0,0.0,0.0,0.0,0.0,0.0,0.0,0.0,0.0,0.0,0.0,0.0,15,httpcore-nio\src\main\java\org\apache\http\impl\nio\codecs\DefaultHttpResponseWriterFactory.java,0,0,0,0
org.apache.http.impl.nio.codecs.HttpRequestParser, 0, 0, 0, 0, 0, 0, 0, 0, 0, 0, 0, 0, 0, 0,0.0,0.0,0.0,0.0,0.0,0.0,0.0,0.0,0.0,0.0,0.0,0.0,0.0,19,httpcore-nio\src\main\java-deprecated\org\apache\http\impl\nio\codecs\HttpRequestParser.java,0,0,0,0
org.apache.http.impl.nio.codecs.HttpRequestWriter, 0, 0, 0, 0, 0, 0, 0, 0, 0, 0, 0, 0, 0, 0,0.0,0.0,0.0,0.0,0.0,0.0,0.0,0.0,0.0,0.0,0.0,0.0,0.0,14,httpcore-nio\src\main\java-deprecated\org\apache\http\impl\nio\codecs\HttpRequestWriter.java,0,0,0,0
org.apache.http.impl.nio.codecs.HttpResponseParser, 0, 0, 0, 0, 0, 0, 0, 0, 0, 0, 0, 0, 0, 0,0.0,0.0,0.0,0.0,0.0,0.0,0.0,0.0,0.0,0.0,0.0,0.0,0.0,19,httpcore-nio\src\main\java-deprecated\org\apache\http\impl\nio\codecs\HttpResponseParser.java,0,0,0,0
org.apache.http.impl.nio.codecs.HttpResponseWriter, 0, 0, 0, 0, 0, 0, 0, 0, 0, 0, 0, 0, 0, 0,0.0,0.0,0.0,0.0,0.0,0.0,0.0,0.0,0.0,0.0,0.0,0.0,0.0,14,httpcore-nio\src\main\java-deprecated\org\apache\http\impl\nio\codecs\HttpResponseWriter.java,0,0,0,0
org.apache.http.impl.nio.codecs.TestChunkDecoder, 0, 0, 0, 0, 0, 0, 0, 0, 0, 0, 0, 0, 0, 0,0.0,0.0,0.0,0.0,0.0,0.0,0.0,0.0,0.0,0.0,0.0,0.0,0.0,443,httpcore-nio\src\test\java\org\apache\http\impl\nio\codecs\TestChunkDecoder.java,0,0,0,0
org.apache.http.impl.nio.codecs.TestChunkEncoder, 0, 0, 0, 0, 0, 0, 0, 0, 0, 0, 0, 0, 0, 0,0.0,0.0,0.0,0.0,0.0,0.0,0.0,0.0,0.0,0.0,0.0,0.0,0.0,143,httpcore-nio\src\test\java\org\apache\http\impl\nio\codecs\TestChunkEncoder.java,0,0,0,0
org.apache.http.impl.nio.codecs.TestHttpMessageParser, 0, 0, 0, 0, 0, 0, 0, 0, 0, 0, 0, 0, 0, 0,0.0,0.0,0.0,0.0,0.0,0.0,0.0,0.0,0.0,0.0,0.0,0.0,0.0,277,httpcore-nio\src\test\java\org\apache\http\impl\nio\codecs\TestHttpMessageParser.java,0,0,0,0
org.apache.http.impl.nio.codecs.TestIdentityDecoder, 0, 0, 0, 0, 0, 0, 0, 0, 0, 0, 0, 0, 0, 0,0.0,0.0,0.0,0.0,0.0,0.0,0.0,0.0,0.0,0.0,0.0,0.0,0.0,224,httpcore-nio\src\test\java\org\apache\http\impl\nio\codecs\TestIdentityDecoder.java,0,0,0,0
org.apache.http.impl.nio.codecs.TestIdentityEncoder, 0, 0, 0, 0, 0, 0, 0, 0, 0, 0, 0, 0, 0, 0,0.0,0.0,0.0,0.0,0.0,0.0,0.0,0.0,0.0,0.0,0.0,0.0,0.0,404,httpcore-nio\src\test\java\org\apache\http\impl\nio\codecs\TestIdentityEncoder.java,0,0,0,0
org.apache.http.impl.nio.codecs.TestLengthDelimitedDecoder, 0, 0, 0, 0, 0, 0, 0, 0, 0, 0, 0, 0, 0, 0,0.0,0.0,0.0,0.0,0.0,0.0,0.0,0.0,0.0,0.0,0.0,0.0,0.0,397,httpcore-nio\src\test\java\org\apache\http\impl\nio\codecs\TestLengthDelimitedDecoder.java,0,0,0,0
org.apache.http.impl.nio.codecs.TestLengthDelimitedEncoder, 0, 0, 0, 0, 0, 0, 0, 0, 0, 0, 0, 0, 0, 0,0.0,0.0,0.0,0.0,0.0,0.0,0.0,0.0,0.0,0.0,0.0,0.0,0.0,481,httpcore-nio\src\test\java\org\apache\http\impl\nio\codecs\TestLengthDelimitedEncoder.java,0,0,0,0
org.apache.http.impl.nio.pool.BasicNIOConnFactory, 0, 0, 0, 0, 0, 0, 0, 0, 0, 0, 0, 0, 0, 0,0.0,0.0,0.0,0.0,0.0,0.0,0.0,0.14285714285714285,0.0,0.0,0.0,0.0,0.0,76,httpcore-nio\src\main\java\org\apache\http\impl\nio\pool\BasicNIOConnFactory.java,0,0,0,0
org.apache.http.impl.nio.pool.BasicNIOConnPool, 0, 0, 0, 0, 0, 0, 0, 0, 0, 0, 0, 0, 0, 0,0.0,0.0,0.0,0.16666666666666666,0.0,0.0,0.0,0.0,0.0,0.0,0.0,0.0,0.0,101,httpcore-nio\src\main\java\org\apache\http\impl\nio\pool\BasicNIOConnPool.java,0,0,0,0
org.apache.http.impl.nio.pool.BasicNIOPoolEntry, 0, 0, 0, 0, 0, 0, 0, 0, 0, 0, 0, 0, 0, 0,0.0,0.0,0.0,0.25,0.0,0.0,0.0,0.0,0.0,0.0,0.0,0.0,0.0,23,httpcore-nio\src\main\java\org\apache\http\impl\nio\pool\BasicNIOPoolEntry.java,0,0,0,0
org.apache.http.impl.nio.pool.TestBasicNIOConnPool, 0, 0, 0, 0, 0, 0, 0, 0, 0, 0, 0, 0, 0, 0,0.0,0.0,0.0,0.0,0.0,0.0,0.0,0.0,0.0,0.0,0.0,0.0,0.0,82,httpcore-nio\src\test\java\org\apache\http\impl\nio\pool\TestBasicNIOConnPool.java,0,0,0,0
org.apache.http.impl.nio.reactor.AbstractIODispatch, 0, 0, 0, 0, 0, 0, 0, 0, 0, 0, 0, 0, 0, 0,0.0,0.0,0.0,0.0,0.0,0.0,0.0,0.0,0.0,0.0,0.0,0.0,0.0,132,httpcore-nio\src\main\java\org\apache\http\impl\nio\reactor\AbstractIODispatch.java,0,0,0,0
org.apache.http.impl.nio.reactor.AbstractIOReactor, 0, 0, 0, 1, 0, 0, 0, 0, 0, 0, 0, 0, 0, 1,0.0,0.0,0.0,0.16666666666666666,0.0,0.0,0.0,0.0,0.0,0.0,0.0,0.0,0.0,323,httpcore-nio\src\main\java\org\apache\http\impl\nio\reactor\AbstractIOReactor.java,0,0,0,0
org.apache.http.impl.nio.reactor.AbstractMultiworkerIOReactor, 0, 0, 0, 1, 0, 0, 0, 0, 0, 0, 0, 0, 0, 1,0.0,0.0,0.0,0.2,0.0,0.0,0.0,0.0,0.0,0.0,0.0,0.0,0.0,327,httpcore-nio\src\main\java\org\apache\http\impl\nio\reactor\AbstractMultiworkerIOReactor.java,0,0,0,0
org.apache.http.impl.nio.reactor.BaseIOReactor, 0, 0, 0, 0, 0, 0, 0, 0, 0, 0, 0, 0, 0, 0,0.0,0.0,0.0,1.0,0.0,0.0,0.0,0.0,0.0,0.0,0.0,0.0,0.0,134,httpcore-nio\src\main\java\org\apache\http\impl\nio\reactor\BaseIOReactor.java,0,0,0,0
org.apache.http.impl.nio.reactor.ChannelEntry, 0, 0, 0, 0, 0, 0, 0, 0, 0, 0, 0, 0, 0, 0,0.0,0.0,0.0,0.4,0.0,0.0,0.0,0.0,0.0,0.0,0.0,0.0,0.0,26,httpcore-nio\src\main\java\org\apache\http\impl\nio\reactor\ChannelEntry.java,0,0,0,0
org.apache.http.impl.nio.reactor.DefaultConnectingIOReactor, 0, 0, 0, 0, 0, 0, 0, 0, 0, 0, 0, 0, 0, 0,0.0,0.0,0.0,0.25,0.0,0.0,0.0,0.0,0.0,0.0,0.0,0.0,0.0,175,httpcore-nio\src\main\java\org\apache\http\impl\nio\reactor\DefaultConnectingIOReactor.java,0,0,0,0
org.apache.http.impl.nio.reactor.DefaultListeningIOReactor, 0, 0, 0, 0, 0, 0, 0, 0, 0, 0, 0, 0, 0, 0,0.0,0.0,0.0,0.125,0.0,0.0,0.0,0.0,0.0,0.0,0.0,0.0,0.0,200,httpcore-nio\src\main\java\org\apache\http\impl\nio\reactor\DefaultListeningIOReactor.java,0,0,0,0
org.apache.http.impl.nio.reactor.ExceptionEventTest, 0, 0, 0, 0, 0, 0, 0, 0, 0, 0, 0, 0, 0, 0,0.0,0.0,0.0,0.0,0.0,0.0,0.0,0.0,0.0,0.0,0.0,0.0,0.0,22,httpcore-nio\src\test\java\org\apache\http\impl\nio\reactor\ExceptionEventTest.java,0,0,0,0
org.apache.http.impl.nio.reactor.InterestOpEntry, 0, 0, 0, 0, 0, 0, 0, 0, 0, 0, 0, 0, 0, 0,0.0,0.0,0.0,1.0,0.0,0.0,0.0,0.0,0.0,0.0,0.0,0.0,0.0,32,httpcore-nio\src\main\java\org\apache\http\impl\nio\reactor\InterestOpEntry.java,0,0,0,0
org.apache.http.impl.nio.reactor.InterestOpsCallback, 0, 0, 0, 0, 0, 0, 0, 0, 0, 0, 0, 0, 0, 0,0.0,0.0,0.0,0.0,0.0,0.0,0.0,0.0,0.0,0.0,0.0,0.0,0.0,32,httpcore-nio\src\main\java\org\apache\http\impl\nio\reactor\InterestOpsCallback.java,0,0,0,0
org.apache.http.impl.nio.reactor.ListenerEndpointClosedCallback, 0, 0, 0, 0, 0, 0, 0, 0, 0, 0, 0, 0, 0, 0,0.0,0.0,0.0,0.0,0.0,0.0,0.0,0.0,0.0,0.0,0.0,0.0,0.0,32,httpcore-nio\src\main\java\org\apache\http\impl\nio\reactor\ListenerEndpointClosedCallback.java,0,0,0,0
org.apache.http.impl.nio.reactor.ListenerEndpointImpl, 0, 0, 0, 0, 0, 0, 0, 0, 0, 0, 0, 0, 0, 0,0.0,0.0,0.0,0.0,0.0,0.0,0.0,0.0,0.0,0.0,0.0,0.0,0.0,100,httpcore-nio\src\main\java\org\apache\http\impl\nio\reactor\ListenerEndpointImpl.java,0,0,0,0
org.apache.http.impl.nio.reactor.SSLIOSession, 0, 0, 0, 0, 0, 0, 0, 0, 0, 0, 0, 0, 0, 0,0.0,0.0,0.0,0.0,0.0,0.0,0.0,0.0,0.0,0.0,0.0,0.0,0.0,36,httpcore-nio\src\main\java-deprecated\org\apache\http\impl\nio\reactor\SSLIOSession.java,0,0,0,0
org.apache.http.impl.nio.reactor.SSLIOSessionHandler, 0, 0, 0, 0, 0, 0, 0, 0, 0, 0, 0, 0, 0, 0,0.0,0.0,0.0,0.0,0.0,0.0,0.0,0.0,0.0,0.0,0.0,0.0,0.0,36,httpcore-nio\src\main\java-deprecated\org\apache\http\impl\nio\reactor\SSLIOSessionHandler.java,0,0,0,0
org.apache.http.impl.nio.reactor.SSLIOSessionHandlerAdaptor, 0, 0, 0, 0, 0, 0, 0, 0, 0, 0, 0, 0, 0, 0,0.0,0.0,0.0,0.0,0.0,0.0,0.0,0.0,0.0,0.0,0.0,0.0,0.0,17,httpcore-nio\src\main\java-deprecated\org\apache\http\impl\nio\reactor\SSLIOSessionHandlerAdaptor.java,0,0,0,0
org.apache.http.impl.nio.reactor.SSLSetupHandler, 0, 0, 0, 0, 0, 0, 0, 0, 0, 0, 0, 0, 0, 0,0.0,0.0,0.0,0.0,0.0,0.0,0.0,0.0,0.0,0.0,0.0,0.0,0.0,17,httpcore-nio\src\main\java-deprecated\org\apache\http\impl\nio\reactor\SSLSetupHandler.java,0,0,0,0
org.apache.http.impl.nio.reactor.SSLSetupHandlerAdaptor, 0, 0, 0, 0, 0, 0, 0, 0, 0, 0, 0, 0, 0, 0,0.0,0.0,0.0,0.0,0.0,0.0,0.0,0.0,0.0,0.0,0.0,0.0,0.0,17,httpcore-nio\src\main\java-deprecated\org\apache\http\impl\nio\reactor\SSLSetupHandlerAdaptor.java,0,0,0,0
org.apache.http.impl.nio.reactor.SessionClosedCallback, 0, 0, 0, 0, 0, 0, 0, 0, 0, 0, 0, 0, 0, 0,0.0,0.0,0.0,0.0,0.0,0.0,0.0,0.0,0.0,0.0,0.0,0.0,0.0,17,httpcore-nio\src\main\java\org\apache\http\impl\nio\reactor\SessionClosedCallback.java,0,0,0,0
org.apache.http.impl.nio.reactor.SessionHandle, 0, 0, 0, 0, 0, 0, 0, 0, 0, 0, 0, 0, 0, 0,0.0,0.0,0.0,0.0,0.0,0.0,0.0,0.0,0.0,0.0,0.0,0.0,0.0,42,httpcore-nio\src\main\java-deprecated\org\apache\http\impl\nio\reactor\SessionHandle.java,0,0,0,0
org.apache.http.impl.nio.reactor.SessionRequestHandle, 0, 0, 0, 0, 0, 0, 0, 0, 0, 0, 0, 0, 0, 0,0.0,0.0,0.0,0.0,0.0,0.0,0.0,0.0,0.0,0.0,0.0,0.0,0.0,16,httpcore-nio\src\main\java\org\apache\http\impl\nio\reactor\SessionRequestHandle.java,0,0,0,0
org.apache.http.impl.nio.reactor.SessionRequestImpl, 0, 0, 0, 0, 0, 0, 0, 0, 0, 0, 0, 0, 0, 0,0.0,0.0,0.0,0.25,0.0,0.0,0.0,0.0,0.0,0.0,0.0,0.0,0.0,162,httpcore-nio\src\main\java\org\apache\http\impl\nio\reactor\SessionRequestImpl.java,0,0,0,0
org.apache.http.impl.nio.reactor.TestDefaultIOReactors, 0, 0, 0, 0, 0, 0, 0, 0, 0, 0, 0, 0, 0, 0,0.0,0.0,0.0,0.16666666666666666,0.0,0.0,0.0,0.0,0.0,0.0,0.0,0.0,0.0,245,httpcore-nio\src\test\java\org\apache\http\impl\nio\reactor\TestDefaultIOReactors.java,0,0,0,0
org.apache.http.impl.nio.reactor.TestDefaultListeningIOReactor, 0, 0, 0, 0, 0, 0, 0, 0, 0, 0, 0, 0, 0, 0,0.0,0.0,0.0,0.1111111111111111,0.0,0.0,0.0,0.0,0.0,0.0,0.0,0.0,0.0,118,httpcore-nio\src\test\java\org\apache\http\impl\nio\reactor\TestDefaultListeningIOReactor.java,0,0,0,0
org.apache.http.impl.nio.ssl.SSLClientIOEventDispatch, 0, 0, 0, 0, 0, 0, 0, 0, 0, 0, 0, 0, 0, 0,0.0,0.0,0.0,0.0,0.0,0.0,0.0,0.0,0.0,0.0,0.0,0.0,0.0,50,httpcore-nio\src\main\java-deprecated\org\apache\http\impl\nio\ssl\SSLClientIOEventDispatch.java,0,0,0,0
org.apache.http.impl.nio.ssl.SSLServerIOEventDispatch, 0, 0, 0, 0, 0, 0, 0, 0, 0, 0, 0, 0, 0, 0,0.0,0.0,0.0,0.0,0.0,0.0,0.0,0.0,0.0,0.0,0.0,0.0,0.0,49,httpcore-nio\src\main\java-deprecated\org\apache\http\impl\nio\ssl\SSLServerIOEventDispatch.java,0,0,0,0
org.apache.http.impl.pool.BasicConnFactory, 0, 0, 0, 0, 0, 0, 0, 0, 0, 0, 0, 0, 0, 0,0.0,0.0,0.0,0.0,0.0,0.0,0.0,0.16666666666666666,0.0,0.0,0.0,0.0,0.0,92,httpcore\src\main\java\org\apache\http\impl\pool\BasicConnFactory.java,0,0,0,0
org.apache.http.impl.pool.BasicConnPool, 0, 0, 0, 0, 0, 0, 0, 0, 0, 0, 0, 0, 0, 0,0.0,0.0,0.0,0.0,0.0,0.0,0.0,0.0,0.0,0.0,0.0,0.0,0.0,26,httpcore\src\main\java\org\apache\http\impl\pool\BasicConnPool.java,0,0,0,0
org.apache.http.impl.pool.BasicPoolEntry, 0, 0, 0, 0, 0, 0, 0, 0, 0, 0, 0, 0, 0, 0,0.0,0.0,0.0,0.0,0.0,0.0,0.0,0.0,0.0,0.0,0.0,0.0,0.0,16,httpcore\src\main\java\org\apache\http\impl\pool\BasicPoolEntry.java,0,0,0,0
org.apache.http.impl.pool.TestBasicConnPool, 0, 0, 0, 0, 0, 0, 0, 0, 0, 0, 0, 0, 0, 0,0.0,0.0,0.0,0.0,0.0,0.0,0.0,0.0,0.0,0.0,0.0,0.0,0.0,58,httpcore\src\test\java\org\apache\http\impl\pool\TestBasicConnPool.java,0,0,0,0
org.apache.http.integration.TestSyncHttp, 0, 0, 0, 0, 0, 0, 0, 0, 0, 0, 0, 0, 0, 0,0.0,0.0,0.0,0.0,0.0,0.0,0.0,0.0,0.0,0.0,0.0,0.0,0.0,691,httpcore\src\test\java\org\apache\http\integration\TestSyncHttp.java,0,0,0,0
org.apache.http.io.BufferInfo, 0, 0, 0, 0, 0, 0, 0, 0, 0, 0, 0, 0, 0, 0,0.0,0.0,0.0,0.0,0.0,0.0,0.0,0.0,0.0,0.0,0.0,0.0,0.0,691,httpcore\src\main\java\org\apache\http\io\BufferInfo.java,0,0,0,0
org.apache.http.io.EofSensor, 0, 0, 0, 0, 0, 0, 0, 0, 0, 0, 0, 0, 0, 0,0.0,0.0,0.0,0.0,0.0,0.0,0.0,0.0,0.0,0.0,0.0,0.0,0.0,691,httpcore\src\main\java\org\apache\http\io\EofSensor.java,0,0,0,0
org.apache.http.io.HttpMessageParser, 0, 0, 0, 0, 0, 0, 0, 0, 0, 0, 0, 0, 0, 0,0.0,0.0,0.0,0.0,0.0,0.0,0.0,0.0,0.0,0.0,0.0,0.0,0.0,691,httpcore\src\main\java\org\apache\http\io\HttpMessageParser.java,0,0,0,0
org.apache.http.io.HttpMessageParserFactory, 0, 0, 0, 0, 0, 0, 0, 0, 0, 0, 0, 0, 0, 0,0.0,0.0,0.0,0.0,0.0,0.0,0.0,0.0,0.0,0.0,0.0,0.0,0.0,691,httpcore\src\main\java\org\apache\http\io\HttpMessageParserFactory.java,0,0,0,0
org.apache.http.io.HttpMessageWriter, 0, 0, 0, 0, 0, 0, 0, 0, 0, 0, 0, 0, 0, 0,0.0,0.0,0.0,0.0,0.0,0.0,0.0,0.0,0.0,0.0,0.0,0.0,0.0,691,httpcore\src\main\java\org\apache\http\io\HttpMessageWriter.java,0,0,0,0
org.apache.http.io.HttpMessageWriterFactory, 0, 0, 0, 0, 0, 0, 0, 0, 0, 0, 0, 0, 0, 0,0.0,0.0,0.0,0.0,0.0,0.0,0.0,0.0,0.0,0.0,0.0,0.0,0.0,691,httpcore\src\main\java\org\apache\http\io\HttpMessageWriterFactory.java,0,0,0,0
org.apache.http.io.HttpTransportMetrics, 0, 0, 0, 0, 0, 0, 0, 0, 0, 0, 0, 0, 0, 0,0.0,0.0,0.0,0.0,0.0,0.0,0.0,0.0,0.0,0.0,0.0,0.0,0.0,691,httpcore\src\main\java\org\apache\http\io\HttpTransportMetrics.java,0,0,0,0
org.apache.http.io.SessionInputBuffer, 0, 0, 0, 0, 0, 0, 0, 0, 0, 0, 0, 0, 0, 0,0.0,0.0,0.0,0.0,0.0,0.0,0.0,0.0,0.0,0.0,0.0,0.0,0.0,691,httpcore\src\main\java\org\apache\http\io\SessionInputBuffer.java,0,0,0,0
org.apache.http.io.SessionOutputBuffer, 0, 0, 0, 0, 0, 0, 0, 0, 0, 0, 0, 0, 0, 0,0.0,0.0,0.0,0.0,0.0,0.0,0.0,0.0,0.0,0.0,0.0,0.0,0.0,691,httpcore\src\main\java\org\apache\http\io\SessionOutputBuffer.java,0,0,0,0
org.apache.http.message.AbstractHttpMessage, 0, 0, 0, 0, 0, 0, 0, 0, 0, 0, 0, 0, 0, 0,0.0,0.0,0.0,0.18181818181818182,0.0,0.0,0.0,0.0,0.0,0.0,0.0,0.0,0.0,93,httpcore\src\main\java\org\apache\http\message\AbstractHttpMessage.java,0,0,0,0
org.apache.http.message.BasicHeader, 0, 0, 0, 0, 0, 0, 0, 0, 0, 0, 0, 0, 0, 0,0.0,0.0,0.0,0.06666666666666667,0.0,0.0,0.0,0.0,0.0,0.0,0.0,0.0,0.0,34,httpcore\src\main\java\org\apache\http\message\BasicHeader.java,0,0,0,0
org.apache.http.message.BasicHeaderElementIterator, 0, 0, 0, 0, 0, 0, 0, 0, 0, 0, 0, 0, 0, 0,0.0,0.0,0.0,0.0,0.0,0.0,0.0,0.0,0.0,0.0,0.0,0.0,0.0,84,httpcore\src\main\java\org\apache\http\message\BasicHeaderElementIterator.java,0,0,0,0
org.apache.http.message.BasicHeaderIterator, 0, 0, 0, 0, 0, 0, 0, 0, 0, 0, 0, 0, 0, 0,0.0,0.0,0.0,0.0,0.0,0.0,0.0,0.0,0.0,0.0,0.0,0.0,0.0,53,httpcore\src\main\java\org\apache\http\message\BasicHeaderIterator.java,0,0,0,0
org.apache.http.message.BasicHeaderValueFormatter, 0, 0, 0, 0, 0, 0, 0, 0, 0, 0, 0, 0, 0, 0,0.0,0.0,0.0,0.0,0.0,0.0,0.0,0.0,0.0,0.0,0.0,0.0,0.0,204,httpcore\src\main\java\org\apache\http\message\BasicHeaderValueFormatter.java,0,0,0,0
org.apache.http.message.BasicHeaderValueParser, 0, 0, 0, 0, 0, 0, 0, 0, 0, 0, 0, 0, 0, 0,0.0,0.0,0.0,0.0,0.0,0.0,0.0,0.0,0.0,0.0,0.0,0.0,0.0,158,httpcore\src\main\java\org\apache\http\message\BasicHeaderValueParser.java,0,0,0,0
org.apache.http.message.BasicHttpEntityEnclosingRequest, 0, 0, 0, 0, 0, 0, 0, 0, 0, 0, 0, 0, 0, 0,0.0,0.0,0.0,0.21428571428571427,0.0,0.0,0.0,0.0,0.0,0.0,0.0,0.0,0.0,27,httpcore\src\main\java\org\apache\http\message\BasicHttpEntityEnclosingRequest.java,0,0,0,0
org.apache.http.message.BasicHttpRequest, 0, 0, 0, 0, 0, 0, 0, 0, 0, 0, 0, 0, 0, 0,0.0,0.0,0.0,0.14285714285714285,0.0,0.0,0.0,0.0,0.0,0.0,0.0,0.0,0.0,35,httpcore\src\main\java\org\apache\http\message\BasicHttpRequest.java,0,0,0,0
org.apache.http.message.BasicLineFormatter, 0, 0, 0, 0, 0, 0, 0, 0, 0, 0, 0, 0, 0, 0,0.0,0.0,0.0,0.0,0.0,0.0,0.0,0.0,0.0,0.0,0.0,0.0,0.0,133,httpcore\src\main\java\org\apache\http\message\BasicLineFormatter.java,0,0,0,0
org.apache.http.message.BasicLineParser, 0, 0, 0, 0, 0, 0, 0, 0, 0, 0, 0, 0, 0, 0,0.0,0.0,0.0,0.16666666666666666,0.0,0.0,0.0,0.0,0.0,0.0,0.0,0.0,0.0,251,httpcore\src\main\java\org\apache\http\message\BasicLineParser.java,0,0,0,0
org.apache.http.message.BasicListHeaderIterator, 0, 0, 0, 0, 0, 0, 0, 0, 0, 0, 0, 0, 0, 0,0.0,0.0,0.0,0.0,0.0,0.0,0.0,0.0,0.0,0.0,0.0,0.0,0.0,61,httpcore\src\main\java\org\apache\http\message\BasicListHeaderIterator.java,0,0,0,0
org.apache.http.message.BasicRequestLine, 0, 0, 0, 0, 0, 0, 0, 0, 0, 0, 0, 0, 0, 0,0.0,0.0,0.0,0.0,0.0,0.0,0.0,0.0,0.0,0.0,0.0,0.0,0.0,34,httpcore\src\main\java\org\apache\http\message\BasicRequestLine.java,0,0,0,0
org.apache.http.message.BasicStatusLine, 0, 0, 0, 0, 0, 0, 0, 0, 0, 0, 0, 0, 0, 0,0.0,0.0,0.0,0.0,0.0,0.0,0.0,0.0,0.0,0.0,0.0,0.0,0.0,33,httpcore\src\main\java\org\apache\http\message\BasicStatusLine.java,0,0,0,0
org.apache.http.message.BufferedHeader, 0, 0, 0, 0, 0, 0, 0, 0, 0, 0, 0, 0, 0, 0,0.0,0.0,0.0,0.0,0.0,0.0,0.0,0.0,0.0,0.0,0.0,0.0,0.0,54,httpcore\src\main\java\org\apache\http\message\BufferedHeader.java,0,0,0,0
org.apache.http.message.HeaderGroup, 0, 0, 0, 0, 0, 0, 0, 0, 0, 0, 0, 0, 0, 0,0.0,0.0,0.0,0.0,0.0,0.0,0.0,0.0,0.0,0.0,0.0,0.0,0.0,117,httpcore\src\main\java\org\apache\http\message\HeaderGroup.java,0,0,0,0
org.apache.http.message.HeaderValueFormatter, 0, 0, 0, 0, 0, 0, 0, 0, 0, 0, 0, 0, 0, 0,0.0,0.0,0.0,0.0,0.0,0.0,0.0,0.0,0.0,0.0,0.0,0.0,0.0,117,httpcore\src\main\java\org\apache\http\message\HeaderValueFormatter.java,0,0,0,0
org.apache.http.message.HeaderValueParser, 0, 0, 0, 0, 0, 0, 0, 0, 0, 0, 0, 0, 0, 0,0.0,0.0,0.0,0.0,0.0,0.0,0.0,0.0,0.0,0.0,0.0,0.0,0.0,117,httpcore\src\main\java\org\apache\http\message\HeaderValueParser.java,0,0,0,0
org.apache.http.message.LineFormatter, 0, 0, 0, 0, 0, 0, 0, 0, 0, 0, 0, 0, 0, 0,0.0,0.0,0.0,0.0,0.0,0.0,0.0,0.0,0.0,0.0,0.0,0.0,0.0,117,httpcore\src\main\java\org\apache\http\message\LineFormatter.java,0,0,0,0
org.apache.http.message.LineParser, 0, 0, 0, 0, 0, 0, 0, 0, 0, 0, 0, 0, 0, 0,0.0,0.0,0.0,0.0,0.0,0.0,0.0,0.0,0.0,0.0,0.0,0.0,0.0,117,httpcore\src\main\java\org\apache\http\message\LineParser.java,0,0,0,0
org.apache.http.message.TestAbstractMessage, 0, 0, 0, 0, 0, 0, 0, 0, 0, 0, 0, 0, 0, 0,0.0,0.0,0.0,0.0,0.0,0.0,0.0,0.0,0.0,0.0,0.0,0.0,0.0,84,httpcore\src\test\java\org\apache\http\message\TestAbstractMessage.java,0,0,0,0
org.apache.http.message.TestBasicHeaderElementIterator, 0, 0, 0, 0, 0, 0, 0, 0, 0, 0, 0, 0, 0, 0,0.0,0.0,0.0,0.0,0.0,0.0,0.0,0.0,0.0,0.0,0.0,0.0,0.0,80,httpcore\src\test\java\org\apache\http\message\TestBasicHeaderElementIterator.java,0,0,0,0
org.apache.http.message.TestBasicHeaderIterator, 0, 0, 0, 0, 0, 0, 0, 0, 0, 0, 0, 0, 0, 0,0.0,0.0,0.0,0.0,0.0,0.0,0.0,0.0,0.0,0.0,0.0,0.0,0.0,193,httpcore\src\test\java\org\apache\http\message\TestBasicHeaderIterator.java,0,0,0,0
org.apache.http.message.TestBasicHeaderValueFormatter, 0, 0, 0, 0, 0, 0, 0, 0, 0, 0, 0, 0, 0, 0,0.0,0.0,0.0,0.0,0.0,0.0,0.0,0.0,0.0,0.0,0.0,0.0,0.0,126,httpcore\src\test\java\org\apache\http\message\TestBasicHeaderValueFormatter.java,0,0,0,0
org.apache.http.message.TestBasicHeaderValueParser, 0, 0, 0, 0, 0, 0, 0, 0, 0, 0, 0, 0, 0, 0,0.0,0.0,0.0,0.0,0.0,0.0,0.0,0.0,0.0,0.0,0.0,0.0,0.0,262,httpcore\src\test\java\org\apache\http\message\TestBasicHeaderValueParser.java,0,0,0,0
org.apache.http.message.TestBasicHttpResponse, 0, 0, 0, 0, 0, 0, 0, 0, 0, 0, 0, 0, 0, 0,0.0,0.0,0.0,0.0,0.0,0.0,0.0,0.0,0.0,0.0,0.0,0.0,0.0,61,httpcore\src\test\java\org\apache\http\message\TestBasicHttpResponse.java,0,0,0,0
org.apache.http.message.TestBasicLineFormatter, 0, 0, 0, 0, 0, 0, 0, 0, 0, 0, 0, 0, 0, 0,0.0,0.0,0.0,0.0,0.0,0.0,0.0,0.0,0.0,0.0,0.0,0.0,0.0,92,httpcore\src\test\java\org\apache\http\message\TestBasicLineFormatter.java,0,0,0,0
org.apache.http.message.TestBasicLineParser, 0, 0, 0, 0, 0, 0, 0, 0, 0, 0, 0, 0, 0, 0,0.0,0.0,0.0,0.0,0.0,0.0,0.0,0.0,0.0,0.0,0.0,0.0,0.0,225,httpcore\src\test\java\org\apache\http\message\TestBasicLineParser.java,0,0,0,0
org.apache.http.message.TestBasicMessages, 0, 0, 0, 0, 0, 0, 0, 0, 0, 0, 0, 0, 0, 0,0.0,0.0,0.0,0.0,0.0,0.0,0.0,0.0,0.0,0.0,0.0,0.0,0.0,104,httpcore\src\test\java\org\apache\http\message\TestBasicMessages.java,0,0,0,0
org.apache.http.message.TestBasicTokenIterator, 0, 0, 0, 0, 0, 0, 0, 0, 0, 0, 0, 0, 0, 0,0.0,0.0,0.0,0.0,0.0,0.0,0.0,0.0,0.0,0.0,0.0,0.0,0.0,221,httpcore\src\test\java\org\apache\http\message\TestBasicTokenIterator.java,0,0,0,0
org.apache.http.message.TestBufferedHeader, 0, 0, 0, 0, 0, 0, 0, 0, 0, 0, 0, 0, 0, 0,0.0,0.0,0.0,0.0,0.0,0.0,0.0,0.0,0.0,0.0,0.0,0.0,0.0,61,httpcore\src\test\java\org\apache\http\message\TestBufferedHeader.java,0,0,0,0
org.apache.http.message.TestHeader, 0, 0, 0, 0, 0, 0, 0, 0, 0, 0, 0, 0, 0, 0,0.0,0.0,0.0,0.0,0.0,0.0,0.0,0.0,0.0,0.0,0.0,0.0,0.0,68,httpcore\src\test\java\org\apache\http\message\TestHeader.java,0,0,0,0
org.apache.http.message.TestHeaderElement, 0, 0, 0, 0, 0, 0, 0, 0, 0, 0, 0, 0, 0, 0,0.0,0.0,0.0,0.0,0.0,0.0,0.0,0.0,0.0,0.0,0.0,0.0,0.0,115,httpcore\src\test\java\org\apache\http\message\TestHeaderElement.java,0,0,0,0
org.apache.http.message.TestHeaderGroup, 0, 0, 0, 0, 0, 0, 0, 0, 0, 0, 0, 0, 0, 0,0.0,0.0,0.0,0.0,0.0,0.0,0.0,0.0,0.0,0.0,0.0,0.0,0.0,156,httpcore\src\test\java\org\apache\http\message\TestHeaderGroup.java,0,0,0,0
org.apache.http.message.TestNameValuePair, 0, 0, 0, 0, 0, 0, 0, 0, 0, 0, 0, 0, 0, 0,0.0,0.0,0.0,0.0,0.0,0.0,0.0,0.0,0.0,0.0,0.0,0.0,0.0,49,httpcore\src\test\java\org\apache\http\message\TestNameValuePair.java,0,0,0,0
org.apache.http.message.TestRequestLine, 0, 0, 0, 0, 0, 0, 0, 0, 0, 0, 0, 0, 0, 0,0.0,0.0,0.0,0.0,0.0,0.0,0.0,0.0,0.0,0.0,0.0,0.0,0.0,47,httpcore\src\test\java\org\apache\http\message\TestRequestLine.java,0,0,0,0
org.apache.http.message.TestStatusLine, 0, 0, 0, 0, 0, 0, 0, 0, 0, 0, 0, 0, 0, 0,0.0,0.0,0.0,0.0,0.0,0.0,0.0,0.0,0.0,0.0,0.0,0.0,0.0,50,httpcore\src\test\java\org\apache\http\message\TestStatusLine.java,0,0,0,0
org.apache.http.message.TestTokenParser, 0, 0, 0, 0, 0, 0, 0, 0, 0, 0, 0, 0, 0, 0,0.0,0.0,0.0,0.0,0.0,0.0,0.0,0.0,0.0,0.0,0.0,0.0,0.0,128,httpcore\src\test\java\org\apache\http\message\TestTokenParser.java,0,0,0,0
org.apache.http.nio.ContentDecoder, 0, 0, 0, 0, 0, 0, 0, 0, 0, 0, 0, 0, 0, 0,0.0,0.0,0.0,0.0,0.0,0.0,0.0,0.0,0.0,0.0,0.0,0.0,0.0,128,httpcore-nio\src\main\java\org\apache\http\nio\ContentDecoder.java,0,0,0,0
org.apache.http.nio.ContentDecoderChannel, 0, 0, 0, 0, 0, 0, 0, 0, 0, 0, 0, 0, 0, 0,0.0,0.0,0.0,0.0,0.0,0.0,0.0,0.0,0.0,0.0,0.0,0.0,0.0,16,httpcore-nio\src\main\java\org\apache\http\nio\ContentDecoderChannel.java,0,0,0,0
org.apache.http.nio.ContentEncoder, 0, 0, 0, 0, 0, 0, 0, 0, 0, 0, 0, 0, 0, 0,0.0,0.0,0.0,0.0,0.0,0.0,0.0,0.0,0.0,0.0,0.0,0.0,0.0,16,httpcore-nio\src\main\java\org\apache\http\nio\ContentEncoder.java,0,0,0,0
org.apache.http.nio.ContentEncoderChannel, 0, 0, 0, 0, 0, 0, 0, 0, 0, 0, 0, 0, 0, 0,0.0,0.0,0.0,0.0,0.0,0.0,0.0,0.0,0.0,0.0,0.0,0.0,0.0,16,httpcore-nio\src\main\java\org\apache\http\nio\ContentEncoderChannel.java,0,0,0,0
org.apache.http.nio.FileContentDecoder, 0, 0, 0, 0, 0, 0, 0, 0, 0, 0, 0, 0, 0, 0,0.0,0.0,0.0,0.0,0.0,0.0,0.0,0.0,0.0,0.0,0.0,0.0,0.0,16,httpcore-nio\src\main\java\org\apache\http\nio\FileContentDecoder.java,0,0,0,0
org.apache.http.nio.FileContentEncoder, 0, 0, 0, 0, 0, 0, 0, 0, 0, 0, 0, 0, 0, 0,0.0,0.0,0.0,0.0,0.0,0.0,0.0,0.0,0.0,0.0,0.0,0.0,0.0,16,httpcore-nio\src\main\java\org\apache\http\nio\FileContentEncoder.java,0,0,0,0
org.apache.http.nio.IOControl, 0, 0, 0, 0, 0, 0, 0, 0, 0, 0, 0, 0, 0, 0,0.0,0.0,0.0,0.0,0.0,0.0,0.0,0.0,0.0,0.0,0.0,0.0,0.0,16,httpcore-nio\src\main\java\org\apache\http\nio\IOControl.java,0,0,0,0
org.apache.http.nio.NHttpClientConnection, 0, 0, 0, 0, 0, 0, 0, 0, 0, 0, 0, 0, 0, 0,0.0,0.0,0.0,0.0,0.0,0.0,0.0,0.0,0.0,0.0,0.0,0.0,0.0,16,httpcore-nio\src\main\java\org\apache\http\nio\NHttpClientConnection.java,0,0,0,0
org.apache.http.nio.NHttpClientEventHandler, 0, 0, 0, 0, 0, 0, 0, 0, 0, 0, 0, 0, 0, 0,0.0,0.0,0.0,0.0,0.0,0.0,0.0,0.0,0.0,0.0,0.0,0.0,0.0,16,httpcore-nio\src\main\java\org\apache\http\nio\NHttpClientEventHandler.java,0,0,0,0
org.apache.http.nio.NHttpClientHandler, 0, 0, 0, 0, 0, 0, 0, 0, 0, 0, 0, 0, 0, 0,0.0,0.0,0.0,0.0,0.0,0.0,0.0,0.0,0.0,0.0,0.0,0.0,0.0,16,httpcore-nio\src\main\java\org\apache\http\nio\NHttpClientHandler.java,0,0,0,0
org.apache.http.nio.NHttpClientIOTarget, 0, 0, 0, 0, 0, 0, 0, 0, 0, 0, 0, 0, 0, 0,0.0,0.0,0.0,0.0,0.0,0.0,0.0,0.0,0.0,0.0,0.0,0.0,0.0,16,httpcore-nio\src\main\java\org\apache\http\nio\NHttpClientIOTarget.java,0,0,0,0
org.apache.http.nio.NHttpConnection, 0, 0, 0, 0, 0, 0, 0, 0, 0, 0, 0, 0, 0, 0,0.0,0.0,0.0,0.0,0.0,0.0,0.0,0.0,0.0,0.0,0.0,0.0,0.0,16,httpcore-nio\src\main\java\org\apache\http\nio\NHttpConnection.java,0,0,0,0
org.apache.http.nio.NHttpConnectionFactory, 0, 0, 0, 0, 0, 0, 0, 0, 0, 0, 0, 0, 0, 0,0.0,0.0,0.0,0.0,0.0,0.0,0.0,0.0,0.0,0.0,0.0,0.0,0.0,16,httpcore-nio\src\main\java\org\apache\http\nio\NHttpConnectionFactory.java,0,0,0,0
org.apache.http.nio.NHttpMessageParser, 0, 0, 0, 0, 0, 0, 0, 0, 0, 0, 0, 0, 0, 0,0.0,0.0,0.0,0.0,0.0,0.0,0.0,0.0,0.0,0.0,0.0,0.0,0.0,16,httpcore-nio\src\main\java\org\apache\http\nio\NHttpMessageParser.java,0,0,0,0
org.apache.http.nio.NHttpMessageParserFactory, 0, 0, 0, 0, 0, 0, 0, 0, 0, 0, 0, 0, 0, 0,0.0,0.0,0.0,0.0,0.0,0.0,0.0,0.0,0.0,0.0,0.0,0.0,0.0,16,httpcore-nio\src\main\java\org\apache\http\nio\NHttpMessageParserFactory.java,0,0,0,0
org.apache.http.nio.NHttpMessageWriter, 0, 0, 0, 0, 0, 0, 0, 0, 0, 0, 0, 0, 0, 0,0.0,0.0,0.0,0.0,0.0,0.0,0.0,0.0,0.0,0.0,0.0,0.0,0.0,16,httpcore-nio\src\main\java\org\apache\http\nio\NHttpMessageWriter.java,0,0,0,0
org.apache.http.nio.NHttpMessageWriterFactory, 0, 0, 0, 0, 0, 0, 0, 0, 0, 0, 0, 0, 0, 0,0.0,0.0,0.0,0.0,0.0,0.0,0.0,0.0,0.0,0.0,0.0,0.0,0.0,16,httpcore-nio\src\main\java\org\apache\http\nio\NHttpMessageWriterFactory.java,0,0,0,0
org.apache.http.nio.NHttpServerConnection, 0, 0, 0, 0, 0, 0, 0, 0, 0, 0, 0, 0, 0, 0,0.0,0.0,0.0,0.0,0.0,0.0,0.0,0.0,0.0,0.0,0.0,0.0,0.0,16,httpcore-nio\src\main\java\org\apache\http\nio\NHttpServerConnection.java,0,0,0,0
org.apache.http.nio.NHttpServerEventHandler, 0, 0, 0, 0, 0, 0, 0, 0, 0, 0, 0, 0, 0, 0,0.0,0.0,0.0,0.0,0.0,0.0,0.0,0.0,0.0,0.0,0.0,0.0,0.0,16,httpcore-nio\src\main\java\org\apache\http\nio\NHttpServerEventHandler.java,0,0,0,0
org.apache.http.nio.NHttpServerIOTarget, 0, 0, 0, 0, 0, 0, 0, 0, 0, 0, 0, 0, 0, 0,0.0,0.0,0.0,0.0,0.0,0.0,0.0,0.0,0.0,0.0,0.0,0.0,0.0,16,httpcore-nio\src\main\java\org\apache\http\nio\NHttpServerIOTarget.java,0,0,0,0
org.apache.http.nio.NHttpServiceHandler, 0, 0, 0, 0, 0, 0, 0, 0, 0, 0, 0, 0, 0, 0,0.0,0.0,0.0,0.0,0.0,0.0,0.0,0.0,0.0,0.0,0.0,0.0,0.0,16,httpcore-nio\src\main\java\org\apache\http\nio\NHttpServiceHandler.java,0,0,0,0
org.apache.http.nio.entity.BufferingNHttpEntity, 0, 0, 0, 0, 0, 0, 0, 0, 0, 0, 0, 0, 0, 0,0.0,0.0,0.0,0.0,0.0,0.0,0.0,0.0,0.0,0.0,0.0,0.0,0.0,49,httpcore-nio\src\main\java-deprecated\org\apache\http\nio\entity\BufferingNHttpEntity.java,0,0,0,0
org.apache.http.nio.entity.ConsumingNHttpEntity, 0, 0, 0, 0, 0, 0, 0, 0, 0, 0, 0, 0, 0, 0,0.0,0.0,0.0,0.0,0.0,0.0,0.0,0.0,0.0,0.0,0.0,0.0,0.0,49,httpcore-nio\src\main\java\org\apache\http\nio\entity\ConsumingNHttpEntity.java,0,0,0,0
org.apache.http.nio.entity.ConsumingNHttpEntityTemplate, 0, 0, 0, 0, 0, 0, 0, 0, 0, 0, 0, 0, 0, 0,0.0,0.0,0.0,0.0,0.0,0.0,0.0,0.0,0.0,0.0,0.0,0.0,0.0,33,httpcore-nio\src\main\java-deprecated\org\apache\http\nio\entity\ConsumingNHttpEntityTemplate.java,0,0,0,0
org.apache.http.nio.entity.ContentBufferEntity, 0, 0, 0, 0, 0, 0, 0, 0, 0, 0, 0, 0, 0, 0,0.0,0.0,0.0,0.0,0.0,0.0,0.0,0.0,0.0,0.0,0.0,0.0,0.0,25,httpcore-nio\src\main\java\org\apache\http\nio\entity\ContentBufferEntity.java,0,0,0,0
org.apache.http.nio.entity.ContentInputStream, 0, 0, 0, 0, 0, 0, 0, 0, 0, 0, 0, 0, 0, 0,0.0,0.0,0.0,0.0,0.0,0.0,0.0,0.0,0.0,0.0,0.0,0.0,0.0,38,httpcore-nio\src\main\java\org\apache\http\nio\entity\ContentInputStream.java,0,0,0,0
org.apache.http.nio.entity.ContentListener, 0, 0, 0, 0, 0, 0, 0, 0, 0, 0, 0, 0, 0, 0,0.0,0.0,0.0,0.0,0.0,0.0,0.0,0.0,0.0,0.0,0.0,0.0,0.0,38,httpcore-nio\src\main\java-deprecated\org\apache\http\nio\entity\ContentListener.java,0,0,0,0
org.apache.http.nio.entity.ContentOutputStream, 0, 0, 0, 0, 0, 0, 0, 0, 0, 0, 0, 0, 0, 0,0.0,0.0,0.0,0.0,0.0,0.0,0.0,0.0,0.0,0.0,0.0,0.0,0.0,30,httpcore-nio\src\main\java\org\apache\http\nio\entity\ContentOutputStream.java,0,0,0,0
org.apache.http.nio.entity.EntityAsyncContentProducer, 0, 0, 0, 0, 0, 0, 0, 0, 0, 0, 0, 0, 0, 0,0.0,0.0,0.0,0.0,0.0,0.0,0.0,0.0,0.0,0.0,0.0,0.0,0.0,47,httpcore-nio\src\main\java\org\apache\http\nio\entity\EntityAsyncContentProducer.java,0,0,0,0
org.apache.http.nio.entity.HttpAsyncContentProducer, 0, 0, 0, 0, 0, 0, 0, 0, 0, 0, 0, 0, 0, 0,0.0,0.0,0.0,0.0,0.0,0.0,0.0,0.0,0.0,0.0,0.0,0.0,0.0,47,httpcore-nio\src\main\java\org\apache\http\nio\entity\HttpAsyncContentProducer.java,0,0,0,0
org.apache.http.nio.entity.NByteArrayEntity, 0, 0, 0, 0, 0, 0, 0, 0, 0, 0, 0, 0, 0, 0,0.0,0.0,0.0,0.0,0.0,0.0,0.0,0.0,0.0,0.0,0.0,0.0,0.0,84,httpcore-nio\src\main\java\org\apache\http\nio\entity\NByteArrayEntity.java,0,0,0,0
org.apache.http.nio.entity.NFileEntity, 0, 0, 0, 0, 0, 0, 0, 0, 0, 0, 0, 0, 0, 0,0.0,0.0,0.0,0.0,0.0,0.0,0.0,0.0,0.0,0.0,0.0,0.0,0.0,103,httpcore-nio\src\main\java\org\apache\http\nio\entity\NFileEntity.java,0,0,0,0
org.apache.http.nio.entity.NHttpEntityWrapper, 0, 0, 0, 0, 0, 0, 0, 0, 0, 0, 0, 0, 0, 0,0.0,0.0,0.0,0.0,0.0,0.0,0.0,0.0,0.0,0.0,0.0,0.0,0.0,41,httpcore-nio\src\main\java-deprecated\org\apache\http\nio\entity\NHttpEntityWrapper.java,0,0,0,0
org.apache.http.nio.entity.NStringEntity, 0, 0, 0, 0, 0, 0, 0, 0, 0, 0, 0, 0, 0, 0,0.0,0.0,0.0,0.4,0.0,0.0,0.0,0.0,0.0,0.0,0.0,0.0,0.0,71,httpcore-nio\src\main\java\org\apache\http\nio\entity\NStringEntity.java,0,0,0,0
org.apache.http.nio.entity.ProducingNHttpEntity, 0, 0, 0, 0, 0, 0, 0, 0, 0, 0, 0, 0, 0, 0,0.0,0.0,0.0,0.0,0.0,0.0,0.0,0.0,0.0,0.0,0.0,0.0,0.0,71,httpcore-nio\src\main\java\org\apache\http\nio\entity\ProducingNHttpEntity.java,0,0,0,0
org.apache.http.nio.entity.SkipContentListener, 0, 0, 0, 0, 0, 0, 0, 0, 0, 0, 0, 0, 0, 0,0.0,0.0,0.0,0.0,0.0,0.0,0.0,0.0,0.0,0.0,0.0,0.0,0.0,19,httpcore-nio\src\main\java-deprecated\org\apache\http\nio\entity\SkipContentListener.java,0,0,0,0
org.apache.http.nio.integration.TestClientOutOfSequenceResponse, 0, 0, 0, 0, 0, 0, 0, 0, 0, 0, 0, 0, 0, 0,0.0,0.0,0.0,0.3333333333333333,0.0,0.0,0.0,0.0,0.0,0.0,0.0,0.0,0.0,46,httpcore-nio\src\test\java\org\apache\http\nio\integration\TestClientOutOfSequenceResponse.java,0,0,0,0
org.apache.http.nio.integration.TestCustomSSL, 0, 0, 0, 0, 0, 0, 0, 0, 0, 0, 0, 0, 0, 0,0.0,0.0,0.0,0.125,0.0,0.0,0.0,0.0,0.0,0.0,0.0,0.0,0.0,76,httpcore-nio\src\test\java\org\apache\http\nio\integration\TestCustomSSL.java,0,0,0,0
org.apache.http.nio.integration.TestHttpAsyncHandlerCancellable, 0, 0, 0, 0, 0, 0, 0, 0, 0, 0, 0, 0, 0, 0,0.0,0.0,0.0,0.0,0.0,0.0,0.0,0.0,0.0,0.0,0.0,0.0,0.0,123,httpcore-nio\src\test\java\org\apache\http\nio\integration\TestHttpAsyncHandlerCancellable.java,0,0,0,0
org.apache.http.nio.integration.TestHttpAsyncPrematureTermination, 0, 0, 0, 0, 0, 0, 0, 0, 0, 0, 0, 0, 0, 0,0.0,0.0,0.0,0.2,0.0,0.0,0.0,0.0,0.0,0.0,0.0,0.0,0.0,171,httpcore-nio\src\test\java\org\apache\http\nio\integration\TestHttpAsyncPrematureTermination.java,0,0,0,0
org.apache.http.nio.integration.TestHttpsAsyncTimeout, 0, 0, 0, 0, 0, 0, 0, 0, 0, 0, 0, 0, 0, 0,0.0,0.0,0.0,0.25,0.0,0.0,0.0,0.0,0.0,0.0,0.0,0.0,0.0,51,httpcore-nio\src\test\java\org\apache\http\nio\integration\TestHttpsAsyncTimeout.java,0,0,0,0
org.apache.http.nio.integration.TestTruncatedChunks, 0, 0, 0, 0, 0, 0, 0, 0, 0, 0, 0, 0, 0, 0,0.0,0.0,0.0,0.16666666666666666,0.0,0.0,0.0,0.0,0.0,0.0,0.0,0.0,0.0,161,httpcore-nio\src\test\java\org\apache\http\nio\integration\TestTruncatedChunks.java,0,0,0,0
org.apache.http.nio.params.NIOReactorPNames, 0, 0, 0, 0, 0, 0, 0, 0, 0, 0, 0, 0, 0, 0,0.0,0.0,0.0,0.0,0.0,0.0,0.0,0.0,0.0,0.0,0.0,0.0,0.0,161,httpcore-nio\src\main\java\org\apache\http\nio\params\NIOReactorPNames.java,0,0,0,0
org.apache.http.nio.params.NIOReactorParamBean, 0, 0, 0, 0, 0, 0, 0, 0, 0, 0, 0, 0, 0, 0,0.0,0.0,0.0,0.0,0.0,0.0,0.0,0.0,0.0,0.0,0.0,0.0,0.0,11,httpcore-nio\src\main\java-deprecated\org\apache\http\nio\params\NIOReactorParamBean.java,0,0,0,0
org.apache.http.nio.params.NIOReactorParams, 0, 0, 0, 0, 0, 0, 0, 0, 0, 0, 0, 0, 0, 0,0.0,0.0,0.0,0.0,0.0,0.0,0.0,0.0,0.0,0.0,0.0,0.0,0.0,38,httpcore-nio\src\main\java-deprecated\org\apache\http\nio\params\NIOReactorParams.java,0,0,0,0
org.apache.http.nio.pool.NIOConnFactory, 0, 0, 0, 0, 0, 0, 0, 0, 0, 0, 0, 0, 0, 0,0.0,0.0,0.0,0.0,0.0,0.0,0.0,0.0,0.0,0.0,0.0,0.0,0.0,38,httpcore-nio\src\main\java\org\apache\http\nio\pool\NIOConnFactory.java,0,0,0,0
org.apache.http.nio.pool.SocketAddressResolver, 0, 0, 0, 0, 0, 0, 0, 0, 0, 0, 0, 0, 0, 0,0.0,0.0,0.0,0.0,0.0,0.0,0.0,0.0,0.0,0.0,0.0,0.0,0.0,38,httpcore-nio\src\main\java\org\apache\http\nio\pool\SocketAddressResolver.java,0,0,0,0
org.apache.http.nio.pool.TestNIOConnPool, 0, 0, 0, 0, 0, 0, 0, 0, 0, 0, 0, 0, 0, 0,0.0,0.0,0.0,0.0,0.0,0.0,0.0,0.0,0.0,0.0,0.0,0.0,0.0,800,httpcore-nio\src\test\java\org\apache\http\nio\pool\TestNIOConnPool.java,0,0,0,0
org.apache.http.nio.pool.TestRouteSpecificPool, 0, 0, 0, 0, 0, 0, 0, 0, 0, 0, 0, 0, 0, 0,0.0,0.0,0.0,0.0,0.0,0.0,0.0,0.0,0.0,0.0,0.0,0.0,0.0,376,httpcore-nio\src\test\java\org\apache\http\nio\pool\TestRouteSpecificPool.java,0,0,0,0
org.apache.http.nio.protocol.AbstractAsyncRequestConsumer, 0, 0, 0, 0, 0, 0, 0, 0, 0, 0, 0, 0, 0, 0,0.0,0.0,0.0,0.0,0.0,0.0,0.0,0.0,0.0,0.0,0.0,0.0,0.0,74,httpcore-nio\src\main\java\org\apache\http\nio\protocol\AbstractAsyncRequestConsumer.java,0,0,0,0
org.apache.http.nio.protocol.AbstractAsyncResponseConsumer, 0, 0, 0, 0, 0, 0, 0, 0, 0, 0, 0, 0, 0, 0,0.0,0.0,0.0,0.0,0.0,0.0,0.0,0.0,0.0,0.0,0.0,0.0,0.0,80,httpcore-nio\src\main\java\org\apache\http\nio\protocol\AbstractAsyncResponseConsumer.java,0,0,0,0
org.apache.http.nio.protocol.AsyncNHttpClientHandler, 0, 0, 0, 0, 0, 0, 0, 0, 0, 0, 0, 0, 0, 0,0.0,0.0,0.0,0.0,0.0,0.0,0.0,0.0,0.0,0.0,0.0,0.0,0.0,344,httpcore-nio\src\main\java-deprecated\org\apache\http\nio\protocol\AsyncNHttpClientHandler.java,0,0,0,0
org.apache.http.nio.protocol.AsyncNHttpServiceHandler, 0, 0, 0, 0, 0, 0, 0, 0, 0, 0, 0, 0, 0, 0,0.0,0.0,0.0,0.0,0.0,0.0,0.0,0.0,0.0,0.0,0.0,0.0,0.0,453,httpcore-nio\src\main\java-deprecated\org\apache\http\nio\protocol\AsyncNHttpServiceHandler.java,0,0,0,0
org.apache.http.nio.protocol.BasicAsyncClientExchangeHandler, 0, 0, 0, 0, 0, 0, 0, 1, 0, 0, 0, 0, 0, 1,0.0,0.0,0.0,0.2,0.0,0.0,0.0,0.0,0.0,0.0,0.0,0.0,0.0,158,httpcore-nio\src\main\java\org\apache\http\nio\protocol\BasicAsyncClientExchangeHandler.java,0,0,0,0
org.apache.http.nio.protocol.BasicAsyncRequestConsumer, 0, 0, 0, 0, 0, 0, 0, 0, 0, 0, 0, 0, 0, 0,0.0,0.0,0.0,0.0,0.0,0.0,0.0,0.0,0.0,0.0,0.0,0.0,0.0,40,httpcore-nio\src\main\java\org\apache\http\nio\protocol\BasicAsyncRequestConsumer.java,0,0,0,0
org.apache.http.nio.protocol.BasicAsyncRequestExecutionHandler, 0, 0, 0, 1, 0, 0, 0, 1, 0, 0, 0, 0, 0, 2,0.0,0.0,0.0,0.0,0.0,0.0,0.0,0.0,0.0,0.0,0.0,0.0,0.0,144,httpcore-nio\src\main\java-deprecated\org\apache\http\nio\protocol\BasicAsyncRequestExecutionHandler.java,0,0,0,0
org.apache.http.nio.protocol.BasicAsyncRequestHandler, 0, 0, 0, 0, 0, 0, 0, 0, 0, 0, 0, 0, 0, 0,0.0,0.0,0.0,0.0,0.0,0.0,0.0,0.0,0.0,0.0,0.0,0.0,0.0,21,httpcore-nio\src\main\java\org\apache\http\nio\protocol\BasicAsyncRequestHandler.java,0,0,0,0
org.apache.http.nio.protocol.BasicAsyncResponseConsumer, 0, 0, 0, 0, 0, 0, 0, 0, 0, 0, 0, 0, 0, 0,0.0,0.0,0.0,0.1,0.0,0.0,0.0,0.0,0.0,0.0,0.0,0.0,0.0,39,httpcore-nio\src\main\java\org\apache\http\nio\protocol\BasicAsyncResponseConsumer.java,0,0,0,0
org.apache.http.nio.protocol.BufferingHttpClientHandler, 0, 0, 0, 0, 0, 0, 0, 0, 0, 0, 0, 0, 0, 0,0.0,0.0,0.0,0.0,0.0,0.0,0.0,0.0,0.0,0.0,0.0,0.0,0.0,82,httpcore-nio\src\main\java-deprecated\org\apache\http\nio\protocol\BufferingHttpClientHandler.java,0,0,0,0
org.apache.http.nio.protocol.BufferingHttpServiceHandler, 0, 0, 0, 0, 0, 0, 0, 0, 0, 0, 0, 0, 0, 0,0.0,0.0,0.0,0.0,0.0,0.0,0.0,0.0,0.0,0.0,0.0,0.0,0.0,94,httpcore-nio\src\main\java-deprecated\org\apache\http\nio\protocol\BufferingHttpServiceHandler.java,0,0,0,0
org.apache.http.nio.protocol.ErrorResponseProducer, 0, 0, 0, 0, 0, 0, 0, 0, 0, 0, 0, 0, 0, 0,0.0,0.0,0.0,0.0,0.0,0.0,0.0,0.0,0.0,0.0,0.0,0.0,0.0,45,httpcore-nio\src\main\java\org\apache\http\nio\protocol\ErrorResponseProducer.java,0,0,0,0
org.apache.http.nio.protocol.EventListener, 0, 0, 0, 0, 0, 0, 0, 0, 0, 0, 0, 0, 0, 0,0.0,0.0,0.0,0.0,0.0,0.0,0.0,0.0,0.0,0.0,0.0,0.0,0.0,45,httpcore-nio\src\main\java-deprecated\org\apache\http\nio\protocol\EventListener.java,0,0,0,0
org.apache.http.nio.protocol.HttpAsyncClientExchangeHandler, 0, 0, 0, 0, 0, 0, 0, 0, 0, 0, 0, 0, 0, 0,0.0,0.0,0.0,0.0,0.0,0.0,0.0,0.0,0.0,0.0,0.0,0.0,0.0,45,httpcore-nio\src\main\java\org\apache\http\nio\protocol\HttpAsyncClientExchangeHandler.java,0,0,0,0
org.apache.http.nio.protocol.HttpAsyncExchange, 0, 0, 0, 0, 0, 0, 0, 0, 0, 0, 0, 0, 0, 0,0.0,0.0,0.0,0.0,0.0,0.0,0.0,0.0,0.0,0.0,0.0,0.0,0.0,45,httpcore-nio\src\main\java\org\apache\http\nio\protocol\HttpAsyncExchange.java,0,0,0,0
org.apache.http.nio.protocol.HttpAsyncExpectationVerifier, 0, 0, 0, 0, 0, 0, 0, 0, 0, 0, 0, 0, 0, 0,0.0,0.0,0.0,0.0,0.0,0.0,0.0,0.0,0.0,0.0,0.0,0.0,0.0,45,httpcore-nio\src\main\java\org\apache\http\nio\protocol\HttpAsyncExpectationVerifier.java,0,0,0,0
org.apache.http.nio.protocol.HttpAsyncRequestConsumer, 0, 0, 0, 0, 0, 0, 0, 0, 0, 0, 0, 0, 0, 0,0.0,0.0,0.0,0.0,0.0,0.0,0.0,0.0,0.0,0.0,0.0,0.0,0.0,45,httpcore-nio\src\main\java\org\apache\http\nio\protocol\HttpAsyncRequestConsumer.java,0,0,0,0
org.apache.http.nio.protocol.HttpAsyncRequestExecutionHandler, 0, 0, 0, 0, 0, 0, 0, 0, 0, 0, 0, 0, 0, 0,0.0,0.0,0.0,0.0,0.0,0.0,0.0,0.0,0.0,0.0,0.0,0.0,0.0,45,httpcore-nio\src\main\java-deprecated\org\apache\http\nio\protocol\HttpAsyncRequestExecutionHandler.java,0,0,0,0
org.apache.http.nio.protocol.HttpAsyncRequestHandler, 0, 0, 0, 0, 0, 0, 0, 0, 0, 0, 0, 0, 0, 0,0.0,0.0,0.0,0.0,0.0,0.0,0.0,0.0,0.0,0.0,0.0,0.0,0.0,45,httpcore-nio\src\main\java\org\apache\http\nio\protocol\HttpAsyncRequestHandler.java,0,0,0,0
org.apache.http.nio.protocol.HttpAsyncRequestHandlerMapper, 0, 0, 0, 0, 0, 0, 0, 0, 0, 0, 0, 0, 0, 0,0.0,0.0,0.0,0.0,0.0,0.0,0.0,0.0,0.0,0.0,0.0,0.0,0.0,45,httpcore-nio\src\main\java\org\apache\http\nio\protocol\HttpAsyncRequestHandlerMapper.java,0,0,0,0
org.apache.http.nio.protocol.HttpAsyncRequestHandlerResolver, 0, 0, 0, 0, 0, 0, 0, 0, 0, 0, 0, 0, 0, 0,0.0,0.0,0.0,0.0,0.0,0.0,0.0,0.0,0.0,0.0,0.0,0.0,0.0,45,httpcore-nio\src\main\java\org\apache\http\nio\protocol\HttpAsyncRequestHandlerResolver.java,0,0,0,0
org.apache.http.nio.protocol.HttpAsyncRequestProducer, 0, 0, 0, 0, 0, 0, 0, 0, 0, 0, 0, 0, 0, 0,0.0,0.0,0.0,0.0,0.0,0.0,0.0,0.0,0.0,0.0,0.0,0.0,0.0,45,httpcore-nio\src\main\java\org\apache\http\nio\protocol\HttpAsyncRequestProducer.java,0,0,0,0
org.apache.http.nio.protocol.HttpAsyncRequester, 0, 0, 0, 0, 0, 0, 0, 0, 0, 0, 0, 0, 0, 0,0.0,0.0,0.0,0.25,0.0,0.0,0.0,0.25,0.0,0.0,0.0,0.0,0.0,342,httpcore-nio\src\main\java\org\apache\http\nio\protocol\HttpAsyncRequester.java,0,0,0,0
org.apache.http.nio.protocol.HttpAsyncResponseConsumer, 0, 0, 0, 0, 0, 0, 0, 0, 0, 0, 0, 0, 0, 0,0.0,0.0,0.0,0.0,0.0,0.0,0.0,0.0,0.0,0.0,0.0,0.0,0.0,342,httpcore-nio\src\main\java\org\apache\http\nio\protocol\HttpAsyncResponseConsumer.java,0,0,0,0
org.apache.http.nio.protocol.HttpAsyncResponseProducer, 0, 0, 0, 0, 0, 0, 0, 0, 0, 0, 0, 0, 0, 0,0.0,0.0,0.0,0.0,0.0,0.0,0.0,0.0,0.0,0.0,0.0,0.0,0.0,342,httpcore-nio\src\main\java\org\apache\http\nio\protocol\HttpAsyncResponseProducer.java,0,0,0,0
org.apache.http.nio.protocol.HttpRequestExecutionHandler, 0, 0, 0, 0, 0, 0, 0, 0, 0, 0, 0, 0, 0, 0,0.0,0.0,0.0,0.0,0.0,0.0,0.0,0.0,0.0,0.0,0.0,0.0,0.0,342,httpcore-nio\src\main\java-deprecated\org\apache\http\nio\protocol\HttpRequestExecutionHandler.java,0,0,0,0
org.apache.http.nio.protocol.NHttpHandlerBase, 0, 0, 0, 0, 0, 0, 0, 0, 0, 0, 0, 0, 0, 0,0.0,0.0,0.0,0.0,0.0,0.0,0.0,0.0,0.0,0.0,0.0,0.0,0.0,72,httpcore-nio\src\main\java-deprecated\org\apache\http\nio\protocol\NHttpHandlerBase.java,0,0,0,0
org.apache.http.nio.protocol.NHttpRequestExecutionHandler, 0, 0, 0, 0, 0, 0, 0, 0, 0, 0, 0, 0, 0, 0,0.0,0.0,0.0,0.0,0.0,0.0,0.0,0.0,0.0,0.0,0.0,0.0,0.0,72,httpcore-nio\src\main\java-deprecated\org\apache\http\nio\protocol\NHttpRequestExecutionHandler.java,0,0,0,0
org.apache.http.nio.protocol.NHttpRequestHandler, 0, 0, 0, 0, 0, 0, 0, 0, 0, 0, 0, 0, 0, 0,0.0,0.0,0.0,0.0,0.0,0.0,0.0,0.0,0.0,0.0,0.0,0.0,0.0,72,httpcore-nio\src\main\java-deprecated\org\apache\http\nio\protocol\NHttpRequestHandler.java,0,0,0,0
org.apache.http.nio.protocol.NHttpRequestHandlerResolver, 0, 0, 0, 0, 0, 0, 0, 0, 0, 0, 0, 0, 0, 0,0.0,0.0,0.0,0.0,0.0,0.0,0.0,0.0,0.0,0.0,0.0,0.0,0.0,72,httpcore-nio\src\main\java-deprecated\org\apache\http\nio\protocol\NHttpRequestHandlerResolver.java,0,0,0,0
org.apache.http.nio.protocol.NHttpResponseTrigger, 0, 0, 0, 0, 0, 0, 0, 0, 0, 0, 0, 0, 0, 0,0.0,0.0,0.0,0.0,0.0,0.0,0.0,0.0,0.0,0.0,0.0,0.0,0.0,72,httpcore-nio\src\main\java-deprecated\org\apache\http\nio\protocol\NHttpResponseTrigger.java,0,0,0,0
org.apache.http.nio.protocol.NullNHttpEntity, 0, 0, 0, 0, 0, 0, 0, 0, 0, 0, 0, 0, 0, 0,0.0,0.0,0.0,0.0,0.0,0.0,0.0,0.0,0.0,0.0,0.0,0.0,0.0,30,httpcore-nio\src\main\java-deprecated\org\apache\http\nio\protocol\NullNHttpEntity.java,0,0,0,0
org.apache.http.nio.protocol.NullRequestConsumer, 0, 0, 0, 0, 0, 0, 0, 0, 0, 0, 0, 0, 0, 0,0.0,0.0,0.0,0.0,0.0,0.0,0.0,0.0,0.0,0.0,0.0,0.0,0.0,44,httpcore-nio\src\main\java\org\apache\http\nio\protocol\NullRequestConsumer.java,0,0,0,0
org.apache.http.nio.protocol.NullRequestHandler, 0, 0, 0, 0, 0, 0, 0, 0, 0, 0, 0, 0, 0, 0,0.0,0.0,0.0,0.0,0.0,0.0,0.0,0.0,0.0,0.0,0.0,0.0,0.0,20,httpcore-nio\src\main\java\org\apache\http\nio\protocol\NullRequestHandler.java,0,0,0,0
org.apache.http.nio.protocol.PipeliningClientExchangeHandler, 0, 0, 0, 1, 0, 0, 0, 1, 0, 0, 0, 0, 0, 2,0.0,0.0,0.0,0.0,0.0,0.0,0.0,0.0,0.0,0.0,0.0,0.0,0.0,207,httpcore-nio\src\main\java\org\apache\http\nio\protocol\PipeliningClientExchangeHandler.java,0,0,0,0
org.apache.http.nio.protocol.SimpleNHttpRequestHandler, 0, 0, 0, 0, 0, 0, 0, 0, 0, 0, 0, 0, 0, 0,0.0,0.0,0.0,0.0,0.0,0.0,0.0,0.0,0.0,0.0,0.0,0.0,0.0,12,httpcore-nio\src\main\java-deprecated\org\apache\http\nio\protocol\SimpleNHttpRequestHandler.java,0,0,0,0
org.apache.http.nio.protocol.TestBasicAsyncClientExchangeHandler, 0, 0, 0, 1, 0, 0, 0, 0, 0, 0, 0, 0, 0, 1,0.0,0.0,0.0,0.0,0.0,0.0,0.0,0.5,0.0,0.0,0.0,0.0,0.0,266,httpcore-nio\src\test\java\org\apache\http\nio\protocol\TestBasicAsyncClientExchangeHandler.java,0,0,0,0
org.apache.http.nio.protocol.TestBasicAsyncRequestConsumer, 0, 0, 0, 0, 0, 0, 0, 0, 0, 0, 0, 0, 0, 0,0.0,0.0,0.0,0.0,0.0,0.0,0.0,0.0,0.0,0.0,0.0,0.0,0.0,49,httpcore-nio\src\test\java\org\apache\http\nio\protocol\TestBasicAsyncRequestConsumer.java,0,0,0,0
org.apache.http.nio.protocol.TestBasicAsyncRequestHandler, 0, 0, 0, 0, 0, 0, 0, 0, 0, 0, 0, 0, 0, 0,0.0,0.0,0.0,0.0,0.0,0.0,0.0,0.0,0.0,0.0,0.0,0.0,0.0,44,httpcore-nio\src\test\java\org\apache\http\nio\protocol\TestBasicAsyncRequestHandler.java,0,0,0,0
org.apache.http.nio.protocol.TestBasicAsyncRequestProducer, 0, 0, 0, 0, 0, 0, 0, 0, 0, 0, 0, 0, 0, 0,0.0,0.0,0.0,0.0,0.0,0.0,0.0,0.0,0.0,0.0,0.0,0.0,0.0,70,httpcore-nio\src\test\java\org\apache\http\nio\protocol\TestBasicAsyncRequestProducer.java,0,0,0,0
org.apache.http.nio.protocol.TestBasicAsyncResponseConsumer, 0, 0, 0, 0, 0, 0, 0, 0, 0, 0, 0, 0, 0, 0,0.0,0.0,0.0,0.0,0.0,0.0,0.0,0.0,0.0,0.0,0.0,0.0,0.0,74,httpcore-nio\src\test\java\org\apache\http\nio\protocol\TestBasicAsyncResponseConsumer.java,0,0,0,0
org.apache.http.nio.protocol.TestBasicAsyncResponseProducer, 0, 0, 0, 0, 0, 0, 0, 0, 0, 0, 0, 0, 0, 0,0.0,0.0,0.0,0.0,0.0,0.0,0.0,0.0,0.0,0.0,0.0,0.0,0.0,42,httpcore-nio\src\test\java\org\apache\http\nio\protocol\TestBasicAsyncResponseProducer.java,0,0,0,0
org.apache.http.nio.protocol.TestErrorResponseProducer, 0, 0, 0, 0, 0, 0, 0, 0, 0, 0, 0, 0, 0, 0,0.0,0.0,0.0,0.0,0.0,0.0,0.0,0.0,0.0,0.0,0.0,0.0,0.0,29,httpcore-nio\src\test\java\org\apache\http\nio\protocol\TestErrorResponseProducer.java,0,0,0,0
org.apache.http.nio.protocol.TestHttpAsyncRequestExecutor, 0, 0, 0, 1, 0, 0, 0, 0, 0, 0, 0, 0, 0, 1,0.0,0.0,0.0,0.0,0.0,0.0,0.0,0.0,0.0,0.0,0.0,0.0,0.0,538,httpcore-nio\src\test\java\org\apache\http\nio\protocol\TestHttpAsyncRequestExecutor.java,0,0,0,0
org.apache.http.nio.protocol.TestHttpAsyncRequester, 0, 0, 0, 0, 0, 0, 0, 0, 0, 0, 0, 0, 0, 0,0.0,0.0,0.0,0.0,0.0,0.0,0.0,0.3333333333333333,0.0,0.0,0.0,0.0,0.0,279,httpcore-nio\src\test\java\org\apache\http\nio\protocol\TestHttpAsyncRequester.java,0,0,0,0
org.apache.http.nio.protocol.TestHttpAsyncService, 0, 0, 0, 1, 0, 0, 0, 0, 0, 0, 0, 0, 0, 1,0.0,0.0,0.0,0.0,0.0,0.0,0.0,0.0,0.0,0.0,0.0,0.0,0.0,1068,httpcore-nio\src\test\java\org\apache\http\nio\protocol\TestHttpAsyncService.java,0,0,0,0
org.apache.http.nio.protocol.TestUriHttpAsyncRequestHandlerMapper, 0, 0, 0, 0, 0, 0, 0, 0, 0, 0, 0, 0, 0, 0,0.0,0.0,0.0,0.0,0.0,0.0,0.0,0.0,0.0,0.0,0.0,0.0,0.0,55,httpcore-nio\src\test\java\org\apache\http\nio\protocol\TestUriHttpAsyncRequestHandlerMapper.java,0,0,0,0
org.apache.http.nio.protocol.ThrottlingHttpClientHandler, 0, 0, 0, 0, 0, 0, 0, 0, 0, 0, 0, 0, 0, 0,0.0,0.0,0.0,0.0,0.0,0.0,0.0,0.0,0.0,0.0,0.0,0.0,0.0,457,httpcore-nio\src\main\java-deprecated\org\apache\http\nio\protocol\ThrottlingHttpClientHandler.java,0,0,0,0
org.apache.http.nio.protocol.ThrottlingHttpServiceHandler, 0, 0, 0, 0, 0, 0, 0, 0, 0, 0, 0, 0, 0, 0,0.0,0.0,0.0,0.0,0.0,0.0,0.0,0.0,0.0,0.0,0.0,0.0,0.0,488,httpcore-nio\src\main\java-deprecated\org\apache\http\nio\protocol\ThrottlingHttpServiceHandler.java,0,0,0,0
org.apache.http.nio.protocol.UriHttpAsyncRequestHandlerMapper, 0, 0, 0, 0, 0, 0, 0, 0, 0, 0, 0, 0, 0, 0,0.0,0.0,0.0,0.125,0.0,0.0,0.0,0.0,0.0,0.0,0.0,0.0,0.0,33,httpcore-nio\src\main\java\org\apache\http\nio\protocol\UriHttpAsyncRequestHandlerMapper.java,0,0,0,0
org.apache.http.nio.reactor.ConnectingIOReactor, 0, 0, 0, 0, 0, 0, 0, 0, 0, 0, 0, 0, 0, 0,0.0,0.0,0.0,0.0,0.0,0.0,0.0,0.0,0.0,0.0,0.0,0.0,0.0,33,httpcore-nio\src\main\java\org\apache\http\nio\reactor\ConnectingIOReactor.java,0,0,0,0
org.apache.http.nio.reactor.EventMask, 0, 0, 0, 0, 0, 0, 0, 0, 0, 0, 0, 0, 0, 0,0.0,0.0,0.0,0.0,0.0,0.0,0.0,0.0,0.0,0.0,0.0,0.0,0.0,33,httpcore-nio\src\main\java\org\apache\http\nio\reactor\EventMask.java,0,0,0,0
org.apache.http.nio.reactor.IOEventDispatch, 0, 0, 0, 0, 0, 0, 0, 0, 0, 0, 0, 0, 0, 0,0.0,0.0,0.0,0.0,0.0,0.0,0.0,0.0,0.0,0.0,0.0,0.0,0.0,33,httpcore-nio\src\main\java\org\apache\http\nio\reactor\IOEventDispatch.java,0,0,0,0
org.apache.http.nio.reactor.IOReactor, 0, 0, 0, 0, 0, 0, 0, 0, 0, 0, 0, 0, 0, 0,0.0,0.0,0.0,0.0,0.0,0.0,0.0,0.0,0.0,0.0,0.0,0.0,0.0,33,httpcore-nio\src\main\java\org\apache\http\nio\reactor\IOReactor.java,0,0,0,0
org.apache.http.nio.reactor.IOReactorException, 0, 0, 0, 0, 0, 0, 0, 0, 0, 0, 0, 0, 0, 0,0.0,0.0,0.0,0.4,0.0,0.0,0.0,0.0,0.0,0.0,0.0,0.0,0.0,12,httpcore-nio\src\main\java\org\apache\http\nio\reactor\IOReactorException.java,0,0,0,0
org.apache.http.nio.reactor.IOReactorExceptionHandler, 0, 0, 0, 0, 0, 0, 0, 0, 0, 0, 0, 0, 0, 0,0.0,0.0,0.0,0.0,0.0,0.0,0.0,0.0,0.0,0.0,0.0,0.0,0.0,12,httpcore-nio\src\main\java\org\apache\http\nio\reactor\IOReactorExceptionHandler.java,0,0,0,0
org.apache.http.nio.reactor.IOSession, 0, 0, 0, 0, 0, 0, 0, 0, 0, 0, 0, 0, 0, 0,0.0,0.0,0.0,0.0,0.0,0.0,0.0,0.0,0.0,0.0,0.0,0.0,0.0,12,httpcore-nio\src\main\java\org\apache\http\nio\reactor\IOSession.java,0,0,0,0
org.apache.http.nio.reactor.ListenerEndpoint, 0, 0, 0, 0, 0, 0, 0, 0, 0, 0, 0, 0, 0, 0,0.0,0.0,0.0,0.0,0.0,0.0,0.0,0.0,0.0,0.0,0.0,0.0,0.0,12,httpcore-nio\src\main\java\org\apache\http\nio\reactor\ListenerEndpoint.java,0,0,0,0
org.apache.http.nio.reactor.ListeningIOReactor, 0, 0, 0, 0, 0, 0, 0, 0, 0, 0, 0, 0, 0, 0,0.0,0.0,0.0,0.0,0.0,0.0,0.0,0.0,0.0,0.0,0.0,0.0,0.0,12,httpcore-nio\src\main\java\org\apache\http\nio\reactor\ListeningIOReactor.java,0,0,0,0
org.apache.http.nio.reactor.SessionBufferStatus, 0, 0, 0, 0, 0, 0, 0, 0, 0, 0, 0, 0, 0, 0,0.0,0.0,0.0,0.0,0.0,0.0,0.0,0.0,0.0,0.0,0.0,0.0,0.0,12,httpcore-nio\src\main\java\org\apache\http\nio\reactor\SessionBufferStatus.java,0,0,0,0
org.apache.http.nio.reactor.SessionInputBuffer, 0, 0, 0, 0, 0, 0, 0, 0, 0, 0, 0, 0, 0, 0,0.0,0.0,0.0,0.0,0.0,0.0,0.0,0.0,0.0,0.0,0.0,0.0,0.0,12,httpcore-nio\src\main\java\org\apache\http\nio\reactor\SessionInputBuffer.java,0,0,0,0
org.apache.http.nio.reactor.SessionOutputBuffer, 0, 0, 0, 0, 0, 0, 0, 0, 0, 0, 0, 0, 0, 0,0.0,0.0,0.0,0.0,0.0,0.0,0.0,0.0,0.0,0.0,0.0,0.0,0.0,12,httpcore-nio\src\main\java\org\apache\http\nio\reactor\SessionOutputBuffer.java,0,0,0,0
org.apache.http.nio.reactor.SessionRequest, 0, 0, 0, 0, 0, 0, 0, 0, 0, 0, 0, 0, 0, 0,0.0,0.0,0.0,0.0,0.0,0.0,0.0,0.0,0.0,0.0,0.0,0.0,0.0,12,httpcore-nio\src\main\java\org\apache\http\nio\reactor\SessionRequest.java,0,0,0,0
org.apache.http.nio.reactor.SessionRequestCallback, 0, 0, 0, 0, 0, 0, 0, 0, 0, 0, 0, 0, 0, 0,0.0,0.0,0.0,0.0,0.0,0.0,0.0,0.0,0.0,0.0,0.0,0.0,0.0,12,httpcore-nio\src\main\java\org\apache\http\nio\reactor\SessionRequestCallback.java,0,0,0,0
org.apache.http.nio.reactor.SocketAccessor, 0, 0, 0, 0, 0, 0, 0, 0, 0, 0, 0, 0, 0, 0,0.0,0.0,0.0,0.0,0.0,0.0,0.0,0.0,0.0,0.0,0.0,0.0,0.0,12,httpcore-nio\src\main\java\org\apache\http\nio\reactor\SocketAccessor.java,0,0,0,0
org.apache.http.nio.reactor.ssl.PermanentSSLBufferManagementStrategy, 0, 0, 0, 0, 0, 0, 0, 0, 0, 0, 0, 0, 0, 0,0.0,0.0,0.0,0.0,0.0,0.0,0.0,0.0,0.0,0.0,0.0,0.0,0.0,28,httpcore-nio\src\main\java\org\apache\http\nio\reactor\ssl\PermanentSSLBufferManagementStrategy.java,0,0,0,0
org.apache.http.nio.reactor.ssl.ReleasableSSLBufferManagementStrategy, 0, 0, 0, 0, 0, 0, 0, 0, 0, 0, 0, 0, 0, 0,0.0,0.0,0.0,0.0,0.0,0.0,0.0,0.0,0.0,0.0,0.0,0.0,0.0,34,httpcore-nio\src\main\java\org\apache\http\nio\reactor\ssl\ReleasableSSLBufferManagementStrategy.java,0,0,0,0
org.apache.http.nio.reactor.ssl.SSLBuffer, 0, 0, 0, 0, 0, 0, 0, 0, 0, 0, 0, 0, 0, 0,0.0,0.0,0.0,0.0,0.0,0.0,0.0,0.0,0.0,0.0,0.0,0.0,0.0,34,httpcore-nio\src\main\java\org\apache\http\nio\reactor\ssl\SSLBuffer.java,0,0,0,0
org.apache.http.nio.reactor.ssl.SSLBufferManagementStrategy, 0, 0, 0, 0, 0, 0, 0, 0, 0, 0, 0, 0, 0, 0,0.0,0.0,0.0,0.0,0.0,0.0,0.0,0.0,0.0,0.0,0.0,0.0,0.0,34,httpcore-nio\src\main\java\org\apache\http\nio\reactor\ssl\SSLBufferManagementStrategy.java,0,0,0,0
org.apache.http.nio.reactor.ssl.SSLSetupHandler, 0, 0, 0, 0, 0, 0, 0, 0, 0, 0, 0, 0, 0, 0,0.0,0.0,0.0,0.0,0.0,0.0,0.0,0.0,0.0,0.0,0.0,0.0,0.0,34,httpcore-nio\src\main\java\org\apache\http\nio\reactor\ssl\SSLSetupHandler.java,0,0,0,0
org.apache.http.nio.testserver.ClientConnectionFactory, 0, 0, 0, 0, 0, 0, 0, 0, 0, 0, 0, 0, 0, 0,0.0,0.0,0.0,0.0,0.0,0.0,0.0,0.25,0.0,0.0,0.0,0.0,0.0,27,httpcore-nio\src\test\java\org\apache\http\nio\testserver\ClientConnectionFactory.java,0,0,0,0
org.apache.http.nio.testserver.HttpClientNio, 0, 0, 0, 1, 0, 0, 0, 0, 0, 0, 0, 0, 0, 1,0.0,0.0,0.0,0.06666666666666667,0.0,0.0,0.0,0.0,0.0,0.0,0.0,0.0,0.0,200,httpcore-nio\src\test\java\org\apache\http\nio\testserver\HttpClientNio.java,0,0,0,0
org.apache.http.nio.testserver.HttpCoreNIOTestBase, 0, 0, 0, 0, 0, 0, 0, 0, 0, 0, 0, 0, 0, 0,0.0,0.0,0.0,0.1,0.0,0.0,0.0,0.0,0.0,0.0,0.0,0.0,0.0,63,httpcore-nio\src\test\java\org\apache\http\nio\testserver\HttpCoreNIOTestBase.java,0,0,0,0
org.apache.http.nio.testserver.HttpServerNio, 0, 0, 0, 0, 0, 0, 0, 0, 0, 0, 0, 0, 0, 0,0.0,0.0,0.0,0.125,0.0,0.0,0.0,0.0,0.0,0.0,0.0,0.0,0.0,112,httpcore-nio\src\test\java\org\apache\http\nio\testserver\HttpServerNio.java,0,0,0,0
org.apache.http.nio.testserver.LoggingNHttpClientConnection, 0, 0, 0, 0, 0, 0, 0, 0, 0, 0, 0, 0, 0, 0,0.0,0.0,0.0,0.0,0.0,0.0,0.0,0.5,0.0,0.0,0.0,0.0,0.0,78,httpcore-nio\src\test\java\org\apache\http\nio\testserver\LoggingNHttpClientConnection.java,0,0,0,0
org.apache.http.nio.testserver.LoggingNHttpServerConnection, 0, 0, 0, 0, 0, 0, 0, 0, 0, 0, 0, 0, 0, 0,0.0,0.0,0.0,0.0,0.0,0.0,0.0,0.5,0.0,0.0,0.0,0.0,0.0,78,httpcore-nio\src\test\java\org\apache\http\nio\testserver\LoggingNHttpServerConnection.java,0,0,0,0
org.apache.http.nio.testserver.ServerConnectionFactory, 0, 0, 0, 0, 0, 0, 0, 0, 0, 0, 0, 0, 0, 0,0.0,0.0,0.0,0.0,0.0,0.0,0.0,0.25,0.0,0.0,0.0,0.0,0.0,27,httpcore-nio\src\test\java\org\apache\http\nio\testserver\ServerConnectionFactory.java,0,0,0,0
org.apache.http.nio.testserver.SimpleIOReactorExceptionHandler, 0, 0, 0, 0, 0, 0, 0, 0, 0, 0, 0, 0, 0, 0,0.0,0.0,0.0,0.0,0.0,0.0,0.0,0.0,0.0,0.0,0.0,0.0,0.0,14,httpcore-nio\src\test\java\org\apache\http\nio\testserver\SimpleIOReactorExceptionHandler.java,0,0,0,0
org.apache.http.nio.util.BufferInfo, 0, 0, 0, 0, 0, 0, 0, 0, 0, 0, 0, 0, 0, 0,0.0,0.0,0.0,0.0,0.0,0.0,0.0,0.0,0.0,0.0,0.0,0.0,0.0,14,httpcore-nio\src\main\java\org\apache\http\nio\util\BufferInfo.java,0,0,0,0
org.apache.http.nio.util.ByteBufferAllocator, 0, 0, 0, 0, 0, 0, 0, 0, 0, 0, 0, 0, 0, 0,0.0,0.0,0.0,0.0,0.0,0.0,0.0,0.0,0.0,0.0,0.0,0.0,0.0,14,httpcore-nio\src\main\java\org\apache\http\nio\util\ByteBufferAllocator.java,0,0,0,0
org.apache.http.nio.util.ContentDecoderMock, 0, 0, 0, 0, 0, 0, 0, 0, 0, 0, 0, 0, 0, 0,0.0,0.0,0.0,0.0,0.0,0.0,0.0,0.0,0.0,0.0,0.0,0.0,0.0,23,httpcore-nio\src\test\java\org\apache\http\nio\util\ContentDecoderMock.java,0,0,0,0
org.apache.http.nio.util.ContentEncoderMock, 0, 0, 0, 0, 0, 0, 0, 0, 0, 0, 0, 0, 0, 0,0.0,0.0,0.0,0.0,0.0,0.0,0.0,0.0,0.0,0.0,0.0,0.0,0.0,16,httpcore-nio\src\test\java\org\apache\http\nio\util\ContentEncoderMock.java,0,0,0,0
org.apache.http.nio.util.ContentInputBuffer, 0, 0, 0, 0, 0, 0, 0, 0, 0, 0, 0, 0, 0, 0,0.0,0.0,0.0,0.0,0.0,0.0,0.0,0.0,0.0,0.0,0.0,0.0,0.0,16,httpcore-nio\src\main\java\org\apache\http\nio\util\ContentInputBuffer.java,0,0,0,0
org.apache.http.nio.util.ContentOutputBuffer, 0, 0, 0, 0, 0, 0, 0, 0, 0, 0, 0, 0, 0, 0,0.0,0.0,0.0,0.0,0.0,0.0,0.0,0.0,0.0,0.0,0.0,0.0,0.0,16,httpcore-nio\src\main\java\org\apache\http\nio\util\ContentOutputBuffer.java,0,0,0,0
org.apache.http.nio.util.DirectByteBufferAllocator, 0, 0, 0, 0, 0, 0, 0, 0, 0, 0, 0, 0, 0, 0,0.0,0.0,0.0,0.0,0.0,0.0,0.0,0.0,0.0,0.0,0.0,0.0,0.0,10,httpcore-nio\src\main\java\org\apache\http\nio\util\DirectByteBufferAllocator.java,0,0,0,0
org.apache.http.nio.util.HeapByteBufferAllocator, 0, 0, 0, 0, 0, 0, 0, 0, 0, 0, 0, 0, 0, 0,0.0,0.0,0.0,0.0,0.0,0.0,0.0,0.0,0.0,0.0,0.0,0.0,0.0,10,httpcore-nio\src\main\java\org\apache\http\nio\util\HeapByteBufferAllocator.java,0,0,0,0
org.apache.http.nio.util.SharedInputBuffer, 0, 0, 0, 0, 0, 0, 0, 0, 0, 0, 0, 0, 0, 0,0.0,0.0,0.0,0.0,0.0,0.0,0.0,0.0,0.0,0.0,0.0,0.0,0.0,217,httpcore-nio\src\main\java\org\apache\http\nio\util\SharedInputBuffer.java,0,0,0,0
org.apache.http.nio.util.SharedOutputBuffer, 0, 0, 0, 0, 0, 0, 0, 0, 0, 0, 0, 0, 0, 0,0.0,0.0,0.0,0.0,0.0,0.0,0.0,0.0,0.0,0.0,0.0,0.0,0.0,209,httpcore-nio\src\main\java\org\apache\http\nio\util\SharedOutputBuffer.java,0,0,0,0
org.apache.http.nio.util.SimpleInputBuffer, 0, 0, 0, 0, 0, 0, 0, 0, 0, 0, 0, 0, 0, 0,0.0,0.0,0.0,0.0,0.0,0.0,0.0,0.0,0.0,0.0,0.0,0.0,0.0,74,httpcore-nio\src\main\java\org\apache\http\nio\util\SimpleInputBuffer.java,0,0,0,0
org.apache.http.nio.util.SimpleOutputBuffer, 0, 0, 0, 0, 0, 0, 0, 0, 0, 0, 0, 0, 0, 0,0.0,0.0,0.0,0.0,0.0,0.0,0.0,0.0,0.0,0.0,0.0,0.0,0.0,64,httpcore-nio\src\main\java\org\apache\http\nio\util\SimpleOutputBuffer.java,0,0,0,0
org.apache.http.nio.util.TestBuffers, 0, 0, 0, 0, 0, 0, 0, 0, 0, 0, 0, 0, 0, 0,0.0,0.0,0.0,0.0,0.0,0.0,0.0,0.0,0.0,0.0,0.0,0.0,0.0,108,httpcore-nio\src\test\java\org\apache\http\nio\util\TestBuffers.java,0,0,0,0
org.apache.http.params.AbstractHttpParams, 0, 0, 0, 0, 0, 0, 0, 0, 0, 0, 0, 0, 0, 0,0.0,0.0,0.0,0.0,0.0,0.0,0.0,0.0,0.0,0.0,0.0,0.0,0.0,69,httpcore\src\main\java\org\apache\http\params\AbstractHttpParams.java,0,0,0,0
org.apache.http.params.CoreConnectionPNames, 0, 0, 0, 0, 0, 0, 0, 0, 0, 0, 0, 0, 0, 0,0.0,0.0,0.0,0.0,0.0,0.0,0.0,0.0,0.0,0.0,0.0,0.0,0.0,69,httpcore\src\main\java\org\apache\http\params\CoreConnectionPNames.java,0,0,0,0
org.apache.http.params.CoreProtocolPNames, 0, 0, 0, 0, 0, 0, 0, 0, 0, 0, 0, 0, 0, 0,0.0,0.0,0.0,0.0,0.0,0.0,0.0,0.0,0.0,0.0,0.0,0.0,0.0,69,httpcore\src\main\java\org\apache\http\params\CoreProtocolPNames.java,0,0,0,0
org.apache.http.params.DefaultedHttpParams, 0, 0, 0, 0, 0, 0, 0, 0, 0, 0, 0, 0, 0, 0,0.0,0.0,0.0,0.0,0.0,0.0,0.0,0.0,0.0,0.0,0.0,0.0,0.0,47,httpcore\src\main\java-deprecated\org\apache\http\params\DefaultedHttpParams.java,0,0,0,0
org.apache.http.params.HttpAbstractParamBean, 0, 0, 0, 0, 0, 0, 0, 0, 0, 0, 0, 0, 0, 0,0.0,0.0,0.0,0.0,0.0,0.0,0.0,0.0,0.0,0.0,0.0,0.0,0.0,7,httpcore\src\main\java-deprecated\org\apache\http\params\HttpAbstractParamBean.java,0,0,0,0
org.apache.http.params.HttpConnectionParamBean, 0, 0, 0, 0, 0, 0, 0, 0, 0, 0, 0, 0, 0, 0,0.0,0.0,0.0,0.0,0.0,0.0,0.0,0.0,0.0,0.0,0.0,0.0,0.0,23,httpcore\src\main\java-deprecated\org\apache\http\params\HttpConnectionParamBean.java,0,0,0,0
org.apache.http.params.HttpConnectionParams, 0, 0, 0, 0, 0, 0, 0, 0, 0, 0, 0, 0, 0, 0,0.0,0.0,0.0,0.0,0.0,0.0,0.0,0.0,0.0,0.0,0.0,0.0,0.0,69,httpcore\src\main\java-deprecated\org\apache\http\params\HttpConnectionParams.java,0,0,0,0
org.apache.http.params.HttpParamConfig, 0, 0, 0, 0, 0, 0, 0, 0, 0, 0, 0, 0, 0, 0,0.0,0.0,0.0,0.0,0.0,0.0,0.0,0.4444444444444444,0.0,0.0,0.0,0.0,0.0,31,httpcore\src\main\java\org\apache\http\params\HttpParamConfig.java,0,0,0,0
org.apache.http.params.HttpParams, 0, 0, 0, 0, 0, 0, 0, 0, 0, 0, 0, 0, 0, 0,0.0,0.0,0.0,0.0,0.0,0.0,0.0,0.0,0.0,0.0,0.0,0.0,0.0,31,httpcore\src\main\java\org\apache\http\params\HttpParams.java,0,0,0,0
org.apache.http.params.HttpParamsNames, 0, 0, 0, 0, 0, 0, 0, 0, 0, 0, 0, 0, 0, 0,0.0,0.0,0.0,0.0,0.0,0.0,0.0,0.0,0.0,0.0,0.0,0.0,0.0,31,httpcore\src\main\java\org\apache\http\params\HttpParamsNames.java,0,0,0,0
org.apache.http.params.HttpProtocolParamBean, 0, 0, 0, 0, 0, 0, 0, 0, 0, 0, 0, 0, 0, 0,0.0,0.0,0.0,0.0,0.0,0.0,0.0,0.0,0.0,0.0,0.0,0.0,0.0,20,httpcore\src\main\java-deprecated\org\apache\http\params\HttpProtocolParamBean.java,0,0,0,0
org.apache.http.params.HttpProtocolParams, 0, 0, 0, 0, 0, 0, 0, 0, 0, 0, 0, 0, 0, 0,0.0,0.0,0.0,0.0,0.0,0.0,0.0,0.0,0.0,0.0,0.0,0.0,0.0,84,httpcore\src\main\java-deprecated\org\apache\http\params\HttpProtocolParams.java,0,0,0,0
org.apache.http.params.SyncBasicHttpParams, 0, 0, 0, 0, 0, 0, 0, 0, 0, 0, 0, 0, 0, 0,0.0,0.0,0.0,0.0,0.0,0.0,0.0,0.0,0.0,0.0,0.0,0.0,0.0,38,httpcore\src\main\java-deprecated\org\apache\http\params\SyncBasicHttpParams.java,0,0,0,0
org.apache.http.pool.ConnFactory, 0, 0, 0, 0, 0, 0, 0, 0, 0, 0, 0, 0, 0, 0,0.0,0.0,0.0,0.0,0.0,0.0,0.0,0.0,0.0,0.0,0.0,0.0,0.0,38,httpcore\src\main\java\org\apache\http\pool\ConnFactory.java,0,0,0,0
org.apache.http.pool.ConnPool, 0, 0, 0, 0, 0, 0, 0, 0, 0, 0, 0, 0, 0, 0,0.0,0.0,0.0,0.0,0.0,0.0,0.0,0.0,0.0,0.0,0.0,0.0,0.0,38,httpcore\src\main\java\org\apache\http\pool\ConnPool.java,0,0,0,0
org.apache.http.pool.ConnPoolControl, 0, 0, 0, 0, 0, 0, 0, 0, 0, 0, 0, 0, 0, 0,0.0,0.0,0.0,0.0,0.0,0.0,0.0,0.0,0.0,0.0,0.0,0.0,0.0,38,httpcore\src\main\java\org\apache\http\pool\ConnPoolControl.java,0,0,0,0
org.apache.http.pool.PoolEntryCallback, 0, 0, 0, 0, 0, 0, 0, 0, 0, 0, 0, 0, 0, 0,0.0,0.0,0.0,0.0,0.0,0.0,0.0,0.0,0.0,0.0,0.0,0.0,0.0,38,httpcore\src\main\java\org\apache\http\pool\PoolEntryCallback.java,0,0,0,0
org.apache.http.pool.PoolEntryFuture, 0, 0, 0, 0, 0, 0, 0, 0, 0, 0, 0, 0, 0, 0,0.0,0.0,0.0,0.0,0.0,0.0,0.0,0.0,0.0,0.0,0.0,0.0,0.0,106,httpcore\src\main\java\org\apache\http\pool\PoolEntryFuture.java,0,0,0,0
org.apache.http.pool.TestConnPool, 0, 0, 0, 0, 0, 0, 0, 0, 0, 0, 0, 0, 0, 0,0.0,0.0,0.0,0.0,0.0,0.0,0.0,0.0,0.0,0.0,0.0,0.0,0.0,649,httpcore\src\test\java\org\apache\http\pool\TestConnPool.java,0,0,0,0
org.apache.http.pool.TestPoolEntry, 0, 0, 0, 0, 0, 0, 0, 0, 0, 0, 0, 0, 0, 0,0.0,0.0,0.0,0.0,0.0,0.0,0.0,0.0,0.0,0.0,0.0,0.0,0.0,76,httpcore\src\test\java\org\apache\http\pool\TestPoolEntry.java,0,0,0,0
org.apache.http.pool.TestRouteSpecificPool, 0, 0, 0, 0, 0, 0, 0, 0, 0, 0, 0, 0, 0, 0,0.0,0.0,0.0,0.0,0.0,0.0,0.0,0.0,0.0,0.0,0.0,0.0,0.0,245,httpcore\src\test\java\org\apache\http\pool\TestRouteSpecificPool.java,0,0,0,0
org.apache.http.protocol.BasicHttpProcessor, 0, 0, 0, 0, 0, 0, 0, 0, 0, 0, 0, 0, 0, 0,0.0,0.0,0.0,0.0,0.0,0.0,0.0,0.0,0.0,0.0,0.0,0.0,0.0,135,httpcore\src\main\java-deprecated\org\apache\http\protocol\BasicHttpProcessor.java,0,0,0,0
org.apache.http.protocol.ExecutionContext, 0, 0, 0, 0, 0, 0, 0, 0, 0, 0, 0, 0, 0, 0,0.0,0.0,0.0,0.0,0.0,0.0,0.0,0.0,0.0,0.0,0.0,0.0,0.0,135,httpcore\src\main\java-deprecated\org\apache\http\protocol\ExecutionContext.java,0,0,0,0
org.apache.http.protocol.HTTP, 0, 0, 0, 1, 0, 0, 0, 0, 0, 0, 0, 0, 0, 1,0.0,0.0,0.0,0.0,0.0,0.0,0.0,0.0,0.0,0.0,0.0,0.0,0.0,50,httpcore\src\main\java\org\apache\http\protocol\HTTP.java,0,0,0,0
org.apache.http.protocol.HttpContext, 0, 0, 0, 0, 0, 0, 0, 0, 0, 0, 0, 0, 0, 0,0.0,0.0,0.0,0.0,0.0,0.0,0.0,0.0,0.0,0.0,0.0,0.0,0.0,50,httpcore\src\main\java\org\apache\http\protocol\HttpContext.java,0,0,0,0
org.apache.http.protocol.HttpCoreContext, 0, 0, 0, 0, 0, 0, 0, 0, 0, 0, 0, 0, 0, 0,0.0,0.0,0.0,0.15384615384615385,0.0,0.0,0.0,0.0,0.0,0.0,0.0,0.0,0.0,69,httpcore\src\main\java\org\apache\http\protocol\HttpCoreContext.java,0,0,0,0
org.apache.http.protocol.HttpDateGenerator, 0, 0, 0, 0, 0, 0, 0, 0, 0, 0, 0, 0, 0, 0,0.0,0.0,0.0,0.0,0.0,0.0,0.0,0.0,0.0,0.0,0.0,0.0,0.0,24,httpcore\src\main\java\org\apache\http\protocol\HttpDateGenerator.java,0,0,0,0
org.apache.http.protocol.HttpExpectationVerifier, 0, 0, 0, 0, 0, 0, 0, 0, 0, 0, 0, 0, 0, 0,0.0,0.0,0.0,0.0,0.0,0.0,0.0,0.0,0.0,0.0,0.0,0.0,0.0,24,httpcore\src\main\java\org\apache\http\protocol\HttpExpectationVerifier.java,0,0,0,0
org.apache.http.protocol.HttpProcessor, 0, 0, 0, 0, 0, 0, 0, 0, 0, 0, 0, 0, 0, 0,0.0,0.0,0.0,0.0,0.0,0.0,0.0,0.0,0.0,0.0,0.0,0.0,0.0,24,httpcore\src\main\java\org\apache\http\protocol\HttpProcessor.java,0,0,0,0
org.apache.http.protocol.HttpProcessorBuilder, 0, 0, 0, 0, 0, 0, 0, 0, 0, 0, 0, 0, 0, 0,0.0,0.0,0.0,0.0,0.0,0.0,0.0,0.0,0.0,0.0,0.0,0.0,0.0,95,httpcore\src\main\java\org\apache\http\protocol\HttpProcessorBuilder.java,0,0,0,0
org.apache.http.protocol.HttpRequestExecutor, 0, 0, 0, 0, 0, 0, 0, 0, 0, 0, 0, 0, 0, 0,0.0,0.0,0.0,0.0,0.0,0.0,0.0,0.0,0.0,0.0,0.0,0.0,0.0,133,httpcore\src\main\java\org\apache\http\protocol\HttpRequestExecutor.java,0,0,0,0
org.apache.http.protocol.HttpRequestHandler, 0, 0, 0, 0, 0, 0, 0, 0, 0, 0, 0, 0, 0, 0,0.0,0.0,0.0,0.0,0.0,0.0,0.0,0.0,0.0,0.0,0.0,0.0,0.0,133,httpcore\src\main\java\org\apache\http\protocol\HttpRequestHandler.java,0,0,0,0
org.apache.http.protocol.HttpRequestHandlerMapper, 0, 0, 0, 0, 0, 0, 0, 0, 0, 0, 0, 0, 0, 0,0.0,0.0,0.0,0.0,0.0,0.0,0.0,0.0,0.0,0.0,0.0,0.0,0.0,133,httpcore\src\main\java\org\apache\http\protocol\HttpRequestHandlerMapper.java,0,0,0,0
org.apache.http.protocol.HttpRequestHandlerResolver, 0, 0, 0, 0, 0, 0, 0, 0, 0, 0, 0, 0, 0, 0,0.0,0.0,0.0,0.0,0.0,0.0,0.0,0.0,0.0,0.0,0.0,0.0,0.0,133,httpcore\src\main\java\org\apache\http\protocol\HttpRequestHandlerResolver.java,0,0,0,0
org.apache.http.protocol.HttpRequestInterceptorList, 0, 0, 0, 0, 0, 0, 0, 0, 0, 0, 0, 0, 0, 0,0.0,0.0,0.0,0.0,0.0,0.0,0.0,0.0,0.0,0.0,0.0,0.0,0.0,133,httpcore\src\main\java\org\apache\http\protocol\HttpRequestInterceptorList.java,0,0,0,0
org.apache.http.protocol.HttpResponseInterceptorList, 0, 0, 0, 0, 0, 0, 0, 0, 0, 0, 0, 0, 0, 0,0.0,0.0,0.0,0.0,0.0,0.0,0.0,0.0,0.0,0.0,0.0,0.0,0.0,133,httpcore\src\main\java\org\apache\http\protocol\HttpResponseInterceptorList.java,0,0,0,0
org.apache.http.protocol.HttpService, 0, 0, 0, 0, 0, 0, 0, 0, 0, 0, 0, 0, 0, 0,0.0,0.0,0.0,0.0,0.0,0.0,0.0,0.14285714285714285,0.0,0.0,0.0,0.0,0.0,204,httpcore\src\main\java\org\apache\http\protocol\HttpService.java,0,13,1,15
org.apache.http.protocol.ImmutableHttpProcessor, 0, 0, 0, 0, 0, 0, 0, 0, 0, 0, 0, 0, 0, 0,0.0,0.0,0.0,0.0,0.0,0.0,0.0,0.0,0.0,0.0,0.0,0.0,0.0,86,httpcore\src\main\java\org\apache\http\protocol\ImmutableHttpProcessor.java,0,0,0,0
org.apache.http.protocol.RequestConnControl, 0, 0, 0, 0, 0, 0, 0, 0, 0, 0, 0, 0, 0, 0,0.0,0.0,0.0,0.1,0.0,0.0,0.0,0.0,0.0,0.0,0.0,0.0,0.0,17,httpcore\src\main\java\org\apache\http\protocol\RequestConnControl.java,0,0,0,0
org.apache.http.protocol.RequestContent, 0, 0, 0, 0, 0, 0, 0, 0, 0, 0, 0, 0, 0, 0,0.0,0.0,0.0,0.1,0.0,0.0,0.0,0.0,0.0,0.0,0.0,0.0,0.0,51,httpcore\src\main\java\org\apache\http\protocol\RequestContent.java,0,0,0,0
org.apache.http.protocol.RequestDate, 0, 0, 0, 0, 0, 0, 0, 0, 0, 0, 0, 0, 0, 0,0.0,0.0,0.0,0.5,0.0,0.0,0.0,0.0,0.0,0.0,0.0,0.0,0.0,16,httpcore\src\main\java\org\apache\http\protocol\RequestDate.java,0,0,0,0
org.apache.http.protocol.RequestExpectContinue, 0, 0, 0, 0, 0, 0, 0, 0, 0, 0, 0, 0, 0, 0,0.0,0.0,0.0,0.1,0.0,0.0,0.0,0.0,0.0,0.0,0.0,0.0,0.0,30,httpcore\src\main\java\org\apache\http\protocol\RequestExpectContinue.java,0,0,0,0
org.apache.http.protocol.RequestTargetHost, 0, 0, 0, 0, 0, 0, 0, 0, 0, 0, 0, 0, 0, 0,0.0,0.0,0.0,0.08333333333333333,0.0,0.0,0.0,0.0,0.0,0.0,0.0,0.0,0.0,37,httpcore\src\main\java\org\apache\http\protocol\RequestTargetHost.java,0,0,0,0
org.apache.http.protocol.RequestUserAgent, 0, 0, 0, 0, 0, 0, 0, 0, 0, 0, 0, 0, 0, 0,0.0,0.0,0.0,0.1,0.0,0.0,0.0,0.0,0.0,0.0,0.0,0.0,0.0,28,httpcore\src\main\java\org\apache\http\protocol\RequestUserAgent.java,0,0,0,0
org.apache.http.protocol.ResponseConnControl, 0, 0, 0, 0, 0, 0, 0, 0, 0, 0, 0, 0, 0, 0,0.0,0.0,0.0,0.25,0.0,0.0,0.0,0.0,0.0,0.0,0.0,0.0,0.0,44,httpcore\src\main\java\org\apache\http\protocol\ResponseConnControl.java,0,0,0,0
org.apache.http.protocol.ResponseContent, 0, 0, 0, 0, 0, 0, 0, 0, 0, 0, 0, 0, 0, 0,0.0,0.0,0.0,0.25,0.0,0.0,0.0,0.0,0.0,0.0,0.0,0.0,0.0,51,httpcore\src\main\java\org\apache\http\protocol\ResponseContent.java,0,0,0,0
org.apache.http.protocol.ResponseDate, 0, 0, 0, 0, 0, 0, 0, 0, 0, 0, 0, 0, 0, 0,0.0,0.0,0.0,0.25,0.0,0.0,0.0,0.0,0.0,0.0,0.0,0.0,0.0,17,httpcore\src\main\java\org\apache\http\protocol\ResponseDate.java,0,0,0,0
org.apache.http.protocol.ResponseServer, 0, 0, 0, 0, 0, 0, 0, 0, 0, 0, 0, 0, 0, 0,0.0,0.0,0.0,0.3333333333333333,0.0,0.0,0.0,0.0,0.0,0.0,0.0,0.0,0.0,20,httpcore\src\main\java\org\apache\http\protocol\ResponseServer.java,0,0,0,0
org.apache.http.protocol.SyncBasicHttpContext, 0, 0, 0, 0, 0, 0, 0, 0, 0, 0, 0, 0, 0, 0,0.0,0.0,0.0,0.0,0.0,0.0,0.0,0.0,0.0,0.0,0.0,0.0,0.0,24,httpcore\src\main\java-deprecated\org\apache\http\protocol\SyncBasicHttpContext.java,0,0,0,0
org.apache.http.protocol.TestChainBuilder, 0, 0, 0, 0, 0, 0, 0, 0, 0, 0, 0, 0, 0, 0,0.0,0.0,0.0,0.0,0.0,0.0,0.0,0.0,0.0,0.0,0.0,0.0,0.0,29,httpcore\src\test\java\org\apache\http\protocol\TestChainBuilder.java,0,0,0,0
org.apache.http.protocol.TestHttpExecutionContext, 0, 0, 0, 0, 0, 0, 0, 0, 0, 0, 0, 0, 0, 0,0.0,0.0,0.0,0.0,0.0,0.0,0.0,0.0,0.0,0.0,0.0,0.0,0.0,52,httpcore\src\test\java\org\apache\http\protocol\TestHttpExecutionContext.java,0,0,0,0
org.apache.http.protocol.TestHttpRequestExecutor, 0, 0, 0, 0, 0, 0, 0, 0, 0, 0, 0, 0, 0, 0,0.0,0.0,0.0,0.0,0.0,0.0,0.0,0.0,0.0,0.0,0.0,0.0,0.0,337,httpcore\src\test\java\org\apache\http\protocol\TestHttpRequestExecutor.java,0,0,0,0
org.apache.http.protocol.TestHttpService, 0, 0, 0, 0, 0, 0, 0, 0, 0, 0, 0, 0, 0, 0,0.0,0.0,0.0,0.0,0.0,0.0,0.0,0.0,0.0,0.0,0.0,0.0,0.0,388,httpcore\src\test\java\org\apache\http\protocol\TestHttpService.java,0,60,3,66
org.apache.http.protocol.TestStandardInterceptors, 0, 0, 0, 1, 0, 0, 0, 0, 0, 0, 0, 0, 0, 1,0.0,0.0,0.0,0.0,0.0,0.0,0.0,0.0,0.0,0.0,0.0,0.0,0.0,853,httpcore\src\test\java\org\apache\http\protocol\TestStandardInterceptors.java,0,0,0,0
org.apache.http.protocol.TestUriHttpRequestHandlerMapper, 0, 0, 0, 0, 0, 0, 0, 0, 0, 0, 0, 0, 0, 0,0.0,0.0,0.0,0.0,0.0,0.0,0.0,0.0,0.0,0.0,0.0,0.0,0.0,52,httpcore\src\test\java\org\apache\http\protocol\TestUriHttpRequestHandlerMapper.java,0,0,0,0
org.apache.http.protocol.TestUriPatternMatcher, 0, 0, 0, 0, 0, 0, 0, 0, 0, 0, 0, 0, 0, 0,0.0,0.0,0.0,0.0,0.0,0.0,0.0,0.0,0.0,0.0,0.0,0.0,0.0,97,httpcore\src\test\java\org\apache\http\protocol\TestUriPatternMatcher.java,0,0,0,0
org.apache.http.protocol.UriHttpRequestHandlerMapper, 0, 0, 0, 0, 0, 0, 0, 0, 0, 0, 0, 0, 0, 0,0.0,0.0,0.0,0.0,0.0,0.0,0.0,0.0,0.0,0.0,0.0,0.0,0.0,36,httpcore\src\main\java\org\apache\http\protocol\UriHttpRequestHandlerMapper.java,0,0,0,0
org.apache.http.ssl.PrivateKeyDetails, 0, 0, 0, 0, 0, 0, 0, 0, 0, 0, 0, 0, 0, 0,0.0,0.0,0.0,0.0,0.0,0.0,0.0,0.0,0.0,0.0,0.0,0.0,0.0,19,httpcore\src\main\java\org\apache\http\ssl\PrivateKeyDetails.java,0,0,0,0
org.apache.http.ssl.SSLContexts, 0, 0, 0, 0, 0, 0, 0, 0, 0, 0, 0, 0, 0, 0,0.0,0.0,0.0,0.0,0.0,0.0,0.0,0.4,0.0,0.0,0.0,0.0,0.0,23,httpcore\src\main\java\org\apache\http\ssl\SSLContexts.java,0,0,0,0
org.apache.http.ssl.SSLInitializationException, 0, 0, 0, 0, 0, 0, 0, 0, 0, 0, 0, 0, 0, 0,0.0,0.0,0.0,0.0,0.0,0.0,0.0,0.0,0.0,0.0,0.0,0.0,0.0,6,httpcore\src\main\java\org\apache\http\ssl\SSLInitializationException.java,0,0,0,0
org.apache.http.ssl.TrustStrategy, 0, 0, 0, 0, 0, 0, 0, 0, 0, 0, 0, 0, 0, 0,0.0,0.0,0.0,0.0,0.0,0.0,0.0,0.0,0.0,0.0,0.0,0.0,0.0,6,httpcore\src\main\java\org\apache\http\ssl\TrustStrategy.java,0,0,0,0
org.apache.http.testserver.HttpClient, 0, 0, 0, 0, 0, 0, 0, 0, 0, 0, 0, 0, 0, 0,0.0,0.0,0.0,0.0,0.0,0.0,0.0,0.18181818181818182,0.0,0.0,0.0,0.0,0.0,55,httpcore\src\test\java\org\apache\http\testserver\HttpClient.java,0,0,0,0
org.apache.http.testserver.HttpServer, 0, 0, 0, 0, 0, 0, 0, 0, 0, 0, 0, 0, 0, 0,0.0,0.0,0.0,0.0,0.0,0.0,0.0,0.3333333333333333,0.0,0.0,0.0,0.0,0.0,82,httpcore\src\test\java\org\apache\http\testserver\HttpServer.java,0,0,0,0
org.apache.http.testserver.LoggingBHttpClientConnection, 0, 0, 0, 0, 0, 0, 0, 1, 0, 0, 0, 0, 0, 1,0.0,0.0,0.0,0.0,0.0,0.0,0.0,0.25,0.0,0.0,0.0,0.0,0.0,78,httpcore\src\test\java\org\apache\http\testserver\LoggingBHttpClientConnection.java,0,0,0,0
org.apache.http.testserver.LoggingBHttpServerConnection, 0, 0, 0, 0, 0, 0, 0, 1, 0, 0, 0, 0, 0, 1,0.0,0.0,0.0,0.0,0.0,0.0,0.0,0.3333333333333333,0.0,0.0,0.0,0.0,0.0,78,httpcore\src\test\java\org\apache\http\testserver\LoggingBHttpServerConnection.java,0,0,0,0
org.apache.http.testserver.LoggingInputStream, 0, 0, 0, 0, 0, 0, 0, 0, 0, 0, 0, 0, 0, 0,0.0,0.0,0.0,0.0,0.0,0.0,0.0,1.0,0.0,0.0,0.0,0.0,0.0,57,httpcore\src\test\java\org\apache\http\testserver\LoggingInputStream.java,0,0,0,0
org.apache.http.testserver.LoggingOutputStream, 0, 0, 0, 0, 0, 0, 0, 0, 0, 0, 0, 0, 0, 0,0.0,0.0,0.0,0.0,0.0,0.0,0.0,1.0,0.0,0.0,0.0,0.0,0.0,31,httpcore\src\test\java\org\apache\http\testserver\LoggingOutputStream.java,0,0,0,0
org.apache.http.util.ByteArrayBuffer, 0, 0, 0, 0, 0, 0, 0, 0, 0, 0, 0, 0, 0, 0,0.0,0.0,0.0,0.0,0.0,0.0,0.0,0.0,0.0,0.0,0.0,0.0,0.0,133,httpcore\src\main\java\org\apache\http\util\ByteArrayBuffer.java,0,0,0,0
org.apache.http.util.CharsetUtils, 0, 0, 0, 0, 0, 0, 0, 0, 0, 0, 0, 0, 0, 0,0.0,0.0,0.0,0.0,0.0,0.0,0.0,0.0,0.0,0.0,0.0,0.0,0.0,22,httpcore\src\main\java\org\apache\http\util\CharsetUtils.java,0,0,0,0
org.apache.http.util.EncodingUtils, 0, 0, 0, 0, 0, 0, 0, 0, 0, 0, 0, 0, 0, 0,0.0,0.0,0.0,0.0,0.0,0.0,0.0,0.0,0.0,0.0,0.0,0.0,0.0,42,httpcore\src\main\java\org\apache\http\util\EncodingUtils.java,0,0,0,0
org.apache.http.util.ExceptionUtils, 0, 0, 0, 0, 0, 0, 0, 0, 0, 0, 0, 0, 0, 0,0.0,0.0,0.0,0.0,0.0,0.0,0.0,0.0,0.0,0.0,0.0,0.0,0.0,21,httpcore\src\main\java-deprecated\org\apache\http\util\ExceptionUtils.java,0,0,0,0
org.apache.http.util.LangUtils, 0, 0, 0, 0, 0, 0, 0, 0, 0, 0, 0, 0, 0, 0,0.0,0.0,0.0,0.0,0.0,0.0,0.0,0.0,0.0,0.0,0.0,0.0,0.0,34,httpcore\src\main\java\org\apache\http\util\LangUtils.java,0,0,0,0
org.apache.http.util.TestArgs, 0, 0, 0, 0, 0, 0, 0, 0, 0, 0, 0, 0, 0, 0,0.0,0.0,0.0,0.0,0.0,0.0,0.0,0.0,0.0,0.0,0.0,0.0,0.0,105,httpcore\src\test\java\org\apache\http\util\TestArgs.java,0,0,0,0
org.apache.http.util.TestAsserts, 0, 0, 0, 0, 0, 0, 0, 0, 0, 0, 0, 0, 0, 0,0.0,0.0,0.0,0.0,0.0,0.0,0.0,0.0,0.0,0.0,0.0,0.0,0.0,34,httpcore\src\test\java\org\apache\http\util\TestAsserts.java,0,0,0,0
org.apache.http.util.TestByteArrayBuffer, 0, 0, 0, 0, 0, 0, 0, 0, 0, 0, 0, 0, 0, 0,0.0,0.0,0.0,0.0,0.0,0.0,0.0,0.0,0.0,0.0,0.0,0.0,0.0,230,httpcore\src\test\java\org\apache\http\util\TestByteArrayBuffer.java,0,0,0,0
org.apache.http.util.TestCharArrayBuffer, 0, 0, 0, 0, 0, 0, 0, 0, 0, 0, 0, 0, 0, 0,0.0,0.0,0.0,0.0,0.0,0.0,0.0,0.0,0.0,0.0,0.0,0.0,0.0,326,httpcore\src\test\java\org\apache\http\util\TestCharArrayBuffer.java,0,0,0,0
org.apache.http.util.TestLangUtils, 0, 0, 0, 0, 0, 0, 0, 0, 0, 0, 0, 0, 0, 0,0.0,0.0,0.0,0.0,0.0,0.0,0.0,0.0,0.0,0.0,0.0,0.0,0.0,47,httpcore\src\test\java\org\apache\http\util\TestLangUtils.java,0,0,0,0
org.apache.http.util.TestTextUtils, 0, 0, 0, 0, 0, 0, 0, 0, 0, 0, 0, 0, 0, 0,0.0,0.0,0.0,0.0,0.0,0.0,0.0,0.0,0.0,0.0,0.0,0.0,0.0,24,httpcore\src\test\java\org\apache\http\util\TestTextUtils.java,0,0,0,0
