ClassName,AntiSingleton,Blob,ClassDataShouldBePrivate,ComplexClass,LargeClass,LazyClass,LongMethod,LongParameterList,MessageChains,RefusedParentBequest,SpaghettiCode,SpeculativeGenerality,SwissArmyKnife,NumOfAPs,AntiSingleton,Blob,ClassDataShouldBePrivate,ComplexClass,LargeClass,LazyClass,LongMethod,LongParameterList,MessageChains,RefusedParentBequest,SpaghettiCode,SpeculativeGenerality,SwissArmyKnife,LOC,name,deleted,added,changed,all
avro.examples.baseball.Player,0,0,1,1,0,0,0,0,0,1,0,0,0,3,0.0,0.0,0.0,0.0,0.0,0.0,0.0,0.0,0.0,1.0,0.0,0.0,0.0,196,lang\java\tools\src\test\compiler\output-string\avro\examples\baseball\Player.java,0,0,0,0
example.GenerateData,0,0,0,0,0,0,0,0,0,0,0,0,0,0,0.0,0.0,0.0,0.0,0.0,0.0,0.0,0.0,0.0,0.0,0.0,0.0,0.0,22,doc\examples\mr-example\src\main\java\example\GenerateData.java,0,0,0,0
example.GenericMain,0,0,0,0,0,0,0,0,0,0,0,0,0,0,0.0,0.0,0.0,0.0,0.0,0.0,0.0,0.0,0.0,0.0,0.0,0.0,0.0,26,doc\examples\java-example\src\main\java\example\GenericMain.java,0,0,0,0
example.SpecificMain,0,0,0,0,0,0,0,0,0,0,0,0,0,0,0.0,0.0,0.0,0.0,0.0,0.0,0.0,0.0,0.0,0.0,0.0,0.0,0.0,28,doc\examples\java-example\src\main\java\example\SpecificMain.java,0,0,0,0
org.apache.avro.AvroRemoteException,0,0,0,0,0,0,0,0,0,0,0,0,0,0,0.0,0.0,0.0,0.0,0.0,0.0,0.0,0.0,0.0,0.0,0.0,0.0,0.0,17,lang\java\avro\src\main\java\org\apache\avro\AvroRemoteException.java,0,0,0,0
org.apache.avro.AvroRuntimeException,0,0,0,0,0,0,0,0,0,0,0,0,0,0,0.058823529411764705,0.0,0.0,0.11764705882352941,0.0,0.0,0.0,0.11764705882352941,0.0,0.0,0.0,0.0,0.0,7,lang\java\avro\src\main\java\org\apache\avro\AvroRuntimeException.java,0,0,0,0
org.apache.avro.AvroTestUtil,0,0,0,0,0,0,0,0,0,0,0,0,0,0,0.2,0.0,0.0,0.0,0.0,0.0,0.0,0.0,0.0,0.0,0.0,0.0,0.0,16,lang\java\avro\src\test\java\org\apache\avro\AvroTestUtil.java,0,0,0,0
org.apache.avro.AvroTypeException,0,0,0,0,0,0,0,0,0,0,0,0,0,0,0.0,0.0,0.0,0.3333333333333333,0.0,0.0,0.0,0.0,0.0,0.0,0.0,0.0,0.0,6,lang\java\avro\src\main\java\org\apache\avro\AvroTypeException.java,0,0,0,0
org.apache.avro.BarRecord,0,0,0,0,0,0,0,0,0,0,0,0,0,0,0.0,0.0,0.0,0.0,0.0,0.0,0.0,0.0,0.0,0.0,0.0,0.0,0.0,27,lang\java\avro\src\test\java\org\apache\avro\BarRecord.java,0,0,0,0
org.apache.avro.DataFileInteropTest,0,0,0,0,0,0,0,0,0,0,0,0,0,0,0.0,0.0,0.0,0.0,0.0,0.0,0.0,0.0,0.0,0.0,0.0,0.0,0.0,42,lang\java\ipc\src\test\java\org\apache\avro\DataFileInteropTest.java,0,0,0,0
org.apache.avro.FooBarSpecificRecord,0,0,1,0,0,0,0,0,0,0,0,0,0,1,0.0,0.0,0.0,0.0,0.0,0.0,0.0,0.0,0.0,0.5,0.0,0.0,0.0,146,lang\java\avro\src\test\java\org\apache\avro\FooBarSpecificRecord.java,0,0,0,0
org.apache.avro.FooRecord,0,0,0,0,0,0,0,0,0,0,0,0,0,0,0.0,0.0,0.0,0.0,0.0,0.0,0.0,0.0,0.0,0.0,0.0,0.0,0.0,23,lang\java\avro\src\test\java\org\apache\avro\FooRecord.java,0,0,0,0
org.apache.avro.GenerateBlockingData,0,0,0,0,0,0,0,0,0,0,0,0,0,0,0.0,0.0,0.0,0.0,0.0,0.0,0.0,0.0,0.0,0.0,0.0,0.0,0.0,44,lang\java\avro\src\test\java\org\apache\avro\GenerateBlockingData.java,0,0,0,0
org.apache.avro.SchemaBuilderException,0,0,0,0,0,0,0,0,0,0,0,0,0,0,0.0,0.0,0.0,0.0,0.0,0.0,0.0,0.0,0.0,0.0,0.0,0.0,0.0,4,lang\java\avro\src\main\java\org\apache\avro\SchemaBuilderException.java,0,0,0,0
org.apache.avro.SchemaParseException,0,0,0,0,0,0,0,0,0,0,0,0,0,0,0.0,0.0,0.0,0.0,0.0,0.0,0.0,0.0,0.0,0.0,0.0,0.0,0.0,4,lang\java\avro\src\main\java\org\apache\avro\SchemaParseException.java,0,0,0,0
org.apache.avro.SimpleException,0,0,0,0,0,0,0,0,0,0,0,0,0,0,0.0,0.0,0.0,0.0,0.0,0.0,0.0,0.0,0.0,0.0,0.0,0.0,0.0,4,lang\java\ipc\src\test\java\org\apache\avro\SimpleException.java,0,0,0,0
org.apache.avro.TestBulkData,0,0,0,0,0,0,0,0,0,0,0,0,0,0,0.0,0.0,0.0,0.0,0.0,0.0,0.0,0.0,0.0,0.0,0.0,0.0,0.0,69,lang\java\ipc\src\test\java\org\apache\avro\TestBulkData.java,0,0,0,0
org.apache.avro.TestCompare,0,0,0,0,0,0,0,1,0,0,0,0,0,1,0.0,0.0,0.0,0.0,0.0,0.0,0.0,0.5,0.0,0.0,0.0,0.0,0.0,189,lang\java\ipc\src\test\java\org\apache\avro\TestCompare.java,0,0,0,0
org.apache.avro.TestDataFile,0,0,0,1,0,0,0,0,0,0,0,0,0,1,0.0,0.0,0.0,0.0,0.0,0.0,0.0,0.0,0.0,0.0,0.0,0.0,0.0,304,lang\java\avro\src\test\java\org\apache\avro\TestDataFile.java,0,0,0,0
org.apache.avro.TestDataFileConcat,0,0,0,0,0,0,0,0,0,0,0,0,0,0,0.0,0.0,0.0,0.0,0.0,0.0,0.0,0.0,0.0,0.0,0.0,0.0,0.0,134,lang\java\avro\src\test\java\org\apache\avro\TestDataFileConcat.java,0,0,1,2
org.apache.avro.TestDataFileDeflate,0,0,0,0,0,0,0,0,0,0,0,0,0,0,0.0,0.0,0.0,0.0,0.0,0.0,0.0,0.0,0.0,0.0,0.0,0.0,0.0,24,lang\java\avro\src\test\java\org\apache\avro\TestDataFileDeflate.java,0,0,0,0
org.apache.avro.TestDataFileMeta,0,0,0,0,0,0,0,0,0,0,0,0,0,0,0.0,0.0,0.0,0.0,0.0,0.0,0.0,0.0,0.0,0.0,0.0,0.0,0.0,36,lang\java\avro\src\test\java\org\apache\avro\TestDataFileMeta.java,0,0,0,0
org.apache.avro.TestDataFileSpecific,0,0,0,0,0,0,0,0,0,0,0,0,0,0,0.0,0.0,0.0,0.0,0.0,0.0,0.0,0.0,0.0,0.0,0.0,0.0,0.0,29,lang\java\ipc\src\test\java\org\apache\avro\TestDataFileSpecific.java,0,0,0,0
org.apache.avro.TestNamespaceReflect,0,0,0,0,0,0,0,0,0,0,0,0,0,0,0.5,0.0,0.0,0.0,0.0,0.0,0.0,0.0,0.0,0.0,0.0,0.0,0.0,11,lang\java\ipc\src\test\java\org\apache\avro\TestNamespaceReflect.java,0,0,0,0
org.apache.avro.TestNamespaceSpecific,1,0,0,0,0,0,0,0,0,0,0,0,0,1,0.0,0.0,0.0,0.0,0.0,0.0,0.0,0.0,0.0,0.0,0.0,0.0,0.0,44,lang\java\ipc\src\test\java\org\apache\avro\TestNamespaceSpecific.java,0,0,0,0
org.apache.avro.TestProtocol,0,0,0,0,0,0,0,0,0,0,0,0,0,0,0.0,0.0,0.0,0.0,0.0,0.0,0.0,0.0,0.0,0.0,0.0,0.0,0.0,27,lang\java\avro\src\test\java\org\apache\avro\TestProtocol.java,0,0,0,0
org.apache.avro.TestProtocolDatagram,0,0,0,0,0,0,0,0,0,0,0,0,0,0,0.0,0.0,0.0,0.0,0.0,0.0,0.0,0.0,0.0,0.0,0.0,0.0,0.0,16,lang\java\ipc\src\test\java\org\apache\avro\TestProtocolDatagram.java,0,0,0,0
org.apache.avro.TestProtocolGenericMeta,0,0,0,0,0,0,0,0,0,0,0,0,0,0,0.0,0.0,0.0,0.0,0.0,0.0,0.0,0.0,0.0,0.0,0.0,0.0,0.0,15,lang\java\ipc\src\test\java\org\apache\avro\TestProtocolGenericMeta.java,0,0,0,0
org.apache.avro.TestProtocolHttp,0,0,0,0,0,0,0,0,0,0,0,0,0,0,0.0,0.0,0.0,0.0,0.0,0.0,0.0,0.0,0.0,0.0,0.0,0.0,0.0,41,lang\java\ipc\src\test\java\org\apache\avro\TestProtocolHttp.java,0,0,0,0
org.apache.avro.TestProtocolHttps,0,0,0,0,0,0,0,0,0,0,0,0,0,0,0.0,0.0,0.0,0.0,0.0,0.0,0.0,0.0,0.0,0.0,0.0,0.0,0.0,25,lang\java\ipc\src\test\java\org\apache\avro\TestProtocolHttps.java,0,0,0,0
org.apache.avro.TestProtocolNetty,0,0,0,0,0,0,0,0,0,0,0,0,0,0,0.0,0.0,0.0,0.0,0.0,0.0,0.0,1.0,0.0,0.0,0.0,0.0,0.0,14,lang\java\ipc\src\test\java\org\apache\avro\TestProtocolNetty.java,0,0,0,0
org.apache.avro.TestProtocolParsing,0,0,0,0,0,0,0,0,0,0,0,0,0,0,0.0,0.0,0.0,0.0,0.0,0.0,0.0,0.0,0.0,0.0,0.0,0.0,0.0,47,lang\java\ipc\src\test\java\org\apache\avro\TestProtocolParsing.java,0,0,0,0
org.apache.avro.TestProtocolReflectMeta,0,0,0,0,0,0,0,0,0,0,0,0,0,0,0.0,0.0,0.0,0.0,0.0,0.0,0.0,0.0,0.0,0.0,0.0,0.0,0.0,16,lang\java\ipc\src\test\java\org\apache\avro\TestProtocolReflectMeta.java,0,0,0,0
org.apache.avro.TestProtocolSpecificMeta,0,0,0,0,0,0,0,0,0,0,0,0,0,0,0.0,0.0,0.0,0.0,0.0,0.0,0.0,0.0,0.0,0.0,0.0,0.0,0.0,16,lang\java\ipc\src\test\java\org\apache\avro\TestProtocolSpecificMeta.java,0,0,0,0
org.apache.avro.TestSchema,0,0,0,0,0,0,0,0,0,0,0,0,0,0,0.0,0.0,0.0,0.0,0.0,0.0,0.0,0.0,0.0,0.0,0.0,0.0,0.0,33,lang\java\avro\src\test\java\org\apache\avro\TestSchema.java,0,0,0,0
org.apache.avro.TestSchemaCompatibility,0,0,0,1,0,0,0,0,0,0,0,0,0,1,0.0,0.0,0.0,0.0,0.0,0.0,0.0,0.0,0.0,0.0,0.0,0.0,0.0,429,lang\java\avro\src\test\java\org\apache\avro\TestSchemaCompatibility.java,0,0,0,0
org.apache.avro.TestSchemaNormalization,0,0,0,0,0,0,0,0,0,0,0,0,0,0,0.0,0.0,0.0,0.0,0.0,0.0,0.0,0.0,0.0,0.0,0.0,0.0,0.0,62,lang\java\avro\src\test\java\org\apache\avro\TestSchemaNormalization.java,0,0,0,0
org.apache.avro.UnresolvedUnionException,0,0,0,0,0,0,0,0,0,0,0,0,0,0,0.0,0.0,0.0,0.0,0.0,0.0,0.0,0.0,0.0,0.0,0.0,0.0,0.0,15,lang\java\avro\src\main\java\org\apache\avro\UnresolvedUnionException.java,0,0,0,0
org.apache.avro.compiler.TestSpecificCompiler,0,0,0,0,0,0,0,0,0,0,0,0,0,0,0.0,0.0,0.0,0.0,0.0,0.0,0.0,0.0,0.0,0.0,0.0,0.0,0.0,118,lang\java\compiler\src\test\java\org\apache\avro\compiler\TestSpecificCompiler.java,0,22,0,22
org.apache.avro.compiler.specific.ProtocolTask,0,0,0,0,0,0,0,0,0,0,0,0,0,0,0.0,0.0,0.0,0.0,0.0,0.0,0.0,0.0,0.0,0.0,0.0,0.0,0.0,43,lang\java\compiler\src\main\java\org\apache\avro\compiler\specific\ProtocolTask.java,0,0,0,0
org.apache.avro.compiler.specific.SchemaTask,0,0,0,0,0,0,0,0,0,0,0,0,0,0,0.0,0.0,0.0,0.0,0.0,0.0,0.0,0.0,0.0,0.0,0.0,0.0,0.0,10,lang\java\compiler\src\main\java\org\apache\avro\compiler\specific\SchemaTask.java,0,0,0,0
org.apache.avro.data.ErrorBuilder,0,0,0,0,0,0,0,0,0,0,0,0,0,0,0.0,0.0,0.0,0.0,0.0,0.0,0.0,0.0,0.0,0.0,0.0,0.0,0.0,10,lang\java\avro\src\main\java\org\apache\avro\data\ErrorBuilder.java,0,0,0,0
org.apache.avro.data.Json,0,0,0,0,0,0,0,0,0,0,0,0,0,0,0.0,0.0,0.0,0.5,0.0,0.0,0.0,0.0,0.0,0.0,0.0,0.0,0.0,123,lang\java\avro\src\main\java\org\apache\avro\data\Json.java,0,0,0,0
org.apache.avro.data.RecordBuilder,0,0,0,0,0,0,0,0,0,0,0,0,0,0,0.0,0.0,0.0,0.0,0.0,0.0,0.0,0.0,0.0,0.0,0.0,0.0,0.0,123,lang\java\avro\src\main\java\org\apache\avro\data\RecordBuilder.java,0,0,0,0
org.apache.avro.data.RecordBuilderBase,0,0,0,0,0,0,0,0,0,0,0,0,0,0,0.0,0.0,0.0,0.2,0.0,0.0,0.0,0.0,0.0,0.0,0.0,0.0,0.0,87,lang\java\avro\src\main\java\org\apache\avro\data\RecordBuilderBase.java,0,0,0,0
org.apache.avro.data.RecordBuilderBaseTest,0,0,0,0,0,0,0,0,0,0,0,0,0,0,0.0,0.0,0.0,0.0,0.0,0.0,0.0,0.0,0.0,0.0,0.0,0.0,0.0,46,lang\java\avro\src\test\java\org\apache\avro\data\RecordBuilderBaseTest.java,0,0,0,0
org.apache.avro.file.BZip2Codec,0,0,0,0,0,0,0,0,0,0,0,0,0,0,0.0,0.0,0.0,0.0,0.0,0.0,0.0,0.0,0.0,0.0,0.0,0.0,0.0,59,lang\java\avro\src\main\java\org\apache\avro\file\BZip2Codec.java,0,0,0,0
org.apache.avro.file.Codec,0,0,0,0,0,0,0,0,0,0,0,0,0,0,0.0,0.0,0.0,0.0,0.0,0.0,0.0,0.0,0.0,0.0,0.0,0.0,0.0,13,lang\java\avro\src\main\java\org\apache\avro\file\Codec.java,0,0,0,0
org.apache.avro.file.DataFileConstants,0,0,0,0,0,0,0,0,0,0,0,0,0,0,0.0,0.0,0.0,0.0,0.0,0.0,0.0,0.0,0.0,0.0,0.0,0.0,0.0,17,lang\java\avro\src\main\java\org\apache\avro\file\DataFileConstants.java,0,0,0,0
org.apache.avro.file.DataFileReader,0,0,0,0,0,0,0,0,0,0,0,0,0,0,0.041666666666666664,0.0,0.0,0.125,0.0,0.0,0.0,0.0,0.0,0.0,0.0,0.0,0.0,163,lang\java\avro\src\main\java\org\apache\avro\file\DataFileReader.java,0,0,0,0
org.apache.avro.file.DeflateCodec,0,0,0,0,0,0,0,0,0,0,0,0,0,0,0.0,0.0,0.0,0.0,0.0,0.0,0.0,0.0,0.0,0.0,0.0,0.0,0.0,88,lang\java\avro\src\main\java\org\apache\avro\file\DeflateCodec.java,0,0,0,0
org.apache.avro.file.LengthLimitedInputStream,0,0,0,0,0,0,0,0,0,0,0,0,0,0,0.0,0.0,0.0,0.0,0.0,0.0,0.0,0.0,0.0,0.0,0.0,0.0,0.0,49,lang\java\avro\src\main\java\org\apache\avro\file\LengthLimitedInputStream.java,0,0,0,0
org.apache.avro.file.NullCodec,0,0,0,0,0,0,0,0,0,0,0,0,0,0,0.0,0.0,0.0,0.0,0.0,0.0,0.0,0.0,0.0,0.0,0.0,0.0,0.0,32,lang\java\avro\src\main\java\org\apache\avro\file\NullCodec.java,0,0,0,0
org.apache.avro.file.SeekableByteArrayInput,0,0,0,0,0,0,0,0,0,0,0,0,0,0,0.0,0.0,0.0,0.0,0.0,0.0,0.0,0.0,0.0,0.0,0.0,0.0,0.0,15,lang\java\avro\src\main\java\org\apache\avro\file\SeekableByteArrayInput.java,0,0,0,0
org.apache.avro.file.SeekableFileInput,0,0,0,0,0,0,0,0,0,0,0,0,0,0,0.0,0.0,0.0,0.5,0.0,0.0,0.0,0.0,0.0,0.0,0.0,0.0,0.0,8,lang\java\avro\src\main\java\org\apache\avro\file\SeekableFileInput.java,0,0,0,0
org.apache.avro.file.SeekableInput,0,0,0,0,0,0,0,0,0,0,0,0,0,0,0.0,0.0,0.0,0.0,0.0,0.0,0.0,0.0,0.0,0.0,0.0,0.0,0.0,8,lang\java\avro\src\main\java\org\apache\avro\file\SeekableInput.java,0,0,0,0
org.apache.avro.file.SnappyCodec,0,0,0,0,0,0,0,0,0,0,0,0,0,0,0.0,0.0,0.0,0.0,0.0,0.0,0.0,0.0,0.0,0.0,0.0,0.0,0.0,45,lang\java\avro\src\main\java\org\apache\avro\file\SnappyCodec.java,0,0,0,0
org.apache.avro.file.Syncable,0,0,0,0,0,0,0,0,0,0,0,0,0,0,0.0,0.0,0.0,0.0,0.0,0.0,0.0,0.0,0.0,0.0,0.0,0.0,0.0,45,lang\java\avro\src\main\java\org\apache\avro\file\Syncable.java,0,0,0,0
org.apache.avro.file.SyncableFileOutputStream,0,0,0,0,0,0,0,0,0,0,0,0,0,0,0.0,0.0,0.0,0.0,0.0,0.0,0.0,0.0,0.0,0.0,0.0,0.0,0.0,25,lang\java\avro\src\main\java\org\apache\avro\file\SyncableFileOutputStream.java,0,0,0,0
org.apache.avro.file.TestBZip2Codec,0,0,0,0,0,0,0,0,0,0,0,0,0,0,0.0,0.0,0.0,0.0,0.0,0.0,0.0,0.0,0.0,0.0,0.0,0.0,0.0,24,lang\java\avro\src\test\java\org\apache\avro\file\TestBZip2Codec.java,0,0,0,0
org.apache.avro.file.TestCustomCodec,0,0,0,0,0,0,0,0,0,0,0,0,0,0,0.0,0.0,0.0,0.0,0.0,0.0,0.0,0.0,0.0,0.0,0.0,0.0,0.0,21,lang\java\avro\src\test\java\org\apache\avro\file\TestCustomCodec.java,0,0,0,0
org.apache.avro.file.TestLengthLimitedInputStream,0,0,0,0,0,0,0,0,0,0,0,0,0,0,0.0,0.0,0.0,0.0,0.0,0.0,0.0,0.0,0.0,0.0,0.0,0.0,0.0,27,lang\java\avro\src\test\java\org\apache\avro\file\TestLengthLimitedInputStream.java,0,0,0,0
org.apache.avro.file.TestSeekableByteArrayInput,0,0,0,0,0,0,0,0,0,0,0,0,0,0,0.0,0.0,0.0,0.0,0.0,0.0,0.0,0.0,0.0,0.0,0.0,0.0,0.0,45,lang\java\avro\src\test\java\org\apache\avro\file\TestSeekableByteArrayInput.java,0,0,0,0
org.apache.avro.file.XZCodec,0,0,0,0,0,0,0,0,0,0,0,0,0,0,0.0,0.0,0.0,0.0,0.0,0.0,0.0,0.0,0.0,0.0,0.0,0.0,0.0,77,lang\java\avro\src\main\java\org\apache\avro\file\XZCodec.java,0,0,0,0
org.apache.avro.file.codec.CustomCodec,0,0,0,0,0,0,0,0,0,0,0,0,0,0,0.0,0.0,0.0,0.0,0.0,0.0,0.0,0.0,0.0,0.0,0.0,0.0,0.0,52,lang\java\avro\src\test\java\org\apache\avro\file\codec\CustomCodec.java,0,0,0,0
org.apache.avro.generic.GenericContainer,0,0,0,0,0,0,0,0,0,0,0,0,0,0,0.0,0.0,0.0,0.0,0.0,0.0,0.0,0.0,0.0,0.0,0.0,0.0,0.0,52,lang\java\avro\src\main\java\org\apache\avro\generic\GenericContainer.java,0,0,0,0
org.apache.avro.generic.GenericEnumSymbol,0,0,0,0,0,0,0,0,0,0,0,0,0,0,0.0,0.0,0.0,0.0,0.0,0.0,0.0,0.0,0.0,0.0,0.0,0.0,0.0,52,lang\java\avro\src\main\java\org\apache\avro\generic\GenericEnumSymbol.java,0,0,0,0
org.apache.avro.generic.GenericFixed,0,0,0,0,0,0,0,0,0,0,0,0,0,0,0.0,0.0,0.0,0.0,0.0,0.0,0.0,0.0,0.0,0.0,0.0,0.0,0.0,52,lang\java\avro\src\main\java\org\apache\avro\generic\GenericFixed.java,0,0,0,0
org.apache.avro.generic.GenericRecord,0,0,0,0,0,0,0,0,0,0,0,0,0,0,0.0,0.0,0.0,0.0,0.0,0.0,0.0,0.0,0.0,0.0,0.0,0.0,0.0,52,lang\java\avro\src\main\java\org\apache\avro\generic\GenericRecord.java,0,0,0,0
org.apache.avro.generic.GenericRecordBuilder,0,0,0,1,0,0,0,0,0,0,0,0,0,1,0.0,0.0,0.0,0.0,0.0,0.0,0.0,0.0,0.0,0.0,0.0,0.0,0.0,113,lang\java\avro\src\main\java\org\apache\avro\generic\GenericRecordBuilder.java,0,0,0,0
org.apache.avro.generic.IndexedRecord,0,0,0,0,0,0,0,0,0,0,0,0,0,0,0.0,0.0,0.0,0.0,0.0,0.0,0.0,0.0,0.0,0.0,0.0,0.0,0.0,113,lang\java\avro\src\main\java\org\apache\avro\generic\IndexedRecord.java,0,0,0,0
org.apache.avro.generic.TestGenericRecordBuilder,0,0,0,0,0,0,0,0,0,0,0,0,0,0,0.0,0.0,0.0,0.5,0.0,0.0,0.0,0.0,0.0,0.0,0.0,0.0,0.0,63,lang\java\avro\src\test\java\org\apache\avro\generic\TestGenericRecordBuilder.java,0,0,0,0
org.apache.avro.hadoop.file.TestHadoopCodecFactory,0,0,0,0,0,0,0,0,0,0,0,0,0,0,0.0,0.0,0.0,0.0,0.0,0.0,0.0,0.0,0.0,0.0,0.0,0.0,0.0,31,lang\java\mapred\src\test\java\org\apache\avro\hadoop\file\TestHadoopCodecFactory.java,0,0,0,0
org.apache.avro.hadoop.io.AvroDatumConverter,0,0,0,0,0,0,0,0,0,0,0,0,0,0,0.0,0.0,0.0,0.0,0.0,0.0,0.0,0.5,0.0,0.0,0.0,0.0,0.0,4,lang\java\mapred\src\main\java\org\apache\avro\hadoop\io\AvroDatumConverter.java,0,0,0,0
org.apache.avro.hadoop.io.AvroDeserializer,0,0,0,0,0,0,0,0,0,0,0,0,0,0,0.0,0.0,0.0,0.16666666666666666,0.0,0.0,0.0,0.16666666666666666,0.0,0.0,0.0,0.0,0.0,42,lang\java\mapred\src\main\java\org\apache\avro\hadoop\io\AvroDeserializer.java,0,0,0,0
org.apache.avro.hadoop.io.AvroKeyComparator,0,0,0,0,0,0,0,1,0,0,0,0,0,1,0.0,0.0,0.0,0.2,0.0,0.0,0.0,0.2,0.0,0.0,0.0,0.0,0.0,20,lang\java\mapred\src\main\java\org\apache\avro\hadoop\io\AvroKeyComparator.java,0,0,0,0
org.apache.avro.hadoop.io.AvroKeyDeserializer,0,0,0,0,0,0,0,0,0,0,0,0,0,0,0.0,0.0,0.0,0.25,0.0,0.0,0.0,0.0,0.0,0.0,0.0,0.0,0.0,14,lang\java\mapred\src\main\java\org\apache\avro\hadoop\io\AvroKeyDeserializer.java,0,0,0,0
org.apache.avro.hadoop.io.AvroSequenceFile,0,0,0,0,0,0,0,0,0,0,0,0,0,0,0.0,0.0,0.0,0.0,0.0,0.0,0.0,0.0,0.0,0.0,0.0,0.0,0.0,324,lang\java\mapred\src\main\java\org\apache\avro\hadoop\io\AvroSequenceFile.java,0,0,0,0
org.apache.avro.hadoop.io.AvroSerialization,0,0,0,1,0,0,0,0,0,0,0,0,0,1,0.0,0.0,0.0,0.0,0.0,0.0,0.0,0.125,0.0,0.0,0.0,0.0,0.0,112,lang\java\mapred\src\main\java\org\apache\avro\hadoop\io\AvroSerialization.java,0,0,0,0
org.apache.avro.hadoop.io.AvroSerializer,0,0,0,0,0,0,0,0,0,0,0,0,0,0,0.0,0.0,0.0,0.2,0.0,0.0,0.0,0.0,0.0,0.0,0.0,0.0,0.0,40,lang\java\mapred\src\main\java\org\apache\avro\hadoop\io\AvroSerializer.java,0,0,0,0
org.apache.avro.hadoop.io.AvroValueDeserializer,0,0,0,0,0,0,0,0,0,0,0,0,0,0,0.0,0.0,0.0,0.25,0.0,0.0,0.0,0.0,0.0,0.0,0.0,0.0,0.0,14,lang\java\mapred\src\main\java\org\apache\avro\hadoop\io\AvroValueDeserializer.java,0,0,0,0
org.apache.avro.io.BinaryData,0,0,0,0,0,0,0,1,0,0,0,0,0,1,0.0,0.0,0.0,0.2727272727272727,0.0,0.0,0.0,0.36363636363636365,0.0,0.0,0.0,0.0,0.0,340,lang\java\avro\src\main\java\org\apache\avro\io\BinaryData.java,0,0,0,0
org.apache.avro.io.BinaryDecoder,0,0,0,1,0,0,0,0,0,0,0,0,0,1,0.1111111111111111,0.0,0.0,0.2222222222222222,0.0,0.0,0.0,0.1111111111111111,0.0,0.0,0.0,0.0,0.0,657,lang\java\avro\src\main\java\org\apache\avro\io\BinaryDecoder.java,0,0,0,0
org.apache.avro.io.BinaryEncoder,0,0,0,0,0,0,0,0,0,0,0,0,0,0,0.2,0.0,0.0,0.0,0.0,0.0,0.0,0.0,0.0,0.0,0.0,0.0,0.0,67,lang\java\avro\src\main\java\org\apache\avro\io\BinaryEncoder.java,0,0,0,0
org.apache.avro.io.BlockingBinaryEncoder,0,0,0,1,0,0,0,0,0,0,0,0,0,1,0.0,0.0,0.0,0.0,0.0,0.0,0.0,0.25,0.0,0.0,0.0,0.0,0.0,357,lang\java\avro\src\main\java\org\apache\avro\io\BlockingBinaryEncoder.java,0,0,0,0
org.apache.avro.io.BufferedBinaryEncoder,0,0,0,0,0,0,0,0,0,0,0,0,0,0,0.0,0.0,0.0,0.2,0.0,0.0,0.0,0.2,0.0,0.0,0.0,0.0,0.0,138,lang\java\avro\src\main\java\org\apache\avro\io\BufferedBinaryEncoder.java,0,0,0,0
org.apache.avro.io.DatumReader,0,0,0,0,0,0,0,0,0,0,0,0,0,0,0.0,0.0,0.0,0.0,0.0,0.0,0.0,0.0,0.0,0.0,0.0,0.0,0.0,138,lang\java\avro\src\main\java\org\apache\avro\io\DatumReader.java,0,0,0,0
org.apache.avro.io.DatumWriter,0,0,0,0,0,0,0,0,0,0,0,0,0,0,0.0,0.0,0.0,0.0,0.0,0.0,0.0,0.0,0.0,0.0,0.0,0.0,0.0,138,lang\java\avro\src\main\java\org\apache\avro\io\DatumWriter.java,0,0,0,0
org.apache.avro.io.Decoder,0,0,0,1,0,0,0,0,0,0,0,0,0,1,0.0625,0.0,0.0,0.1875,0.0,0.0,0.0,0.125,0.0,0.0,0.0,0.0,0.0,27,lang\java\avro\src\main\java\org\apache\avro\io\Decoder.java,0,0,0,0
org.apache.avro.io.DecoderFactory,0,0,0,0,0,0,0,0,0,0,0,0,0,0,0.09090909090909091,0.0,0.0,0.22727272727272727,0.0,0.0,0.0,0.045454545454545456,0.0,0.0,0.0,0.0,0.0,90,lang\java\avro\src\main\java\org\apache\avro\io\DecoderFactory.java,0,0,0,0
org.apache.avro.io.DirectBinaryDecoder,0,0,0,0,0,0,0,0,0,0,0,0,0,0,0.3333333333333333,0.0,0.0,0.6666666666666666,0.0,0.0,0.0,0.0,0.0,0.0,0.0,0.0,0.0,148,lang\java\avro\src\main\java\org\apache\avro\io\DirectBinaryDecoder.java,0,0,0,0
org.apache.avro.io.DirectBinaryEncoder,0,0,0,0,0,0,0,0,0,0,0,0,0,0,0.0,0.0,0.0,0.0,0.0,0.0,0.0,0.3333333333333333,0.0,0.0,0.0,0.0,0.0,72,lang\java\avro\src\main\java\org\apache\avro\io\DirectBinaryEncoder.java,0,0,0,0
org.apache.avro.io.EncoderFactory,0,0,0,0,0,0,0,0,0,0,0,0,0,0,0.09090909090909091,0.0,0.0,0.18181818181818182,0.0,0.0,0.0,0.045454545454545456,0.0,0.0,0.0,0.0,0.0,86,lang\java\avro\src\main\java\org\apache\avro\io\EncoderFactory.java,0,0,0,0
org.apache.avro.io.JsonEncoder,0,0,0,1,0,0,0,0,0,0,0,0,0,1,0.0,0.0,0.0,0.0,0.0,0.0,0.0,0.0,0.0,0.0,0.0,0.0,0.0,213,lang\java\avro\src\main\java\org\apache\avro\io\JsonEncoder.java,2,0,1,4
org.apache.avro.io.LegacyBinaryEncoder,0,0,0,1,0,0,0,0,0,0,0,0,0,1,1.0,0.0,0.0,0.0,0.0,0.0,0.0,0.0,0.0,0.0,0.0,0.0,0.0,133,lang\java\avro\src\test\java\org\apache\avro\io\LegacyBinaryEncoder.java,0,0,0,0
org.apache.avro.io.ParsingDecoder,0,0,0,0,0,0,0,0,0,0,0,0,0,0,0.0,0.0,0.0,0.5,0.0,0.0,0.0,0.0,0.0,0.0,0.0,0.0,0.0,43,lang\java\avro\src\main\java\org\apache\avro\io\ParsingDecoder.java,0,0,0,0
org.apache.avro.io.ParsingEncoder,0,0,0,0,0,0,0,0,0,0,0,0,0,0,0.0,0.0,0.0,0.5,0.0,0.0,0.0,0.0,0.0,0.0,0.0,0.0,0.0,32,lang\java\avro\src\main\java\org\apache\avro\io\ParsingEncoder.java,0,0,0,0
org.apache.avro.io.ResolvingDecoder,0,0,0,0,0,0,0,0,0,0,0,0,0,0,0.1111111111111111,0.0,0.0,0.2222222222222222,0.0,0.0,0.0,0.2222222222222222,0.0,0.0,0.0,0.0,0.0,138,lang\java\avro\src\main\java\org\apache\avro\io\ResolvingDecoder.java,0,55,0,55
org.apache.avro.io.TestBinaryDecoder,1,0,0,1,0,0,0,0,0,0,0,0,0,2,0.0,0.0,0.0,0.25,0.0,0.0,0.0,0.0,0.0,0.0,0.0,0.0,0.0,359,lang\java\avro\src\test\java\org\apache\avro\io\TestBinaryDecoder.java,0,0,0,0
org.apache.avro.io.TestBinaryEncoderFidelity,1,0,0,0,0,0,0,0,0,0,0,0,0,1,0.0,0.0,0.0,0.3333333333333333,0.0,0.0,0.0,0.0,0.0,0.0,0.0,0.0,0.0,151,lang\java\avro\src\test\java\org\apache\avro\io\TestBinaryEncoderFidelity.java,0,8,5,18
org.apache.avro.io.TestBlockingIO,0,0,0,0,0,0,0,0,0,0,0,0,0,0,0.0,0.0,0.0,1.0,0.0,0.0,0.0,0.0,0.0,0.0,0.0,0.0,0.0,405,lang\java\avro\src\test\java\org\apache\avro\io\TestBlockingIO.java,0,0,0,0
org.apache.avro.io.TestBlockingIO2,0,0,0,0,0,0,0,0,0,0,0,0,0,0,0.0,0.0,0.0,0.3333333333333333,0.0,0.0,0.0,0.0,0.0,0.0,0.0,0.0,0.0,111,lang\java\avro\src\test\java\org\apache\avro\io\TestBlockingIO2.java,0,0,0,0
org.apache.avro.io.TestEncoders,0,0,0,0,0,0,0,0,0,0,0,0,0,0,0.0,0.0,0.0,0.3333333333333333,0.0,0.0,0.0,0.0,0.0,0.0,0.0,0.0,0.0,144,lang\java\avro\src\test\java\org\apache\avro\io\TestEncoders.java,0,0,0,0
org.apache.avro.io.TestJsonDecoder,0,0,0,0,0,0,0,0,0,0,0,0,0,0,0.0,0.0,0.0,0.0,0.0,0.0,0.0,0.0,0.0,0.0,0.0,0.0,0.0,28,lang\java\avro\src\test\java\org\apache\avro\io\TestJsonDecoder.java,0,0,0,0
org.apache.avro.io.TestResolvingIO,1,0,0,0,0,0,0,1,0,0,0,0,0,2,0.0,0.0,0.0,0.0,0.0,0.0,0.0,0.3333333333333333,0.0,0.0,0.0,0.0,0.0,157,lang\java\avro\src\test\java\org\apache\avro\io\TestResolvingIO.java,0,2,2,6
org.apache.avro.io.TestResolvingIOResolving,0,0,0,0,0,0,0,1,0,0,0,0,0,1,1.0,0.0,0.0,0.0,0.0,0.0,0.0,1.0,0.0,0.0,0.0,0.0,0.0,160,lang\java\avro\src\test\java\org\apache\avro\io\TestResolvingIOResolving.java,0,0,0,0
org.apache.avro.io.ValidatingDecoder,0,0,0,1,0,0,0,0,0,0,0,0,0,1,0.0,0.0,0.0,0.1111111111111111,0.0,0.0,0.0,0.1111111111111111,0.0,0.0,0.0,0.0,0.0,184,lang\java\avro\src\main\java\org\apache\avro\io\ValidatingDecoder.java,0,0,0,0
org.apache.avro.io.parsing.Parser,0,0,0,0,0,0,0,0,0,0,0,0,0,0,0.0,0.0,0.0,0.3333333333333333,0.0,0.0,0.0,0.0,0.0,0.0,0.0,0.0,0.0,94,lang\java\avro\src\main\java\org\apache\avro\io\parsing\Parser.java,0,0,0,0
org.apache.avro.io.parsing.SkipParser,0,0,0,0,0,0,0,0,0,0,0,0,0,0,0.0,0.0,0.0,0.25,0.0,0.0,0.0,0.0,0.0,0.0,0.0,0.0,0.0,42,lang\java\avro\src\main\java\org\apache\avro\io\parsing\SkipParser.java,0,0,0,0
org.apache.avro.io.parsing.TestResolvingGrammarGenerator,0,0,0,0,0,0,0,0,0,0,0,0,0,0,0.0,0.0,0.0,0.3333333333333333,0.0,0.0,0.0,0.0,0.0,0.0,0.0,0.0,0.0,98,lang\java\avro\src\test\java\org\apache\avro\io\parsing\TestResolvingGrammarGenerator.java,0,0,0,0
org.apache.avro.ipc.CallFuture,0,0,0,0,0,0,0,0,0,0,0,0,0,0,0.0,0.0,0.0,0.0,0.0,0.0,0.0,0.0,0.0,0.0,0.0,0.0,0.0,76,lang\java\ipc\src\main\java\org\apache\avro\ipc\CallFuture.java,0,0,0,0
org.apache.avro.ipc.Callback,0,0,0,0,0,0,0,0,0,0,0,0,0,0,0.0,0.0,0.0,0.0,0.0,0.0,0.0,0.0,0.0,0.0,0.0,0.0,0.0,76,lang\java\ipc\src\main\java\org\apache\avro\ipc\Callback.java,0,0,0,0
org.apache.avro.ipc.DatagramServer,0,0,0,0,0,0,0,0,0,0,0,0,0,0,0.0,0.0,0.0,0.0,0.0,0.0,0.0,0.0,0.0,0.0,0.0,0.0,0.0,37,lang\java\ipc\src\main\java\org\apache\avro\ipc\DatagramServer.java,0,0,0,0
org.apache.avro.ipc.DatagramTransceiver,0,0,0,0,0,0,0,0,0,0,0,0,0,0,0.0,0.0,0.0,0.0,0.0,0.0,0.0,0.0,0.0,0.0,0.0,0.0,0.0,45,lang\java\ipc\src\main\java\org\apache\avro\ipc\DatagramTransceiver.java,0,0,0,0
org.apache.avro.ipc.HttpServer,0,0,0,0,0,0,0,0,0,0,0,0,0,0,0.16666666666666666,0.0,0.0,0.0,0.0,0.0,0.0,0.0,0.0,0.0,0.0,0.0,0.0,59,lang\java\ipc\src\main\java\org\apache\avro\ipc\HttpServer.java,0,0,0,0
org.apache.avro.ipc.HttpTransceiver,0,0,0,0,0,0,0,0,0,0,0,0,0,0,0.1111111111111111,0.0,0.0,0.0,0.0,0.0,0.0,0.0,0.0,0.0,0.0,0.0,0.0,87,lang\java\ipc\src\main\java\org\apache\avro\ipc\HttpTransceiver.java,0,0,0,0
org.apache.avro.ipc.Ipc,0,0,0,0,0,0,0,0,0,0,0,0,0,0,0.0,0.0,0.0,0.2,0.0,0.0,0.0,0.0,0.0,0.0,0.0,0.0,0.0,22,lang\java\ipc\src\main\java\org\apache\avro\ipc\Ipc.java,0,0,0,0
org.apache.avro.ipc.LocalTransceiver,0,0,0,0,0,0,0,0,0,0,0,0,0,0,0.0,0.0,0.0,0.0,0.0,0.0,0.0,0.0,0.0,0.0,0.0,0.0,0.0,23,lang\java\ipc\src\main\java\org\apache\avro\ipc\LocalTransceiver.java,0,0,0,0
org.apache.avro.ipc.NettyServer,0,0,0,0,0,0,0,1,0,0,0,0,0,1,0.0,0.0,0.0,0.0,0.0,0.0,0.0,0.0,0.0,0.0,0.0,0.0,0.0,120,lang\java\ipc\src\main\java\org\apache\avro\ipc\NettyServer.java,0,0,0,0
org.apache.avro.ipc.NettyTransportCodec,0,0,0,0,0,1,0,0,0,0,0,0,0,1,0.0,0.0,0.0,0.0,0.0,0.0,0.0,0.0,0.0,0.0,0.0,0.0,0.0,112,lang\java\ipc\src\main\java\org\apache\avro\ipc\NettyTransportCodec.java,0,0,0,0
org.apache.avro.ipc.RPCPlugin,0,0,0,0,0,0,0,0,0,0,0,0,0,0,0.0,0.0,0.0,0.0,0.0,0.0,0.0,0.0,0.0,0.0,0.0,0.0,0.0,9,lang\java\ipc\src\main\java\org\apache\avro\ipc\RPCPlugin.java,0,0,0,0
org.apache.avro.ipc.ResponderServlet,0,0,0,0,0,0,0,0,0,0,0,0,0,0,0.0,0.0,0.0,0.0,0.0,0.0,0.0,0.0,0.0,0.0,0.0,0.0,0.0,21,lang\java\ipc\src\main\java\org\apache\avro\ipc\ResponderServlet.java,0,0,0,0
org.apache.avro.ipc.SaslSocketTransceiver,0,0,0,1,0,0,0,0,0,0,0,0,0,1,0.0,0.0,0.0,0.0,0.0,0.0,0.0,0.0,0.0,0.0,0.0,0.0,0.0,307,lang\java\ipc\src\main\java\org\apache\avro\ipc\SaslSocketTransceiver.java,0,0,0,0
org.apache.avro.ipc.Server,0,0,0,0,0,0,0,0,0,0,0,0,0,0,0.0,0.0,0.0,0.0,0.0,0.0,0.0,0.0,0.0,0.0,0.0,0.0,0.0,307,lang\java\ipc\src\main\java\org\apache\avro\ipc\Server.java,0,0,0,0
org.apache.avro.ipc.SocketServer,0,0,0,0,0,0,0,0,0,0,0,0,0,0,0.1111111111111111,0.0,0.0,0.0,0.0,0.0,0.0,0.0,0.0,0.0,0.0,0.0,0.0,88,lang\java\ipc\src\main\java\org\apache\avro\ipc\SocketServer.java,0,0,0,0
org.apache.avro.ipc.SocketTransceiver,0,0,0,0,0,0,0,0,0,0,0,0,0,0,0.0,0.0,0.0,0.0,0.0,0.0,0.0,0.0,0.0,0.0,0.0,0.0,0.0,69,lang\java\ipc\src\main\java\org\apache\avro\ipc\SocketTransceiver.java,0,0,0,0
org.apache.avro.ipc.TestLocalTransceiver,0,0,0,0,0,0,0,0,0,0,0,0,0,0,0.0,0.0,0.0,0.0,0.0,0.0,0.0,0.0,0.0,0.0,0.0,0.0,0.0,27,lang\java\ipc\src\test\java\org\apache\avro\ipc\TestLocalTransceiver.java,0,0,0,0
org.apache.avro.ipc.TestNettyServer,0,0,0,0,0,0,0,0,0,0,0,0,0,0,0.0,0.0,0.0,0.0,0.0,0.0,0.0,0.25,0.0,0.0,0.0,0.0,0.0,114,lang\java\ipc\src\test\java\org\apache\avro\ipc\TestNettyServer.java,0,0,0,0
org.apache.avro.ipc.TestNettyServerConcurrentExecution,0,0,0,0,0,0,0,0,0,0,0,0,0,0,0.0,0.0,0.0,0.0,0.0,0.0,0.0,0.5,0.0,0.0,0.0,0.0,0.0,92,lang\java\ipc\src\test\java\org\apache\avro\ipc\TestNettyServerConcurrentExecution.java,0,0,0,0
org.apache.avro.ipc.TestNettyServerWithCallbacks,0,0,0,0,0,0,0,0,0,0,0,0,0,0,0.0,0.0,0.0,0.0,0.0,0.0,0.0,0.25,0.0,0.0,0.0,0.0,0.0,481,lang\java\ipc\src\test\java\org\apache\avro\ipc\TestNettyServerWithCallbacks.java,0,0,0,0
org.apache.avro.ipc.TestNettyServerWithCompression,0,0,0,0,0,0,0,0,0,0,0,0,0,0,0.0,0.0,0.0,0.0,0.0,0.0,0.0,0.5,0.0,0.0,0.0,0.0,0.0,43,lang\java\ipc\src\test\java\org\apache\avro\ipc\TestNettyServerWithCompression.java,0,0,0,0
org.apache.avro.ipc.TestNettyServerWithSSL,0,0,0,0,0,0,0,0,0,0,0,0,0,0,0.0,0.0,0.0,0.0,0.0,0.0,0.0,0.5,0.0,0.0,0.0,0.0,0.0,83,lang\java\ipc\src\test\java\org\apache\avro\ipc\TestNettyServerWithSSL.java,0,0,0,0
org.apache.avro.ipc.TestNettyTransceiverWhenServerStops,0,0,0,0,0,0,0,0,0,0,0,0,0,0,0.0,0.0,0.0,0.0,0.0,0.0,0.0,1.0,0.0,0.0,0.0,0.0,0.0,70,lang\java\ipc\src\test\java\org\apache\avro\ipc\TestNettyTransceiverWhenServerStops.java,0,0,0,0
org.apache.avro.ipc.TestRpcPluginOrdering,0,0,0,0,0,0,0,0,0,0,0,0,0,0,0.0,0.0,0.0,0.0,0.0,0.0,0.0,0.0,0.0,0.0,0.0,0.0,0.0,52,lang\java\ipc\src\test\java\org\apache\avro\ipc\TestRpcPluginOrdering.java,0,0,0,0
org.apache.avro.ipc.TestSaslAnonymous,0,0,0,0,0,0,0,0,0,0,0,0,0,0,0.0,0.0,0.0,0.5,0.0,0.0,0.0,0.0,0.0,0.0,0.0,0.0,0.0,32,lang\java\ipc\src\test\java\org\apache\avro\ipc\TestSaslAnonymous.java,0,0,0,0
org.apache.avro.ipc.Transceiver,0,0,0,0,0,0,0,0,0,0,0,0,0,0,0.06666666666666667,0.0,0.0,0.06666666666666667,0.0,0.0,0.0,0.0,0.0,0.0,0.0,0.0,0.0,40,lang\java\ipc\src\main\java\org\apache\avro\ipc\Transceiver.java,0,0,0,0
org.apache.avro.ipc.generic.GenericResponder,0,0,0,0,0,0,0,0,0,0,0,0,0,0,0.0,0.0,0.0,0.0,0.0,0.0,0.0,0.0,0.0,0.0,0.0,0.0,0.0,34,lang\java\ipc\src\main\java\org\apache\avro\ipc\generic\GenericResponder.java,0,0,0,0
org.apache.avro.ipc.reflect.ReflectRequestor,0,0,0,0,0,0,0,0,0,0,0,0,0,0,0.0,0.0,0.0,0.0,0.0,0.0,0.0,0.3333333333333333,0.0,0.0,0.0,0.0,0.0,49,lang\java\ipc\src\main\java\org\apache\avro\ipc\reflect\ReflectRequestor.java,0,0,0,0
org.apache.avro.ipc.specific.SpecificResponder,0,0,0,0,0,0,0,0,0,0,0,0,0,0,0.0,0.0,0.0,0.0,0.0,0.0,0.0,0.0,0.0,0.0,0.0,0.0,0.0,57,lang\java\ipc\src\main\java\org\apache\avro\ipc\specific\SpecificResponder.java,0,0,0,0
org.apache.avro.ipc.stats.FakeTicks,0,0,0,0,0,0,0,0,0,0,0,0,0,0,0.0,0.0,0.0,0.0,0.0,0.0,0.0,0.0,0.0,0.0,0.0,0.0,0.0,10,lang\java\ipc\src\test\java\org\apache\avro\ipc\stats\FakeTicks.java,0,0,0,0
org.apache.avro.ipc.stats.FloatHistogram,0,0,0,0,0,0,0,0,0,0,0,0,0,0,0.0,0.0,0.0,0.0,0.0,0.0,0.0,0.0,0.0,0.0,0.0,0.0,0.0,26,lang\java\ipc\src\main\java\org\apache\avro\ipc\stats\FloatHistogram.java,0,0,0,0
org.apache.avro.ipc.stats.IntegerHistogram,0,0,0,0,0,0,0,0,0,0,0,0,0,0,0.0,0.0,0.0,0.0,0.0,0.0,0.0,0.0,0.0,0.0,0.0,0.0,0.0,27,lang\java\ipc\src\main\java\org\apache\avro\ipc\stats\IntegerHistogram.java,0,0,0,0
org.apache.avro.ipc.stats.StaticServlet,0,0,0,0,0,0,0,0,0,0,0,0,0,0,0.0,0.0,0.0,0.0,0.0,0.0,0.0,0.0,0.0,0.0,0.0,0.0,0.0,14,lang\java\ipc\src\main\java\org\apache\avro\ipc\stats\StaticServlet.java,0,0,0,0
org.apache.avro.ipc.stats.StatsPluginOverhead,0,0,0,0,0,0,0,0,0,0,0,0,0,0,0.0,0.0,0.0,0.0,0.0,0.0,0.0,0.0,0.0,0.0,0.0,0.0,0.0,54,lang\java\ipc\src\test\java\org\apache\avro\ipc\stats\StatsPluginOverhead.java,0,0,0,0
org.apache.avro.ipc.stats.StatsServer,0,0,0,0,0,0,0,0,0,0,0,0,0,0,0.0,0.0,0.0,0.0,0.0,0.0,0.0,0.0,0.0,0.0,0.0,0.0,0.0,16,lang\java\ipc\src\main\java\org\apache\avro\ipc\stats\StatsServer.java,0,0,0,0
org.apache.avro.ipc.stats.Stopwatch,0,0,0,0,0,0,0,0,0,0,0,0,0,0,0.0,0.0,0.0,0.0,0.0,0.0,0.0,0.0,0.0,0.0,0.0,0.0,0.0,37,lang\java\ipc\src\main\java\org\apache\avro\ipc\stats\Stopwatch.java,0,0,0,0
org.apache.avro.ipc.stats.TestHistogram,0,0,0,0,0,0,0,0,0,0,0,0,0,0,0.0,0.0,0.0,0.0,0.0,0.0,0.0,0.0,0.0,0.0,0.0,0.0,0.0,84,lang\java\ipc\src\test\java\org\apache\avro\ipc\stats\TestHistogram.java,0,0,0,0
org.apache.avro.ipc.stats.TestStopwatch,0,0,0,0,0,0,0,0,0,0,0,0,0,0,0.0,0.0,0.0,0.0,0.0,0.0,0.0,0.0,0.0,0.0,0.0,0.0,0.0,49,lang\java\ipc\src\test\java\org\apache\avro\ipc\stats\TestStopwatch.java,0,0,0,0
org.apache.avro.ipc.trace.InMemorySpanStorage,0,0,0,0,0,0,0,0,0,0,0,0,0,0,0.0,0.0,0.0,0.0,0.0,0.0,0.0,0.0,0.0,0.0,0.0,0.0,0.0,42,lang\java\ipc\src\main\java\org\apache\avro\ipc\trace\InMemorySpanStorage.java,0,0,0,0
org.apache.avro.ipc.trace.SingletonTestingTracePlugin,0,0,0,0,0,0,0,0,0,0,0,0,0,0,0.0,0.0,0.5,0.0,0.0,0.0,0.0,0.0,0.0,0.0,0.0,0.0,0.0,10,lang\java\ipc\src\test\java\org\apache\avro\ipc\trace\SingletonTestingTracePlugin.java,0,0,0,0
org.apache.avro.ipc.trace.SpanStorage,0,0,0,0,0,0,0,0,0,0,0,0,0,0,0.0,0.0,0.0,0.0,0.0,0.0,0.0,0.0,0.0,0.0,0.0,0.0,0.0,10,lang\java\ipc\src\main\java\org\apache\avro\ipc\trace\SpanStorage.java,0,0,0,0
org.apache.avro.ipc.trace.StaticServlet,0,0,0,0,0,0,0,0,0,0,0,0,0,0,0.0,0.0,0.0,0.0,0.0,0.0,0.0,0.0,0.0,0.0,0.0,0.0,0.0,17,lang\java\ipc\src\main\java\org\apache\avro\ipc\trace\StaticServlet.java,0,0,0,0
org.apache.avro.ipc.trace.TestBasicTracing,1,0,0,0,0,0,0,0,0,0,0,0,0,1,0.0,0.0,0.25,0.0,0.0,0.0,0.0,0.0,0.0,0.0,0.0,0.0,0.0,297,lang\java\ipc\src\test\java\org\apache\avro\ipc\trace\TestBasicTracing.java,0,0,0,0
org.apache.avro.ipc.trace.TestFileSpanStorage,0,0,0,0,0,0,0,0,0,0,0,0,0,0,0.0,0.0,0.5,0.0,0.0,0.0,0.0,0.0,0.0,0.0,0.0,0.0,0.0,128,lang\java\ipc\src\test\java\org\apache\avro\ipc\trace\TestFileSpanStorage.java,0,0,0,0
org.apache.avro.ipc.trace.TestSpanAggregation,0,0,0,0,0,0,0,0,0,0,0,0,0,0,0.0,0.0,0.0,0.0,0.0,0.0,0.0,0.0,0.0,0.0,0.0,0.0,0.0,128,lang\java\ipc\src\test\java\org\apache\avro\ipc\trace\TestSpanAggregation.java,0,0,0,0
org.apache.avro.ipc.trace.TestSpanTraceFormation,0,0,0,0,0,0,0,0,0,0,0,0,0,0,0.0,0.0,0.0,0.0,0.0,0.0,0.0,0.0,0.0,0.0,0.0,0.0,0.0,190,lang\java\ipc\src\test\java\org\apache\avro\ipc\trace\TestSpanTraceFormation.java,0,0,0,0
org.apache.avro.ipc.trace.TestStaticServlet,0,0,0,0,0,0,0,0,0,0,0,0,0,0,0.0,0.0,0.0,0.0,0.0,0.0,0.0,0.0,0.0,0.0,0.0,0.0,0.0,8,lang\java\ipc\src\test\java\org\apache\avro\ipc\trace\TestStaticServlet.java,0,0,0,0
org.apache.avro.ipc.trace.TestTraceCollection,0,0,0,0,0,0,0,0,0,0,0,0,0,0,0.0,0.0,0.3333333333333333,0.0,0.0,0.0,0.0,0.0,0.0,0.0,0.0,0.0,0.0,66,lang\java\ipc\src\test\java\org\apache\avro\ipc\trace\TestTraceCollection.java,0,0,0,0
org.apache.avro.ipc.trace.TestTraceConfigurations,0,0,0,0,0,0,0,0,0,0,0,0,0,0,0.0,0.0,1.0,0.0,0.0,0.0,0.0,0.0,0.0,0.0,0.0,0.0,0.0,63,lang\java\ipc\src\test\java\org\apache\avro\ipc\trace\TestTraceConfigurations.java,0,0,0,0
org.apache.avro.ipc.trace.TestTraceSingletons,0,0,0,0,0,0,0,0,0,0,0,0,0,0,0.0,0.0,0.5,0.0,0.0,0.0,0.0,0.0,0.0,0.0,0.0,0.0,0.0,39,lang\java\ipc\src\test\java\org\apache\avro\ipc\trace\TestTraceSingletons.java,0,0,0,0
org.apache.avro.ipc.trace.TestTracingUtil,0,0,0,0,0,0,0,0,0,0,0,0,0,0,0.0,0.0,0.0,0.0,0.0,0.0,0.0,0.0,0.0,0.0,0.0,0.0,0.0,16,lang\java\ipc\src\test\java\org\apache\avro\ipc\trace\TestTracingUtil.java,0,0,0,0
org.apache.avro.ipc.trace.TraceNode,0,0,1,0,0,0,0,0,0,0,0,0,0,1,0.0,0.0,0.0,0.0,0.0,0.0,0.0,0.0,0.0,0.0,0.0,0.0,0.0,63,lang\java\ipc\src\main\java\org\apache\avro\ipc\trace\TraceNode.java,0,0,0,0
org.apache.avro.ipc.trace.TracePluginConfiguration,0,0,1,0,0,0,0,0,0,0,0,0,0,1,0.16666666666666666,0.0,0.0,0.0,0.0,0.0,0.0,0.0,0.0,0.0,0.0,0.0,0.0,42,lang\java\ipc\src\main\java\org\apache\avro\ipc\trace\TracePluginConfiguration.java,0,0,0,0
org.apache.avro.ipc.trace.Util,0,0,0,0,0,0,0,0,0,0,0,0,0,0,0.14285714285714285,0.0,0.14285714285714285,0.0,0.0,0.0,0.0,0.0,0.0,0.0,0.0,0.0,0.0,129,lang\java\ipc\src\main\java\org\apache\avro\ipc\trace\Util.java,0,0,0,0
org.apache.avro.mapred.AvroAsTextInputFormat,0,0,0,0,0,0,0,0,0,0,0,0,0,0,0.0,0.0,0.0,0.0,0.0,0.0,0.0,0.0,0.0,0.0,0.0,0.0,0.0,22,lang\java\mapred\src\main\java\org\apache\avro\mapred\AvroAsTextInputFormat.java,0,0,0,0
org.apache.avro.mapred.AvroAsTextRecordReader,0,0,0,0,0,0,0,0,0,0,0,0,0,0,0.0,0.0,0.0,0.0,0.0,0.0,0.0,0.0,0.0,0.0,0.0,0.0,0.0,56,lang\java\mapred\src\main\java\org\apache\avro\mapred\AvroAsTextRecordReader.java,0,1,1,3
org.apache.avro.mapred.AvroCollector,0,0,0,0,0,0,0,0,0,0,0,0,0,0,0.0,0.0,0.0,0.0,0.0,0.0,0.0,0.0,0.0,0.0,0.0,0.0,0.0,3,lang\java\mapred\src\main\java\org\apache\avro\mapred\AvroCollector.java,0,0,0,0
org.apache.avro.mapred.AvroInputFormat,0,0,0,0,0,0,0,0,0,0,0,0,0,0,0.0,0.0,0.0,0.0,0.0,0.0,0.0,0.0,0.0,0.0,0.0,0.0,0.0,26,lang\java\mapred\src\main\java\org\apache\avro\mapred\AvroInputFormat.java,0,0,0,0
org.apache.avro.mapred.AvroJob,0,0,0,1,0,0,0,0,0,0,0,0,0,1,0.0,0.0,0.0,0.0,0.0,0.0,0.0,0.11764705882352941,0.0,0.0,0.0,0.0,0.0,154,lang\java\mapred\src\main\java\org\apache\avro\mapred\AvroJob.java,0,0,0,0
org.apache.avro.mapred.AvroKey,0,0,0,0,0,0,0,0,0,0,0,0,0,0,0.0,0.0,0.0,0.0,0.0,0.0,0.0,0.18181818181818182,0.0,0.0,0.0,0.0,0.0,4,lang\java\mapred\src\main\java\org\apache\avro\mapred\AvroKey.java,0,0,0,0
org.apache.avro.mapred.AvroKeyComparator,0,0,0,0,0,0,0,1,0,0,0,0,0,1,0.0,0.0,0.0,0.3333333333333333,0.0,0.0,0.0,0.3333333333333333,0.0,0.0,0.0,0.0,0.0,16,lang\java\mapred\src\main\java\org\apache\avro\mapred\AvroKeyComparator.java,0,0,0,0
org.apache.avro.mapred.AvroMapper,0,0,0,0,0,0,0,0,0,0,0,0,0,0,0.0,0.0,0.0,0.0,0.0,0.0,0.0,0.0,0.0,0.0,0.0,0.0,0.0,13,lang\java\mapred\src\main\java\org\apache\avro\mapred\AvroMapper.java,0,0,0,0
org.apache.avro.mapred.AvroRecordReader,0,0,0,0,0,0,0,0,0,0,0,0,0,0,0.0,0.0,0.0,0.125,0.0,0.125,0.0,0.0,0.0,0.0,0.0,0.0,0.0,43,lang\java\mapred\src\main\java\org\apache\avro\mapred\AvroRecordReader.java,0,0,0,0
org.apache.avro.mapred.AvroReducer,0,0,0,0,0,0,0,0,0,0,0,0,0,0,0.0,0.0,0.0,0.5,0.0,0.0,0.0,0.0,0.0,0.0,0.0,0.0,0.0,20,lang\java\mapred\src\main\java\org\apache\avro\mapred\AvroReducer.java,0,0,0,0
org.apache.avro.mapred.AvroSerialization,0,0,0,0,0,0,0,0,0,0,0,0,0,0,0.0,0.0,0.0,0.5,0.0,0.0,0.0,0.0,0.0,0.0,0.0,0.0,0.0,74,lang\java\mapred\src\main\java\org\apache\avro\mapred\AvroSerialization.java,0,0,0,0
org.apache.avro.mapred.AvroTextOutputFormat,0,0,0,0,0,0,0,0,0,0,0,0,0,0,0.0,0.0,0.0,0.0,0.0,0.0,0.0,0.0,0.0,0.0,0.0,0.0,0.0,78,lang\java\mapred\src\main\java\org\apache\avro\mapred\AvroTextOutputFormat.java,0,0,0,0
org.apache.avro.mapred.AvroUtf8InputFormat,0,0,0,0,0,0,0,0,0,0,0,0,0,0,0.0,0.0,0.0,0.0,0.0,0.0,0.0,0.0,0.0,0.0,0.0,0.0,0.0,57,lang\java\mapred\src\main\java\org\apache\avro\mapred\AvroUtf8InputFormat.java,0,0,0,0
org.apache.avro.mapred.AvroValue,0,0,0,0,0,0,0,0,0,0,0,0,0,0,0.0,0.0,0.0,0.0,0.0,0.0,0.0,0.0,0.0,0.0,0.0,0.0,0.0,4,lang\java\mapred\src\main\java\org\apache\avro\mapred\AvroValue.java,0,0,0,0
org.apache.avro.mapred.AvroWrapper,0,0,0,0,0,0,0,0,0,0,0,0,0,0,0.0,0.0,0.0,0.0,0.0,0.0,0.0,0.15789473684210525,0.0,0.0,0.0,0.0,0.0,29,lang\java\mapred\src\main\java\org\apache\avro\mapred\AvroWrapper.java,0,0,0,0
org.apache.avro.mapred.FsInput,0,0,0,0,0,0,0,0,0,0,0,0,0,0,0.0,0.0,0.0,0.0,0.0,0.0,0.0,0.0,0.0,0.0,0.0,0.0,0.0,23,lang\java\mapred\src\main\java\org\apache\avro\mapred\FsInput.java,0,0,0,0
org.apache.avro.mapred.HadoopCombiner,0,0,0,0,0,0,0,0,0,0,0,0,0,0,0.0,0.0,0.0,0.0,0.0,0.0,0.0,0.0,0.0,0.0,0.0,0.0,0.0,27,lang\java\mapred\src\main\java\org\apache\avro\mapred\HadoopCombiner.java,0,0,0,0
org.apache.avro.mapred.HadoopMapper,0,0,0,0,0,0,0,0,0,0,0,0,0,0,0.0,0.0,0.0,0.0,0.0,0.0,0.0,0.0,0.0,0.0,0.0,0.0,0.0,47,lang\java\mapred\src\main\java\org\apache\avro\mapred\HadoopMapper.java,21,0,2,25
org.apache.avro.mapred.HadoopReducer,0,0,0,0,0,0,0,0,0,0,0,0,0,0,0.0,0.0,0.0,0.0,0.0,0.0,0.0,0.0,0.0,0.0,0.0,0.0,0.0,25,lang\java\mapred\src\main\java\org\apache\avro\mapred\HadoopReducer.java,0,0,0,0
org.apache.avro.mapred.SequenceFileInputFormat,0,0,0,0,0,0,0,0,0,0,0,0,0,0,0.0,0.0,0.0,0.0,0.0,1.0,0.0,0.0,0.0,0.0,0.0,0.0,0.0,10,lang\java\mapred\src\main\java\org\apache\avro\mapred\SequenceFileInputFormat.java,0,0,0,0
org.apache.avro.mapred.SequenceFileRecordReader,0,0,0,0,0,1,0,0,0,0,0,0,0,1,0.0,0.0,0.0,0.0,0.0,0.0,0.0,0.0,0.0,0.0,0.0,0.0,0.0,7,lang\java\mapred\src\main\java\org\apache\avro\mapred\SequenceFileRecordReader.java,0,0,0,0
org.apache.avro.mapred.TestAvroInputFormat,0,0,0,0,0,0,0,0,0,0,0,0,0,0,0.0,0.0,0.0,0.0,0.0,0.0,0.0,0.0,0.0,0.0,0.0,0.0,0.0,39,lang\java\mapred\src\test\java\org\apache\avro\mapred\TestAvroInputFormat.java,0,0,0,0
org.apache.avro.mapred.TestAvroMultipleOutputs,0,0,0,0,0,0,0,0,0,0,0,0,0,0,0.0,0.0,0.0,0.3333333333333333,0.0,0.0,0.0,0.0,0.0,0.0,0.0,0.0,0.0,236,lang\java\mapred\src\test\java\org\apache\avro\mapred\TestAvroMultipleOutputs.java,0,0,0,0
org.apache.avro.mapred.TestAvroOutputFormat,0,0,0,0,0,0,0,0,0,0,0,0,0,0,0.0,0.0,0.0,0.0,0.0,0.0,0.0,0.0,0.0,0.0,0.0,0.0,0.0,93,lang\java\mapred\src\test\java\org\apache\avro\mapred\TestAvroOutputFormat.java,0,0,0,0
org.apache.avro.mapred.TestAvroTextOutputFormat,0,0,0,0,0,0,0,0,0,0,0,0,0,0,0.0,0.0,0.0,0.0,0.0,0.0,0.0,0.0,0.0,0.0,0.0,0.0,0.0,41,lang\java\mapred\src\test\java\org\apache\avro\mapred\TestAvroTextOutputFormat.java,0,0,0,0
org.apache.avro.mapred.TestAvroTextSort,0,0,0,0,0,0,0,0,0,0,0,0,0,0,0.0,0.0,0.0,0.0,0.0,0.0,0.0,0.0,0.0,0.0,0.0,0.0,0.0,17,lang\java\mapred\src\test\java\org\apache\avro\mapred\TestAvroTextSort.java,0,0,0,0
org.apache.avro.mapred.TestGenericJob,0,0,0,0,0,0,0,0,0,0,0,0,0,0,0.0,0.0,0.0,1.0,0.0,0.0,0.0,0.0,0.0,0.0,0.0,0.0,0.0,78,lang\java\mapred\src\test\java\org\apache\avro\mapred\TestGenericJob.java,0,0,0,0
org.apache.avro.mapred.TestPair,0,0,0,0,0,0,0,0,0,0,0,0,0,0,0.0,0.0,0.0,0.0,0.0,0.0,0.0,0.0,0.0,0.0,0.0,0.0,0.0,11,lang\java\mapred\src\test\java\org\apache\avro\mapred\TestPair.java,0,0,0,0
org.apache.avro.mapred.TestReflectJob,0,0,0,0,0,0,0,0,0,0,0,0,0,0,0.0,0.0,0.0,0.3333333333333333,0.0,0.0,0.0,0.3333333333333333,0.0,0.0,0.0,0.0,0.0,91,lang\java\mapred\src\test\java\org\apache\avro\mapred\TestReflectJob.java,0,0,0,0
org.apache.avro.mapred.TestWeather,0,0,0,0,0,0,0,0,0,0,0,0,0,0,0.0,0.0,0.0,0.3333333333333333,0.0,0.0,0.0,0.0,0.0,0.0,0.0,0.0,0.0,105,lang\java\mapred\src\test\java\org\apache\avro\mapred\TestWeather.java,0,0,0,0
org.apache.avro.mapred.TestWordCount,0,0,0,0,0,0,0,0,0,0,0,0,0,0,0.0,0.0,0.0,0.3333333333333333,0.0,0.0,0.0,0.0,0.0,0.0,0.0,0.0,0.0,82,lang\java\mapred\src\test\java\org\apache\avro\mapred\TestWordCount.java,0,0,0,0
org.apache.avro.mapred.tether.TestWordCountTether,0,0,0,0,0,0,0,0,0,0,0,0,0,0,0.0,0.0,0.0,0.5,0.0,0.0,0.0,0.0,0.0,0.0,0.0,0.0,0.0,39,lang\java\mapred\src\test\java\org\apache\avro\mapred\tether\TestWordCountTether.java,0,0,0,0
org.apache.avro.mapred.tether.TetherData,0,0,0,0,0,0,0,0,0,0,0,0,0,0,0.0,0.0,0.0,0.0,0.0,0.0,0.0,0.16666666666666666,0.0,0.0,0.0,0.0,0.0,10,lang\java\mapred\src\main\java\org\apache\avro\mapred\tether\TetherData.java,0,0,0,0
org.apache.avro.mapred.tether.TetherInputFormat,0,0,0,0,0,0,0,0,0,0,0,0,0,0,0.0,0.0,0.0,0.0,0.0,0.0,0.0,0.0,0.0,0.0,0.0,0.0,0.0,23,lang\java\mapred\src\main\java\org\apache\avro\mapred\tether\TetherInputFormat.java,0,0,0,0
org.apache.avro.mapred.tether.TetherKeyComparator,0,0,0,0,0,0,0,1,0,0,0,0,0,1,0.0,0.0,0.0,0.3333333333333333,0.0,0.0,0.0,0.3333333333333333,0.0,0.0,0.0,0.0,0.0,25,lang\java\mapred\src\main\java\org\apache\avro\mapred\tether\TetherKeyComparator.java,0,0,0,0
org.apache.avro.mapred.tether.TetherKeySerialization,0,0,0,0,0,0,0,0,0,0,0,0,0,0,0.0,0.0,0.0,0.0,0.0,0.0,0.0,0.0,0.0,0.0,0.0,0.0,0.0,42,lang\java\mapred\src\main\java\org\apache\avro\mapred\tether\TetherKeySerialization.java,0,0,0,0
org.apache.avro.mapred.tether.TetherMapRunner,0,0,0,0,0,0,0,0,0,0,0,0,0,0,0.0,0.0,0.0,0.3333333333333333,0.0,0.0,0.0,0.0,0.0,0.0,0.0,0.0,0.0,42,lang\java\mapred\src\main\java\org\apache\avro\mapred\tether\TetherMapRunner.java,0,0,0,0
org.apache.avro.mapred.tether.TetherOutputFormat,0,0,0,0,0,0,0,0,0,0,0,0,0,0,0.0,0.0,0.0,1.0,0.0,0.0,0.0,0.0,0.0,0.0,0.0,0.0,0.0,32,lang\java\mapred\src\main\java\org\apache\avro\mapred\tether\TetherOutputFormat.java,0,0,0,0
org.apache.avro.mapred.tether.TetherOutputService,0,0,0,0,0,0,0,0,0,0,0,0,0,0,0.0,0.0,0.0,0.0,0.0,0.0,0.0,0.0,0.0,0.0,0.0,0.0,0.0,61,lang\java\mapred\src\main\java\org\apache\avro\mapred\tether\TetherOutputService.java,0,0,0,0
org.apache.avro.mapred.tether.TetherPartitioner,0,0,0,0,0,0,0,0,0,0,0,0,0,0,0.0,0.0,0.0,0.25,0.0,0.0,0.0,0.25,0.0,0.0,0.0,0.0,0.0,22,lang\java\mapred\src\main\java\org\apache\avro\mapred\tether\TetherPartitioner.java,0,0,0,0
org.apache.avro.mapred.tether.TetherRecordReader,0,0,0,0,0,0,0,0,0,0,0,0,0,0,0.0,0.0,0.0,0.0,0.0,0.0,0.0,0.0,0.0,0.0,0.0,0.0,0.0,39,lang\java\mapred\src\main\java\org\apache\avro\mapred\tether\TetherRecordReader.java,0,0,0,0
org.apache.avro.mapred.tether.TetherReducer,0,0,0,0,0,0,0,0,0,0,0,0,0,0,0.0,0.0,0.0,0.3333333333333333,0.0,0.0,0.0,0.0,0.0,0.0,0.0,0.0,0.0,43,lang\java\mapred\src\main\java\org\apache\avro\mapred\tether\TetherReducer.java,0,0,0,0
org.apache.avro.mapred.tether.TetherTaskRunner,0,0,0,0,0,0,0,0,0,0,0,0,0,0,0.0,0.0,0.0,0.0,0.0,0.0,0.0,0.0,0.0,0.0,0.0,0.0,0.0,42,lang\java\mapred\src\test\java\org\apache\avro\mapred\tether\TetherTaskRunner.java,0,0,0,0
org.apache.avro.mapred.tether.WordCountTask,0,0,0,0,0,0,0,0,0,0,0,0,0,0,0.0,0.0,0.0,0.0,0.0,0.0,0.0,0.0,0.0,0.0,0.0,0.0,0.0,23,lang\java\mapred\src\test\java\org\apache\avro\mapred\tether\WordCountTask.java,0,0,0,0
org.apache.avro.mapreduce.AvroFiles,0,0,0,0,0,0,0,0,0,0,0,0,0,0,0.0,0.0,0.0,0.0,0.0,0.0,0.0,0.0,0.0,0.0,0.0,0.0,0.0,14,lang\java\mapred\src\test\java\org\apache\avro\mapreduce\AvroFiles.java,0,0,0,0
org.apache.avro.mapreduce.AvroJob,0,0,0,0,0,0,0,0,0,0,0,0,0,0,0.0,0.0,0.08333333333333333,0.08333333333333333,0.0,0.0,0.0,0.08333333333333333,0.0,0.0,0.0,0.0,0.0,61,lang\java\mapred\src\main\java\org\apache\avro\mapreduce\AvroJob.java,0,0,0,0
org.apache.avro.mapreduce.AvroKeyInputFormat,0,0,0,0,0,0,0,0,0,0,0,0,0,0,0.0,0.0,0.0,0.0,0.0,0.0,0.0,0.0,0.0,0.0,0.0,0.0,0.0,13,lang\java\mapred\src\main\java\org\apache\avro\mapreduce\AvroKeyInputFormat.java,0,0,0,0
org.apache.avro.mapreduce.AvroKeyOutputFormat,0,0,0,0,0,0,0,0,0,0,0,0,0,0,0.0,0.0,0.25,0.25,0.0,0.0,0.0,0.0,0.0,0.0,0.0,0.0,0.0,38,lang\java\mapred\src\main\java\org\apache\avro\mapreduce\AvroKeyOutputFormat.java,0,0,0,0
org.apache.avro.mapreduce.AvroKeyRecordReader,0,0,0,0,0,0,0,0,0,0,0,0,0,0,0.0,0.0,0.0,0.0,0.0,0.0,0.0,0.0,0.0,0.0,0.0,0.0,0.0,22,lang\java\mapred\src\main\java\org\apache\avro\mapreduce\AvroKeyRecordReader.java,0,0,0,0
org.apache.avro.mapreduce.AvroKeyRecordWriter,0,0,0,0,0,0,0,1,0,0,0,0,0,1,0.0,0.0,0.0,0.0,0.0,0.0,0.0,0.0,0.0,0.0,0.0,0.0,0.0,27,lang\java\mapred\src\main\java\org\apache\avro\mapreduce\AvroKeyRecordWriter.java,0,0,0,0
org.apache.avro.mapreduce.AvroKeyValueInputFormat,0,0,0,0,0,0,0,0,0,0,0,0,0,0,0.0,0.0,0.0,0.0,0.0,0.0,0.0,0.0,0.0,0.0,0.0,0.0,0.0,18,lang\java\mapred\src\main\java\org\apache\avro\mapreduce\AvroKeyValueInputFormat.java,0,0,0,0
org.apache.avro.mapreduce.AvroKeyValueOutputFormat,0,0,0,0,0,0,0,0,0,0,0,0,0,0,0.0,0.0,0.0,0.3333333333333333,0.0,0.0,0.0,0.3333333333333333,0.0,0.0,0.0,0.0,0.0,16,lang\java\mapred\src\main\java\org\apache\avro\mapreduce\AvroKeyValueOutputFormat.java,0,0,0,0
org.apache.avro.mapreduce.AvroKeyValueRecordReader,0,0,0,0,0,0,0,0,0,0,0,0,0,0,0.0,0.0,0.0,0.0,0.0,0.0,0.0,0.0,0.0,0.0,0.0,0.0,0.0,31,lang\java\mapred\src\main\java\org\apache\avro\mapreduce\AvroKeyValueRecordReader.java,0,0,0,0
org.apache.avro.mapreduce.AvroKeyValueRecordWriter,0,0,0,0,0,0,0,1,0,0,0,0,0,1,0.0,0.0,0.0,0.0,0.0,0.0,0.0,0.0,0.0,0.0,0.0,0.0,0.0,44,lang\java\mapred\src\main\java\org\apache\avro\mapreduce\AvroKeyValueRecordWriter.java,0,0,0,0
org.apache.avro.mapreduce.AvroOutputFormatBase,0,0,0,0,0,0,0,0,0,0,0,0,0,0,0.0,0.0,0.0,0.0,0.0,0.0,0.0,0.0,0.0,0.0,0.0,0.0,0.0,41,lang\java\mapred\src\main\java\org\apache\avro\mapreduce\AvroOutputFormatBase.java,0,0,0,0
org.apache.avro.mapreduce.AvroRecordReaderBase,0,0,0,0,0,0,0,0,0,0,0,0,0,0,0.0,0.0,0.0,0.2,0.0,0.0,0.0,0.0,0.0,0.0,0.0,0.0,0.0,70,lang\java\mapred\src\main\java\org\apache\avro\mapreduce\AvroRecordReaderBase.java,0,0,0,0
org.apache.avro.mapreduce.AvroSequenceFileInputFormat,0,0,0,0,0,0,0,0,0,0,0,0,0,0,0.0,0.0,0.0,0.0,0.0,0.0,0.0,0.0,0.0,0.0,0.0,0.0,0.0,79,lang\java\mapred\src\main\java\org\apache\avro\mapreduce\AvroSequenceFileInputFormat.java,0,0,0,0
org.apache.avro.mapreduce.AvroSequenceFileOutputFormat,0,0,0,0,0,0,0,0,0,0,0,0,0,0,0.0,0.0,0.0,0.0,0.0,0.0,0.0,0.0,0.0,0.0,0.0,0.0,0.0,54,lang\java\mapred\src\main\java\org\apache\avro\mapreduce\AvroSequenceFileOutputFormat.java,0,0,0,0
org.apache.avro.mapreduce.Syncable,0,0,0,0,0,0,0,0,0,0,0,0,0,0,0.0,0.0,0.0,0.0,0.0,0.0,0.0,0.0,0.0,0.0,0.0,0.0,0.0,54,lang\java\mapred\src\main\java\org\apache\avro\mapreduce\Syncable.java,0,0,0,0
org.apache.avro.mapreduce.TestAvroKeyInputFormat,0,0,0,0,0,0,0,0,0,0,0,0,0,0,0.0,0.0,0.0,0.0,0.0,0.0,0.0,0.0,0.0,0.0,0.0,0.0,0.0,21,lang\java\mapred\src\test\java\org\apache\avro\mapreduce\TestAvroKeyInputFormat.java,0,0,0,0
org.apache.avro.mapreduce.TestAvroKeyOutputFormat,0,0,1,0,0,0,0,0,0,0,0,0,0,1,0.0,0.0,0.0,0.0,0.0,0.0,0.0,0.0,0.0,0.0,0.0,0.0,0.0,97,lang\java\mapred\src\test\java\org\apache\avro\mapreduce\TestAvroKeyOutputFormat.java,0,0,0,0
org.apache.avro.mapreduce.TestAvroKeyRecordWriter,0,0,0,0,0,0,0,0,0,0,0,0,0,0,0.0,0.0,0.0,0.0,0.0,0.0,0.0,0.2,0.0,0.0,0.0,0.0,0.0,56,lang\java\mapred\src\test\java\org\apache\avro\mapreduce\TestAvroKeyRecordWriter.java,0,0,0,0
org.apache.avro.mojo.AbstractAvroMojo,0,0,0,0,0,0,0,0,0,0,0,0,0,0,0.0,0.0,0.0,0.0,0.0,0.0,0.0,0.0,0.0,0.0,0.0,0.0,0.0,103,lang\java\maven-plugin\src\main\java\org\apache\avro\mojo\AbstractAvroMojo.java,0,0,0,0
org.apache.avro.mojo.AbstractAvroMojoTest,0,0,0,0,0,0,0,0,0,0,0,0,0,0,0.0,0.0,0.0,0.0,0.0,0.0,0.0,0.0,0.0,0.0,0.0,0.0,0.0,20,lang\java\maven-plugin\src\test\java\org\apache\avro\mojo\AbstractAvroMojoTest.java,0,0,0,0
org.apache.avro.mojo.IDLProtocolMojo,0,0,0,0,0,0,0,0,0,0,0,0,0,0,0.0,0.0,0.0,0.0,0.0,0.0,0.0,0.0,0.0,0.0,0.0,0.0,0.0,44,lang\java\maven-plugin\src\main\java\org\apache\avro\mojo\IDLProtocolMojo.java,0,0,0,0
org.apache.avro.mojo.ProtocolMojo,0,0,0,0,0,0,0,0,0,0,0,0,0,0,0.0,0.0,0.0,0.0,0.0,0.0,0.0,0.0,0.0,0.0,0.0,0.0,0.0,23,lang\java\maven-plugin\src\main\java\org\apache\avro\mojo\ProtocolMojo.java,0,0,0,0
org.apache.avro.mojo.SchemaMojo,0,0,0,0,0,0,0,0,0,0,0,0,0,0,0.0,0.0,0.0,0.0,0.0,0.0,0.0,0.0,0.0,0.0,0.0,0.0,0.0,29,lang\java\maven-plugin\src\main\java\org\apache\avro\mojo\SchemaMojo.java,0,1,0,1
org.apache.avro.mojo.TestIDLProtocolMojo,0,0,0,0,0,0,0,0,0,0,0,0,0,0,0.0,0.0,0.0,0.0,0.0,0.0,0.0,0.0,0.0,0.0,0.0,0.0,0.0,13,lang\java\maven-plugin\src\test\java\org\apache\avro\mojo\TestIDLProtocolMojo.java,0,0,0,0
org.apache.avro.mojo.TestProtocolMojo,0,0,0,0,0,0,0,0,0,0,0,0,0,0,0.0,0.0,0.0,0.0,0.0,0.0,0.0,0.0,0.0,0.0,0.0,0.0,0.0,13,lang\java\maven-plugin\src\test\java\org\apache\avro\mojo\TestProtocolMojo.java,0,0,0,0
org.apache.avro.mojo.TestSchemaMojo,0,0,0,0,0,0,0,0,0,0,0,0,0,0,0.0,0.0,0.0,0.0,0.0,0.0,0.0,0.0,0.0,0.0,0.0,0.0,0.0,13,lang\java\maven-plugin\src\test\java\org\apache\avro\mojo\TestSchemaMojo.java,0,0,0,0
org.apache.avro.protobuf.ProtobufDatumReader,0,0,0,0,0,0,0,0,0,0,0,0,0,0,0.0,0.0,0.0,0.0,0.0,0.0,0.0,0.0,0.0,0.0,0.0,0.0,0.0,38,lang\java\protobuf\src\main\java\org\apache\avro\protobuf\ProtobufDatumReader.java,0,0,0,0
org.apache.avro.protobuf.ProtobufDatumWriter,0,0,0,0,0,0,0,0,0,0,0,0,0,0,0.0,0.0,0.0,0.0,0.0,0.0,0.0,0.0,0.0,0.0,0.0,0.0,0.0,31,lang\java\protobuf\src\main\java\org\apache\avro\protobuf\ProtobufDatumWriter.java,0,0,0,0
org.apache.avro.protobuf.Test,0,0,0,0,0,0,0,0,0,0,0,0,0,0,0.0,0.0,0.0,0.0,0.0,0.0,0.0,0.0,0.0,0.0,0.0,0.0,0.0,2181,lang\java\protobuf\src\test\java\org\apache\avro\protobuf\Test.java,0,0,12,24
org.apache.avro.protobuf.TestProtobuf,0,0,0,0,0,0,0,0,0,0,0,0,0,0,0.0,0.0,0.0,0.0,0.0,0.0,0.0,0.0,0.0,0.0,0.0,0.0,0.0,46,lang\java\protobuf\src\test\java\org\apache\avro\protobuf\TestProtobuf.java,0,0,0,0
org.apache.avro.reflect.ArrayAccessor,0,0,0,0,0,0,0,0,0,0,0,0,0,0,0.0,0.0,0.0,0.25,0.0,0.0,0.0,0.25,0.0,0.0,0.0,0.0,0.0,181,lang\java\avro\src\main\java\org\apache\avro\reflect\ArrayAccessor.java,0,0,0,0
org.apache.avro.reflect.CustomEncoding,0,0,0,0,0,0,0,0,0,0,0,0,0,0,0.0,0.0,0.0,0.5,0.0,0.0,0.0,0.0,0.0,0.0,0.0,0.0,0.0,11,lang\java\avro\src\main\java\org\apache\avro\reflect\CustomEncoding.java,0,0,0,0
org.apache.avro.reflect.DateAsLongEncoding,0,0,0,0,0,0,0,0,0,0,0,0,0,0,0.0,0.0,0.0,0.5,0.0,0.0,0.0,0.0,0.0,0.0,0.0,0.0,0.0,18,lang\java\avro\src\main\java\org\apache\avro\reflect\DateAsLongEncoding.java,0,0,0,0
org.apache.avro.reflect.FieldAccess,0,0,0,0,0,0,0,0,0,0,0,0,0,0,0.0,0.0,0.0,0.0,0.0,0.0,0.0,0.0,0.0,0.0,0.0,0.0,0.0,3,lang\java\avro\src\main\java\org\apache\avro\reflect\FieldAccess.java,0,0,0,0
org.apache.avro.reflect.FieldAccessor,0,0,0,0,0,0,0,0,0,0,0,0,0,0,0.0,0.0,0.0,0.25,0.0,0.0,0.0,0.25,0.0,0.0,0.0,0.0,0.0,21,lang\java\avro\src\main\java\org\apache\avro\reflect\FieldAccessor.java,0,0,0,0
org.apache.avro.reflect.ReflectDatumReader,0,0,0,0,0,0,0,1,0,0,0,0,0,1,0.0,0.0,0.0,0.18181818181818182,0.0,0.0,0.0,0.0,0.0,0.0,0.0,0.0,0.0,167,lang\java\avro\src\main\java\org\apache\avro\reflect\ReflectDatumReader.java,0,0,0,0
org.apache.avro.reflect.ReflectDatumWriter,0,0,0,0,0,0,0,0,0,0,0,0,0,0,0.0,0.0,0.0,0.0,0.0,0.0,0.0,0.0,0.0,0.0,0.0,0.0,0.0,131,lang\java\avro\src\main\java\org\apache\avro\reflect\ReflectDatumWriter.java,0,0,0,0
org.apache.avro.reflect.ReflectionUtil,0,0,0,0,0,0,0,0,0,0,0,0,0,0,0.0,0.0,0.0,0.0,0.0,0.0,0.0,0.0,0.0,0.0,0.0,0.0,0.0,81,lang\java\avro\src\main\java\org\apache\avro\reflect\ReflectionUtil.java,0,3,3,9
org.apache.avro.reflect.TestByteBuffer,0,0,0,0,0,0,0,0,0,0,0,0,0,0,0.0,0.0,0.0,0.0,0.0,0.0,0.0,0.2,0.0,0.0,0.0,0.0,0.0,81,lang\java\avro\src\test\java\org\apache\avro\reflect\TestByteBuffer.java,0,0,0,0
org.apache.avro.reflect.TestReflectDatumReader,0,0,0,0,0,0,0,0,0,0,0,0,0,0,0.0,0.0,0.0,0.0,0.0,0.0,0.0,0.0,0.0,0.0,0.0,0.0,0.0,118,lang\java\avro\src\test\java\org\apache\avro\reflect\TestReflectDatumReader.java,0,0,0,0
org.apache.avro.reflect.TestReflectionUtil,0,0,0,0,0,0,0,0,0,0,0,0,0,0,0.0,0.0,0.0,0.0,0.0,0.0,0.0,0.0,0.0,0.0,0.0,0.0,0.0,47,lang\java\avro\src\test\java\org\apache\avro\reflect\TestReflectionUtil.java,0,0,0,0
org.apache.avro.specific.SpecificDatumReader,0,0,0,0,0,0,0,0,0,0,0,0,0,0,0.0,0.0,0.0,0.0,0.0,0.0,0.0,0.125,0.0,0.0,0.0,0.0,0.0,57,lang\java\avro\src\main\java\org\apache\avro\specific\SpecificDatumReader.java,0,0,0,0
org.apache.avro.specific.SpecificErrorBuilderBase,0,0,0,0,0,0,0,0,0,0,0,0,0,0,0.0,0.0,0.0,0.0,0.0,0.0,0.0,0.0,0.0,0.0,0.0,0.0,0.0,70,lang\java\avro\src\main\java\org\apache\avro\specific\SpecificErrorBuilderBase.java,0,0,0,0
org.apache.avro.specific.SpecificExceptionBase,0,0,0,0,0,0,0,0,0,0,0,0,0,0,0.0,0.0,0.0,0.0,0.0,0.0,0.0,0.0,0.0,0.0,0.0,0.0,0.0,27,lang\java\avro\src\main\java\org\apache\avro\specific\SpecificExceptionBase.java,0,0,0,0
org.apache.avro.specific.SpecificFixed,0,0,0,0,0,0,0,0,0,0,0,0,0,0,0.0,0.0,0.0,0.0,0.0,0.0,0.0,0.0,0.0,0.0,0.0,0.0,0.0,9,lang\java\avro\src\main\java\org\apache\avro\specific\SpecificFixed.java,0,0,0,0
org.apache.avro.specific.SpecificRecord,0,0,0,0,0,0,0,0,0,0,0,0,0,0,0.0,0.0,0.0,0.0,0.0,0.0,0.0,0.0,0.0,0.0,0.0,0.0,0.0,9,lang\java\avro\src\main\java\org\apache\avro\specific\SpecificRecord.java,0,0,0,0
org.apache.avro.specific.SpecificRecordBase,0,0,0,0,0,0,0,0,0,1,0,0,0,1,0.0,0.0,0.6666666666666666,0.3333333333333333,0.0,0.0,0.0,0.0,0.0,0.3333333333333333,0.0,0.0,0.0,33,lang\java\avro\src\main\java\org\apache\avro\specific\SpecificRecordBase.java,0,0,0,0
org.apache.avro.specific.SpecificRecordBuilderBase,0,0,0,0,0,0,0,0,0,0,0,0,0,0,0.0,0.0,0.0,0.0,0.0,0.0,0.0,0.0,0.0,0.0,0.0,0.0,0.0,12,lang\java\avro\src\main\java\org\apache\avro\specific\SpecificRecordBuilderBase.java,0,0,0,0
org.apache.avro.specific.TestSpecificData,0,0,0,0,0,0,0,0,0,0,0,0,0,0,0.0,0.0,0.3333333333333333,0.0,0.0,0.0,0.0,0.0,0.0,0.3333333333333333,0.0,0.0,0.0,88,lang\java\avro\src\test\java\org\apache\avro\specific\TestSpecificData.java,0,0,0,0
org.apache.avro.specific.TestSpecificDatumWriter,0,0,0,0,0,0,0,0,0,0,0,0,0,0,0.0,0.0,0.0,0.5,0.0,0.0,0.0,0.0,0.0,0.0,0.0,0.0,0.0,19,lang\java\ipc\src\test\java\org\apache\avro\specific\TestSpecificDatumWriter.java,0,0,0,0
org.apache.avro.specific.TestSpecificErrorBuilder,0,0,0,0,0,0,0,0,0,0,0,0,0,0,0.0,0.0,0.0,0.0,0.0,0.0,0.0,0.0,0.0,0.0,0.0,0.0,0.0,39,lang\java\ipc\src\test\java\org\apache\avro\specific\TestSpecificErrorBuilder.java,0,0,0,0
org.apache.avro.thrift.ThriftDatumReader,0,0,0,0,0,0,0,0,0,0,0,0,0,0,0.0,0.0,0.0,0.5,0.0,0.0,0.0,0.0,0.0,0.0,0.0,0.0,0.0,50,lang\java\thrift\src\main\java\org\apache\avro\thrift\ThriftDatumReader.java,0,0,0,0
org.apache.avro.thrift.ThriftDatumWriter,0,0,0,0,0,0,0,0,0,0,0,0,0,0,0.0,0.0,0.0,0.0,0.0,0.0,0.0,0.0,0.0,0.0,0.0,0.0,0.0,21,lang\java\thrift\src\main\java\org\apache\avro\thrift\ThriftDatumWriter.java,0,0,0,0
org.apache.avro.tool.BinaryFragmentToJsonTool,0,0,0,0,0,0,0,0,0,0,0,0,0,0,0.0,0.0,0.0,0.5,0.0,0.0,0.0,0.0,0.0,0.0,0.0,0.0,0.0,60,lang\java\tools\src\main\java\org\apache\avro\tool\BinaryFragmentToJsonTool.java,0,0,0,0
org.apache.avro.tool.CatTool,0,0,0,0,0,0,0,0,0,0,0,0,0,0,0.0,0.0,0.0,0.0,0.0,0.0,0.0,0.0,0.0,0.0,0.0,0.0,0.0,152,lang\java\tools\src\main\java\org\apache\avro\tool\CatTool.java,0,0,0,0
org.apache.avro.tool.CreateRandomFileTool,0,0,0,0,0,0,0,0,0,0,0,0,0,0,0.0,0.0,0.0,0.0,0.0,0.0,0.0,0.0,0.0,0.0,0.0,0.0,0.0,54,lang\java\tools\src\main\java\org\apache\avro\tool\CreateRandomFileTool.java,0,0,0,0
org.apache.avro.tool.DataFileGetSchemaTool,0,0,0,0,0,0,0,0,0,0,0,0,0,0,0.0,0.0,0.0,0.0,0.0,0.0,0.0,0.0,0.0,0.0,0.0,0.0,0.0,23,lang\java\tools\src\main\java\org\apache\avro\tool\DataFileGetSchemaTool.java,0,0,0,0
org.apache.avro.tool.DataFileReadTool,0,0,0,0,0,0,0,0,0,0,0,0,0,0,0.0,0.0,0.0,0.3333333333333333,0.0,0.0,0.0,0.0,0.0,0.0,0.0,0.0,0.0,42,lang\java\tools\src\main\java\org\apache\avro\tool\DataFileReadTool.java,0,0,0,0
org.apache.avro.tool.DataFileWriteTool,0,0,0,0,0,0,0,0,0,0,0,0,0,0,0.0,0.0,0.0,0.0,0.0,0.0,0.0,0.0,0.0,0.0,0.0,0.0,0.0,65,lang\java\tools\src\main\java\org\apache\avro\tool\DataFileWriteTool.java,0,0,0,0
org.apache.avro.tool.FromTextTool,0,0,0,0,0,0,0,0,0,0,0,0,0,0,0.0,0.0,0.0,0.0,0.0,0.0,0.0,0.0,0.0,0.0,0.0,0.0,0.0,69,lang\java\tools\src\main\java\org\apache\avro\tool\FromTextTool.java,0,0,0,0
org.apache.avro.tool.IdlToSchemataTool,0,0,0,0,0,0,0,0,0,0,0,0,0,0,0.0,0.0,0.0,0.0,0.0,0.0,0.0,0.0,0.0,0.0,0.0,0.0,0.0,48,lang\java\tools\src\main\java\org\apache\avro\tool\IdlToSchemataTool.java,0,0,0,0
org.apache.avro.tool.IdlTool,0,0,0,0,0,0,0,0,0,0,0,0,0,0,0.0,0.0,0.0,0.0,0.0,0.0,0.0,0.0,0.0,0.0,0.0,0.0,0.0,39,lang\java\tools\src\main\java\org\apache\avro\tool\IdlTool.java,0,0,0,0
org.apache.avro.tool.InduceSchemaTool,0,0,0,0,0,0,0,0,0,0,0,0,0,0,0.0,0.0,0.0,0.0,0.0,0.0,0.0,0.0,0.0,0.0,0.0,0.0,0.0,41,lang\java\tools\src\main\java\org\apache\avro\tool\InduceSchemaTool.java,0,0,0,0
org.apache.avro.tool.JsonToBinaryFragmentTool,0,0,0,0,0,0,0,0,0,0,0,0,0,0,0.0,0.0,0.0,0.0,0.0,0.0,0.0,0.0,0.0,0.0,0.0,0.0,0.0,61,lang\java\tools\src\main\java\org\apache\avro\tool\JsonToBinaryFragmentTool.java,0,0,0,0
org.apache.avro.tool.RecodecTool,0,0,0,0,0,0,0,0,0,0,0,0,0,0,0.0,0.0,0.0,0.0,0.0,0.0,0.0,0.0,0.0,0.0,0.0,0.0,0.0,58,lang\java\tools\src\main\java\org\apache\avro\tool\RecodecTool.java,0,0,0,0
org.apache.avro.tool.RpcReceiveTool,0,0,0,0,0,0,0,0,0,0,0,0,0,0,0.0,0.0,0.0,0.0,0.0,0.0,0.0,0.0,0.0,0.0,0.0,0.0,0.0,116,lang\java\tools\src\main\java\org\apache\avro\tool\RpcReceiveTool.java,0,0,0,0
org.apache.avro.tool.RpcSendTool,0,0,0,0,0,0,0,0,0,0,0,0,0,0,0.0,0.0,0.0,0.0,0.0,0.0,0.0,0.0,0.0,0.0,0.0,0.0,0.0,64,lang\java\tools\src\main\java\org\apache\avro\tool\RpcSendTool.java,0,0,0,0
org.apache.avro.tool.SpecificCompilerTool,0,0,0,0,0,0,0,0,0,0,0,0,0,0,0.0,0.0,0.0,0.0,0.0,0.0,0.0,0.0,0.0,0.0,0.0,0.0,0.0,93,lang\java\tools\src\main\java\org\apache\avro\tool\SpecificCompilerTool.java,0,0,0,0
org.apache.avro.tool.TestIdlToSchemataTool,0,0,0,0,0,0,0,0,0,0,0,0,0,0,0.0,0.0,0.0,0.0,0.0,0.0,0.0,0.0,0.0,0.0,0.0,0.0,0.0,11,lang\java\tools\src\test\java\org\apache\avro\tool\TestIdlToSchemataTool.java,0,0,0,0
org.apache.avro.tool.TestMain,0,0,0,0,0,0,0,0,0,0,0,0,0,0,0.0,0.0,0.0,0.0,0.0,0.0,0.0,0.0,0.0,0.0,0.0,0.0,0.0,11,lang\java\tools\src\test\java\org\apache\avro\tool\TestMain.java,0,0,0,0
org.apache.avro.tool.TestRecodecTool,0,0,0,0,0,0,0,0,0,0,0,0,0,0,0.0,0.0,0.0,0.0,0.0,0.0,0.0,0.0,0.0,0.0,0.0,0.0,0.0,47,lang\java\tools\src\test\java\org\apache\avro\tool\TestRecodecTool.java,0,0,0,0
org.apache.avro.tool.TestRpcProtocolTool,0,0,0,0,0,0,0,0,0,0,0,0,0,0,0.0,0.0,0.0,0.0,0.0,0.0,0.0,0.0,0.0,0.0,0.0,0.0,0.0,42,lang\java\tools\src\test\java\org\apache\avro\tool\TestRpcProtocolTool.java,0,0,0,0
org.apache.avro.tool.TestTextFileTools,1,0,0,0,0,0,0,0,0,0,0,0,0,1,0.0,0.0,0.0,0.0,0.0,0.0,0.0,0.0,0.0,0.0,0.0,0.0,0.0,77,lang\java\tools\src\test\java\org\apache\avro\tool\TestTextFileTools.java,0,0,0,0
org.apache.avro.tool.TetherTool,0,0,1,0,0,0,0,0,0,0,0,0,0,1,0.0,0.0,0.0,0.0,0.0,0.0,0.0,0.0,0.0,0.0,0.0,0.0,0.0,49,lang\java\tools\src\main\java\org\apache\avro\tool\TetherTool.java,0,0,0,0
org.apache.avro.tool.ToTextTool,0,0,0,0,0,0,0,0,0,0,0,0,0,0,0.0,0.0,0.0,0.0,0.0,0.0,0.0,0.0,0.0,0.0,0.0,0.0,0.0,45,lang\java\tools\src\main\java\org\apache\avro\tool\ToTextTool.java,0,0,0,0
org.apache.avro.tool.ToTrevniTool,0,0,0,0,0,0,0,0,0,0,0,0,0,0,0.0,0.0,0.0,0.0,0.0,0.0,0.0,0.0,0.0,0.0,0.0,0.0,0.0,41,lang\java\tools\src\main\java\org\apache\avro\tool\ToTrevniTool.java,0,0,0,0
org.apache.avro.tool.Tool,0,0,0,0,0,0,0,0,0,0,0,0,0,0,0.0,0.0,0.0,0.0,0.0,0.0,0.0,0.0,0.0,0.0,0.0,0.0,0.0,41,lang\java\tools\src\main\java\org\apache\avro\tool\Tool.java,0,0,0,0
org.apache.avro.tool.TrevniCreateRandomTool,0,0,0,0,0,0,0,0,0,0,0,0,0,0,0.0,0.0,0.0,0.0,0.0,0.0,0.0,0.0,0.0,0.0,0.0,0.0,0.0,28,lang\java\tools\src\main\java\org\apache\avro\tool\TrevniCreateRandomTool.java,0,0,0,0
org.apache.avro.tool.TrevniUtil,0,0,0,0,0,0,0,0,0,0,0,0,0,0,0.0,0.0,0.0,0.0,0.0,0.0,0.0,0.0,0.0,0.0,0.0,0.0,0.0,31,lang\java\tools\src\main\java\org\apache\avro\tool\TrevniUtil.java,0,0,0,0
org.apache.avro.util.ByteBufferInputStream,0,0,0,0,0,0,0,0,0,0,0,0,0,0,1.0,0.0,0.0,1.0,0.0,0.0,0.0,0.0,0.0,0.0,0.0,0.0,0.0,46,lang\java\avro\src\main\java\org\apache\avro\util\ByteBufferInputStream.java,0,0,0,0
org.apache.avro.util.ByteBufferOutputStream,0,0,0,0,0,0,0,0,0,0,0,0,0,0,1.0,0.0,0.0,1.0,0.0,0.0,0.0,0.0,0.0,0.0,0.0,0.0,0.0,64,lang\java\avro\src\main\java\org\apache\avro\util\ByteBufferOutputStream.java,0,0,0,0
org.apache.avro.util.ClassUtils,0,0,0,0,0,0,0,0,0,0,0,0,0,0,0.0,0.0,0.0,0.0,0.0,0.0,0.0,0.0,0.0,0.0,0.0,0.0,0.0,47,lang\java\avro\src\main\java\org\apache\avro\util\ClassUtils.java,0,0,0,0
org.apache.avro.util.TestUtf8,0,0,0,0,0,0,0,0,0,0,0,0,0,0,0.0,0.0,0.0,0.0,0.0,0.0,0.0,0.0,0.0,0.0,0.0,0.0,0.0,22,lang\java\avro\src\test\java\org\apache\avro\util\TestUtf8.java,0,0,0,0
org.apache.trevni.ArrayColumnOutputBuffer,0,0,0,0,0,0,0,0,0,0,0,0,0,0,0.0,0.0,0.0,0.75,0.0,0.0,0.0,0.0,0.0,0.0,0.0,0.0,0.0,50,lang\java\trevni\core\src\main\java\org\apache\trevni\ArrayColumnOutputBuffer.java,0,0,0,0
org.apache.trevni.BZip2Codec,0,0,0,0,0,0,0,0,0,0,0,0,0,0,0.0,0.0,0.0,0.0,0.0,0.0,0.0,0.0,0.0,0.0,0.0,0.0,0.0,39,lang\java\trevni\core\src\main\java\org\apache\trevni\BZip2Codec.java,0,0,0,0
org.apache.trevni.BlockDescriptor,0,0,0,0,0,0,0,0,0,0,0,0,0,0,0.0,0.0,0.0,0.3333333333333333,0.0,0.0,0.0,0.0,0.0,0.0,0.0,0.0,0.0,23,lang\java\trevni\core\src\main\java\org\apache\trevni\BlockDescriptor.java,0,0,0,0
org.apache.trevni.Checksum,0,0,0,0,0,0,0,0,0,0,0,0,0,0,0.0,0.0,0.0,0.0,0.0,0.0,0.0,0.0,0.0,0.0,0.0,0.0,0.0,13,lang\java\trevni\core\src\main\java\org\apache\trevni\Checksum.java,0,0,0,0
org.apache.trevni.Codec,0,0,0,0,0,0,0,0,0,0,0,0,0,0,0.0,0.0,0.0,0.0,0.0,0.0,0.0,0.0,0.0,0.0,0.0,0.0,0.0,17,lang\java\trevni\core\src\main\java\org\apache\trevni\Codec.java,0,0,0,0
org.apache.trevni.ColumnDescriptor,0,0,0,0,0,0,0,0,0,0,0,0,0,0,0.0,0.0,0.0,0.3333333333333333,0.0,0.0,0.0,0.0,0.0,0.0,0.0,0.0,0.0,58,lang\java\trevni\core\src\main\java\org\apache\trevni\ColumnDescriptor.java,0,0,0,0
org.apache.trevni.ColumnFileMetaData,0,0,0,0,0,0,0,0,0,0,0,0,0,0,0.0,0.0,0.0,1.0,0.0,0.0,0.0,0.0,0.0,0.0,0.0,0.0,0.0,7,lang\java\trevni\core\src\main\java\org\apache\trevni\ColumnFileMetaData.java,0,0,0,0
org.apache.trevni.ColumnFileWriter,0,0,0,1,0,0,0,0,0,0,0,0,0,1,0.0,0.0,0.0,0.3333333333333333,0.0,0.0,0.0,0.0,0.0,0.0,0.0,0.0,0.0,97,lang\java\trevni\core\src\main\java\org\apache\trevni\ColumnFileWriter.java,0,0,0,0
org.apache.trevni.ColumnMetaData,0,0,0,1,0,0,0,0,0,0,0,0,0,1,0.0,0.0,0.0,0.3333333333333333,0.0,0.0,0.0,0.0,0.0,0.0,0.0,0.0,0.0,64,lang\java\trevni\core\src\main\java\org\apache\trevni\ColumnMetaData.java,0,0,0,0
org.apache.trevni.ColumnOutputBuffer,0,0,0,0,0,0,0,0,0,0,0,0,0,0,0.0,0.0,0.0,0.375,0.0,0.0,0.0,0.0,0.0,0.0,0.0,0.0,0.0,79,lang\java\trevni\core\src\main\java\org\apache\trevni\ColumnOutputBuffer.java,0,0,0,0
org.apache.trevni.Crc32Checksum,0,0,0,0,0,0,0,0,0,0,0,0,0,0,0.0,0.0,0.0,0.0,0.0,0.0,0.0,0.0,0.0,0.0,0.0,0.0,0.0,12,lang\java\trevni\core\src\main\java\org\apache\trevni\Crc32Checksum.java,0,0,0,0
org.apache.trevni.DeflateCodec,0,0,0,0,0,0,0,0,0,0,0,0,0,0,0.0,0.0,0.0,0.0,0.0,0.0,0.0,0.0,0.0,0.0,0.0,0.0,0.0,40,lang\java\trevni\core\src\main\java\org\apache\trevni\DeflateCodec.java,0,0,0,0
org.apache.trevni.Input,0,0,0,0,0,0,0,0,0,0,0,0,0,0,0.0,0.0,0.0,0.0,0.0,0.0,0.0,0.0,0.0,0.0,0.0,0.0,0.0,40,lang\java\trevni\core\src\main\java\org\apache\trevni\Input.java,0,0,0,0
org.apache.trevni.InputBytes,0,0,0,0,0,0,0,0,0,0,0,0,0,0,0.0,0.0,0.0,0.0,0.0,0.0,0.0,0.0,0.0,0.0,0.0,0.0,0.0,15,lang\java\trevni\core\src\main\java\org\apache\trevni\InputBytes.java,0,0,0,0
org.apache.trevni.InputFile,0,0,0,0,0,0,0,0,0,0,0,0,0,0,0.0,0.0,0.0,0.0,0.0,0.0,0.0,0.0,0.0,0.0,0.0,0.0,0.0,15,lang\java\trevni\core\src\main\java\org\apache\trevni\InputFile.java,0,0,0,0
org.apache.trevni.NullChecksum,0,0,0,0,0,0,0,0,0,0,0,0,0,0,0.0,0.0,0.0,0.0,0.0,0.0,0.0,0.0,0.0,0.0,0.0,0.0,0.0,6,lang\java\trevni\core\src\main\java\org\apache\trevni\NullChecksum.java,0,0,0,0
org.apache.trevni.NullCodec,0,0,0,0,0,0,0,0,0,0,0,0,0,0,0.0,0.0,0.0,0.0,0.0,0.0,0.0,0.0,0.0,0.0,0.0,0.0,0.0,8,lang\java\trevni\core\src\main\java\org\apache\trevni\NullCodec.java,0,0,0,0
org.apache.trevni.OutputBuffer,0,0,0,1,0,0,0,0,0,0,0,0,0,1,0.0,0.0,0.0,0.3333333333333333,0.0,0.0,0.0,0.0,0.0,0.0,0.0,0.0,0.0,264,lang\java\trevni\core\src\main\java\org\apache\trevni\OutputBuffer.java,0,0,0,0
org.apache.trevni.SnappyCodec,0,0,0,0,0,0,0,0,0,0,0,0,0,0,0.0,0.0,0.0,0.0,0.0,0.0,0.0,0.0,0.0,0.0,0.0,0.0,0.0,18,lang\java\trevni\core\src\main\java\org\apache\trevni\SnappyCodec.java,0,0,0,0
org.apache.trevni.TestBZip2Codec,0,0,0,0,0,0,0,0,0,0,0,0,0,0,0.0,0.0,0.0,0.0,0.0,0.0,0.0,0.0,0.0,0.0,0.0,0.0,0.0,24,lang\java\trevni\core\src\test\java\org\apache\trevni\TestBZip2Codec.java,0,0,0,0
org.apache.trevni.TestIOBuffers,0,0,0,1,0,0,0,0,0,0,0,0,0,1,0.0,0.0,0.0,0.5,0.0,0.0,0.0,0.0,0.0,0.0,0.0,0.0,0.0,210,lang\java\trevni\core\src\test\java\org\apache\trevni\TestIOBuffers.java,0,0,0,0
org.apache.trevni.TestInputBytes,0,0,0,0,0,0,0,0,0,0,0,0,0,0,0.0,0.0,0.0,0.0,0.0,0.0,0.0,0.0,0.0,0.0,0.0,0.0,0.0,18,lang\java\trevni\core\src\test\java\org\apache\trevni\TestInputBytes.java,0,0,0,0
org.apache.trevni.TestUtil,0,0,0,0,0,0,0,0,0,0,0,0,0,0,0.0,0.0,0.0,1.0,0.0,0.0,0.0,0.0,0.0,0.0,0.0,0.0,0.0,61,lang\java\trevni\core\src\test\java\org\apache\trevni\TestUtil.java,0,0,0,0
org.apache.trevni.TrevniRuntimeException,0,0,0,0,0,0,0,0,0,0,0,0,0,0,0.0,0.0,0.0,0.5,0.0,0.0,0.0,0.0,0.0,0.0,0.0,0.0,0.0,7,lang\java\trevni\core\src\main\java\org\apache\trevni\TrevniRuntimeException.java,0,0,0,0
org.apache.trevni.avro.AvroTrevniInputFormat,0,0,0,0,0,0,0,0,0,0,0,0,0,0,0.0,0.0,0.0,0.5,0.0,0.0,0.0,0.0,0.0,0.0,0.0,0.0,0.0,46,lang\java\trevni\avro\src\main\java\org\apache\trevni\avro\AvroTrevniInputFormat.java,0,0,0,0
org.apache.trevni.avro.HadoopInput,0,0,0,0,0,0,0,0,0,0,0,0,0,0,0.0,0.0,0.0,0.0,0.0,0.0,0.0,0.0,0.0,0.0,0.0,0.0,0.0,17,lang\java\trevni\avro\src\main\java\org\apache\trevni\avro\HadoopInput.java,0,0,0,0
org.apache.trevni.avro.TestCases,0,0,0,0,0,0,0,0,0,0,0,0,0,0,0.0,0.0,0.0,0.0,0.0,0.0,0.0,0.0,0.0,0.0,0.0,0.0,0.0,49,lang\java\trevni\avro\src\test\java\org\apache\trevni\avro\TestCases.java,0,0,0,0
org.apache.trevni.avro.TestEvolvedSchema,0,0,0,0,0,0,0,0,0,0,0,0,0,0,0.0,0.0,0.0,0.0,0.0,0.0,0.0,0.0,0.0,0.0,0.0,0.0,0.0,79,lang\java\trevni\avro\src\test\java\org\apache\trevni\avro\TestEvolvedSchema.java,0,0,0,0
org.apache.trevni.avro.TestMetadataFiltering,0,0,0,0,0,0,0,0,0,0,0,0,0,0,0.0,0.0,0.0,0.0,0.0,0.0,0.0,0.0,0.0,0.0,0.0,0.0,0.0,19,lang\java\trevni\avro\src\test\java\org\apache\trevni\avro\TestMetadataFiltering.java,0,0,0,0
org.apache.trevni.avro.TestShredder,0,0,0,1,0,0,0,0,0,0,0,0,0,1,0.0,0.0,0.0,1.0,0.0,0.0,0.0,0.0,0.0,0.0,0.0,0.0,0.0,214,lang\java\trevni\avro\src\test\java\org\apache\trevni\avro\TestShredder.java,0,0,0,0
org.apache.trevni.avro.TestWordCount,0,0,0,0,0,0,0,0,0,0,0,0,0,0,0.0,0.0,0.0,1.0,0.0,0.0,0.0,0.0,0.0,0.0,0.0,0.0,0.0,71,lang\java\trevni\avro\src\test\java\org\apache\trevni\avro\TestWordCount.java,0,0,0,0
org.apache.trevni.avro.mapreduce.AvroTrevniKeyInputFormat,0,0,0,0,0,0,0,0,0,0,0,0,0,0,0.0,0.0,0.0,0.0,0.0,0.0,0.0,0.0,0.0,0.0,0.0,0.0,0.0,8,lang\java\trevni\avro\src\main\java\org\apache\trevni\avro\mapreduce\AvroTrevniKeyInputFormat.java,0,0,0,0
org.apache.trevni.avro.mapreduce.AvroTrevniKeyOutputFormat,0,0,0,0,0,0,0,0,0,0,0,0,0,0,0.0,0.0,0.0,0.0,0.0,0.0,0.0,0.0,0.0,0.0,0.0,0.0,0.0,7,lang\java\trevni\avro\src\main\java\org\apache\trevni\avro\mapreduce\AvroTrevniKeyOutputFormat.java,0,0,0,0
org.apache.trevni.avro.mapreduce.AvroTrevniKeyRecordReader,0,0,0,0,0,0,0,0,0,0,0,0,0,0,0.0,0.0,0.0,0.0,0.0,0.0,0.0,0.0,0.0,0.0,0.0,0.0,0.0,19,lang\java\trevni\avro\src\main\java\org\apache\trevni\avro\mapreduce\AvroTrevniKeyRecordReader.java,0,0,0,0
org.apache.trevni.avro.mapreduce.AvroTrevniKeyRecordWriter,0,0,0,0,0,0,0,0,0,0,0,0,0,0,0.0,0.0,0.0,0.0,0.0,0.0,0.0,0.0,0.0,0.0,0.0,0.0,0.0,20,lang\java\trevni\avro\src\main\java\org\apache\trevni\avro\mapreduce\AvroTrevniKeyRecordWriter.java,0,0,0,0
org.apache.trevni.avro.mapreduce.AvroTrevniKeyValueInputFormat,0,0,0,0,0,0,0,0,0,0,0,0,0,0,0.0,0.0,0.0,0.0,0.0,0.0,0.0,0.0,0.0,0.0,0.0,0.0,0.0,8,lang\java\trevni\avro\src\main\java\org\apache\trevni\avro\mapreduce\AvroTrevniKeyValueInputFormat.java,0,0,0,0
org.apache.trevni.avro.mapreduce.AvroTrevniKeyValueOutputFormat,0,0,0,0,0,0,0,0,0,0,0,0,0,0,0.0,0.0,0.0,0.0,0.0,0.0,0.0,0.0,0.0,0.0,0.0,0.0,0.0,7,lang\java\trevni\avro\src\main\java\org\apache\trevni\avro\mapreduce\AvroTrevniKeyValueOutputFormat.java,0,0,0,0
org.apache.trevni.avro.mapreduce.AvroTrevniKeyValueRecordReader,0,0,0,0,0,0,0,0,0,0,0,0,0,0,0.0,0.0,0.0,0.0,0.0,0.0,0.0,0.0,0.0,0.0,0.0,0.0,0.0,22,lang\java\trevni\avro\src\main\java\org\apache\trevni\avro\mapreduce\AvroTrevniKeyValueRecordReader.java,0,0,0,0
org.apache.trevni.avro.mapreduce.AvroTrevniKeyValueRecordWriter,0,0,0,0,0,0,0,0,0,0,0,0,0,0,0.0,0.0,0.0,0.0,0.0,0.0,0.0,0.0,0.0,0.0,0.0,0.0,0.0,33,lang\java\trevni\avro\src\main\java\org\apache\trevni\avro\mapreduce\AvroTrevniKeyValueRecordWriter.java,0,0,0,0
org.apache.trevni.avro.mapreduce.AvroTrevniRecordReaderBase,0,0,0,0,0,0,0,0,0,0,0,0,0,0,0.0,0.0,0.0,0.0,0.0,0.0,0.0,0.0,0.0,0.0,0.0,0.0,0.0,39,lang\java\trevni\avro\src\main\java\org\apache\trevni\avro\mapreduce\AvroTrevniRecordReaderBase.java,0,0,0,0
org.apache.trevni.avro.mapreduce.TestKeyValueWordCount,0,0,0,0,0,0,0,0,0,0,0,0,0,0,0.0,0.0,0.0,0.0,0.0,0.0,0.0,0.0,0.0,0.0,0.0,0.0,0.0,85,lang\java\trevni\avro\src\test\java\org\apache\trevni\avro\mapreduce\TestKeyValueWordCount.java,0,0,0,0
org.apache.trevni.avro.mapreduce.TestKeyWordCount,0,0,0,0,0,0,0,0,0,0,0,0,0,0,0.0,0.0,0.0,0.0,0.0,0.0,0.0,0.0,0.0,0.0,0.0,0.0,0.0,94,lang\java\trevni\avro\src\test\java\org\apache\trevni\avro\mapreduce\TestKeyWordCount.java,0,0,0,0
