ClassName,AntiSingleton,Blob,ClassDataShouldBePrivate,ComplexClass,LargeClass,LazyClass,LongMethod,LongParameterList,MessageChains,RefusedParentBequest,SpaghettiCode,SpeculativeGenerality,SwissArmyKnife,NumOfAPs,AntiSingleton,Blob,ClassDataShouldBePrivate,ComplexClass,LargeClass,LazyClass,LongMethod,LongParameterList,MessageChains,RefusedParentBequest,SpaghettiCode,SpeculativeGenerality,SwissArmyKnife,LOC,name,deleted,added,changed,all
org.apache.empire.DBResource, 0, 0, 1, 0, 0, 0, 0, 0, 0, 0, 0, 0, 0, 1,0.0,0.0,0.8333333333333334,0.0,0.0,0.0,0.0,0.0,0.0,0.0,0.0,0.0,0.0,106,src\empire-db\src\test\java\org\apache\empire\DBResource.java,0,0,0,0
org.apache.empire.commons.AttributesTest, 0, 0, 0, 0, 0, 0, 0, 0, 0, 0, 0, 0, 0, 0,0.0,0.0,0.0,0.0,0.0,0.0,0.0,0.0,0.0,0.0,0.0,0.0,0.0,54,src\empire-db\src\test\java\org\apache\empire\commons\AttributesTest.java,13,0,0,13
org.apache.empire.commons.DateUtils, 0, 0, 0, 0, 0, 0, 0, 1, 0, 0, 0, 0, 0, 1,0.3333333333333333,0.0,0.0,0.0,0.0,0.0,0.0,0.0,0.0,0.0,0.0,0.0,0.0,146,src\empire-db\src\main\java\org\apache\empire\commons\DateUtils.java,0,0,0,0
org.apache.empire.commons.DateUtilsTest, 0, 0, 0, 0, 0, 0, 0, 0, 0, 0, 0, 0, 0, 0,0.0,0.0,0.0,0.0,0.0,0.0,0.0,1.0,0.0,0.0,0.0,0.0,0.0,184,src\empire-db\src\test\java\org\apache\empire\commons\DateUtilsTest.java,0,0,0,0
org.apache.empire.commons.ErrorType, 0, 0, 0, 0, 0, 0, 0, 0, 0, 0, 0, 0, 0, 0,0.044444444444444446,0.0,0.022222222222222223,0.0,0.0,0.0,0.0,0.0,0.0,0.0,0.0,0.0,0.0,35,src\empire-db\src\main\java\org\apache\empire\commons\ErrorType.java,0,0,0,0
org.apache.empire.commons.ErrorTypeTest, 0, 0, 0, 0, 0, 0, 0, 0, 0, 0, 0, 0, 0, 0,0.0,0.0,0.0,0.0,0.0,0.0,0.0,0.0,0.0,0.0,0.0,0.0,0.0,11,src\empire-db\src\test\java\org\apache\empire\commons\ErrorTypeTest.java,0,0,0,0
org.apache.empire.commons.ErrorsTest, 0, 0, 0, 0, 0, 0, 0, 0, 0, 0, 0, 0, 0, 0,0.0,0.0,0.0,0.0,0.0,0.0,0.0,0.0,0.0,0.0,0.0,0.0,0.0,29,src\empire-db\src\test\java\org\apache\empire\commons\ErrorsTest.java,0,0,0,0
org.apache.empire.commons.ObjectUtils, 0, 0, 0, 0, 0, 0, 0, 0, 0, 0, 0, 0, 0, 0,0.034482758620689655,0.0,0.06896551724137931,0.06896551724137931,0.0,0.0,0.0,0.13793103448275862,0.0,0.0,0.0,0.0,0.0,311,src\empire-db\src\main\java\org\apache\empire\commons\ObjectUtils.java,0,0,0,0
org.apache.empire.commons.ObjectUtilsTest, 0, 0, 0, 0, 0, 0, 0, 0, 0, 0, 0, 0, 0, 0,0.0,0.0,0.0,0.0,0.0,0.0,0.0,0.0,0.0,0.0,0.0,0.0,0.0,257,src\empire-db\src\test\java\org\apache\empire\commons\ObjectUtilsTest.java,0,0,0,0
org.apache.empire.commons.OptionEntry, 0, 0, 0, 0, 0, 0, 0, 0, 0, 0, 0, 0, 0, 0,0.0,0.0,0.0,0.0,0.0,0.0,0.0,0.14285714285714285,0.0,0.0,0.0,0.0,0.0,31,src\empire-db\src\main\java\org\apache\empire\commons\OptionEntry.java,0,0,0,0
org.apache.empire.commons.OptionEntryTest, 0, 0, 0, 0, 0, 0, 0, 0, 0, 0, 0, 0, 0, 0,0.0,0.0,0.0,0.0,0.0,0.0,0.0,0.0,0.0,0.0,0.0,0.0,0.0,27,src\empire-db\src\test\java\org\apache\empire\commons\OptionEntryTest.java,0,0,0,0
org.apache.empire.commons.OptionsTest, 0, 0, 0, 0, 0, 0, 0, 0, 0, 0, 0, 0, 0, 0,0.0,0.0,0.0,0.0,0.0,0.0,0.0,0.0,0.0,0.0,0.0,0.0,0.0,221,src\empire-db\src\test\java\org\apache\empire\commons\OptionsTest.java,0,0,0,0
org.apache.empire.commons.StringUtilsTest, 0, 0, 0, 0, 0, 0, 0, 0, 0, 0, 0, 0, 0, 0,0.0,0.0,0.0,0.0,0.0,0.0,0.0,0.0,0.0,0.0,0.0,0.0,0.0,124,src\empire-db\src\test\java\org\apache\empire\commons\StringUtilsTest.java,0,0,0,0
org.apache.empire.data.Column, 0, 0, 0, 0, 0, 0, 0, 0, 0, 0, 0, 0, 0, 0,0.0,0.0,0.0,0.0,0.0,0.0,0.0,0.0,0.0,0.0,0.0,0.0,0.0,124,src\empire-db\src\main\java\org\apache\empire\data\Column.java,0,0,0,0
org.apache.empire.data.ColumnExpr, 0, 0, 0, 0, 0, 0, 0, 0, 0, 0, 0, 0, 0, 0,0.0,0.0,0.0,0.0,0.0,0.0,0.0,0.0,0.0,0.0,0.0,0.0,0.0,124,src\empire-db\src\main\java\org\apache\empire\data\ColumnExpr.java,0,0,0,0
org.apache.empire.data.Record, 0, 0, 0, 0, 0, 0, 0, 0, 0, 0, 0, 0, 0, 0,0.0,0.0,0.0,0.0,0.0,0.0,0.0,0.0,0.0,0.0,0.0,0.0,0.0,124,src\empire-db\src\main\java\org\apache\empire\data\Record.java,0,0,0,0
org.apache.empire.data.RecordData, 0, 0, 0, 0, 0, 0, 0, 0, 0, 0, 0, 0, 0, 0,0.0,0.0,0.0,0.0,0.0,0.0,0.0,0.0,0.0,0.0,0.0,0.0,0.0,124,src\empire-db\src\main\java\org\apache\empire\data\RecordData.java,0,0,0,0
org.apache.empire.data.bean.BeanClass, 0, 0, 0, 0, 0, 0, 0, 1, 0, 0, 0, 0, 0, 1,0.0,0.0,0.0,0.14285714285714285,0.0,0.0,0.0,0.2857142857142857,0.0,0.0,0.0,0.0,0.0,69,src\empire-db\src\main\java\org\apache\empire\data\bean\BeanClass.java,0,0,0,0
org.apache.empire.data.bean.BeanDomain, 0, 0, 0, 0, 0, 0, 0, 0, 0, 0, 0, 0, 0, 0,0.0,0.0,0.0,0.0,0.0,0.0,0.0,0.3333333333333333,0.0,0.0,0.0,0.0,0.0,22,src\empire-db\src\main\java\org\apache\empire\data\bean\BeanDomain.java,0,0,0,0
org.apache.empire.data.bean.BeanProperty, 0, 0, 0, 0, 0, 0, 0, 1, 0, 0, 0, 0, 0, 1,0.0,0.0,0.0,0.0,0.0,0.0,0.0,0.25,0.0,0.0,0.0,0.0,0.0,106,src\empire-db\src\main\java\org\apache\empire\data\bean\BeanProperty.java,0,0,0,0
org.apache.empire.data.bean.BeanRecordProxy, 0, 0, 0, 1, 0, 0, 0, 0, 0, 0, 0, 0, 0, 1,0.0,0.0,0.0,0.0,0.0,0.0,0.0,0.18181818181818182,0.0,0.0,0.0,0.0,0.0,281,src\empire-db\src\main\java\org\apache\empire\data\bean\BeanRecordProxy.java,0,0,0,0
org.apache.empire.db.CompanyDB, 0, 0, 0, 0, 0, 0, 0, 0, 0, 0, 0, 0, 0, 0,0.0,0.0,0.7142857142857143,0.0,0.0,0.0,0.0,0.14285714285714285,0.0,0.0,0.0,0.0,0.0,87,src\empire-db\src\test\java\org\apache\empire\db\CompanyDB.java,0,0,0,0
org.apache.empire.db.DBBlobData, 0, 0, 0, 0, 0, 0, 0, 0, 0, 0, 0, 0, 0, 0,0.0,0.0,0.0,0.0,0.0,0.0,0.0,0.0,0.0,0.0,0.0,0.0,0.0,66,src\empire-db\src\main\java\org\apache\empire\db\DBBlobData.java,0,0,0,0
org.apache.empire.db.DBClobData, 0, 0, 0, 0, 0, 0, 0, 0, 0, 0, 0, 0, 0, 0,0.0,0.0,0.0,0.0,0.0,0.0,0.0,0.0,0.0,0.0,0.0,0.0,0.0,37,src\empire-db\src\main\java\org\apache\empire\db\DBClobData.java,0,0,0,0
org.apache.empire.db.DBCommandTest, 0, 0, 0, 0, 0, 0, 0, 0, 0, 0, 0, 0, 0, 0,0.0,0.0,0.0,0.0,0.0,0.0,0.0,0.0,0.0,0.0,0.0,0.0,0.0,72,src\empire-db\src\test\java\org\apache\empire\db\DBCommandTest.java,0,0,0,0
org.apache.empire.db.DBExpressionIndex, 0, 0, 0, 0, 0, 0, 0, 0, 0, 0, 0, 0, 0, 0,0.0,0.0,0.0,0.0,0.0,0.0,0.0,0.0,0.0,0.0,0.0,0.0,0.0,43,src\empire-db\src\main\java\org\apache\empire\db\DBExpressionIndex.java,0,0,3,6
org.apache.empire.db.DBIndex, 0, 0, 0, 0, 0, 0, 0, 0, 0, 0, 0, 0, 0, 0,0.0,0.0,0.0,0.0,0.0,0.0,0.0,0.25,0.0,0.0,0.0,0.0,0.0,67,src\empire-db\src\main\java\org\apache\empire\db\DBIndex.java,0,0,0,0
org.apache.empire.db.DBObject, 0, 0, 0, 0, 0, 0, 0, 0, 0, 0, 0, 0, 0, 0,0.0,0.0,0.0,0.0,0.0,0.0,0.0,0.0,0.0,0.0,0.0,0.0,0.0,4,src\empire-db\src\main\java\org\apache\empire\db\DBObject.java,0,0,0,0
org.apache.empire.db.DBRecordData, 0, 0, 0, 0, 0, 0, 0, 0, 0, 0, 0, 0, 0, 0,0.058823529411764705,0.0,0.29411764705882354,0.0,0.0,0.0,0.0,0.17647058823529413,0.0,0.0,0.0,0.0,0.0,140,src\empire-db\src\main\java\org\apache\empire\db\DBRecordData.java,0,0,0,0
org.apache.empire.db.DBTableColumn, 0, 0, 0, 0, 0, 0, 0, 1, 0, 0, 0, 0, 0, 1,0.0,0.0,0.0,0.0,0.0,0.0,0.0,0.0,0.0,0.0,0.0,0.0,0.0,322,src\empire-db\src\main\java\org\apache\empire\db\DBTableColumn.java,0,0,0,0
org.apache.empire.db.DBTools, 0, 0, 0, 0, 0, 0, 0, 0, 0, 0, 0, 0, 0, 0,0.0,0.0,1.0,0.0,0.0,0.0,0.0,0.0,0.0,0.0,0.0,0.0,0.0,12,src\empire-db\src\test\java\org\apache\empire\db\DBTools.java,0,0,0,0
org.apache.empire.db.DBXmlDictionary, 0, 0, 0, 0, 0, 0, 0, 0, 0, 0, 0, 0, 0, 0,0.0,0.0,0.0,0.0,0.0,0.0,0.0,0.0,0.0,0.0,0.0,0.0,0.0,25,src\empire-db\src\main\java\org\apache\empire\db\DBXmlDictionary.java,0,0,0,0
org.apache.empire.db.IntegerTest, 0, 0, 0, 0, 0, 0, 0, 0, 0, 0, 0, 0, 0, 0,0.0,0.0,0.0,0.0,0.0,0.0,0.0,0.0,0.0,0.0,0.0,0.0,0.0,191,src\empire-db\src\test\java\org\apache\empire\db\IntegerTest.java,0,0,0,0
org.apache.empire.db.MockDriver, 0, 0, 0, 0, 0, 0, 0, 0, 0, 0, 0, 0, 0, 0,0.0,0.0,0.0,0.0,0.0,0.0,0.0,0.0,0.0,0.0,0.0,0.0,0.0,34,src\empire-db\src\test\java\org\apache\empire\db\MockDriver.java,0,0,0,0
org.apache.empire.db.PreparedStatementTest, 0, 0, 1, 0, 0, 0, 0, 0, 0, 0, 0, 0, 0, 1,0.0,0.0,0.3333333333333333,0.0,0.0,0.0,0.0,0.0,0.0,0.0,0.0,0.0,0.0,38,src\empire-db\src\test\java\org\apache\empire\db\PreparedStatementTest.java,0,0,0,0
org.apache.empire.db.SerializeTest, 0, 0, 0, 0, 0, 0, 0, 0, 0, 0, 0, 0, 0, 0,0.0,0.0,0.0,0.0,0.0,0.0,0.0,0.5,0.0,0.0,0.0,0.0,0.0,67,src\empire-db\src\test\java\org\apache\empire\db\SerializeTest.java,0,0,0,0
org.apache.empire.db.codegen.CodeGenConfig, 0, 0, 0, 1, 0, 0, 0, 0, 0, 0, 0, 0, 0, 1,0.0,0.0,0.0,0.0,0.0,0.0,0.0,0.0,0.0,0.0,0.0,0.0,0.0,242,src\empire-db-codegen\src\main\java\org\apache\empire\db\codegen\CodeGenConfig.java,0,0,0,0
org.apache.empire.db.codegen.CodeGenParser, 0, 0, 0, 0, 0, 0, 0, 0, 0, 0, 0, 0, 0, 0,0.0,0.0,0.0,0.14285714285714285,0.0,0.0,0.0,0.14285714285714285,0.0,0.0,0.0,0.0,0.0,318,src\empire-db-codegen\src\main\java\org\apache\empire\db\codegen\CodeGenParser.java,0,17,1,19
org.apache.empire.db.codegen.CodeGenParserTest, 0, 0, 0, 0, 0, 0, 0, 0, 0, 0, 0, 0, 0, 0,0.0,0.0,0.0,0.5,0.0,0.0,0.0,0.0,0.0,0.0,0.0,0.0,0.0,31,src\empire-db-codegen\src\test\java\org\apache\empire\db\codegen\CodeGenParserTest.java,0,0,0,0
org.apache.empire.db.codegen.CodeGenTest, 0, 0, 0, 0, 0, 0, 0, 0, 0, 0, 0, 0, 0, 0,0.0,0.0,0.0,0.0,0.0,0.0,0.0,0.0,0.0,0.0,0.0,0.0,0.0,23,src\empire-db-codegen\src\test\java\org\apache\empire\db\codegen\CodeGenTest.java,0,0,0,0
org.apache.empire.db.codegen.CodeGenWriter, 0, 0, 0, 0, 0, 0, 0, 0, 0, 0, 0, 0, 0, 0,0.0,0.0,0.0,0.25,0.0,0.0,0.0,0.0,0.0,0.0,0.0,0.0,0.0,185,src\empire-db-codegen\src\main\java\org\apache\empire\db\codegen\CodeGenWriter.java,0,0,0,0
org.apache.empire.db.codegen.CodeGenerator, 0, 0, 0, 0, 0, 0, 0, 0, 0, 0, 0, 0, 0, 0,0.0,0.0,0.0,0.3333333333333333,0.0,0.0,0.0,0.0,0.0,0.0,0.0,0.0,0.0,41,src\empire-db-codegen\src\main\java\org\apache\empire\db\codegen\CodeGenerator.java,0,0,0,0
org.apache.empire.db.codegen.WriterServiceTest, 0, 0, 0, 0, 0, 0, 0, 0, 0, 0, 0, 0, 0, 0,0.0,0.0,0.0,0.0,0.0,0.0,0.0,1.0,0.0,0.0,0.0,0.0,0.0,32,src\empire-db-codegen\src\test\java\org\apache\empire\db\codegen\WriterServiceTest.java,0,0,0,0
org.apache.empire.db.codegen.util.DBUtil, 0, 0, 0, 0, 0, 0, 0, 0, 0, 0, 0, 0, 0, 0,0.0,0.0,0.0,0.0,0.0,0.0,0.0,0.0,0.0,0.0,0.0,0.0,0.0,26,src\empire-db-codegen\src\main\java\org\apache\empire\db\codegen\util\DBUtil.java,0,0,0,0
org.apache.empire.db.codegen.util.DBUtilTest, 0, 0, 0, 0, 0, 0, 0, 0, 0, 0, 0, 0, 0, 0,0.0,0.0,0.0,0.0,0.0,0.0,0.0,0.0,0.0,0.0,0.0,0.0,0.0,17,src\empire-db-codegen\src\test\java\org\apache\empire\db\codegen\util\DBUtilTest.java,0,0,0,0
org.apache.empire.db.codegen.util.FileUtilsTest, 0, 0, 0, 0, 0, 0, 0, 0, 0, 0, 0, 0, 0, 0,0.0,0.0,0.0,0.0,0.0,0.0,0.0,0.0,0.0,0.0,0.0,0.0,0.0,26,src\empire-db-codegen\src\test\java\org\apache\empire\db\codegen\util\FileUtilsTest.java,0,0,0,0
org.apache.empire.db.derby.DBDatabaseDriverDerby, 0, 0, 0, 0, 0, 0, 0, 0, 0, 0, 0, 0, 0, 0,0.0,0.0,0.0,0.0,0.0,0.0,0.0,0.0,0.0,0.0,0.0,0.0,0.0,163,src\empire-db\src\main\java\org\apache\empire\db\derby\DBDatabaseDriverDerby.java,0,0,0,0
org.apache.empire.db.examples.codegen.ValidatePluginRunTest, 0, 0, 0, 0, 0, 0, 0, 0, 0, 0, 0, 0, 0, 0,0.0,0.0,0.0,0.0,0.0,0.0,0.0,0.0,0.0,0.0,0.0,0.0,0.0,52,src\empire-db-examples\empire-db-example-codegen\src\test\java\org\apache\empire\db\examples\codegen\ValidatePluginRunTest.java,0,0,0,0
org.apache.empire.db.exceptions.DatabaseNotOpenException, 0, 0, 0, 0, 0, 0, 0, 0, 0, 0, 0, 0, 0, 0,0.0,0.0,0.0,0.0,0.0,0.0,0.0,0.0,0.0,0.0,0.0,0.0,0.0,9,src\empire-db\src\main\java\org\apache\empire\db\exceptions\DatabaseNotOpenException.java,0,0,0,0
org.apache.empire.db.exceptions.EmpireSQLException, 0, 0, 0, 0, 0, 0, 0, 0, 0, 0, 0, 0, 0, 0,0.0,0.0,0.0,0.0,0.0,0.0,0.0,0.0,0.0,0.0,0.0,0.0,0.0,32,src\empire-db\src\main\java\org\apache\empire\db\exceptions\EmpireSQLException.java,0,0,0,0
org.apache.empire.db.exceptions.FieldIllegalValueException, 0, 0, 0, 0, 0, 0, 0, 0, 0, 0, 0, 0, 0, 0,0.25,0.0,0.25,0.0,0.0,0.0,0.0,0.25,0.0,0.0,0.0,0.0,0.0,13,src\empire-db\src\main\java\org\apache\empire\db\exceptions\FieldIllegalValueException.java,0,0,0,0
org.apache.empire.db.exceptions.FieldIsReadOnlyException, 0, 0, 0, 0, 0, 0, 0, 0, 0, 0, 0, 0, 0, 0,0.0,0.0,0.0,0.0,0.0,0.0,0.0,0.0,0.0,0.0,0.0,0.0,0.0,9,src\empire-db\src\main\java\org\apache\empire\db\exceptions\FieldIsReadOnlyException.java,0,0,0,0
org.apache.empire.db.exceptions.FieldNotNullException, 0, 0, 0, 0, 0, 0, 0, 0, 0, 0, 0, 0, 0, 0,0.0,0.0,0.0,0.0,0.0,0.0,0.0,0.5,0.0,0.0,0.0,0.0,0.0,9,src\empire-db\src\main\java\org\apache\empire\db\exceptions\FieldNotNullException.java,0,0,0,0
org.apache.empire.db.exceptions.FieldValueException, 0, 0, 0, 0, 0, 0, 0, 0, 0, 0, 0, 0, 0, 0,0.0,0.0,0.0,0.0,0.0,0.0,0.0,0.0,0.0,0.0,0.0,0.0,0.0,25,src\empire-db\src\main\java\org\apache\empire\db\exceptions\FieldValueException.java,0,0,0,0
org.apache.empire.db.exceptions.FieldValueOutOfRangeException, 0, 0, 0, 0, 0, 0, 0, 0, 0, 0, 0, 0, 0, 0,0.0,0.0,0.0,0.0,0.0,0.0,0.0,0.3333333333333333,0.0,0.0,0.0,0.0,0.0,20,src\empire-db\src\main\java\org\apache\empire\db\exceptions\FieldValueOutOfRangeException.java,0,0,0,0
org.apache.empire.db.exceptions.FieldValueTooLongException, 0, 0, 0, 0, 0, 0, 0, 0, 0, 0, 0, 0, 0, 0,0.0,0.0,0.0,0.0,0.0,0.0,0.0,0.3333333333333333,0.0,0.0,0.0,0.0,0.0,9,src\empire-db\src\main\java\org\apache\empire\db\exceptions\FieldValueTooLongException.java,0,0,0,0
org.apache.empire.db.exceptions.InvalidKeyException, 0, 0, 0, 0, 0, 0, 0, 0, 0, 0, 0, 0, 0, 0,0.0,0.0,0.0,0.0,0.0,0.0,0.0,0.0,0.0,0.0,0.0,0.0,0.0,9,src\empire-db\src\main\java\org\apache\empire\db\exceptions\InvalidKeyException.java,0,0,0,0
org.apache.empire.db.exceptions.NoPrimaryKeyException, 0, 0, 0, 0, 0, 0, 0, 0, 0, 0, 0, 0, 0, 0,0.0,0.0,0.0,0.0,0.0,0.0,0.0,0.0,0.0,0.0,0.0,0.0,0.0,9,src\empire-db\src\main\java\org\apache\empire\db\exceptions\NoPrimaryKeyException.java,0,0,0,0
org.apache.empire.db.exceptions.QueryFailedException, 0, 0, 0, 0, 0, 0, 0, 0, 0, 0, 0, 0, 0, 0,0.0,0.0,0.2,0.0,0.0,0.0,0.0,0.2,0.0,0.0,0.0,0.0,0.0,19,src\empire-db\src\main\java\org\apache\empire\db\exceptions\QueryFailedException.java,0,0,0,0
org.apache.empire.db.exceptions.QueryNoResultException, 0, 0, 0, 0, 0, 0, 0, 0, 0, 0, 0, 0, 0, 0,0.0,0.0,0.0,0.0,0.0,0.0,0.0,0.0,0.0,0.0,0.0,0.0,0.0,9,src\empire-db\src\main\java\org\apache\empire\db\exceptions\QueryNoResultException.java,0,0,0,0
org.apache.empire.db.exceptions.RecordDeleteFailedException, 0, 0, 0, 0, 0, 0, 0, 0, 0, 0, 0, 0, 0, 0,0.0,0.0,0.0,0.0,0.0,0.0,0.0,0.0,0.0,0.0,0.0,0.0,0.0,9,src\empire-db\src\main\java\org\apache\empire\db\exceptions\RecordDeleteFailedException.java,0,0,0,0
org.apache.empire.db.exceptions.RecordNotFoundException, 0, 0, 0, 0, 0, 0, 0, 0, 0, 0, 0, 0, 0, 0,0.0,0.0,0.0,0.0,0.0,0.0,0.0,0.0,0.0,0.0,0.0,0.0,0.0,9,src\empire-db\src\main\java\org\apache\empire\db\exceptions\RecordNotFoundException.java,0,0,0,0
org.apache.empire.db.exceptions.RecordUpdateFailedException, 0, 0, 0, 0, 0, 0, 0, 0, 0, 0, 0, 0, 0, 0,0.0,0.0,0.0,0.0,0.0,0.0,0.0,0.0,0.0,0.0,0.0,0.0,0.0,9,src\empire-db\src\main\java\org\apache\empire\db\exceptions\RecordUpdateFailedException.java,0,0,0,0
org.apache.empire.db.exceptions.RecordUpdateInvalidException, 0, 0, 0, 0, 0, 0, 0, 0, 0, 0, 0, 0, 0, 0,0.0,0.0,0.0,0.0,0.0,0.0,0.0,0.0,0.0,0.0,0.0,0.0,0.0,9,src\empire-db\src\main\java\org\apache\empire\db\exceptions\RecordUpdateInvalidException.java,0,0,0,0
org.apache.empire.db.exceptions.StatementFailedException, 0, 0, 0, 0, 0, 0, 0, 0, 0, 0, 0, 0, 0, 0,0.0,0.0,0.0,0.0,0.0,0.0,0.0,0.0,0.0,0.0,0.0,0.0,0.0,19,src\empire-db\src\main\java\org\apache\empire\db\exceptions\StatementFailedException.java,0,0,0,0
org.apache.empire.db.expr.column.DBConvertExpr, 0, 0, 0, 0, 0, 0, 0, 0, 0, 0, 0, 0, 0, 0,0.0,0.0,0.0,0.0,0.0,0.0,0.0,0.0,0.0,0.0,0.0,0.0,0.0,22,src\empire-db\src\main\java\org\apache\empire\db\expr\column\DBConvertExpr.java,0,0,0,0
org.apache.empire.db.expr.compare.DBCompareExpr, 0, 0, 0, 0, 0, 0, 0, 0, 0, 0, 0, 0, 0, 0,0.0,0.0,0.0,0.0,0.0,0.0,0.0,0.0,0.0,0.0,0.0,0.0,0.0,17,src\empire-db\src\main\java\org\apache\empire\db\expr\compare\DBCompareExpr.java,0,0,0,0
org.apache.empire.db.expr.set.DBSetExprTest, 0, 0, 0, 0, 0, 0, 0, 0, 0, 0, 0, 0, 0, 0,0.0,0.0,0.0,0.0,0.0,0.0,0.0,0.0,0.0,0.0,0.0,0.0,0.0,69,src\empire-db\src\test\java\org\apache\empire\db\expr\set\DBSetExprTest.java,0,0,0,0
org.apache.empire.db.h2.DBDatabaseDriverH2, 0, 0, 0, 0, 0, 0, 0, 0, 0, 0, 0, 0, 0, 0,0.0,0.0,0.0,0.0,0.0,0.0,0.0,0.0,0.0,0.0,0.0,0.0,0.0,164,src\empire-db\src\main\java\org\apache\empire\db\h2\DBDatabaseDriverH2.java,0,36,0,36
org.apache.empire.db.hsql.DBDatabaseDriverHSqlTest, 0, 0, 1, 0, 0, 0, 0, 0, 0, 0, 0, 0, 0, 1,0.0,0.0,0.3333333333333333,0.0,0.0,0.0,0.0,0.0,0.0,0.0,0.0,0.0,0.0,84,src\empire-db\src\test\java\org\apache\empire\db\hsql\DBDatabaseDriverHSqlTest.java,0,0,0,0
org.apache.empire.db.maven.CodeGenMojo, 0, 0, 0, 0, 0, 0, 0, 0, 0, 0, 0, 0, 0, 0,0.0,0.0,0.0,0.3333333333333333,0.0,0.0,0.0,0.0,0.0,0.0,0.0,0.0,0.0,79,src\empire-db-maven-plugin\src\main\java\org\apache\empire\db\maven\CodeGenMojo.java,0,13,1,15
org.apache.empire.db.mssql.DBDatabaseDriverMSSqlTest, 0, 0, 1, 0, 0, 0, 0, 0, 0, 0, 0, 0, 0, 1,0.0,0.0,0.3333333333333333,0.0,0.0,0.0,0.0,0.0,0.0,0.0,0.0,0.0,0.0,42,src\empire-db\src\test\java\org\apache\empire\db\mssql\DBDatabaseDriverMSSqlTest.java,0,0,0,0
org.apache.empire.db.oracle.OracleSYSDatabase, 0, 0, 1, 0, 0, 0, 0, 0, 0, 0, 0, 0, 0, 1,0.0,0.0,0.0,0.0,0.0,0.0,0.0,0.0,0.0,0.0,0.0,0.0,0.0,115,src\empire-db\src\main\java\org\apache\empire\db\oracle\OracleSYSDatabase.java,0,0,0,0
org.apache.empire.db.postgresql.DBDatabaseDriverPostgreSQLTest, 0, 0, 1, 0, 0, 0, 0, 0, 0, 0, 0, 0, 0, 1,0.0,0.0,0.25,0.0,0.0,0.0,0.0,0.0,0.0,0.0,0.0,0.0,0.0,68,src\empire-db\src\test\java\org\apache\empire\db\postgresql\DBDatabaseDriverPostgreSQLTest.java,0,0,0,0
org.apache.empire.db.sqlite.DBDatabaseDriverSQLite, 0, 0, 0, 0, 0, 0, 0, 0, 0, 0, 0, 0, 0, 0,0.0,0.0,0.0,0.0,0.0,0.0,0.0,0.0,0.0,0.0,0.0,0.0,0.0,417,src\empire-db\src\main\java\org\apache\empire\db\sqlite\DBDatabaseDriverSQLite.java,0,0,0,0
org.apache.empire.db.sqlite.DBDatabaseDriverSQLiteTest, 0, 0, 1, 0, 0, 0, 0, 0, 0, 0, 0, 0, 0, 1,0.0,0.0,0.3333333333333333,0.0,0.0,0.0,0.0,0.0,0.0,0.0,0.0,0.0,0.0,84,src\empire-db\src\test\java\org\apache\empire\db\sqlite\DBDatabaseDriverSQLiteTest.java,0,0,0,0
org.apache.empire.exceptions.BeanIncompatibleException, 0, 0, 0, 0, 0, 0, 0, 0, 0, 0, 0, 0, 0, 0,0.0,0.0,0.0,0.0,0.0,0.0,0.0,0.0,0.0,0.0,0.0,0.0,0.0,9,src\empire-db\src\main\java\org\apache\empire\exceptions\BeanIncompatibleException.java,0,0,0,0
org.apache.empire.exceptions.BeanInstantiationException, 0, 0, 0, 0, 0, 0, 0, 0, 0, 0, 0, 0, 0, 0,0.0,0.0,0.0,0.0,0.0,0.0,0.0,0.0,0.0,0.0,0.0,0.0,0.0,18,src\empire-db\src\main\java\org\apache\empire\exceptions\BeanInstantiationException.java,0,0,0,0
org.apache.empire.exceptions.BeanPropertyGetException, 0, 0, 0, 0, 0, 0, 0, 0, 0, 0, 0, 0, 0, 0,0.0,0.0,0.0,0.5,0.0,0.0,0.0,0.0,0.0,0.0,0.0,0.0,0.0,18,src\empire-db\src\main\java\org\apache\empire\exceptions\BeanPropertyGetException.java,0,0,0,0
org.apache.empire.exceptions.BeanPropertySetException, 0, 0, 0, 0, 0, 0, 0, 0, 0, 0, 0, 0, 0, 0,0.0,0.0,0.0,0.3333333333333333,0.0,0.0,0.0,0.0,0.0,0.0,0.0,0.0,0.0,18,src\empire-db\src\main\java\org\apache\empire\exceptions\BeanPropertySetException.java,0,0,0,0
org.apache.empire.exceptions.EmpireFileException, 0, 0, 0, 0, 0, 0, 0, 0, 0, 0, 0, 0, 0, 0,0.0,0.0,0.0,0.0,0.0,0.0,0.0,0.0,0.0,0.0,0.0,0.0,0.0,8,src\empire-db\src\main\java\org\apache\empire\exceptions\EmpireFileException.java,0,0,0,0
org.apache.empire.exceptions.FileParseException, 0, 0, 0, 0, 0, 0, 0, 0, 0, 0, 0, 0, 0, 0,0.0,0.0,0.0,0.0,0.0,0.0,0.0,0.0,0.0,0.0,0.0,0.0,0.0,13,src\empire-db\src\main\java\org\apache\empire\exceptions\FileParseException.java,0,0,0,0
org.apache.empire.exceptions.FileReadException, 0, 0, 0, 0, 0, 0, 0, 0, 0, 0, 0, 0, 0, 0,0.0,0.0,0.0,0.0,0.0,0.0,0.0,0.0,0.0,0.0,0.0,0.0,0.0,9,src\empire-db\src\main\java\org\apache\empire\exceptions\FileReadException.java,0,0,0,0
org.apache.empire.exceptions.FileWriteException, 0, 0, 0, 0, 0, 0, 0, 0, 0, 0, 0, 0, 0, 0,0.0,0.0,0.0,0.0,0.0,0.0,0.0,0.0,0.0,0.0,0.0,0.0,0.0,9,src\empire-db\src\main\java\org\apache\empire\exceptions\FileWriteException.java,0,0,0,0
org.apache.empire.exceptions.InternalException, 0, 0, 0, 0, 0, 0, 0, 0, 0, 0, 0, 0, 0, 0,0.0,0.0,0.0,0.0,0.0,0.0,0.0,0.0,0.0,0.0,0.0,0.0,0.0,25,src\empire-db\src\main\java\org\apache\empire\exceptions\InternalException.java,0,0,0,0
org.apache.empire.exceptions.InvalidArgumentException, 0, 0, 0, 0, 0, 0, 0, 0, 0, 0, 0, 0, 0, 0,0.0,0.0,0.0,0.1,0.0,0.0,0.0,0.0,0.0,0.0,0.0,0.0,0.0,13,src\empire-db\src\main\java\org\apache\empire\exceptions\InvalidArgumentException.java,0,0,0,0
org.apache.empire.exceptions.InvalidPropertyException, 0, 0, 0, 0, 0, 0, 0, 0, 0, 0, 0, 0, 0, 0,0.0,0.0,0.0,0.0,0.0,0.0,0.0,0.0,0.0,0.0,0.0,0.0,0.0,9,src\empire-db\src\main\java\org\apache\empire\exceptions\InvalidPropertyException.java,0,0,0,0
org.apache.empire.exceptions.ItemExistsException, 0, 0, 0, 0, 0, 0, 0, 0, 0, 0, 0, 0, 0, 0,0.0,0.0,0.0,0.0,0.0,0.0,0.0,0.0,0.0,0.0,0.0,0.0,0.0,9,src\empire-db\src\main\java\org\apache\empire\exceptions\ItemExistsException.java,0,0,0,0
org.apache.empire.exceptions.ItemNotFoundException, 0, 0, 0, 0, 0, 0, 0, 0, 0, 0, 0, 0, 0, 0,0.0,0.0,0.0,0.2222222222222222,0.0,0.0,0.0,0.0,0.0,0.0,0.0,0.0,0.0,9,src\empire-db\src\main\java\org\apache\empire\exceptions\ItemNotFoundException.java,0,0,0,0
org.apache.empire.exceptions.MiscellaneousErrorException, 0, 0, 0, 0, 0, 0, 0, 0, 0, 0, 0, 0, 0, 0,0.0,0.0,0.0,0.0,0.0,0.0,0.0,0.0,0.0,0.0,0.0,0.0,0.0,9,src\empire-db\src\main\java\org\apache\empire\exceptions\MiscellaneousErrorException.java,0,0,0,0
org.apache.empire.exceptions.NotImplementedException, 0, 0, 0, 0, 0, 0, 0, 0, 0, 0, 0, 0, 0, 0,0.0,0.0,0.0,0.0,0.0,0.0,0.0,0.0,0.0,0.0,0.0,0.0,0.0,9,src\empire-db\src\main\java\org\apache\empire\exceptions\NotImplementedException.java,0,0,0,0
org.apache.empire.exceptions.NotSupportedException, 0, 0, 0, 0, 0, 0, 0, 0, 0, 0, 0, 0, 0, 0,0.0,0.0,0.0,0.0,0.0,0.0,0.0,0.2,0.0,0.0,0.0,0.0,0.0,9,src\empire-db\src\main\java\org\apache\empire\exceptions\NotSupportedException.java,0,0,0,0
org.apache.empire.exceptions.ObjectNotValidException, 0, 0, 0, 0, 0, 0, 0, 0, 0, 0, 0, 0, 0, 0,0.0,0.0,0.0,0.2,0.0,0.0,0.0,0.1,0.0,0.0,0.0,0.0,0.0,9,src\empire-db\src\main\java\org\apache\empire\exceptions\ObjectNotValidException.java,0,0,0,0
org.apache.empire.exceptions.PropertyReadOnlyException, 0, 0, 0, 0, 0, 0, 0, 0, 0, 0, 0, 0, 0, 0,0.0,0.0,0.0,0.0,0.0,0.0,0.0,0.5,0.0,0.0,0.0,0.0,0.0,9,src\empire-db\src\main\java\org\apache\empire\exceptions\PropertyReadOnlyException.java,0,0,0,0
org.apache.empire.exceptions.UnexpectedReturnValueException, 0, 0, 0, 0, 0, 0, 0, 0, 0, 0, 0, 0, 0, 0,0.0,0.0,0.0,0.0,0.0,0.0,0.0,0.16666666666666666,0.0,0.0,0.0,0.0,0.0,9,src\empire-db\src\main\java\org\apache\empire\exceptions\UnexpectedReturnValueException.java,0,0,0,0
org.apache.empire.jsf2.app.AppRequestPhaseListener, 0, 0, 0, 0, 0, 0, 0, 0, 0, 0, 0, 0, 0, 0,0.0,0.0,0.0,0.0,0.0,0.0,0.0,0.0,0.0,0.0,0.0,0.0,0.0,30,src\empire-db-jsf2\src\main\java\org\apache\empire\jsf2\app\AppRequestPhaseListener.java,0,0,0,0
org.apache.empire.jsf2.app.AppStartupListener, 0, 0, 0, 0, 0, 0, 0, 0, 0, 0, 0, 0, 0, 0,0.0,0.0,0.0,0.0,0.0,0.0,0.0,0.0,0.0,0.0,0.0,0.0,0.0,34,src\empire-db-jsf2\src\main\java\org\apache\empire\jsf2\app\AppStartupListener.java,0,0,0,0
org.apache.empire.jsf2.app.DBELResolver, 0, 0, 0, 0, 0, 0, 0, 0, 0, 0, 0, 0, 0, 0,0.0,0.0,0.0,0.0,0.0,0.0,0.0,0.0,0.0,0.0,0.0,0.0,0.0,138,src\empire-db-jsf2\src\main\java\org\apache\empire\jsf2\app\DBELResolver.java,0,0,0,0
org.apache.empire.jsf2.app.FacesApplicationFactory, 0, 0, 0, 0, 0, 0, 0, 0, 0, 0, 0, 0, 0, 0,0.0,0.0,0.0,0.0,0.0,0.25,0.0,0.0,0.0,0.0,0.0,0.0,0.0,66,src\empire-db-jsf2\src\main\java\org\apache\empire\jsf2\app\FacesApplicationFactory.java,0,0,0,0
org.apache.empire.jsf2.app.FacesImplementation, 0, 0, 0, 0, 0, 0, 0, 0, 0, 0, 0, 0, 0, 0,0.0,0.0,0.0,0.0,0.0,0.0,0.0,0.0,0.0,0.0,0.0,0.0,0.0,66,src\empire-db-jsf2\src\main\java\org\apache\empire\jsf2\app\FacesImplementation.java,0,0,0,0
org.apache.empire.jsf2.app.TextResolver, 1, 0, 1, 0, 0, 0, 0, 0, 0, 0, 0, 0, 0, 2,0.0,0.0,0.0,0.0,0.0,0.0,0.0,0.3333333333333333,0.0,0.0,0.0,0.0,0.0,78,src\empire-db-jsf2\src\main\java\org\apache\empire\jsf2\app\TextResolver.java,0,0,0,0
org.apache.empire.jsf2.app.impl.MyFacesImplementation, 0, 0, 0, 0, 0, 0, 0, 0, 0, 0, 0, 0, 0, 0,0.0,0.0,0.0,0.0,0.0,0.0,0.0,0.0,0.0,0.0,0.0,0.0,0.0,36,src\empire-db-jsf2\src\main\java\org\apache\empire\jsf2\app\impl\MyFacesImplementation.java,0,0,0,0
org.apache.empire.jsf2.components.ControlTag, 1, 0, 1, 0, 0, 0, 0, 0, 0, 0, 0, 0, 0, 2,0.0,0.0,0.0,0.0,0.0,0.0,0.0,0.0,0.0,0.0,0.0,0.0,0.0,365,src\empire-db-jsf2\src\main\java\org\apache\empire\jsf2\components\ControlTag.java,0,0,0,0
org.apache.empire.jsf2.components.LabelTag, 0, 0, 0, 0, 0, 0, 0, 0, 0, 0, 0, 0, 0, 0,0.0,0.0,0.0,0.0,0.0,0.0,0.0,0.0,0.0,0.0,0.0,0.0,0.0,43,src\empire-db-jsf2\src\main\java\org\apache\empire\jsf2\components\LabelTag.java,0,0,0,0
org.apache.empire.jsf2.components.MenuItemTag, 0, 0, 0, 0, 0, 0, 0, 0, 0, 0, 0, 0, 0, 0,0.0,0.0,0.0,0.0,0.0,0.0,0.0,0.0,0.0,0.0,0.0,0.0,0.0,152,src\empire-db-jsf2\src\main\java\org\apache\empire\jsf2\components\MenuItemTag.java,0,0,0,0
org.apache.empire.jsf2.components.MenuListTag, 0, 0, 0, 0, 0, 0, 0, 0, 0, 0, 0, 0, 0, 0,0.0,0.0,0.0,0.0,0.0,0.0,0.0,0.0,0.0,0.0,0.0,0.0,0.0,116,src\empire-db-jsf2\src\main\java\org\apache\empire\jsf2\components\MenuListTag.java,0,0,0,0
org.apache.empire.jsf2.components.NbspTag, 0, 0, 0, 0, 0, 0, 0, 0, 0, 0, 0, 0, 0, 0,0.0,0.0,0.0,0.0,0.0,0.0,0.0,0.0,0.0,0.0,0.0,0.0,0.0,28,src\empire-db-jsf2\src\main\java\org\apache\empire\jsf2\components\NbspTag.java,0,0,0,0
org.apache.empire.jsf2.components.RecordTag, 0, 0, 0, 0, 0, 0, 0, 0, 0, 0, 0, 0, 0, 0,0.0,0.0,0.0,0.0,0.0,0.0,0.0,0.0,0.0,0.0,0.0,0.0,0.0,30,src\empire-db-jsf2\src\main\java\org\apache\empire\jsf2\components\RecordTag.java,0,0,0,0
org.apache.empire.jsf2.components.ValueTag, 0, 0, 0, 0, 0, 0, 0, 0, 0, 0, 0, 0, 0, 0,0.0,0.0,0.0,0.0,0.0,0.0,0.0,0.0,0.0,0.0,0.0,0.0,0.0,54,src\empire-db-jsf2\src\main\java\org\apache\empire\jsf2\components\ValueTag.java,0,0,0,0
org.apache.empire.jsf2.controls.CheckboxInputControl, 0, 0, 0, 0, 0, 0, 0, 0, 0, 0, 0, 0, 0, 0,0.0,0.0,0.0,0.0,0.0,0.0,0.0,0.0,0.0,0.0,0.0,0.0,0.0,46,src\empire-db-jsf2\src\main\java\org\apache\empire\jsf2\controls\CheckboxInputControl.java,0,0,0,0
org.apache.empire.jsf2.controls.SelectInputControl, 0, 0, 0, 0, 0, 0, 0, 1, 0, 0, 0, 0, 0, 1,0.25,0.0,0.25,0.0,0.0,0.0,0.0,0.0,0.0,0.0,0.0,0.0,0.0,161,src\empire-db-jsf2\src\main\java\org\apache\empire\jsf2\controls\SelectInputControl.java,0,0,0,0
org.apache.empire.jsf2.controls.TextAreaInputControl, 0, 0, 0, 0, 0, 0, 0, 0, 0, 0, 0, 0, 0, 0,0.0,0.0,0.0,0.0,0.0,0.0,0.0,0.0,0.0,0.0,0.0,0.0,0.0,76,src\empire-db-jsf2\src\main\java\org\apache\empire\jsf2\controls\TextAreaInputControl.java,0,0,0,0
org.apache.empire.jsf2.controls.TextInputControl, 0, 0, 0, 0, 0, 0, 0, 0, 0, 0, 0, 0, 0, 0,0.0,0.0,0.0,0.0,0.0,0.0,0.0,0.0,0.0,0.0,0.0,0.0,0.0,345,src\empire-db-jsf2\src\main\java\org\apache\empire\jsf2\controls\TextInputControl.java,0,0,0,0
org.apache.empire.jsf2.custom.controls.FileInputControl, 0, 0, 0, 0, 0, 0, 0, 0, 0, 0, 0, 0, 0, 0,0.0,0.0,0.0,0.0,0.0,0.0,0.0,1.0,0.0,0.0,0.0,0.0,0.0,44,src\empire-db-examples\empire-db-example-jsf2\src\main\java\org\apache\empire\jsf2\custom\controls\FileInputControl.java,0,0,0,0
org.apache.empire.jsf2.pageelements.RecordPageElement, 0, 0, 0, 0, 0, 0, 0, 0, 0, 0, 0, 0, 0, 0,0.25,0.0,0.25,0.0,0.0,0.0,0.0,0.0,0.0,0.0,0.0,0.0,0.0,121,src\empire-db-jsf2\src\main\java\org\apache\empire\jsf2\pageelements\RecordPageElement.java,0,0,0,0
org.apache.empire.jsf2.pageelements.StaticListPageElement, 0, 0, 0, 0, 0, 0, 0, 0, 0, 0, 0, 0, 0, 0,0.0,0.0,0.0,0.0,0.0,0.0,0.0,0.0,0.0,0.0,0.0,0.0,0.0,77,src\empire-db-jsf2\src\main\java\org\apache\empire\jsf2\pageelements\StaticListPageElement.java,0,0,0,0
org.apache.empire.jsf2.pages.PageDefinition, 0, 0, 0, 0, 0, 0, 0, 0, 0, 0, 0, 0, 0, 0,0.0,0.0,0.0,0.0,0.0,0.0,0.0,0.0,0.0,0.0,0.0,0.0,0.0,124,src\empire-db-jsf2\src\main\java\org\apache\empire\jsf2\pages\PageDefinition.java,0,0,0,0
org.apache.empire.jsf2.pages.PageOutcome, 0, 0, 0, 0, 0, 0, 0, 0, 0, 0, 0, 0, 0, 0,0.0,0.0,0.0,0.0,0.0,0.0,0.0,0.0,0.0,0.0,0.0,0.0,0.0,34,src\empire-db-jsf2\src\main\java\org\apache\empire\jsf2\pages\PageOutcome.java,0,0,0,0
org.apache.empire.jsf2.pages.PagesELResolver, 0, 0, 0, 0, 0, 0, 0, 0, 0, 0, 0, 0, 0, 0,0.0,0.0,0.0,0.0,0.0,0.0,0.0,0.0,0.0,0.0,0.0,0.0,0.0,88,src\empire-db-jsf2\src\main\java\org\apache\empire\jsf2\pages\PagesELResolver.java,0,0,0,0
org.apache.empire.jsf2.utils.ListColumnFinder, 0, 0, 0, 0, 0, 0, 0, 0, 0, 0, 0, 0, 0, 0,0.0,0.0,0.0,0.0,0.0,0.0,0.0,0.0,0.0,0.0,0.0,0.0,0.0,88,src\empire-db-jsf2\src\main\java\org\apache\empire\jsf2\utils\ListColumnFinder.java,0,0,0,0
org.apache.empire.jsf2.utils.ListItemSelection, 0, 0, 0, 0, 0, 0, 0, 0, 0, 0, 0, 0, 0, 0,0.0,0.0,0.0,0.0,0.0,0.0,0.0,0.0,0.0,0.0,0.0,0.0,0.0,88,src\empire-db-jsf2\src\main\java\org\apache\empire\jsf2\utils\ListItemSelection.java,0,0,0,0
org.apache.empire.jsf2.websample.db.SampleDB, 0, 0, 0, 0, 0, 0, 0, 0, 0, 0, 0, 0, 0, 0,0.0,0.0,0.0,0.0,0.0,0.0,0.0,0.3333333333333333,0.0,0.0,0.0,0.0,0.0,82,src\empire-db-examples\empire-db-example-jsf2\src\main\java\org\apache\empire\jsf2\websample\db\SampleDB.java,0,0,0,0
org.apache.empire.jsf2.websample.db.SampleTable, 0, 0, 0, 0, 0, 0, 0, 0, 0, 0, 0, 0, 0, 0,0.0,0.0,0.0,0.0,0.0,0.0,0.0,1.0,0.0,0.0,0.0,0.0,0.0,37,src\empire-db-examples\empire-db-example-jsf2\src\main\java\org\apache\empire\jsf2\websample\db\SampleTable.java,0,0,0,0
org.apache.empire.jsf2.websample.db.records.DepartmentRecord, 0, 0, 0, 0, 0, 0, 0, 0, 0, 0, 0, 0, 0, 0,0.0,0.0,0.0,0.0,0.0,0.0,0.0,0.0,0.0,0.0,0.0,0.0,0.0,8,src\empire-db-examples\empire-db-example-jsf2\src\main\java\org\apache\empire\jsf2\websample\db\records\DepartmentRecord.java,0,0,0,0
org.apache.empire.jsf2.websample.db.records.EmployeeRecord, 0, 0, 0, 0, 0, 0, 0, 0, 0, 0, 0, 0, 0, 0,0.0,0.0,0.0,0.0,0.0,0.0,0.0,0.0,0.0,0.0,0.0,0.0,0.0,38,src\empire-db-examples\empire-db-example-jsf2\src\main\java\org\apache\empire\jsf2\websample\db\records\EmployeeRecord.java,0,0,0,0
org.apache.empire.jsf2.websample.db.records.SampleRecord, 0, 0, 0, 0, 0, 0, 0, 0, 0, 0, 0, 0, 0, 0,0.0,0.0,0.0,0.0,0.0,0.0,0.0,0.0,0.0,0.0,0.0,0.0,0.0,26,src\empire-db-examples\empire-db-example-jsf2\src\main\java\org\apache\empire\jsf2\websample\db\records\SampleRecord.java,0,0,0,0
org.apache.empire.jsf2.websample.web.AutheticationPhaseListener, 0, 0, 0, 0, 0, 0, 0, 0, 0, 0, 0, 0, 0, 0,0.0,0.0,0.0,0.0,0.0,0.0,0.0,0.125,0.0,0.0,0.0,0.0,0.0,89,src\empire-db-examples\empire-db-example-jsf2\src\main\java\org\apache\empire\jsf2\websample\web\AutheticationPhaseListener.java,0,0,0,0
org.apache.empire.jsf2.websample.web.SampleApplication, 0, 0, 0, 0, 0, 0, 0, 1, 0, 0, 0, 0, 0, 1,0.0,0.0,0.0,0.0,0.0,0.0,0.0,0.0,0.0,0.0,0.0,0.0,0.0,190,src\empire-db-examples\empire-db-example-jsf2\src\main\java\org\apache\empire\jsf2\websample\web\SampleApplication.java,0,0,0,0
org.apache.empire.jsf2.websample.web.SampleApplicationFactory, 0, 0, 0, 0, 0, 1, 0, 0, 0, 0, 0, 0, 0, 1,0.0,0.0,0.0,0.0,0.0,0.0,0.0,0.0,0.0,0.0,0.0,0.0,0.0,7,src\empire-db-examples\empire-db-example-jsf2\src\main\java\org\apache\empire\jsf2\websample\web\SampleApplicationFactory.java,0,0,0,0
org.apache.empire.jsf2.websample.web.SampleConfig, 0, 0, 0, 0, 0, 0, 0, 0, 0, 0, 0, 0, 0, 0,0.0,0.0,0.0,0.0,0.0,0.0,0.0,0.3333333333333333,0.0,0.0,0.0,0.0,0.0,114,src\empire-db-examples\empire-db-example-jsf2\src\main\java\org\apache\empire\jsf2\websample\web\SampleConfig.java,0,0,0,0
org.apache.empire.jsf2.websample.web.SampleSession, 0, 0, 0, 0, 0, 0, 0, 0, 0, 0, 0, 0, 0, 0,0.0,0.0,0.0,0.0,0.0,0.0,0.0,0.0,0.0,0.0,0.0,0.0,0.0,41,src\empire-db-examples\empire-db-example-jsf2\src\main\java\org\apache\empire\jsf2\websample\web\SampleSession.java,0,0,0,0
org.apache.empire.jsf2.websample.web.SampleUser, 0, 0, 0, 0, 0, 0, 0, 0, 0, 0, 0, 0, 0, 0,0.0,0.0,0.0,0.0,0.0,0.0,0.0,0.0,0.0,0.0,0.0,0.0,0.0,35,src\empire-db-examples\empire-db-example-jsf2\src\main\java\org\apache\empire\jsf2\websample\web\SampleUser.java,0,0,0,0
org.apache.empire.jsf2.websample.web.SampleUtils, 0, 0, 0, 0, 0, 0, 0, 0, 0, 0, 0, 0, 0, 0,0.0,0.0,0.0,0.0,0.0,0.0,0.0,0.125,0.0,0.0,0.0,0.0,0.0,81,src\empire-db-examples\empire-db-example-jsf2\src\main\java\org\apache\empire\jsf2\websample\web\SampleUtils.java,0,0,0,0
org.apache.empire.jsf2.websample.web.objects.EmployeeSearchFilter, 0, 0, 0, 0, 0, 0, 0, 0, 0, 0, 0, 0, 0, 0,0.0,0.0,0.0,0.0,0.0,0.0,0.0,0.0,0.0,0.0,0.0,0.0,0.0,59,src\empire-db-examples\empire-db-example-jsf2\src\main\java\org\apache\empire\jsf2\websample\web\objects\EmployeeSearchFilter.java,0,0,0,0
org.apache.empire.jsf2.websample.web.objects.User, 0, 0, 0, 0, 0, 0, 0, 0, 0, 0, 0, 0, 0, 0,0.0,0.0,0.0,0.0,0.0,0.0,0.0,0.0,0.0,0.0,0.0,0.0,0.0,22,src\empire-db-examples\empire-db-example-jsf2\src\main\java\org\apache\empire\jsf2\websample\web\objects\User.java,0,0,0,0
org.apache.empire.jsf2.websample.web.pages.EmployeeDetailPage, 0, 0, 0, 0, 0, 0, 0, 0, 0, 0, 0, 0, 0, 0,0.0,0.0,0.0,0.0,0.0,0.0,0.0,0.0,0.0,0.0,0.0,0.0,0.0,67,src\empire-db-examples\empire-db-example-jsf2\src\main\java\org\apache\empire\jsf2\websample\web\pages\EmployeeDetailPage.java,0,0,0,0
org.apache.empire.jsf2.websample.web.pages.ErrorPage, 0, 0, 0, 0, 0, 0, 0, 0, 0, 0, 0, 0, 0, 0,0.0,0.0,0.0,0.0,0.0,0.0,0.0,0.0,0.0,0.0,0.0,0.0,0.0,17,src\empire-db-examples\empire-db-example-jsf2\src\main\java\org\apache\empire\jsf2\websample\web\pages\ErrorPage.java,0,0,0,0
org.apache.empire.jsf2.websample.web.pages.LoginPage, 0, 0, 0, 0, 0, 0, 0, 0, 0, 0, 0, 0, 0, 0,0.0,0.0,0.0,0.0,0.0,0.0,0.0,0.0,0.0,0.0,0.0,0.0,0.0,15,src\empire-db-examples\empire-db-example-jsf2\src\main\java\org\apache\empire\jsf2\websample\web\pages\LoginPage.java,0,0,0,0
org.apache.empire.jsf2.websample.web.pages.SamplePage, 0, 0, 0, 0, 0, 0, 0, 0, 0, 0, 0, 0, 0, 0,0.0,0.0,0.0,0.0,0.0,0.0,0.0,0.14285714285714285,0.0,0.0,0.0,0.0,0.0,25,src\empire-db-examples\empire-db-example-jsf2\src\main\java\org\apache\empire\jsf2\websample\web\pages\SamplePage.java,0,0,0,0
org.apache.empire.jsf2.websample.web.pages.SamplePages, 0, 0, 0, 0, 0, 0, 0, 0, 0, 0, 0, 0, 0, 0,0.0,0.0,0.0,0.0,0.0,0.0,0.0,0.0,0.0,0.0,0.0,0.0,0.0,5,src\empire-db-examples\empire-db-example-jsf2\src\main\java\org\apache\empire\jsf2\websample\web\pages\SamplePages.java,0,0,0,0
org.apache.empire.samples.cxf.wssample.client.EmployeeListModel, 0, 0, 0, 0, 0, 0, 0, 0, 0, 0, 0, 0, 0, 0,0.0,0.0,0.0,0.0,0.0,0.0,0.0,0.0,0.0,0.0,0.0,0.0,0.0,10,src\empire-db-examples\empire-db-example-cxf\src\main\java\org\apache\empire\samples\cxf\wssample\client\EmployeeListModel.java,0,0,0,0
org.apache.empire.samples.cxf.wssample.client.EmployeeServiceClient, 0, 0, 0, 0, 0, 0, 0, 0, 0, 0, 0, 0, 0, 0,0.16666666666666666,0.0,0.0,0.16666666666666666,0.0,0.0,0.0,0.0,0.0,0.0,0.0,0.0,0.0,43,src\empire-db-examples\empire-db-example-cxf\src\main\java\org\apache\empire\samples\cxf\wssample\client\EmployeeServiceClient.java,0,0,0,0
org.apache.empire.samples.cxf.wssample.client.RunClient, 0, 0, 0, 0, 0, 0, 0, 0, 0, 0, 0, 0, 0, 0,0.0,0.0,0.0,0.0,0.0,0.0,0.0,0.0,0.0,0.0,0.0,0.0,0.0,11,src\empire-db-examples\empire-db-example-cxf\src\main\java\org\apache\empire\samples\cxf\wssample\client\RunClient.java,0,0,0,0
org.apache.empire.samples.cxf.wssample.common.Department, 0, 0, 0, 0, 0, 0, 0, 0, 0, 0, 0, 0, 0, 0,0.0,0.0,0.0,0.0,0.0,0.0,0.0,0.0,0.0,0.0,0.0,0.0,0.0,42,src\empire-db-examples\empire-db-example-cxf\src\main\java\org\apache\empire\samples\cxf\wssample\common\Department.java,0,0,0,0
org.apache.empire.samples.cxf.wssample.common.Employee, 0, 0, 0, 1, 0, 0, 0, 0, 0, 0, 0, 0, 0, 1,0.0,0.0,0.0,0.0,0.0,0.0,0.0,0.0,0.0,0.0,0.0,0.0,0.0,116,src\empire-db-examples\empire-db-example-cxf\src\main\java\org\apache\empire\samples\cxf\wssample\common\Employee.java,0,0,0,0
org.apache.empire.samples.cxf.wssample.common.EmployeeService, 0, 0, 0, 0, 0, 0, 0, 0, 0, 0, 0, 0, 0, 0,0.0,0.0,0.0,0.0,0.0,0.0,0.0,0.0,0.0,0.0,0.0,0.0,0.0,116,src\empire-db-examples\empire-db-example-cxf\src\main\java\org\apache\empire\samples\cxf\wssample\common\EmployeeService.java,0,0,0,0
org.apache.empire.samples.cxf.wssample.server.EmployeeServiceImpl, 0, 0, 0, 0, 0, 0, 0, 0, 0, 0, 0, 0, 0, 0,0.0,0.0,0.0,0.2,0.0,0.0,0.0,0.2,0.0,0.0,0.0,0.0,0.0,88,src\empire-db-examples\empire-db-example-cxf\src\main\java\org\apache\empire\samples\cxf\wssample\server\EmployeeServiceImpl.java,0,0,0,0
org.apache.empire.samples.cxf.wssample.server.SampleConfig, 0, 0, 0, 0, 0, 0, 0, 0, 0, 0, 0, 0, 0, 0,0.0,0.0,0.0,0.0,0.0,0.0,0.0,0.5,0.0,0.0,0.0,0.0,0.0,49,src\empire-db-examples\empire-db-example-cxf\src\main\java\org\apache\empire\samples\cxf\wssample\server\SampleConfig.java,0,0,0,0
org.apache.empire.samples.cxf.wssample.server.ServerControl, 0, 0, 0, 0, 0, 0, 0, 1, 0, 0, 0, 0, 0, 1,0.0,0.0,0.0,0.0,0.0,0.0,0.0,0.0,0.0,0.0,0.0,0.0,0.0,165,src\empire-db-examples\empire-db-example-cxf\src\main\java\org\apache\empire\samples\cxf\wssample\server\ServerControl.java,0,0,0,0
org.apache.empire.samples.cxf.wssample.server.db.SampleDB, 0, 0, 0, 0, 0, 0, 0, 0, 0, 0, 0, 0, 0, 0,0.0,0.0,0.0,0.0,0.0,0.0,0.0,0.6666666666666666,0.0,0.0,0.0,0.0,0.0,70,src\empire-db-examples\empire-db-example-cxf\src\main\java\org\apache\empire\samples\cxf\wssample\server\db\SampleDB.java,0,0,0,0
org.apache.empire.samples.db.SampleApp, 0, 0, 0, 0, 0, 0, 0, 1, 0, 0, 0, 0, 0, 1,0.0,0.0,0.0,0.0,0.0,0.0,0.0,0.0,0.0,0.0,0.0,0.0,0.0,222,src\empire-db-examples\empire-db-example-basic\src\main\java\org\apache\empire\samples\db\SampleApp.java,0,0,0,0
org.apache.empire.samples.db.SampleConfig, 0, 0, 0, 0, 0, 0, 0, 0, 0, 0, 0, 0, 0, 0,0.0,0.0,0.0,0.0,0.0,0.0,0.0,0.25,0.0,0.0,0.0,0.0,0.0,80,src\empire-db-examples\empire-db-example-basic\src\main\java\org\apache\empire\samples\db\SampleConfig.java,0,0,0,0
org.apache.empire.samples.db.SampleDB, 0, 0, 0, 0, 0, 0, 0, 0, 0, 0, 0, 0, 0, 0,0.0,0.0,0.0,0.0,0.0,0.0,0.0,1.0,0.0,0.0,0.0,0.0,0.0,75,src\empire-db-examples\empire-db-example-basic\src\main\java\org\apache\empire\samples\db\SampleDB.java,0,0,0,0
org.apache.empire.samples.db.advanced.SampleAdvConfig, 0, 0, 0, 0, 0, 0, 0, 0, 0, 0, 0, 0, 0, 0,0.0,0.0,0.0,0.0,0.0,0.0,0.0,0.0,0.0,0.0,0.0,0.0,0.0,80,src\empire-db-examples\empire-db-example-advanced\src\main\java\org\apache\empire\samples\db\advanced\SampleAdvConfig.java,0,0,0,0
org.apache.empire.samples.db.advanced.SampleAdvDB, 0, 0, 0, 0, 0, 0, 0, 0, 0, 0, 0, 0, 0, 0,0.0,0.0,0.0,0.0,0.0,0.0,0.0,1.0,0.0,0.0,0.0,0.0,0.0,149,src\empire-db-examples\empire-db-example-advanced\src\main\java\org\apache\empire\samples\db\advanced\SampleAdvDB.java,0,0,0,0
org.apache.empire.samples.spring.EmpireApp, 0, 0, 0, 0, 0, 0, 0, 0, 0, 0, 0, 0, 0, 0,0.0,0.0,0.0,0.0,0.0,0.0,0.0,0.0,0.0,0.0,0.0,0.0,0.0,149,src\empire-db-examples\empire-db-example-spring\src\main\java\org\apache\empire\samples\spring\EmpireApp.java,0,0,0,0
org.apache.empire.samples.spring.db.SampleDB, 0, 0, 0, 0, 0, 0, 0, 0, 0, 0, 0, 0, 0, 0,0.0,0.0,0.0,0.0,0.0,0.0,0.0,1.0,0.0,0.0,0.0,0.0,0.0,70,src\empire-db-examples\empire-db-example-spring\src\main\java\org\apache\empire\samples\spring\db\SampleDB.java,0,0,0,0
org.apache.empire.samples.spring.support.EmpireDBException, 0, 0, 0, 0, 0, 0, 0, 0, 0, 0, 0, 0, 0, 0,0.0,0.0,0.0,0.0,0.0,0.0,0.0,0.0,0.0,0.0,0.0,0.0,0.0,9,src\empire-db-examples\empire-db-example-spring\src\main\java\org\apache\empire\samples\spring\support\EmpireDBException.java,0,0,0,0
org.apache.empire.samples.spring.support.EmpireDaoSupport, 0, 0, 0, 0, 0, 0, 0, 0, 0, 0, 0, 0, 0, 0,0.0,0.0,0.0,0.0,0.0,0.0,0.0,0.0,0.0,0.0,0.0,0.0,0.0,81,src\empire-db-examples\empire-db-example-spring\src\main\java\org\apache\empire\samples\spring\support\EmpireDaoSupport.java,0,0,0,0
org.apache.empire.samples.spring.support.EmpireDriverFactory, 0, 0, 0, 0, 0, 0, 0, 0, 0, 0, 0, 0, 0, 0,0.0,0.0,0.0,0.0,0.0,0.0,0.0,0.0,0.0,0.0,0.0,0.0,0.0,54,src\empire-db-examples\empire-db-example-spring\src\main\java\org\apache\empire\samples\spring\support\EmpireDriverFactory.java,0,0,0,0
org.apache.empire.struts2.action.ActionAccessValidator, 0, 0, 0, 0, 0, 0, 0, 0, 0, 0, 0, 0, 0, 0,0.0,0.0,0.0,0.0,0.0,0.0,0.0,0.0,0.0,0.0,0.0,0.0,0.0,54,src\empire-db-struts2\src\main\java\org\apache\empire\struts2\action\ActionAccessValidator.java,0,0,0,0
org.apache.empire.struts2.action.ActionItemProperty, 0, 0, 0, 0, 0, 0, 0, 0, 0, 0, 0, 0, 0, 0,0.0,0.0,0.0,0.0,0.0,0.0,0.0,0.0,0.0,0.0,0.0,0.0,0.0,54,src\empire-db-struts2\src\main\java\org\apache\empire\struts2\action\ActionItemProperty.java,0,0,0,0
org.apache.empire.struts2.action.Disposable, 0, 0, 0, 0, 0, 0, 0, 0, 0, 0, 0, 0, 0, 0,0.0,0.0,0.0,0.0,0.0,0.0,0.0,0.0,0.0,0.0,0.0,0.0,0.0,54,src\empire-db-struts2\src\main\java\org\apache\empire\struts2\action\Disposable.java,0,0,0,0
org.apache.empire.struts2.action.ErrorInfo, 0, 0, 0, 0, 0, 0, 0, 0, 0, 0, 0, 0, 0, 0,0.0,0.0,0.0,0.0,0.0,0.0,0.0,0.0,0.0,0.0,0.0,0.0,0.0,54,src\empire-db-struts2\src\main\java\org\apache\empire\struts2\action\ErrorInfo.java,0,0,0,0
org.apache.empire.struts2.action.ExceptionAware, 0, 0, 0, 0, 0, 0, 0, 0, 0, 0, 0, 0, 0, 0,0.0,0.0,0.0,0.0,0.0,0.0,0.0,0.0,0.0,0.0,0.0,0.0,0.0,54,src\empire-db-struts2\src\main\java\org\apache\empire\struts2\action\ExceptionAware.java,0,0,0,0
org.apache.empire.struts2.action.ListPagingInfo, 0, 0, 0, 0, 0, 0, 0, 0, 0, 0, 0, 0, 0, 0,0.0,0.0,0.0,0.0,0.0,0.0,0.0,0.0,0.0,0.0,0.0,0.0,0.0,54,src\empire-db-struts2\src\main\java\org\apache\empire\struts2\action\ListPagingInfo.java,0,0,0,0
org.apache.empire.struts2.action.ListSortingInfo, 0, 0, 0, 0, 0, 0, 0, 0, 0, 0, 0, 0, 0, 0,0.0,0.0,0.0,0.0,0.0,0.0,0.0,0.0,0.0,0.0,0.0,0.0,0.0,54,src\empire-db-struts2\src\main\java\org\apache\empire\struts2\action\ListSortingInfo.java,0,0,0,0
org.apache.empire.struts2.actionsupport.ActionError, 0, 0, 0, 0, 0, 0, 0, 0, 0, 0, 0, 0, 0, 0,0.0,0.0,0.0,0.0,0.0,0.0,0.0,0.0,0.0,0.0,0.0,0.0,0.0,65,src\empire-db-struts2\src\main\java\org\apache\empire\struts2\actionsupport\ActionError.java,0,0,0,0
org.apache.empire.struts2.actionsupport.ActionPropertySupport, 1, 0, 0, 0, 0, 0, 0, 0, 0, 0, 0, 0, 0, 1,0.0,0.0,0.0,0.0,0.0,0.0,0.0,0.0,0.0,0.0,0.0,0.0,0.0,61,src\empire-db-struts2\src\main\java\org\apache\empire\struts2\actionsupport\ActionPropertySupport.java,0,0,0,0
org.apache.empire.struts2.actionsupport.BeanActionSupport, 0, 0, 0, 0, 0, 0, 0, 1, 0, 0, 0, 0, 0, 1,0.0,0.0,0.0,0.16666666666666666,0.0,0.0,0.0,0.16666666666666666,0.0,0.0,0.0,0.0,0.0,94,src\empire-db-struts2\src\main\java\org\apache\empire\struts2\actionsupport\BeanActionSupport.java,0,0,0,0
org.apache.empire.struts2.actionsupport.BeanListActionSupport, 0, 0, 0, 0, 0, 0, 0, 0, 0, 0, 0, 0, 0, 0,1.0,0.0,0.0,0.0,0.0,0.0,0.0,0.0,0.0,0.0,0.0,0.0,0.0,41,src\empire-db-struts2\src\main\java\org\apache\empire\struts2\actionsupport\BeanListActionSupport.java,0,0,0,0
org.apache.empire.struts2.actionsupport.FormActionSupport, 1, 0, 0, 0, 0, 0, 0, 0, 0, 0, 0, 0, 0, 1,0.0,0.0,0.0,0.0,0.0,0.0,0.0,0.0,0.0,0.0,0.0,0.0,0.0,48,src\empire-db-struts2\src\main\java\org\apache\empire\struts2\actionsupport\FormActionSupport.java,0,0,0,0
org.apache.empire.struts2.actionsupport.ListActionSupport, 1, 0, 0, 0, 0, 0, 0, 0, 0, 0, 0, 0, 0, 1,0.5,0.0,0.0,0.0,0.0,0.0,0.0,0.0,0.0,0.0,0.0,0.0,0.0,112,src\empire-db-struts2\src\main\java\org\apache\empire\struts2\actionsupport\ListActionSupport.java,0,0,0,0
org.apache.empire.struts2.actionsupport.ReaderListActionSupport, 1, 0, 0, 0, 0, 0, 0, 0, 0, 0, 0, 0, 0, 1,1.0,0.0,0.0,0.0,0.0,0.0,0.0,0.0,0.0,0.0,0.0,0.0,0.0,32,src\empire-db-struts2\src\main\java\org\apache\empire\struts2\actionsupport\ReaderListActionSupport.java,0,0,0,0
org.apache.empire.struts2.actionsupport.RecordFormActionSupport, 0, 0, 0, 0, 0, 0, 0, 0, 0, 0, 0, 0, 0, 0,0.2857142857142857,0.0,0.0,0.0,0.0,0.0,0.0,0.14285714285714285,0.0,0.0,0.0,0.0,0.0,227,src\empire-db-struts2\src\main\java\org\apache\empire\struts2\actionsupport\RecordFormActionSupport.java,0,0,0,0
org.apache.empire.struts2.exceptions.InvalidFormDataException, 0, 0, 0, 0, 0, 0, 0, 0, 0, 0, 0, 0, 0, 0,0.0,0.0,0.0,0.0,0.0,0.0,0.0,0.25,0.0,0.0,0.0,0.0,0.0,9,src\empire-db-struts2\src\main\java\org\apache\empire\struts2\exceptions\InvalidFormDataException.java,0,0,0,0
org.apache.empire.struts2.exceptions.WebException, 0, 0, 0, 0, 0, 0, 0, 0, 0, 0, 0, 0, 0, 0,0.0,0.0,0.0,0.0,0.0,0.0,0.0,0.0,0.0,0.0,0.0,0.0,0.0,8,src\empire-db-struts2\src\main\java\org\apache\empire\struts2\exceptions\WebException.java,0,0,0,0
org.apache.empire.struts2.html.DefaultHtmlTagDictionary, 0, 0, 0, 1, 0, 0, 0, 0, 0, 0, 0, 0, 0, 1,0.5,0.0,0.0,0.5,0.0,0.0,0.0,0.0,0.0,0.0,0.0,0.0,0.0,424,src\empire-db-struts2\src\main\java\org\apache\empire\struts2\html\DefaultHtmlTagDictionary.java,0,0,0,0
org.apache.empire.struts2.html.HtmlTagDictionary, 1, 0, 0, 1, 0, 0, 0, 0, 0, 0, 0, 0, 0, 2,0.23529411764705882,0.0,0.0,0.11764705882352941,0.0,0.0,0.0,0.058823529411764705,0.0,0.0,0.0,0.0,0.0,116,src\empire-db-struts2\src\main\java\org\apache\empire\struts2\html\HtmlTagDictionary.java,0,0,0,0
org.apache.empire.struts2.html.HtmlWriter, 1, 0, 0, 0, 0, 0, 0, 0, 0, 0, 0, 0, 0, 1,0.17857142857142858,0.0,0.0,0.0,0.0,0.0,0.0,0.03571428571428571,0.0,0.0,0.0,0.0,0.0,173,src\empire-db-struts2\src\main\java\org\apache\empire\struts2\html\HtmlWriter.java,0,0,0,0
org.apache.empire.struts2.interceptors.ActionAccessInterceptor, 1, 0, 0, 0, 0, 0, 0, 0, 0, 0, 0, 0, 0, 1,0.0,0.0,0.0,0.0,0.0,0.0,0.0,0.0,0.0,0.0,0.0,0.0,0.0,40,src\empire-db-struts2\src\main\java\org\apache\empire\struts2\interceptors\ActionAccessInterceptor.java,0,0,0,0
org.apache.empire.struts2.interceptors.ActionBasicsInterceptor, 0, 0, 0, 0, 0, 0, 0, 0, 0, 0, 0, 0, 0, 0,0.0,0.0,0.0,0.0,0.0,0.0,0.0,0.0,0.0,0.0,0.0,0.0,0.0,39,src\empire-db-struts2\src\main\java\org\apache\empire\struts2\interceptors\ActionBasicsInterceptor.java,0,0,0,0
org.apache.empire.struts2.jsp.components.AnchorComponent, 1, 0, 0, 0, 0, 0, 0, 0, 0, 0, 0, 0, 0, 1,0.5,0.0,0.0,0.25,0.0,0.0,0.0,0.25,0.0,0.0,0.0,0.0,0.0,97,src\empire-db-struts2\src\main\java\org\apache\empire\struts2\jsp\components\AnchorComponent.java,0,0,0,0
org.apache.empire.struts2.jsp.components.ControlComponent, 1, 0, 0, 0, 0, 0, 0, 0, 0, 0, 0, 0, 0, 1,0.6,0.0,0.0,0.2,0.0,0.0,0.0,0.0,0.0,0.0,0.0,0.0,0.0,165,src\empire-db-struts2\src\main\java\org\apache\empire\struts2\jsp\components\ControlComponent.java,0,0,0,0
org.apache.empire.struts2.jsp.components.DataValueComponent, 1, 0, 0, 0, 0, 0, 0, 0, 0, 0, 0, 0, 0, 1,0.75,0.0,0.0,0.0,0.0,0.0,0.0,0.0,0.0,0.0,0.0,0.0,0.0,93,src\empire-db-struts2\src\main\java\org\apache\empire\struts2\jsp\components\DataValueComponent.java,0,0,0,0
org.apache.empire.struts2.jsp.components.FormComponent, 1, 0, 0, 0, 0, 0, 0, 0, 0, 0, 0, 0, 0, 1,0.5,0.0,0.0,0.0,0.0,0.0,0.0,0.0,0.0,0.0,0.0,0.0,0.0,73,src\empire-db-struts2\src\main\java\org\apache\empire\struts2\jsp\components\FormComponent.java,0,0,0,0
org.apache.empire.struts2.jsp.components.info.CalendarInfo, 1, 0, 0, 0, 0, 0, 0, 0, 0, 0, 0, 0, 0, 1,0.0,0.0,0.0,0.0,0.0,0.0,0.0,0.5,0.0,0.0,0.0,0.0,0.0,241,src\empire-db-struts2\src\main\java\org\apache\empire\struts2\jsp\components\info\CalendarInfo.java,0,0,0,0
org.apache.empire.struts2.jsp.controls.CheckboxInputControl, 0, 0, 0, 0, 0, 0, 0, 0, 0, 0, 0, 0, 0, 0,0.6666666666666666,0.0,0.0,0.0,0.0,0.0,0.0,0.0,0.0,0.0,0.0,0.0,0.0,56,src\empire-db-struts2\src\main\java\org\apache\empire\struts2\jsp\controls\CheckboxInputControl.java,0,0,0,0
org.apache.empire.struts2.jsp.controls.EMailInputControl, 0, 0, 0, 0, 0, 0, 0, 0, 0, 0, 0, 0, 0, 0,0.6666666666666666,0.0,0.0,0.0,0.0,0.0,0.0,0.0,0.0,0.0,0.0,0.0,0.0,17,src\empire-db-struts2\src\main\java\org\apache\empire\struts2\jsp\controls\EMailInputControl.java,0,0,0,0
org.apache.empire.struts2.jsp.controls.HLinkInputControl, 0, 0, 0, 0, 0, 0, 0, 0, 0, 0, 0, 0, 0, 0,0.6666666666666666,0.0,0.0,0.0,0.0,0.0,0.0,0.0,0.0,0.0,0.0,0.0,0.0,21,src\empire-db-struts2\src\main\java\org\apache\empire\struts2\jsp\controls\HLinkInputControl.java,0,0,0,0
org.apache.empire.struts2.jsp.controls.InputControl, 1, 0, 0, 0, 0, 0, 0, 0, 0, 0, 0, 0, 0, 1,0.2857142857142857,0.0,0.0,0.07142857142857142,0.0,0.0,0.0,0.0,0.0,0.0,0.0,0.0,0.0,170,src\empire-db-struts2\src\main\java\org\apache\empire\struts2\jsp\controls\InputControl.java,0,0,0,0
org.apache.empire.struts2.jsp.controls.PasswordInputControl, 0, 0, 0, 0, 0, 0, 0, 0, 0, 0, 0, 0, 0, 0,1.0,0.0,0.0,0.0,0.0,0.0,0.0,0.0,0.0,0.0,0.0,0.0,0.0,68,src\empire-db-struts2\src\main\java\org\apache\empire\struts2\jsp\controls\PasswordInputControl.java,0,0,0,0
org.apache.empire.struts2.jsp.controls.RadioInputControl, 0, 0, 0, 0, 0, 0, 0, 0, 0, 0, 0, 0, 0, 0,0.5,0.0,0.0,0.0,0.0,0.0,0.0,0.0,0.0,0.0,0.0,0.0,0.0,133,src\empire-db-struts2\src\main\java\org\apache\empire\struts2\jsp\controls\RadioInputControl.java,0,0,0,0
org.apache.empire.struts2.jsp.controls.SelectInputControl, 0, 0, 0, 0, 0, 0, 0, 0, 0, 0, 0, 0, 0, 0,0.5,0.0,0.0,0.0,0.0,0.0,0.0,0.0,0.0,0.0,0.0,0.0,0.0,58,src\empire-db-struts2\src\main\java\org\apache\empire\struts2\jsp\controls\SelectInputControl.java,0,0,0,0
org.apache.empire.struts2.jsp.controls.TextAreaInputControl, 0, 0, 0, 0, 0, 0, 0, 0, 0, 0, 0, 0, 0, 0,1.0,0.0,0.0,0.3333333333333333,0.0,0.0,0.0,0.0,0.0,0.0,0.0,0.0,0.0,90,src\empire-db-struts2\src\main\java\org\apache\empire\struts2\jsp\controls\TextAreaInputControl.java,0,0,0,0
org.apache.empire.struts2.jsp.controls.TextInputControl, 0, 0, 0, 0, 0, 0, 0, 0, 0, 0, 0, 0, 0, 0,0.4,0.0,0.0,0.0,0.0,0.0,0.0,0.0,0.0,0.0,0.0,0.0,0.0,292,src\empire-db-struts2\src\main\java\org\apache\empire\struts2\jsp\controls\TextInputControl.java,0,0,0,0
org.apache.empire.struts2.jsp.tags.ActionMessageTag, 0, 0, 0, 0, 0, 0, 0, 0, 0, 0, 0, 0, 0, 0,1.0,0.0,0.0,0.5,0.0,0.0,0.0,0.0,0.0,0.0,0.0,0.0,0.0,41,src\empire-db-struts2\src\main\java\org\apache\empire\struts2\jsp\tags\ActionMessageTag.java,0,0,0,0
org.apache.empire.struts2.jsp.tags.ButtonTag, 0, 0, 0, 0, 0, 0, 0, 0, 0, 0, 0, 0, 0, 0,0.6666666666666666,0.0,0.0,0.3333333333333333,0.0,0.0,0.0,0.0,0.0,0.0,0.0,0.0,0.0,45,src\empire-db-struts2\src\main\java\org\apache\empire\struts2\jsp\tags\ButtonTag.java,0,0,0,0
org.apache.empire.struts2.jsp.tags.CalendarTag, 0, 0, 0, 0, 0, 0, 0, 0, 0, 0, 0, 0, 0, 0,1.0,0.0,0.0,0.0,0.0,0.0,0.0,0.0,0.0,0.0,0.0,0.0,0.0,138,src\empire-db-struts2\src\main\java\org\apache\empire\struts2\jsp\tags\CalendarTag.java,0,0,0,0
org.apache.empire.struts2.jsp.tags.CheckboxTag, 0, 0, 0, 0, 0, 0, 0, 0, 0, 0, 0, 0, 0, 0,0.3333333333333333,0.0,0.0,0.0,0.0,0.0,0.0,0.0,0.0,0.0,0.0,0.0,0.0,123,src\empire-db-struts2\src\main\java\org\apache\empire\struts2\jsp\tags\CheckboxTag.java,0,0,0,0
org.apache.empire.struts2.jsp.tags.DataValueTag, 0, 0, 0, 0, 0, 0, 0, 0, 0, 0, 0, 0, 0, 0,0.5,0.0,0.0,0.0,0.0,0.0,0.0,0.0,0.0,0.0,0.0,0.0,0.0,139,src\empire-db-struts2\src\main\java\org\apache\empire\struts2\jsp\tags\DataValueTag.java,0,0,0,0
org.apache.empire.struts2.jsp.tags.EmpireValueTagSupport, 0, 0, 0, 0, 0, 0, 0, 0, 0, 0, 0, 0, 0, 0,0.0,0.0,0.0,0.14285714285714285,0.0,0.0,0.0,0.0,0.0,0.0,0.0,0.0,0.0,274,src\empire-db-struts2\src\main\java\org\apache\empire\struts2\jsp\tags\EmpireValueTagSupport.java,0,0,0,0
org.apache.empire.struts2.jsp.tags.FlexDivTag, 0, 0, 0, 0, 0, 0, 0, 0, 0, 0, 0, 0, 0, 0,1.0,0.0,0.0,0.5,0.0,0.0,0.0,0.0,0.0,0.0,0.0,0.0,0.0,60,src\empire-db-struts2\src\main\java\org\apache\empire\struts2\jsp\tags\FlexDivTag.java,0,0,0,0
org.apache.empire.struts2.jsp.tags.FloatClearTag, 1, 0, 0, 0, 0, 0, 0, 0, 0, 0, 0, 0, 0, 1,1.0,0.0,0.0,1.0,0.0,0.0,0.0,0.0,0.0,0.0,0.0,0.0,0.0,26,src\empire-db-struts2\src\main\java\org\apache\empire\struts2\jsp\tags\FloatClearTag.java,0,0,0,0
org.apache.empire.struts2.jsp.tags.FormSubmitTag, 0, 0, 0, 0, 0, 0, 0, 0, 0, 0, 0, 0, 0, 0,1.0,0.0,0.0,0.5,0.0,0.0,0.0,0.0,0.0,0.0,0.0,0.0,0.0,143,src\empire-db-struts2\src\main\java\org\apache\empire\struts2\jsp\tags\FormSubmitTag.java,0,0,0,0
org.apache.empire.struts2.jsp.tags.FormTag, 0, 0, 0, 0, 0, 0, 0, 0, 0, 0, 0, 0, 0, 0,1.0,0.0,0.0,0.5,0.0,0.0,0.0,0.0,0.0,0.0,0.0,0.0,0.0,107,src\empire-db-struts2\src\main\java\org\apache\empire\struts2\jsp\tags\FormTag.java,0,0,0,0
org.apache.empire.struts2.jsp.tags.InputControlTag, 0, 0, 0, 1, 0, 0, 0, 0, 0, 0, 0, 0, 0, 1,0.5,0.0,0.0,0.25,0.0,0.0,0.0,0.0,0.0,0.0,0.0,0.0,0.0,222,src\empire-db-struts2\src\main\java\org\apache\empire\struts2\jsp\tags\InputControlTag.java,0,0,0,0
org.apache.empire.struts2.jsp.tags.ItemListTag, 1, 0, 0, 0, 0, 0, 0, 0, 0, 0, 0, 0, 0, 1,0.0,0.0,0.0,0.0,0.0,0.0,0.0,0.0,0.0,0.0,0.0,0.0,0.0,290,src\empire-db-struts2\src\main\java\org\apache\empire\struts2\jsp\tags\ItemListTag.java,0,0,0,0
org.apache.empire.struts2.jsp.tags.LinkTag, 0, 0, 0, 0, 0, 0, 0, 0, 0, 0, 0, 0, 0, 0,0.3333333333333333,0.0,0.0,0.0,0.0,0.0,0.0,0.0,0.0,0.0,0.0,0.0,0.0,109,src\empire-db-struts2\src\main\java\org\apache\empire\struts2\jsp\tags\LinkTag.java,0,0,0,0
org.apache.empire.struts2.jsp.tags.ListPageBarTag, 0, 0, 0, 0, 0, 0, 0, 1, 0, 0, 0, 0, 0, 1,1.0,0.0,0.0,0.3333333333333333,0.0,0.0,0.0,0.0,0.0,0.0,0.0,0.0,0.0,165,src\empire-db-struts2\src\main\java\org\apache\empire\struts2\jsp\tags\ListPageBarTag.java,0,0,0,0
org.apache.empire.struts2.jsp.tags.ListPageInfoTag, 0, 0, 0, 0, 0, 0, 0, 0, 0, 0, 0, 0, 0, 0,1.0,0.0,0.0,0.5,0.0,0.0,0.0,0.0,0.0,0.0,0.0,0.0,0.0,61,src\empire-db-struts2\src\main\java\org\apache\empire\struts2\jsp\tags\ListPageInfoTag.java,0,0,0,0
org.apache.empire.struts2.jsp.tags.MenuItemTag, 0, 0, 0, 0, 0, 0, 0, 0, 0, 0, 0, 0, 0, 0,0.6666666666666666,0.0,0.0,0.3333333333333333,0.0,0.0,0.0,0.0,0.0,0.0,0.0,0.0,0.0,93,src\empire-db-struts2\src\main\java\org\apache\empire\struts2\jsp\tags\MenuItemTag.java,0,0,0,0
org.apache.empire.struts2.jsp.tags.MenuTag, 0, 0, 0, 0, 0, 0, 0, 0, 0, 0, 0, 0, 0, 0,1.0,0.0,0.0,0.5,0.0,0.0,0.0,0.0,0.0,0.0,0.0,0.0,0.0,116,src\empire-db-struts2\src\main\java\org\apache\empire\struts2\jsp\tags\MenuTag.java,0,0,0,0
org.apache.empire.struts2.jsp.tags.ParamTag, 0, 0, 0, 0, 0, 0, 0, 0, 0, 0, 0, 0, 0, 0,0.0,0.0,0.0,0.0,0.0,0.0,0.0,0.0,0.0,0.0,0.0,0.0,0.0,63,src\empire-db-struts2\src\main\java\org\apache\empire\struts2\jsp\tags\ParamTag.java,0,0,0,0
org.apache.empire.struts2.jsp.tags.RadioButtonTag, 0, 0, 0, 0, 0, 0, 0, 0, 0, 0, 0, 0, 0, 0,0.3333333333333333,0.0,0.0,0.0,0.0,0.0,0.0,0.0,0.0,0.0,0.0,0.0,0.0,110,src\empire-db-struts2\src\main\java\org\apache\empire\struts2\jsp\tags\RadioButtonTag.java,0,0,0,0
org.apache.empire.struts2.jsp.tags.SelectTag, 0, 0, 0, 0, 0, 0, 0, 0, 0, 0, 0, 0, 0, 0,0.25,0.0,0.0,0.0,0.0,0.0,0.0,0.0,0.0,0.0,0.0,0.0,0.0,118,src\empire-db-struts2\src\main\java\org\apache\empire\struts2\jsp\tags\SelectTag.java,0,0,0,0
org.apache.empire.struts2.jsp.tags.TableDataTag, 0, 0, 0, 0, 0, 0, 0, 0, 0, 0, 0, 0, 0, 0,0.3333333333333333,0.0,0.0,0.0,0.0,0.0,0.0,0.0,0.0,0.0,0.0,0.0,0.0,125,src\empire-db-struts2\src\main\java\org\apache\empire\struts2\jsp\tags\TableDataTag.java,0,0,0,0
org.apache.empire.struts2.jsp.tags.TableHeadRowTag, 0, 0, 0, 0, 0, 0, 0, 0, 0, 0, 0, 0, 0, 0,1.0,0.0,0.0,0.5,0.0,0.0,0.0,0.0,0.0,0.0,0.0,0.0,0.0,153,src\empire-db-struts2\src\main\java\org\apache\empire\struts2\jsp\tags\TableHeadRowTag.java,0,0,0,0
org.apache.empire.struts2.jsp.tags.TableRowTag, 0, 0, 0, 0, 0, 0, 0, 0, 0, 0, 0, 0, 0, 0,1.0,0.0,0.0,0.0,0.0,0.0,0.0,0.0,0.0,0.0,0.0,0.0,0.0,116,src\empire-db-struts2\src\main\java\org\apache\empire\struts2\jsp\tags\TableRowTag.java,0,0,0,0
org.apache.empire.struts2.jsp.tags.TextTag, 0, 0, 0, 0, 0, 0, 0, 0, 0, 0, 0, 0, 0, 0,1.0,0.0,0.0,0.0,0.0,0.0,0.0,0.0,0.0,0.0,0.0,0.0,0.0,67,src\empire-db-struts2\src\main\java\org\apache\empire\struts2\jsp\tags\TextTag.java,0,0,0,0
org.apache.empire.struts2.jsp.tags.flow.ElseIfTag, 0, 0, 1, 0, 0, 0, 0, 0, 0, 0, 0, 0, 0, 1,0.0,0.0,0.0,0.0,0.0,0.0,0.0,0.0,0.0,0.0,0.0,0.0,0.0,43,src\empire-db-struts2\src\main\java\org\apache\empire\struts2\jsp\tags\flow\ElseIfTag.java,0,0,0,0
org.apache.empire.struts2.jsp.tags.flow.ElseTag, 0, 0, 0, 0, 0, 0, 0, 0, 0, 0, 0, 0, 0, 0,0.0,0.0,0.0,0.0,0.0,0.0,0.0,0.0,0.0,0.0,0.0,0.0,0.0,29,src\empire-db-struts2\src\main\java\org\apache\empire\struts2\jsp\tags\flow\ElseTag.java,0,0,0,0
org.apache.empire.struts2.jsp.tags.flow.IfTag, 0, 0, 1, 0, 0, 0, 0, 0, 0, 0, 0, 0, 0, 1,0.0,0.0,0.0,0.0,0.0,0.0,0.0,0.0,0.0,0.0,0.0,0.0,0.0,38,src\empire-db-struts2\src\main\java\org\apache\empire\struts2\jsp\tags\flow\IfTag.java,0,0,0,0
org.apache.empire.struts2.jsp.tags.flow.SetTag, 0, 0, 0, 0, 0, 0, 0, 0, 0, 0, 0, 0, 0, 0,0.0,0.0,0.0,0.0,0.0,0.0,0.0,0.0,0.0,0.0,0.0,0.0,0.0,57,src\empire-db-struts2\src\main\java\org\apache\empire\struts2\jsp\tags\flow\SetTag.java,0,0,0,0
org.apache.empire.struts2.web.AppContext, 0, 0, 0, 0, 0, 0, 0, 0, 0, 0, 0, 0, 0, 0,0.0,0.0,0.0,0.0,0.0,0.0,0.0,0.0,0.0,0.0,0.0,0.0,0.0,57,src\empire-db-struts2\src\main\java\org\apache\empire\struts2\web\AppContext.java,0,0,0,0
org.apache.empire.struts2.web.DefaultWebRequest, 0, 0, 0, 0, 0, 0, 0, 0, 0, 0, 0, 0, 0, 0,0.0,0.0,0.0,0.0,0.0,0.0,0.0,0.0,0.0,0.0,0.0,0.0,0.0,22,src\empire-db-struts2\src\main\java\org\apache\empire\struts2\web\DefaultWebRequest.java,0,0,0,0
org.apache.empire.struts2.web.EmpireThreadManager, 0, 0, 0, 0, 0, 0, 0, 0, 0, 0, 0, 0, 0, 0,1.0,0.0,0.0,0.0,0.0,0.0,0.0,0.0,0.0,0.0,0.0,0.0,0.0,24,src\empire-db-struts2\src\main\java\org\apache\empire\struts2\web\EmpireThreadManager.java,0,0,0,0
org.apache.empire.struts2.web.FieldErrors, 0, 0, 0, 0, 0, 0, 0, 0, 0, 0, 0, 0, 0, 0,0.0,0.0,0.0,0.0,0.0,0.0,0.0,0.0,0.0,0.0,0.0,0.0,0.0,12,src\empire-db-struts2\src\main\java\org\apache\empire\struts2\web\FieldErrors.java,0,0,0,0
org.apache.empire.struts2.web.ResponseContext, 0, 0, 0, 0, 0, 0, 0, 0, 0, 0, 0, 0, 0, 0,0.0,0.0,0.0,0.0,0.0,0.0,0.0,0.0,0.0,0.0,0.0,0.0,0.0,12,src\empire-db-struts2\src\main\java\org\apache\empire\struts2\web\ResponseContext.java,0,0,0,0
org.apache.empire.struts2.web.SessionContext, 0, 0, 0, 0, 0, 0, 0, 0, 0, 0, 0, 0, 0, 0,0.0,0.0,0.0,0.0,0.0,0.0,0.0,0.0,0.0,0.0,0.0,0.0,0.0,12,src\empire-db-struts2\src\main\java\org\apache\empire\struts2\web\SessionContext.java,0,0,0,0
org.apache.empire.struts2.web.WebApplication, 0, 0, 0, 0, 0, 0, 0, 0, 0, 0, 0, 0, 0, 0,0.0,0.0,0.0,0.0,0.0,0.0,0.0,0.0,0.0,0.0,0.0,0.0,0.0,12,src\empire-db-struts2\src\main\java\org\apache\empire\struts2\web\WebApplication.java,0,0,0,0
org.apache.empire.struts2.web.WebRequest, 0, 0, 0, 0, 0, 0, 0, 0, 0, 0, 0, 0, 0, 0,0.0,0.0,0.0,0.0,0.0,0.0,0.0,0.0,0.0,0.0,0.0,0.0,0.0,12,src\empire-db-struts2\src\main\java\org\apache\empire\struts2\web\WebRequest.java,0,0,0,0
org.apache.empire.struts2.web.WebSession, 0, 0, 0, 0, 0, 0, 0, 0, 0, 0, 0, 0, 0, 0,0.0,0.0,0.0,0.0,0.0,0.0,0.0,0.0,0.0,0.0,0.0,0.0,0.0,12,src\empire-db-struts2\src\main\java\org\apache\empire\struts2\web\WebSession.java,0,0,0,0
org.apache.empire.struts2.web.portlet.PortletContextWrapper, 0, 0, 0, 0, 0, 0, 0, 0, 0, 0, 0, 0, 0, 0,0.0,0.0,0.0,0.0,0.0,0.0,0.0,0.0,0.0,0.0,0.0,0.0,0.0,54,src\empire-db-struts2\src\main\java\org\apache\empire\struts2\web\portlet\PortletContextWrapper.java,0,0,0,0
org.apache.empire.struts2.web.portlet.PortletResponseWrapper, 0, 0, 0, 0, 0, 0, 0, 0, 0, 0, 0, 0, 0, 0,0.0,0.0,0.0,0.0,0.0,0.0,0.0,0.0,0.0,0.0,0.0,0.0,0.0,97,src\empire-db-struts2\src\main\java\org\apache\empire\struts2\web\portlet\PortletResponseWrapper.java,0,0,0,0
org.apache.empire.struts2.web.portlet.PortletSessionWrapper, 0, 0, 0, 0, 0, 0, 0, 0, 0, 0, 0, 0, 0, 0,0.0,0.0,0.0,0.0,0.0,0.0,0.0,0.0,0.0,0.0,0.0,0.0,0.0,46,src\empire-db-struts2\src\main\java\org\apache\empire\struts2\web\portlet\PortletSessionWrapper.java,0,0,0,0
org.apache.empire.struts2.web.servlet.ServletContextWrapper, 0, 0, 0, 0, 0, 0, 0, 0, 0, 0, 0, 0, 0, 0,0.0,0.0,0.0,0.0,0.0,0.0,0.0,0.0,0.0,0.0,0.0,0.0,0.0,54,src\empire-db-struts2\src\main\java\org\apache\empire\struts2\web\servlet\ServletContextWrapper.java,0,0,0,0
org.apache.empire.struts2.web.servlet.ServletResponseWrapper, 0, 0, 0, 0, 0, 0, 0, 0, 0, 0, 0, 0, 0, 0,0.0,0.0,0.0,0.0,0.0,0.0,0.0,0.0,0.0,0.0,0.0,0.0,0.0,57,src\empire-db-struts2\src\main\java\org\apache\empire\struts2\web\servlet\ServletResponseWrapper.java,0,0,0,0
org.apache.empire.struts2.web.servlet.ServletSessionWrapper, 0, 0, 0, 0, 0, 0, 0, 0, 0, 0, 0, 0, 0, 0,0.0,0.0,0.0,0.0,0.0,0.0,0.0,0.0,0.0,0.0,0.0,0.0,0.0,46,src\empire-db-struts2\src\main\java\org\apache\empire\struts2\web\servlet\ServletSessionWrapper.java,0,0,0,0
org.apache.empire.struts2.websample.common.Errors, 0, 0, 0, 0, 0, 0, 0, 0, 0, 0, 0, 0, 0, 0,0.0,0.0,0.0,0.0,0.0,0.0,0.0,0.0,0.0,0.0,0.0,0.0,0.0,3,src\empire-db-examples\empire-db-example-struts2-cxf\src\main\java\org\apache\empire\struts2\websample\common\Errors.java,0,0,0,0
org.apache.empire.struts2.websample.db.SampleDB, 0, 0, 0, 0, 0, 0, 0, 0, 0, 0, 0, 0, 0, 0,0.5,0.0,0.0,0.0,0.0,0.0,0.0,0.25,0.0,0.0,0.0,0.0,0.0,75,src\empire-db-examples\empire-db-example-struts2\src\main\java\org\apache\empire\struts2\websample\db\SampleDB.java,0,0,0,0
org.apache.empire.struts2.websample.db.SampleRecord, 0, 0, 0, 0, 0, 0, 0, 0, 0, 0, 0, 0, 0, 0,0.0,0.0,0.0,0.0,0.0,0.0,0.0,0.0,0.0,0.0,0.0,0.0,0.0,9,src\empire-db-examples\empire-db-example-struts2\src\main\java\org\apache\empire\struts2\websample\db\SampleRecord.java,0,0,0,0
org.apache.empire.struts2.websample.db.SampleTable, 0, 0, 0, 0, 0, 0, 0, 0, 0, 0, 0, 0, 0, 0,0.0,0.0,0.0,0.0,0.0,0.0,0.0,1.0,0.0,0.0,0.0,0.0,0.0,20,src\empire-db-examples\empire-db-example-struts2\src\main\java\org\apache\empire\struts2\websample\db\SampleTable.java,0,0,0,0
org.apache.empire.struts2.websample.db.records.DepartmentRecord, 0, 0, 0, 0, 0, 0, 0, 0, 0, 0, 0, 0, 0, 0,0.0,0.0,0.0,0.0,0.0,0.0,0.0,0.0,0.0,0.0,0.0,0.0,0.0,9,src\empire-db-examples\empire-db-example-struts2\src\main\java\org\apache\empire\struts2\websample\db\records\DepartmentRecord.java,0,0,0,0
org.apache.empire.struts2.websample.db.records.EmployeeRecord, 0, 0, 0, 0, 0, 0, 0, 0, 0, 0, 0, 0, 0, 0,0.0,0.0,0.0,0.0,0.0,0.0,0.0,0.0,0.0,0.0,0.0,0.0,0.0,28,src\empire-db-examples\empire-db-example-struts2\src\main\java\org\apache\empire\struts2\websample\db\records\EmployeeRecord.java,0,0,0,0
org.apache.empire.struts2.websample.web.SampleApplication, 1, 0, 0, 0, 0, 0, 0, 0, 0, 0, 0, 0, 0, 1,0.4444444444444444,0.0,0.0,0.1111111111111111,0.0,0.0,0.0,0.0,0.0,0.0,0.0,0.0,0.0,46,src\empire-db-examples\empire-db-example-struts2\src\main\java\org\apache\empire\struts2\websample\web\SampleApplication.java,0,0,0,0
org.apache.empire.struts2.websample.web.SampleConfig, 0, 0, 0, 0, 0, 0, 0, 0, 0, 0, 0, 0, 0, 0,0.5,0.0,0.0,0.0,0.0,0.0,0.0,0.0,0.0,0.0,0.0,0.0,0.0,38,src\empire-db-examples\empire-db-example-struts2\src\main\java\org\apache\empire\struts2\websample\web\SampleConfig.java,0,0,0,0
org.apache.empire.struts2.websample.web.SampleContext, 0, 0, 0, 0, 0, 0, 0, 0, 0, 0, 0, 0, 0, 0,0.1111111111111111,0.0,0.0,0.0,0.0,0.0,0.0,0.0,0.0,0.0,0.0,0.0,0.0,11,src\empire-db-examples\empire-db-example-struts2\src\main\java\org\apache\empire\struts2\websample\web\SampleContext.java,0,0,0,0
org.apache.empire.struts2.websample.web.SampleErrors, 0, 0, 0, 0, 0, 0, 0, 0, 0, 0, 0, 0, 0, 0,0.0,0.0,0.0,0.0,0.0,0.0,0.0,0.0,0.0,0.0,0.0,0.0,0.0,4,src\empire-db-examples\empire-db-example-struts2\src\main\java\org\apache\empire\struts2\websample\web\SampleErrors.java,0,0,0,0
org.apache.empire.struts2.websample.web.SampleHtmlTagDictionary, 0, 0, 0, 0, 0, 0, 0, 0, 0, 0, 0, 0, 0, 0,0.0,0.0,0.0,1.0,0.0,0.0,0.0,0.0,0.0,0.0,0.0,0.0,0.0,53,src\empire-db-examples\empire-db-example-struts2\src\main\java\org\apache\empire\struts2\websample\web\SampleHtmlTagDictionary.java,0,0,0,0
org.apache.empire.struts2.websample.web.SampleRequest, 1, 0, 0, 0, 0, 0, 0, 0, 0, 0, 0, 0, 0, 1,0.75,0.0,0.0,0.0,0.0,0.0,0.0,0.0,0.0,0.0,0.0,0.0,0.0,44,src\empire-db-examples\empire-db-example-struts2\src\main\java\org\apache\empire\struts2\websample\web\SampleRequest.java,0,0,0,0
org.apache.empire.struts2.websample.web.SampleUser, 0, 0, 0, 0, 0, 0, 0, 0, 0, 0, 0, 0, 0, 0,1.0,0.0,0.0,0.0,0.0,0.0,0.0,0.0,0.0,0.0,0.0,0.0,0.0,28,src\empire-db-examples\empire-db-example-struts2\src\main\java\org\apache\empire\struts2\websample\web\SampleUser.java,0,0,0,0
org.apache.empire.struts2.websample.web.actions.EmployeeDetailAction, 0, 0, 0, 0, 0, 0, 0, 0, 0, 0, 0, 0, 0, 0,0.0,0.0,0.0,0.0,0.0,0.0,0.0,0.0,0.0,0.0,0.0,0.0,0.0,31,src\empire-db-examples\empire-db-example-struts2\src\main\java\org\apache\empire\struts2\websample\web\actions\EmployeeDetailAction.java,0,0,0,0
org.apache.empire.struts2.websample.web.actions.EmployeeListAction, 0, 0, 0, 0, 0, 0, 0, 0, 0, 0, 0, 0, 0, 0,0.3333333333333333,0.0,0.0,0.0,0.0,0.0,0.0,0.0,0.0,0.0,0.0,0.0,0.0,172,src\empire-db-examples\empire-db-example-struts2\src\main\java\org\apache\empire\struts2\websample\web\actions\EmployeeListAction.java,0,0,0,0
org.apache.empire.struts2.websample.web.actiontypes.Action, 1, 0, 0, 0, 0, 0, 0, 0, 0, 0, 0, 0, 0, 1,0.4,0.0,0.0,0.0,0.0,0.0,0.0,0.0,0.0,0.0,0.0,0.0,0.0,44,src\empire-db-examples\empire-db-example-struts2\src\main\java\org\apache\empire\struts2\websample\web\actiontypes\Action.java,0,0,0,0
org.apache.empire.struts2.websample.web.actiontypes.BeanDetailAction, 0, 0, 0, 0, 0, 0, 0, 0, 0, 0, 0, 0, 0, 0,0.0,0.0,0.0,0.125,0.0,0.0,0.0,0.25,0.0,0.0,0.0,0.0,0.0,118,src\empire-db-examples\empire-db-example-struts2\src\main\java\org\apache\empire\struts2\websample\web\actiontypes\BeanDetailAction.java,0,0,0,0
org.apache.empire.struts2.websample.web.actiontypes.DetailAction, 0, 0, 0, 0, 0, 0, 0, 0, 0, 0, 0, 0, 0, 0,0.3333333333333333,0.0,0.0,0.0,0.0,0.0,0.0,0.0,0.0,0.0,0.0,0.0,0.0,16,src\empire-db-examples\empire-db-example-struts2\src\main\java\org\apache\empire\struts2\websample\web\actiontypes\DetailAction.java,0,0,0,0
org.apache.empire.struts2.websample.web.actiontypes.SampleAction, 1, 0, 0, 0, 0, 0, 0, 0, 0, 0, 0, 0, 0, 1,0.4,0.0,0.0,0.0,0.0,0.0,0.0,0.0,0.0,0.0,0.0,0.0,0.0,57,src\empire-db-examples\empire-db-example-struts2-cxf\src\main\java\org\apache\empire\struts2\websample\web\actiontypes\SampleAction.java,0,0,0,0
org.apache.empire.struts2.websample.ws.SampleBeanClass, 0, 0, 0, 0, 0, 0, 0, 0, 0, 0, 0, 0, 0, 0,0.0,0.0,0.0,0.0,0.0,0.0,0.0,0.6666666666666666,0.0,0.0,0.0,0.0,0.0,24,src\empire-db-examples\empire-db-example-struts2-cxf\src\main\java\org\apache\empire\struts2\websample\ws\SampleBeanClass.java,0,0,0,0
org.apache.empire.struts2.websample.ws.SampleBeanDomain, 0, 0, 0, 0, 0, 0, 0, 0, 0, 0, 0, 0, 0, 0,0.3333333333333333,0.0,0.0,0.0,0.0,0.0,0.0,0.0,0.0,0.0,0.0,0.0,0.0,65,src\empire-db-examples\empire-db-example-struts2-cxf\src\main\java\org\apache\empire\struts2\websample\ws\SampleBeanDomain.java,0,0,0,0
org.apache.empire.struts2.websample.ws.SampleRecord, 0, 0, 0, 0, 0, 0, 0, 0, 0, 0, 0, 0, 0, 0,0.0,0.0,0.0,0.2,0.0,0.0,0.0,0.2,0.0,0.0,0.0,0.0,0.0,9,src\empire-db-examples\empire-db-example-struts2-cxf\src\main\java\org\apache\empire\struts2\websample\ws\SampleRecord.java,0,0,0,0
org.apache.empire.struts2.websample.ws.records.DepartmentRecord, 0, 0, 0, 0, 0, 0, 0, 0, 0, 0, 0, 0, 0, 0,0.0,0.0,0.0,0.0,0.0,0.0,0.0,0.0,0.0,0.0,0.0,0.0,0.0,8,src\empire-db-examples\empire-db-example-struts2-cxf\src\main\java\org\apache\empire\struts2\websample\ws\records\DepartmentRecord.java,0,0,0,0
org.apache.empire.struts2.websample.ws.records.EmployeeRecord, 0, 0, 0, 0, 0, 0, 0, 0, 0, 0, 0, 0, 0, 0,0.0,0.0,0.0,0.25,0.0,0.0,0.0,0.0,0.0,0.0,0.0,0.0,0.0,41,src\empire-db-examples\empire-db-example-struts2-cxf\src\main\java\org\apache\empire\struts2\websample\ws\records\EmployeeRecord.java,0,0,0,0
org.apache.empire.xml.XMLConfiguration, 0, 0, 0, 0, 0, 0, 0, 0, 0, 0, 0, 0, 0, 0,0.0,0.0,0.0,0.07142857142857142,0.0,0.0,0.0,0.07142857142857142,0.0,0.0,0.0,0.0,0.0,132,src\empire-db\src\main\java\org\apache\empire\xml\XMLConfiguration.java,0,0,0,0
,0.0,0.0,0.0,0.0,0.0,0.0,0.0,0.0,0.0,0.0,0.0,0.0,0.0,132,src\empire-db\src\main\java\org\apache\empire\commons\Attributes.java,0,0,0,0
