ClassName,AntiSingleton,Blob,ClassDataShouldBePrivate,ComplexClass,LargeClass,LazyClass,LongMethod,LongParameterList,MessageChains,RefusedParentBequest,SpaghettiCode,SpeculativeGenerality,SwissArmyKnife,NumOfAPs,AntiSingleton,Blob,ClassDataShouldBePrivate,ComplexClass,LargeClass,LazyClass,LongMethod,LongParameterList,MessageChains,RefusedParentBequest,SpaghettiCode,SpeculativeGenerality,SwissArmyKnife,LOC,name,deleted,added,changed,all
org.apache.bval.BeanValidator, 0, 0, 0, 0, 0, 0, 0, 1, 0, 0, 0, 0, 0, 1,0.0,0.0,0.0,0.5,0.0,0.0,0.0,0.0,0.0,0.0,0.0,0.0,0.0,121,bval-core\src\main\java\org\apache\bval\BeanValidator.java,0,0,0,0
org.apache.bval.DynamicMetaBean, 0, 0, 0, 0, 0, 0, 0, 0, 0, 0, 0, 0, 0, 0,0.0,0.0,0.0,0.5,0.0,0.0,0.0,0.5,0.0,0.0,0.0,0.0,0.0,12,bval-core\src\main\java\org\apache\bval\DynamicMetaBean.java,0,0,0,0
org.apache.bval.MetaBeanFactory, 0, 0, 0, 0, 0, 0, 0, 0, 0, 0, 0, 0, 0, 0,0.0,0.0,0.0,0.0,0.0,0.0,0.0,0.0,0.0,0.0,0.0,0.0,0.0,12,bval-core\src\main\java\org\apache\bval\MetaBeanFactory.java,0,0,0,0
org.apache.bval.MetaBeanFinder, 0, 0, 0, 0, 0, 0, 0, 0, 0, 0, 0, 0, 0, 0,0.0,0.0,0.0,0.0,0.0,0.0,0.0,0.0,0.0,0.0,0.0,0.0,0.0,12,bval-core\src\main\java\org\apache\bval\MetaBeanFinder.java,0,0,0,0
org.apache.bval.MetaBeanManager, 0, 0, 0, 0, 0, 0, 0, 0, 0, 0, 0, 0, 0, 0,0.0,0.0,0.0,0.4,0.0,0.0,0.0,0.0,0.0,0.0,0.0,0.0,0.0,63,bval-core\src\main\java\org\apache\bval\MetaBeanManager.java,0,0,0,0
org.apache.bval.MetaBeanManagerFactory, 0, 0, 0, 0, 0, 0, 0, 0, 0, 0, 0, 0, 0, 0,0.0,0.0,0.0,0.0,0.0,0.0,0.0,0.5,0.0,0.0,0.0,0.0,0.0,9,bval-core\src\main\java\org\apache\bval\MetaBeanManagerFactory.java,0,0,0,0
org.apache.bval.ValidationResultsTest, 0, 0, 0, 0, 0, 0, 0, 0, 0, 0, 0, 0, 0, 0,0.0,0.0,0.0,1.0,0.0,0.0,0.0,0.0,0.0,0.0,0.0,0.0,0.0,29,bval-core\src\test\java\org\apache\bval\ValidationResultsTest.java,0,0,0,0
org.apache.bval.constraints.AssertFalseValidator, 0, 0, 0, 0, 0, 0, 0, 0, 0, 0, 0, 0, 0, 0,0.0,0.0,0.0,0.0,0.0,0.0,0.0,0.0,0.0,0.0,0.0,0.0,0.0,6,bval-jsr303\src\main\java\org\apache\bval\constraints\AssertFalseValidator.java,0,0,0,0
org.apache.bval.constraints.AssertFalseValidatorTest, 0, 0, 0, 0, 0, 0, 0, 0, 0, 0, 0, 0, 0, 0,0.0,0.0,0.0,0.0,0.0,0.0,0.0,0.0,0.0,0.0,0.0,0.0,0.0,14,bval-jsr303\src\test\java\org\apache\bval\constraints\AssertFalseValidatorTest.java,0,0,0,0
org.apache.bval.constraints.AssertTrueValidator, 0, 0, 0, 0, 0, 0, 0, 0, 0, 0, 0, 0, 0, 0,0.0,0.0,0.0,0.0,0.0,0.0,0.0,0.0,0.0,0.0,0.0,0.0,0.0,6,bval-jsr303\src\main\java\org\apache\bval\constraints\AssertTrueValidator.java,0,0,0,0
org.apache.bval.constraints.AssertTrueValidatorTest, 0, 0, 0, 0, 0, 0, 0, 0, 0, 0, 0, 0, 0, 0,0.0,0.0,0.0,0.0,0.0,0.0,0.0,0.0,0.0,0.0,0.0,0.0,0.0,14,bval-jsr303\src\test\java\org\apache\bval\constraints\AssertTrueValidatorTest.java,0,0,0,0
org.apache.bval.constraints.DecimalMaxValidatorForNumber, 0, 0, 0, 0, 0, 0, 0, 0, 0, 0, 0, 0, 0, 0,0.0,0.0,0.0,0.0,0.0,0.0,0.0,0.0,0.0,0.0,0.0,0.0,0.0,23,bval-jsr303\src\main\java\org\apache\bval\constraints\DecimalMaxValidatorForNumber.java,0,0,0,0
org.apache.bval.constraints.DecimalMaxValidatorForString, 0, 0, 0, 0, 0, 0, 0, 0, 0, 0, 0, 0, 0, 0,0.0,0.0,0.0,0.0,0.0,0.0,0.0,0.0,0.0,0.0,0.0,0.0,0.0,22,bval-jsr303\src\main\java\org\apache\bval\constraints\DecimalMaxValidatorForString.java,0,0,0,0
org.apache.bval.constraints.DecimalMinMaxValidatorsTest, 0, 0, 1, 0, 0, 0, 0, 0, 0, 0, 0, 0, 0, 1,0.0,0.0,0.0,0.0,0.0,0.0,0.0,0.0,0.0,0.0,0.0,0.0,0.0,20,bval-jsr303\src\test\java\org\apache\bval\constraints\DecimalMinMaxValidatorsTest.java,0,0,0,0
org.apache.bval.constraints.DecimalMinValidatorForNumber, 0, 0, 0, 0, 0, 0, 0, 0, 0, 0, 0, 0, 0, 0,0.0,0.0,0.0,0.0,0.0,0.0,0.0,0.0,0.0,0.0,0.0,0.0,0.0,23,bval-jsr303\src\main\java\org\apache\bval\constraints\DecimalMinValidatorForNumber.java,0,0,0,0
org.apache.bval.constraints.DecimalMinValidatorForString, 0, 0, 0, 0, 0, 0, 0, 0, 0, 0, 0, 0, 0, 0,0.0,0.0,0.0,0.0,0.0,0.0,0.0,0.0,0.0,0.0,0.0,0.0,0.0,22,bval-jsr303\src\main\java\org\apache\bval\constraints\DecimalMinValidatorForString.java,0,0,0,0
org.apache.bval.constraints.DigitsValidatorForNumber, 0, 0, 0, 0, 0, 0, 0, 0, 0, 0, 0, 0, 0, 0,0.0,0.0,0.0,0.0,0.0,0.0,0.0,0.0,0.0,0.0,0.0,0.0,0.0,47,bval-jsr303\src\main\java\org\apache\bval\constraints\DigitsValidatorForNumber.java,0,0,0,0
org.apache.bval.constraints.DigitsValidatorForString, 0, 0, 0, 0, 0, 0, 0, 0, 0, 0, 0, 0, 0, 0,0.0,0.0,0.0,0.0,0.0,0.0,0.0,0.0,0.0,0.0,0.0,0.0,0.0,53,bval-jsr303\src\main\java\org\apache\bval\constraints\DigitsValidatorForString.java,0,0,0,0
org.apache.bval.constraints.DigitsValidatorTest, 0, 0, 0, 0, 0, 0, 0, 0, 0, 0, 0, 0, 0, 0,0.0,0.0,0.0,0.0,0.0,0.0,0.0,0.0,0.0,0.0,0.0,0.0,0.0,48,bval-jsr303\src\test\java\org\apache\bval\constraints\DigitsValidatorTest.java,0,0,0,0
org.apache.bval.constraints.EmailValidator, 0, 0, 0, 0, 0, 0, 0, 0, 0, 0, 0, 0, 0, 0,0.0,0.0,0.0,0.0,0.0,0.0,0.0,0.0,0.0,0.0,0.0,0.0,0.0,7,bval-jsr303\src\main\java\org\apache\bval\constraints\EmailValidator.java,0,0,0,0
org.apache.bval.constraints.FrenchZipcodeValidator, 0, 0, 0, 0, 0, 0, 0, 0, 0, 0, 0, 0, 0, 0,0.0,0.0,0.0,0.0,0.0,0.0,0.0,0.0,0.0,0.0,0.0,0.0,0.0,7,bval-jsr303\src\test\java\org\apache\bval\constraints\FrenchZipcodeValidator.java,0,0,0,0
org.apache.bval.constraints.FutureValidatorForCalendar, 0, 0, 0, 0, 0, 0, 0, 0, 0, 0, 0, 0, 0, 0,0.0,0.0,0.0,0.0,0.0,0.0,0.0,0.0,0.0,0.0,0.0,0.0,0.0,10,bval-jsr303\src\main\java\org\apache\bval\constraints\FutureValidatorForCalendar.java,0,0,0,0
org.apache.bval.constraints.FutureValidatorForDate, 0, 0, 0, 0, 0, 0, 0, 0, 0, 0, 0, 0, 0, 0,0.0,0.0,0.0,0.0,0.0,0.0,0.0,0.0,0.0,0.0,0.0,0.0,0.0,10,bval-jsr303\src\main\java\org\apache\bval\constraints\FutureValidatorForDate.java,0,0,0,0
org.apache.bval.constraints.HasStringValidator, 0, 0, 0, 0, 0, 0, 0, 0, 0, 0, 0, 0, 0, 0,0.0,0.0,0.0,0.0,0.0,0.0,0.0,0.0,0.0,0.0,0.0,0.0,0.0,9,bval-jsr303\src\test\java\org\apache\bval\constraints\HasStringValidator.java,0,0,0,0
org.apache.bval.constraints.MaxValidatorForNumber, 0, 0, 0, 0, 0, 0, 0, 0, 0, 0, 0, 0, 0, 0,0.0,0.0,0.0,0.0,0.0,0.0,0.0,0.0,0.0,0.0,0.0,0.0,0.0,17,bval-jsr303\src\main\java\org\apache\bval\constraints\MaxValidatorForNumber.java,0,0,0,0
org.apache.bval.constraints.MaxValidatorForString, 0, 0, 0, 0, 0, 0, 0, 0, 0, 0, 0, 0, 0, 0,0.0,0.0,0.0,0.0,0.0,0.0,0.0,0.0,0.0,0.0,0.0,0.0,0.0,16,bval-jsr303\src\main\java\org\apache\bval\constraints\MaxValidatorForString.java,0,0,0,0
org.apache.bval.constraints.MinMaxValidatorsForNumberTest, 0, 0, 1, 0, 0, 0, 0, 0, 0, 0, 0, 0, 0, 1,0.0,0.0,0.0,0.0,0.0,0.0,0.0,0.0,0.0,0.0,0.0,0.0,0.0,20,bval-jsr303\src\test\java\org\apache\bval\constraints\MinMaxValidatorsForNumberTest.java,0,0,0,0
org.apache.bval.constraints.MinValidatorForNumber, 0, 0, 0, 0, 0, 0, 0, 0, 0, 0, 0, 0, 0, 0,0.0,0.0,0.0,0.0,0.0,0.0,0.0,0.0,0.0,0.0,0.0,0.0,0.0,17,bval-jsr303\src\main\java\org\apache\bval\constraints\MinValidatorForNumber.java,0,0,0,0
org.apache.bval.constraints.MinValidatorForString, 0, 0, 0, 0, 0, 0, 0, 0, 0, 0, 0, 0, 0, 0,0.0,0.0,0.0,0.0,0.0,0.0,0.0,0.0,0.0,0.0,0.0,0.0,0.0,16,bval-jsr303\src\main\java\org\apache\bval\constraints\MinValidatorForString.java,0,0,0,0
org.apache.bval.constraints.NotEmptyValidator, 0, 0, 0, 0, 0, 0, 0, 0, 0, 0, 0, 0, 0, 0,0.0,0.0,0.0,0.0,0.0,0.0,0.0,0.0,0.0,0.0,0.0,0.0,0.0,21,bval-jsr303\src\main\java\org\apache\bval\constraints\NotEmptyValidator.java,0,0,0,0
org.apache.bval.constraints.NotEmptyValidatorForCollection, 0, 0, 0, 0, 0, 0, 0, 0, 0, 0, 0, 0, 0, 0,0.0,0.0,0.0,0.0,0.0,0.0,0.0,0.0,0.0,0.0,0.0,0.0,0.0,7,bval-jsr303\src\main\java\org\apache\bval\constraints\NotEmptyValidatorForCollection.java,0,0,0,0
org.apache.bval.constraints.NotEmptyValidatorForMap, 0, 0, 0, 0, 0, 0, 0, 0, 0, 0, 0, 0, 0, 0,0.0,0.0,0.0,0.0,0.0,0.0,0.0,0.0,0.0,0.0,0.0,0.0,0.0,7,bval-jsr303\src\main\java\org\apache\bval\constraints\NotEmptyValidatorForMap.java,0,0,0,0
org.apache.bval.constraints.NotEmptyValidatorForString, 0, 0, 0, 0, 0, 0, 0, 0, 0, 0, 0, 0, 0, 0,0.0,0.0,0.0,0.0,0.0,0.0,0.0,0.0,0.0,0.0,0.0,0.0,0.0,7,bval-jsr303\src\main\java\org\apache\bval\constraints\NotEmptyValidatorForString.java,0,0,0,0
org.apache.bval.constraints.NotNullValidator, 0, 0, 0, 0, 0, 0, 0, 0, 0, 0, 0, 0, 0, 0,0.0,0.0,0.0,0.0,0.0,0.0,0.0,0.0,0.0,0.0,0.0,0.0,0.0,7,bval-jsr303\src\main\java\org\apache\bval\constraints\NotNullValidator.java,0,0,0,0
org.apache.bval.constraints.NotNullValidatorTest, 0, 0, 0, 0, 0, 0, 0, 0, 0, 0, 0, 0, 0, 0,0.0,0.0,0.0,0.0,0.0,0.0,0.0,0.0,0.0,0.0,0.0,0.0,0.0,13,bval-jsr303\src\test\java\org\apache\bval\constraints\NotNullValidatorTest.java,0,0,0,0
org.apache.bval.constraints.NullValidator, 0, 0, 0, 0, 0, 0, 0, 0, 0, 0, 0, 0, 0, 0,0.0,0.0,0.0,0.0,0.0,0.0,0.0,0.0,0.0,0.0,0.0,0.0,0.0,7,bval-jsr303\src\main\java\org\apache\bval\constraints\NullValidator.java,0,0,0,0
org.apache.bval.constraints.NullValidatorTest, 0, 0, 0, 0, 0, 0, 0, 0, 0, 0, 0, 0, 0, 0,0.0,0.0,0.0,0.0,0.0,0.0,0.0,0.0,0.0,0.0,0.0,0.0,0.0,13,bval-jsr303\src\test\java\org\apache\bval\constraints\NullValidatorTest.java,0,0,0,0
org.apache.bval.constraints.PastValidatorForCalendar, 0, 0, 0, 0, 0, 0, 0, 0, 0, 0, 0, 0, 0, 0,0.0,0.0,0.0,0.0,0.0,0.0,0.0,0.0,0.0,0.0,0.0,0.0,0.0,10,bval-jsr303\src\main\java\org\apache\bval\constraints\PastValidatorForCalendar.java,0,0,0,0
org.apache.bval.constraints.PastValidatorForDate, 0, 0, 0, 0, 0, 0, 0, 0, 0, 0, 0, 0, 0, 0,0.0,0.0,0.0,0.0,0.0,0.0,0.0,0.0,0.0,0.0,0.0,0.0,0.0,10,bval-jsr303\src\main\java\org\apache\bval\constraints\PastValidatorForDate.java,0,0,0,0
org.apache.bval.constraints.PatternValidator, 0, 0, 0, 0, 0, 0, 0, 0, 0, 0, 0, 0, 0, 0,0.0,0.0,0.0,0.0,0.0,0.0,0.0,0.0,0.0,0.0,0.0,0.0,0.0,18,bval-jsr303\src\main\java\org\apache\bval\constraints\PatternValidator.java,0,0,0,0
org.apache.bval.constraints.SizeValidator, 0, 0, 0, 0, 0, 0, 0, 0, 0, 0, 0, 0, 0, 0,0.0,0.0,0.0,0.0,0.0,0.0,0.0,0.0,0.0,0.0,0.0,0.0,0.0,10,bval-jsr303\src\main\java\org\apache\bval\constraints\SizeValidator.java,0,0,0,0
org.apache.bval.constraints.SizeValidatorForArrayOfBoolean, 0, 0, 0, 0, 0, 0, 0, 0, 0, 0, 0, 0, 0, 0,0.0,0.0,0.0,0.0,0.0,0.0,0.0,0.0,0.0,0.0,0.0,0.0,0.0,10,bval-jsr303\src\main\java\org\apache\bval\constraints\SizeValidatorForArrayOfBoolean.java,0,0,0,0
org.apache.bval.constraints.SizeValidatorForArrayOfByte, 0, 0, 0, 0, 0, 0, 0, 0, 0, 0, 0, 0, 0, 0,0.0,0.0,0.0,0.0,0.0,0.0,0.0,0.0,0.0,0.0,0.0,0.0,0.0,10,bval-jsr303\src\main\java\org\apache\bval\constraints\SizeValidatorForArrayOfByte.java,0,0,0,0
org.apache.bval.constraints.SizeValidatorForArrayOfChar, 0, 0, 0, 0, 0, 0, 0, 0, 0, 0, 0, 0, 0, 0,0.0,0.0,0.0,0.0,0.0,0.0,0.0,0.0,0.0,0.0,0.0,0.0,0.0,10,bval-jsr303\src\main\java\org\apache\bval\constraints\SizeValidatorForArrayOfChar.java,0,0,0,0
org.apache.bval.constraints.SizeValidatorForArrayOfDouble, 0, 0, 0, 0, 0, 0, 0, 0, 0, 0, 0, 0, 0, 0,0.0,0.0,0.0,0.0,0.0,0.0,0.0,0.0,0.0,0.0,0.0,0.0,0.0,10,bval-jsr303\src\main\java\org\apache\bval\constraints\SizeValidatorForArrayOfDouble.java,0,0,0,0
org.apache.bval.constraints.SizeValidatorForArrayOfFloat, 0, 0, 0, 0, 0, 0, 0, 0, 0, 0, 0, 0, 0, 0,0.0,0.0,0.0,0.0,0.0,0.0,0.0,0.0,0.0,0.0,0.0,0.0,0.0,10,bval-jsr303\src\main\java\org\apache\bval\constraints\SizeValidatorForArrayOfFloat.java,0,0,0,0
org.apache.bval.constraints.SizeValidatorForArrayOfInt, 0, 0, 0, 0, 0, 0, 0, 0, 0, 0, 0, 0, 0, 0,0.0,0.0,0.0,0.0,0.0,0.0,0.0,0.0,0.0,0.0,0.0,0.0,0.0,10,bval-jsr303\src\main\java\org\apache\bval\constraints\SizeValidatorForArrayOfInt.java,0,0,0,0
org.apache.bval.constraints.SizeValidatorForArrayOfLong, 0, 0, 0, 0, 0, 0, 0, 0, 0, 0, 0, 0, 0, 0,0.0,0.0,0.0,0.0,0.0,0.0,0.0,0.0,0.0,0.0,0.0,0.0,0.0,10,bval-jsr303\src\main\java\org\apache\bval\constraints\SizeValidatorForArrayOfLong.java,0,0,0,0
org.apache.bval.constraints.SizeValidatorForArrayOfObject, 0, 0, 0, 0, 0, 0, 0, 0, 0, 0, 0, 0, 0, 0,0.0,0.0,0.0,0.0,0.0,0.0,0.0,0.0,0.0,0.0,0.0,0.0,0.0,10,bval-jsr303\src\main\java\org\apache\bval\constraints\SizeValidatorForArrayOfObject.java,0,0,0,0
org.apache.bval.constraints.SizeValidatorForArrayOfShort, 0, 0, 0, 0, 0, 0, 0, 0, 0, 0, 0, 0, 0, 0,0.0,0.0,0.0,0.0,0.0,0.0,0.0,0.0,0.0,0.0,0.0,0.0,0.0,10,bval-jsr303\src\main\java\org\apache\bval\constraints\SizeValidatorForArrayOfShort.java,0,0,0,0
org.apache.bval.constraints.SizeValidatorForCollection, 0, 0, 0, 0, 0, 0, 0, 0, 0, 0, 0, 0, 0, 0,0.0,0.0,0.0,0.0,0.0,0.0,0.0,0.0,0.0,0.0,0.0,0.0,0.0,10,bval-jsr303\src\main\java\org\apache\bval\constraints\SizeValidatorForCollection.java,0,0,0,0
org.apache.bval.constraints.SizeValidatorForMap, 0, 0, 0, 0, 0, 0, 0, 0, 0, 0, 0, 0, 0, 0,0.0,0.0,0.0,0.0,0.0,0.0,0.0,0.0,0.0,0.0,0.0,0.0,0.0,10,bval-jsr303\src\main\java\org\apache\bval\constraints\SizeValidatorForMap.java,0,0,0,0
org.apache.bval.constraints.SizeValidatorForString, 0, 0, 0, 0, 0, 0, 0, 0, 0, 0, 0, 0, 0, 0,0.0,0.0,0.0,0.0,0.0,0.0,0.0,0.0,0.0,0.0,0.0,0.0,0.0,10,bval-jsr303\src\main\java\org\apache\bval\constraints\SizeValidatorForString.java,0,0,0,0
org.apache.bval.constraints.ZipCodeCityCoherenceValidator, 0, 0, 0, 0, 0, 0, 0, 0, 0, 0, 0, 0, 0, 0,0.0,0.0,0.0,0.0,0.0,0.0,0.0,0.0,0.0,0.0,0.0,0.0,0.0,19,bval-jsr303\src\test\java\org\apache\bval\constraints\ZipCodeCityCoherenceValidator.java,0,0,0,0
org.apache.bval.example.BusinessObject, 0, 0, 0, 1, 0, 0, 0, 0, 0, 0, 0, 0, 0, 1,0.0,0.0,0.0,0.0,0.0,0.0,0.0,0.0,0.0,0.0,0.0,0.0,0.0,76,bval-xstream\src\test\java\org\apache\bval\example\BusinessObject.java,0,0,0,0
org.apache.bval.example.BusinessObjectAddress, 0, 0, 0, 0, 0, 0, 0, 0, 0, 0, 0, 0, 0, 0,0.0,0.0,0.0,1.0,0.0,0.0,0.0,0.0,0.0,0.0,0.0,0.0,0.0,22,bval-xstream\src\test\java\org\apache\bval\example\BusinessObjectAddress.java,0,0,0,0
org.apache.bval.example.BusinessObjectBeanInfo, 0, 0, 0, 0, 0, 0, 0, 0, 0, 0, 0, 0, 0, 0,0.0,0.0,0.0,0.0,0.0,0.0,0.0,0.0,0.0,0.0,0.0,0.0,0.0,21,bval-xstream\src\test\java\org\apache\bval\example\BusinessObjectBeanInfo.java,0,0,0,0
org.apache.bval.example.ExplicitBeanInfo, 0, 0, 0, 0, 0, 0, 0, 0, 0, 0, 0, 0, 0, 0,0.0,0.0,0.0,0.0,0.0,0.0,0.0,0.0,0.0,0.0,0.0,0.0,0.0,8,bval-xstream\src\test\java\org\apache\bval\example\BusinessObjectBeanInfo.java,0,0,0,0
org.apache.bval.extras.constraints.checkdigit.ABANumberValidator, 0, 0, 0, 0, 0, 0, 0, 1, 0, 0, 0, 0, 0, 1,0.0,0.0,0.0,0.0,0.0,0.0,0.0,0.5,0.0,0.0,0.0,0.0,0.0,13,bval-extras\src\main\java\org\apache\bval\extras\constraints\checkdigit\ABANumberValidator.java,0,0,0,0
org.apache.bval.extras.constraints.checkdigit.ABANumberValidatorTest, 0, 0, 0, 0, 0, 0, 0, 0, 0, 0, 0, 0, 0, 0,0.0,0.0,0.0,0.5,0.0,0.0,0.0,0.5,0.0,0.0,0.0,0.0,0.0,17,bval-extras\src\test\java\org\apache\bval\extras\constraints\checkdigit\ABANumberValidatorTest.java,0,0,0,0
org.apache.bval.extras.constraints.checkdigit.AbstractCheckDigitTest, 0, 0, 0, 1, 0, 0, 0, 0, 0, 0, 0, 0, 0, 1,0.0,0.0,0.0,0.0,0.0,0.0,0.0,0.0,0.0,0.0,0.0,0.0,0.0,87,bval-extras\src\test\java\org\apache\bval\extras\constraints\checkdigit\AbstractCheckDigitTest.java,0,0,0,0
org.apache.bval.extras.constraints.checkdigit.CUSIPValidator, 0, 0, 0, 0, 0, 0, 0, 1, 0, 0, 0, 0, 0, 1,0.0,0.0,0.0,0.0,0.0,0.0,0.0,0.5,0.0,0.0,0.0,0.0,0.0,26,bval-extras\src\main\java\org\apache\bval\extras\constraints\checkdigit\CUSIPValidator.java,0,0,0,0
org.apache.bval.extras.constraints.checkdigit.CUSIPValidatorTest, 0, 0, 0, 0, 0, 0, 0, 0, 0, 0, 0, 0, 0, 0,0.0,0.0,0.0,0.5,0.0,0.0,0.0,0.5,0.0,0.0,0.0,0.0,0.0,23,bval-extras\src\test\java\org\apache\bval\extras\constraints\checkdigit\CUSIPValidatorTest.java,0,0,0,0
org.apache.bval.extras.constraints.checkdigit.EAN13CheckDigitTest, 0, 0, 0, 0, 0, 0, 0, 0, 0, 0, 0, 0, 0, 0,0.0,0.0,0.0,0.5,0.0,0.0,0.0,0.5,0.0,0.0,0.0,0.0,0.0,15,bval-extras\src\test\java\org\apache\bval\extras\constraints\checkdigit\EAN13CheckDigitTest.java,0,0,0,0
org.apache.bval.extras.constraints.checkdigit.EAN13Validator, 0, 0, 0, 0, 0, 0, 0, 1, 0, 0, 0, 0, 0, 1,0.0,0.0,0.0,0.0,0.0,0.0,0.0,0.5,0.0,0.0,0.0,0.0,0.0,13,bval-extras\src\main\java\org\apache\bval\extras\constraints\checkdigit\EAN13Validator.java,0,0,0,0
org.apache.bval.extras.constraints.checkdigit.IBANCheckDigitTest, 0, 0, 0, 0, 0, 0, 0, 0, 0, 0, 0, 0, 0, 0,0.0,0.0,0.0,1.0,0.0,0.0,0.0,0.0,0.0,0.0,0.0,0.0,0.0,87,bval-extras\src\test\java\org\apache\bval\extras\constraints\checkdigit\IBANCheckDigitTest.java,0,0,0,0
org.apache.bval.extras.constraints.checkdigit.IBANValidator, 0, 0, 0, 0, 0, 0, 0, 0, 0, 0, 0, 0, 0, 0,0.0,0.0,0.0,0.0,0.0,0.0,0.0,0.0,0.0,0.0,0.0,0.0,0.0,25,bval-extras\src\main\java\org\apache\bval\extras\constraints\checkdigit\IBANValidator.java,0,0,0,0
org.apache.bval.extras.constraints.checkdigit.ISBN10CheckDigitTest, 0, 0, 0, 0, 0, 0, 0, 0, 0, 0, 0, 0, 0, 0,0.0,0.0,0.0,0.5,0.0,0.0,0.0,0.5,0.0,0.0,0.0,0.0,0.0,15,bval-extras\src\test\java\org\apache\bval\extras\constraints\checkdigit\ISBN10CheckDigitTest.java,0,0,0,0
org.apache.bval.extras.constraints.checkdigit.ISBN10Validator, 0, 0, 0, 0, 0, 0, 0, 1, 0, 0, 0, 0, 0, 1,0.0,0.0,0.0,0.0,0.0,0.0,0.0,0.5,0.0,0.0,0.0,0.0,0.0,17,bval-extras\src\main\java\org\apache\bval\extras\constraints\checkdigit\ISBN10Validator.java,0,0,0,0
org.apache.bval.extras.constraints.checkdigit.LuhnCheckDigitTest, 0, 0, 0, 0, 0, 0, 0, 0, 0, 0, 0, 0, 0, 0,0.0,0.0,0.0,0.5,0.0,0.0,0.0,0.5,0.0,0.0,0.0,0.0,0.0,23,bval-extras\src\test\java\org\apache\bval\extras\constraints\checkdigit\LuhnCheckDigitTest.java,0,0,0,0
org.apache.bval.extras.constraints.checkdigit.LuhnValidator, 0, 0, 0, 0, 0, 0, 0, 1, 0, 0, 0, 0, 0, 1,0.0,0.0,0.0,0.0,0.0,0.0,0.0,0.5,0.0,0.0,0.0,0.0,0.0,14,bval-extras\src\main\java\org\apache\bval\extras\constraints\checkdigit\LuhnValidator.java,0,0,0,0
org.apache.bval.extras.constraints.checkdigit.ModulusValidator, 0, 0, 0, 0, 0, 0, 0, 1, 0, 0, 0, 0, 0, 1,0.0,0.0,0.0,0.0,0.0,0.0,0.0,1.0,0.0,0.0,0.0,0.0,0.0,51,bval-extras\src\main\java\org\apache\bval\extras\constraints\checkdigit\ModulusValidator.java,0,0,0,0
org.apache.bval.extras.constraints.checkdigit.SedolCheckDigitTest, 0, 0, 0, 0, 0, 0, 0, 0, 0, 0, 0, 0, 0, 0,0.0,0.0,0.0,0.5,0.0,0.0,0.0,0.5,0.0,0.0,0.0,0.0,0.0,24,bval-extras\src\test\java\org\apache\bval\extras\constraints\checkdigit\SedolCheckDigitTest.java,0,0,0,0
org.apache.bval.extras.constraints.checkdigit.SedolValidator, 0, 0, 0, 0, 0, 0, 0, 1, 0, 0, 0, 0, 0, 1,0.0,0.0,0.0,0.0,0.0,0.0,0.0,0.5,0.0,0.0,0.0,0.0,0.0,24,bval-extras\src\main\java\org\apache\bval\extras\constraints\checkdigit\SedolValidator.java,0,0,0,0
org.apache.bval.extras.constraints.checkdigit.VerhoeffCheckDigitTest, 0, 0, 0, 0, 0, 0, 0, 0, 0, 0, 0, 0, 0, 0,0.0,0.0,0.0,1.0,0.0,0.0,0.0,0.0,0.0,0.0,0.0,0.0,0.0,19,bval-extras\src\test\java\org\apache\bval\extras\constraints\checkdigit\VerhoeffCheckDigitTest.java,0,0,0,0
org.apache.bval.extras.constraints.checkdigit.VerhoeffValidator, 0, 0, 0, 0, 0, 0, 0, 0, 0, 0, 0, 0, 0, 0,0.0,0.0,0.0,0.0,0.0,0.0,0.0,0.0,0.0,0.0,0.0,0.0,0.0,40,bval-extras\src\main\java\org\apache\bval\extras\constraints\checkdigit\VerhoeffValidator.java,0,0,0,0
org.apache.bval.extras.constraints.file.DirectoryValidator, 0, 0, 0, 0, 0, 0, 0, 0, 0, 0, 0, 0, 0, 0,0.0,0.0,0.0,0.0,0.0,0.0,0.0,0.0,0.0,0.0,0.0,0.0,0.0,7,bval-extras\src\main\java\org\apache\bval\extras\constraints\file\DirectoryValidator.java,0,0,0,0
org.apache.bval.extras.constraints.file.NotDirectoryValidator, 0, 0, 0, 0, 0, 0, 0, 0, 0, 0, 0, 0, 0, 0,0.0,0.0,0.0,0.0,0.0,0.0,0.0,0.0,0.0,0.0,0.0,0.0,0.0,7,bval-extras\src\main\java\org\apache\bval\extras\constraints\file\NotDirectoryValidator.java,0,0,0,0
org.apache.bval.extras.constraints.file.SymlinkValidator, 0, 0, 0, 0, 0, 0, 0, 0, 0, 0, 0, 0, 0, 0,0.0,0.0,0.0,0.0,0.0,0.0,0.0,0.0,0.0,0.0,0.0,0.0,0.0,25,bval-extras\src\main\java\org\apache\bval\extras\constraints\file\SymlinkValidator.java,0,0,0,0
org.apache.bval.extras.constraints.net.DomainValidatorTest, 0, 0, 0, 0, 0, 0, 0, 0, 0, 0, 0, 0, 0, 0,0.0,0.0,0.0,0.0,0.0,0.0,0.0,0.0,0.0,0.0,0.0,0.0,0.0,80,bval-extras\src\test\java\org\apache\bval\extras\constraints\net\DomainValidatorTest.java,0,0,0,0
org.apache.bval.extras.constraints.net.InetAddressValidator, 0, 0, 0, 0, 0, 0, 0, 0, 0, 0, 0, 0, 0, 0,0.0,0.0,0.0,0.0,0.0,0.0,0.0,0.0,0.0,0.0,0.0,0.0,0.0,14,bval-extras\src\main\java\org\apache\bval\extras\constraints\net\InetAddressValidator.java,0,0,0,0
org.apache.bval.extras.constraints.net.InetAddressValidatorTest, 0, 0, 0, 0, 0, 0, 0, 0, 0, 0, 0, 0, 0, 0,0.0,0.0,0.0,0.0,0.0,0.0,0.0,0.0,0.0,0.0,0.0,0.0,0.0,38,bval-extras\src\test\java\org\apache\bval\extras\constraints\net\InetAddressValidatorTest.java,0,0,0,0
org.apache.bval.guice.ConfigurationStateProvider, 0, 0, 0, 0, 0, 0, 0, 0, 0, 0, 0, 0, 0, 0,0.0,0.0,0.0,0.0,0.0,0.0,0.0,0.0,0.0,0.0,0.0,0.0,0.0,34,bval-guice\src\main\java\org\apache\bval\guice\ConfigurationStateProvider.java,0,0,0,0
org.apache.bval.guice.Country, 0, 0, 0, 0, 0, 0, 0, 0, 0, 0, 0, 0, 0, 0,0.0,0.0,0.0,0.0,0.0,0.0,0.0,0.5,0.0,0.0,0.0,0.0,0.0,35,bval-guice\src\test\java\org\apache\bval\guice\Country.java,0,0,0,0
org.apache.bval.guice.DummyCountryDao, 0, 0, 0, 0, 0, 0, 0, 1, 0, 0, 0, 0, 0, 1,0.0,0.0,0.0,0.0,0.0,0.0,0.0,0.0,0.0,0.0,0.0,0.0,0.0,23,bval-guice\src\test\java\org\apache\bval\guice\DummyCountryDao.java,0,0,0,0
org.apache.bval.guice.DummyException, 0, 0, 0, 0, 0, 0, 0, 0, 0, 0, 0, 0, 0, 0,0.0,0.0,0.0,0.0,0.0,0.0,0.0,0.0,0.0,0.0,0.0,0.0,0.0,9,bval-guice\src\test\java\org\apache\bval\guice\DummyException.java,0,0,0,0
org.apache.bval.guice.GuiceAwareConstraintValidatorFactory, 0, 0, 0, 0, 0, 0, 0, 0, 0, 0, 0, 0, 0, 0,0.0,0.0,0.0,0.0,0.0,0.0,0.0,0.0,0.0,0.0,0.0,0.0,0.0,10,bval-guice\src\main\java\org\apache\bval\guice\GuiceAwareConstraintValidatorFactory.java,0,0,0,0
org.apache.bval.guice.GuiceAwareValidationTestCase, 0, 0, 0, 0, 0, 0, 0, 0, 0, 0, 0, 0, 0, 0,0.0,0.0,0.0,0.0,0.0,0.0,0.0,0.5,0.0,0.0,0.0,0.0,0.0,48,bval-guice\src\test\java\org\apache\bval\guice\GuiceAwareValidationTestCase.java,0,0,0,0
org.apache.bval.guice.Insert, 0, 0, 0, 0, 0, 0, 0, 0, 0, 0, 0, 0, 0, 0,0.0,0.0,0.0,0.0,0.0,0.0,0.0,0.0,0.0,0.0,0.0,0.0,0.0,48,bval-guice\src\test\java\org\apache\bval\guice\Insert.java,0,0,0,0
org.apache.bval.guice.Update, 0, 0, 0, 0, 0, 0, 0, 0, 0, 0, 0, 0, 0, 0,0.0,0.0,0.0,0.0,0.0,0.0,0.0,0.0,0.0,0.0,0.0,0.0,0.0,48,bval-guice\src\test\java\org\apache\bval\guice\Update.java,0,0,0,0
org.apache.bval.guice.ValidateMethodInterceptor, 0, 0, 0, 0, 0, 0, 0, 1, 0, 0, 0, 0, 0, 1,0.0,0.0,0.0,0.0,0.0,0.0,0.0,0.0,0.0,0.0,0.0,0.0,0.0,100,bval-guice\src\main\java\org\apache\bval\guice\ValidateMethodInterceptor.java,0,0,0,0
org.apache.bval.guice.ValidationModule, 0, 0, 0, 0, 0, 0, 0, 0, 0, 0, 0, 0, 0, 0,0.0,0.0,0.0,0.0,0.0,0.0,0.0,0.0,0.0,0.0,0.0,0.0,0.0,15,bval-guice\src\main\java\org\apache\bval\guice\ValidationModule.java,0,0,0,0
org.apache.bval.guice.ValidatorFactoryProvider, 0, 0, 0, 0, 0, 0, 0, 0, 0, 0, 0, 0, 0, 0,0.0,0.0,0.0,0.0,0.0,0.0,0.0,0.0,0.0,0.0,0.0,0.0,0.0,10,bval-guice\src\main\java\org\apache\bval\guice\ValidatorFactoryProvider.java,0,0,0,0
org.apache.bval.guice.ValidatorProvider, 0, 0, 0, 0, 0, 0, 0, 0, 0, 0, 0, 0, 0, 0,0.0,0.0,0.0,0.0,0.0,0.0,0.0,0.0,0.0,0.0,0.0,0.0,0.0,10,bval-guice\src\main\java\org\apache\bval\guice\ValidatorProvider.java,0,0,0,0
org.apache.bval.json.JSONGeneratorTest, 0, 0, 0, 0, 0, 0, 0, 0, 0, 0, 0, 0, 0, 0,0.0,0.0,0.0,0.25,0.0,0.0,0.0,0.0,0.0,0.0,0.0,0.0,0.0,53,bval-json\src\test\java\org\apache\bval\json\JSONGeneratorTest.java,0,0,0,0
org.apache.bval.jsr303.ApacheFactoryContext, 0, 0, 0, 1, 0, 0, 0, 0, 0, 0, 0, 0, 0, 1,0.16666666666666666,0.0,0.0,0.16666666666666666,0.0,0.0,0.0,0.3333333333333333,0.0,0.0,0.0,0.0,0.0,142,bval-jsr303\src\main\java\org\apache\bval\jsr303\ApacheFactoryContext.java,0,0,0,0
org.apache.bval.jsr303.ApacheValidationProvider, 0, 0, 0, 0, 0, 0, 0, 0, 0, 0, 0, 0, 0, 0,0.0,0.0,0.0,0.0,0.0,0.0,0.0,0.0,0.0,0.0,0.0,0.0,0.0,51,bval-jsr303\src\main\java\org\apache\bval\jsr303\ApacheValidationProvider.java,8,0,10,28
org.apache.bval.jsr303.ApacheValidatorConfiguration, 0, 0, 0, 0, 0, 0, 0, 0, 0, 0, 0, 0, 0, 0,0.0,0.0,0.0,0.0,0.0,0.0,0.0,0.0,0.0,0.0,0.0,0.0,0.0,51,bval-jsr303\src\main\java\org\apache\bval\jsr303\ApacheValidatorConfiguration.java,0,0,0,0
org.apache.bval.jsr303.AppendValidation, 0, 0, 0, 0, 0, 0, 0, 0, 0, 0, 0, 0, 0, 0,0.0,0.0,0.0,0.0,0.0,0.0,0.0,0.0,0.0,0.0,0.0,0.0,0.0,51,bval-jsr303\src\main\java\org\apache\bval\jsr303\AppendValidation.java,0,0,0,0
org.apache.bval.jsr303.AppendValidationToBuilder, 0, 0, 0, 0, 0, 0, 0, 0, 0, 0, 0, 0, 0, 0,0.0,0.0,0.0,0.0,0.0,0.0,0.0,0.0,0.0,0.0,0.0,0.0,0.0,29,bval-jsr303\src\main\java\org\apache\bval\jsr303\AppendValidationToBuilder.java,0,0,0,0
org.apache.bval.jsr303.AppendValidationToMeta, 0, 0, 0, 0, 0, 0, 0, 0, 0, 0, 0, 0, 0, 0,0.0,0.0,0.0,0.0,0.0,0.0,0.0,0.0,0.0,0.0,0.0,0.0,0.0,9,bval-jsr303\src\main\java\org\apache\bval\jsr303\AppendValidationToMeta.java,0,0,0,0
org.apache.bval.jsr303.BaseAppendValidation, 0, 0, 0, 0, 0, 0, 0, 0, 0, 0, 0, 0, 0, 0,0.0,0.0,0.0,0.0,0.0,0.0,0.0,0.0,0.0,0.0,0.0,0.0,0.0,13,bval-jsr303\src\main\java\org\apache\bval\jsr303\BaseAppendValidation.java,0,0,0,0
org.apache.bval.jsr303.BeanDescriptorImpl, 0, 0, 0, 0, 0, 0, 0, 0, 0, 0, 0, 0, 0, 0,0.0,0.0,0.0,0.6,0.0,0.0,0.0,0.4,0.0,0.0,0.0,0.0,0.0,58,bval-jsr303\src\main\java\org\apache\bval\jsr303\BeanDescriptorImpl.java,0,0,0,0
org.apache.bval.jsr303.BeanDescriptorTest, 1, 0, 0, 0, 0, 0, 0, 0, 0, 0, 0, 0, 0, 1,0.0,0.0,0.0,0.0,0.0,0.0,0.0,0.0,0.0,0.0,0.0,0.0,0.0,116,bval-jsr303\src\test\java\org\apache\bval\jsr303\BeanDescriptorTest.java,0,0,0,0
org.apache.bval.jsr303.BootstrapTest, 0, 0, 0, 0, 0, 0, 0, 0, 0, 0, 0, 0, 0, 0,0.0,0.0,0.0,1.0,0.0,0.0,0.0,0.0,0.0,0.0,0.0,0.0,0.0,99,bval-jsr303\src\test\java\org\apache\bval\jsr303\BootstrapTest.java,0,0,0,0
org.apache.bval.jsr303.CascadingPropertyValidator, 0, 0, 0, 0, 0, 0, 0, 0, 0, 0, 0, 0, 0, 0,0.0,0.0,0.0,0.0,0.0,0.0,0.0,0.0,0.0,0.0,0.0,0.0,0.0,99,bval-jsr303\src\main\java\org\apache\bval\jsr303\CascadingPropertyValidator.java,0,0,0,0
org.apache.bval.jsr303.CircularReferencesTest, 1, 0, 0, 0, 0, 0, 0, 0, 0, 0, 0, 0, 0, 1,0.0,0.0,0.0,0.0,0.0,0.0,0.0,0.0,0.0,0.0,0.0,0.0,0.0,43,bval-jsr303\src\test\java\org\apache\bval\jsr303\CircularReferencesTest.java,0,0,0,0
org.apache.bval.jsr303.ClassValidator, 0, 0, 0, 1, 0, 0, 0, 1, 0, 0, 0, 0, 0, 2,0.0,0.0,0.0,0.2727272727272727,0.0,0.0,0.0,0.2727272727272727,0.0,0.0,0.0,0.0,0.0,404,bval-jsr303\src\main\java\org\apache\bval\jsr303\ClassValidator.java,0,0,0,0
org.apache.bval.jsr303.ComposedConstraintsTest, 1, 0, 0, 0, 0, 0, 0, 0, 0, 0, 0, 0, 0, 1,0.0,0.0,0.0,0.0,0.0,0.0,0.0,0.0,0.0,0.0,0.0,0.0,0.0,65,bval-jsr303\src\test\java\org\apache\bval\jsr303\ComposedConstraintsTest.java,0,0,0,0
org.apache.bval.jsr303.ConstraintCompositionTest, 1, 0, 0, 0, 0, 0, 0, 0, 0, 0, 0, 0, 0, 1,0.0,0.0,0.0,0.0,0.0,0.0,0.0,0.0,0.0,0.0,0.0,0.0,0.0,163,bval-jsr303\src\test\java\org\apache\bval\jsr303\ConstraintCompositionTest.java,0,0,0,0
org.apache.bval.jsr303.ConstraintDefinitionsTest, 1, 0, 0, 0, 0, 0, 0, 0, 0, 0, 0, 0, 0, 1,0.0,0.0,0.0,0.0,0.0,0.0,0.0,0.0,0.0,0.0,0.0,0.0,0.0,176,bval-jsr303\src\test\java\org\apache\bval\jsr303\ConstraintDefinitionsTest.java,0,0,0,0
org.apache.bval.jsr303.ConstraintFinderImpl, 0, 0, 0, 0, 0, 0, 0, 0, 0, 0, 0, 0, 0, 0,0.0,0.0,0.0,0.0,0.0,0.0,0.0,0.5,0.0,0.0,0.0,0.0,0.0,95,bval-jsr303\src\main\java\org\apache\bval\jsr303\ConstraintFinderImpl.java,0,0,0,0
org.apache.bval.jsr303.ConstraintValidationListener, 0, 0, 0, 0, 0, 0, 0, 1, 0, 0, 0, 0, 0, 1,0.0,0.0,0.0,0.6,0.0,0.0,0.0,0.6,0.0,0.0,0.0,0.0,0.0,80,bval-jsr303\src\main\java\org\apache\bval\jsr303\ConstraintValidationListener.java,0,0,0,0
org.apache.bval.jsr303.ConstraintValidatorContextImpl, 0, 0, 0, 0, 0, 0, 0, 0, 0, 0, 0, 0, 0, 0,0.0,0.0,0.0,0.0,0.0,0.0,0.0,0.75,0.0,0.0,0.0,0.0,0.0,69,bval-jsr303\src\main\java\org\apache\bval\jsr303\ConstraintValidatorContextImpl.java,0,0,0,0
org.apache.bval.jsr303.ConstraintValidatorContextTest, 0, 0, 0, 0, 0, 0, 0, 0, 0, 0, 0, 0, 0, 0,0.0,0.0,0.0,0.5,0.0,0.0,0.0,0.0,0.0,0.0,0.0,0.0,0.0,59,bval-jsr303\src\test\java\org\apache\bval\jsr303\ConstraintValidatorContextTest.java,0,0,0,0
org.apache.bval.jsr303.ConstraintValidatorIdentity, 0, 0, 0, 0, 0, 0, 0, 1, 0, 0, 0, 0, 0, 1,0.0,0.0,0.0,0.0,0.0,0.0,0.0,0.0,0.0,0.0,0.0,0.0,0.0,54,bval-jsr303\src\main\java\org\apache\bval\jsr303\ConstraintValidatorIdentity.java,0,0,0,0
org.apache.bval.jsr303.ConstraintViolationImpl, 0, 0, 0, 1, 0, 0, 0, 1, 0, 0, 0, 0, 0, 2,0.0,0.0,0.0,0.0,0.0,0.0,0.0,1.0,0.0,0.0,0.0,0.0,0.0,130,bval-jsr303\src\main\java\org\apache\bval\jsr303\ConstraintViolationImpl.java,0,0,0,0
org.apache.bval.jsr303.CustomConstraintValidatorFactoryTest, 0, 0, 0, 0, 0, 0, 0, 0, 0, 0, 0, 0, 0, 0,0.0,0.0,0.0,0.0,0.0,0.0,0.0,0.0,0.0,0.0,0.0,0.0,0.0,35,bval-jsr303\src\test\java\org\apache\bval\jsr303\CustomConstraintValidatorFactoryTest.java,0,0,0,0
org.apache.bval.jsr303.CustomValidatorFactoryTest, 0, 0, 0, 0, 0, 0, 0, 0, 0, 0, 0, 0, 0, 0,0.0,0.0,0.0,0.0,0.0,0.0,0.0,0.0,0.0,0.0,0.0,0.0,0.0,65,bval-jsr303\src\test\java\org\apache\bval\jsr303\CustomValidatorFactoryTest.java,0,0,0,0
org.apache.bval.jsr303.DefaultConstraintValidatorFactory, 0, 0, 0, 0, 0, 0, 0, 0, 0, 0, 0, 0, 0, 0,0.0,0.0,0.0,0.0,0.0,0.0,0.0,0.0,0.0,0.0,0.0,0.0,0.0,13,bval-jsr303\src\main\java\org\apache\bval\jsr303\DefaultConstraintValidatorFactory.java,0,0,0,0
org.apache.bval.jsr303.DefaultMessageInterpolatorTest, 0, 0, 0, 0, 0, 0, 0, 0, 0, 0, 0, 0, 0, 0,0.0,0.0,0.0,0.0,0.0,0.0,0.0,0.0,0.0,0.0,0.0,0.0,0.0,79,bval-jsr303\src\test\java\org\apache\bval\jsr303\DefaultMessageInterpolatorTest.java,0,0,0,0
org.apache.bval.jsr303.DefaultValidationProviderResolver, 0, 0, 0, 0, 0, 0, 0, 0, 0, 0, 0, 0, 0, 0,0.0,0.0,0.0,0.0,0.0,0.0,0.0,0.0,0.0,0.0,0.0,0.0,0.0,53,bval-jsr303\src\main\java\org\apache\bval\jsr303\DefaultValidationProviderResolver.java,0,0,0,0
org.apache.bval.jsr303.ElementDescriptorImpl, 0, 0, 0, 0, 0, 0, 0, 1, 0, 0, 0, 0, 0, 1,0.0,0.0,0.0,0.0,0.0,0.0,0.0,0.14285714285714285,0.0,0.0,0.0,0.0,0.0,45,bval-jsr303\src\main\java\org\apache\bval\jsr303\ElementDescriptorImpl.java,0,0,0,0
org.apache.bval.jsr303.ExceptionsContractTest, 1, 0, 0, 0, 0, 0, 0, 0, 0, 0, 0, 0, 0, 1,0.0,0.0,0.0,0.0,0.0,0.0,0.0,0.0,0.0,0.0,0.0,0.0,0.0,125,bval-jsr303\src\test\java\org\apache\bval\jsr303\ExceptionsContractTest.java,0,0,0,0
org.apache.bval.jsr303.FooTest, 0, 0, 0, 0, 0, 0, 0, 0, 0, 0, 0, 0, 0, 0,0.0,0.0,0.0,0.0,0.0,0.0,0.0,0.0,0.0,0.0,0.0,0.0,0.0,24,bval-jsr303\src\test\java\org\apache\bval\jsr303\FooTest.java,0,0,0,0
org.apache.bval.jsr303.GraphBeanIdentity, 0, 0, 0, 0, 0, 0, 0, 1, 0, 0, 0, 0, 0, 1,0.0,0.0,0.0,0.0,0.0,0.0,0.0,0.0,0.0,0.0,0.0,0.0,0.0,49,bval-jsr303\src\main\java\org\apache\bval\jsr303\GraphBeanIdentity.java,0,0,0,0
org.apache.bval.jsr303.GroupValidationContext, 0, 0, 0, 0, 0, 0, 0, 0, 0, 0, 0, 0, 0, 0,0.0,0.0,0.0,0.0,0.0,0.0,0.0,0.0,0.0,0.0,0.0,0.0,0.0,49,bval-jsr303\src\main\java\org\apache\bval\jsr303\GroupValidationContext.java,0,0,0,0
org.apache.bval.jsr303.IncompatiblePropertyValueException, 0, 0, 0, 0, 0, 0, 0, 0, 0, 0, 0, 0, 0, 0,0.0,0.0,0.0,0.0,0.0,0.0,0.0,0.0,0.0,0.0,0.0,0.0,0.0,15,bval-jsr303\src\main\java\org\apache\bval\jsr303\IncompatiblePropertyValueException.java,0,0,0,0
org.apache.bval.jsr303.Jsr303Features, 0, 0, 0, 0, 0, 0, 0, 0, 0, 0, 0, 0, 0, 0,0.0,0.0,0.0,0.0,0.0,0.0,0.0,0.0,0.0,0.0,0.0,0.0,0.0,15,bval-jsr303\src\main\java\org\apache\bval\jsr303\Jsr303Features.java,0,0,0,0
org.apache.bval.jsr303.PayloadTest, 1, 0, 0, 0, 0, 0, 0, 0, 0, 0, 0, 0, 0, 1,0.0,0.0,0.0,0.0,0.0,0.0,0.0,0.0,0.0,0.0,0.0,0.0,0.0,55,bval-jsr303\src\test\java\org\apache\bval\jsr303\PayloadTest.java,0,0,0,0
org.apache.bval.jsr303.PropertyDescriptorImpl, 0, 0, 0, 0, 0, 0, 0, 0, 0, 0, 0, 0, 0, 0,0.0,0.0,0.0,0.3333333333333333,0.0,0.0,0.0,0.3333333333333333,0.0,0.0,0.0,0.0,0.0,25,bval-jsr303\src\main\java\org\apache\bval\jsr303\PropertyDescriptorImpl.java,0,0,0,0
org.apache.bval.jsr303.TckReproducerTest, 1, 0, 0, 0, 0, 0, 0, 0, 0, 0, 0, 0, 0, 1,0.0,0.0,0.0,0.0,0.0,0.0,0.0,0.0,0.0,0.0,0.0,0.0,0.0,51,bval-jsr303\src\test\java\org\apache\bval\jsr303\TckReproducerTest.java,0,0,0,0
org.apache.bval.jsr303.UnknownPropertyException, 0, 0, 0, 0, 0, 0, 0, 0, 0, 0, 0, 0, 0, 0,0.0,0.0,0.0,0.0,0.0,0.0,0.0,0.0,0.0,0.0,0.0,0.0,0.0,15,bval-jsr303\src\main\java\org\apache\bval\jsr303\UnknownPropertyException.java,0,0,0,0
org.apache.bval.jsr303.ValidatorResolutionTest, 1, 0, 0, 0, 0, 0, 0, 0, 0, 0, 0, 0, 0, 1,0.0,0.0,0.0,0.0,0.0,0.0,0.0,0.0,0.0,0.0,0.0,0.0,0.0,43,bval-jsr303\src\test\java\org\apache\bval\jsr303\ValidatorResolutionTest.java,0,0,0,0
org.apache.bval.jsr303.example.AccessTestBusinessObject, 0, 0, 0, 0, 0, 0, 0, 0, 0, 0, 0, 0, 0, 0,0.0,0.0,0.0,0.0,0.0,0.0,0.0,0.0,0.0,0.0,0.0,0.0,0.0,32,bval-jsr303\src\test\java\org\apache\bval\jsr303\example\AccessTestBusinessObject.java,0,0,0,0
org.apache.bval.jsr303.example.AccessTestBusinessObjectSub, 0, 0, 0, 0, 0, 0, 0, 0, 0, 0, 0, 0, 0, 0,0.0,0.0,0.0,0.0,0.0,0.0,0.0,0.0,0.0,0.0,0.0,0.0,0.0,23,bval-jsr303\src\test\java\org\apache\bval\jsr303\example\AccessTestBusinessObjectSub.java,0,0,0,0
org.apache.bval.jsr303.example.Address, 0, 0, 0, 0, 0, 0, 0, 0, 0, 0, 0, 0, 0, 0,0.3333333333333333,0.0,0.0,0.0,0.0,0.0,0.0,0.0,0.0,0.0,0.0,0.0,0.0,49,bval-jsr303\src\test\java\org\apache\bval\jsr303\example\Address.java,0,0,0,0
org.apache.bval.jsr303.example.Author, 0, 0, 0, 0, 0, 0, 0, 0, 0, 0, 0, 0, 0, 0,0.6666666666666666,0.0,0.0,0.0,0.0,0.0,0.0,0.0,0.0,0.0,0.0,0.0,0.0,33,bval-jsr303\src\test\java\org\apache\bval\jsr303\example\Author.java,0,0,0,0
org.apache.bval.jsr303.example.Book, 0, 0, 0, 0, 0, 0, 0, 0, 0, 0, 0, 0, 0, 0,0.5,0.0,0.0,0.0,0.0,0.0,0.0,0.0,0.0,0.0,0.0,0.0,0.0,40,bval-jsr303\src\test\java\org\apache\bval\jsr303\example\Book.java,0,0,0,0
org.apache.bval.jsr303.example.BusinessAddress, 0, 0, 0, 0, 0, 0, 0, 0, 0, 0, 0, 0, 0, 0,0.0,0.0,0.0,0.0,0.0,0.0,0.0,0.0,0.0,0.0,0.0,0.0,0.0,10,bval-jsr303\src\test\java\org\apache\bval\jsr303\example\BusinessAddress.java,0,0,0,0
org.apache.bval.jsr303.example.CompanyAddress, 0, 0, 0, 0, 0, 0, 0, 0, 0, 0, 0, 0, 0, 0,1.0,0.0,0.0,0.0,0.0,0.0,0.0,0.0,0.0,0.0,0.0,0.0,0.0,10,bval-jsr303\src\test\java\org\apache\bval\jsr303\example\CompanyAddress.java,0,0,0,0
org.apache.bval.jsr303.example.Continent, 0, 0, 1, 0, 0, 0, 0, 0, 0, 0, 0, 0, 0, 1,0.0,0.0,0.0,0.0,0.0,0.0,0.0,0.0,0.0,0.0,0.0,0.0,0.0,6,bval-jsr303\src\test\java\org\apache\bval\jsr303\example\Continent.java,0,0,0,0
org.apache.bval.jsr303.example.Country, 0, 0, 0, 0, 0, 0, 0, 0, 0, 0, 0, 0, 0, 0,0.5,0.0,0.0,0.0,0.0,0.0,0.0,0.0,0.0,0.0,0.0,0.0,0.0,25,bval-jsr303\src\test\java\org\apache\bval\jsr303\example\Country.java,0,0,0,0
org.apache.bval.jsr303.example.Customer, 0, 0, 0, 1, 0, 0, 0, 0, 0, 0, 0, 0, 0, 1,0.0,0.0,0.0,0.0,0.0,0.0,0.0,0.0,0.0,0.0,0.0,0.0,0.0,46,bval-jsr303\src\test\java\org\apache\bval\jsr303\example\Customer.java,0,0,0,0
org.apache.bval.jsr303.example.Employee, 0, 0, 0, 0, 0, 0, 0, 0, 0, 0, 0, 0, 0, 0,1.0,0.0,0.0,0.0,0.0,0.0,0.0,0.0,0.0,0.0,0.0,0.0,0.0,22,bval-jsr303\src\test\java\org\apache\bval\jsr303\example\Employee.java,0,0,0,0
org.apache.bval.jsr303.example.Engine, 0, 0, 1, 0, 0, 0, 0, 0, 0, 0, 0, 0, 0, 1,0.0,0.0,0.0,0.0,0.0,0.0,0.0,0.0,0.0,0.0,0.0,0.0,0.0,7,bval-jsr303\src\test\java\org\apache\bval\jsr303\example\Engine.java,0,0,0,0
org.apache.bval.jsr303.example.First, 0, 0, 0, 0, 0, 0, 0, 0, 0, 0, 0, 0, 0, 0,0.0,0.0,0.0,0.0,0.0,0.0,0.0,0.0,0.0,0.0,0.0,0.0,0.0,7,bval-jsr303\src\test\java\org\apache\bval\jsr303\example\First.java,0,0,0,0
org.apache.bval.jsr303.example.FrenchAddress, 0, 0, 0, 0, 0, 0, 0, 0, 0, 0, 0, 0, 0, 0,1.0,0.0,0.0,0.0,0.0,0.0,0.0,0.0,0.0,0.0,0.0,0.0,0.0,15,bval-jsr303\src\test\java\org\apache\bval\jsr303\example\FrenchAddress.java,0,0,0,0
org.apache.bval.jsr303.example.IllustratedBook, 0, 0, 0, 0, 0, 0, 0, 0, 0, 0, 0, 0, 0, 0,0.0,0.0,0.0,0.0,0.0,0.0,0.0,0.0,0.0,0.0,0.0,0.0,0.0,9,bval-jsr303\src\test\java\org\apache\bval\jsr303\example\IllustratedBook.java,0,0,0,0
org.apache.bval.jsr303.example.Last, 0, 0, 0, 0, 0, 0, 0, 0, 0, 0, 0, 0, 0, 0,0.0,0.0,0.0,0.0,0.0,0.0,0.0,0.0,0.0,0.0,0.0,0.0,0.0,9,bval-jsr303\src\test\java\org\apache\bval\jsr303\example\Last.java,0,0,0,0
org.apache.bval.jsr303.example.MaxTestEntity, 0, 0, 0, 0, 0, 0, 0, 0, 0, 0, 0, 0, 0, 0,0.0,0.0,0.0,0.0,0.0,0.0,0.0,0.0,0.0,0.0,0.0,0.0,0.0,34,bval-jsr303\src\test\java\org\apache\bval\jsr303\example\MaxTestEntity.java,0,0,0,0
org.apache.bval.jsr303.example.NoValidatorTestEntity, 0, 0, 0, 0, 0, 0, 0, 0, 0, 0, 0, 0, 0, 0,0.0,0.0,0.0,0.0,0.0,0.0,0.0,0.0,0.0,0.0,0.0,0.0,0.0,5,bval-jsr303\src\test\java\org\apache\bval\jsr303\example\NoValidatorTestEntity.java,0,0,0,0
org.apache.bval.jsr303.example.Person, 0, 0, 0, 0, 0, 0, 0, 0, 0, 0, 0, 0, 0, 0,0.0,0.0,0.0,0.0,0.0,0.0,0.0,0.0,0.0,0.0,0.0,0.0,0.0,5,bval-jsr303\src\test\java\org\apache\bval\jsr303\example\Person.java,0,0,0,0
org.apache.bval.jsr303.example.PreferredGuest, 0, 0, 0, 0, 0, 0, 0, 0, 0, 0, 0, 0, 0, 0,0.0,0.0,0.0,1.0,0.0,0.0,0.0,0.0,0.0,0.0,0.0,0.0,0.0,9,bval-jsr303\src\test\java\org\apache\bval\jsr303\example\PreferredGuest.java,0,0,0,0
org.apache.bval.jsr303.example.RecursiveFoo, 0, 0, 0, 0, 0, 0, 0, 0, 0, 0, 0, 0, 0, 0,0.0,0.0,0.0,0.0,0.0,0.0,0.0,0.0,0.0,0.0,0.0,0.0,0.0,11,bval-jsr303\src\test\java\org\apache\bval\jsr303\example\RecursiveFoo.java,0,0,0,0
org.apache.bval.jsr303.example.Second, 0, 0, 0, 0, 0, 0, 0, 0, 0, 0, 0, 0, 0, 0,0.0,0.0,0.0,0.0,0.0,0.0,0.0,0.0,0.0,0.0,0.0,0.0,0.0,11,bval-jsr303\src\test\java\org\apache\bval\jsr303\example\Second.java,0,0,0,0
org.apache.bval.jsr303.example.XmlEntitySampleBean, 0, 0, 0, 0, 0, 0, 0, 0, 0, 0, 0, 0, 0, 0,0.0,0.0,0.0,0.0,0.0,0.0,0.0,0.0,0.0,0.0,0.0,0.0,0.0,23,bval-jsr303\src\test\java\org\apache\bval\jsr303\example\XmlEntitySampleBean.java,0,0,0,0
org.apache.bval.jsr303.example.ZipCodeCityCarrier, 0, 0, 0, 0, 0, 0, 0, 0, 0, 0, 0, 0, 0, 0,0.0,0.0,0.0,0.0,0.0,0.0,0.0,0.0,0.0,0.0,0.0,0.0,0.0,23,bval-jsr303\src\test\java\org\apache\bval\jsr303\example\ZipCodeCityCarrier.java,0,0,0,0
org.apache.bval.jsr303.extensions.AppendValidationToList, 0, 0, 0, 0, 0, 0, 0, 0, 0, 0, 0, 0, 0, 0,0.0,0.0,0.0,0.0,0.0,0.0,0.0,0.0,0.0,0.0,0.0,0.0,0.0,11,bval-jsr303\src\main\java\org\apache\bval\jsr303\extensions\AppendValidationToList.java,0,0,0,0
org.apache.bval.jsr303.extensions.ConstructorDescriptor, 0, 0, 0, 0, 0, 0, 0, 0, 0, 0, 0, 0, 0, 0,0.0,0.0,0.0,0.0,0.0,0.0,0.0,0.0,0.0,0.0,0.0,0.0,0.0,11,bval-jsr303\src\main\java\org\apache\bval\jsr303\extensions\ConstructorDescriptor.java,0,0,0,0
org.apache.bval.jsr303.extensions.ConstructorDescriptorImpl, 0, 0, 0, 0, 0, 0, 0, 0, 0, 0, 0, 0, 0, 0,0.0,0.0,0.0,0.0,0.0,0.0,0.0,1.0,0.0,0.0,0.0,0.0,0.0,21,bval-jsr303\src\main\java\org\apache\bval\jsr303\extensions\ConstructorDescriptorImpl.java,0,0,0,0
org.apache.bval.jsr303.extensions.ExampleMethodService, 0, 0, 0, 0, 0, 0, 0, 0, 0, 0, 0, 0, 0, 0,0.0,0.0,0.0,0.0,0.0,0.0,0.0,0.0,0.0,0.0,0.0,0.0,0.0,29,bval-jsr303\src\test\java\org\apache\bval\jsr303\extensions\ExampleMethodService.java,0,0,0,0
org.apache.bval.jsr303.extensions.MethodBeanDescriptor, 0, 0, 0, 0, 0, 0, 0, 0, 0, 0, 0, 0, 0, 0,0.0,0.0,0.0,0.0,0.0,0.0,0.0,0.0,0.0,0.0,0.0,0.0,0.0,29,bval-jsr303\src\main\java\org\apache\bval\jsr303\extensions\MethodBeanDescriptor.java,0,0,0,0
org.apache.bval.jsr303.extensions.MethodDescriptor, 0, 0, 0, 0, 0, 0, 0, 0, 0, 0, 0, 0, 0, 0,0.0,0.0,0.0,0.0,0.0,0.0,0.0,0.0,0.0,0.0,0.0,0.0,0.0,29,bval-jsr303\src\main\java\org\apache\bval\jsr303\extensions\MethodDescriptor.java,0,0,0,0
org.apache.bval.jsr303.extensions.MethodDescriptorImpl, 0, 0, 0, 0, 0, 0, 0, 0, 0, 0, 0, 0, 0, 0,0.0,0.0,0.0,0.0,0.0,0.0,0.0,1.0,0.0,0.0,0.0,0.0,0.0,22,bval-jsr303\src\main\java\org\apache\bval\jsr303\extensions\MethodDescriptorImpl.java,0,0,0,0
org.apache.bval.jsr303.extensions.MethodValidator, 0, 0, 0, 0, 0, 0, 0, 0, 0, 0, 0, 0, 0, 0,0.0,0.0,0.0,0.0,0.0,0.0,0.0,0.0,0.0,0.0,0.0,0.0,0.0,22,bval-jsr303\src\main\java\org\apache\bval\jsr303\extensions\MethodValidator.java,0,0,0,0
org.apache.bval.jsr303.extensions.MethodValidatorImpl, 0, 0, 0, 0, 0, 0, 0, 1, 0, 0, 0, 0, 0, 1,0.0,0.0,0.0,0.25,0.0,0.0,0.0,0.5,0.0,0.0,0.0,0.0,0.0,179,bval-jsr303\src\main\java\org\apache\bval\jsr303\extensions\MethodValidatorImpl.java,0,0,0,0
org.apache.bval.jsr303.extensions.MethodValidatorImplTest, 0, 0, 0, 0, 0, 0, 0, 0, 0, 0, 0, 0, 0, 0,0.0,0.0,0.0,0.0,0.0,0.0,0.0,0.0,0.0,0.0,0.0,0.0,0.0,172,bval-jsr303\src\test\java\org\apache\bval\jsr303\extensions\MethodValidatorImplTest.java,0,0,0,0
org.apache.bval.jsr303.extensions.ParameterAccess, 0, 0, 0, 0, 0, 0, 0, 0, 0, 0, 0, 0, 0, 0,0.0,0.0,0.0,0.0,0.0,0.0,0.0,0.0,0.0,0.0,0.0,0.0,0.0,24,bval-jsr303\src\main\java\org\apache\bval\jsr303\extensions\ParameterAccess.java,0,0,0,0
org.apache.bval.jsr303.extensions.ParameterDescriptor, 0, 0, 0, 0, 0, 0, 0, 0, 0, 0, 0, 0, 0, 0,0.0,0.0,0.0,0.0,0.0,0.0,0.0,0.0,0.0,0.0,0.0,0.0,0.0,24,bval-jsr303\src\main\java\org\apache\bval\jsr303\extensions\ParameterDescriptor.java,0,0,0,0
org.apache.bval.jsr303.extensions.ParameterDescriptorImpl, 0, 0, 0, 0, 0, 0, 0, 0, 0, 0, 0, 0, 0, 0,0.0,0.0,0.0,0.0,0.0,0.0,0.0,1.0,0.0,0.0,0.0,0.0,0.0,23,bval-jsr303\src\main\java\org\apache\bval\jsr303\extensions\ParameterDescriptorImpl.java,0,0,0,0
org.apache.bval.jsr303.extensions.ProcedureDescriptor, 0, 0, 0, 0, 0, 0, 0, 0, 0, 0, 0, 0, 0, 0,0.0,0.0,0.0,0.0,0.0,0.0,0.0,0.0,0.0,0.0,0.0,0.0,0.0,23,bval-jsr303\src\main\java\org\apache\bval\jsr303\extensions\ProcedureDescriptor.java,0,0,0,0
org.apache.bval.jsr303.extensions.ReturnAccess, 0, 0, 0, 0, 0, 0, 0, 0, 0, 0, 0, 0, 0, 0,0.0,0.0,0.0,0.0,0.0,0.0,0.0,0.0,0.0,0.0,0.0,0.0,0.0,22,bval-jsr303\src\main\java\org\apache\bval\jsr303\extensions\ReturnAccess.java,0,0,0,0
org.apache.bval.jsr303.groups.Billable, 0, 0, 0, 0, 0, 0, 0, 0, 0, 0, 0, 0, 0, 0,0.0,0.0,0.0,0.0,0.0,0.0,0.0,0.0,0.0,0.0,0.0,0.0,0.0,22,bval-jsr303\src\test\java\org\apache\bval\jsr303\groups\Billable.java,0,0,0,0
org.apache.bval.jsr303.groups.BillableCreditCard, 0, 0, 0, 0, 0, 0, 0, 0, 0, 0, 0, 0, 0, 0,0.0,0.0,0.0,0.0,0.0,0.0,0.0,0.0,0.0,0.0,0.0,0.0,0.0,2,bval-jsr303\src\test\java\org\apache\bval\jsr303\groups\BillableCreditCard.java,0,0,0,0
org.apache.bval.jsr303.groups.BillableUser, 0, 0, 0, 0, 0, 0, 0, 0, 0, 0, 0, 0, 0, 0,0.0,0.0,0.0,0.0,0.0,0.0,0.0,0.0,0.0,0.0,0.0,0.0,0.0,25,bval-jsr303\src\test\java\org\apache\bval\jsr303\groups\BillableUser.java,0,0,0,0
org.apache.bval.jsr303.groups.BuyInOneClick, 0, 0, 0, 0, 0, 0, 0, 0, 0, 0, 0, 0, 0, 0,0.0,0.0,0.0,0.0,0.0,0.0,0.0,0.0,0.0,0.0,0.0,0.0,0.0,25,bval-jsr303\src\test\java\org\apache\bval\jsr303\groups\BuyInOneClick.java,0,0,0,0
org.apache.bval.jsr303.groups.CollectionValidationTest, 1, 0, 0, 0, 0, 0, 0, 0, 0, 0, 0, 0, 0, 1,0.0,0.0,0.0,0.0,0.0,0.0,0.0,0.0,0.0,0.0,0.0,0.0,0.0,111,bval-jsr303\src\test\java\org\apache\bval\jsr303\groups\CollectionValidationTest.java,0,0,0,0
org.apache.bval.jsr303.groups.CyclicGroupSequence, 0, 0, 0, 0, 0, 0, 0, 0, 0, 0, 0, 0, 0, 0,0.0,0.0,0.0,0.0,0.0,0.0,0.0,0.0,0.0,0.0,0.0,0.0,0.0,111,bval-jsr303\src\test\java\org\apache\bval\jsr303\groups\CyclicGroupSequence.java,0,0,0,0
org.apache.bval.jsr303.groups.CyclicGroupSequence1, 0, 0, 0, 0, 0, 0, 0, 0, 0, 0, 0, 0, 0, 0,0.0,0.0,0.0,0.0,0.0,0.0,0.0,0.0,0.0,0.0,0.0,0.0,0.0,111,bval-jsr303\src\test\java\org\apache\bval\jsr303\groups\CyclicGroupSequence1.java,0,0,0,0
org.apache.bval.jsr303.groups.CyclicGroupSequence2, 0, 0, 0, 0, 0, 0, 0, 0, 0, 0, 0, 0, 0, 0,0.0,0.0,0.0,0.0,0.0,0.0,0.0,0.0,0.0,0.0,0.0,0.0,0.0,111,bval-jsr303\src\test\java\org\apache\bval\jsr303\groups\CyclicGroupSequence2.java,0,0,0,0
org.apache.bval.jsr303.groups.DefaultGroupSequenceTest, 0, 0, 0, 0, 0, 0, 0, 0, 0, 0, 0, 0, 0, 0,0.0,0.0,0.0,0.0,0.0,0.0,0.0,0.5,0.0,0.0,0.0,0.0,0.0,84,bval-jsr303\src\test\java\org\apache\bval\jsr303\groups\DefaultGroupSequenceTest.java,0,0,0,0
org.apache.bval.jsr303.groups.GClass1, 0, 0, 0, 0, 0, 0, 0, 0, 0, 0, 0, 0, 0, 0,0.0,0.0,0.0,0.0,0.0,0.0,0.0,0.0,0.0,0.0,0.0,0.0,0.0,2,bval-jsr303\src\test\java\org\apache\bval\jsr303\groups\GClass1.java,0,0,0,0
org.apache.bval.jsr303.groups.GClass2, 0, 0, 0, 0, 0, 0, 0, 0, 0, 0, 0, 0, 0, 0,0.0,0.0,0.0,0.0,0.0,0.0,0.0,0.0,0.0,0.0,0.0,0.0,0.0,2,bval-jsr303\src\test\java\org\apache\bval\jsr303\groups\GClass2.java,0,0,0,0
org.apache.bval.jsr303.groups.GClass3, 0, 0, 0, 0, 0, 0, 0, 0, 0, 0, 0, 0, 0, 0,0.0,0.0,0.0,0.0,0.0,0.0,0.0,0.0,0.0,0.0,0.0,0.0,0.0,2,bval-jsr303\src\test\java\org\apache\bval\jsr303\groups\GClass3.java,0,0,0,0
org.apache.bval.jsr303.groups.GInterface1, 0, 0, 0, 0, 0, 0, 0, 0, 0, 0, 0, 0, 0, 0,0.0,0.0,0.0,0.0,0.0,0.0,0.0,0.0,0.0,0.0,0.0,0.0,0.0,2,bval-jsr303\src\test\java\org\apache\bval\jsr303\groups\GInterface1.java,0,0,0,0
org.apache.bval.jsr303.groups.Group, 0, 0, 0, 0, 0, 0, 0, 0, 0, 0, 0, 0, 0, 0,0.2,0.0,0.0,0.2,0.0,0.0,0.0,0.4,0.0,0.0,0.0,0.0,0.0,27,bval-jsr303\src\main\java\org\apache\bval\jsr303\groups\Group.java,0,0,0,0
org.apache.bval.jsr303.groups.GroupA, 0, 0, 0, 0, 0, 0, 0, 0, 0, 0, 0, 0, 0, 0,0.0,0.0,0.0,0.0,0.0,0.0,0.0,0.0,0.0,0.0,0.0,0.0,0.0,27,bval-jsr303\src\main\java\org\apache\bval\jsr303\groups\Group.java,0,0,0,0
org.apache.bval.jsr303.groups.GroupB, 0, 0, 0, 0, 0, 0, 0, 0, 0, 0, 0, 0, 0, 0,0.0,0.0,0.0,0.0,0.0,0.0,0.0,0.0,0.0,0.0,0.0,0.0,0.0,27,bval-jsr303\src\main\java\org\apache\bval\jsr303\groups\Group.java,0,0,0,0
org.apache.bval.jsr303.groups.GroupC, 0, 0, 0, 0, 0, 0, 0, 0, 0, 0, 0, 0, 0, 0,0.0,0.0,0.0,0.0,0.0,0.0,0.0,0.0,0.0,0.0,0.0,0.0,0.0,27,bval-jsr303\src\main\java\org\apache\bval\jsr303\groups\Group.java,0,0,0,0
org.apache.bval.jsr303.groups.GroupSequenceIsolationTest, 1, 0, 0, 0, 0, 0, 0, 0, 0, 0, 0, 0, 0, 1,0.0,0.0,0.0,0.0,0.0,0.0,0.0,0.0,0.0,0.0,0.0,0.0,0.0,95,bval-jsr303\src\test\java\org\apache\bval\jsr303\groups\GroupSequenceIsolationTest.java,0,0,0,0
org.apache.bval.jsr303.groups.GroupSequenceTest, 1, 0, 0, 0, 0, 0, 0, 0, 0, 0, 0, 0, 0, 1,0.0,0.0,0.0,0.2,0.0,0.0,0.0,0.0,0.0,0.0,0.0,0.0,0.0,133,bval-jsr303\src\test\java\org\apache\bval\jsr303\groups\GroupSequenceTest.java,0,0,0,0
org.apache.bval.jsr303.groups.GroupValidationTest, 0, 0, 0, 0, 0, 0, 0, 0, 0, 0, 0, 0, 0, 0,0.0,0.0,0.0,0.0,0.0,0.0,0.0,0.0,0.0,0.0,0.0,0.0,0.0,35,bval-jsr303\src\test\java\org\apache\bval\jsr303\groups\GroupValidationTest.java,0,0,0,0
org.apache.bval.jsr303.groups.Groups, 0, 0, 0, 0, 0, 0, 0, 1, 0, 0, 0, 0, 0, 1,0.0,0.0,0.0,0.16666666666666666,0.0,0.0,0.0,0.3333333333333333,0.0,0.0,0.0,0.0,0.0,50,bval-jsr303\src\main\java\org\apache\bval\jsr303\groups\Groups.java,0,0,0,0
org.apache.bval.jsr303.groups.GroupsComputerTest, 0, 0, 0, 0, 0, 0, 0, 0, 0, 0, 0, 0, 0, 0,0.0,0.0,0.0,0.0,0.0,0.0,0.0,1.0,0.0,0.0,0.0,0.0,0.0,85,bval-jsr303\src\test\java\org\apache\bval\jsr303\groups\GroupsComputerTest.java,0,0,0,0
org.apache.bval.jsr303.groups.TestSequence, 0, 0, 0, 0, 0, 0, 0, 0, 0, 0, 0, 0, 0, 0,0.0,0.0,0.0,0.0,0.0,0.0,0.0,0.0,0.0,0.0,0.0,0.0,0.0,85,bval-jsr303\src\test\java\org\apache\bval\jsr303\groups\GroupsComputerTest.java,0,0,0,0
org.apache.bval.jsr303.groups.implicit.Auditable, 0, 0, 0, 0, 0, 0, 0, 0, 0, 0, 0, 0, 0, 0,0.0,0.0,0.0,0.0,0.0,0.0,0.0,0.0,0.0,0.0,0.0,0.0,0.0,85,bval-jsr303\src\test\java\org\apache\bval\jsr303\groups\implicit\Auditable.java,0,0,0,0
org.apache.bval.jsr303.groups.implicit.ImplicitGroupingTest, 0, 0, 0, 0, 0, 0, 0, 0, 0, 0, 0, 0, 0, 0,0.0,0.0,0.0,0.0,0.0,0.0,0.0,0.0,0.0,0.0,0.0,0.0,0.0,22,bval-jsr303\src\test\java\org\apache\bval\jsr303\groups\implicit\ImplicitGroupingTest.java,0,0,0,0
org.apache.bval.jsr303.groups.implicit.Order, 0, 0, 0, 0, 0, 0, 0, 0, 0, 0, 0, 0, 0, 0,0.0,0.0,0.0,0.0,0.0,0.0,0.0,0.0,0.0,0.0,0.0,0.0,0.0,38,bval-jsr303\src\test\java\org\apache\bval\jsr303\groups\implicit\Order.java,0,0,0,0
org.apache.bval.jsr303.groups.inheritance.BillableUser, 0, 0, 0, 0, 0, 0, 0, 0, 0, 0, 0, 0, 0, 0,0.0,0.0,0.0,0.0,0.0,0.0,0.0,0.0,0.0,0.0,0.0,0.0,0.0,25,bval-jsr303\src\test\java\org\apache\bval\jsr303\groups\inheritance\BillableUser.java,0,0,0,0
org.apache.bval.jsr303.groups.inheritance.BuyInOneClick, 0, 0, 0, 0, 0, 0, 0, 0, 0, 0, 0, 0, 0, 0,0.0,0.0,0.0,0.0,0.0,0.0,0.0,0.0,0.0,0.0,0.0,0.0,0.0,25,bval-jsr303\src\test\java\org\apache\bval\jsr303\groups\inheritance\BuyInOneClick.java,0,0,0,0
org.apache.bval.jsr303.groups.inheritance.GroupInheritanceTest, 0, 0, 0, 0, 0, 0, 0, 0, 0, 0, 0, 0, 0, 0,0.0,0.0,0.0,0.0,0.0,0.0,0.0,0.0,0.0,0.0,0.0,0.0,0.0,15,bval-jsr303\src\test\java\org\apache\bval\jsr303\groups\inheritance\GroupInheritanceTest.java,0,0,0,0
org.apache.bval.jsr303.groups.redefining.Address, 0, 0, 0, 0, 0, 0, 0, 0, 0, 0, 0, 0, 0, 0,0.0,0.0,0.0,0.0,0.0,0.0,0.0,0.0,0.0,0.0,0.0,0.0,0.0,29,bval-jsr303\src\test\java\org\apache\bval\jsr303\groups\redefining\Address.java,0,0,0,0
org.apache.bval.jsr303.groups.redefining.InvalidRedefinedDefaultGroupAddress, 0, 0, 0, 0, 0, 0, 0, 0, 0, 0, 0, 0, 0, 0,0.0,0.0,0.0,0.0,0.0,0.0,0.0,0.0,0.0,0.0,0.0,0.0,0.0,9,bval-jsr303\src\test\java\org\apache\bval\jsr303\groups\redefining\InvalidRedefinedDefaultGroupAddress.java,0,0,0,0
org.apache.bval.jsr303.groups.redefining.RedefiningDefaultGroupTest, 0, 0, 0, 0, 0, 0, 0, 0, 0, 0, 0, 0, 0, 0,0.0,0.0,0.0,0.0,0.0,0.0,0.0,0.0,0.0,0.0,0.0,0.0,0.0,49,bval-jsr303\src\test\java\org\apache\bval\jsr303\groups\redefining\RedefiningDefaultGroupTest.java,0,0,0,0
org.apache.bval.jsr303.resolver.CachingRelevant, 0, 0, 0, 0, 0, 0, 0, 0, 0, 0, 0, 0, 0, 0,0.0,0.0,0.0,0.0,0.0,0.0,0.0,0.0,0.0,0.0,0.0,0.0,0.0,49,bval-jsr303\src\main\java\org\apache\bval\jsr303\resolver\CachingRelevant.java,0,0,0,0
org.apache.bval.jsr303.resolver.JPATraversableResolver, 0, 0, 0, 0, 0, 0, 0, 1, 0, 0, 0, 0, 0, 1,0.0,0.0,0.0,0.0,0.0,0.0,0.0,0.0,0.0,0.0,0.0,0.0,0.0,16,bval-jsr303\src\main\java\org\apache\bval\jsr303\resolver\JPATraversableResolver.java,0,0,0,0
org.apache.bval.jsr303.resolver.SimpleTraversableResolver, 0, 0, 0, 0, 0, 0, 0, 1, 0, 0, 0, 0, 0, 1,0.0,0.0,0.0,0.0,0.0,0.0,0.0,0.0,0.0,0.0,0.0,0.0,0.0,15,bval-jsr303\src\main\java\org\apache\bval\jsr303\resolver\SimpleTraversableResolver.java,0,0,0,0
org.apache.bval.jsr303.util.ClassHelper, 0, 0, 0, 0, 0, 0, 0, 0, 0, 0, 0, 0, 0, 0,0.0,0.0,0.0,1.0,0.0,0.0,0.0,1.0,0.0,0.0,0.0,0.0,0.0,28,bval-jsr303\src\main\java\org\apache\bval\jsr303\util\ClassHelper.java,0,0,0,0
org.apache.bval.jsr303.util.ConstraintDefinitionValidator, 0, 0, 0, 0, 0, 0, 0, 0, 0, 0, 0, 0, 0, 0,0.0,0.0,0.0,0.0,0.0,0.0,0.0,0.0,0.0,0.0,0.0,0.0,0.0,24,bval-jsr303\src\main\java\org\apache\bval\jsr303\util\ConstraintDefinitionValidator.java,0,0,0,0
org.apache.bval.jsr303.util.EnumerationConverter, 0, 0, 0, 0, 0, 0, 0, 0, 0, 0, 0, 0, 0, 0,0.0,0.0,0.0,0.0,0.0,0.0,0.0,0.0,0.0,0.0,0.0,0.0,0.0,23,bval-jsr303\src\main\java\org\apache\bval\jsr303\util\EnumerationConverter.java,0,0,0,0
org.apache.bval.jsr303.util.EnumerationConverterTestCase, 0, 0, 0, 0, 0, 0, 0, 0, 0, 0, 0, 0, 0, 0,0.0,0.0,0.0,0.0,0.0,0.0,0.0,0.0,0.0,0.0,0.0,0.0,0.0,15,bval-jsr303\src\test\java\org\apache\bval\jsr303\util\EnumerationConverterTestCase.java,0,0,0,0
org.apache.bval.jsr303.util.IOUtils, 0, 0, 0, 0, 0, 0, 0, 0, 0, 0, 0, 0, 0, 0,0.0,0.0,0.0,0.0,0.0,0.0,0.0,0.0,0.0,0.0,0.0,0.0,0.0,12,bval-jsr303\src\main\java\org\apache\bval\jsr303\util\IOUtils.java,0,0,0,0
org.apache.bval.jsr303.util.NodeBuilderCustomizableContextImpl, 0, 0, 0, 0, 0, 0, 0, 1, 0, 0, 0, 0, 0, 1,0.0,0.0,0.0,0.25,0.0,0.0,0.0,0.5,0.0,0.0,0.0,0.0,0.0,30,bval-jsr303\src\main\java\org\apache\bval\jsr303\util\NodeBuilderCustomizableContextImpl.java,0,0,0,0
org.apache.bval.jsr303.util.NodeBuilderDefinedContextImpl, 0, 0, 0, 0, 0, 0, 0, 1, 0, 0, 0, 0, 0, 1,0.0,0.0,0.0,0.25,0.0,0.0,0.0,0.5,0.0,0.0,0.0,0.0,0.0,20,bval-jsr303\src\main\java\org\apache\bval\jsr303\util\NodeBuilderDefinedContextImpl.java,0,0,0,0
org.apache.bval.jsr303.util.NodeContextBuilderImpl, 0, 0, 0, 0, 0, 0, 0, 1, 0, 0, 0, 0, 0, 1,0.0,0.0,0.0,0.25,0.0,0.0,0.0,0.5,0.0,0.0,0.0,0.0,0.0,35,bval-jsr303\src\main\java\org\apache\bval\jsr303\util\NodeContextBuilderImpl.java,0,0,0,0
org.apache.bval.jsr303.util.PathImpl, 0, 0, 0, 1, 0, 0, 0, 0, 0, 0, 0, 0, 0, 1,0.0,0.0,0.0,0.14285714285714285,0.0,0.0,0.0,0.7142857142857143,0.0,0.0,0.0,0.0,0.0,168,bval-jsr303\src\main\java\org\apache\bval\jsr303\util\PathImpl.java,0,0,0,0
org.apache.bval.jsr303.util.PathImplTest, 0, 0, 0, 0, 0, 0, 0, 0, 0, 0, 0, 0, 0, 0,0.0,0.0,0.0,1.0,0.0,0.0,0.0,0.0,0.0,0.0,0.0,0.0,0.0,145,bval-jsr303\src\test\java\org\apache\bval\jsr303\util\PathImplTest.java,0,0,0,0
org.apache.bval.jsr303.util.SecureActions, 0, 0, 0, 0, 0, 0, 0, 0, 0, 0, 0, 0, 0, 0,0.0,0.0,0.0,0.3333333333333333,0.0,0.0,0.0,0.0,0.0,0.0,0.0,0.0,0.0,71,bval-jsr303\src\main\java\org\apache\bval\jsr303\util\SecureActions.java,0,0,0,0
org.apache.bval.jsr303.util.TestUtils, 0, 0, 0, 0, 0, 0, 0, 0, 0, 0, 0, 0, 0, 0,0.5555555555555556,0.0,0.0,0.0,0.0,0.0,0.0,0.0,0.0,0.0,0.0,0.0,0.0,45,bval-jsr303\src\test\java\org\apache\bval\jsr303\util\TestUtils.java,0,0,0,0
org.apache.bval.jsr303.xml.TestConstraintValidatorFactory, 0, 0, 0, 0, 0, 0, 0, 0, 0, 0, 0, 0, 0, 0,0.0,0.0,0.0,0.0,0.0,0.0,0.0,0.0,0.0,0.0,0.0,0.0,0.0,2,bval-jsr303\src\test\java\org\apache\bval\jsr303\xml\TestConstraintValidatorFactory.java,0,0,0,0
org.apache.bval.jsr303.xml.TestMessageInterpolator, 0, 0, 0, 0, 0, 0, 0, 0, 0, 0, 0, 0, 0, 0,0.0,0.0,0.0,0.0,0.0,0.0,0.0,0.0,0.0,0.0,0.0,0.0,0.0,2,bval-jsr303\src\test\java\org\apache\bval\jsr303\xml\TestMessageInterpolator.java,0,0,0,0
org.apache.bval.jsr303.xml.ValidationParserTest, 0, 0, 0, 0, 0, 0, 0, 0, 0, 0, 0, 0, 0, 0,0.0,0.0,0.0,0.0,0.0,0.0,0.0,0.0,0.0,0.0,0.0,0.0,0.0,54,bval-jsr303\src\test\java\org\apache\bval\jsr303\xml\ValidationParserTest.java,0,0,0,0
org.apache.bval.model.DynaType, 0, 0, 0, 0, 0, 0, 0, 0, 0, 0, 0, 0, 0, 0,0.0,0.0,0.0,0.0,0.0,0.0,0.0,0.0,0.0,0.0,0.0,0.0,0.0,54,bval-core\src\main\java\org\apache\bval\model\DynaType.java,0,0,0,0
org.apache.bval.model.DynaTypeEnum, 0, 0, 0, 0, 0, 0, 0, 0, 0, 0, 0, 0, 0, 0,0.0,0.0,0.0,0.0,0.0,0.0,0.0,0.0,0.0,0.0,0.0,0.0,0.0,42,bval-core\src\main\java\org\apache\bval\model\DynaTypeEnum.java,0,0,0,0
org.apache.bval.model.Features, 0, 0, 0, 0, 0, 0, 0, 0, 0, 0, 0, 0, 0, 0,0.0,0.0,0.0,0.0,0.0,0.0,0.0,0.0,0.0,0.0,0.0,0.0,0.0,42,bval-core\src\main\java\org\apache\bval\model\Features.java,0,0,0,0
org.apache.bval.model.MetaProperty, 0, 0, 0, 1, 0, 0, 0, 0, 0, 0, 0, 0, 0, 1,0.0,0.0,0.0,0.2727272727272727,0.0,0.0,0.0,0.2727272727272727,0.0,0.0,0.0,0.0,0.0,63,bval-core\src\main\java\org\apache\bval\model\MetaProperty.java,0,0,0,0
org.apache.bval.model.MetaPropertyTest, 0, 0, 0, 0, 0, 0, 0, 0, 0, 0, 0, 0, 0, 0,0.0,0.0,0.0,0.5,0.0,0.0,0.0,0.0,0.0,0.0,0.0,0.0,0.0,18,bval-core\src\test\java\org\apache\bval\model\MetaPropertyTest.java,0,0,0,0
org.apache.bval.model.Validation, 0, 0, 0, 0, 0, 0, 0, 0, 0, 0, 0, 0, 0, 0,0.0,0.0,0.0,0.0,0.0,0.0,0.0,0.0,0.0,0.0,0.0,0.0,0.0,18,bval-core\src\main\java\org\apache\bval\model\Validation.java,0,0,0,0
org.apache.bval.model.ValidationContext, 0, 0, 0, 0, 0, 0, 0, 0, 0, 0, 0, 0, 0, 0,0.0,0.0,0.0,0.0,0.0,0.0,0.0,0.0,0.0,0.0,0.0,0.0,0.0,18,bval-core\src\main\java\org\apache\bval\model\ValidationContext.java,0,0,0,0
org.apache.bval.model.ValidationListener, 0, 0, 0, 0, 0, 0, 0, 0, 0, 0, 0, 0, 0, 0,0.0,0.0,0.0,0.0,0.0,0.0,0.0,0.0,0.0,0.0,0.0,0.0,0.0,18,bval-core\src\main\java\org\apache\bval\model\ValidationListener.java,0,0,0,0
org.apache.bval.routines.EMailValidation, 0, 0, 0, 0, 0, 0, 0, 0, 0, 0, 0, 0, 0, 0,0.0,0.0,0.0,0.0,0.0,0.0,0.0,0.0,0.0,0.0,0.0,0.0,0.0,15,bval-core\src\main\java\org\apache\bval\routines\EMailValidationUtils.java,0,0,0,0
org.apache.bval.routines.NOPValidation, 0, 0, 0, 0, 0, 0, 0, 0, 0, 0, 0, 0, 0, 0,0.0,0.0,0.0,0.0,0.0,0.0,0.0,0.0,0.0,0.0,0.0,0.0,0.0,4,bval-xstream\src\main\java\org\apache\bval\routines\NOPValidation.java,0,0,0,0
org.apache.bval.routines.Reasons, 0, 0, 0, 0, 0, 0, 0, 0, 0, 0, 0, 0, 0, 0,0.0,0.0,0.0,0.0,0.0,0.0,0.0,0.0,0.0,0.0,0.0,0.0,0.0,4,bval-xstream\src\main\java\org\apache\bval\routines\Reasons.java,0,0,0,0
org.apache.bval.routines.StandardValidation, 0, 0, 0, 0, 0, 0, 0, 1, 0, 0, 0, 0, 0, 1,0.0,0.0,0.0,1.0,0.0,0.0,0.0,0.0,0.0,0.0,0.0,0.0,0.0,125,bval-xstream\src\main\java\org\apache\bval\routines\StandardValidation.java,0,0,0,0
org.apache.bval.routines.StandardValidationTest, 0, 0, 0, 1, 0, 0, 0, 0, 0, 0, 0, 0, 0, 1,0.0,0.0,0.0,0.5,0.0,0.0,0.0,0.5,0.0,0.0,0.0,0.0,0.0,157,bval-xstream\src\test\java\org\apache\bval\routines\StandardValidationTest.java,0,0,0,0
org.apache.bval.util.AccessStrategy, 0, 0, 0, 0, 0, 0, 0, 0, 0, 0, 0, 0, 0, 0,0.0,0.0,0.0,0.14285714285714285,0.0,0.0,0.0,0.2857142857142857,0.0,0.0,0.0,0.0,0.0,6,bval-core\src\main\java\org\apache\bval\util\AccessStrategy.java,0,0,0,0
org.apache.bval.util.FieldAccess, 0, 0, 0, 0, 0, 0, 0, 0, 0, 0, 0, 0, 0, 0,0.0,0.0,0.0,0.0,0.0,0.0,0.0,0.0,0.0,0.0,0.0,0.0,0.0,49,bval-core\src\main\java\org\apache\bval\util\FieldAccess.java,0,0,0,0
org.apache.bval.util.MethodAccess, 0, 0, 0, 0, 0, 0, 0, 0, 0, 0, 0, 0, 0, 0,0.0,0.0,0.0,0.0,0.0,0.0,0.0,0.0,0.0,0.0,0.0,0.0,0.0,67,bval-core\src\main\java\org\apache\bval\util\MethodAccess.java,0,0,0,0
org.apache.bval.util.PrivilegedActions, 0, 0, 0, 0, 0, 0, 0, 0, 0, 0, 0, 0, 0, 0,0.0,0.0,0.0,0.0,0.0,0.0,0.0,0.0,0.0,0.0,0.0,0.0,0.0,89,bval-core\src\main\java\org\apache\bval\util\PrivilegedActions.java,0,0,0,0
org.apache.bval.xml.XMLFeaturesCapable, 0, 0, 0, 0, 0, 0, 0, 0, 0, 0, 0, 0, 0, 0,0.0,0.0,0.0,0.5,0.0,0.0,0.0,0.0,0.0,0.0,0.0,0.0,0.0,58,bval-xstream\src\main\java\org\apache\bval\xml\XMLFeaturesCapable.java,0,0,0,0
org.apache.bval.xml.XMLMapper, 0, 0, 0, 0, 0, 0, 0, 0, 0, 0, 0, 0, 0, 0,0.0,0.0,0.0,0.0,0.0,0.0,0.0,0.0,0.0,0.0,0.0,0.0,0.0,18,bval-xstream\src\main\java\org\apache\bval\xml\XMLMapper.java,0,0,0,0
org.apache.bval.xml.XMLMetaBean, 0, 0, 0, 1, 0, 0, 0, 0, 0, 0, 0, 0, 0, 1,0.0,0.0,0.0,0.25,0.0,0.0,0.0,0.0,0.0,0.0,0.0,0.0,0.0,103,bval-xstream\src\main\java\org\apache\bval\xml\XMLMetaBean.java,0,0,0,0
org.apache.bval.xml.XMLMetaBeanLoader, 0, 0, 0, 0, 0, 0, 0, 0, 0, 0, 0, 0, 0, 0,0.0,0.0,0.0,0.0,0.0,0.0,0.0,0.0,0.0,0.0,0.0,0.0,0.0,103,bval-xstream\src\main\java\org\apache\bval\xml\XMLMetaBeanLoader.java,0,0,0,0
org.apache.bval.xml.XMLMetaBeanManagerFactory, 0, 0, 0, 0, 0, 0, 0, 0, 0, 0, 0, 0, 0, 0,0.0,0.0,0.0,0.0,0.0,0.0,0.0,0.0,0.0,0.0,0.0,0.0,0.0,15,bval-xstream\src\main\java\org\apache\bval\xml\XMLMetaBeanManagerFactory.java,0,0,0,0
org.apache.bval.xml.XMLMetaBeanReference, 0, 0, 0, 0, 0, 0, 0, 0, 0, 0, 0, 0, 0, 0,0.0,0.0,0.0,1.0,0.0,0.0,0.0,0.0,0.0,0.0,0.0,0.0,0.0,23,bval-xstream\src\main\java\org\apache\bval\xml\XMLMetaBeanReference.java,0,0,0,0
org.apache.bval.xml.XMLMetaBeanRegistry, 0, 0, 0, 0, 0, 0, 0, 0, 0, 0, 0, 0, 0, 0,0.0,0.0,0.0,0.0,0.0,0.0,0.0,0.0,0.0,0.0,0.0,0.0,0.0,23,bval-xstream\src\main\java\org\apache\bval\xml\XMLMetaBeanRegistry.java,0,0,0,0
org.apache.bval.xml.XMLMetaBeanURLLoader, 0, 0, 0, 0, 0, 0, 0, 0, 0, 0, 0, 0, 0, 0,0.0,0.0,0.0,0.0,0.0,0.0,0.0,0.0,0.0,0.0,0.0,0.0,0.0,18,bval-xstream\src\main\java\org\apache\bval\xml\XMLMetaBeanURLLoader.java,0,0,0,0
org.apache.bval.xml.XMLMetaElement, 0, 0, 0, 1, 0, 0, 0, 0, 0, 0, 0, 0, 0, 1,0.0,0.0,0.0,0.4,0.0,0.0,0.0,0.0,0.0,0.0,0.0,0.0,0.0,91,bval-xstream\src\main\java\org\apache\bval\xml\XMLMetaElement.java,0,0,0,0
org.apache.bval.xml.XMLMetaFeature, 0, 0, 0, 0, 0, 0, 0, 0, 0, 0, 0, 0, 0, 0,0.0,0.0,0.0,0.0,0.0,0.0,0.0,0.0,0.0,0.0,0.0,0.0,0.0,25,bval-xstream\src\main\java\org\apache\bval\xml\XMLMetaFeature.java,0,0,0,0
org.apache.bval.xml.XMLMetaProperty, 0, 0, 0, 0, 0, 0, 0, 0, 0, 0, 0, 0, 0, 0,0.0,0.0,0.0,1.0,0.0,0.0,0.0,0.0,0.0,0.0,0.0,0.0,0.0,50,bval-xstream\src\main\java\org\apache\bval\xml\XMLMetaProperty.java,0,0,0,0
org.apache.bval.xml.XMLMetaValidator, 0, 0, 0, 0, 0, 0, 0, 0, 0, 0, 0, 0, 0, 0,0.0,0.0,0.0,0.0,0.0,0.0,0.0,0.0,0.0,0.0,0.0,0.0,0.0,36,bval-xstream\src\main\java\org\apache\bval\xml\XMLMetaValidator.java,0,0,0,0
org.apache.bval.xml.XMLMetaValidatorReference, 0, 0, 0, 0, 0, 0, 0, 0, 0, 0, 0, 0, 0, 0,0.0,0.0,0.0,0.0,0.0,0.0,0.0,0.0,0.0,0.0,0.0,0.0,0.0,16,bval-xstream\src\main\java\org\apache\bval\xml\XMLMetaValidatorReference.java,0,0,0,0
org.apache.bval.xml.XMLMetaValue, 0, 0, 0, 0, 0, 0, 0, 0, 0, 0, 0, 0, 0, 0,0.0,0.0,0.0,0.0,0.0,0.0,0.0,0.0,0.0,0.0,0.0,0.0,0.0,16,bval-xstream\src\main\java\org\apache\bval\xml\XMLMetaValue.java,0,0,0,0
,0.0,0.0,0.0,0.0,0.0,0.0,0.0,0.0,0.0,0.0,0.0,0.0,0.0,16,bval-core\src\main\java\org\apache\bval\model\DynaType.java,0,0,0,0
