ClassName,AntiSingleton,Blob,ClassDataShouldBePrivate,ComplexClass,LargeClass,LazyClass,LongMethod,LongParameterList,MessageChains,RefusedParentBequest,SpaghettiCode,SpeculativeGenerality,SwissArmyKnife,NumOfAPs,AntiSingleton,Blob,ClassDataShouldBePrivate,ComplexClass,LargeClass,LazyClass,LongMethod,LongParameterList,MessageChains,RefusedParentBequest,SpaghettiCode,SpeculativeGenerality,SwissArmyKnife,LOC,name,deleted,added,changed,all
org.apache.maven.AbstractCoreMavenComponentTestCase, 0, 0, 0, 1, 0, 0, 0, 0, 0, 0, 0, 0, 0, 1,0.0,0.0,0.0,0.2857142857142857,0.0,0.0,0.0,0.0,0.0,0.0,0.0,0.0,0.0,234,maven-core\src\test\java\org\apache\maven\AbstractCoreMavenComponentTestCase.java,0,0,0,0
org.apache.maven.AbstractMavenLifecycleParticipant, 0, 0, 0, 0, 0, 0, 0, 0, 0, 0, 0, 0, 0, 0,0.0,0.0,0.0,0.0,0.0,0.0,0.0,0.0,0.0,0.0,0.0,0.0,0.0,11,maven-core\src\main\java\org\apache\maven\AbstractMavenLifecycleParticipant.java,0,0,0,0
org.apache.maven.App, 0, 0, 0, 0, 0, 0, 0, 0, 0, 0, 0, 0, 0, 0,0.0,0.0,0.0,0.0,0.0,0.0,0.0,0.0,0.0,0.0,0.0,0.0,0.0,7,maven-embedder\src\test\embedder-test-project\src\main\java\org\apache\maven\App.java,0,0,0,0
org.apache.maven.AppTest, 0, 0, 0, 0, 0, 0, 0, 0, 0, 0, 0, 0, 0, 0,0.0,0.0,0.0,0.0,0.0,0.0,0.0,0.0,0.0,0.0,0.0,0.0,0.0,16,maven-embedder\src\test\embedder-test-project\src\test\java\org\apache\maven\AppTest.java,0,0,0,0
org.apache.maven.ArtifactFilterManager, 0, 0, 0, 0, 0, 0, 0, 0, 0, 0, 0, 0, 0, 0,0.0,0.0,0.0,0.0,0.0,0.0,0.0,0.0,0.0,0.0,0.0,0.0,0.0,16,maven-core\src\main\java\org\apache\maven\ArtifactFilterManager.java,0,0,0,0
org.apache.maven.ArtifactFilterManagerDelegate, 0, 0, 0, 0, 0, 0, 0, 0, 0, 0, 0, 0, 0, 0,0.0,0.0,0.0,0.0,0.0,0.0,0.0,0.0,0.0,0.0,0.0,0.0,0.0,16,maven-core\src\main\java\org\apache\maven\ArtifactFilterManagerDelegate.java,0,0,0,0
org.apache.maven.BuildAbort, 0, 0, 0, 0, 0, 0, 0, 0, 0, 0, 0, 0, 0, 0,0.0,0.0,0.0,0.0,0.0,0.0,0.0,0.0,0.0,0.0,0.0,0.0,0.0,12,maven-core\src\main\java\org\apache\maven\BuildAbort.java,0,0,0,0
org.apache.maven.BuildFailureException, 0, 0, 0, 0, 0, 0, 0, 0, 0, 0, 0, 0, 0, 0,0.0,0.0,0.0,0.0,0.0,0.0,0.0,0.0,0.0,0.0,0.0,0.0,0.0,12,maven-core\src\main\java\org\apache\maven\BuildFailureException.java,0,0,0,0
org.apache.maven.DefaultArtifactFilterManager, 0, 0, 0, 0, 0, 0, 0, 0, 0, 0, 0, 0, 0, 0,0.0,0.0,0.0,0.0,0.0,0.0,0.0,0.0,0.0,0.0,0.0,0.0,0.0,85,maven-core\src\main\java\org\apache\maven\DefaultArtifactFilterManager.java,0,0,0,0
org.apache.maven.DefaultProjectDependenciesResolver, 0, 0, 0, 0, 0, 0, 0, 1, 0, 0, 0, 0, 0, 1,0.0,0.0,0.0,0.0,0.0,0.0,0.0,0.0,0.0,0.0,0.0,0.0,0.0,112,maven-core\src\main\java\org\apache\maven\DefaultProjectDependenciesResolver.java,0,0,0,0
org.apache.maven.DefaultProjectDependencyGraph, 0, 0, 0, 0, 0, 0, 0, 0, 0, 0, 0, 0, 0, 0,0.0,0.0,0.0,0.0,0.0,0.0,0.0,0.0,0.0,0.0,0.0,0.0,0.0,80,maven-core\src\main\java\org\apache\maven\DefaultProjectDependencyGraph.java,3,0,1,5
org.apache.maven.InternalErrorException, 0, 0, 0, 0, 0, 0, 0, 0, 0, 0, 0, 0, 0, 0,0.0,0.0,0.0,0.0,0.0,0.0,0.0,0.5,0.0,0.0,0.0,0.0,0.0,8,maven-core\src\main\java\org\apache\maven\InternalErrorException.java,0,0,0,0
org.apache.maven.Maven, 0, 0, 0, 0, 0, 0, 0, 0, 0, 0, 0, 0, 0, 0,0.0,0.0,0.0,0.0,0.0,0.0,0.0,0.0,0.0,0.0,0.0,0.0,0.0,8,maven-core\src\main\java\org\apache\maven\Maven.java,0,0,0,0
org.apache.maven.MavenExecutionException, 0, 0, 0, 0, 0, 0, 0, 0, 0, 0, 0, 0, 0, 0,0.0,0.0,0.0,0.0,0.0,0.0,0.0,0.0,0.0,0.0,0.0,0.0,0.0,23,maven-core\src\main\java\org\apache\maven\MavenExecutionException.java,0,0,0,0
org.apache.maven.MavenLifecycleParticipantTest, 0, 0, 0, 0, 0, 0, 0, 0, 0, 0, 0, 0, 0, 0,0.0,0.0,0.0,1.0,0.0,0.0,0.0,0.0,0.0,0.0,0.0,0.0,0.0,64,maven-core\src\test\java\org\apache\maven\MavenLifecycleParticipantTest.java,0,0,0,0
org.apache.maven.MavenTest, 0, 0, 0, 0, 0, 0, 0, 0, 0, 0, 0, 0, 0, 0,0.0,0.0,0.0,1.0,0.0,0.0,0.0,0.0,0.0,0.0,0.0,0.0,0.0,31,maven-core\src\test\java\org\apache\maven\MavenTest.java,0,0,0,0
org.apache.maven.MissingModuleException, 0, 0, 0, 0, 0, 0, 0, 0, 0, 0, 0, 0, 0, 0,0.0,0.0,0.0,0.0,0.0,0.0,0.0,0.0,0.0,0.0,0.0,0.0,0.0,20,maven-core\src\main\java\org\apache\maven\MissingModuleException.java,0,0,0,0
org.apache.maven.ProjectBuildFailureException, 0, 0, 0, 0, 0, 0, 0, 0, 0, 0, 0, 0, 0, 0,0.0,0.0,0.0,0.0,0.0,0.0,0.0,0.0,0.0,0.0,0.0,0.0,0.0,18,maven-core\src\main\java\org\apache\maven\ProjectBuildFailureException.java,0,0,0,0
org.apache.maven.ProjectCycleException, 0, 0, 0, 0, 0, 0, 0, 0, 0, 0, 0, 0, 0, 0,0.0,0.0,0.0,0.0,0.0,0.0,0.0,0.0,0.0,0.0,0.0,0.0,0.0,8,maven-core\src\main\java\org\apache\maven\ProjectCycleException.java,0,0,0,0
org.apache.maven.ProjectDependenciesResolver, 0, 0, 0, 0, 0, 0, 0, 0, 0, 0, 0, 0, 0, 0,0.0,0.0,0.0,0.0,0.0,0.0,0.0,0.0,0.0,0.0,0.0,0.0,0.0,8,maven-core\src\main\java\org\apache\maven\ProjectDependenciesResolver.java,0,0,0,0
org.apache.maven.artifact.AbstractArtifactComponentTestCase, 0, 0, 0, 1, 0, 0, 0, 0, 0, 0, 0, 0, 0, 1,0.0,0.0,0.0,0.0,0.0,0.0,0.0,0.0,0.0,0.0,0.0,0.0,0.0,212,maven-compat\src\test\java\org\apache\maven\artifact\AbstractArtifactComponentTestCase.java,0,0,0,0
org.apache.maven.artifact.Artifact, 0, 0, 0, 0, 0, 0, 0, 0, 0, 0, 0, 0, 0, 0,0.0,0.0,0.0,0.0,0.0,0.0,0.0,0.0,0.0,0.0,0.0,0.0,0.0,212,maven-artifact\src\main\java\org\apache\maven\artifact\Artifact.java,0,0,0,0
org.apache.maven.artifact.DefaultArtifactTest, 0, 0, 0, 1, 0, 0, 0, 0, 0, 0, 0, 0, 0, 1,0.0,0.0,0.0,1.0,0.0,0.0,0.0,0.0,0.0,0.0,0.0,0.0,0.0,88,maven-compat\src\test\java\org\apache\maven\artifact\DefaultArtifactTest.java,0,0,0,0
org.apache.maven.artifact.DependencyResolutionRequiredException, 0, 0, 0, 0, 0, 0, 0, 0, 0, 0, 0, 0, 0, 0,0.0,0.0,0.0,0.0,0.0,0.0,0.0,0.0,0.0,0.0,0.0,0.0,0.0,8,maven-core\src\main\java\org\apache\maven\artifact\DependencyResolutionRequiredException.java,0,0,0,0
org.apache.maven.artifact.InvalidArtifactRTException, 0, 0, 0, 0, 0, 0, 0, 1, 0, 0, 0, 0, 0, 1,0.0,0.0,0.0,1.0,0.0,0.0,0.0,0.0,0.0,0.0,0.0,0.0,0.0,63,maven-artifact\src\main\java\org\apache\maven\artifact\InvalidArtifactRTException.java,0,0,0,0
org.apache.maven.artifact.InvalidRepositoryException, 0, 0, 0, 0, 0, 0, 0, 0, 0, 0, 0, 0, 0, 0,0.0,0.0,0.0,0.0,0.0,0.0,0.0,0.0,0.0,0.0,0.0,0.0,0.0,30,maven-core\src\main\java\org\apache\maven\artifact\InvalidRepositoryException.java,0,0,0,0
org.apache.maven.artifact.UnknownRepositoryLayoutException, 0, 0, 0, 0, 0, 0, 0, 0, 0, 0, 0, 0, 0, 0,0.0,0.0,0.0,0.0,0.0,0.0,0.0,0.0,0.0,0.0,0.0,0.0,0.0,19,maven-compat\src\main\java\org\apache\maven\artifact\UnknownRepositoryLayoutException.java,0,0,0,0
org.apache.maven.artifact.deployer.ArtifactDeployer, 0, 0, 0, 0, 0, 0, 0, 0, 0, 0, 0, 0, 0, 0,0.0,0.0,0.0,0.0,0.0,0.0,0.0,0.0,0.0,0.0,0.0,0.0,0.0,19,maven-compat\src\main\java\org\apache\maven\artifact\deployer\ArtifactDeployer.java,0,0,0,0
org.apache.maven.artifact.deployer.ArtifactDeployerTest, 0, 0, 0, 0, 0, 0, 0, 0, 0, 0, 0, 0, 0, 0,0.0,0.0,0.0,1.0,0.0,0.0,0.0,0.0,0.0,0.0,0.0,0.0,0.0,27,maven-compat\src\test\java\org\apache\maven\artifact\deployer\ArtifactDeployerTest.java,0,0,0,0
org.apache.maven.artifact.deployer.ArtifactDeploymentException, 0, 0, 0, 0, 0, 0, 0, 0, 0, 0, 0, 0, 0, 0,0.0,0.0,0.0,0.0,0.0,0.0,0.0,0.0,0.0,0.0,0.0,0.0,0.0,17,maven-compat\src\main\java\org\apache\maven\artifact\deployer\ArtifactDeploymentException.java,0,0,0,0
org.apache.maven.artifact.deployer.SimpleArtifactMetadataSource, 0, 0, 0, 0, 0, 0, 0, 0, 0, 0, 0, 0, 0, 0,0.0,0.0,0.0,0.0,0.0,0.0,0.0,0.0,0.0,0.0,0.0,0.0,0.0,28,maven-compat\src\test\java\org\apache\maven\artifact\deployer\SimpleArtifactMetadataSource.java,0,0,0,0
org.apache.maven.artifact.factory.ArtifactFactory, 0, 0, 0, 0, 0, 0, 0, 0, 0, 0, 0, 0, 0, 0,0.0,0.0,0.0,0.0,0.0,0.0,0.0,0.0,0.0,0.0,0.0,0.0,0.0,28,maven-core\src\main\java\org\apache\maven\artifact\factory\ArtifactFactory.java,0,0,0,0
org.apache.maven.artifact.factory.DefaultArtifactFactory, 0, 0, 0, 1, 0, 0, 0, 1, 0, 0, 0, 0, 0, 2,0.0,0.0,0.0,0.0,0.0,0.0,0.0,0.0,0.0,0.0,0.0,0.0,0.0,107,maven-compat\src\test\java\org\apache\maven\artifact\factory\DefaultArtifactFactoryTest.java,0,0,0,0
org.apache.maven.artifact.factory.DefaultArtifactFactoryTest, 0, 0, 0, 0, 0, 0, 0, 0, 0, 0, 0, 0, 0, 0,0.0,0.0,0.0,0.0,0.0,0.0,0.0,0.0,0.0,0.0,0.0,0.0,0.0,18,maven-compat\src\test\java\org\apache\maven\artifact\factory\DefaultArtifactFactoryTest.java,0,0,0,0
org.apache.maven.artifact.handler.ArtifactHandler, 0, 0, 0, 0, 0, 0, 0, 0, 0, 0, 0, 0, 0, 0,0.0,0.0,0.0,0.0,0.0,0.0,0.0,0.0,0.0,0.0,0.0,0.0,0.0,18,maven-artifact\src\main\java\org\apache\maven\artifact\handler\ArtifactHandler.java,0,0,0,0
org.apache.maven.artifact.handler.ArtifactHandlerMock, 0, 0, 0, 1, 0, 0, 0, 0, 0, 0, 0, 0, 0, 1,0.0,0.0,0.0,1.0,0.0,0.0,0.0,0.0,0.0,0.0,0.0,0.0,0.0,62,maven-compat\src\test\java\org\apache\maven\artifact\handler\ArtifactHandlerMock.java,0,0,0,0
org.apache.maven.artifact.handler.DefaultArtifactHandler, 0, 0, 0, 1, 0, 0, 0, 0, 0, 0, 0, 0, 0, 1,0.0,0.0,0.0,0.0,0.0,0.0,0.0,0.0,0.0,0.0,0.0,0.0,0.0,83,maven-core\src\main\java\org\apache\maven\artifact\handler\DefaultArtifactHandler.java,0,0,0,0
org.apache.maven.artifact.installer.ArtifactInstallationException, 0, 0, 0, 0, 0, 0, 0, 0, 0, 0, 0, 0, 0, 0,0.0,0.0,0.0,0.0,0.0,0.0,0.0,0.0,0.0,0.0,0.0,0.0,0.0,17,maven-compat\src\main\java\org\apache\maven\artifact\installer\ArtifactInstallationException.java,0,0,0,0
org.apache.maven.artifact.installer.ArtifactInstaller, 0, 0, 0, 0, 0, 0, 0, 0, 0, 0, 0, 0, 0, 0,0.0,0.0,0.0,0.0,0.0,0.0,0.0,0.0,0.0,0.0,0.0,0.0,0.0,17,maven-compat\src\main\java\org\apache\maven\artifact\installer\ArtifactInstaller.java,0,0,0,0
org.apache.maven.artifact.installer.ArtifactInstallerTest, 0, 0, 0, 0, 0, 0, 0, 0, 0, 0, 0, 0, 0, 0,0.0,0.0,0.0,1.0,0.0,0.0,0.0,0.0,0.0,0.0,0.0,0.0,0.0,23,maven-compat\src\test\java\org\apache\maven\artifact\installer\ArtifactInstallerTest.java,0,0,0,0
org.apache.maven.artifact.installer.DefaultArtifactInstaller, 0, 0, 0, 0, 0, 0, 0, 0, 0, 0, 0, 0, 0, 0,0.0,0.0,0.0,0.0,0.0,0.0,0.0,0.0,0.0,0.0,0.0,0.0,0.0,67,maven-compat\src\main\java\org\apache\maven\artifact\installer\DefaultArtifactInstaller.java,0,0,0,0
org.apache.maven.artifact.manager.DefaultWagonManager, 0, 0, 0, 0, 0, 0, 0, 0, 0, 0, 0, 0, 0, 0,0.0,0.0,0.0,0.0,0.0,0.0,0.0,0.0,0.0,0.0,0.0,0.0,0.0,107,maven-compat\src\main\java\org\apache\maven\artifact\manager\DefaultWagonManager.java,0,0,0,0
org.apache.maven.artifact.manager.WagonConfigurationException, 0, 0, 0, 0, 0, 0, 0, 0, 0, 1, 0, 0, 0, 1,0.0,0.0,0.0,0.0,0.0,0.0,0.0,0.0,0.0,1.0,0.0,0.0,0.0,12,maven-compat\src\main\java\org\apache\maven\artifact\manager\WagonConfigurationException.java,0,0,0,0
org.apache.maven.artifact.manager.WagonManager, 0, 0, 0, 0, 0, 0, 0, 0, 0, 0, 0, 0, 0, 0,0.0,0.0,0.0,0.0,0.0,0.0,0.0,0.0,0.0,0.0,0.0,0.0,0.0,12,maven-compat\src\main\java\org\apache\maven\artifact\manager\WagonManager.java,0,0,0,0
org.apache.maven.artifact.metadata.AbstractArtifactMetadata, 0, 0, 0, 0, 0, 0, 0, 0, 0, 0, 0, 0, 0, 0,0.0,0.0,0.0,0.0,0.0,0.0,0.0,0.0,0.0,0.0,0.0,0.0,0.0,9,maven-core\src\main\java\org\apache\maven\artifact\metadata\AbstractArtifactMetadata.java,0,0,0,0
org.apache.maven.artifact.metadata.ArtifactMetadata, 0, 0, 0, 0, 0, 0, 0, 0, 0, 0, 0, 0, 0, 0,0.0,0.0,0.0,0.0,0.0,0.0,0.0,0.0,0.0,0.0,0.0,0.0,0.0,9,maven-artifact\src\main\java\org\apache\maven\artifact\metadata\ArtifactMetadata.java,0,0,0,0
org.apache.maven.artifact.metadata.ArtifactMetadataRetrievalException, 0, 0, 0, 0, 0, 0, 0, 0, 0, 1, 0, 0, 0, 1,0.0,0.0,0.0,0.0,0.0,0.0,0.0,0.0,0.0,1.0,0.0,0.0,0.0,8,maven-core\src\main\java\org\apache\maven\artifact\metadata\ArtifactMetadataRetrievalException.java,0,0,0,0
org.apache.maven.artifact.metadata.ArtifactMetadataSource, 0, 0, 0, 0, 0, 0, 0, 0, 0, 0, 0, 0, 0, 0,0.0,0.0,0.0,0.0,0.0,0.0,0.0,0.0,0.0,0.0,0.0,0.0,0.0,8,maven-core\src\main\java\org\apache\maven\artifact\metadata\ArtifactMetadataSource.java,0,0,0,0
org.apache.maven.artifact.metadata.TestMetadataSource, 0, 0, 0, 0, 0, 0, 0, 0, 0, 0, 0, 0, 0, 0,0.0,0.0,0.0,0.0,0.0,0.0,0.0,0.0,0.0,0.0,0.0,0.0,0.0,58,maven-compat\src\test\java\org\apache\maven\artifact\metadata\TestMetadataSource.java,0,0,0,0
org.apache.maven.artifact.repository.ArtifactRepository, 0, 0, 0, 0, 0, 0, 0, 0, 0, 0, 0, 0, 0, 0,0.0,0.0,0.0,0.0,0.0,0.0,0.0,0.0,0.0,0.0,0.0,0.0,0.0,58,maven-artifact\src\main\java\org\apache\maven\artifact\repository\ArtifactRepository.java,0,0,0,0
org.apache.maven.artifact.repository.ArtifactRepositoryFactory, 0, 0, 0, 0, 0, 0, 0, 0, 0, 0, 0, 0, 0, 0,0.0,0.0,0.0,0.0,0.0,0.0,0.0,0.0,0.0,0.0,0.0,0.0,0.0,58,maven-compat\src\main\java\org\apache\maven\artifact\repository\ArtifactRepositoryFactory.java,0,0,0,0
org.apache.maven.artifact.repository.Authentication, 0, 0, 0, 0, 0, 0, 0, 0, 0, 0, 0, 0, 0, 0,0.0,0.0,0.0,0.0,0.0,0.0,0.0,0.0,0.0,0.0,0.0,0.0,0.0,44,maven-artifact\src\main\java\org\apache\maven\artifact\repository\Authentication.java,0,0,0,0
org.apache.maven.artifact.repository.DefaultArtifactRepositoryFactory, 0, 0, 0, 0, 0, 0, 0, 1, 0, 0, 0, 0, 0, 1,0.0,0.0,0.0,0.0,0.0,0.0,0.0,0.0,0.0,0.0,0.0,0.0,0.0,69,maven-compat\src\main\java\org\apache\maven\artifact\repository\DefaultArtifactRepositoryFactory.java,0,0,1,2
org.apache.maven.artifact.repository.DefaultRepositoryRequest, 0, 0, 0, 0, 0, 0, 0, 0, 0, 0, 0, 0, 0, 0,0.0,0.0,0.0,0.6666666666666666,0.0,0.0,0.0,0.0,0.0,0.0,0.0,0.0,0.0,70,maven-core\src\main\java\org\apache\maven\artifact\repository\DefaultRepositoryRequest.java,0,0,0,0
org.apache.maven.artifact.repository.LegacyLocalRepositoryManager, 0, 0, 0, 0, 0, 0, 0, 0, 0, 0, 0, 0, 0, 0,0.0,0.0,0.0,0.0,0.0,0.0,0.0,0.0,0.0,0.0,0.0,0.0,0.0,291,maven-core\src\main\java\org\apache\maven\artifact\repository\LegacyLocalRepositoryManager.java,0,7,1,9
org.apache.maven.artifact.repository.MavenArtifactRepositoryTest, 0, 0, 0, 0, 0, 0, 0, 0, 0, 0, 0, 0, 0, 0,0.0,0.0,0.0,0.0,0.0,0.0,0.0,0.0,0.0,0.0,0.0,0.0,0.0,29,maven-compat\src\test\java\org\apache\maven\artifact\repository\MavenArtifactRepositoryTest.java,0,0,0,0
org.apache.maven.artifact.repository.RepositoryCache, 0, 0, 0, 0, 0, 0, 0, 0, 0, 0, 0, 0, 0, 0,0.0,0.0,0.0,0.0,0.0,0.0,0.0,0.0,0.0,0.0,0.0,0.0,0.0,29,maven-core\src\main\java\org\apache\maven\artifact\repository\RepositoryCache.java,0,0,0,0
org.apache.maven.artifact.repository.RepositoryRequest, 0, 0, 0, 0, 0, 0, 0, 0, 0, 0, 0, 0, 0, 0,0.0,0.0,0.0,0.0,0.0,0.0,0.0,0.0,0.0,0.0,0.0,0.0,0.0,29,maven-core\src\main\java\org\apache\maven\artifact\repository\RepositoryRequest.java,0,0,0,0
org.apache.maven.artifact.repository.layout.ArtifactRepositoryLayout, 0, 0, 0, 0, 0, 0, 0, 0, 0, 0, 0, 0, 0, 0,0.0,0.0,0.0,0.0,0.0,0.0,0.0,0.0,0.0,0.0,0.0,0.0,0.0,29,maven-artifact\src\main\java\org\apache\maven\artifact\repository\layout\ArtifactRepositoryLayout.java,0,0,0,0
org.apache.maven.artifact.repository.layout.ArtifactRepositoryLayout2, 0, 0, 0, 0, 0, 0, 0, 0, 0, 0, 0, 0, 0, 0,0.0,0.0,0.0,0.0,0.0,0.0,0.0,0.0,0.0,0.0,0.0,0.0,0.0,29,maven-artifact\src\main\java\org\apache\maven\artifact\repository\layout\ArtifactRepositoryLayout2.java,0,0,0,0
org.apache.maven.artifact.repository.metadata.ArtifactRepositoryMetadata, 0, 0, 0, 0, 0, 0, 0, 0, 0, 0, 0, 0, 0, 0,0.0,0.0,0.0,0.0,0.0,0.0,0.0,0.0,0.0,0.0,0.0,0.0,0.0,73,maven-core\src\main\java\org\apache\maven\artifact\repository\metadata\ArtifactRepositoryMetadata.java,0,0,0,0
org.apache.maven.artifact.repository.metadata.GroupRepositoryMetadata, 0, 0, 0, 0, 0, 0, 0, 0, 0, 0, 0, 0, 0, 0,0.0,0.0,0.0,0.0,0.0,0.0,0.0,0.0,0.0,0.0,0.0,0.0,0.0,73,maven-compat\src\main\java\org\apache\maven\artifact\repository\metadata\GroupRepositoryMetadata.java,0,0,0,0
org.apache.maven.artifact.repository.metadata.MetadataBridge, 0, 0, 0, 0, 0, 0, 0, 0, 0, 0, 0, 0, 0, 0,0.0,0.0,0.0,0.0,0.0,0.0,0.0,0.0,0.0,0.0,0.0,0.0,0.0,100,maven-compat\src\main\java\org\apache\maven\artifact\repository\metadata\MetadataBridge.java,0,0,0,0
org.apache.maven.artifact.repository.metadata.MetadataUtils, 0, 0, 0, 0, 0, 0, 0, 0, 0, 0, 0, 0, 0, 0,0.0,0.0,0.0,0.0,0.0,0.0,0.0,0.0,0.0,0.0,0.0,0.0,0.0,11,maven-compat\src\main\java\org\apache\maven\artifact\repository\metadata\MetadataUtils.java,0,0,0,0
org.apache.maven.artifact.repository.metadata.RepositoryMetadata, 0, 0, 0, 0, 0, 0, 0, 0, 0, 0, 0, 0, 0, 0,0.0,0.0,0.0,0.0,0.0,0.0,0.0,0.0,0.0,0.0,0.0,0.0,0.0,11,maven-artifact\src\main\java\org\apache\maven\artifact\repository\metadata\RepositoryMetadataStoreException.java,0,0,0,0
org.apache.maven.artifact.repository.metadata.RepositoryMetadataDeploymentException, 0, 0, 0, 0, 0, 0, 0, 0, 0, 0, 0, 0, 0, 0,0.0,0.0,0.0,0.0,0.0,0.0,0.0,0.0,0.0,0.0,0.0,0.0,0.0,13,maven-core\src\main\java\org\apache\maven\artifact\repository\metadata\RepositoryMetadataDeploymentException.java,0,0,0,0
org.apache.maven.artifact.repository.metadata.RepositoryMetadataInstallationException, 0, 0, 0, 0, 0, 0, 0, 0, 0, 0, 0, 0, 0, 0,0.0,0.0,0.0,0.0,0.0,0.0,0.0,0.0,0.0,0.0,0.0,0.0,0.0,13,maven-core\src\main\java\org\apache\maven\artifact\repository\metadata\RepositoryMetadataInstallationException.java,0,0,0,0
org.apache.maven.artifact.repository.metadata.RepositoryMetadataManager, 0, 0, 0, 0, 0, 0, 0, 0, 0, 0, 0, 0, 0, 0,0.0,0.0,0.0,0.0,0.0,0.0,0.0,0.0,0.0,0.0,0.0,0.0,0.0,13,maven-core\src\main\java\org\apache\maven\artifact\repository\metadata\RepositoryMetadataManager.java,0,0,0,0
org.apache.maven.artifact.repository.metadata.RepositoryMetadataReadException, 0, 0, 0, 0, 0, 0, 0, 0, 0, 0, 0, 0, 0, 0,0.0,0.0,0.0,0.0,0.0,0.0,0.0,0.0,0.0,0.0,0.0,0.0,0.0,13,maven-compat\src\main\java\org\apache\maven\artifact\repository\metadata\RepositoryMetadataReadException.java,0,0,0,0
org.apache.maven.artifact.repository.metadata.RepositoryMetadataResolutionException, 0, 0, 0, 0, 0, 0, 0, 0, 0, 0, 0, 0, 0, 0,0.0,0.0,0.0,0.0,0.0,0.0,0.0,0.0,0.0,0.0,0.0,0.0,0.0,13,maven-core\src\main\java\org\apache\maven\artifact\repository\metadata\RepositoryMetadataResolutionException.java,0,0,0,0
org.apache.maven.artifact.repository.metadata.RepositoryMetadataStoreException, 0, 0, 0, 0, 0, 0, 0, 0, 0, 0, 0, 0, 0, 0,0.0,0.0,0.0,0.0,0.0,0.0,0.0,0.0,0.0,0.0,0.0,0.0,0.0,13,maven-artifact\src\main\java\org\apache\maven\artifact\repository\metadata\RepositoryMetadataStoreException.java,0,0,0,0
org.apache.maven.artifact.repository.metadata.SnapshotArtifactRepositoryMetadata, 0, 0, 0, 0, 0, 0, 0, 0, 0, 0, 0, 0, 0, 0,0.0,0.0,0.0,0.0,0.0,0.0,0.0,0.0,0.0,0.0,0.0,0.0,0.0,56,maven-compat\src\main\java\org\apache\maven\artifact\repository\metadata\SnapshotArtifactRepositoryMetadata.java,0,0,0,0
org.apache.maven.artifact.repository.metadata.io.MetadataParseException, 0, 0, 0, 0, 0, 0, 0, 0, 0, 0, 0, 0, 0, 0,0.0,0.0,0.0,0.0,0.0,0.0,0.0,0.0,0.0,0.0,0.0,0.0,0.0,27,maven-core\src\main\java\org\apache\maven\artifact\repository\metadata\io\MetadataParseException.java,0,0,0,0
org.apache.maven.artifact.resolver.ArtifactCollector, 0, 0, 0, 0, 0, 0, 0, 0, 0, 0, 0, 0, 0, 0,0.0,0.0,0.0,0.0,0.0,0.0,0.0,0.0,0.0,0.0,0.0,0.0,0.0,27,maven-compat\src\main\java\org\apache\maven\artifact\resolver\ArtifactCollector.java,0,0,0,0
org.apache.maven.artifact.resolver.ArtifactNotFoundException, 0, 0, 0, 0, 0, 0, 0, 1, 0, 0, 0, 0, 0, 1,0.0,0.0,0.0,0.0,0.0,0.0,0.0,0.0,0.0,0.0,0.0,0.0,0.0,43,maven-artifact\src\main\java\org\apache\maven\artifact\resolver\ArtifactNotFoundException.java,0,0,0,0
org.apache.maven.artifact.resolver.ArtifactResolutionException, 0, 0, 0, 0, 0, 0, 0, 1, 0, 0, 0, 0, 0, 1,0.0,0.0,0.0,0.0,0.0,0.0,0.0,0.0,0.0,0.0,0.0,0.0,0.0,32,maven-artifact\src\main\java\org\apache\maven\artifact\resolver\ArtifactResolutionException.java,0,0,0,0
org.apache.maven.artifact.resolver.ArtifactResolutionExceptionTest, 0, 0, 0, 0, 0, 0, 0, 0, 0, 0, 0, 0, 0, 0,0.0,0.0,0.0,0.0,0.0,0.0,0.0,0.0,0.0,0.0,0.0,0.0,0.0,32,maven-compat\src\test\java\org\apache\maven\artifact\resolver\ArtifactResolutionExceptionTest.java,0,0,0,0
org.apache.maven.artifact.resolver.ArtifactResolverTest, 0, 0, 0, 0, 0, 0, 0, 0, 0, 0, 0, 0, 0, 0,0.0,0.0,0.0,0.5,0.0,0.0,0.0,0.5,0.0,0.0,0.0,0.0,0.0,178,maven-compat\src\test\java\org\apache\maven\artifact\resolver\ArtifactResolverTest.java,0,0,0,0
org.apache.maven.artifact.resolver.CyclicDependencyException, 0, 0, 0, 0, 0, 0, 0, 0, 0, 0, 0, 0, 0, 0,0.0,0.0,0.0,0.5,0.0,0.0,0.0,0.5,0.0,0.0,0.0,0.0,0.0,15,maven-artifact\src\main\java\org\apache\maven\artifact\resolver\CyclicDependencyException.java,0,0,0,0
org.apache.maven.artifact.resolver.DebugResolutionListener, 0, 0, 0, 1, 0, 0, 0, 0, 0, 0, 0, 0, 0, 1,0.0,0.0,0.0,0.0,0.0,0.0,0.0,0.0,0.0,0.0,0.0,0.0,0.0,103,maven-compat\src\main\java\org\apache\maven\artifact\resolver\DebugResolutionListener.java,0,0,0,0
org.apache.maven.artifact.resolver.DefaultArtifactCollector, 0, 0, 0, 0, 0, 0, 0, 0, 0, 0, 0, 0, 0, 0,0.0,0.0,0.0,0.0,0.0,0.0,0.0,0.0,0.0,0.0,0.0,0.0,0.0,5,maven-compat\src\main\java\org\apache\maven\artifact\resolver\DefaultArtifactCollector.java,0,0,0,0
org.apache.maven.artifact.resolver.DefaultArtifactResolverTest, 0, 0, 0, 0, 0, 0, 0, 0, 0, 0, 0, 0, 0, 0,0.0,0.0,0.0,1.0,0.0,0.0,0.0,0.0,0.0,0.0,0.0,0.0,0.0,66,maven-compat\src\test\java\org\apache\maven\artifact\resolver\DefaultArtifactResolverTest.java,0,0,0,0
org.apache.maven.artifact.resolver.DefaultResolutionErrorHandler, 0, 0, 0, 0, 0, 0, 0, 0, 0, 0, 0, 0, 0, 0,0.0,0.0,0.0,0.0,0.0,0.0,0.0,1.0,0.0,0.0,0.0,0.0,0.0,39,maven-core\src\main\java\org\apache\maven\artifact\resolver\DefaultResolutionErrorHandler.java,0,0,0,0
org.apache.maven.artifact.resolver.ResolutionErrorHandler, 0, 0, 0, 0, 0, 0, 0, 0, 0, 0, 0, 0, 0, 0,0.0,0.0,0.0,0.0,0.0,0.0,0.0,0.0,0.0,0.0,0.0,0.0,0.0,39,maven-core\src\main\java\org\apache\maven\artifact\resolver\ResolutionErrorHandler.java,0,0,0,0
org.apache.maven.artifact.resolver.ResolutionListener, 0, 0, 0, 0, 0, 0, 0, 0, 0, 0, 0, 0, 0, 0,0.0,0.0,0.0,0.0,0.0,0.0,0.0,0.0,0.0,0.0,0.0,0.0,0.0,39,maven-compat\src\main\java\org\apache\maven\artifact\resolver\ResolutionListenerForDepMgmt.java,0,0,0,0
org.apache.maven.artifact.resolver.ResolutionListenerForDepMgmt, 0, 0, 0, 0, 0, 0, 0, 0, 0, 0, 0, 0, 0, 0,0.0,0.0,0.0,0.0,0.0,0.0,0.0,0.0,0.0,0.0,0.0,0.0,0.0,39,maven-compat\src\main\java\org\apache\maven\artifact\resolver\ResolutionListenerForDepMgmt.java,0,0,0,0
org.apache.maven.artifact.resolver.ResolutionNode, 0, 0, 0, 1, 0, 0, 0, 0, 0, 0, 0, 0, 0, 1,0.0,0.0,0.0,0.09090909090909091,0.0,0.0,0.0,0.09090909090909091,0.0,0.0,0.0,0.0,0.0,172,maven-core\src\main\java\org\apache\maven\artifact\resolver\ResolutionNode.java,0,0,0,0
org.apache.maven.artifact.resolver.TestFileWagon, 0, 0, 0, 0, 0, 0, 0, 1, 0, 0, 0, 0, 0, 1,0.0,0.0,0.0,0.0,0.0,0.0,0.0,0.0,0.0,0.0,0.0,0.0,0.0,52,maven-compat\src\test\java\org\apache\maven\artifact\resolver\TestFileWagon.java,0,0,0,0
org.apache.maven.artifact.resolver.TestTransferListener, 0, 0, 0, 0, 0, 0, 0, 0, 0, 0, 0, 0, 0, 0,0.0,0.0,0.0,0.0,0.0,0.0,0.0,1.0,0.0,0.0,0.0,0.0,0.0,13,maven-compat\src\test\java\org\apache\maven\artifact\resolver\TestTransferListener.java,0,0,0,0
org.apache.maven.artifact.resolver.UnresolvedArtifacts, 0, 0, 0, 0, 0, 0, 0, 0, 0, 0, 0, 0, 0, 0,0.0,0.0,0.0,0.0,0.0,0.0,0.0,0.0,0.0,0.0,0.0,0.0,0.0,26,maven-compat\src\main\java\org\apache\maven\artifact\resolver\UnresolvedArtifacts.java,0,0,0,0
org.apache.maven.artifact.resolver.WarningResolutionListener, 0, 0, 0, 0, 0, 0, 0, 0, 0, 0, 0, 0, 0, 0,0.0,0.0,0.0,0.0,0.0,0.0,0.0,0.0,0.0,0.0,0.0,0.0,0.0,48,maven-compat\src\main\java\org\apache\maven\artifact\resolver\WarningResolutionListener.java,0,0,0,0
org.apache.maven.artifact.resolver.filter.AbstractScopeArtifactFilter, 0, 0, 0, 0, 0, 0, 0, 0, 0, 0, 0, 0, 0, 0,0.0,0.0,0.0,0.0,0.0,0.0,0.0,0.0,0.0,0.0,0.0,0.0,0.0,71,maven-core\src\main\java\org\apache\maven\artifact\resolver\filter\AbstractScopeArtifactFilter.java,0,0,0,0
org.apache.maven.artifact.resolver.filter.AndArtifactFilter, 0, 0, 0, 0, 0, 0, 0, 0, 0, 0, 0, 0, 0, 0,0.0,0.0,0.0,0.0,0.0,0.0,0.0,0.0,0.0,0.0,0.0,0.0,0.0,55,maven-compat\src\test\java\org\apache\maven\artifact\resolver\filter\AndArtifactFilterTest.java,0,0,0,0
org.apache.maven.artifact.resolver.filter.AndArtifactFilterTest, 0, 0, 0, 0, 0, 0, 0, 0, 0, 0, 0, 0, 0, 0,0.0,0.0,0.0,0.0,0.0,0.0,0.0,0.0,0.0,0.0,0.0,0.0,0.0,24,maven-compat\src\test\java\org\apache\maven\artifact\resolver\filter\AndArtifactFilterTest.java,0,0,0,0
org.apache.maven.artifact.resolver.filter.ArtifactFilter, 0, 0, 0, 0, 0, 0, 0, 0, 0, 0, 0, 0, 0, 0,0.0,0.0,0.0,0.0,0.0,0.0,0.0,0.0,0.0,0.0,0.0,0.0,0.0,24,maven-artifact\src\main\java\org\apache\maven\artifact\resolver\filter\ArtifactFilter.java,0,0,0,0
org.apache.maven.artifact.resolver.filter.CumulativeScopeArtifactFilter, 0, 0, 0, 0, 0, 0, 0, 0, 0, 0, 0, 0, 0, 0,0.0,0.0,0.0,0.0,0.0,0.0,0.0,0.5,0.0,0.0,0.0,0.0,0.0,61,maven-core\src\main\java\org\apache\maven\artifact\resolver\filter\CumulativeScopeArtifactFilter.java,0,0,0,0
org.apache.maven.artifact.resolver.filter.ExcludesArtifactFilter, 0, 0, 0, 0, 0, 0, 0, 0, 0, 0, 0, 0, 0, 0,0.0,0.0,0.0,0.0,0.0,0.0,0.0,0.0,0.0,0.0,0.0,0.0,0.0,12,maven-core\src\main\java\org\apache\maven\artifact\resolver\filter\ExcludesArtifactFilter.java,0,0,0,0
org.apache.maven.artifact.resolver.filter.ExclusionSetFilter, 0, 0, 0, 0, 0, 0, 0, 0, 0, 0, 0, 0, 0, 0,0.0,0.0,0.0,0.0,0.0,0.0,0.0,0.0,0.0,0.0,0.0,0.0,0.0,48,maven-core\src\main\java\org\apache\maven\artifact\resolver\filter\ExclusionSetFilter.java,0,0,0,0
org.apache.maven.artifact.resolver.filter.FilterHashEqualsTest, 0, 0, 0, 0, 0, 0, 0, 0, 0, 0, 0, 0, 0, 0,0.0,0.0,0.0,0.0,0.0,0.0,0.0,0.0,0.0,0.0,0.0,0.0,0.0,16,maven-compat\src\test\java\org\apache\maven\artifact\resolver\filter\FilterHashEqualsTest.java,0,0,0,0
org.apache.maven.artifact.resolver.filter.IncludesArtifactFilter, 0, 0, 0, 0, 0, 0, 0, 0, 0, 0, 0, 0, 0, 0,0.0,0.0,0.0,0.0,0.0,0.0,0.0,0.0,0.0,0.0,0.0,0.0,0.0,47,maven-core\src\main\java\org\apache\maven\artifact\resolver\filter\IncludesArtifactFilter.java,0,0,0,0
org.apache.maven.artifact.resolver.filter.InversionArtifactFilter, 0, 0, 0, 0, 0, 0, 0, 0, 0, 0, 0, 0, 0, 0,0.0,0.0,0.0,0.0,0.0,0.0,0.0,0.0,0.0,0.0,0.0,0.0,0.0,34,maven-compat\src\main\java\org\apache\maven\artifact\resolver\filter\InversionArtifactFilter.java,0,0,0,0
org.apache.maven.artifact.resolver.filter.OrArtifactFilter, 0, 0, 0, 0, 0, 0, 0, 0, 0, 0, 0, 0, 0, 0,0.0,0.0,0.0,0.0,0.0,0.0,0.0,0.0,0.0,0.0,0.0,0.0,0.0,49,maven-compat\src\main\java\org\apache\maven\artifact\resolver\filter\OrArtifactFilter.java,0,0,0,0
org.apache.maven.artifact.resolver.filter.OrArtifactFilterTest, 0, 0, 0, 0, 0, 0, 0, 0, 0, 0, 0, 0, 0, 0,0.0,0.0,0.0,0.0,0.0,0.0,0.0,0.0,0.0,0.0,0.0,0.0,0.0,24,maven-compat\src\test\java\org\apache\maven\artifact\resolver\filter\OrArtifactFilterTest.java,0,0,0,0
org.apache.maven.artifact.resolver.filter.ScopeArtifactFilter, 0, 0, 0, 0, 0, 0, 0, 0, 0, 0, 0, 0, 0, 0,0.0,0.0,0.0,0.0,0.0,0.0,0.0,0.0,0.0,0.0,0.0,0.0,0.0,39,maven-compat\src\test\java\org\apache\maven\artifact\resolver\filter\ScopeArtifactFilterTest.java,0,0,0,0
org.apache.maven.artifact.resolver.filter.ScopeArtifactFilterTest, 0, 0, 0, 0, 0, 0, 0, 0, 0, 0, 0, 0, 0, 0,0.0,0.0,0.0,0.0,0.0,0.0,0.0,0.0,0.0,0.0,0.0,0.0,0.0,53,maven-compat\src\test\java\org\apache\maven\artifact\resolver\filter\ScopeArtifactFilterTest.java,0,0,0,0
org.apache.maven.artifact.resolver.filter.TypeArtifactFilter, 0, 0, 0, 0, 0, 0, 0, 0, 0, 0, 0, 0, 0, 0,0.0,0.0,0.0,0.0,0.0,0.0,0.0,0.0,0.0,0.0,0.0,0.0,0.0,34,maven-compat\src\main\java\org\apache\maven\artifact\resolver\filter\TypeArtifactFilter.java,0,0,0,0
org.apache.maven.artifact.testutils.MockManager, 0, 0, 0, 0, 0, 0, 0, 0, 0, 0, 0, 0, 0, 0,0.0,0.0,0.0,0.0,0.0,0.0,0.0,0.0,0.0,0.0,0.0,0.0,0.0,24,maven-compat\src\test\java\org\apache\maven\artifact\testutils\MockManager.java,0,0,0,0
org.apache.maven.artifact.testutils.TestFileManager, 0, 0, 0, 1, 0, 0, 0, 0, 0, 0, 0, 0, 0, 1,0.0,0.0,0.0,0.0,0.0,0.0,0.0,0.0,0.0,0.0,0.0,0.0,0.0,130,maven-compat\src\test\java\org\apache\maven\artifact\testutils\TestFileManager.java,0,0,0,0
org.apache.maven.artifact.transform.TransformationManagerTest, 0, 0, 0, 0, 0, 0, 0, 0, 0, 0, 0, 0, 0, 0,0.0,0.0,0.0,0.0,0.0,0.0,0.0,0.0,0.0,0.0,0.0,0.0,0.0,14,maven-compat\src\test\java\org\apache\maven\artifact\transform\TransformationManagerTest.java,0,0,0,0
org.apache.maven.artifact.versioning.ArtifactVersion, 0, 0, 0, 0, 0, 0, 0, 0, 0, 0, 0, 0, 0, 0,0.0,0.0,0.0,0.0,0.0,0.0,0.0,0.0,0.0,0.0,0.0,0.0,0.0,14,maven-artifact\src\main\java\org\apache\maven\artifact\versioning\ArtifactVersion.java,0,0,0,0
org.apache.maven.artifact.versioning.ComparableVersionTest, 0, 0, 0, 0, 0, 0, 0, 0, 0, 0, 0, 0, 0, 0,0.0,0.0,0.0,0.0,0.0,0.0,0.0,0.0,0.0,0.0,0.0,0.0,0.0,149,maven-artifact\src\test\java\org\apache\maven\artifact\versioning\ComparableVersionTest.java,0,0,0,0
org.apache.maven.artifact.versioning.DefaultArtifactVersionTest, 0, 0, 0, 0, 0, 0, 0, 1, 0, 0, 0, 0, 0, 1,0.0,0.0,0.0,0.0,0.0,0.0,0.0,0.0,0.0,0.0,0.0,0.0,0.0,145,maven-artifact\src\test\java\org\apache\maven\artifact\versioning\DefaultArtifactVersionTest.java,0,1,1,3
org.apache.maven.artifact.versioning.InvalidVersionSpecificationException, 0, 0, 0, 0, 0, 0, 0, 0, 0, 0, 0, 0, 0, 0,0.0,0.0,0.0,0.2857142857142857,0.0,0.0,0.0,0.14285714285714285,0.0,0.0,0.0,0.0,0.0,8,maven-artifact\src\main\java\org\apache\maven\artifact\versioning\InvalidVersionSpecificationException.java,0,0,0,0
org.apache.maven.artifact.versioning.OverConstrainedVersionException, 0, 0, 0, 0, 0, 0, 0, 0, 0, 0, 0, 0, 0, 0,0.0,0.0,0.0,0.25,0.0,0.0,0.0,0.25,0.0,0.0,0.0,0.0,0.0,15,maven-artifact\src\main\java\org\apache\maven\artifact\versioning\OverConstrainedVersionException.java,0,0,0,0
org.apache.maven.artifact.versioning.VersionRangeTest, 0, 0, 0, 1, 0, 0, 0, 0, 0, 0, 0, 0, 0, 1,0.0,0.0,0.0,0.0,0.0,0.0,0.0,0.0,0.0,0.0,0.0,0.0,0.0,618,maven-artifact\src\test\java\org\apache\maven\artifact\versioning\VersionRangeTest.java,0,0,0,0
org.apache.maven.classrealm.ArtifactClassRealmConstituent, 0, 0, 0, 0, 0, 0, 0, 0, 0, 0, 0, 0, 0, 0,0.0,0.0,0.0,0.0,0.0,0.0,0.0,0.0,0.0,0.0,0.0,0.0,0.0,38,maven-core\src\main\java\org\apache\maven\classrealm\ArtifactClassRealmConstituent.java,0,0,0,0
org.apache.maven.classrealm.ClassRealmConstituent, 0, 0, 0, 0, 0, 0, 0, 0, 0, 0, 0, 0, 0, 0,0.0,0.0,0.0,0.0,0.0,0.0,0.0,0.0,0.0,0.0,0.0,0.0,0.0,38,maven-core\src\main\java\org\apache\maven\classrealm\ClassRealmConstituent.java,0,0,0,0
org.apache.maven.classrealm.ClassRealmManagerDelegate, 0, 0, 0, 0, 0, 0, 0, 0, 0, 0, 0, 0, 0, 0,0.0,0.0,0.0,0.0,0.0,0.0,0.0,0.0,0.0,0.0,0.0,0.0,0.0,38,maven-core\src\main\java\org\apache\maven\classrealm\ClassRealmManagerDelegate.java,0,0,0,0
org.apache.maven.cli.AbstractMavenTransferListener, 0, 0, 0, 0, 0, 0, 0, 0, 0, 0, 0, 0, 0, 0,0.0,0.0,0.0,0.0,0.0,0.0,0.0,0.0,0.0,0.0,0.0,0.0,0.0,48,maven-embedder\src\main\java\org\apache\maven\cli\AbstractMavenTransferListener.java,0,0,0,0
org.apache.maven.cli.BatchModeMavenTransferListener, 0, 0, 0, 0, 0, 0, 0, 0, 0, 0, 0, 0, 0, 0,0.0,0.0,0.0,0.0,0.0,0.0,0.0,0.0,0.0,0.0,0.0,0.0,0.0,8,maven-embedder\src\main\java\org\apache\maven\cli\BatchModeMavenTransferListener.java,0,0,0,0
org.apache.maven.cli.MavenLoggerManager, 0, 0, 0, 0, 0, 0, 0, 0, 0, 0, 0, 0, 0, 0,0.0,0.0,0.0,0.0,0.0,0.0,0.0,0.0,0.0,0.0,0.0,0.0,0.0,86,maven-embedder\src\main\java\org\apache\maven\cli\MavenLoggerManager.java,0,0,0,0
org.apache.maven.cli.PrintStreamLogger, 0, 0, 0, 1, 0, 0, 0, 0, 0, 0, 0, 0, 0, 1,0.0,0.0,0.0,0.0,0.0,0.0,0.0,0.0,0.0,0.0,0.0,0.0,0.0,123,maven-embedder\src\main\java\org\apache\maven\cli\PrintStreamLogger.java,0,0,0,0
org.apache.maven.cli.QuietMavenTransferListener, 0, 0, 0, 0, 0, 0, 0, 0, 0, 0, 0, 0, 0, 0,0.0,0.0,0.0,0.0,0.0,0.0,0.0,0.0,0.0,0.0,0.0,0.0,0.0,4,maven-embedder\src\main\java\org\apache\maven\cli\QuietMavenTransferListener.java,0,0,0,0
org.apache.maven.configuration.BasedirBeanConfigurationPathTranslator, 0, 0, 0, 0, 0, 0, 0, 0, 0, 0, 0, 0, 0, 0,0.0,0.0,0.0,0.0,0.0,0.0,0.0,0.0,0.0,0.0,0.0,0.0,0.0,28,maven-core\src\main\java\org\apache\maven\configuration\BasedirBeanConfigurationPathTranslator.java,0,0,0,0
org.apache.maven.configuration.BeanConfigurationException, 0, 0, 0, 0, 0, 0, 0, 0, 0, 0, 0, 0, 0, 0,0.0,0.0,0.0,0.0,0.0,0.0,0.0,0.0,0.0,0.0,0.0,0.0,0.0,12,maven-core\src\main\java\org\apache\maven\configuration\BeanConfigurationException.java,0,0,0,0
org.apache.maven.configuration.BeanConfigurationPathTranslator, 0, 0, 0, 0, 0, 0, 0, 0, 0, 0, 0, 0, 0, 0,0.0,0.0,0.0,0.0,0.0,0.0,0.0,0.0,0.0,0.0,0.0,0.0,0.0,12,maven-core\src\main\java\org\apache\maven\configuration\BeanConfigurationPathTranslator.java,0,0,0,0
org.apache.maven.configuration.BeanConfigurationRequest, 0, 0, 0, 0, 0, 0, 0, 0, 0, 0, 0, 0, 0, 0,0.0,0.0,0.0,0.0,0.0,0.0,0.0,0.0,0.0,0.0,0.0,0.0,0.0,12,maven-core\src\main\java\org\apache\maven\configuration\BeanConfigurationRequest.java,0,0,0,0
org.apache.maven.configuration.BeanConfigurationValuePreprocessor, 0, 0, 0, 0, 0, 0, 0, 0, 0, 0, 0, 0, 0, 0,0.0,0.0,0.0,0.0,0.0,0.0,0.0,0.0,0.0,0.0,0.0,0.0,0.0,12,maven-core\src\main\java\org\apache\maven\configuration\BeanConfigurationValuePreprocessor.java,0,0,0,0
org.apache.maven.configuration.BeanConfigurator, 0, 0, 0, 0, 0, 0, 0, 0, 0, 0, 0, 0, 0, 0,0.0,0.0,0.0,0.0,0.0,0.0,0.0,0.0,0.0,0.0,0.0,0.0,0.0,12,maven-core\src\main\java\org\apache\maven\configuration\BeanConfigurator.java,0,0,0,0
org.apache.maven.configuration.DefaultBeanConfigurationRequest, 0, 0, 0, 1, 0, 0, 0, 0, 0, 0, 0, 0, 0, 1,0.0,0.0,0.0,0.0,0.0,0.0,0.0,0.0,0.0,0.0,0.0,0.0,0.0,125,maven-core\src\main\java\org\apache\maven\configuration\DefaultBeanConfigurationRequest.java,0,0,0,0
org.apache.maven.configuration.DefaultBeanConfiguratorTest, 0, 0, 0, 0, 0, 0, 0, 0, 0, 0, 0, 0, 0, 0,0.0,0.0,0.0,1.0,0.0,0.0,0.0,0.0,0.0,0.0,0.0,0.0,0.0,88,maven-core\src\test\java\org\apache\maven\configuration\DefaultBeanConfiguratorTest.java,0,0,0,0
org.apache.maven.configuration.internal.DefaultBeanConfigurator, 0, 0, 0, 0, 0, 0, 0, 0, 0, 0, 0, 0, 0, 0,0.0,0.0,0.0,0.0,0.0,0.0,0.0,0.0,0.0,0.0,0.0,0.0,0.0,95,maven-core\src\main\java\org\apache\maven\configuration\internal\DefaultBeanConfigurator.java,0,0,0,0
org.apache.maven.embedder.App, 0, 0, 0, 0, 0, 0, 0, 0, 0, 0, 0, 0, 0, 0,0.0,0.0,0.0,0.0,0.0,0.0,0.0,0.0,0.0,0.0,0.0,0.0,0.0,7,maven-embedder\src\examples\simple-project\src\main\java\org\apache\maven\embedder\App.java,0,0,0,0
org.apache.maven.embedder.AppTest, 0, 0, 0, 0, 0, 0, 0, 0, 0, 0, 0, 0, 0, 0,0.0,0.0,0.0,0.0,0.0,0.0,0.0,0.0,0.0,0.0,0.0,0.0,0.0,16,maven-embedder\src\examples\simple-project\src\test\java\org\apache\maven\embedder\AppTest.java,0,0,0,0
org.apache.maven.eventspy.AbstractEventSpy, 0, 0, 0, 0, 0, 0, 0, 0, 0, 0, 0, 0, 0, 0,0.0,0.0,0.0,0.0,0.0,0.0,0.0,0.0,0.0,0.0,0.0,0.0,0.0,16,maven-core\src\main\java\org\apache\maven\eventspy\AbstractEventSpy.java,0,0,0,0
org.apache.maven.eventspy.internal.EventSpyDispatcher, 0, 0, 0, 0, 0, 0, 0, 0, 0, 0, 0, 0, 0, 0,0.0,0.0,0.0,1.0,0.0,0.0,0.0,0.0,0.0,0.0,0.0,0.0,0.0,109,maven-core\src\main\java\org\apache\maven\eventspy\internal\EventSpyDispatcher.java,0,0,0,0
org.apache.maven.eventspy.internal.EventSpyExecutionListener, 0, 0, 0, 1, 0, 0, 0, 0, 0, 0, 0, 0, 0, 1,0.0,0.0,0.0,0.5,0.0,0.0,0.0,0.0,0.0,0.0,0.0,0.0,0.0,113,maven-core\src\main\java\org\apache\maven\eventspy\internal\EventSpyExecutionListener.java,0,0,0,0
org.apache.maven.eventspy.internal.EventSpyRepositoryListener, 0, 0, 0, 1, 0, 0, 0, 0, 0, 0, 0, 0, 0, 1,0.0,0.0,0.0,0.0,0.0,0.0,0.0,0.0,0.0,0.0,0.0,0.0,0.0,125,maven-core\src\main\java\org\apache\maven\eventspy\internal\EventSpyRepositoryListener.java,0,0,0,0
org.apache.maven.exception.ExceptionHandler, 0, 0, 0, 0, 0, 0, 0, 0, 0, 0, 0, 0, 0, 0,0.0,0.0,0.0,0.0,0.0,0.0,0.0,0.0,0.0,0.0,0.0,0.0,0.0,125,maven-core\src\main\java\org\apache\maven\exception\ExceptionHandler.java,0,0,0,0
org.apache.maven.exception.ExceptionSummary, 0, 0, 0, 0, 0, 0, 0, 0, 0, 0, 0, 0, 0, 0,0.0,0.0,0.0,0.0,0.0,0.0,0.0,0.0,0.0,0.0,0.0,0.0,0.0,34,maven-core\src\main\java\org\apache\maven\exception\ExceptionSummary.java,0,0,0,0
org.apache.maven.execution.AbstractExecutionListener, 0, 0, 0, 1, 0, 0, 0, 0, 0, 0, 0, 0, 0, 1,0.0,0.0,0.0,1.0,0.0,0.0,0.0,0.0,0.0,0.0,0.0,0.0,0.0,55,maven-core\src\main\java\org\apache\maven\execution\AbstractExecutionListener.java,0,0,0,0
org.apache.maven.execution.BuildFailure, 0, 0, 0, 0, 0, 0, 0, 0, 0, 0, 0, 0, 0, 0,0.0,0.0,0.0,0.0,0.0,0.0,0.0,0.5,0.0,0.0,0.0,0.0,0.0,14,maven-core\src\main\java\org\apache\maven\execution\BuildFailure.java,0,0,0,0
org.apache.maven.execution.BuildSuccess, 0, 0, 0, 0, 0, 0, 0, 0, 0, 0, 0, 0, 0, 0,0.0,0.0,0.0,0.0,0.0,0.0,0.0,0.5,0.0,0.0,0.0,0.0,0.0,8,maven-core\src\main\java\org\apache\maven\execution\BuildSuccess.java,0,0,0,0
org.apache.maven.execution.BuildSummary, 0, 0, 0, 0, 0, 0, 0, 0, 0, 0, 0, 0, 0, 0,0.0,0.0,0.0,0.0,0.0,0.0,0.0,0.0,0.0,0.0,0.0,0.0,0.0,22,maven-core\src\main\java\org\apache\maven\execution\BuildSummary.java,0,0,0,0
org.apache.maven.execution.DefaultMavenExecutionRequestPopulator, 0, 0, 0, 0, 0, 0, 0, 0, 0, 0, 0, 0, 0, 0,0.0,0.0,0.0,0.0,0.0,0.0,0.0,0.0,0.0,0.0,0.0,0.0,0.0,158,maven-core\src\main\java\org\apache\maven\execution\DefaultMavenExecutionRequestPopulator.java,0,0,0,0
org.apache.maven.execution.DefaultMavenExecutionTest, 0, 0, 0, 0, 0, 0, 0, 0, 0, 0, 0, 0, 0, 0,0.0,0.0,0.0,0.0,0.0,0.0,0.0,0.0,0.0,0.0,0.0,0.0,0.0,19,maven-core\src\test\java\org\apache\maven\execution\DefaultMavenExecutionTest.java,0,0,0,0
org.apache.maven.execution.DefaultRuntimeInformation, 0, 0, 0, 0, 0, 0, 0, 0, 0, 0, 0, 0, 0, 0,0.0,0.0,0.0,0.0,0.0,0.0,0.0,0.0,0.0,0.0,0.0,0.0,0.0,21,maven-compat\src\main\java\org\apache\maven\execution\DefaultRuntimeInformation.java,0,0,0,0
org.apache.maven.execution.ExecutionEvent, 0, 0, 0, 0, 0, 0, 0, 0, 0, 0, 0, 0, 0, 0,0.0,0.0,0.0,0.0,0.0,0.0,0.0,0.0,0.0,0.0,0.0,0.0,0.0,21,maven-core\src\main\java\org\apache\maven\execution\ExecutionEvent.java,0,0,0,0
org.apache.maven.execution.ExecutionListener, 0, 0, 0, 0, 0, 0, 0, 0, 0, 0, 0, 0, 0, 0,0.0,0.0,0.0,0.0,0.0,0.0,0.0,0.0,0.0,0.0,0.0,0.0,0.0,21,maven-core\src\main\java\org\apache\maven\execution\ExecutionListener.java,0,0,0,0
org.apache.maven.execution.MavenExecutionRequest, 0, 0, 0, 0, 0, 0, 0, 0, 0, 0, 0, 0, 0, 0,0.0,0.0,0.0,0.0,0.0,0.0,0.0,0.0,0.0,0.0,0.0,0.0,0.0,21,maven-core\src\main\java\org\apache\maven\execution\MavenExecutionRequest.java,0,0,0,0
org.apache.maven.execution.MavenExecutionRequestPopulationException, 0, 0, 0, 0, 0, 0, 0, 0, 0, 0, 0, 0, 0, 0,0.0,0.0,0.0,0.0,0.0,0.0,0.0,0.0,0.0,0.0,0.0,0.0,0.0,17,maven-core\src\main\java\org\apache\maven\execution\MavenExecutionRequestPopulationException.java,0,0,0,0
org.apache.maven.execution.MavenExecutionRequestPopulator, 0, 0, 0, 0, 0, 0, 0, 0, 0, 0, 0, 0, 0, 0,0.0,0.0,0.0,0.0,0.0,0.0,0.0,0.0,0.0,0.0,0.0,0.0,0.0,17,maven-core\src\main\java\org\apache\maven\execution\MavenExecutionRequestPopulator.java,0,0,0,0
org.apache.maven.execution.MavenExecutionResult, 0, 0, 0, 0, 0, 0, 0, 0, 0, 0, 0, 0, 0, 0,0.0,0.0,0.0,0.0,0.0,0.0,0.0,0.0,0.0,0.0,0.0,0.0,0.0,17,maven-core\src\main\java\org\apache\maven\execution\MavenExecutionResult.java,0,0,0,0
org.apache.maven.execution.ProjectDependencyGraph, 0, 0, 0, 0, 0, 0, 0, 0, 0, 0, 0, 0, 0, 0,0.0,0.0,0.0,0.0,0.0,0.0,0.0,0.0,0.0,0.0,0.0,0.0,0.0,17,maven-core\src\main\java\org\apache\maven\execution\ProjectDependencyGraph.java,0,0,0,0
org.apache.maven.execution.RuntimeInformation, 0, 0, 0, 0, 0, 0, 0, 0, 0, 0, 0, 0, 0, 0,0.0,0.0,0.0,0.0,0.0,0.0,0.0,0.0,0.0,0.0,0.0,0.0,0.0,17,maven-compat\src\main\java\org\apache\maven\execution\RuntimeInformation.java,0,0,0,0
org.apache.maven.execution.SettingsAdapter, 0, 0, 0, 0, 0, 0, 0, 0, 0, 0, 0, 0, 0, 0,0.0,0.0,0.0,0.0,0.0,0.0,0.0,0.0,0.0,0.0,0.0,0.0,0.0,66,maven-core\src\main\java\org\apache\maven\execution\SettingsAdapter.java,0,6,1,8
org.apache.maven.lifecycle.DefaultLifecyclesTest, 0, 0, 0, 0, 0, 0, 0, 0, 0, 0, 0, 0, 0, 0,0.0,0.0,0.0,0.0,0.0,0.0,0.0,0.0,0.0,0.0,0.0,0.0,0.0,27,maven-core\src\test\java\org\apache\maven\lifecycle\DefaultLifecyclesTest.java,0,0,0,0
org.apache.maven.lifecycle.DefaultSchedules, 0, 0, 0, 0, 0, 0, 0, 0, 0, 0, 0, 0, 0, 0,0.0,0.0,0.0,0.16666666666666666,0.0,0.0,0.0,0.16666666666666666,0.0,0.0,0.0,0.0,0.0,47,maven-core\src\main\java\org\apache\maven\lifecycle\DefaultSchedules.java,1,0,0,1
org.apache.maven.lifecycle.DefaultSchedulesTest, 0, 0, 0, 0, 0, 0, 0, 0, 0, 0, 0, 0, 0, 0,0.0,0.0,0.0,0.3333333333333333,0.0,0.0,0.0,0.0,0.0,0.0,0.0,0.0,0.0,28,maven-core\src\test\java\org\apache\maven\lifecycle\DefaultSchedulesTest.java,0,0,0,0
org.apache.maven.lifecycle.EmptyLifecyclePluginAnalyzer, 0, 0, 0, 0, 0, 0, 0, 0, 0, 0, 0, 0, 0, 0,0.0,0.0,0.0,0.0,0.0,0.0,0.0,0.0,0.0,0.0,0.0,0.0,0.0,37,maven-core\src\test\java\org\apache\maven\lifecycle\EmptyLifecyclePluginAnalyzer.java,0,0,0,0
org.apache.maven.lifecycle.LifeCyclePluginAnalyzer, 0, 0, 0, 0, 0, 0, 0, 0, 0, 0, 0, 0, 0, 0,0.0,0.0,0.0,0.0,0.0,0.0,0.0,0.0,0.0,0.0,0.0,0.0,0.0,37,maven-core\src\main\java\org\apache\maven\lifecycle\LifeCyclePluginAnalyzer.java,0,0,0,0
org.apache.maven.lifecycle.LifecycleExecutor, 0, 0, 0, 0, 0, 0, 0, 0, 0, 0, 0, 0, 0, 0,0.0,0.0,0.0,0.0,0.0,0.0,0.0,0.0,0.0,0.0,0.0,0.0,0.0,37,maven-core\src\main\java\org\apache\maven\lifecycle\LifecycleExecutor.java,1,0,0,1
org.apache.maven.lifecycle.LifecycleExecutorSubModulesTest, 0, 0, 0, 0, 0, 0, 0, 0, 0, 0, 0, 0, 0, 0,0.0,0.0,0.0,0.5,0.0,0.0,0.0,0.5,0.0,0.0,0.0,0.0,0.0,52,maven-core\src\test\java\org\apache\maven\lifecycle\LifecycleExecutorSubModulesTest.java,0,0,0,0
org.apache.maven.lifecycle.LifecycleExecutorTest, 0, 0, 0, 1, 0, 0, 0, 0, 0, 0, 0, 0, 0, 1,0.0,0.0,0.0,0.14285714285714285,0.0,0.0,0.0,0.0,0.0,0.0,0.0,0.0,0.0,251,maven-core\src\test\java\org\apache\maven\lifecycle\LifecycleExecutorTest.java,0,0,0,0
org.apache.maven.lifecycle.LifecycleNotFoundException, 0, 0, 0, 0, 0, 0, 0, 0, 0, 0, 0, 0, 0, 0,0.0,0.0,0.0,0.0,0.0,0.0,0.0,0.0,0.0,0.0,0.0,0.0,0.0,14,maven-core\src\main\java\org\apache\maven\lifecycle\LifecycleNotFoundException.java,0,0,0,0
org.apache.maven.lifecycle.LifecyclePhaseNotFoundException, 0, 0, 0, 0, 0, 0, 0, 0, 0, 0, 0, 0, 0, 0,0.0,0.0,0.0,0.0,0.0,0.0,0.0,0.0,0.0,0.0,0.0,0.0,0.0,14,maven-core\src\main\java\org\apache\maven\lifecycle\LifecyclePhaseNotFoundException.java,0,0,0,0
org.apache.maven.lifecycle.MavenExecutionPlanTest, 0, 0, 0, 0, 0, 0, 0, 0, 0, 0, 0, 0, 0, 0,0.0,0.0,0.0,1.0,0.0,0.0,0.0,0.0,0.0,0.0,0.0,0.0,0.0,51,maven-core\src\test\java\org\apache\maven\lifecycle\MavenExecutionPlanTest.java,0,0,0,0
org.apache.maven.lifecycle.MissingProjectException, 0, 0, 0, 0, 0, 0, 0, 0, 0, 0, 0, 0, 0, 0,0.0,0.0,0.0,0.0,0.0,0.0,0.0,1.0,0.0,0.0,0.0,0.0,0.0,8,maven-core\src\main\java\org\apache\maven\lifecycle\MissingProjectException.java,0,0,0,0
org.apache.maven.lifecycle.MojoExecutionXPathContainer, 0, 0, 0, 0, 0, 0, 0, 0, 0, 0, 0, 0, 0, 0,0.0,0.0,0.0,1.0,0.0,0.0,0.0,0.0,0.0,0.0,0.0,0.0,0.0,38,maven-core\src\test\java\org\apache\maven\lifecycle\MojoExecutionXPathContainer.java,0,0,0,0
org.apache.maven.lifecycle.NoGoalSpecifiedException, 0, 0, 0, 0, 0, 0, 0, 0, 0, 0, 0, 0, 0, 0,0.0,0.0,0.0,0.0,0.0,0.0,0.0,1.0,0.0,0.0,0.0,0.0,0.0,8,maven-core\src\main\java\org\apache\maven\lifecycle\NoGoalSpecifiedException.java,0,0,0,0
org.apache.maven.lifecycle.Schedule, 0, 0, 0, 1, 0, 0, 0, 0, 0, 0, 0, 0, 0, 1,0.0,0.0,0.0,0.0,0.0,0.0,0.0,0.0,0.0,0.0,0.0,0.0,0.0,99,maven-core\src\main\java\org\apache\maven\lifecycle\Schedule.java,11,0,7,25
org.apache.maven.lifecycle.Scheduling, 0, 0, 0, 0, 0, 0, 0, 0, 0, 0, 0, 0, 0, 0,0.0,0.0,0.0,0.25,0.0,0.0,0.0,0.0,0.0,0.0,0.0,0.0,0.0,58,maven-core\src\main\java\org\apache\maven\lifecycle\Scheduling.java,4,2,2,10
org.apache.maven.lifecycle.internal.BuildListCalculator, 0, 0, 0, 0, 0, 0, 0, 0, 0, 0, 0, 0, 0, 0,0.0,0.0,0.0,0.0,0.0,0.0,0.0,0.2857142857142857,0.0,0.0,0.0,0.0,0.0,28,maven-core\src\main\java\org\apache\maven\lifecycle\internal\BuildListCalculator.java,0,0,0,0
org.apache.maven.lifecycle.internal.BuildListCalculatorTest, 0, 0, 0, 0, 0, 0, 0, 0, 0, 0, 0, 0, 0, 0,0.0,0.0,0.0,0.5,0.0,0.0,0.0,0.0,0.0,0.0,0.0,0.0,0.0,22,maven-core\src\test\java\org\apache\maven\lifecycle\internal\BuildListCalculatorTest.java,0,0,0,0
org.apache.maven.lifecycle.internal.BuilderCommon, 0, 0, 0, 0, 0, 0, 0, 1, 0, 0, 0, 0, 0, 1,0.0,0.0,0.0,0.0,0.0,0.0,0.0,0.1,0.0,0.0,0.0,0.0,0.0,95,maven-core\src\main\java\org\apache\maven\lifecycle\internal\BuilderCommon.java,0,0,0,0
org.apache.maven.lifecycle.internal.BuilderCommonTest, 0, 0, 0, 0, 0, 0, 0, 0, 0, 0, 0, 0, 0, 0,0.0,0.0,0.0,0.5,0.0,0.0,0.0,0.25,0.0,0.0,0.0,0.0,0.0,35,maven-core\src\test\java\org\apache\maven\lifecycle\internal\BuilderCommonTest.java,0,0,0,0
org.apache.maven.lifecycle.internal.ConcurrencyDependencyGraph, 0, 0, 0, 0, 0, 0, 0, 0, 0, 0, 0, 0, 0, 0,0.0,0.0,0.0,0.0,0.0,0.0,0.0,0.3333333333333333,0.0,0.0,0.0,0.0,0.0,49,maven-core\src\main\java\org\apache\maven\lifecycle\internal\ConcurrencyDependencyGraph.java,0,0,0,0
org.apache.maven.lifecycle.internal.ConcurrencyDependencyGraphTest, 0, 0, 0, 0, 0, 0, 0, 0, 0, 0, 0, 0, 0, 0,0.0,0.0,0.0,0.5,0.0,0.0,0.0,0.0,0.0,0.0,0.0,0.0,0.0,46,maven-core\src\test\java\org\apache\maven\lifecycle\internal\ConcurrencyDependencyGraphTest.java,0,0,0,0
org.apache.maven.lifecycle.internal.ConcurrentBuildLoggerTest, 0, 0, 0, 0, 0, 0, 0, 0, 0, 0, 0, 0, 0, 0,0.0,0.0,0.0,0.25,0.0,0.0,0.0,0.0,0.0,0.0,0.0,0.0,0.0,35,maven-core\src\test\java\org\apache\maven\lifecycle\internal\ConcurrentBuildLoggerTest.java,0,0,0,0
org.apache.maven.lifecycle.internal.CurrentPhaseForThread, 0, 0, 0, 0, 0, 0, 0, 0, 0, 0, 0, 0, 0, 0,0.0,0.0,0.0,1.0,0.0,0.0,0.0,0.0,0.0,0.0,0.0,0.0,0.0,12,maven-core\src\main\java\org\apache\maven\lifecycle\internal\CurrentPhaseForThread.java,0,0,0,0
org.apache.maven.lifecycle.internal.DefaultExecutionEvent, 0, 0, 0, 0, 0, 0, 0, 0, 0, 0, 0, 0, 0, 0,0.0,0.0,0.0,0.0,0.0,0.0,0.0,0.0,0.0,0.0,0.0,0.0,0.0,35,maven-core\src\main\java\org\apache\maven\lifecycle\internal\DefaultExecutionEvent.java,0,0,0,0
org.apache.maven.lifecycle.internal.DefaultExecutionEventCatapult, 0, 0, 0, 0, 0, 0, 0, 0, 0, 0, 0, 0, 0, 0,0.0,0.0,0.0,0.0,0.0,0.0,0.0,0.0,0.0,0.0,0.0,0.0,0.0,73,maven-core\src\main\java\org\apache\maven\lifecycle\internal\DefaultExecutionEventCatapult.java,0,0,0,0
org.apache.maven.lifecycle.internal.DefaultLifecycleTaskSegmentCalculator, 0, 0, 0, 0, 0, 0, 0, 0, 0, 0, 0, 0, 0, 0,0.0,0.0,0.0,0.16666666666666666,0.0,0.0,0.0,0.0,0.0,0.0,0.0,0.0,0.0,79,maven-core\src\main\java\org\apache\maven\lifecycle\internal\DefaultLifecycleTaskSegmentCalculator.java,0,0,0,0
org.apache.maven.lifecycle.internal.ExecutionEventCatapult, 0, 0, 0, 0, 0, 0, 0, 0, 0, 0, 0, 0, 0, 0,0.0,0.0,0.0,0.0,0.0,0.0,0.0,0.0,0.0,0.0,0.0,0.0,0.0,79,maven-core\src\main\java\org\apache\maven\lifecycle\internal\ExecutionEventCatapult.java,0,0,0,0
org.apache.maven.lifecycle.internal.ExecutionPlanItem, 0, 0, 0, 0, 0, 0, 0, 0, 0, 0, 0, 0, 0, 0,0.0,0.0,0.0,0.5,0.0,0.0,0.0,0.0,0.0,0.0,0.0,0.0,0.0,51,maven-core\src\main\java\org\apache\maven\lifecycle\internal\ExecutionPlanItem.java,0,0,0,0
org.apache.maven.lifecycle.internal.ExecutionPlanItemTest, 0, 0, 0, 0, 0, 0, 0, 0, 0, 0, 0, 0, 0, 0,0.0,0.0,0.3333333333333333,0.3333333333333333,0.0,0.0,0.0,0.3333333333333333,0.0,0.0,0.0,0.0,0.0,35,maven-core\src\test\java\org\apache\maven\lifecycle\internal\ExecutionPlanItemTest.java,0,0,0,0
org.apache.maven.lifecycle.internal.GoalTask, 0, 0, 0, 0, 0, 0, 0, 0, 0, 0, 0, 0, 0, 0,0.0,0.0,0.0,0.2,0.0,0.0,0.0,0.0,0.0,0.0,0.0,0.0,0.0,13,maven-core\src\main\java\org\apache\maven\lifecycle\internal\GoalTask.java,0,0,0,0
org.apache.maven.lifecycle.internal.LifecycleExecutionPlanCalculator, 0, 0, 0, 0, 0, 0, 0, 0, 0, 0, 0, 0, 0, 0,0.0,0.0,0.0,0.0,0.0,0.0,0.0,0.0,0.0,0.0,0.0,0.0,0.0,13,maven-core\src\main\java\org\apache\maven\lifecycle\internal\LifecycleExecutionPlanCalculator.java,0,0,0,0
org.apache.maven.lifecycle.internal.LifecycleExecutionPlanCalculatorTest, 0, 0, 0, 0, 0, 0, 0, 0, 0, 0, 0, 0, 0, 0,0.0,0.0,0.0,0.2857142857142857,0.0,0.0,0.0,0.0,0.0,0.0,0.0,0.0,0.0,44,maven-core\src\test\java\org\apache\maven\lifecycle\internal\LifecycleExecutionPlanCalculatorTest.java,0,0,0,0
org.apache.maven.lifecycle.internal.LifecycleModuleBuilder, 0, 0, 0, 0, 0, 0, 0, 1, 0, 0, 0, 0, 0, 1,0.0,0.0,0.0,0.0,0.0,0.0,0.0,0.2857142857142857,0.0,0.0,0.0,0.0,0.0,45,maven-core\src\main\java\org\apache\maven\lifecycle\internal\LifecycleModuleBuilder.java,0,0,0,0
org.apache.maven.lifecycle.internal.LifecycleStarter, 0, 0, 0, 0, 0, 0, 0, 1, 0, 0, 0, 0, 0, 1,0.0,0.0,0.0,0.0,0.0,0.0,0.0,0.1111111111111111,0.0,0.0,0.0,0.0,0.0,122,maven-core\src\main\java\org\apache\maven\lifecycle\internal\LifecycleStarter.java,0,0,0,0
org.apache.maven.lifecycle.internal.LifecycleTask, 0, 0, 0, 0, 0, 0, 0, 0, 0, 0, 0, 0, 0, 0,0.0,0.0,0.0,0.3333333333333333,0.0,0.0,0.0,0.0,0.0,0.0,0.0,0.0,0.0,17,maven-core\src\main\java\org\apache\maven\lifecycle\internal\LifecycleTask.java,0,0,0,0
org.apache.maven.lifecycle.internal.LifecycleTaskSegmentCalculator, 0, 0, 0, 0, 0, 0, 0, 0, 0, 0, 0, 0, 0, 0,0.0,0.0,0.0,0.0,0.0,0.0,0.0,0.0,0.0,0.0,0.0,0.0,0.0,17,maven-core\src\main\java\org\apache\maven\lifecycle\internal\LifecycleTaskSegmentCalculator.java,0,0,0,0
org.apache.maven.lifecycle.internal.LifecycleTaskSegmentCalculatorImplTest, 0, 0, 0, 0, 0, 0, 0, 0, 0, 0, 0, 0, 0, 0,0.0,0.0,0.0,0.5,0.0,0.0,0.0,0.0,0.0,0.0,0.0,0.0,0.0,22,maven-core\src\test\java\org\apache\maven\lifecycle\internal\LifecycleTaskSegmentCalculatorImplTest.java,0,0,0,0
org.apache.maven.lifecycle.internal.LifecycleWeaveBuilderTest, 0, 0, 0, 0, 0, 0, 0, 0, 0, 0, 0, 0, 0, 0,0.0,0.0,0.0,0.3333333333333333,0.0,0.0,0.0,0.16666666666666666,0.0,0.0,0.0,0.0,0.0,71,maven-core\src\test\java\org\apache\maven\lifecycle\internal\LifecycleWeaveBuilderTest.java,0,0,0,0
org.apache.maven.lifecycle.internal.MojoDescriptorCreator, 0, 0, 0, 0, 0, 0, 0, 0, 0, 0, 0, 0, 0, 0,0.0,0.0,0.0,0.5,0.0,0.0,0.0,0.16666666666666666,0.0,0.0,0.0,0.0,0.0,160,maven-core\src\main\java\org\apache\maven\lifecycle\internal\MojoDescriptorCreator.java,0,0,0,0
org.apache.maven.lifecycle.internal.PhaseRecorder, 0, 0, 0, 0, 0, 0, 0, 0, 0, 0, 0, 0, 0, 0,0.0,0.0,0.0,0.0,0.0,0.0,0.0,0.0,0.0,0.0,0.0,0.0,0.0,38,maven-core\src\main\java\org\apache\maven\lifecycle\internal\PhaseRecorder.java,0,0,0,0
org.apache.maven.lifecycle.internal.PhaseRecorderTest, 0, 0, 0, 0, 0, 0, 0, 0, 0, 0, 0, 0, 0, 0,0.0,0.0,0.0,0.5,0.0,0.0,0.0,0.0,0.0,0.0,0.0,0.0,0.0,15,maven-core\src\test\java\org\apache\maven\lifecycle\internal\PhaseRecorderTest.java,0,0,0,0
org.apache.maven.lifecycle.internal.ProjectBuildListTest, 0, 0, 0, 0, 0, 0, 0, 0, 0, 0, 0, 0, 0, 0,0.0,0.0,0.0,0.5,0.0,0.0,0.0,0.0,0.0,0.0,0.0,0.0,0.0,15,maven-core\src\test\java\org\apache\maven\lifecycle\internal\ProjectBuildListTest.java,0,0,0,0
org.apache.maven.lifecycle.internal.ProjectSegment, 0, 0, 0, 0, 0, 0, 0, 0, 0, 0, 0, 0, 0, 0,0.0,0.0,0.0,0.25,0.0,0.0,0.0,0.125,0.0,0.0,0.0,0.0,0.0,42,maven-core\src\main\java\org\apache\maven\lifecycle\internal\ProjectSegment.java,0,0,0,0
org.apache.maven.lifecycle.internal.ReactorBuildStatus, 0, 0, 0, 0, 0, 0, 0, 0, 0, 0, 0, 0, 0, 0,0.0,0.0,0.0,0.0,0.0,0.0,0.0,0.6,0.0,0.0,0.0,0.0,0.0,36,maven-core\src\main\java\org\apache\maven\lifecycle\internal\ReactorBuildStatus.java,0,0,0,0
org.apache.maven.lifecycle.internal.ReactorContext, 0, 0, 0, 0, 0, 0, 0, 0, 0, 0, 0, 0, 0, 0,0.0,0.0,0.0,0.0,0.0,0.0,0.0,0.6,0.0,0.0,0.0,0.0,0.0,31,maven-core\src\main\java\org\apache\maven\lifecycle\internal\ReactorContext.java,0,0,0,0
org.apache.maven.lifecycle.internal.TaskSegment, 0, 0, 0, 0, 0, 0, 0, 0, 0, 0, 0, 0, 0, 0,0.0,0.0,0.0,0.25,0.0,0.0,0.0,0.16666666666666666,0.0,0.0,0.0,0.0,0.0,28,maven-core\src\main\java\org\apache\maven\lifecycle\internal\TaskSegment.java,0,0,0,0
org.apache.maven.lifecycle.internal.ThreadConfigurationService, 0, 0, 0, 0, 0, 0, 0, 0, 0, 0, 0, 0, 0, 0,0.0,0.0,0.0,0.0,0.0,0.0,0.0,0.5,0.0,0.0,0.0,0.0,0.0,57,maven-core\src\main\java\org\apache\maven\lifecycle\internal\ThreadConfigurationService.java,0,0,0,0
org.apache.maven.lifecycle.internal.ThreadConfigurationServiceTest, 0, 0, 0, 0, 0, 0, 0, 0, 0, 0, 0, 0, 0, 0,0.0,0.0,0.0,0.0,0.0,0.0,0.0,0.0,0.0,0.0,0.0,0.0,0.0,11,maven-core\src\test\java\org\apache\maven\lifecycle\internal\ThreadConfigurationServiceTest.java,0,0,0,0
org.apache.maven.lifecycle.internal.ThreadLockedArtifact, 0, 0, 0, 1, 0, 0, 0, 0, 0, 0, 0, 0, 0, 1,0.0,0.0,0.0,0.0,0.0,0.0,0.0,0.0,0.0,0.0,0.0,0.0,0.0,227,maven-core\src\main\java\org\apache\maven\lifecycle\internal\ThreadLockedArtifact.java,0,0,0,0
org.apache.maven.lifecycle.internal.ThreadOutputMuxerTest, 0, 0, 0, 0, 0, 0, 0, 0, 0, 0, 0, 0, 0, 0,0.0,0.0,0.0,1.0,0.0,0.0,0.0,0.0,0.0,0.0,0.0,0.0,0.0,95,maven-core\src\test\java\org\apache\maven\lifecycle\internal\ThreadOutputMuxerTest.java,0,0,0,0
org.apache.maven.lifecycle.internal.stub.BuildPluginManagerStub, 0, 0, 0, 0, 0, 0, 0, 0, 0, 0, 0, 0, 0, 0,0.0,0.0,1.0,0.0,0.0,0.0,0.0,1.0,0.0,0.0,0.0,0.0,0.0,20,maven-core\src\test\java\org\apache\maven\lifecycle\internal\stub\BuildPluginManagerStub.java,0,0,0,0
org.apache.maven.lifecycle.internal.stub.CompletionServiceStub, 0, 0, 0, 0, 0, 0, 0, 0, 0, 0, 0, 0, 0, 0,0.0,0.0,0.0,0.0,0.0,0.0,0.0,0.0,0.0,0.0,0.0,0.0,0.0,49,maven-core\src\test\java\org\apache\maven\lifecycle\internal\stub\CompletionServiceStub.java,0,0,0,0
org.apache.maven.lifecycle.internal.stub.DefaultSchedulesStub, 0, 0, 0, 0, 0, 0, 0, 0, 0, 0, 0, 0, 0, 0,0.0,0.0,0.0,0.4,0.0,0.0,0.0,0.0,0.0,0.0,0.0,0.0,0.0,11,maven-core\src\test\java\org\apache\maven\lifecycle\internal\stub\DefaultSchedulesStub.java,0,0,0,0
org.apache.maven.lifecycle.internal.stub.ExecutionEventCatapultStub, 0, 0, 0, 0, 0, 0, 0, 0, 0, 0, 0, 0, 0, 0,0.0,0.0,0.0,0.0,0.0,0.0,0.0,0.0,0.0,0.0,0.0,0.0,0.0,10,maven-core\src\test\java\org\apache\maven\lifecycle\internal\stub\ExecutionEventCatapultStub.java,0,0,0,0
org.apache.maven.lifecycle.internal.stub.LifeCyclePluginAnalyzerStub, 0, 0, 0, 0, 0, 0, 0, 0, 0, 0, 0, 0, 0, 0,0.0,0.0,0.0,0.0,0.0,0.0,0.0,0.0,0.0,0.0,0.0,0.0,0.0,37,maven-core\src\test\java\org\apache\maven\lifecycle\internal\stub\LifeCyclePluginAnalyzerStub.java,0,0,0,0
org.apache.maven.lifecycle.internal.stub.LifecycleExecutionPlanCalculatorStub, 0, 0, 0, 1, 0, 0, 0, 0, 0, 0, 0, 0, 0, 1,0.0,0.0,0.0,0.0,0.0,0.0,0.0,0.0,0.0,0.0,0.0,0.0,0.0,142,maven-core\src\test\java\org\apache\maven\lifecycle\internal\stub\LifecycleExecutionPlanCalculatorStub.java,0,0,0,0
org.apache.maven.lifecycle.internal.stub.LifecycleTaskSegmentCalculatorStub, 0, 0, 0, 0, 0, 0, 0, 0, 0, 0, 0, 0, 0, 0,0.0,0.0,0.0,0.0,0.0,0.0,0.0,0.0,0.0,0.0,0.0,0.0,0.0,42,maven-core\src\test\java\org\apache\maven\lifecycle\internal\stub\LifecycleTaskSegmentCalculatorStub.java,0,0,0,0
org.apache.maven.lifecycle.internal.stub.LoggerStub, 0, 0, 0, 1, 0, 0, 0, 0, 0, 0, 0, 0, 0, 1,0.0,0.0,0.0,0.0,0.0,0.0,0.0,0.0,0.0,0.0,0.0,0.0,0.0,69,maven-core\src\test\java\org\apache\maven\lifecycle\internal\stub\LoggerStub.java,0,0,0,0
org.apache.maven.lifecycle.internal.stub.MojoExecutorStub, 0, 0, 1, 0, 0, 0, 0, 1, 0, 0, 0, 0, 0, 2,0.0,0.0,0.0,0.0,0.0,0.0,0.0,0.0,0.0,0.0,0.0,0.0,0.0,30,maven-core\src\test\java\org\apache\maven\lifecycle\internal\stub\MojoExecutorStub.java,0,0,0,0
org.apache.maven.lifecycle.internal.stub.PluginPrefixResolverStub, 0, 0, 0, 0, 0, 0, 0, 0, 0, 0, 0, 0, 0, 0,0.0,0.0,0.0,0.0,0.0,0.0,0.0,0.0,0.0,0.0,0.0,0.0,0.0,23,maven-core\src\test\java\org\apache\maven\lifecycle\internal\stub\PluginPrefixResolverStub.java,0,0,0,0
org.apache.maven.lifecycle.internal.stub.PluginVersionResolverStub, 0, 0, 0, 0, 0, 0, 0, 0, 0, 0, 0, 0, 0, 0,0.0,0.0,0.0,0.0,0.0,0.0,0.0,0.0,0.0,0.0,0.0,0.0,0.0,19,maven-core\src\test\java\org\apache\maven\lifecycle\internal\stub\PluginVersionResolverStub.java,0,0,0,0
org.apache.maven.lifecycle.internal.stub.ProjectDependenciesResolverStub, 0, 0, 0, 0, 0, 0, 0, 1, 0, 0, 0, 0, 0, 1,0.0,0.0,0.0,0.0,0.0,0.0,0.0,0.0,0.0,0.0,0.0,0.0,0.0,59,maven-core\src\test\java\org\apache\maven\lifecycle\internal\stub\ProjectDependenciesResolverStub.java,0,0,0,0
org.apache.maven.lifecycle.internal.stub.ProjectDependencyGraphStub, 0, 0, 0, 1, 0, 0, 0, 0, 0, 0, 0, 0, 0, 1,0.0,0.0,0.0,0.0,0.0,0.0,0.0,0.0,0.0,0.0,0.0,0.0,0.0,139,maven-core\src\test\java\org\apache\maven\lifecycle\internal\stub\ProjectDependencyGraphStub.java,0,0,0,0
org.apache.maven.lifecycle.internal.stub.ProjectDependencyGraphStubTest, 0, 0, 0, 0, 0, 0, 0, 0, 0, 0, 0, 0, 0, 0,0.0,0.0,0.0,1.0,0.0,0.0,0.0,0.0,0.0,0.0,0.0,0.0,0.0,29,maven-core\src\test\java\org\apache\maven\lifecycle\internal\stub\ProjectDependencyGraphStubTest.java,0,0,0,0
org.apache.maven.lifecycle.test.App, 0, 0, 0, 0, 0, 0, 0, 0, 0, 0, 0, 0, 0, 0,0.0,0.0,0.0,0.0,0.0,0.0,0.0,0.0,0.0,0.0,0.0,0.0,0.0,7,maven-core\src\test\projects\lifecycle-executor\project-with-additional-lifecycle-elements\src\main\java\org\apache\maven\lifecycle\test\App.java,0,0,0,0
org.apache.maven.lifecycle.test.AppTest, 0, 0, 0, 0, 0, 0, 0, 0, 0, 0, 0, 0, 0, 0,0.0,0.0,0.0,0.0,0.0,0.0,0.0,0.0,0.0,0.0,0.0,0.0,0.0,16,maven-core\src\test\projects\lifecycle-executor\project-with-additional-lifecycle-elements\src\test\java\org\apache\maven\lifecycle\test\AppTest.java,0,0,0,0
org.apache.maven.model.ActivationFileTest, 0, 0, 0, 0, 0, 0, 0, 0, 0, 0, 0, 0, 0, 0,0.0,0.0,0.0,0.0,0.0,0.0,0.0,0.0,0.0,0.0,0.0,0.0,0.0,22,maven-model\src\test\java\org\apache\maven\model\ActivationFileTest.java,0,0,0,0
org.apache.maven.model.ActivationOSTest, 0, 0, 0, 0, 0, 0, 0, 0, 0, 0, 0, 0, 0, 0,0.0,0.0,0.0,0.0,0.0,0.0,0.0,0.0,0.0,0.0,0.0,0.0,0.0,22,maven-model\src\test\java\org\apache\maven\model\ActivationOSTest.java,0,0,0,0
org.apache.maven.model.ActivationPropertyTest, 0, 0, 0, 0, 0, 0, 0, 0, 0, 0, 0, 0, 0, 0,0.0,0.0,0.0,0.0,0.0,0.0,0.0,0.0,0.0,0.0,0.0,0.0,0.0,22,maven-model\src\test\java\org\apache\maven\model\ActivationPropertyTest.java,0,0,0,0
org.apache.maven.model.ActivationTest, 0, 0, 0, 0, 0, 0, 0, 0, 0, 0, 0, 0, 0, 0,0.0,0.0,0.0,0.0,0.0,0.0,0.0,0.0,0.0,0.0,0.0,0.0,0.0,22,maven-model\src\test\java\org\apache\maven\model\ActivationTest.java,0,0,0,0
org.apache.maven.model.BuildTest, 0, 0, 0, 0, 0, 0, 0, 0, 0, 0, 0, 0, 0, 0,0.0,0.0,0.0,0.0,0.0,0.0,0.0,0.0,0.0,0.0,0.0,0.0,0.0,22,maven-model\src\test\java\org\apache\maven\model\BuildTest.java,0,0,0,0
org.apache.maven.model.CiManagementTest, 0, 0, 0, 0, 0, 0, 0, 0, 0, 0, 0, 0, 0, 0,0.0,0.0,0.0,0.0,0.0,0.0,0.0,0.0,0.0,0.0,0.0,0.0,0.0,22,maven-model\src\test\java\org\apache\maven\model\CiManagementTest.java,0,0,0,0
org.apache.maven.model.ContributorTest, 0, 0, 0, 0, 0, 0, 0, 0, 0, 0, 0, 0, 0, 0,0.0,0.0,0.0,0.0,0.0,0.0,0.0,0.0,0.0,0.0,0.0,0.0,0.0,22,maven-model\src\test\java\org\apache\maven\model\ContributorTest.java,0,0,0,0
org.apache.maven.model.DependencyManagementTest, 0, 0, 0, 0, 0, 0, 0, 0, 0, 0, 0, 0, 0, 0,0.0,0.0,0.0,0.0,0.0,0.0,0.0,0.0,0.0,0.0,0.0,0.0,0.0,22,maven-model\src\test\java\org\apache\maven\model\DependencyManagementTest.java,0,0,0,0
org.apache.maven.model.DependencyTest, 0, 0, 0, 0, 0, 0, 0, 0, 0, 0, 0, 0, 0, 0,0.0,0.0,0.0,0.0,0.0,0.0,0.0,0.0,0.0,0.0,0.0,0.0,0.0,22,maven-model\src\test\java\org\apache\maven\model\DependencyTest.java,0,0,0,0
org.apache.maven.model.DeploymentRepositoryTest, 0, 0, 0, 0, 0, 0, 0, 0, 0, 0, 0, 0, 0, 0,0.0,0.0,0.0,0.0,0.0,0.0,0.0,0.0,0.0,0.0,0.0,0.0,0.0,22,maven-model\src\test\java\org\apache\maven\model\DeploymentRepositoryTest.java,0,0,0,0
org.apache.maven.model.DeveloperTest, 0, 0, 0, 0, 0, 0, 0, 0, 0, 0, 0, 0, 0, 0,0.0,0.0,0.0,0.0,0.0,0.0,0.0,0.0,0.0,0.0,0.0,0.0,0.0,22,maven-model\src\test\java\org\apache\maven\model\DeveloperTest.java,0,0,0,0
org.apache.maven.model.DistributionManagementTest, 0, 0, 0, 0, 0, 0, 0, 0, 0, 0, 0, 0, 0, 0,0.0,0.0,0.0,0.0,0.0,0.0,0.0,0.0,0.0,0.0,0.0,0.0,0.0,22,maven-model\src\test\java\org\apache\maven\model\DistributionManagementTest.java,0,0,0,0
org.apache.maven.model.ExclusionTest, 0, 0, 0, 0, 0, 0, 0, 0, 0, 0, 0, 0, 0, 0,0.0,0.0,0.0,0.0,0.0,0.0,0.0,0.0,0.0,0.0,0.0,0.0,0.0,22,maven-model\src\test\java\org\apache\maven\model\ExclusionTest.java,0,0,0,0
org.apache.maven.model.ExtensionTest, 0, 0, 0, 0, 0, 0, 0, 0, 0, 0, 0, 0, 0, 0,0.0,0.0,0.0,0.0,0.0,0.0,0.0,0.0,0.0,0.0,0.0,0.0,0.0,22,maven-model\src\test\java\org\apache\maven\model\ExtensionTest.java,0,0,0,0
org.apache.maven.model.IssueManagementTest, 0, 0, 0, 0, 0, 0, 0, 0, 0, 0, 0, 0, 0, 0,0.0,0.0,0.0,0.0,0.0,0.0,0.0,0.0,0.0,0.0,0.0,0.0,0.0,22,maven-model\src\test\java\org\apache\maven\model\IssueManagementTest.java,0,0,0,0
org.apache.maven.model.LicenseTest, 0, 0, 0, 0, 0, 0, 0, 0, 0, 0, 0, 0, 0, 0,0.0,0.0,0.0,0.0,0.0,0.0,0.0,0.0,0.0,0.0,0.0,0.0,0.0,22,maven-model\src\test\java\org\apache\maven\model\LicenseTest.java,0,0,0,0
org.apache.maven.model.MailingListTest, 0, 0, 0, 0, 0, 0, 0, 0, 0, 0, 0, 0, 0, 0,0.0,0.0,0.0,0.0,0.0,0.0,0.0,0.0,0.0,0.0,0.0,0.0,0.0,22,maven-model\src\test\java\org\apache\maven\model\MailingListTest.java,0,0,0,0
org.apache.maven.model.ModelTest, 0, 0, 0, 0, 0, 0, 0, 0, 0, 0, 0, 0, 0, 0,0.0,0.0,0.0,0.0,0.0,0.0,0.0,0.0,0.0,0.0,0.0,0.0,0.0,22,maven-model\src\test\java\org\apache\maven\model\ModelTest.java,0,0,0,0
org.apache.maven.model.NotifierTest, 0, 0, 0, 0, 0, 0, 0, 0, 0, 0, 0, 0, 0, 0,0.0,0.0,0.0,0.0,0.0,0.0,0.0,0.0,0.0,0.0,0.0,0.0,0.0,22,maven-model\src\test\java\org\apache\maven\model\NotifierTest.java,0,0,0,0
org.apache.maven.model.OrganizationTest, 0, 0, 0, 0, 0, 0, 0, 0, 0, 0, 0, 0, 0, 0,0.0,0.0,0.0,0.0,0.0,0.0,0.0,0.0,0.0,0.0,0.0,0.0,0.0,22,maven-model\src\test\java\org\apache\maven\model\OrganizationTest.java,0,0,0,0
org.apache.maven.model.ParentTest, 0, 0, 0, 0, 0, 0, 0, 0, 0, 0, 0, 0, 0, 0,0.0,0.0,0.0,0.0,0.0,0.0,0.0,0.0,0.0,0.0,0.0,0.0,0.0,22,maven-model\src\test\java\org\apache\maven\model\ParentTest.java,0,0,0,0
org.apache.maven.model.PluginConfigurationTest, 0, 0, 0, 0, 0, 0, 0, 0, 0, 0, 0, 0, 0, 0,0.0,0.0,0.0,0.0,0.0,0.0,0.0,0.0,0.0,0.0,0.0,0.0,0.0,22,maven-model\src\test\java\org\apache\maven\model\PluginConfigurationTest.java,0,0,0,0
org.apache.maven.model.PluginContainerTest, 0, 0, 0, 0, 0, 0, 0, 0, 0, 0, 0, 0, 0, 0,0.0,0.0,0.0,0.0,0.0,0.0,0.0,0.0,0.0,0.0,0.0,0.0,0.0,22,maven-model\src\test\java\org\apache\maven\model\PluginContainerTest.java,0,0,0,0
org.apache.maven.model.PluginExecutionTest, 0, 0, 0, 0, 0, 0, 0, 0, 0, 0, 0, 0, 0, 0,0.0,0.0,0.0,0.0,0.0,0.0,0.0,0.0,0.0,0.0,0.0,0.0,0.0,22,maven-model\src\test\java\org\apache\maven\model\PluginExecutionTest.java,0,0,0,0
org.apache.maven.model.PluginManagementTest, 0, 0, 0, 0, 0, 0, 0, 0, 0, 0, 0, 0, 0, 0,0.0,0.0,0.0,0.0,0.0,0.0,0.0,0.0,0.0,0.0,0.0,0.0,0.0,22,maven-model\src\test\java\org\apache\maven\model\PluginManagementTest.java,0,0,0,0
org.apache.maven.model.PluginTest, 0, 0, 0, 0, 0, 0, 0, 0, 0, 0, 0, 0, 0, 0,0.0,0.0,0.0,0.0,0.0,0.0,0.0,0.0,0.0,0.0,0.0,0.0,0.0,22,maven-model\src\test\java\org\apache\maven\model\PluginTest.java,0,0,0,0
org.apache.maven.model.PrerequisitesTest, 0, 0, 0, 0, 0, 0, 0, 0, 0, 0, 0, 0, 0, 0,0.0,0.0,0.0,0.0,0.0,0.0,0.0,0.0,0.0,0.0,0.0,0.0,0.0,22,maven-model\src\test\java\org\apache\maven\model\PrerequisitesTest.java,0,0,0,0
org.apache.maven.model.ProfileTest, 0, 0, 0, 0, 0, 0, 0, 0, 0, 0, 0, 0, 0, 0,0.0,0.0,0.0,0.0,0.0,0.0,0.0,0.0,0.0,0.0,0.0,0.0,0.0,22,maven-model\src\test\java\org\apache\maven\model\ProfileTest.java,0,0,0,0
org.apache.maven.model.RelocationTest, 0, 0, 0, 0, 0, 0, 0, 0, 0, 0, 0, 0, 0, 0,0.0,0.0,0.0,0.0,0.0,0.0,0.0,0.0,0.0,0.0,0.0,0.0,0.0,22,maven-model\src\test\java\org\apache\maven\model\RelocationTest.java,0,0,0,0
org.apache.maven.model.ReportPluginTest, 0, 0, 0, 0, 0, 0, 0, 0, 0, 0, 0, 0, 0, 0,0.0,0.0,0.0,0.0,0.0,0.0,0.0,0.0,0.0,0.0,0.0,0.0,0.0,22,maven-model\src\test\java\org\apache\maven\model\ReportPluginTest.java,0,0,0,0
org.apache.maven.model.ReportSetTest, 0, 0, 0, 0, 0, 0, 0, 0, 0, 0, 0, 0, 0, 0,0.0,0.0,0.0,0.0,0.0,0.0,0.0,0.0,0.0,0.0,0.0,0.0,0.0,22,maven-model\src\test\java\org\apache\maven\model\ReportSetTest.java,0,0,0,0
org.apache.maven.model.ReportingTest, 0, 0, 0, 0, 0, 0, 0, 0, 0, 0, 0, 0, 0, 0,0.0,0.0,0.0,0.0,0.0,0.0,0.0,0.0,0.0,0.0,0.0,0.0,0.0,22,maven-model\src\test\java\org\apache\maven\model\ReportingTest.java,0,0,0,0
org.apache.maven.model.RepositoryPolicyTest, 0, 0, 0, 0, 0, 0, 0, 0, 0, 0, 0, 0, 0, 0,0.0,0.0,0.0,0.0,0.0,0.0,0.0,0.0,0.0,0.0,0.0,0.0,0.0,22,maven-model\src\test\java\org\apache\maven\model\RepositoryPolicyTest.java,0,0,0,0
org.apache.maven.model.RepositoryTest, 0, 0, 0, 0, 0, 0, 0, 0, 0, 0, 0, 0, 0, 0,0.0,0.0,0.0,0.0,0.0,0.0,0.0,0.0,0.0,0.0,0.0,0.0,0.0,22,maven-model\src\test\java\org\apache\maven\model\RepositoryTest.java,0,0,0,0
org.apache.maven.model.ResourceTest, 0, 0, 0, 0, 0, 0, 0, 0, 0, 0, 0, 0, 0, 0,0.0,0.0,0.0,0.0,0.0,0.0,0.0,0.0,0.0,0.0,0.0,0.0,0.0,22,maven-model\src\test\java\org\apache\maven\model\ResourceTest.java,0,0,0,0
org.apache.maven.model.ScmTest, 0, 0, 0, 0, 0, 0, 0, 0, 0, 0, 0, 0, 0, 0,0.0,0.0,0.0,0.0,0.0,0.0,0.0,0.0,0.0,0.0,0.0,0.0,0.0,22,maven-model\src\test\java\org\apache\maven\model\ScmTest.java,0,0,0,0
org.apache.maven.model.SiteTest, 0, 0, 0, 0, 0, 0, 0, 0, 0, 0, 0, 0, 0, 0,0.0,0.0,0.0,0.0,0.0,0.0,0.0,0.0,0.0,0.0,0.0,0.0,0.0,22,maven-model\src\test\java\org\apache\maven\model\SiteTest.java,0,0,0,0
org.apache.maven.model.building.AbstractModelBuildingListener, 0, 0, 0, 0, 0, 0, 0, 0, 0, 0, 0, 0, 0, 0,0.0,0.0,0.0,0.0,0.0,0.0,0.0,0.0,0.0,0.0,0.0,0.0,0.0,7,maven-model-builder\src\main\java\org\apache\maven\model\building\AbstractModelBuildingListener.java,0,0,0,0
org.apache.maven.model.building.DefaultModelBuilderFactory, 0, 0, 0, 1, 0, 0, 0, 0, 0, 0, 0, 0, 0, 1,0.0,0.0,0.0,0.0,0.0,0.0,0.0,0.0,0.0,0.0,0.0,0.0,0.0,131,maven-model-builder\src\main\java\org\apache\maven\model\building\DefaultModelBuilderFactory.java,0,0,0,0
org.apache.maven.model.building.DefaultModelBuilderFactoryTest, 0, 0, 0, 0, 0, 0, 0, 0, 0, 0, 0, 0, 0, 0,0.0,0.0,0.0,1.0,0.0,0.0,0.0,0.0,0.0,0.0,0.0,0.0,0.0,21,maven-model-builder\src\test\java\org\apache\maven\model\building\DefaultModelBuilderFactoryTest.java,0,0,0,0
org.apache.maven.model.building.DefaultModelBuildingEvent, 0, 0, 0, 0, 0, 0, 0, 0, 0, 0, 0, 0, 0, 0,0.0,0.0,0.0,0.0,0.0,0.0,0.0,0.0,0.0,0.0,0.0,0.0,0.0,25,maven-model-builder\src\main\java\org\apache\maven\model\building\DefaultModelBuildingEvent.java,0,0,0,0
org.apache.maven.model.building.DefaultModelProblemCollector, 0, 0, 0, 1, 0, 0, 0, 0, 0, 0, 0, 0, 0, 1,0.0,0.0,0.0,0.0,0.0,0.0,0.0,0.0,0.0,0.0,0.0,0.0,0.0,110,maven-model-builder\src\main\java\org\apache\maven\model\building\DefaultModelProblemCollector.java,1,18,2,23
org.apache.maven.model.building.FileModelSource, 0, 0, 0, 0, 0, 0, 0, 0, 0, 0, 0, 0, 0, 0,0.0,0.0,0.0,0.5,0.0,0.0,0.0,1.0,0.0,0.0,0.0,0.0,0.0,31,maven-model-builder\src\main\java\org\apache\maven\model\building\FileModelSource.java,0,0,0,0
org.apache.maven.model.building.FilterModelBuildingRequest, 0, 0, 0, 1, 0, 0, 0, 0, 0, 0, 0, 0, 0, 1,0.0,0.0,0.0,0.0,0.0,0.0,0.0,0.0,0.0,0.0,0.0,0.0,0.0,144,maven-model-builder\src\main\java\org\apache\maven\model\building\FilterModelBuildingRequest.java,0,0,0,0
org.apache.maven.model.building.ModelBuilder, 0, 0, 0, 0, 0, 0, 0, 0, 0, 0, 0, 0, 0, 0,0.0,0.0,0.0,0.0,0.0,0.0,0.0,0.0,0.0,0.0,0.0,0.0,0.0,144,maven-model-builder\src\main\java\org\apache\maven\model\building\ModelBuilder.java,0,0,0,0
org.apache.maven.model.building.ModelBuildingEvent, 0, 0, 0, 0, 0, 0, 0, 0, 0, 0, 0, 0, 0, 0,0.0,0.0,0.0,0.0,0.0,0.0,0.0,0.0,0.0,0.0,0.0,0.0,0.0,144,maven-model-builder\src\main\java\org\apache\maven\model\building\ModelBuildingEvent.java,0,0,0,0
org.apache.maven.model.building.ModelBuildingEventCatapult, 0, 0, 0, 0, 0, 0, 0, 0, 0, 0, 0, 0, 0, 0,0.0,0.0,0.0,0.0,0.0,0.0,0.0,0.0,0.0,0.0,0.0,0.0,0.0,144,maven-model-builder\src\main\java\org\apache\maven\model\building\ModelBuildingEventCatapult.java,0,0,1,2
org.apache.maven.model.building.ModelBuildingException, 0, 0, 0, 0, 0, 0, 0, 0, 0, 0, 0, 0, 0, 0,0.0,0.0,0.0,0.0,0.0,0.0,0.0,0.0,0.0,0.0,0.0,0.0,0.0,54,maven-model-builder\src\main\java\org\apache\maven\model\building\ModelBuildingException.java,2,43,11,67
org.apache.maven.model.building.ModelBuildingListener, 0, 0, 0, 0, 0, 0, 0, 0, 0, 0, 0, 0, 0, 0,0.0,0.0,0.0,0.0,0.0,0.0,0.0,0.0,0.0,0.0,0.0,0.0,0.0,54,maven-model-builder\src\main\java\org\apache\maven\model\building\ModelBuildingListener.java,0,0,0,0
org.apache.maven.model.building.ModelBuildingRequest, 0, 0, 0, 0, 0, 0, 0, 0, 0, 0, 0, 0, 0, 0,0.0,0.0,0.0,0.0,0.0,0.0,0.0,0.0,0.0,0.0,0.0,0.0,0.0,54,maven-model-builder\src\main\java\org\apache\maven\model\building\ModelBuildingRequest.java,0,0,0,0
org.apache.maven.model.building.ModelBuildingResult, 0, 0, 0, 0, 0, 0, 0, 0, 0, 0, 0, 0, 0, 0,0.0,0.0,0.0,0.0,0.0,0.0,0.0,0.0,0.0,0.0,0.0,0.0,0.0,54,maven-model-builder\src\main\java\org\apache\maven\model\building\ModelBuildingResult.java,0,0,0,0
org.apache.maven.model.building.ModelCache, 0, 0, 0, 0, 0, 0, 0, 0, 0, 0, 0, 0, 0, 0,0.0,0.0,0.0,0.0,0.0,0.0,0.0,0.0,0.0,0.0,0.0,0.0,0.0,54,maven-model-builder\src\main\java\org\apache\maven\model\building\ModelCache.java,0,0,0,0
org.apache.maven.model.building.ModelCacheTag, 0, 0, 0, 0, 0, 0, 0, 0, 0, 0, 0, 0, 0, 0,0.0,0.0,0.0,0.0,0.0,0.0,0.0,0.0,0.0,0.0,0.0,0.0,0.0,54,maven-model-builder\src\main\java\org\apache\maven\model\building\ModelCacheTag.java,0,0,0,0
org.apache.maven.model.building.ModelProblem, 0, 0, 0, 0, 0, 0, 0, 0, 0, 0, 0, 0, 0, 0,0.0,0.0,0.0,0.0,0.0,0.0,0.0,0.0,0.0,0.0,0.0,0.0,0.0,54,maven-model-builder\src\main\java\org\apache\maven\model\building\ModelProblem.java,0,0,0,0
org.apache.maven.model.building.ModelProblemCollector, 0, 0, 0, 0, 0, 0, 0, 0, 0, 0, 0, 0, 0, 0,0.0,0.0,0.0,0.0,0.0,0.0,0.0,0.0,0.0,0.0,0.0,0.0,0.0,54,maven-model-builder\src\main\java\org\apache\maven\model\building\ModelProblemCollector.java,0,0,0,0
org.apache.maven.model.building.ModelProcessor, 0, 0, 0, 0, 0, 0, 0, 0, 0, 0, 0, 0, 0, 0,0.0,0.0,0.0,0.0,0.0,0.0,0.0,0.0,0.0,0.0,0.0,0.0,0.0,54,maven-model-builder\src\main\java\org\apache\maven\model\building\ModelProcessor.java,0,0,0,0
org.apache.maven.model.building.ModelSource, 0, 0, 0, 0, 0, 0, 0, 0, 0, 0, 0, 0, 0, 0,0.0,0.0,0.0,0.0,0.0,0.0,0.0,0.0,0.0,0.0,0.0,0.0,0.0,54,maven-model-builder\src\main\java\org\apache\maven\model\building\ModelSource.java,0,0,0,0
org.apache.maven.model.building.SimpleProblemCollector, 0, 0, 0, 0, 0, 0, 0, 0, 0, 0, 0, 0, 0, 0,0.0,0.0,0.0,0.0,0.0,0.0,0.0,0.0,0.0,0.0,0.0,0.0,0.0,34,maven-model-builder\src\test\java\org\apache\maven\model\building\SimpleProblemCollector.java,0,0,0,0
org.apache.maven.model.building.UrlModelSource, 0, 0, 0, 0, 0, 0, 0, 0, 0, 0, 0, 0, 0, 0,0.0,0.0,0.0,0.0,0.0,0.0,0.0,0.0,0.0,0.0,0.0,0.0,0.0,31,maven-model-builder\src\main\java\org\apache\maven\model\building\UrlModelSource.java,0,0,0,0
org.apache.maven.model.composition.DependencyManagementImporter, 0, 0, 0, 0, 0, 0, 0, 0, 0, 0, 0, 0, 0, 0,0.0,0.0,0.0,0.0,0.0,0.0,0.0,0.0,0.0,0.0,0.0,0.0,0.0,31,maven-model-builder\src\main\java\org\apache\maven\model\composition\DependencyManagementImporter.java,0,0,0,0
org.apache.maven.model.inheritance.InheritanceAssembler, 0, 0, 0, 0, 0, 0, 0, 0, 0, 0, 0, 0, 0, 0,0.0,0.0,0.0,0.0,0.0,0.0,0.0,0.0,0.0,0.0,0.0,0.0,0.0,31,maven-model-builder\src\main\java\org\apache\maven\model\inheritance\InheritanceAssembler.java,0,0,0,0
org.apache.maven.model.interpolation.BuildTimestampValueSource, 0, 0, 0, 0, 0, 0, 0, 0, 0, 0, 0, 0, 0, 0,0.0,0.0,0.0,0.0,0.0,0.0,0.0,0.0,0.0,0.0,0.0,0.0,0.0,25,maven-model-builder\src\main\java\org\apache\maven\model\interpolation\BuildTimestampValueSource.java,0,0,0,0
org.apache.maven.model.interpolation.ModelInterpolator, 0, 0, 0, 0, 0, 0, 0, 0, 0, 0, 0, 0, 0, 0,0.0,0.0,0.0,0.0,0.0,0.0,0.0,0.0,0.0,0.0,0.0,0.0,0.0,25,maven-model-builder\src\main\java\org\apache\maven\model\interpolation\ModelInterpolator.java,0,0,0,0
org.apache.maven.model.interpolation.PathTranslatingPostProcessor, 0, 0, 0, 0, 0, 0, 0, 0, 0, 0, 0, 0, 0, 0,0.0,0.0,0.0,0.0,0.0,0.0,0.0,0.0,0.0,0.0,0.0,0.0,0.0,28,maven-model-builder\src\main\java\org\apache\maven\model\interpolation\PathTranslatingPostProcessor.java,0,0,0,0
org.apache.maven.model.interpolation.ProblemDetectingValueSource, 0, 0, 0, 0, 0, 0, 0, 0, 0, 0, 0, 0, 0, 0,0.0,0.0,0.0,0.0,0.0,0.0,0.0,0.0,0.0,0.0,0.0,0.0,0.0,39,maven-model-builder\src\main\java\org\apache\maven\model\interpolation\ProblemDetectingValueSource.java,0,0,0,0
org.apache.maven.model.interpolation.UrlNormalizingPostProcessor, 0, 0, 0, 0, 0, 0, 0, 0, 0, 0, 0, 0, 0, 0,0.0,0.0,0.0,0.0,0.0,0.0,0.0,0.0,0.0,0.0,0.0,0.0,0.0,28,maven-model-builder\src\main\java\org\apache\maven\model\interpolation\UrlNormalizingPostProcessor.java,0,0,3,6
org.apache.maven.model.io.ModelParseException, 0, 0, 0, 0, 0, 0, 0, 0, 0, 0, 0, 0, 0, 0,0.0,0.0,0.0,1.0,0.0,0.0,0.0,0.0,0.0,0.0,0.0,0.0,0.0,27,maven-model-builder\src\main\java\org\apache\maven\model\io\ModelParseException.java,0,0,0,0
org.apache.maven.model.locator.DefaultModelLocator, 0, 0, 0, 0, 0, 0, 0, 0, 0, 0, 0, 0, 0, 0,0.0,0.0,0.0,0.0,0.0,0.0,0.0,0.0,0.0,0.0,0.0,0.0,0.0,8,maven-model-builder\src\main\java\org\apache\maven\model\locator\DefaultModelLocator.java,0,0,0,0
org.apache.maven.model.locator.ModelLocator, 0, 0, 0, 0, 0, 0, 0, 0, 0, 0, 0, 0, 0, 0,0.0,0.0,0.0,0.0,0.0,0.0,0.0,0.0,0.0,0.0,0.0,0.0,0.0,8,maven-model-builder\src\main\java\org\apache\maven\model\locator\ModelLocator.java,0,0,0,0
org.apache.maven.model.management.DependencyManagementInjector, 0, 0, 0, 0, 0, 0, 0, 0, 0, 0, 0, 0, 0, 0,0.0,0.0,0.0,0.0,0.0,0.0,0.0,0.0,0.0,0.0,0.0,0.0,0.0,8,maven-model-builder\src\main\java\org\apache\maven\model\management\DependencyManagementInjector.java,0,0,0,0
org.apache.maven.model.management.PluginManagementInjector, 0, 0, 0, 0, 0, 0, 0, 0, 0, 0, 0, 0, 0, 0,0.0,0.0,0.0,0.0,0.0,0.0,0.0,0.0,0.0,0.0,0.0,0.0,0.0,8,maven-model-builder\src\main\java\org\apache\maven\model\management\PluginManagementInjector.java,0,0,0,0
org.apache.maven.model.normalization.ModelNormalizer, 0, 0, 0, 0, 0, 0, 0, 0, 0, 0, 0, 0, 0, 0,0.0,0.0,0.0,0.0,0.0,0.0,0.0,0.0,0.0,0.0,0.0,0.0,0.0,8,maven-model-builder\src\main\java\org\apache\maven\model\normalization\ModelNormalizer.java,0,0,0,0
org.apache.maven.model.path.DefaultModelPathTranslator, 0, 0, 0, 0, 0, 0, 0, 0, 0, 0, 0, 0, 0, 0,0.0,0.0,0.0,1.0,0.0,0.0,0.0,0.0,0.0,0.0,0.0,0.0,0.0,54,maven-model-builder\src\main\java\org\apache\maven\model\path\DefaultModelPathTranslator.java,0,0,0,0
org.apache.maven.model.path.DefaultModelUrlNormalizer, 0, 0, 0, 0, 0, 0, 0, 0, 0, 0, 0, 0, 0, 0,0.0,0.0,0.0,1.0,0.0,0.0,0.0,0.0,0.0,0.0,0.0,0.0,0.0,39,maven-model-builder\src\main\java\org\apache\maven\model\path\DefaultModelUrlNormalizer.java,0,0,0,0
org.apache.maven.model.path.DefaultPathTranslator, 0, 0, 0, 0, 0, 0, 0, 0, 0, 0, 0, 0, 0, 0,0.0,0.0,0.0,0.0,0.0,0.0,0.0,0.0,0.0,0.0,0.0,0.0,0.0,26,maven-model-builder\src\main\java\org\apache\maven\model\path\DefaultPathTranslator.java,0,0,0,0
org.apache.maven.model.path.DefaultUrlNormalizer, 0, 0, 0, 0, 0, 0, 0, 0, 0, 0, 0, 0, 0, 0,0.0,0.0,0.0,0.0,0.0,0.0,0.0,0.0,0.0,0.0,0.0,0.0,0.0,31,maven-model-builder\src\main\java\org\apache\maven\model\path\DefaultUrlNormalizer.java,0,0,0,0
org.apache.maven.model.path.DefaultUrlNormalizerTest, 0, 0, 0, 0, 0, 0, 0, 0, 0, 0, 0, 0, 0, 0,0.0,0.0,0.0,0.0,0.0,0.0,0.0,0.0,0.0,0.0,0.0,0.0,0.0,47,maven-model-builder\src\test\java\org\apache\maven\model\path\DefaultUrlNormalizerTest.java,0,0,0,0
org.apache.maven.model.path.ModelPathTranslator, 0, 0, 0, 0, 0, 0, 0, 0, 0, 0, 0, 0, 0, 0,0.0,0.0,0.0,0.0,0.0,0.0,0.0,0.0,0.0,0.0,0.0,0.0,0.0,47,maven-model-builder\src\main\java\org\apache\maven\model\path\ModelPathTranslator.java,0,0,0,0
org.apache.maven.model.path.ModelUrlNormalizer, 0, 0, 0, 0, 0, 0, 0, 0, 0, 0, 0, 0, 0, 0,0.0,0.0,0.0,0.0,0.0,0.0,0.0,0.0,0.0,0.0,0.0,0.0,0.0,47,maven-model-builder\src\main\java\org\apache\maven\model\path\ModelUrlNormalizer.java,0,0,0,0
org.apache.maven.model.path.PathTranslator, 0, 0, 0, 0, 0, 0, 0, 0, 0, 0, 0, 0, 0, 0,0.0,0.0,0.0,0.0,0.0,0.0,0.0,0.0,0.0,0.0,0.0,0.0,0.0,47,maven-model-builder\src\main\java\org\apache\maven\model\path\PathTranslator.java,0,0,0,0
org.apache.maven.model.path.UrlNormalizer, 0, 0, 0, 0, 0, 0, 0, 0, 0, 0, 0, 0, 0, 0,0.0,0.0,0.0,0.0,0.0,0.0,0.0,0.0,0.0,0.0,0.0,0.0,0.0,47,maven-model-builder\src\main\java\org\apache\maven\model\path\UrlNormalizer.java,0,0,0,0
org.apache.maven.model.plugin.DefaultPluginConfigurationExpander, 0, 0, 0, 0, 0, 0, 0, 0, 0, 0, 0, 0, 0, 0,0.0,0.0,0.0,0.0,0.0,0.0,0.0,0.0,0.0,0.0,0.0,0.0,0.0,34,maven-model-builder\src\main\java\org\apache\maven\model\plugin\DefaultPluginConfigurationExpander.java,0,0,0,0
org.apache.maven.model.plugin.DefaultReportConfigurationExpander, 0, 0, 0, 0, 0, 0, 0, 0, 0, 0, 0, 0, 0, 0,0.0,0.0,0.0,0.0,0.0,0.0,0.0,0.0,0.0,0.0,0.0,0.0,0.0,24,maven-model-builder\src\main\java\org\apache\maven\model\plugin\DefaultReportConfigurationExpander.java,0,0,0,0
org.apache.maven.model.plugin.DefaultReportingConverter, 0, 0, 0, 0, 0, 0, 0, 0, 0, 0, 0, 0, 0, 0,0.0,0.0,0.0,0.0,0.0,0.0,0.0,0.0,0.0,0.0,0.0,0.0,0.0,159,maven-model-builder\src\main\java\org\apache\maven\model\plugin\DefaultReportingConverter.java,0,0,2,4
org.apache.maven.model.plugin.LifecycleBindingsInjector, 0, 0, 0, 0, 0, 0, 0, 0, 0, 0, 0, 0, 0, 0,0.0,0.0,0.0,0.0,0.0,0.0,0.0,0.0,0.0,0.0,0.0,0.0,0.0,159,maven-model-builder\src\main\java\org\apache\maven\model\plugin\LifecycleBindingsInjector.java,0,0,0,0
org.apache.maven.model.plugin.PluginConfigurationExpander, 0, 0, 0, 0, 0, 0, 0, 0, 0, 0, 0, 0, 0, 0,0.0,0.0,0.0,0.0,0.0,0.0,0.0,0.0,0.0,0.0,0.0,0.0,0.0,159,maven-model-builder\src\main\java\org\apache\maven\model\plugin\PluginConfigurationExpander.java,0,0,0,0
org.apache.maven.model.plugin.ReportConfigurationExpander, 0, 0, 0, 0, 0, 0, 0, 0, 0, 0, 0, 0, 0, 0,0.0,0.0,0.0,0.0,0.0,0.0,0.0,0.0,0.0,0.0,0.0,0.0,0.0,159,maven-model-builder\src\main\java\org\apache\maven\model\plugin\ReportConfigurationExpander.java,0,0,0,0
org.apache.maven.model.plugin.ReportingConverter, 0, 0, 0, 0, 0, 0, 0, 0, 0, 0, 0, 0, 0, 0,0.0,0.0,0.0,0.0,0.0,0.0,0.0,0.0,0.0,0.0,0.0,0.0,0.0,159,maven-model-builder\src\main\java\org\apache\maven\model\plugin\ReportingConverter.java,0,0,0,0
org.apache.maven.model.profile.DefaultProfileSelector, 0, 0, 0, 0, 0, 0, 0, 0, 0, 0, 0, 0, 0, 0,0.0,0.0,0.0,1.0,0.0,0.0,0.0,0.0,0.0,0.0,0.0,0.0,0.0,78,maven-model-builder\src\main\java\org\apache\maven\model\profile\DefaultProfileSelector.java,0,0,0,0
org.apache.maven.model.profile.ProfileInjector, 0, 0, 0, 0, 0, 0, 0, 0, 0, 0, 0, 0, 0, 0,0.0,0.0,0.0,0.0,0.0,0.0,0.0,0.0,0.0,0.0,0.0,0.0,0.0,78,maven-model-builder\src\main\java\org\apache\maven\model\profile\ProfileInjector.java,0,0,0,0
org.apache.maven.model.profile.ProfileSelector, 0, 0, 0, 0, 0, 0, 0, 0, 0, 0, 0, 0, 0, 0,0.0,0.0,0.0,0.0,0.0,0.0,0.0,0.0,0.0,0.0,0.0,0.0,0.0,78,maven-model-builder\src\main\java\org\apache\maven\model\profile\ProfileSelector.java,0,0,0,0
org.apache.maven.model.profile.activation.FileProfileActivator, 0, 0, 0, 0, 0, 0, 0, 0, 0, 0, 0, 0, 0, 0,0.0,0.0,0.0,1.0,0.0,0.0,0.0,0.0,0.0,0.0,0.0,0.0,0.0,80,maven-model-builder\src\main\java\org\apache\maven\model\profile\activation\FileProfileActivator.java,0,0,0,0
org.apache.maven.model.profile.activation.OperatingSystemProfileActivator, 0, 0, 0, 0, 0, 0, 0, 0, 0, 0, 0, 0, 0, 0,0.0,0.0,0.0,0.0,0.0,0.0,0.0,0.0,0.0,0.0,0.0,0.0,0.0,114,maven-model-builder\src\main\java\org\apache\maven\model\profile\activation\OperatingSystemProfileActivator.java,0,0,0,0
org.apache.maven.model.profile.activation.ProfileActivator, 0, 0, 0, 0, 0, 0, 0, 0, 0, 0, 0, 0, 0, 0,0.0,0.0,0.0,0.0,0.0,0.0,0.0,0.0,0.0,0.0,0.0,0.0,0.0,114,maven-model-builder\src\main\java\org\apache\maven\model\profile\activation\ProfileActivator.java,0,0,0,0
org.apache.maven.model.profile.activation.PropertyProfileActivator, 0, 0, 0, 0, 0, 0, 0, 0, 0, 0, 0, 0, 0, 0,0.0,0.0,0.0,0.0,0.0,0.0,0.0,0.0,0.0,0.0,0.0,0.0,0.0,66,maven-model-builder\src\main\java\org\apache\maven\model\profile\activation\PropertyProfileActivator.java,0,0,0,0
org.apache.maven.model.resolution.InvalidRepositoryException, 0, 0, 0, 0, 0, 0, 0, 0, 0, 0, 0, 0, 0, 0,0.0,0.0,0.0,0.0,0.0,0.0,0.0,0.0,0.0,0.0,0.0,0.0,0.0,19,maven-model-builder\src\main\java\org\apache\maven\model\resolution\InvalidRepositoryException.java,0,0,0,0
org.apache.maven.model.resolution.ModelResolver, 0, 0, 0, 0, 0, 0, 0, 0, 0, 0, 0, 0, 0, 0,0.0,0.0,0.0,0.0,0.0,0.0,0.0,0.0,0.0,0.0,0.0,0.0,0.0,19,maven-model-builder\src\main\java\org\apache\maven\model\resolution\ModelResolver.java,0,0,0,0
org.apache.maven.model.resolution.UnresolvableModelException, 0, 0, 0, 0, 0, 0, 0, 1, 0, 0, 0, 0, 0, 1,0.0,0.0,0.0,0.5,0.0,0.0,0.0,1.0,0.0,0.0,0.0,0.0,0.0,34,maven-model-builder\src\main\java\org\apache\maven\model\resolution\UnresolvableModelException.java,0,0,0,0
org.apache.maven.model.superpom.SuperPomProvider, 0, 0, 0, 0, 0, 0, 0, 0, 0, 0, 0, 0, 0, 0,0.0,0.0,0.0,0.0,0.0,0.0,0.0,0.0,0.0,0.0,0.0,0.0,0.0,34,maven-model-builder\src\main\java\org\apache\maven\model\superpom\SuperPomProvider.java,0,0,0,0
org.apache.maven.model.validation.ModelValidator, 0, 0, 0, 0, 0, 0, 0, 0, 0, 0, 0, 0, 0, 0,0.0,0.0,0.0,0.0,0.0,0.0,0.0,0.0,0.0,0.0,0.0,0.0,0.0,34,maven-model-builder\src\main\java\org\apache\maven\model\validation\ModelValidator.java,0,0,0,0
org.apache.maven.monitor.event.EventDispatcher, 0, 0, 0, 0, 0, 0, 0, 0, 0, 0, 0, 0, 0, 0,0.0,0.0,0.0,0.0,0.0,0.0,0.0,0.0,0.0,0.0,0.0,0.0,0.0,34,maven-core\src\main\java\org\apache\maven\monitor\event\EventDispatcher.java,0,0,0,0
org.apache.maven.monitor.event.EventMonitor, 0, 0, 0, 0, 0, 0, 0, 0, 0, 0, 0, 0, 0, 0,0.0,0.0,0.0,0.0,0.0,0.0,0.0,0.0,0.0,0.0,0.0,0.0,0.0,34,maven-core\src\main\java\org\apache\maven\monitor\event\EventMonitor.java,0,0,0,0
org.apache.maven.plugin.AbstractMojoExecutionException, 0, 0, 0, 0, 0, 0, 0, 0, 0, 0, 0, 0, 0, 0,0.0,0.0,0.0,0.0,0.0,0.0,0.0,0.0,0.0,0.0,0.0,0.0,0.0,22,maven-plugin-api\src\main\java\org\apache\maven\plugin\AbstractMojoExecutionException.java,0,0,0,0
org.apache.maven.plugin.BuildPluginManager, 0, 0, 0, 0, 0, 0, 0, 0, 0, 0, 0, 0, 0, 0,0.0,0.0,0.0,0.0,0.0,0.0,0.0,0.0,0.0,0.0,0.0,0.0,0.0,22,maven-core\src\main\java\org\apache\maven\plugin\BuildPluginManager.java,0,0,0,0
org.apache.maven.plugin.CacheUtils, 0, 0, 0, 0, 0, 0, 0, 0, 0, 0, 0, 0, 0, 0,0.0,0.0,0.0,0.0,0.0,0.0,0.0,0.0,0.0,0.0,0.0,0.0,0.0,142,maven-core\src\main\java\org\apache\maven\plugin\CacheUtils.java,0,0,0,0
org.apache.maven.plugin.CycleDetectedInPluginGraphException, 0, 0, 0, 0, 0, 0, 0, 0, 0, 0, 0, 0, 0, 0,0.0,0.0,0.0,0.0,0.0,0.0,0.0,0.0,0.0,0.0,0.0,0.0,0.0,14,maven-core\src\main\java\org\apache\maven\plugin\CycleDetectedInPluginGraphException.java,0,0,0,0
org.apache.maven.plugin.DefaultBuildPluginManager, 0, 0, 0, 0, 0, 0, 0, 0, 0, 0, 0, 0, 0, 0,0.0,0.0,0.0,0.25,0.0,0.0,0.0,0.0,0.0,0.0,0.0,0.0,0.0,106,maven-core\src\main\java\org\apache\maven\plugin\DefaultBuildPluginManager.java,0,0,0,0
org.apache.maven.plugin.ExtensionRealmCache, 0, 0, 0, 0, 0, 0, 0, 0, 0, 0, 0, 0, 0, 0,0.0,0.0,0.0,0.0,0.0,0.0,0.0,0.0,0.0,0.0,0.0,0.0,0.0,106,maven-core\src\main\java\org\apache\maven\plugin\ExtensionRealmCache.java,0,0,0,0
org.apache.maven.plugin.InvalidPluginException, 0, 0, 0, 0, 0, 0, 0, 0, 0, 0, 0, 0, 0, 0,0.0,0.0,0.0,0.0,0.0,0.0,0.0,0.0,0.0,0.0,0.0,0.0,0.0,16,maven-core\src\main\java\org\apache\maven\plugin\InvalidPluginException.java,0,0,0,0
org.apache.maven.plugin.LegacySupport, 0, 0, 0, 0, 0, 0, 0, 0, 0, 0, 0, 0, 0, 0,0.0,0.0,0.0,0.0,0.0,0.0,0.0,0.0,0.0,0.0,0.0,0.0,0.0,16,maven-core\src\main\java\org\apache\maven\plugin\LegacySupport.java,0,0,0,0
org.apache.maven.plugin.MavenPluginManager, 0, 0, 0, 0, 0, 0, 0, 0, 0, 0, 0, 0, 0, 0,0.0,0.0,0.0,0.0,0.0,0.0,0.0,0.0,0.0,0.0,0.0,0.0,0.0,16,maven-core\src\main\java\org\apache\maven\plugin\MavenPluginManager.java,0,0,0,0
org.apache.maven.plugin.MavenPluginValidator, 0, 0, 0, 0, 0, 0, 0, 0, 0, 0, 0, 0, 0, 0,0.0,0.0,0.0,0.0,0.0,0.0,0.0,0.0,0.0,0.0,0.0,0.0,0.0,38,maven-core\src\main\java\org\apache\maven\plugin\MavenPluginValidator.java,0,0,0,0
org.apache.maven.plugin.Mojo, 0, 0, 0, 0, 0, 0, 0, 0, 0, 0, 0, 0, 0, 0,0.0,0.0,0.0,0.0,0.0,0.0,0.0,0.0,0.0,0.0,0.0,0.0,0.0,38,maven-core\src\main\java\org\apache\maven\plugin\MojoExecution.java,0,0,0,0
org.apache.maven.plugin.MojoExecutionException, 0, 0, 0, 0, 0, 0, 0, 0, 0, 0, 0, 0, 0, 0,0.0,0.0,0.0,0.0,0.0,0.0,0.0,0.0,0.0,0.0,0.0,0.0,0.0,22,maven-plugin-api\src\main\java\org\apache\maven\plugin\MojoExecutionException.java,0,0,0,0
org.apache.maven.plugin.MojoFailureException, 0, 0, 0, 0, 0, 0, 0, 0, 0, 0, 0, 0, 0, 0,0.0,0.0,0.0,0.0,0.0,0.0,0.0,0.0,0.0,0.0,0.0,0.0,0.0,18,maven-plugin-api\src\main\java\org\apache\maven\plugin\MojoFailureException.java,0,0,0,0
org.apache.maven.plugin.PluginArtifactsCache, 0, 0, 0, 0, 0, 0, 0, 0, 0, 0, 0, 0, 0, 0,0.0,0.0,0.0,0.0,0.0,0.0,0.0,0.0,0.0,0.0,0.0,0.0,0.0,18,maven-core\src\main\java\org\apache\maven\plugin\PluginArtifactsCache.java,0,0,0,0
org.apache.maven.plugin.PluginConfigurationException, 0, 0, 0, 0, 0, 0, 0, 0, 0, 0, 0, 0, 0, 0,0.0,0.0,0.0,0.0,0.0,0.0,0.0,0.0,0.0,0.0,0.0,0.0,0.0,39,maven-core\src\main\java\org\apache\maven\plugin\PluginConfigurationException.java,0,0,0,0
org.apache.maven.plugin.PluginContainerException, 0, 0, 0, 0, 0, 0, 0, 0, 0, 0, 0, 0, 0, 0,0.0,0.0,0.0,0.5,0.0,0.0,0.0,0.0,0.0,0.0,0.0,0.0,0.0,37,maven-core\src\main\java\org\apache\maven\plugin\PluginContainerException.java,0,0,0,0
org.apache.maven.plugin.PluginDescriptorCache, 0, 0, 0, 0, 0, 0, 0, 0, 0, 0, 0, 0, 0, 0,0.0,0.0,0.0,0.0,0.0,0.0,0.0,0.0,0.0,0.0,0.0,0.0,0.0,37,maven-core\src\main\java\org\apache\maven\plugin\PluginDescriptorCache.java,0,0,0,0
org.apache.maven.plugin.PluginDescriptorParsingException, 0, 0, 0, 0, 0, 0, 0, 0, 0, 0, 0, 0, 0, 0,0.0,0.0,0.0,0.0,0.0,0.0,0.0,0.0,0.0,0.0,0.0,0.0,0.0,25,maven-core\src\main\java\org\apache\maven\plugin\PluginDescriptorParsingException.java,0,0,0,0
org.apache.maven.plugin.PluginExecutionException, 0, 0, 0, 0, 0, 0, 0, 0, 0, 0, 0, 0, 0, 0,0.0,0.0,0.0,0.3333333333333333,0.0,0.0,0.0,0.0,0.0,0.0,0.0,0.0,0.0,53,maven-core\src\main\java\org\apache\maven\plugin\PluginExecutionException.java,0,0,0,0
org.apache.maven.plugin.PluginIncompatibleException, 0, 0, 0, 0, 0, 0, 0, 0, 0, 0, 0, 0, 0, 0,0.0,0.0,0.0,1.0,0.0,0.0,0.0,0.0,0.0,0.0,0.0,0.0,0.0,8,maven-core\src\main\java\org\apache\maven\plugin\PluginIncompatibleException.java,0,0,0,0
org.apache.maven.plugin.PluginLoaderException, 0, 0, 0, 0, 0, 0, 0, 0, 0, 0, 0, 0, 0, 0,0.0,0.0,0.0,0.125,0.0,0.0,0.0,0.375,0.0,0.0,0.0,0.0,0.0,72,maven-core\src\main\java\org\apache\maven\plugin\PluginLoaderException.java,0,0,0,0
org.apache.maven.plugin.PluginManagerException, 0, 0, 0, 1, 0, 0, 0, 0, 0, 0, 0, 0, 0, 1,0.0,0.0,0.0,0.0,0.0,0.0,0.0,0.0,0.0,0.0,0.0,0.0,0.0,128,maven-core\src\main\java\org\apache\maven\plugin\PluginManagerException.java,0,0,0,0
org.apache.maven.plugin.PluginManagerTest, 0, 0, 0, 1, 0, 0, 0, 0, 0, 0, 0, 0, 0, 1,0.0,0.0,0.0,0.3333333333333333,0.0,0.0,0.0,0.0,0.0,0.0,0.0,0.0,0.0,147,maven-core\src\test\java\org\apache\maven\plugin\PluginManagerTest.java,0,0,0,0
org.apache.maven.plugin.PluginNotFoundException, 0, 0, 0, 0, 0, 0, 0, 0, 0, 0, 0, 0, 0, 0,0.0,0.0,0.0,0.0,0.0,0.0,0.0,0.5,0.0,0.0,0.0,0.0,0.0,22,maven-core\src\main\java\org\apache\maven\plugin\PluginNotFoundException.java,0,0,0,0
org.apache.maven.plugin.PluginResolutionException, 0, 0, 0, 0, 0, 0, 0, 0, 0, 0, 0, 0, 0, 0,0.0,0.0,0.0,0.0,0.0,0.0,0.0,0.0,0.0,0.0,0.0,0.0,0.0,15,maven-core\src\main\java\org\apache\maven\plugin\PluginResolutionException.java,0,0,0,0
org.apache.maven.plugin.descriptor.DuplicateMojoDescriptorException, 0, 0, 0, 0, 0, 0, 0, 0, 0, 0, 0, 0, 0, 0,0.0,0.0,0.0,0.0,0.0,0.0,0.0,0.0,0.0,0.0,0.0,0.0,0.0,11,maven-plugin-api\src\main\java\org\apache\maven\plugin\descriptor\DuplicateMojoDescriptorException.java,0,0,0,0
org.apache.maven.plugin.descriptor.DuplicateParameterException, 0, 0, 0, 0, 0, 0, 0, 0, 0, 0, 0, 0, 0, 0,0.0,0.0,0.0,0.0,0.0,0.0,0.0,0.0,0.0,0.0,0.0,0.0,0.0,8,maven-plugin-api\src\main\java\org\apache\maven\plugin\descriptor\DuplicateParameterException.java,0,0,0,0
org.apache.maven.plugin.descriptor.InvalidParameterException, 0, 0, 0, 0, 0, 0, 0, 0, 0, 0, 0, 0, 0, 0,0.0,0.0,0.0,0.0,0.0,0.0,0.0,0.0,0.0,0.0,0.0,0.0,0.0,11,maven-plugin-api\src\main\java\org\apache\maven\plugin\descriptor\InvalidParameterException.java,0,0,0,0
org.apache.maven.plugin.descriptor.InvalidPluginDescriptorException, 0, 0, 0, 0, 0, 0, 0, 0, 0, 0, 0, 0, 0, 0,0.0,0.0,0.0,0.0,0.0,0.0,0.0,0.0,0.0,0.0,0.0,0.0,0.0,12,maven-plugin-api\src\main\java\org\apache\maven\plugin\descriptor\InvalidPluginDescriptorException.java,0,0,0,0
org.apache.maven.plugin.descriptor.Parameter, 0, 0, 0, 1, 0, 0, 0, 0, 0, 0, 0, 0, 0, 1,0.0,0.0,0.0,0.0,0.0,0.0,0.0,0.0,0.0,0.0,0.0,0.0,0.0,136,maven-plugin-api\src\main\java\org\apache\maven\plugin\descriptor\Parameter.java,0,0,0,0
org.apache.maven.plugin.descriptor.PluginDescriptorBuilder, 0, 0, 0, 0, 0, 0, 0, 0, 0, 0, 0, 0, 0, 0,0.0,0.0,0.0,0.5,0.0,0.0,0.0,0.0,0.0,0.0,0.0,0.0,0.0,206,maven-plugin-api\src\main\java\org\apache\maven\plugin\descriptor\PluginDescriptorBuilder.java,0,0,0,0
org.apache.maven.plugin.descriptor.PluginDescriptorBuilderTest, 0, 0, 0, 0, 0, 0, 0, 0, 0, 0, 0, 0, 0, 0,0.0,0.0,0.0,0.5,0.0,0.0,0.0,0.0,0.0,0.0,0.0,0.0,0.0,77,maven-plugin-api\src\test\java\org\apache\maven\plugin\descriptor\PluginDescriptorBuilderTest.java,0,1,0,1
org.apache.maven.plugin.descriptor.Requirement, 0, 0, 0, 0, 0, 0, 0, 0, 0, 0, 0, 0, 0, 0,0.0,0.0,0.0,1.0,0.0,0.0,0.0,0.0,0.0,0.0,0.0,0.0,0.0,36,maven-plugin-api\src\main\java\org\apache\maven\plugin\descriptor\Requirement.java,0,0,0,0
org.apache.maven.plugin.internal.DefaultLegacySupport, 0, 0, 0, 0, 0, 0, 0, 0, 0, 0, 0, 0, 0, 0,0.0,0.0,0.0,0.0,0.0,0.0,0.0,0.0,0.0,0.0,0.0,0.0,0.0,31,maven-core\src\main\java\org\apache\maven\plugin\internal\DefaultLegacySupport.java,0,0,0,0
org.apache.maven.plugin.internal.PlexusUtilsInjector, 0, 0, 0, 0, 0, 0, 0, 0, 0, 0, 0, 0, 0, 0,0.0,0.0,0.0,0.0,0.0,0.0,0.0,0.0,0.0,0.0,0.0,0.0,0.0,39,maven-core\src\main\java\org\apache\maven\plugin\internal\PlexusUtilsInjector.java,0,0,0,0
org.apache.maven.plugin.internal.PluginDependenciesResolver, 0, 0, 0, 0, 0, 0, 0, 0, 0, 0, 0, 0, 0, 0,0.0,0.0,0.0,0.0,0.0,0.0,0.0,0.0,0.0,0.0,0.0,0.0,0.0,39,maven-core\src\main\java\org\apache\maven\plugin\internal\PluginDependenciesResolver.java,0,0,0,0
org.apache.maven.plugin.internal.WagonExcluder, 0, 0, 0, 0, 0, 0, 0, 0, 0, 0, 0, 0, 0, 0,0.0,0.0,0.0,0.0,0.0,0.0,0.0,0.0,0.0,0.0,0.0,0.0,0.0,63,maven-core\src\main\java\org\apache\maven\plugin\internal\WagonExcluder.java,0,0,0,0
org.apache.maven.plugin.lifecycle.LifecycleXpp3ReaderTest, 0, 0, 0, 0, 0, 0, 0, 0, 0, 0, 0, 0, 0, 0,0.0,0.0,0.0,0.0,0.0,0.0,0.0,0.0,0.0,0.0,0.0,0.0,0.0,8,maven-plugin-api\src\test\java\org\apache\maven\plugin\lifecycle\LifecycleXpp3ReaderTest.java,0,0,0,0
org.apache.maven.plugin.logging.Log, 0, 0, 0, 0, 0, 0, 0, 0, 0, 0, 0, 0, 0, 0,0.0,0.0,0.0,0.0,0.0,0.0,0.0,0.0,0.0,0.0,0.0,0.0,0.0,8,maven-plugin-api\src\main\java\org\apache\maven\plugin\logging\Log.java,0,0,0,0
org.apache.maven.plugin.prefix.DefaultPluginPrefixRequest, 0, 0, 0, 1, 0, 0, 0, 0, 0, 0, 0, 0, 0, 1,0.0,0.0,0.0,0.0,0.0,0.0,0.0,0.0,0.0,0.0,0.0,0.0,0.0,83,maven-core\src\main\java\org\apache\maven\plugin\prefix\DefaultPluginPrefixRequest.java,0,0,0,0
org.apache.maven.plugin.prefix.NoPluginFoundForPrefixException, 0, 0, 0, 0, 0, 0, 0, 0, 0, 0, 0, 0, 0, 0,0.0,0.0,0.0,0.0,0.0,0.0,0.0,0.0,0.0,0.0,0.0,0.0,0.0,31,maven-core\src\main\java\org\apache\maven\plugin\prefix\NoPluginFoundForPrefixException.java,0,0,0,0
org.apache.maven.plugin.prefix.PluginPrefixRequest, 0, 0, 0, 0, 0, 0, 0, 0, 0, 0, 0, 0, 0, 0,0.0,0.0,0.0,0.0,0.0,0.0,0.0,0.0,0.0,0.0,0.0,0.0,0.0,31,maven-core\src\main\java\org\apache\maven\plugin\prefix\PluginPrefixRequest.java,0,0,0,0
org.apache.maven.plugin.prefix.PluginPrefixResolver, 0, 0, 0, 0, 0, 0, 0, 0, 0, 0, 0, 0, 0, 0,0.0,0.0,0.0,0.0,0.0,0.0,0.0,0.0,0.0,0.0,0.0,0.0,0.0,31,maven-core\src\main\java\org\apache\maven\plugin\prefix\PluginPrefixResolver.java,0,0,0,0
org.apache.maven.plugin.prefix.PluginPrefixResult, 0, 0, 0, 0, 0, 0, 0, 0, 0, 0, 0, 0, 0, 0,0.0,0.0,0.0,0.0,0.0,0.0,0.0,0.0,0.0,0.0,0.0,0.0,0.0,31,maven-core\src\main\java\org\apache\maven\plugin\prefix\PluginPrefixResult.java,0,0,0,0
org.apache.maven.plugin.prefix.internal.DefaultPluginPrefixResult, 0, 0, 0, 0, 0, 0, 0, 0, 0, 0, 0, 0, 0, 0,0.0,0.0,0.0,0.0,0.0,0.0,0.0,0.0,0.0,0.0,0.0,0.0,0.0,45,maven-core\src\main\java\org\apache\maven\plugin\prefix\internal\DefaultPluginPrefixResult.java,0,0,0,0
org.apache.maven.plugin.version.DefaultPluginVersionRequest, 0, 0, 0, 1, 0, 0, 0, 0, 0, 0, 0, 0, 0, 1,0.0,0.0,0.0,0.0,0.0,0.0,0.0,0.0,0.0,0.0,0.0,0.0,0.0,82,maven-core\src\main\java\org\apache\maven\plugin\version\DefaultPluginVersionRequest.java,0,0,0,0
org.apache.maven.plugin.version.PluginVersionNotFoundException, 0, 0, 0, 0, 0, 0, 0, 0, 0, 0, 0, 0, 0, 0,0.0,0.0,0.0,0.0,0.0,0.0,0.0,0.0,0.0,0.0,0.0,0.0,0.0,20,maven-core\src\main\java\org\apache\maven\plugin\version\PluginVersionNotFoundException.java,0,0,0,0
org.apache.maven.plugin.version.PluginVersionRequest, 0, 0, 0, 0, 0, 0, 0, 0, 0, 0, 0, 0, 0, 0,0.0,0.0,0.0,0.0,0.0,0.0,0.0,0.0,0.0,0.0,0.0,0.0,0.0,20,maven-core\src\main\java\org\apache\maven\plugin\version\PluginVersionRequest.java,0,0,0,0
org.apache.maven.plugin.version.PluginVersionResolutionException, 0, 0, 0, 0, 0, 0, 0, 1, 0, 0, 0, 0, 0, 1,0.0,0.0,0.0,0.0,0.0,0.0,0.0,0.0,0.0,0.0,0.0,0.0,0.0,63,maven-core\src\main\java\org\apache\maven\plugin\version\PluginVersionResolutionException.java,0,0,0,0
org.apache.maven.plugin.version.PluginVersionResolver, 0, 0, 0, 0, 0, 0, 0, 0, 0, 0, 0, 0, 0, 0,0.0,0.0,0.0,0.0,0.0,0.0,0.0,0.0,0.0,0.0,0.0,0.0,0.0,63,maven-core\src\main\java\org\apache\maven\plugin\version\PluginVersionResolver.java,0,0,0,0
org.apache.maven.plugin.version.PluginVersionResult, 0, 0, 0, 0, 0, 0, 0, 0, 0, 0, 0, 0, 0, 0,0.0,0.0,0.0,0.0,0.0,0.0,0.0,0.0,0.0,0.0,0.0,0.0,0.0,63,maven-core\src\main\java\org\apache\maven\plugin\version\PluginVersionResult.java,0,0,0,0
org.apache.maven.plugin.version.internal.DefaultPluginVersionResult, 0, 0, 0, 0, 0, 0, 0, 0, 0, 0, 0, 0, 0, 0,0.0,0.0,0.0,0.0,0.0,0.0,0.0,0.0,0.0,0.0,0.0,0.0,0.0,29,maven-core\src\main\java\org\apache\maven\plugin\version\internal\DefaultPluginVersionResult.java,0,0,0,0
org.apache.maven.profiles.DefaultMavenProfilesBuilder, 0, 0, 0, 0, 0, 0, 0, 0, 0, 0, 0, 0, 0, 0,0.0,0.0,0.0,0.0,0.0,0.0,0.0,0.0,0.0,0.0,0.0,0.0,0.0,43,maven-compat\src\main\java\org\apache\maven\profiles\DefaultMavenProfilesBuilder.java,0,0,0,0
org.apache.maven.profiles.MavenProfilesBuilder, 0, 0, 0, 0, 0, 0, 0, 0, 0, 0, 0, 0, 0, 0,0.0,0.0,0.0,0.0,0.0,0.0,0.0,0.0,0.0,0.0,0.0,0.0,0.0,43,maven-compat\src\main\java\org\apache\maven\profiles\MavenProfilesBuilder.java,0,0,0,0
org.apache.maven.profiles.ProfilesConversionUtils, 0, 0, 0, 0, 0, 0, 0, 0, 0, 0, 0, 0, 0, 0,0.0,0.0,0.0,0.0,0.0,0.0,0.0,0.0,0.0,0.0,0.0,0.0,0.0,92,maven-compat\src\main\java\org\apache\maven\profiles\ProfilesConversionUtils.java,0,0,0,0
org.apache.maven.profiles.activation.DetectedProfileActivator, 0, 0, 0, 0, 0, 0, 0, 0, 0, 0, 0, 0, 0, 0,0.0,0.0,0.0,0.0,0.0,0.0,0.0,0.0,0.0,0.0,0.0,0.0,0.0,9,maven-compat\src\main\java\org\apache\maven\profiles\activation\DetectedProfileActivator.java,0,0,0,0
org.apache.maven.profiles.activation.FileProfileActivator, 0, 0, 0, 0, 0, 0, 0, 0, 0, 0, 0, 0, 0, 0,0.0,0.0,0.0,0.0,0.0,0.0,0.0,0.0,0.0,0.0,0.0,0.0,0.0,60,maven-compat\src\main\java\org\apache\maven\profiles\activation\FileProfileActivator.java,0,0,0,0
org.apache.maven.profiles.activation.JdkPrefixProfileActivator, 0, 0, 0, 0, 0, 0, 0, 0, 0, 0, 0, 0, 0, 0,0.0,0.0,0.0,0.0,0.0,0.0,0.0,0.0,0.0,0.0,0.0,0.0,0.0,56,maven-compat\src\main\java\org\apache\maven\profiles\activation\JdkPrefixProfileActivator.java,0,0,0,0
org.apache.maven.profiles.activation.OperatingSystemProfileActivator, 0, 0, 0, 0, 0, 0, 0, 0, 0, 0, 0, 0, 0, 0,0.0,0.0,0.0,0.0,0.0,0.0,0.0,0.0,0.0,0.0,0.0,0.0,0.0,112,maven-compat\src\main\java\org\apache\maven\profiles\activation\OperatingSystemProfileActivator.java,0,0,0,0
org.apache.maven.profiles.activation.ProfileActivationException, 0, 0, 0, 0, 0, 0, 0, 0, 0, 0, 0, 0, 0, 0,0.0,0.0,0.0,0.0,0.0,0.0,0.0,0.0,0.0,0.0,0.0,0.0,0.0,13,maven-compat\src\main\java\org\apache\maven\profiles\activation\ProfileActivationException.java,0,0,0,0
org.apache.maven.profiles.activation.ProfileActivator, 0, 0, 0, 0, 0, 0, 0, 0, 0, 0, 0, 0, 0, 0,0.0,0.0,0.0,0.0,0.0,0.0,0.0,0.0,0.0,0.0,0.0,0.0,0.0,13,maven-compat\src\main\java\org\apache\maven\profiles\activation\ProfileActivator.java,0,0,0,0
org.apache.maven.profiles.manager.DefaultProfileManagerTest, 0, 0, 0, 0, 0, 0, 0, 0, 0, 0, 0, 0, 0, 0,0.0,0.0,0.0,0.0,0.0,0.0,0.0,0.0,0.0,0.0,0.0,0.0,0.0,109,maven-compat\src\test\java\org\apache\maven\profiles\manager\DefaultProfileManagerTest.java,0,0,0,0
org.apache.maven.project.AbstractMavenProjectTestCase, 0, 0, 0, 0, 0, 0, 0, 0, 0, 0, 0, 0, 0, 0,0.0,0.0,0.0,0.0,0.0,0.0,0.0,0.0,0.0,0.0,0.0,0.0,0.0,106,maven-compat\src\test\java\org\apache\maven\project\AbstractMavenProjectTestCase.java,0,0,0,0
org.apache.maven.project.ClasspathArtifactResolver, 0, 0, 0, 0, 0, 0, 0, 0, 0, 0, 0, 0, 0, 0,0.0,0.0,0.0,0.0,0.0,0.0,0.0,0.0,0.0,0.0,0.0,0.0,0.0,42,maven-compat\src\test\java\org\apache\maven\project\ClasspathArtifactResolver.java,0,0,0,0
org.apache.maven.project.DefaultDependencyResolutionRequest, 0, 0, 0, 0, 0, 0, 0, 0, 0, 0, 0, 0, 0, 0,0.0,0.0,0.0,0.0,0.0,0.0,0.0,0.0,0.0,0.0,0.0,0.0,0.0,42,maven-core\src\main\java\org\apache\maven\project\DefaultDependencyResolutionRequest.java,0,0,0,0
org.apache.maven.project.DefaultMavenProjectBuilderTest, 0, 0, 0, 0, 0, 0, 0, 0, 0, 0, 0, 0, 0, 0,0.0,0.0,0.0,0.0,0.0,0.0,0.0,0.0,0.0,0.0,0.0,0.0,0.0,94,maven-core\src\test\java\org\apache\maven\project\DefaultMavenProjectBuilderTest.java,0,28,2,32
org.apache.maven.project.DefaultMavenProjectHelper, 0, 0, 0, 0, 0, 0, 0, 0, 0, 0, 0, 0, 0, 0,0.0,0.0,0.0,0.5,0.0,0.0,0.0,0.0,0.0,0.0,0.0,0.0,0.0,70,maven-core\src\main\java\org\apache\maven\project\DefaultMavenProjectHelper.java,0,0,0,0
org.apache.maven.project.DefaultModelBuildingListener, 0, 0, 0, 0, 0, 0, 0, 0, 0, 0, 0, 0, 0, 0,0.0,0.0,0.0,0.0,0.0,0.0,0.0,0.3333333333333333,0.0,0.0,0.0,0.0,0.0,80,maven-core\src\main\java\org\apache\maven\project\DefaultModelBuildingListener.java,0,0,0,0
org.apache.maven.project.DefaultProjectBuilderConfiguration, 0, 0, 0, 1, 0, 0, 0, 0, 0, 0, 0, 0, 0, 1,0.0,0.0,0.0,0.0,0.0,0.0,0.0,0.0,0.0,0.0,0.0,0.0,0.0,61,maven-compat\src\main\java\org\apache\maven\project\DefaultProjectBuilderConfiguration.java,0,0,0,0
org.apache.maven.project.DefaultProjectBuildingResult, 0, 0, 0, 0, 0, 0, 0, 0, 0, 0, 0, 0, 0, 0,0.0,0.0,0.0,0.0,0.0,0.0,0.0,0.0,0.0,0.0,0.0,0.0,0.0,50,maven-core\src\main\java\org\apache\maven\project\DefaultProjectBuildingResult.java,0,0,0,0
org.apache.maven.project.DependencyResolutionException, 0, 0, 0, 0, 0, 0, 0, 0, 0, 0, 0, 0, 0, 0,0.0,0.0,0.0,0.0,0.0,0.0,0.0,0.0,0.0,0.0,0.0,0.0,0.0,14,maven-core\src\main\java\org\apache\maven\project\DependencyResolutionException.java,0,0,0,0
org.apache.maven.project.DependencyResolutionRequest, 0, 0, 0, 0, 0, 0, 0, 0, 0, 0, 0, 0, 0, 0,0.0,0.0,0.0,0.0,0.0,0.0,0.0,0.0,0.0,0.0,0.0,0.0,0.0,14,maven-core\src\main\java\org\apache\maven\project\DependencyResolutionRequest.java,0,0,0,0
org.apache.maven.project.DependencyResolutionResult, 0, 0, 0, 0, 0, 0, 0, 0, 0, 0, 0, 0, 0, 0,0.0,0.0,0.0,0.0,0.0,0.0,0.0,0.0,0.0,0.0,0.0,0.0,0.0,14,maven-core\src\main\java\org\apache\maven\project\DependencyResolutionResult.java,0,0,0,0
org.apache.maven.project.DuplicateArtifactAttachmentException, 0, 0, 0, 0, 0, 0, 0, 0, 0, 0, 0, 0, 0, 0,0.0,0.0,0.0,0.0,0.0,0.0,0.0,0.0,0.0,0.0,0.0,0.0,0.0,25,maven-core\src\main\java\org\apache\maven\project\DuplicateArtifactAttachmentException.java,0,0,0,0
org.apache.maven.project.DuplicateProjectException, 0, 0, 0, 0, 0, 0, 0, 0, 0, 0, 0, 0, 0, 0,0.0,0.0,0.0,1.0,0.0,0.0,0.0,0.0,0.0,0.0,0.0,0.0,0.0,38,maven-core\src\main\java\org\apache\maven\project\DuplicateProjectException.java,0,0,0,0
org.apache.maven.project.EmptyLifecycleExecutor, 0, 0, 0, 0, 0, 0, 0, 0, 0, 0, 0, 0, 0, 0,0.0,0.0,0.0,0.0,0.0,0.0,0.0,0.0,0.0,0.0,0.0,0.0,0.0,55,maven-compat\src\test\java\org\apache\maven\project\EmptyLifecycleExecutor.java,0,0,0,0
org.apache.maven.project.EmptyLifecyclePluginAnalyzer, 0, 0, 0, 0, 0, 0, 0, 0, 0, 0, 0, 0, 0, 0,0.0,0.0,0.0,0.0,0.0,0.0,0.0,0.0,0.0,0.0,0.0,0.0,0.0,37,maven-compat\src\test\java\org\apache\maven\project\EmptyLifecyclePluginAnalyzer.java,0,0,0,0
org.apache.maven.project.EmptyProjectBuildingHelper, 0, 0, 0, 0, 0, 0, 0, 0, 0, 0, 0, 0, 0, 0,0.0,0.0,0.0,0.0,0.0,0.0,0.0,0.0,0.0,0.0,0.0,0.0,0.0,25,maven-core\src\test\java\org\apache\maven\project\EmptyProjectBuildingHelper.java,0,0,0,0
org.apache.maven.project.ExtensionDescriptor, 0, 0, 0, 0, 0, 0, 0, 0, 0, 0, 0, 0, 0, 0,0.0,0.0,0.0,0.0,0.0,0.0,0.0,0.0,0.0,0.0,0.0,0.0,0.0,46,maven-core\src\main\java\org\apache\maven\project\ExtensionDescriptor.java,0,0,0,0
org.apache.maven.project.ExtensionDescriptorBuilder, 0, 0, 0, 0, 0, 0, 0, 0, 0, 0, 0, 0, 0, 0,0.0,0.0,0.0,0.0,0.0,0.0,0.0,0.0,0.0,0.0,0.0,0.0,0.0,92,maven-core\src\main\java\org\apache\maven\project\ExtensionDescriptorBuilder.java,0,0,0,0
org.apache.maven.project.ExtensionDescriptorBuilderTest, 0, 0, 0, 0, 0, 0, 0, 0, 0, 0, 0, 0, 0, 0,0.0,0.0,0.0,0.0,0.0,0.0,0.0,0.0,0.0,0.0,0.0,0.0,0.0,55,maven-core\src\test\java\org\apache\maven\project\ExtensionDescriptorBuilderTest.java,0,0,0,0
org.apache.maven.project.InvalidProjectModelException, 0, 0, 0, 0, 0, 0, 0, 0, 0, 0, 0, 0, 0, 0,0.0,0.0,0.0,0.0,0.0,0.0,0.0,0.0,0.0,0.0,0.0,0.0,0.0,28,maven-compat\src\main\java\org\apache\maven\project\InvalidProjectModelException.java,0,0,0,0
org.apache.maven.project.InvalidProjectVersionException, 0, 0, 0, 0, 0, 0, 0, 1, 0, 0, 0, 0, 0, 1,0.0,0.0,0.0,0.0,0.0,0.0,0.0,0.0,0.0,0.0,0.0,0.0,0.0,27,maven-core\src\main\java\org\apache\maven\project\InvalidProjectVersionException.java,0,0,0,0
org.apache.maven.project.MavenProjectBuilder, 0, 0, 0, 0, 0, 0, 0, 0, 0, 0, 0, 0, 0, 0,0.0,0.0,0.0,0.0,0.0,0.0,0.0,0.0,0.0,0.0,0.0,0.0,0.0,27,maven-compat\src\main\java\org\apache\maven\project\MavenProjectBuilder.java,0,0,0,0
org.apache.maven.project.MavenProjectHelper, 0, 0, 0, 0, 0, 0, 0, 0, 0, 0, 0, 0, 0, 0,0.0,0.0,0.0,0.0,0.0,0.0,0.0,0.0,0.0,0.0,0.0,0.0,0.0,27,maven-core\src\main\java\org\apache\maven\project\MavenProjectHelper.java,0,0,0,0
org.apache.maven.project.MissingRepositoryElementException, 0, 0, 0, 0, 0, 0, 0, 0, 0, 0, 0, 0, 0, 0,0.0,0.0,0.0,0.0,0.0,0.0,0.0,0.0,0.0,0.0,0.0,0.0,0.0,12,maven-compat\src\main\java\org\apache\maven\project\MissingRepositoryElementException.java,0,0,0,0
org.apache.maven.project.ProjectBuilder, 0, 0, 0, 0, 0, 0, 0, 0, 0, 0, 0, 0, 0, 0,0.0,0.0,0.0,0.0,0.0,0.0,0.0,0.0,0.0,0.0,0.0,0.0,0.0,12,maven-compat\src\main\java\org\apache\maven\project\ProjectBuilderConfiguration.java,0,0,0,0
org.apache.maven.project.ProjectBuilderConfiguration, 0, 0, 0, 0, 0, 0, 0, 0, 0, 0, 0, 0, 0, 0,0.0,0.0,0.0,0.0,0.0,0.0,0.0,0.0,0.0,0.0,0.0,0.0,0.0,12,maven-compat\src\main\java\org\apache\maven\project\ProjectBuilderConfiguration.java,0,0,0,0
org.apache.maven.project.ProjectBuildingHelper, 0, 0, 0, 0, 0, 0, 0, 0, 0, 0, 0, 0, 0, 0,0.0,0.0,0.0,0.0,0.0,0.0,0.0,0.0,0.0,0.0,0.0,0.0,0.0,12,maven-core\src\main\java\org\apache\maven\project\ProjectBuildingHelper.java,0,0,0,0
org.apache.maven.project.ProjectBuildingRequest, 0, 0, 0, 0, 0, 0, 0, 0, 0, 0, 0, 0, 0, 0,0.0,0.0,0.0,0.0,0.0,0.0,0.0,0.0,0.0,0.0,0.0,0.0,0.0,12,maven-core\src\main\java\org\apache\maven\project\ProjectBuildingRequest.java,0,0,0,0
org.apache.maven.project.ProjectBuildingResult, 0, 0, 0, 0, 0, 0, 0, 0, 0, 0, 0, 0, 0, 0,0.0,0.0,0.0,0.0,0.0,0.0,0.0,0.0,0.0,0.0,0.0,0.0,0.0,12,maven-core\src\main\java\org\apache\maven\project\ProjectBuildingResult.java,0,0,0,0
org.apache.maven.project.ProjectClasspathTest, 0, 0, 0, 0, 0, 0, 0, 0, 0, 0, 0, 0, 0, 0,0.0,0.0,0.0,0.0,0.0,0.0,0.0,0.0,0.0,0.0,0.0,0.0,0.0,93,maven-compat\src\test\java\org\apache\maven\project\ProjectClasspathTest.java,0,0,0,0
org.apache.maven.project.ProjectDependenciesResolver, 0, 0, 0, 0, 0, 0, 0, 0, 0, 0, 0, 0, 0, 0,0.0,0.0,0.0,0.0,0.0,0.0,0.0,0.0,0.0,0.0,0.0,0.0,0.0,93,maven-core\src\main\java\org\apache\maven\project\ProjectDependenciesResolver.java,0,0,0,0
org.apache.maven.project.ProjectModelResolver, 0, 0, 0, 1, 0, 0, 0, 1, 0, 0, 0, 0, 0, 2,0.0,0.0,0.0,0.0,0.0,0.0,0.0,0.3333333333333333,0.0,0.0,0.0,0.0,0.0,93,maven-core\src\main\java\org\apache\maven\project\ProjectModelResolver.java,0,0,0,0
org.apache.maven.project.ProjectRealmCache, 0, 0, 0, 0, 0, 0, 0, 0, 0, 0, 0, 0, 0, 0,0.0,0.0,0.0,0.0,0.0,0.0,0.0,0.0,0.0,0.0,0.0,0.0,0.0,93,maven-core\src\main\java\org\apache\maven\project\ProjectRealmCache.java,0,0,0,0
org.apache.maven.project.ProjectSorterTest, 0, 0, 0, 1, 0, 0, 0, 0, 0, 0, 0, 0, 0, 1,0.0,0.0,0.0,0.0,0.0,0.0,0.0,0.0,0.0,0.0,0.0,0.0,0.0,238,maven-core\src\test\java\org\apache\maven\project\ProjectSorterTest.java,0,0,0,0
org.apache.maven.project.ProjectUtils, 0, 0, 0, 0, 0, 0, 0, 0, 0, 0, 0, 0, 0, 0,0.0,0.0,0.0,0.0,0.0,0.0,0.0,0.0,0.0,0.0,0.0,0.0,0.0,64,maven-compat\src\main\java\org\apache\maven\project\ProjectUtils.java,0,0,0,0
org.apache.maven.project.TestArtifactResolver, 0, 0, 0, 0, 0, 0, 0, 0, 0, 0, 0, 0, 0, 0,0.0,0.0,0.0,0.0,0.0,0.0,0.0,0.0,0.0,0.0,0.0,0.0,0.0,6,maven-compat\src\test\java\org\apache\maven\project\TestArtifactResolver.java,0,0,0,0
org.apache.maven.project.TestMavenRepositorySystem, 0, 0, 0, 0, 0, 0, 0, 0, 0, 0, 0, 0, 0, 0,0.0,0.0,0.0,0.0,0.0,0.0,0.0,0.0,0.0,0.0,0.0,0.0,0.0,6,maven-compat\src\test\java\org\apache\maven\project\TestMavenRepositorySystem.java,0,0,0,0
org.apache.maven.project.TestMetadataSource, 0, 0, 0, 0, 0, 0, 0, 0, 0, 0, 0, 0, 0, 0,0.0,0.0,0.0,0.0,0.0,0.0,0.0,0.0,0.0,0.0,0.0,0.0,0.0,15,maven-core\src\test\java\org\apache\maven\project\TestMetadataSource.java,0,0,0,0
org.apache.maven.project.TestProjectBuilder, 0, 0, 0, 0, 0, 0, 0, 0, 0, 0, 0, 0, 0, 0,0.0,0.0,0.0,0.0,0.0,0.0,0.0,0.0,0.0,0.0,0.0,0.0,0.0,35,maven-compat\src\test\java\org\apache\maven\project\TestProjectBuilder.java,0,0,0,0
org.apache.maven.project.artifact.ActiveProjectArtifact, 0, 0, 0, 1, 0, 0, 0, 0, 0, 0, 0, 0, 0, 1,0.0,0.0,0.0,0.0,0.0,0.0,0.0,0.0,0.0,0.0,0.0,0.0,0.0,250,maven-core\src\main\java\org\apache\maven\project\artifact\ActiveProjectArtifact.java,0,0,0,0
org.apache.maven.project.artifact.ArtifactWithDependencies, 0, 0, 0, 0, 0, 0, 0, 0, 0, 0, 0, 0, 0, 0,0.0,0.0,0.0,0.0,0.0,0.0,0.0,0.0,0.0,0.0,0.0,0.0,0.0,250,maven-core\src\main\java\org\apache\maven\project\artifact\ArtifactWithDependencies.java,0,0,0,0
org.apache.maven.project.artifact.AttachedArtifact, 0, 0, 0, 1, 0, 0, 0, 0, 0, 0, 0, 0, 0, 1,0.0,0.0,0.0,0.0,0.0,0.0,0.0,0.5,0.0,0.0,0.0,0.0,0.0,115,maven-core\src\main\java\org\apache\maven\project\artifact\AttachedArtifact.java,0,0,0,0
org.apache.maven.project.artifact.DefaultMavenMetadataCacheTest, 0, 0, 0, 0, 0, 0, 0, 0, 0, 0, 0, 0, 0, 0,0.0,0.0,0.0,0.5,0.0,0.0,0.0,0.0,0.0,0.0,0.0,0.0,0.0,36,maven-core\src\test\java\org\apache\maven\project\artifact\DefaultMavenMetadataCacheTest.java,0,0,0,0
org.apache.maven.project.artifact.DefaultMetadataSource, 0, 0, 0, 0, 0, 0, 0, 0, 0, 0, 0, 0, 0, 0,0.0,0.0,0.0,0.0,0.0,0.0,0.0,0.0,0.0,0.0,0.0,0.0,0.0,4,maven-core\src\main\java\org\apache\maven\project\artifact\DefaultMetadataSource.java,0,0,0,0
org.apache.maven.project.artifact.InvalidDependencyVersionException, 0, 0, 0, 0, 0, 0, 0, 0, 0, 0, 0, 0, 0, 0,0.0,0.0,0.0,0.0,0.0,0.0,0.0,0.3333333333333333,0.0,0.0,0.0,0.0,0.0,19,maven-core\src\main\java\org\apache\maven\project\artifact\InvalidDependencyVersionException.java,0,0,0,0
org.apache.maven.project.artifact.MavenMetadataCache, 0, 0, 0, 0, 0, 0, 0, 0, 0, 0, 0, 0, 0, 0,0.0,0.0,0.0,0.0,0.0,0.0,0.0,0.0,0.0,0.0,0.0,0.0,0.0,19,maven-core\src\main\java\org\apache\maven\project\artifact\MavenMetadataCache.java,0,0,0,0
org.apache.maven.project.artifact.MavenMetadataSourceTest, 0, 0, 0, 0, 0, 0, 0, 0, 0, 0, 0, 0, 0, 0,0.0,0.0,0.0,0.0,0.0,0.0,0.0,0.0,0.0,0.0,0.0,0.0,0.0,22,maven-core\src\test\java\org\apache\maven\project\artifact\MavenMetadataSourceTest.java,0,0,0,0
org.apache.maven.project.artifact.PluginArtifact, 0, 0, 0, 0, 0, 0, 0, 0, 0, 0, 0, 0, 0, 0,0.0,0.0,0.0,0.0,0.0,0.0,0.0,0.0,0.0,0.0,0.0,0.0,0.0,54,maven-core\src\main\java\org\apache\maven\project\artifact\PluginArtifact.java,0,0,0,0
org.apache.maven.project.artifact.ProjectArtifact, 0, 0, 0, 0, 0, 0, 0, 0, 0, 0, 0, 0, 0, 0,0.0,0.0,0.0,0.0,0.0,0.0,0.0,1.0,0.0,0.0,0.0,0.0,0.0,59,maven-core\src\main\java\org\apache\maven\project\artifact\ProjectArtifact.java,0,0,0,0
org.apache.maven.project.artifact.ProjectArtifactMetadata, 0, 0, 0, 0, 0, 0, 0, 0, 0, 0, 0, 0, 0, 0,0.0,0.0,0.0,0.0,0.0,0.0,0.0,0.0,0.0,0.0,0.0,0.0,0.0,73,maven-core\src\main\java\org\apache\maven\project\artifact\ProjectArtifactMetadata.java,0,0,0,0
org.apache.maven.project.canonical.CanonicalProjectBuilderTest, 0, 0, 0, 0, 0, 0, 0, 0, 0, 0, 0, 0, 0, 0,0.0,0.0,0.0,0.0,0.0,0.0,0.0,0.0,0.0,0.0,0.0,0.0,0.0,36,maven-core\src\test\java\org\apache\maven\project\canonical\CanonicalProjectBuilderTest.java,0,0,0,0
org.apache.maven.project.harness.PomTestWrapper, 0, 0, 0, 0, 0, 0, 0, 0, 0, 0, 0, 0, 0, 0,0.0,0.0,0.0,0.0,0.0,0.0,0.0,0.0,0.0,0.0,0.0,0.0,0.0,64,maven-core\src\test\java\org\apache\maven\project\harness\PomTestWrapper.java,0,0,0,0
org.apache.maven.project.harness.Xpp3DomNodeIterator, 0, 0, 0, 0, 0, 0, 0, 0, 0, 0, 0, 0, 0, 0,0.0,0.0,0.0,0.0,0.0,0.0,0.0,0.0,0.0,0.0,0.0,0.0,0.0,106,maven-core\src\test\java\org\apache\maven\project\harness\Xpp3DomNodeIterator.java,0,0,0,0
org.apache.maven.project.harness.Xpp3DomNodePointer, 0, 0, 0, 0, 0, 0, 0, 0, 0, 0, 0, 0, 0, 0,0.0,0.0,0.0,0.0,0.0,0.0,0.0,0.0,0.0,0.0,0.0,0.0,0.0,104,maven-core\src\test\java\org\apache\maven\project\harness\Xpp3DomNodePointer.java,0,0,0,0
org.apache.maven.project.harness.Xpp3DomPointerFactory, 0, 0, 0, 0, 0, 0, 0, 0, 0, 0, 0, 0, 0, 0,0.0,0.0,0.0,0.0,0.0,0.0,0.0,0.0,0.0,0.0,0.0,0.0,0.0,24,maven-core\src\test\java\org\apache\maven\project\harness\Xpp3DomPointerFactory.java,0,0,0,0
org.apache.maven.project.inheritance.AbstractProjectInheritanceTestCase, 0, 0, 0, 0, 0, 0, 0, 0, 0, 0, 0, 0, 0, 0,0.0,0.0,0.0,0.0,0.0,0.0,0.0,0.0,0.0,0.0,0.0,0.0,0.0,21,maven-compat\src\test\java\org\apache\maven\project\inheritance\AbstractProjectInheritanceTestCase.java,0,0,0,0
org.apache.maven.project.inheritance.ModelInheritanceAssembler, 0, 0, 0, 0, 0, 0, 0, 0, 0, 0, 0, 0, 0, 0,0.0,0.0,0.0,0.0,0.0,0.0,0.0,0.0,0.0,0.0,0.0,0.0,0.0,21,maven-compat\src\main\java\org\apache\maven\project\inheritance\ModelInheritanceAssembler.java,0,0,0,0
org.apache.maven.project.inheritance.t00.ProjectInheritanceTest, 0, 0, 0, 0, 0, 0, 0, 0, 0, 0, 0, 0, 0, 0,0.0,0.0,0.0,0.0,0.0,0.0,0.0,0.0,0.0,0.0,0.0,0.0,0.0,16,maven-compat\src\test\java\org\apache\maven\project\inheritance\t00\ProjectInheritanceTest.java,0,0,0,0
org.apache.maven.project.inheritance.t01.ProjectInheritanceTest, 0, 0, 0, 0, 0, 0, 0, 0, 0, 0, 0, 0, 0, 0,0.0,0.0,0.0,0.0,0.0,0.0,0.0,0.0,0.0,0.0,0.0,0.0,0.0,18,maven-compat\src\test\java\org\apache\maven\project\inheritance\t01\ProjectInheritanceTest.java,0,0,0,0
org.apache.maven.project.inheritance.t03.ProjectInheritanceTest, 0, 0, 0, 0, 0, 0, 0, 0, 0, 0, 0, 0, 0, 0,0.0,0.0,0.0,0.0,0.0,0.0,0.0,0.0,0.0,0.0,0.0,0.0,0.0,15,maven-compat\src\test\java\org\apache\maven\project\inheritance\t03\ProjectInheritanceTest.java,0,0,0,0
org.apache.maven.project.inheritance.t04.ProjectInheritanceTest, 0, 0, 0, 0, 0, 0, 0, 0, 0, 0, 0, 0, 0, 0,0.0,0.0,0.0,0.0,0.0,0.0,0.0,0.0,0.0,0.0,0.0,0.0,0.0,27,maven-compat\src\test\java\org\apache\maven\project\inheritance\t04\ProjectInheritanceTest.java,0,0,0,0
org.apache.maven.project.inheritance.t05.ProjectInheritanceTest, 0, 0, 0, 0, 0, 0, 0, 0, 0, 0, 0, 0, 0, 0,0.0,0.0,0.0,0.0,0.0,0.0,0.0,0.0,0.0,0.0,0.0,0.0,0.0,26,maven-compat\src\test\java\org\apache\maven\project\inheritance\t05\ProjectInheritanceTest.java,0,0,0,0
org.apache.maven.project.inheritance.t06.ProjectInheritanceTest, 0, 0, 0, 0, 0, 0, 0, 0, 0, 0, 0, 0, 0, 0,0.0,0.0,0.0,0.0,0.0,0.0,0.0,0.0,0.0,0.0,0.0,0.0,0.0,28,maven-compat\src\test\java\org\apache\maven\project\inheritance\t06\ProjectInheritanceTest.java,0,0,0,0
org.apache.maven.project.inheritance.t07.ProjectInheritanceTest, 0, 0, 0, 0, 0, 0, 0, 0, 0, 0, 0, 0, 0, 0,0.0,0.0,0.0,0.0,0.0,0.0,0.0,0.0,0.0,0.0,0.0,0.0,0.0,27,maven-compat\src\test\java\org\apache\maven\project\inheritance\t07\ProjectInheritanceTest.java,0,0,0,0
org.apache.maven.project.inheritance.t08.ProjectInheritanceTest, 0, 0, 0, 0, 0, 0, 0, 0, 0, 0, 0, 0, 0, 0,0.0,0.0,0.0,0.0,0.0,0.0,0.0,0.0,0.0,0.0,0.0,0.0,0.0,29,maven-compat\src\test\java\org\apache\maven\project\inheritance\t08\ProjectInheritanceTest.java,0,0,0,0
org.apache.maven.project.inheritance.t11.ProjectInheritanceTest, 0, 0, 0, 0, 0, 0, 0, 0, 0, 0, 0, 0, 0, 0,0.0,0.0,0.0,0.0,0.0,0.0,0.0,0.0,0.0,0.0,0.0,0.0,0.0,17,maven-compat\src\test\java\org\apache\maven\project\inheritance\t11\ProjectInheritanceTest.java,0,0,0,0
org.apache.maven.project.inheritance.t12scm.ProjectInheritanceTest, 0, 0, 0, 0, 0, 0, 0, 0, 0, 0, 0, 0, 0, 0,0.0,0.0,0.0,0.0,0.0,0.0,0.0,0.0,0.0,0.0,0.0,0.0,0.0,46,maven-compat\src\test\java\org\apache\maven\project\inheritance\t12scm\ProjectInheritanceTest.java,0,0,0,0
org.apache.maven.project.interpolation.BuildTimestampValueSource, 0, 0, 0, 0, 0, 0, 0, 0, 0, 0, 0, 0, 0, 0,0.0,0.0,0.0,0.0,0.0,0.0,0.0,0.0,0.0,0.0,0.0,0.0,0.0,25,maven-compat\src\main\java\org\apache\maven\project\interpolation\BuildTimestampValueSource.java,0,0,0,0
org.apache.maven.project.interpolation.ModelInterpolationException, 0, 0, 0, 0, 0, 0, 0, 0, 0, 0, 0, 0, 0, 0,0.0,0.0,0.0,0.0,0.0,0.0,0.0,0.0,0.0,0.0,0.0,0.0,0.0,33,maven-compat\src\main\java\org\apache\maven\project\interpolation\ModelInterpolationException.java,0,0,0,0
org.apache.maven.project.interpolation.PathTranslatingPostProcessor, 0, 0, 0, 0, 0, 0, 0, 0, 0, 0, 0, 0, 0, 0,0.0,0.0,0.0,0.0,0.0,0.0,0.0,0.0,0.0,0.0,0.0,0.0,0.0,26,maven-compat\src\main\java\org\apache\maven\project\interpolation\PathTranslatingPostProcessor.java,0,0,0,0
org.apache.maven.project.interpolation.RegexBasedModelInterpolator, 0, 0, 0, 0, 0, 0, 0, 0, 0, 0, 0, 0, 0, 0,0.0,0.0,0.0,0.0,0.0,0.0,0.0,0.0,0.0,0.0,0.0,0.0,0.0,19,maven-compat\src\main\java\org\apache\maven\project\interpolation\RegexBasedModelInterpolator.java,0,0,0,0
org.apache.maven.project.path.DefaultPathTranslator, 0, 0, 0, 0, 0, 0, 0, 0, 0, 0, 0, 0, 0, 0,0.0,0.0,0.0,0.0,0.0,0.0,0.0,0.0,0.0,0.0,0.0,0.0,0.0,175,maven-compat\src\main\java\org\apache\maven\project\path\DefaultPathTranslator.java,0,0,0,0
org.apache.maven.project.path.DefaultPathTranslatorTest, 0, 0, 0, 0, 0, 0, 0, 0, 0, 0, 0, 0, 0, 0,0.0,0.0,0.0,0.0,0.0,0.0,0.0,0.0,0.0,0.0,0.0,0.0,0.0,22,maven-compat\src\test\java\org\apache\maven\project\path\DefaultPathTranslatorTest.java,0,0,0,0
org.apache.maven.project.path.PathTranslator, 0, 0, 0, 0, 0, 0, 0, 0, 0, 0, 0, 0, 0, 0,0.0,0.0,0.0,0.0,0.0,0.0,0.0,0.0,0.0,0.0,0.0,0.0,0.0,22,maven-core\src\main\java\org\apache\maven\project\path\PathTranslator.java,0,0,0,0
org.apache.maven.project.validation.DefaultModelValidator, 0, 0, 0, 0, 0, 0, 0, 0, 0, 0, 0, 0, 0, 0,0.0,0.0,0.0,0.0,0.0,0.0,0.0,0.0,0.0,0.0,0.0,0.0,0.0,31,maven-compat\src\main\java\org\apache\maven\project\validation\DefaultModelValidator.java,0,0,0,0
org.apache.maven.project.validation.ModelValidator, 0, 0, 0, 0, 0, 0, 0, 0, 0, 0, 0, 0, 0, 0,0.0,0.0,0.0,0.0,0.0,0.0,0.0,0.0,0.0,0.0,0.0,0.0,0.0,31,maven-compat\src\main\java\org\apache\maven\project\validation\ModelValidator.java,0,0,0,0
org.apache.maven.reporting.MavenReportException, 0, 0, 0, 0, 0, 0, 0, 0, 0, 0, 0, 0, 0, 0,0.0,0.0,0.0,0.0,0.0,0.0,0.0,0.0,0.0,0.0,0.0,0.0,0.0,11,maven-compat\src\main\java\org\apache\maven\reporting\MavenReportException.java,0,0,0,0
org.apache.maven.repository.ArtifactDoesNotExistException, 0, 0, 0, 0, 0, 0, 0, 0, 0, 0, 0, 0, 0, 0,0.0,0.0,0.0,0.0,0.0,0.0,0.0,0.0,0.0,0.0,0.0,0.0,0.0,12,maven-core\src\main\java\org\apache\maven\repository\ArtifactDoesNotExistException.java,0,0,0,0
org.apache.maven.repository.ArtifactTransferFailedException, 0, 0, 0, 0, 0, 0, 0, 0, 0, 0, 0, 0, 0, 0,0.0,0.0,0.0,0.0,0.0,0.0,0.0,0.0,0.0,0.0,0.0,0.0,0.0,12,maven-core\src\main\java\org\apache\maven\repository\ArtifactTransferFailedException.java,0,0,0,0
org.apache.maven.repository.ArtifactTransferListener, 0, 0, 0, 0, 0, 0, 0, 0, 0, 0, 0, 0, 0, 0,0.0,0.0,0.0,0.0,0.0,0.0,0.0,0.0,0.0,0.0,0.0,0.0,0.0,12,maven-core\src\main\java\org\apache\maven\repository\ArtifactTransferListener.java,0,0,0,0
org.apache.maven.repository.ArtifactTransferResource, 0, 0, 0, 0, 0, 0, 0, 0, 0, 0, 0, 0, 0, 0,0.0,0.0,0.0,0.0,0.0,0.0,0.0,0.0,0.0,0.0,0.0,0.0,0.0,12,maven-core\src\main\java\org\apache\maven\repository\ArtifactTransferResource.java,0,0,0,0
org.apache.maven.repository.DefaultMirrorSelector, 0, 0, 0, 0, 0, 0, 0, 0, 0, 0, 0, 0, 0, 0,0.0,0.0,0.0,1.0,0.0,0.0,0.0,0.0,0.0,0.0,0.0,0.0,0.0,120,maven-compat\src\main\java\org\apache\maven\repository\DefaultMirrorSelector.java,0,0,0,0
org.apache.maven.repository.DelegatingLocalArtifactRepository, 0, 0, 0, 1, 0, 0, 0, 0, 0, 0, 0, 0, 0, 1,0.0,0.0,0.0,0.0,0.0,0.0,0.0,0.0,0.0,0.0,0.0,0.0,0.0,127,maven-core\src\main\java\org\apache\maven\repository\DelegatingLocalArtifactRepository.java,0,0,0,0
org.apache.maven.repository.LegacyRepositorySystemTest, 0, 0, 0, 0, 0, 0, 0, 0, 0, 0, 0, 0, 0, 0,0.0,0.0,0.0,0.0,0.0,0.0,0.0,0.0,0.0,0.0,0.0,0.0,0.0,107,maven-compat\src\test\java\org\apache\maven\repository\LegacyRepositorySystemTest.java,0,0,0,0
org.apache.maven.repository.LocalArtifactRepository, 0, 0, 0, 0, 0, 0, 0, 0, 0, 0, 0, 0, 0, 0,0.0,0.0,0.0,0.5,0.0,0.0,0.0,0.0,0.0,0.0,0.0,0.0,0.0,7,maven-core\src\main\java\org\apache\maven\repository\LocalArtifactRepository.java,0,0,0,0
org.apache.maven.repository.LocalRepositoryNotAccessibleException, 0, 0, 0, 0, 0, 0, 0, 0, 0, 0, 0, 0, 0, 0,0.0,0.0,0.0,0.0,0.0,0.0,0.0,0.0,0.0,0.0,0.0,0.0,0.0,13,maven-core\src\main\java\org\apache\maven\repository\LocalRepositoryNotAccessibleException.java,0,0,0,0
org.apache.maven.repository.MavenArtifactMetadata, 0, 0, 0, 1, 0, 0, 0, 0, 0, 0, 0, 0, 0, 1,0.0,0.0,0.0,0.0,0.0,0.0,0.0,0.0,0.0,0.0,0.0,0.0,0.0,74,maven-compat\src\main\java\org\apache\maven\repository\MavenArtifactMetadata.java,0,0,0,0
org.apache.maven.repository.MetadataGraph, 0, 0, 0, 0, 0, 0, 0, 0, 0, 0, 0, 0, 0, 0,0.0,0.0,0.0,0.5,0.0,0.0,0.0,0.0,0.0,0.0,0.0,0.0,0.0,39,maven-compat\src\main\java\org\apache\maven\repository\MetadataGraph.java,0,0,0,0
org.apache.maven.repository.MetadataGraphNode, 0, 0, 0, 0, 0, 0, 0, 0, 0, 0, 0, 0, 0, 0,0.0,0.0,0.0,0.5,0.0,0.0,0.0,0.0,0.0,0.0,0.0,0.0,0.0,56,maven-compat\src\main\java\org\apache\maven\repository\MetadataGraphNode.java,0,0,0,0
org.apache.maven.repository.MirrorProcessorTest, 0, 0, 0, 1, 0, 0, 0, 0, 0, 0, 0, 0, 0, 1,0.0,0.0,0.0,0.0,0.0,0.0,0.0,0.0,0.0,0.0,0.0,0.0,0.0,159,maven-compat\src\test\java\org\apache\maven\repository\MirrorProcessorTest.java,0,0,0,0
org.apache.maven.repository.MirrorSelector, 0, 0, 0, 0, 0, 0, 0, 0, 0, 0, 0, 0, 0, 0,0.0,0.0,0.0,0.0,0.0,0.0,0.0,0.0,0.0,0.0,0.0,0.0,0.0,159,maven-compat\src\main\java\org\apache\maven\repository\MirrorSelector.java,0,0,0,0
org.apache.maven.repository.Proxy, 0, 0, 0, 1, 0, 0, 0, 0, 0, 0, 0, 0, 0, 1,0.0,0.0,0.0,0.0,0.0,0.0,0.0,0.0,0.0,0.0,0.0,0.0,0.0,78,maven-artifact\src\main\java\org\apache\maven\repository\Proxy.java,0,0,0,0
org.apache.maven.repository.RepositorySystem, 0, 0, 0, 0, 0, 0, 0, 0, 0, 0, 0, 0, 0, 0,0.0,0.0,0.0,0.0,0.0,0.0,0.0,0.0,0.0,0.0,0.0,0.0,0.0,78,maven-core\src\main\java\org\apache\maven\repository\RepositorySystem.java,0,0,1,2
org.apache.maven.repository.TestArtifactHandler, 0, 0, 0, 0, 0, 0, 0, 0, 0, 0, 0, 0, 0, 0,0.0,0.0,0.0,0.0,0.0,0.0,0.0,0.0,0.0,0.0,0.0,0.0,0.0,43,maven-core\src\test\java\org\apache\maven\repository\TestArtifactHandler.java,0,0,0,0
org.apache.maven.repository.TestRepositoryConnectorFactory, 0, 0, 0, 0, 0, 0, 0, 0, 0, 0, 0, 0, 0, 0,0.0,0.0,0.0,0.0,0.0,0.0,0.0,0.0,0.0,0.0,0.0,0.0,0.0,13,maven-core\src\test\java\org\apache\maven\repository\TestRepositoryConnectorFactory.java,0,0,0,0
org.apache.maven.repository.UserLocalArtifactRepository, 0, 0, 0, 0, 0, 0, 0, 0, 0, 0, 0, 0, 0, 0,0.0,0.0,0.0,0.0,0.0,0.0,0.0,0.0,0.0,0.0,0.0,0.0,0.0,37,maven-compat\src\main\java\org\apache\maven\repository\UserLocalArtifactRepository.java,0,0,0,0
org.apache.maven.repository.VersionNotFoundException, 0, 0, 0, 0, 0, 0, 0, 0, 0, 0, 0, 0, 0, 0,0.0,0.0,0.0,0.0,0.0,0.0,0.0,0.0,0.0,0.0,0.0,0.0,0.0,38,maven-compat\src\main\java\org\apache\maven\repository\VersionNotFoundException.java,0,0,0,0
org.apache.maven.repository.internal.ArtifactDescriptorUtils, 0, 0, 0, 0, 0, 0, 0, 0, 0, 0, 0, 0, 0, 0,0.0,0.0,0.0,0.5,0.0,0.0,0.0,1.0,0.0,0.0,0.0,0.0,0.0,40,maven-aether-provider\src\main\java\org\apache\maven\repository\internal\ArtifactDescriptorUtils.java,0,0,0,0
org.apache.maven.repository.internal.DefaultModelCache, 0, 0, 0, 0, 0, 0, 0, 1, 0, 0, 0, 0, 0, 1,0.0,0.0,0.0,0.0,0.0,0.0,0.0,0.0,0.0,0.0,0.0,0.0,0.0,71,maven-aether-provider\src\main\java\org\apache\maven\repository\internal\DefaultModelCache.java,0,0,0,0
org.apache.maven.repository.internal.DefaultModelResolver, 0, 0, 0, 0, 0, 0, 0, 1, 0, 0, 0, 0, 0, 1,0.0,0.0,0.0,0.0,0.0,0.0,0.0,0.3333333333333333,0.0,0.0,0.0,0.0,0.0,66,maven-aether-provider\src\main\java\org\apache\maven\repository\internal\DefaultModelResolver.java,0,0,0,0
org.apache.maven.repository.internal.DefaultServiceLocator, 0, 0, 0, 0, 0, 0, 0, 0, 0, 0, 0, 0, 0, 0,0.0,0.0,0.0,0.0,0.0,0.0,0.0,0.0,0.0,0.0,0.0,0.0,0.0,12,maven-aether-provider\src\main\java\org\apache\maven\repository\internal\DefaultServiceLocator.java,0,0,0,0
org.apache.maven.repository.internal.DefaultServiceLocatorTest, 0, 0, 0, 0, 0, 0, 0, 0, 0, 0, 0, 0, 0, 0,0.0,0.0,0.0,0.0,0.0,0.0,0.0,0.0,0.0,0.0,0.0,0.0,0.0,15,maven-aether-provider\src\test\java\org\apache\maven\repository\internal\DefaultServiceLocatorTest.java,0,1,2,5
org.apache.maven.repository.internal.MavenRepositorySystemSession, 0, 0, 0, 0, 0, 0, 0, 0, 0, 0, 0, 0, 0, 0,0.0,0.0,0.0,0.3333333333333333,0.0,0.0,0.0,0.0,0.0,0.0,0.0,0.0,0.0,41,maven-aether-provider\src\main\java\org\apache\maven\repository\internal\MavenRepositorySystemSession.java,0,0,0,0
org.apache.maven.repository.internal.SnapshotMetadataGeneratorFactory, 0, 0, 0, 0, 0, 0, 0, 0, 0, 0, 0, 0, 0, 0,0.0,0.0,0.0,0.0,0.0,0.0,0.0,0.0,0.0,0.0,0.0,0.0,0.0,16,maven-aether-provider\src\main\java\org\apache\maven\repository\internal\SnapshotMetadataGeneratorFactory.java,0,0,0,0
org.apache.maven.repository.internal.VersionsMetadata, 0, 0, 0, 0, 0, 0, 0, 0, 0, 0, 0, 0, 0, 0,0.0,0.0,0.0,0.0,0.0,0.0,0.0,0.0,0.0,0.0,0.0,0.0,0.0,81,maven-aether-provider\src\main\java\org\apache\maven\repository\internal\VersionsMetadata.java,0,0,0,0
org.apache.maven.repository.internal.VersionsMetadataGeneratorFactory, 0, 0, 0, 0, 0, 0, 0, 0, 0, 0, 0, 0, 0, 0,0.0,0.0,0.0,0.0,0.0,0.0,0.0,0.0,0.0,0.0,0.0,0.0,0.0,16,maven-aether-provider\src\main\java\org\apache\maven\repository\internal\VersionsMetadataGeneratorFactory.java,0,0,0,0
org.apache.maven.repository.legacy.ChecksumFailedException, 0, 0, 0, 0, 0, 0, 0, 0, 0, 0, 0, 0, 0, 0,0.0,0.0,0.0,1.0,0.0,0.0,0.0,0.0,0.0,0.0,0.0,0.0,0.0,13,maven-compat\src\main\java\org\apache\maven\repository\legacy\ChecksumFailedException.java,0,0,0,0
org.apache.maven.repository.legacy.DefaultUpdateCheckManagerTest, 0, 0, 0, 0, 0, 0, 0, 0, 0, 0, 0, 0, 0, 0,0.0,0.0,0.0,0.5,0.0,0.0,0.0,0.0,0.0,0.0,0.0,0.0,0.0,144,maven-compat\src\test\java\org\apache\maven\repository\legacy\DefaultUpdateCheckManagerTest.java,0,0,0,0
org.apache.maven.repository.legacy.DefaultWagonManagerTest, 0, 0, 0, 1, 0, 0, 0, 0, 0, 0, 0, 0, 0, 1,0.0,0.0,0.0,0.0,0.0,0.0,0.0,0.0,0.0,0.0,0.0,0.0,0.0,280,maven-compat\src\test\java\org\apache\maven\repository\legacy\DefaultWagonManagerTest.java,0,0,0,0
org.apache.maven.repository.legacy.LegacyRepositorySystemTest, 0, 0, 0, 0, 0, 0, 0, 0, 0, 0, 0, 0, 0, 0,0.0,0.0,0.0,0.0,0.0,0.0,0.0,0.0,0.0,0.0,0.0,0.0,0.0,41,maven-compat\src\test\java\org\apache\maven\repository\legacy\LegacyRepositorySystemTest.java,0,0,0,0
org.apache.maven.repository.legacy.MavenArtifact, 0, 0, 0, 0, 0, 0, 0, 0, 0, 0, 0, 0, 0, 0,0.0,0.0,0.0,0.0,0.0,0.0,0.0,0.0,0.0,0.0,0.0,0.0,0.0,58,maven-compat\src\main\java\org\apache\maven\repository\legacy\MavenArtifact.java,0,0,0,0
org.apache.maven.repository.legacy.PerLookupWagon, 0, 0, 0, 0, 0, 0, 0, 0, 0, 0, 0, 0, 0, 0,0.0,0.0,0.0,0.0,0.0,0.0,0.0,0.0,0.0,0.0,0.0,0.0,0.0,8,maven-compat\src\test\java\org\apache\maven\repository\legacy\PerLookupWagon.java,0,0,0,0
org.apache.maven.repository.legacy.UpdateCheckManager, 0, 0, 0, 0, 0, 0, 0, 0, 0, 0, 0, 0, 0, 0,0.0,0.0,0.0,0.0,0.0,0.0,0.0,0.0,0.0,0.0,0.0,0.0,0.0,8,maven-compat\src\main\java\org\apache\maven\repository\legacy\UpdateCheckManager.java,0,0,0,0
org.apache.maven.repository.legacy.WagonA, 0, 0, 0, 0, 0, 0, 0, 0, 0, 0, 0, 0, 0, 0,0.0,0.0,0.0,0.0,0.0,0.0,0.0,0.0,0.0,0.0,0.0,0.0,0.0,8,maven-compat\src\test\java\org\apache\maven\repository\legacy\WagonA.java,0,0,0,0
org.apache.maven.repository.legacy.WagonB, 0, 0, 0, 0, 0, 0, 0, 0, 0, 0, 0, 0, 0, 0,0.0,0.0,0.0,0.0,0.0,0.0,0.0,0.0,0.0,0.0,0.0,0.0,0.0,8,maven-compat\src\test\java\org\apache\maven\repository\legacy\WagonB.java,0,0,0,0
org.apache.maven.repository.legacy.WagonC, 0, 0, 0, 0, 0, 0, 0, 0, 0, 0, 0, 0, 0, 0,0.0,0.0,0.0,0.0,0.0,0.0,0.0,0.0,0.0,0.0,0.0,0.0,0.0,8,maven-compat\src\main\java\org\apache\maven\repository\legacy\WagonConfigurationException.java,0,0,0,0
org.apache.maven.repository.legacy.WagonConfigurationException, 0, 0, 0, 0, 0, 0, 0, 0, 0, 1, 0, 0, 0, 1,0.0,0.0,0.0,0.0,0.0,0.0,0.0,0.0,0.0,1.0,0.0,0.0,0.0,30,maven-compat\src\main\java\org\apache\maven\repository\legacy\WagonConfigurationException.java,0,0,0,0
org.apache.maven.repository.legacy.WagonManager, 0, 0, 0, 0, 0, 0, 0, 0, 0, 0, 0, 0, 0, 0,0.0,0.0,0.0,0.0,0.0,0.0,0.0,0.0,0.0,0.0,0.0,0.0,0.0,30,maven-compat\src\main\java\org\apache\maven\repository\legacy\WagonManager.java,0,0,0,0
org.apache.maven.repository.legacy.WagonMock, 0, 0, 0, 0, 0, 0, 0, 0, 0, 0, 0, 0, 0, 0,0.0,0.0,0.0,0.0,0.0,0.0,0.0,0.0,0.0,0.0,0.0,0.0,0.0,13,maven-compat\src\test\java\org\apache\maven\repository\legacy\WagonMock.java,0,0,0,0
org.apache.maven.repository.legacy.metadata.ArtifactMetadata, 0, 0, 0, 0, 0, 0, 0, 0, 0, 0, 0, 0, 0, 0,0.0,0.0,0.0,0.0,0.0,0.0,0.0,0.0,0.0,0.0,0.0,0.0,0.0,13,maven-artifact\src\main\java\org\apache\maven\repository\legacy\metadata\ArtifactMetadata.java,0,0,0,0
org.apache.maven.repository.legacy.metadata.ArtifactMetadataRetrievalException, 0, 0, 0, 0, 0, 0, 0, 0, 0, 1, 0, 0, 0, 1,0.0,0.0,0.0,0.0,0.0,0.0,0.0,0.0,0.0,0.5,0.0,0.0,0.0,32,maven-core\src\main\java\org\apache\maven\repository\legacy\metadata\ArtifactMetadataRetrievalException.java,0,0,0,0
org.apache.maven.repository.legacy.metadata.ArtifactMetadataSource, 0, 0, 0, 0, 0, 0, 0, 0, 0, 0, 0, 0, 0, 0,0.0,0.0,0.0,0.0,0.0,0.0,0.0,0.0,0.0,0.0,0.0,0.0,0.0,32,maven-core\src\main\java\org\apache\maven\repository\legacy\metadata\ArtifactMetadataSource.java,0,0,0,0
org.apache.maven.repository.legacy.metadata.DefaultMetadataResolutionRequest, 0, 0, 0, 1, 0, 0, 0, 0, 0, 0, 0, 0, 0, 1,0.0,0.0,0.0,0.0,0.0,0.0,0.0,0.0,0.0,0.0,0.0,0.0,0.0,73,maven-core\src\main\java\org\apache\maven\repository\legacy\metadata\DefaultMetadataResolutionRequest.java,0,0,0,0
org.apache.maven.repository.legacy.metadata.MetadataResolutionRequest, 0, 0, 0, 0, 0, 0, 0, 0, 0, 0, 0, 0, 0, 0,0.0,0.0,0.0,0.0,0.0,0.0,0.0,0.0,0.0,0.0,0.0,0.0,0.0,73,maven-core\src\main\java\org\apache\maven\repository\legacy\metadata\MetadataResolutionRequest.java,0,0,0,0
org.apache.maven.repository.legacy.repository.ArtifactRepositoryFactory, 0, 0, 0, 0, 0, 0, 0, 0, 0, 0, 0, 0, 0, 0,0.0,0.0,0.0,0.0,0.0,0.0,0.0,0.0,0.0,0.0,0.0,0.0,0.0,73,maven-compat\src\main\java\org\apache\maven\repository\legacy\repository\ArtifactRepositoryFactory.java,0,0,0,0
org.apache.maven.repository.legacy.resolver.conflict.AbstractConflictResolverTest, 0, 0, 0, 1, 0, 0, 0, 1, 0, 0, 0, 0, 0, 2,0.0,0.0,0.0,0.2,0.0,0.0,0.0,0.0,0.0,0.0,0.0,0.0,0.0,70,maven-compat\src\test\java\org\apache\maven\repository\legacy\resolver\conflict\AbstractConflictResolverTest.java,0,0,0,0
org.apache.maven.repository.legacy.resolver.conflict.ConflictResolver, 0, 0, 0, 0, 0, 0, 0, 0, 0, 0, 0, 0, 0, 0,0.0,0.0,0.0,0.0,0.0,0.0,0.0,0.0,0.0,0.0,0.0,0.0,0.0,70,maven-compat\src\main\java\org\apache\maven\repository\legacy\resolver\conflict\ConflictResolver.java,0,0,0,0
org.apache.maven.repository.legacy.resolver.conflict.ConflictResolverFactory, 0, 0, 0, 0, 0, 0, 0, 0, 0, 0, 0, 0, 0, 0,0.0,0.0,0.0,0.0,0.0,0.0,0.0,0.0,0.0,0.0,0.0,0.0,0.0,70,maven-compat\src\main\java\org\apache\maven\repository\legacy\resolver\conflict\ConflictResolverFactory.java,0,0,0,0
org.apache.maven.repository.legacy.resolver.conflict.ConflictResolverNotFoundException, 0, 0, 0, 0, 0, 0, 0, 0, 0, 0, 0, 0, 0, 0,0.0,0.0,0.0,0.0,0.0,0.0,0.0,0.0,0.0,0.0,0.0,0.0,0.0,9,maven-compat\src\main\java\org\apache\maven\repository\legacy\resolver\conflict\ConflictResolverNotFoundException.java,0,0,0,0
org.apache.maven.repository.legacy.resolver.conflict.DefaultConflictResolver, 0, 0, 0, 0, 0, 0, 0, 0, 0, 0, 0, 0, 0, 0,0.0,0.0,0.0,0.0,0.0,0.0,0.0,0.0,0.0,0.0,0.0,0.0,0.0,4,maven-compat\src\main\java\org\apache\maven\repository\legacy\resolver\conflict\DefaultConflictResolver.java,0,0,0,0
org.apache.maven.repository.legacy.resolver.conflict.DefaultConflictResolverFactory, 0, 0, 0, 0, 0, 0, 0, 0, 0, 0, 0, 0, 0, 0,0.0,0.0,0.0,0.0,0.0,0.0,0.0,0.0,0.0,0.0,0.0,0.0,0.0,23,maven-compat\src\main\java\org\apache\maven\repository\legacy\resolver\conflict\DefaultConflictResolverFactory.java,0,0,0,0
org.apache.maven.repository.legacy.resolver.conflict.FarthestConflictResolver, 0, 0, 0, 0, 0, 0, 0, 0, 0, 0, 0, 0, 0, 0,0.0,0.0,0.0,1.0,0.0,0.0,0.0,0.0,0.0,0.0,0.0,0.0,0.0,8,maven-compat\src\main\java\org\apache\maven\repository\legacy\resolver\conflict\FarthestConflictResolver.java,0,0,0,0
org.apache.maven.repository.legacy.resolver.conflict.FarthestConflictResolverTest, 0, 0, 0, 0, 0, 0, 0, 0, 0, 0, 0, 0, 0, 0,0.0,0.0,0.0,1.0,0.0,0.0,0.0,0.5,0.0,0.0,0.0,0.0,0.0,35,maven-compat\src\test\java\org\apache\maven\repository\legacy\resolver\conflict\FarthestConflictResolverTest.java,0,0,0,0
org.apache.maven.repository.legacy.resolver.conflict.NearestConflictResolver, 0, 0, 0, 0, 0, 0, 0, 0, 0, 0, 0, 0, 0, 0,0.0,0.0,0.0,0.5,0.0,0.0,0.0,0.0,0.0,0.0,0.0,0.0,0.0,8,maven-compat\src\main\java\org\apache\maven\repository\legacy\resolver\conflict\NearestConflictResolver.java,0,0,0,0
org.apache.maven.repository.legacy.resolver.conflict.NearestConflictResolverTest, 0, 0, 0, 0, 0, 0, 0, 0, 0, 0, 0, 0, 0, 0,0.0,0.0,0.0,1.0,0.0,0.0,0.0,0.5,0.0,0.0,0.0,0.0,0.0,35,maven-compat\src\test\java\org\apache\maven\repository\legacy\resolver\conflict\NearestConflictResolverTest.java,0,0,0,0
org.apache.maven.repository.legacy.resolver.conflict.NewestConflictResolver, 0, 0, 0, 0, 0, 0, 0, 0, 0, 0, 0, 0, 0, 0,0.0,0.0,0.0,0.5,0.0,0.0,0.0,0.0,0.0,0.0,0.0,0.0,0.0,17,maven-compat\src\main\java\org\apache\maven\repository\legacy\resolver\conflict\NewestConflictResolver.java,0,0,0,0
org.apache.maven.repository.legacy.resolver.conflict.NewestConflictResolverTest, 0, 0, 0, 0, 0, 0, 0, 0, 0, 0, 0, 0, 0, 0,0.0,0.0,0.0,1.0,0.0,0.0,0.0,0.5,0.0,0.0,0.0,0.0,0.0,35,maven-compat\src\test\java\org\apache\maven\repository\legacy\resolver\conflict\NewestConflictResolverTest.java,0,0,0,0
org.apache.maven.repository.legacy.resolver.conflict.OldestConflictResolver, 0, 0, 0, 0, 0, 0, 0, 0, 0, 0, 0, 0, 0, 0,0.0,0.0,0.0,0.5,0.0,0.0,0.0,0.0,0.0,0.0,0.0,0.0,0.0,17,maven-compat\src\main\java\org\apache\maven\repository\legacy\resolver\conflict\OldestConflictResolver.java,0,0,0,0
org.apache.maven.repository.legacy.resolver.conflict.OldestConflictResolverTest, 0, 0, 0, 0, 0, 0, 0, 0, 0, 0, 0, 0, 0, 0,0.0,0.0,0.0,1.0,0.0,0.0,0.0,0.5,0.0,0.0,0.0,0.0,0.0,35,maven-compat\src\test\java\org\apache\maven\repository\legacy\resolver\conflict\OldestConflictResolverTest.java,0,0,0,0
org.apache.maven.repository.legacy.resolver.transform.AbstractVersionTransformation, 0, 0, 0, 0, 0, 0, 0, 0, 0, 0, 0, 0, 0, 0,0.0,0.0,0.0,0.0,0.0,0.0,0.0,0.0,0.0,0.0,0.0,0.0,0.0,74,maven-compat\src\main\java\org\apache\maven\repository\legacy\resolver\transform\AbstractVersionTransformation.java,0,0,0,0
org.apache.maven.repository.legacy.resolver.transform.ArtifactTransformation, 0, 0, 0, 0, 0, 0, 0, 0, 0, 0, 0, 0, 0, 0,0.0,0.0,0.0,0.0,0.0,0.0,0.0,0.0,0.0,0.0,0.0,0.0,0.0,74,maven-compat\src\main\java\org\apache\maven\repository\legacy\resolver\transform\ArtifactTransformation.java,0,0,0,0
org.apache.maven.repository.legacy.resolver.transform.ArtifactTransformationManager, 0, 0, 0, 0, 0, 0, 0, 0, 0, 0, 0, 0, 0, 0,0.0,0.0,0.0,0.0,0.0,0.0,0.0,0.0,0.0,0.0,0.0,0.0,0.0,74,maven-compat\src\main\java\org\apache\maven\repository\legacy\resolver\transform\ArtifactTransformationManager.java,0,0,0,0
org.apache.maven.repository.legacy.resolver.transform.DefaultArtifactTransformationManager, 0, 0, 0, 0, 0, 0, 0, 0, 0, 0, 0, 0, 0, 0,0.0,0.0,0.0,0.0,0.0,0.0,0.0,0.0,0.0,0.0,0.0,0.0,0.0,44,maven-compat\src\main\java\org\apache\maven\repository\legacy\resolver\transform\DefaultArtifactTransformationManager.java,0,0,0,0
org.apache.maven.repository.legacy.resolver.transform.LatestArtifactTransformation, 0, 0, 0, 0, 0, 0, 0, 0, 0, 0, 0, 0, 0, 0,0.0,0.0,0.0,0.0,0.0,0.0,0.0,0.3333333333333333,0.0,0.0,0.0,0.0,0.0,36,maven-compat\src\main\java\org\apache\maven\repository\legacy\resolver\transform\LatestArtifactTransformation.java,0,0,0,0
org.apache.maven.repository.legacy.resolver.transform.ReleaseArtifactTransformation, 0, 0, 0, 0, 0, 0, 0, 0, 0, 0, 0, 0, 0, 0,0.0,0.0,0.0,0.0,0.0,0.0,0.0,0.25,0.0,0.0,0.0,0.0,0.0,51,maven-compat\src\main\java\org\apache\maven\repository\legacy\resolver\transform\ReleaseArtifactTransformation.java,0,0,0,0
org.apache.maven.repository.legacy.resolver.transform.SnapshotTransformation, 0, 0, 0, 0, 0, 0, 0, 0, 0, 0, 0, 0, 0, 0,0.0,0.0,0.0,0.0,0.0,0.0,0.0,0.0,0.0,0.0,0.0,0.0,0.0,105,maven-compat\src\main\java\org\apache\maven\repository\legacy\resolver\transform\SnapshotTransformation.java,0,0,0,0
org.apache.maven.repository.metadata.ArtifactMetadata, 0, 0, 0, 1, 0, 0, 0, 1, 0, 0, 0, 0, 0, 2,0.0,0.0,0.0,0.25,0.0,0.0,0.0,0.125,0.0,0.0,0.0,0.0,0.0,222,maven-compat\src\main\java\org\apache\maven\repository\metadata\ArtifactMetadata.java,0,0,0,0
org.apache.maven.repository.metadata.ClasspathTransformation, 0, 0, 0, 0, 0, 0, 0, 0, 0, 0, 0, 0, 0, 0,0.0,0.0,0.0,0.0,0.0,0.0,0.0,0.0,0.0,0.0,0.0,0.0,0.0,222,maven-compat\src\main\java\org\apache\maven\repository\metadata\ClasspathTransformation.java,0,0,0,0
org.apache.maven.repository.metadata.DefaultClasspathTransformationTest, 0, 0, 0, 0, 0, 0, 0, 0, 0, 0, 0, 0, 0, 0,0.0,0.0,0.0,1.0,0.0,0.0,0.0,1.0,0.0,0.0,0.0,0.0,0.0,59,maven-compat\src\test\java\org\apache\maven\repository\metadata\DefaultClasspathTransformationTest.java,0,0,0,0
org.apache.maven.repository.metadata.DefaultGraphConflictResolutionPolicy, 0, 0, 0, 0, 0, 0, 0, 0, 0, 0, 0, 0, 0, 0,0.0,0.0,0.0,1.0,0.0,0.0,0.0,1.0,0.0,0.0,0.0,0.0,0.0,28,maven-compat\src\main\java\org\apache\maven\repository\metadata\DefaultGraphConflictResolutionPolicy.java,0,0,0,0
org.apache.maven.repository.metadata.DefaultGraphConflictResolutionPolicyTest, 0, 0, 0, 0, 0, 0, 0, 0, 0, 0, 0, 0, 0, 0,0.0,0.0,0.0,1.0,0.0,0.0,0.0,1.0,0.0,0.0,0.0,0.0,0.0,26,maven-compat\src\test\java\org\apache\maven\repository\metadata\DefaultGraphConflictResolutionPolicyTest.java,0,0,0,0
org.apache.maven.repository.metadata.DefaultGraphConflictResolver, 0, 0, 0, 0, 0, 0, 0, 0, 0, 0, 0, 0, 0, 0,0.0,0.0,0.0,0.5,0.0,0.0,0.0,0.5,0.0,0.0,0.0,0.0,0.0,157,maven-compat\src\main\java\org\apache\maven\repository\metadata\DefaultGraphConflictResolver.java,0,0,0,0
org.apache.maven.repository.metadata.DefaultGraphConflictResolverTest, 0, 0, 0, 0, 0, 0, 0, 0, 0, 0, 0, 0, 0, 0,0.0,0.0,0.0,1.0,0.0,0.0,0.0,1.0,0.0,0.0,0.0,0.0,0.0,80,maven-compat\src\test\java\org\apache\maven\repository\metadata\DefaultGraphConflictResolverTest.java,0,0,0,0
org.apache.maven.repository.metadata.GraphConflictResolutionException, 0, 0, 0, 0, 0, 0, 0, 0, 0, 0, 0, 0, 0, 0,0.0,0.0,0.0,0.0,0.0,0.0,0.0,0.0,0.0,0.0,0.0,0.0,0.0,20,maven-compat\src\main\java\org\apache\maven\repository\metadata\GraphConflictResolutionException.java,0,0,0,0
org.apache.maven.repository.metadata.GraphConflictResolutionPolicy, 0, 0, 0, 0, 0, 0, 0, 0, 0, 0, 0, 0, 0, 0,0.0,0.0,0.0,0.0,0.0,0.0,0.0,0.0,0.0,0.0,0.0,0.0,0.0,20,maven-compat\src\main\java\org\apache\maven\repository\metadata\GraphConflictResolutionPolicy.java,0,0,0,0
org.apache.maven.repository.metadata.GraphConflictResolver, 0, 0, 0, 0, 0, 0, 0, 0, 0, 0, 0, 0, 0, 0,0.0,0.0,0.0,0.0,0.0,0.0,0.0,0.0,0.0,0.0,0.0,0.0,0.0,20,maven-compat\src\main\java\org\apache\maven\repository\metadata\GraphConflictResolver.java,0,0,0,0
org.apache.maven.repository.metadata.MetadataGraphEdge, 0, 0, 0, 1, 0, 0, 0, 1, 0, 0, 0, 0, 0, 2,0.0,0.0,0.0,0.16666666666666666,0.0,0.0,0.0,0.16666666666666666,0.0,0.0,0.0,0.0,0.0,119,maven-compat\src\main\java\org\apache\maven\repository\metadata\MetadataGraphEdge.java,0,0,0,0
org.apache.maven.repository.metadata.MetadataGraphTransformationException, 0, 0, 0, 0, 0, 0, 0, 0, 0, 0, 0, 0, 0, 0,0.0,0.0,0.0,0.0,0.0,0.0,0.0,0.0,0.0,0.0,0.0,0.0,0.0,20,maven-compat\src\main\java\org\apache\maven\repository\metadata\MetadataGraphTransformationException.java,0,0,0,0
org.apache.maven.repository.metadata.MetadataResolution, 0, 0, 0, 0, 0, 0, 0, 0, 0, 0, 0, 0, 0, 0,0.0,0.0,0.0,1.0,0.0,0.0,0.0,1.0,0.0,0.0,0.0,0.0,0.0,30,maven-compat\src\main\java\org\apache\maven\repository\metadata\MetadataResolution.java,0,0,0,0
org.apache.maven.repository.metadata.MetadataResolutionException, 0, 0, 0, 0, 0, 0, 0, 0, 0, 0, 0, 0, 0, 0,0.0,0.0,0.0,0.5,0.0,0.0,0.0,0.0,0.0,0.0,0.0,0.0,0.0,19,maven-compat\src\main\java\org\apache\maven\repository\metadata\MetadataResolutionException.java,0,0,0,0
org.apache.maven.repository.metadata.MetadataResolutionRequest, 0, 0, 0, 0, 0, 0, 0, 0, 0, 0, 0, 0, 0, 0,0.0,0.0,0.0,1.0,0.0,0.0,0.0,1.0,0.0,0.0,0.0,0.0,0.0,40,maven-compat\src\main\java\org\apache\maven\repository\metadata\MetadataResolutionRequest.java,0,0,0,0
org.apache.maven.repository.metadata.MetadataResolutionResult, 0, 0, 0, 0, 0, 0, 0, 0, 0, 0, 0, 0, 0, 0,0.0,0.0,0.0,1.0,0.0,0.0,0.0,0.0,0.0,0.0,0.0,0.0,0.0,114,maven-compat\src\main\java\org\apache\maven\repository\metadata\MetadataResolutionResult.java,0,0,0,0
org.apache.maven.repository.metadata.MetadataRetrievalException, 0, 0, 0, 0, 0, 0, 0, 0, 0, 0, 0, 0, 0, 0,0.0,0.0,0.0,1.0,0.0,0.0,0.0,1.0,0.0,0.0,0.0,0.0,0.0,25,maven-compat\src\main\java\org\apache\maven\repository\metadata\MetadataRetrievalException.java,0,0,0,0
org.apache.maven.repository.metadata.MetadataSource, 0, 0, 0, 0, 0, 0, 0, 0, 0, 0, 0, 0, 0, 0,0.0,0.0,0.0,0.0,0.0,0.0,0.0,0.0,0.0,0.0,0.0,0.0,0.0,25,maven-compat\src\main\java\org\apache\maven\repository\metadata\MetadataSource.java,0,0,0,0
org.apache.maven.repository.metadata.MetadataTreeNode, 0, 0, 0, 1, 0, 0, 0, 0, 0, 0, 0, 0, 0, 1,0.0,0.0,0.0,0.3333333333333333,0.0,0.0,0.0,0.3333333333333333,0.0,0.0,0.0,0.0,0.0,87,maven-compat\src\main\java\org\apache\maven\repository\metadata\MetadataTreeNode.java,0,0,0,0
org.apache.maven.repository.metadata.TestMetadataSource, 0, 0, 0, 0, 0, 0, 0, 0, 0, 0, 0, 0, 0, 0,0.0,0.0,0.0,0.0,0.0,0.0,0.0,0.0,0.0,1.0,0.0,0.0,0.0,53,maven-compat\src\test\java\org\apache\maven\repository\metadata\TestMetadataSource.java,0,0,0,0
org.apache.maven.rtinfo.RuntimeInformation, 0, 0, 0, 0, 0, 0, 0, 0, 0, 0, 0, 0, 0, 0,0.0,0.0,0.0,0.0,0.0,0.0,0.0,0.0,0.0,0.0,0.0,0.0,0.0,53,maven-core\src\main\java\org\apache\maven\rtinfo\RuntimeInformation.java,0,0,0,0
org.apache.maven.rtinfo.internal.DefaultRuntimeInformationTest, 0, 0, 0, 0, 0, 0, 0, 0, 0, 0, 0, 0, 0, 0,0.0,0.0,0.0,0.0,0.0,0.0,0.0,0.0,0.0,0.0,0.0,0.0,0.0,48,maven-core\src\test\java\org\apache\maven\rtinfo\internal\DefaultRuntimeInformationTest.java,0,0,0,0
org.apache.maven.settings.DefaultMavenSettingsBuilder, 0, 0, 0, 0, 0, 0, 0, 0, 0, 0, 0, 0, 0, 0,0.0,0.0,0.0,0.0,0.0,0.0,0.0,0.0,0.0,0.0,0.0,0.0,0.0,80,maven-core\src\main\java\org\apache\maven\settings\DefaultMavenSettingsBuilder.java,0,0,0,0
org.apache.maven.settings.GlobalSettingsTest, 0, 0, 0, 0, 0, 0, 0, 0, 0, 0, 0, 0, 0, 0,0.0,0.0,0.0,0.0,0.0,0.0,0.0,0.0,0.0,0.0,0.0,0.0,0.0,20,apache-maven\src\test\java\org\apache\maven\settings\GlobalSettingsTest.java,0,0,0,0
org.apache.maven.settings.MavenSettingsBuilder, 0, 0, 0, 0, 0, 0, 0, 0, 0, 0, 0, 0, 0, 0,0.0,0.0,0.0,0.0,0.0,0.0,0.0,0.0,0.0,0.0,0.0,0.0,0.0,20,maven-core\src\main\java\org\apache\maven\settings\MavenSettingsBuilder.java,0,0,0,0
org.apache.maven.settings.PomConstructionWithSettingsTest, 0, 0, 0, 0, 0, 0, 0, 0, 0, 0, 0, 0, 0, 0,0.0,0.0,0.0,0.0,0.0,0.0,0.0,0.0,0.0,0.0,0.0,0.0,0.0,83,maven-core\src\test\java\org\apache\maven\settings\PomConstructionWithSettingsTest.java,0,0,0,0
org.apache.maven.settings.RuntimeInfo, 0, 0, 0, 0, 0, 0, 0, 0, 0, 0, 0, 0, 0, 0,0.0,0.0,0.0,0.0,0.0,0.0,0.0,0.0,0.0,0.0,0.0,0.0,0.0,19,maven-settings\src\main\java\org\apache\maven\settings\RuntimeInfo.java,0,0,0,0
org.apache.maven.settings.SettingsConfigurationException, 0, 0, 0, 0, 0, 0, 0, 0, 0, 0, 0, 0, 0, 0,0.0,0.0,0.0,0.0,0.0,0.0,0.0,0.0,0.0,0.0,0.0,0.0,0.0,29,maven-core\src\main\java\org\apache\maven\settings\SettingsConfigurationException.java,0,0,0,0
org.apache.maven.settings.SettingsUtils, 0, 0, 0, 0, 0, 0, 0, 0, 0, 0, 0, 0, 0, 0,0.0,0.0,0.0,0.0,0.0,0.0,0.0,0.0,0.0,0.0,0.0,0.0,0.0,114,maven-core\src\main\java\org\apache\maven\settings\SettingsUtils.java,1,83,0,84
org.apache.maven.settings.SettingsUtilsTest, 0, 0, 0, 0, 0, 0, 0, 0, 0, 0, 0, 0, 0, 0,0.0,0.0,0.0,0.0,0.0,0.0,0.0,0.0,0.0,0.0,0.0,0.0,0.0,19,maven-core\src\test\java\org\apache\maven\settings\SettingsUtilsTest.java,0,0,0,0
org.apache.maven.settings.building.DefaultSettingsBuilderFactory, 0, 0, 0, 0, 0, 0, 0, 0, 0, 0, 0, 0, 0, 0,0.0,0.0,0.0,0.0,0.0,0.0,0.0,0.0,0.0,0.0,0.0,0.0,0.0,23,maven-settings-builder\src\main\java\org\apache\maven\settings\building\DefaultSettingsBuilderFactory.java,0,0,0,0
org.apache.maven.settings.building.DefaultSettingsBuilderFactoryTest, 0, 0, 0, 0, 0, 0, 0, 0, 0, 0, 0, 0, 0, 0,0.0,0.0,0.0,0.0,0.0,0.0,0.0,0.0,0.0,0.0,0.0,0.0,0.0,20,maven-settings-builder\src\test\java\org\apache\maven\settings\building\DefaultSettingsBuilderFactoryTest.java,0,0,0,0
org.apache.maven.settings.building.DefaultSettingsBuildingResult, 0, 0, 0, 0, 0, 0, 0, 0, 0, 0, 0, 0, 0, 0,0.0,0.0,0.0,0.0,0.0,0.0,0.0,0.0,0.0,0.0,0.0,0.0,0.0,19,maven-settings-builder\src\main\java\org\apache\maven\settings\building\DefaultSettingsBuildingResult.java,0,0,0,0
org.apache.maven.settings.building.DefaultSettingsProblemCollector, 0, 0, 0, 0, 0, 0, 0, 1, 0, 0, 0, 0, 0, 1,0.0,0.0,0.0,0.0,0.0,0.0,0.0,0.0,0.0,0.0,0.0,0.0,0.0,29,maven-settings-builder\src\main\java\org\apache\maven\settings\building\DefaultSettingsProblemCollector.java,0,0,0,0
org.apache.maven.settings.building.FileSettingsSource, 0, 0, 0, 0, 0, 0, 0, 0, 0, 0, 0, 0, 0, 0,0.0,0.0,0.0,0.0,0.0,0.0,0.0,0.0,0.0,0.0,0.0,0.0,0.0,31,maven-settings-builder\src\main\java\org\apache\maven\settings\building\FileSettingsSource.java,0,0,0,0
org.apache.maven.settings.building.SettingsBuilder, 0, 0, 0, 0, 0, 0, 0, 0, 0, 0, 0, 0, 0, 0,0.0,0.0,0.0,0.0,0.0,0.0,0.0,0.0,0.0,0.0,0.0,0.0,0.0,31,maven-settings-builder\src\main\java\org\apache\maven\settings\building\SettingsBuilder.java,0,0,0,0
org.apache.maven.settings.building.SettingsBuildingException, 0, 0, 0, 0, 0, 0, 0, 0, 0, 0, 0, 0, 0, 0,0.0,0.0,0.0,0.0,0.0,0.0,0.0,0.0,0.0,0.0,0.0,0.0,0.0,37,maven-settings-builder\src\main\java\org\apache\maven\settings\building\SettingsBuildingException.java,0,0,0,0
org.apache.maven.settings.building.SettingsBuildingRequest, 0, 0, 0, 0, 0, 0, 0, 0, 0, 0, 0, 0, 0, 0,0.0,0.0,0.0,0.0,0.0,0.0,0.0,0.0,0.0,0.0,0.0,0.0,0.0,37,maven-settings-builder\src\main\java\org\apache\maven\settings\building\SettingsBuildingRequest.java,0,0,0,0
org.apache.maven.settings.building.SettingsBuildingResult, 0, 0, 0, 0, 0, 0, 0, 0, 0, 0, 0, 0, 0, 0,0.0,0.0,0.0,0.0,0.0,0.0,0.0,0.0,0.0,0.0,0.0,0.0,0.0,37,maven-settings-builder\src\main\java\org\apache\maven\settings\building\SettingsBuildingResult.java,0,0,0,0
org.apache.maven.settings.building.SettingsProblem, 0, 0, 0, 0, 0, 0, 0, 0, 0, 0, 0, 0, 0, 0,0.0,0.0,0.0,0.0,0.0,0.0,0.0,0.0,0.0,0.0,0.0,0.0,0.0,37,maven-settings-builder\src\main\java\org\apache\maven\settings\building\SettingsProblem.java,0,0,0,0
org.apache.maven.settings.building.SettingsProblemCollector, 0, 0, 0, 0, 0, 0, 0, 0, 0, 0, 0, 0, 0, 0,0.0,0.0,0.0,0.0,0.0,0.0,0.0,0.0,0.0,0.0,0.0,0.0,0.0,37,maven-settings-builder\src\main\java\org\apache\maven\settings\building\SettingsProblemCollector.java,0,0,0,0
org.apache.maven.settings.building.SettingsSource, 0, 0, 0, 0, 0, 0, 0, 0, 0, 0, 0, 0, 0, 0,0.0,0.0,0.0,0.0,0.0,0.0,0.0,0.0,0.0,0.0,0.0,0.0,0.0,37,maven-settings-builder\src\main\java\org\apache\maven\settings\building\SettingsSource.java,0,0,0,0
org.apache.maven.settings.building.UrlSettingsSource, 0, 0, 0, 0, 0, 0, 0, 0, 0, 0, 0, 0, 0, 0,0.0,0.0,0.0,0.0,0.0,0.0,0.0,0.0,0.0,0.0,0.0,0.0,0.0,31,maven-settings-builder\src\main\java\org\apache\maven\settings\building\UrlSettingsSource.java,0,0,0,0
org.apache.maven.settings.crypto.DefaultSettingsDecrypter, 0, 0, 0, 0, 0, 0, 0, 0, 0, 0, 0, 0, 0, 0,0.0,0.0,0.0,0.0,0.0,0.0,0.0,0.0,0.0,0.0,0.0,0.0,0.0,55,maven-settings-builder\src\main\java\org\apache\maven\settings\crypto\DefaultSettingsDecrypter.java,0,0,0,0
org.apache.maven.settings.crypto.DefaultSettingsDecryptionRequest, 0, 0, 0, 0, 0, 0, 0, 0, 0, 0, 0, 0, 0, 0,0.0,0.0,0.0,0.0,0.0,0.0,0.0,0.0,0.0,0.0,0.0,0.0,0.0,48,maven-settings-builder\src\main\java\org\apache\maven\settings\crypto\DefaultSettingsDecryptionRequest.java,0,0,0,0
org.apache.maven.settings.crypto.DefaultSettingsDecryptionResult, 0, 0, 0, 0, 0, 0, 0, 0, 0, 0, 0, 0, 0, 0,0.0,0.0,0.0,0.0,0.0,0.0,0.0,0.0,0.0,0.0,0.0,0.0,0.0,33,maven-settings-builder\src\main\java\org\apache\maven\settings\crypto\DefaultSettingsDecryptionResult.java,0,0,0,0
org.apache.maven.settings.crypto.SettingsDecrypter, 0, 0, 0, 0, 0, 0, 0, 0, 0, 0, 0, 0, 0, 0,0.0,0.0,0.0,0.0,0.0,0.0,0.0,0.0,0.0,0.0,0.0,0.0,0.0,33,maven-settings-builder\src\main\java\org\apache\maven\settings\crypto\SettingsDecrypter.java,0,0,0,0
org.apache.maven.settings.crypto.SettingsDecryptionRequest, 0, 0, 0, 0, 0, 0, 0, 0, 0, 0, 0, 0, 0, 0,0.0,0.0,0.0,0.0,0.0,0.0,0.0,0.0,0.0,0.0,0.0,0.0,0.0,33,maven-settings-builder\src\main\java\org\apache\maven\settings\crypto\SettingsDecryptionRequest.java,0,0,0,0
org.apache.maven.settings.crypto.SettingsDecryptionResult, 0, 0, 0, 0, 0, 0, 0, 0, 0, 0, 0, 0, 0, 0,0.0,0.0,0.0,0.0,0.0,0.0,0.0,0.0,0.0,0.0,0.0,0.0,0.0,33,maven-settings-builder\src\main\java\org\apache\maven\settings\crypto\SettingsDecryptionResult.java,0,0,0,0
org.apache.maven.settings.io.SettingsParseException, 0, 0, 0, 0, 0, 0, 0, 0, 0, 0, 0, 0, 0, 0,0.0,0.0,0.0,0.0,0.0,0.0,0.0,1.0,0.0,0.0,0.0,0.0,0.0,27,maven-settings-builder\src\main\java\org\apache\maven\settings\io\SettingsParseException.java,0,0,0,0
org.apache.maven.settings.validation.SettingsValidator, 0, 0, 0, 0, 0, 0, 0, 0, 0, 0, 0, 0, 0, 0,0.0,0.0,0.0,0.0,0.0,0.0,0.0,0.0,0.0,0.0,0.0,0.0,0.0,27,maven-settings-builder\src\main\java\org\apache\maven\settings\validation\SettingsValidator.java,0,0,0,0
org.apache.maven.test.error.mojoFailure.App, 0, 0, 0, 0, 0, 0, 0, 0, 0, 0, 0, 0, 0, 0,0.0,0.0,0.0,0.0,0.0,0.0,0.0,0.0,0.0,0.0,0.0,0.0,0.0,7,maven-embedder\src\test\error-reporting-projects\err-resolving-project-dep\project\src\main\java\org\apache\maven\test\error\mojoFailure\App.java,0,0,0,0
org.apache.maven.test.error.mojoFailure.AppTest, 0, 0, 0, 0, 0, 0, 0, 0, 0, 0, 0, 0, 0, 0,0.0,0.0,0.0,0.0,0.0,0.0,0.0,0.0,0.0,0.0,0.0,0.0,0.0,16,maven-embedder\src\test\error-reporting-projects\err-resolving-project-dep\project\src\test\java\org\apache\maven\test\error\mojoFailure\AppTest.java,0,0,0,0
org.apache.maven.toolchain.DefaultToolchainsBuilder, 0, 0, 0, 0, 0, 0, 0, 0, 0, 0, 0, 0, 0, 0,0.0,0.0,0.0,0.0,0.0,0.0,0.0,0.0,0.0,0.0,0.0,0.0,0.0,34,maven-core\src\main\java\org\apache\maven\toolchain\DefaultToolchainsBuilder.java,0,0,0,0
org.apache.maven.toolchain.MisconfiguredToolchainException, 0, 0, 0, 0, 0, 0, 0, 0, 0, 0, 0, 0, 0, 0,0.0,0.0,0.0,0.0,0.0,0.0,0.0,0.0,0.0,0.0,0.0,0.0,0.0,11,maven-core\src\main\java\org\apache\maven\toolchain\MisconfiguredToolchainException.java,0,0,0,0
org.apache.maven.toolchain.RequirementMatcher, 0, 0, 0, 0, 0, 0, 0, 0, 0, 0, 0, 0, 0, 0,0.0,0.0,0.0,0.0,0.0,0.0,0.0,0.0,0.0,0.0,0.0,0.0,0.0,11,maven-core\src\main\java\org\apache\maven\toolchain\RequirementMatcher.java,0,0,0,0
org.apache.maven.toolchain.RequirementMatcherFactory, 0, 0, 0, 0, 0, 0, 0, 0, 0, 0, 0, 0, 0, 0,0.0,0.0,0.0,0.0,0.0,0.0,0.0,0.0,0.0,0.0,0.0,0.0,0.0,55,maven-core\src\main\java\org\apache\maven\toolchain\RequirementMatcherFactory.java,0,0,0,0
org.apache.maven.toolchain.RequirementMatcherFactoryTest, 0, 0, 0, 0, 0, 0, 0, 0, 0, 0, 0, 0, 0, 0,0.0,0.0,0.0,0.0,0.0,0.0,0.0,0.0,0.0,0.0,0.0,0.0,0.0,29,maven-core\src\test\java\org\apache\maven\toolchain\RequirementMatcherFactoryTest.java,0,0,0,0
org.apache.maven.toolchain.Toolchain, 0, 0, 0, 0, 0, 0, 0, 0, 0, 0, 0, 0, 0, 0,0.0,0.0,0.0,0.0,0.0,0.0,0.0,0.0,0.0,0.0,0.0,0.0,0.0,29,maven-core\src\main\java\org\apache\maven\toolchain\Toolchain.java,0,0,0,0
org.apache.maven.toolchain.ToolchainFactory, 0, 0, 0, 0, 0, 0, 0, 0, 0, 0, 0, 0, 0, 0,0.0,0.0,0.0,0.0,0.0,0.0,0.0,0.0,0.0,0.0,0.0,0.0,0.0,29,maven-core\src\main\java\org\apache\maven\toolchain\ToolchainFactory.java,0,0,0,0
org.apache.maven.toolchain.ToolchainManager, 0, 0, 0, 0, 0, 0, 0, 0, 0, 0, 0, 0, 0, 0,0.0,0.0,0.0,0.0,0.0,0.0,0.0,0.0,0.0,0.0,0.0,0.0,0.0,29,maven-core\src\main\java\org\apache\maven\toolchain\ToolchainManager.java,0,0,0,0
org.apache.maven.toolchain.ToolchainManagerPrivate, 0, 0, 0, 0, 0, 0, 0, 0, 0, 0, 0, 0, 0, 0,0.0,0.0,0.0,0.0,0.0,0.0,0.0,0.0,0.0,0.0,0.0,0.0,0.0,29,maven-core\src\main\java\org\apache\maven\toolchain\ToolchainManagerPrivate.java,0,0,0,0
org.apache.maven.toolchain.ToolchainsBuilder, 0, 0, 0, 0, 0, 0, 0, 0, 0, 0, 0, 0, 0, 0,0.0,0.0,0.0,0.0,0.0,0.0,0.0,0.0,0.0,0.0,0.0,0.0,0.0,29,maven-core\src\main\java\org\apache\maven\toolchain\ToolchainsBuilder.java,0,0,0,0
org.apache.maven.toolchain.java.DefaultJavaToolChain, 0, 0, 0, 0, 0, 0, 0, 0, 0, 0, 0, 0, 0, 0,0.0,0.0,0.0,0.0,0.0,0.0,0.0,0.0,0.0,0.0,0.0,0.0,0.0,44,maven-core\src\main\java\org\apache\maven\toolchain\java\DefaultJavaToolChain.java,0,0,0,0
org.apache.maven.toolchain.java.DefaultJavaToolchainFactory, 0, 0, 0, 0, 0, 0, 0, 0, 0, 0, 0, 0, 0, 0,0.0,0.0,0.0,0.0,0.0,0.0,0.0,0.0,0.0,0.0,0.0,0.0,0.0,64,maven-core\src\main\java\org\apache\maven\toolchain\java\DefaultJavaToolchainFactory.java,0,0,0,0
org.apache.maven.toolchain.java.JavaToolChain, 0, 0, 0, 0, 0, 0, 0, 0, 0, 0, 0, 0, 0, 0,0.0,0.0,0.0,0.0,0.0,0.0,0.0,0.0,0.0,0.0,0.0,0.0,0.0,64,maven-core\src\main\java\org\apache\maven\toolchain\java\JavaToolChain.java,0,0,0,0
org.apache.maven.usability.plugin.ExpressionDocumentationException, 0, 0, 0, 0, 0, 0, 0, 0, 0, 0, 0, 0, 0, 0,0.0,0.0,0.0,0.0,0.0,0.0,0.0,0.0,0.0,0.0,0.0,0.0,0.0,13,maven-compat\src\main\java\org\apache\maven\usability\plugin\ExpressionDocumentationException.java,0,0,0,0
org.codehaus.m2eclipse.App, 0, 0, 0, 0, 0, 0, 0, 0, 0, 0, 0, 0, 0, 0,0.0,0.0,0.0,0.0,0.0,0.0,0.0,0.0,0.0,0.0,0.0,0.0,0.0,7,maven-embedder\src\test\projects\isolated-project-getting-parent-pom\project\src\main\java\org\codehaus\m2eclipse\App.java,0,0,0,0
org.codehaus.m2eclipse.AppTest, 0, 0, 0, 0, 0, 0, 0, 0, 0, 0, 0, 0, 0, 0,0.0,0.0,0.0,0.0,0.0,0.0,0.0,0.0,0.0,0.0,0.0,0.0,0.0,16,maven-embedder\src\test\projects\isolated-project-getting-parent-pom\project\src\test\java\org\codehaus\m2eclipse\AppTest.java,0,0,0,0
org.ext.App, 0, 0, 0, 0, 0, 0, 0, 0, 0, 0, 0, 0, 0, 0,0.0,0.0,0.0,0.0,0.0,0.0,0.0,0.0,0.0,0.0,0.0,0.0,0.0,7,maven-embedder\src\test\error-reporting-projects\ext-realm-error\ext\src\main\java\org\ext\App.java,0,0,0,0
org.plugin.ComponentOne, 0, 0, 0, 0, 0, 0, 0, 0, 0, 0, 0, 0, 0, 0,0.0,0.0,0.0,0.0,0.0,0.0,0.0,0.0,0.0,0.0,0.0,0.0,0.0,4,maven-embedder\src\test\error-reporting-projects\ext-plugin-realm-error\plugin\src\main\java\org\plugin\ComponentOne.java,0,0,0,0
org.plugin.ComponentTwo, 0, 0, 0, 0, 0, 0, 0, 0, 0, 0, 0, 0, 0, 0,0.0,0.0,0.0,0.0,0.0,0.0,0.0,0.0,0.0,0.0,0.0,0.0,0.0,4,maven-embedder\src\test\error-reporting-projects\ext-plugin-realm-error\plugin\src\main\java\org\plugin\ComponentTwo.java,0,0,0,0
org.plugin.TestPlugin, 0, 0, 0, 0, 0, 0, 0, 0, 0, 0, 0, 0, 0, 0,0.0,0.0,0.0,0.0,0.0,0.0,0.0,0.0,0.0,0.0,0.0,0.0,0.0,18,maven-embedder\src\test\error-reporting-projects\aggregate-mojo-failure\plugin\src\main\java\org\plugin\TestPlugin.java,0,0,0,0
org.test.App, 0, 0, 0, 0, 0, 0, 0, 0, 0, 0, 0, 0, 0, 0,0.0,0.0,0.0,0.0,0.0,0.0,0.0,0.0,0.0,0.0,0.0,0.0,0.0,7,maven-embedder\src\test\error-reporting-projects\missing-module-pom\child1\src\main\java\org\test\App.java,0,0,0,0
org.test.AppTest, 0, 0, 0, 0, 0, 0, 0, 0, 0, 0, 0, 0, 0, 0,0.0,0.0,0.0,0.0,0.0,0.0,0.0,0.0,0.0,0.0,0.0,0.0,0.0,16,maven-embedder\src\test\error-reporting-projects\missing-module-pom\child1\src\test\java\org\test\AppTest.java,0,0,0,0
