ClassName,AntiSingleton,Blob,ClassDataShouldBePrivate,ComplexClass,LargeClass,LazyClass,LongMethod,LongParameterList,MessageChains,RefusedParentBequest,SpaghettiCode,SpeculativeGenerality,SwissArmyKnife,NumOfAPs,AntiSingleton,Blob,ClassDataShouldBePrivate,ComplexClass,LargeClass,LazyClass,LongMethod,LongParameterList,MessageChains,RefusedParentBequest,SpaghettiCode,SpeculativeGenerality,SwissArmyKnife,LOC,name,deleted,added,changed,all
org.apache.wiki.AllTests, 0, 0, 0, 0, 0, 0, 0, 0, 0, 0, 0, 0, 0, 0,0.0,0.0,0.0,0.0,0.0,0.0,0.0,0.0,0.0,0.0,0.0,0.0,0.0,45,jspwiki-war\src\test\java\org\apache\wiki\AllTests.java,0,0,0,0
org.apache.wiki.InternalWikiException, 0, 0, 0, 0, 0, 0, 0, 0, 0, 0, 0, 0, 0, 0,0.2,0.0,0.0,0.0,0.0,0.0,0.0,0.2,0.0,0.0,0.0,0.0,0.0,8,jspwiki-war\src\main\java\org\apache\wiki\InternalWikiException.java,0,0,0,0
org.apache.wiki.LinkCollector, 0, 0, 0, 0, 0, 0, 0, 0, 0, 0, 0, 0, 0, 0,0.0,0.0,0.0,0.0,0.0,0.0,0.0,0.0,0.0,0.0,0.0,0.0,0.0,10,jspwiki-war\src\main\java\org\apache\wiki\LinkCollector.java,0,0,0,0
org.apache.wiki.PageLock, 0, 0, 0, 0, 0, 0, 0, 1, 0, 0, 0, 0, 0, 1,0.0,0.0,0.0,0.0,0.0,0.0,0.0,0.0,0.0,0.0,0.0,0.0,0.0,40,jspwiki-war\src\main\java\org\apache\wiki\PageLock.java,0,0,0,0
org.apache.wiki.Release, 0, 0, 0, 0, 0, 0, 0, 0, 0, 0, 0, 0, 0, 0,0.0,0.0,0.0,0.0,0.0,0.0,0.0,0.0,0.0,0.0,0.0,0.0,0.0,57,jspwiki-war\src\main\java\org\apache\wiki\Release.java,0,0,1,2
org.apache.wiki.ReleaseTest, 0, 0, 0, 0, 0, 0, 0, 0, 0, 0, 0, 0, 0, 0,0.0,0.0,0.0,0.0,0.0,0.0,0.0,0.0,0.0,0.0,0.0,0.0,0.0,92,jspwiki-war\src\test\java\org\apache\wiki\ReleaseTest.java,0,0,0,0
org.apache.wiki.StringTransmutator, 0, 0, 0, 0, 0, 0, 0, 0, 0, 0, 0, 0, 0, 0,0.0,0.0,0.0,0.0,0.0,0.0,0.0,0.0,0.0,0.0,0.0,0.0,0.0,92,jspwiki-war\src\main\java\org\apache\wiki\StringTransmutator.java,0,0,0,0
org.apache.wiki.TestAuthorizer, 0, 0, 0, 0, 0, 0, 0, 0, 0, 0, 0, 0, 0, 0,0.0,0.0,0.0,0.0,0.0,0.0,0.0,0.0,0.0,0.0,0.0,0.0,0.0,36,jspwiki-war\src\test\java\org\apache\wiki\TestAuthorizer.java,0,0,0,0
org.apache.wiki.Util, 0, 0, 0, 0, 0, 0, 0, 0, 0, 0, 0, 0, 0, 0,0.0,0.0,0.0,0.0,0.0,0.0,0.0,0.0,0.0,0.0,0.0,0.0,0.0,15,jspwiki-war\src\test\java\org\apache\wiki\Util.java,0,0,0,0
org.apache.wiki.VariableManagerTest, 0, 0, 0, 0, 0, 0, 0, 0, 0, 0, 0, 0, 0, 0,0.0,0.0,0.0,0.0,0.0,0.0,0.0,0.0,0.0,0.0,0.0,0.0,0.0,128,jspwiki-war\src\test\java\org\apache\wiki\VariableManagerTest.java,0,0,0,0
org.apache.wiki.Watchable, 0, 0, 0, 0, 0, 0, 0, 0, 0, 0, 0, 0, 0, 0,0.0,0.0,0.0,0.0,0.0,0.0,0.0,0.0,0.0,0.0,0.0,0.0,0.0,128,jspwiki-war\src\main\java\org\apache\wiki\Watchable.java,0,0,0,0
org.apache.wiki.WikiBackgroundThread, 0, 0, 0, 0, 0, 0, 0, 0, 0, 0, 0, 0, 0, 0,0.3333333333333333,0.0,0.0,0.0,0.0,0.0,0.0,0.3333333333333333,0.0,0.0,0.0,0.0,0.0,63,jspwiki-war\src\main\java\org\apache\wiki\WikiBackgroundThread.java,0,0,0,0
org.apache.wiki.WikiProvider, 0, 0, 0, 0, 0, 0, 0, 0, 0, 0, 0, 0, 0, 0,0.0,0.0,0.0,0.0,0.0,0.0,0.0,0.0,0.0,0.0,0.0,0.0,0.0,63,jspwiki-war\src\main\java\org\apache\wiki\WikiProvider.java,0,0,0,0
org.apache.wiki.WikiServlet, 0, 0, 0, 0, 0, 0, 0, 0, 0, 0, 0, 0, 0, 0,0.0,0.0,0.0,0.0,0.0,0.0,0.0,1.0,0.0,0.0,0.0,0.0,0.0,34,jspwiki-war\src\main\java\org\apache\wiki\WikiServlet.java,0,0,0,0
org.apache.wiki.api.engine.AdminBeanManager, 0, 0, 0, 0, 0, 0, 0, 0, 0, 0, 0, 0, 0, 0,0.0,0.0,0.0,0.0,0.0,0.0,0.0,0.0,0.0,0.0,0.0,0.0,0.0,34,jspwiki-war\src\main\java\org\apache\wiki\api\engine\AdminBeanManager.java,0,0,0,0
org.apache.wiki.api.engine.FilterManager, 0, 0, 0, 0, 0, 0, 0, 0, 0, 0, 0, 0, 0, 0,0.0,0.0,0.0,0.0,0.0,0.0,0.0,0.0,0.0,0.0,0.0,0.0,0.0,34,jspwiki-war\src\main\java\org\apache\wiki\api\engine\FilterManager.java,0,0,0,0
org.apache.wiki.api.exceptions.FilterException, 0, 0, 0, 0, 0, 0, 0, 0, 0, 0, 0, 0, 0, 0,0.0,0.0,0.0,0.0,0.0,0.0,0.0,0.0,0.0,0.0,0.0,0.0,0.0,6,jspwiki-war\src\main\java\org\apache\wiki\api\exceptions\FilterException.java,0,0,0,0
org.apache.wiki.api.exceptions.NoRequiredPropertyException, 0, 0, 0, 0, 0, 0, 0, 0, 0, 0, 0, 0, 0, 0,0.0,0.0,0.0,0.0,0.0,0.0,0.0,0.0,0.0,0.0,0.0,0.0,0.0,6,jspwiki-war\src\main\java\org\apache\wiki\api\exceptions\NoRequiredPropertyException.java,0,0,0,0
org.apache.wiki.api.exceptions.NoSuchVariableException, 0, 0, 0, 0, 0, 0, 0, 0, 0, 0, 0, 0, 0, 0,0.0,0.0,0.0,0.0,0.0,0.0,0.0,0.0,0.0,0.0,0.0,0.0,0.0,6,jspwiki-war\src\main\java\org\apache\wiki\api\exceptions\NoSuchVariableException.java,0,0,0,0
org.apache.wiki.api.exceptions.PluginException, 0, 0, 0, 0, 0, 0, 0, 0, 0, 0, 0, 0, 0, 0,0.0,0.0,0.0,0.0,0.0,0.0,0.0,0.0,0.0,0.0,0.0,0.0,0.0,15,jspwiki-war\src\main\java\org\apache\wiki\api\exceptions\PluginException.java,0,0,0,0
org.apache.wiki.api.exceptions.ProviderException, 0, 0, 0, 0, 0, 0, 0, 0, 0, 0, 0, 0, 0, 0,0.23076923076923078,0.0,0.0,0.15384615384615385,0.0,0.0,0.0,0.15384615384615385,0.0,0.0,0.0,0.0,0.0,6,jspwiki-war\src\main\java\org\apache\wiki\api\exceptions\ProviderException.java,0,0,0,0
org.apache.wiki.api.exceptions.RedirectException, 0, 0, 0, 0, 0, 0, 0, 0, 0, 0, 0, 0, 0, 0,0.0,0.0,0.0,0.0,0.0,0.0,0.0,0.5,0.0,0.0,0.0,0.0,0.0,11,jspwiki-war\src\main\java\org\apache\wiki\api\exceptions\RedirectException.java,0,0,0,0
org.apache.wiki.api.exceptions.WikiException, 0, 0, 0, 0, 0, 0, 0, 0, 0, 0, 0, 0, 0, 0,0.0,0.0,0.0,0.0,0.0,0.0,0.0,0.08333333333333333,0.0,0.0,0.0,0.0,0.0,9,jspwiki-war\src\main\java\org\apache\wiki\api\exceptions\WikiException.java,0,0,0,0
org.apache.wiki.api.exceptions.WikiI18nException, 0, 0, 0, 0, 0, 0, 0, 0, 0, 0, 0, 0, 0, 0,0.0,0.0,0.0,0.0,0.0,0.0,0.0,0.0,0.0,0.0,0.0,0.0,0.0,11,jspwiki-war\src\main\java\org\apache\wiki\api\exceptions\WikiI18nException.java,0,0,0,0
org.apache.wiki.api.filters.BasicPageFilter, 0, 0, 0, 0, 0, 0, 0, 0, 0, 0, 0, 0, 0, 0,0.0,0.0,0.25,0.0,0.0,0.0,0.0,0.0,0.0,0.0,0.0,0.0,0.0,32,jspwiki-war\src\main\java\org\apache\wiki\api\filters\BasicPageFilter.java,0,0,0,0
org.apache.wiki.api.filters.PageFilter, 0, 0, 0, 0, 0, 0, 0, 0, 0, 0, 0, 0, 0, 0,0.0,0.0,0.0,0.0,0.0,0.0,0.0,0.0,0.0,0.0,0.0,0.0,0.0,32,jspwiki-war\src\main\java\org\apache\wiki\api\filters\PageFilter.java,0,0,0,0
org.apache.wiki.api.plugin.InitializablePlugin, 0, 0, 0, 0, 0, 0, 0, 0, 0, 0, 0, 0, 0, 0,0.0,0.0,0.0,0.0,0.0,0.0,0.0,0.0,0.0,0.0,0.0,0.0,0.0,32,jspwiki-war\src\main\java\org\apache\wiki\api\plugin\InitializablePlugin.java,0,0,0,0
org.apache.wiki.attachment.AllTests, 0, 0, 0, 0, 0, 0, 0, 0, 0, 0, 0, 0, 0, 0,0.5,0.0,0.0,0.5,0.0,0.0,0.0,0.0,0.0,0.0,0.0,0.0,0.0,13,jspwiki-war\src\test\java\org\apache\wiki\attachment\AllTests.java,0,0,0,0
org.apache.wiki.attachment.Attachment, 0, 0, 0, 0, 0, 0, 0, 1, 0, 0, 0, 0, 0, 1,0.1,0.0,0.0,0.3,0.0,0.0,0.0,0.4,0.0,0.0,0.0,0.0,0.0,37,jspwiki-war\src\main\java\org\apache\wiki\attachment\Attachment.java,0,0,0,0
org.apache.wiki.attachment.AttachmentManagerTest, 1, 0, 0, 1, 0, 0, 0, 0, 0, 0, 0, 0, 0, 2,0.0,0.0,0.0,0.0,0.0,0.0,0.0,0.3333333333333333,0.0,0.0,0.0,0.0,0.0,239,jspwiki-war\src\test\java\org\apache\wiki\attachment\AttachmentManagerTest.java,0,0,0,0
org.apache.wiki.attachment.AttachmentServlet, 0, 0, 0, 0, 0, 0, 0, 1, 0, 0, 0, 0, 0, 1,0.2,0.0,0.0,0.0,0.0,0.0,0.0,0.4,0.0,0.0,0.0,0.0,0.0,410,jspwiki-war\src\main\java\org\apache\wiki\attachment\AttachmentServlet.java,0,0,0,0
org.apache.wiki.attachment.DynamicAttachment, 0, 0, 0, 0, 0, 0, 0, 1, 0, 0, 0, 0, 0, 1,0.0,0.0,0.0,0.0,0.0,0.0,0.0,1.0,0.0,0.0,0.0,0.0,0.0,16,jspwiki-war\src\main\java\org\apache\wiki\attachment\DynamicAttachment.java,0,0,0,0
org.apache.wiki.attachment.DynamicAttachmentProvider, 0, 0, 0, 0, 0, 0, 0, 0, 0, 0, 0, 0, 0, 0,0.0,0.0,0.0,0.0,0.0,0.0,0.0,0.0,0.0,0.0,0.0,0.0,0.0,16,jspwiki-war\src\main\java\org\apache\wiki\attachment\DynamicAttachmentProvider.java,0,0,0,0
org.apache.wiki.auth.AllTests, 0, 0, 0, 0, 0, 0, 0, 0, 0, 0, 0, 0, 0, 0,0.0,0.0,0.0,0.0,0.0,0.0,0.0,0.0,0.0,0.0,0.0,0.0,0.0,21,jspwiki-war\src\test\java\org\apache\wiki\auth\AllTests.java,0,0,0,0
org.apache.wiki.auth.Authorizer, 0, 0, 0, 0, 0, 0, 0, 0, 0, 0, 0, 0, 0, 0,0.0,0.0,0.0,0.0,0.0,0.0,0.0,0.0,0.0,0.0,0.0,0.0,0.0,21,jspwiki-war\src\main\java\org\apache\wiki\auth\Authorizer.java,0,0,0,0
org.apache.wiki.auth.GroupManagerTest, 0, 0, 0, 0, 0, 0, 0, 0, 0, 0, 0, 0, 0, 0,0.0,0.0,0.0,0.0,0.0,0.0,0.0,0.0,0.0,0.0,0.0,0.0,0.0,133,jspwiki-war\src\test\java\org\apache\wiki\auth\GroupManagerTest.java,0,0,0,0
org.apache.wiki.auth.GroupPrincipal, 0, 0, 0, 0, 0, 0, 0, 0, 0, 0, 0, 0, 0, 0,0.0,0.0,0.0,0.125,0.0,0.0,0.0,0.25,0.0,0.0,0.0,0.0,0.0,33,jspwiki-war\src\main\java\org\apache\wiki\auth\GroupPrincipal.java,0,0,0,0
org.apache.wiki.auth.NoSuchPrincipalException, 0, 0, 0, 0, 0, 0, 0, 0, 0, 0, 0, 0, 0, 0,0.0,0.0,0.0,0.0,0.0,0.0,0.0,0.0,0.0,0.0,0.0,0.0,0.0,9,jspwiki-war\src\main\java\org\apache\wiki\auth\NoSuchPrincipalException.java,0,0,0,0
org.apache.wiki.auth.SecurityEventTrap, 0, 0, 0, 0, 0, 0, 0, 0, 0, 0, 0, 0, 0, 0,0.0,0.0,0.0,0.0,0.0,0.0,0.0,0.0,0.0,0.0,0.0,0.0,0.0,29,jspwiki-war\src\test\java\org\apache\wiki\auth\SecurityEventTrap.java,0,0,0,0
org.apache.wiki.auth.Users, 0, 0, 0, 0, 0, 0, 0, 0, 0, 0, 0, 0, 0, 0,0.0,0.0,0.0,0.0,0.0,0.0,0.0,0.0,0.0,0.0,0.0,0.0,0.0,17,jspwiki-war\src\test\java\org\apache\wiki\auth\Users.java,0,0,0,0
org.apache.wiki.auth.WikiSecurityException, 0, 0, 0, 0, 0, 0, 0, 0, 0, 0, 0, 0, 0, 0,0.0,0.0,0.0,0.0,0.0,0.0,0.0,0.2,0.0,0.0,0.0,0.0,0.0,13,jspwiki-war\src\main\java\org\apache\wiki\auth\WikiSecurityException.java,0,0,0,0
org.apache.wiki.auth.acl.Acl, 0, 0, 0, 0, 0, 0, 0, 0, 0, 0, 0, 0, 0, 0,0.0,0.0,0.0,0.0,0.0,0.0,0.0,0.0,0.0,0.0,0.0,0.0,0.0,13,jspwiki-war\src\main\java\org\apache\wiki\auth\acl\Acl.java,0,0,0,0
org.apache.wiki.auth.acl.AclEntry, 0, 0, 0, 0, 0, 0, 0, 0, 0, 0, 0, 0, 0, 0,0.0,0.0,0.0,0.0,0.0,0.0,0.0,0.0,0.0,0.0,0.0,0.0,0.0,13,jspwiki-war\src\main\java\org\apache\wiki\auth\acl\AclEntry.java,0,0,0,0
org.apache.wiki.auth.acl.AclEntryImplTest, 0, 0, 0, 0, 0, 0, 0, 0, 0, 0, 0, 0, 0, 0,0.0,0.0,0.0,0.0,0.0,0.0,0.0,0.0,0.0,0.0,0.0,0.0,0.0,64,jspwiki-war\src\test\java\org\apache\wiki\auth\acl\AclEntryImplTest.java,0,0,0,0
org.apache.wiki.auth.acl.AclManager, 0, 0, 0, 0, 0, 0, 0, 0, 0, 0, 0, 0, 0, 0,0.0,0.0,0.0,0.0,0.0,0.0,0.0,0.0,0.0,0.0,0.0,0.0,0.0,64,jspwiki-war\src\main\java\org\apache\wiki\auth\acl\AclManager.java,0,0,0,0
org.apache.wiki.auth.acl.AllTests, 0, 0, 0, 0, 0, 0, 0, 0, 0, 0, 0, 0, 0, 0,0.0,0.0,0.0,0.0,0.0,0.0,0.0,0.0,0.0,0.0,0.0,0.0,0.0,15,jspwiki-war\src\test\java\org\apache\wiki\auth\acl\AllTests.java,0,0,0,0
org.apache.wiki.auth.acl.DefaultAclManagerTest, 0, 0, 0, 0, 0, 0, 0, 0, 0, 0, 0, 0, 0, 0,0.0,0.0,0.0,0.0,0.0,0.0,0.0,0.0,0.0,0.0,0.0,0.0,0.0,136,jspwiki-war\src\test\java\org\apache\wiki\auth\acl\DefaultAclManagerTest.java,0,0,4,8
org.apache.wiki.auth.acl.UnresolvedPrincipal, 0, 0, 0, 0, 0, 0, 0, 0, 0, 0, 0, 0, 0, 0,0.0,0.0,0.0,0.0,0.0,0.0,0.0,0.0,0.0,0.0,0.0,0.0,0.0,29,jspwiki-war\src\main\java\org\apache\wiki\auth\acl\UnresolvedPrincipal.java,0,0,0,0
org.apache.wiki.auth.authorize.AllTests, 0, 0, 0, 0, 0, 0, 0, 0, 0, 0, 0, 0, 0, 0,0.0,0.0,0.0,0.0,0.0,0.0,0.0,0.0,0.0,0.0,0.0,0.0,0.0,15,jspwiki-war\src\test\java\org\apache\wiki\auth\authorize\AllTests.java,0,0,0,0
org.apache.wiki.auth.authorize.GroupDatabase, 0, 0, 0, 0, 0, 0, 0, 0, 0, 0, 0, 0, 0, 0,0.0,0.0,0.0,0.0,0.0,0.0,0.0,0.0,0.0,0.0,0.0,0.0,0.0,15,jspwiki-war\src\main\java\org\apache\wiki\auth\authorize\GroupDatabase.java,0,0,0,0
org.apache.wiki.auth.authorize.GroupTest, 0, 0, 0, 0, 0, 0, 0, 0, 0, 0, 0, 0, 0, 0,0.0,0.0,0.0,0.0,0.0,0.0,0.0,0.0,0.0,0.0,0.0,0.0,0.0,110,jspwiki-war\src\test\java\org\apache\wiki\auth\authorize\GroupTest.java,0,0,0,0
org.apache.wiki.auth.authorize.Role, 0, 0, 0, 0, 0, 0, 0, 0, 0, 0, 0, 0, 0, 0,0.0,0.0,0.0,0.0,0.0,0.0,0.0,0.0,0.0,0.0,0.0,0.0,0.0,45,jspwiki-war\src\main\java\org\apache\wiki\auth\authorize\Role.java,0,0,0,0
org.apache.wiki.auth.authorize.WebAuthorizer, 0, 0, 0, 0, 0, 0, 0, 0, 0, 0, 0, 0, 0, 0,0.0,0.0,0.0,0.0,0.0,0.0,0.0,0.0,0.0,0.0,0.0,0.0,0.0,45,jspwiki-war\src\main\java\org\apache\wiki\auth\authorize\WebAuthorizer.java,0,0,0,0
org.apache.wiki.auth.authorize.WebContainerAuthorizer, 0, 0, 0, 0, 0, 0, 0, 0, 0, 0, 0, 0, 0, 0,0.0,0.0,0.0,0.0,0.0,0.0,0.0,0.0,0.0,0.0,0.0,0.0,0.0,204,jspwiki-war\src\main\java\org\apache\wiki\auth\authorize\WebContainerAuthorizer.java,0,0,6,12
org.apache.wiki.auth.authorize.WebContainerAuthorizerTest, 0, 0, 0, 0, 0, 0, 0, 0, 0, 0, 0, 0, 0, 0,0.0,0.0,0.0,0.0,0.0,0.0,0.0,0.0,0.0,0.0,0.0,0.0,0.0,64,jspwiki-war\src\test\java\org\apache\wiki\auth\authorize\WebContainerAuthorizerTest.java,0,0,0,0
org.apache.wiki.auth.authorize.XMLGroupDatabaseTest, 0, 0, 0, 0, 0, 0, 0, 0, 0, 0, 0, 0, 0, 0,0.0,0.0,0.0,0.0,0.0,0.0,0.0,0.0,0.0,0.0,0.0,0.0,0.0,133,jspwiki-war\src\test\java\org\apache\wiki\auth\authorize\XMLGroupDatabaseTest.java,0,0,0,0
org.apache.wiki.auth.login.AllTests, 0, 0, 0, 0, 0, 0, 0, 0, 0, 0, 0, 0, 0, 0,0.0,0.0,0.0,0.0,0.0,0.0,0.0,0.0,0.0,0.0,0.0,0.0,0.0,15,jspwiki-war\src\test\java\org\apache\wiki\auth\login\AllTests.java,0,0,0,0
org.apache.wiki.auth.login.AnonymousLoginModule, 0, 0, 0, 0, 0, 0, 0, 0, 0, 0, 0, 0, 0, 0,0.5,0.0,0.0,0.0,0.0,0.0,0.0,0.5,0.0,0.0,0.0,0.0,0.0,36,jspwiki-war\src\main\java\org\apache\wiki\auth\login\AnonymousLoginModule.java,0,0,0,0
org.apache.wiki.auth.login.AuthorizerCallback, 0, 0, 0, 0, 0, 0, 0, 0, 0, 0, 0, 0, 0, 0,0.0,0.0,0.0,0.0,0.0,0.0,0.0,0.0,0.0,0.0,0.0,0.0,0.0,12,jspwiki-war\src\main\java\org\apache\wiki\auth\login\AuthorizerCallback.java,0,0,0,0
org.apache.wiki.auth.login.CookieAssertionLoginModule, 0, 0, 0, 0, 0, 0, 0, 0, 0, 0, 0, 0, 0, 0,0.5,0.0,0.0,0.0,0.0,0.0,0.0,0.5,0.0,0.0,0.0,0.0,0.0,63,jspwiki-war\src\main\java\org\apache\wiki\auth\login\CookieAssertionLoginModule.java,0,0,0,0
org.apache.wiki.auth.login.CookieAuthenticationLoginModule, 0, 0, 0, 0, 0, 0, 0, 1, 0, 0, 0, 0, 0, 1,0.3333333333333333,0.0,0.0,0.0,0.0,0.0,0.0,0.3333333333333333,0.0,0.0,0.0,0.0,0.0,171,jspwiki-war\src\main\java\org\apache\wiki\auth\login\CookieAuthenticationLoginModule.java,0,0,0,0
org.apache.wiki.auth.login.HttpRequestCallback, 0, 0, 0, 0, 0, 0, 0, 0, 0, 0, 0, 0, 0, 0,0.0,0.0,0.0,0.0,0.0,0.0,0.0,0.3333333333333333,0.0,0.0,0.0,0.0,0.0,12,jspwiki-war\src\main\java\org\apache\wiki\auth\login\HttpRequestCallback.java,0,0,0,0
org.apache.wiki.auth.login.PrincipalWrapper, 0, 0, 0, 0, 0, 0, 0, 0, 0, 0, 0, 0, 0, 0,0.0,0.0,0.0,0.0,0.0,0.0,0.0,0.0,0.0,0.0,0.0,0.0,0.0,30,jspwiki-war\src\main\java\org\apache\wiki\auth\login\PrincipalWrapper.java,0,0,0,0
org.apache.wiki.auth.login.UserDatabaseCallback, 0, 0, 0, 0, 0, 0, 0, 0, 0, 0, 0, 0, 0, 0,0.0,0.0,0.0,0.0,0.0,0.0,0.0,0.5,0.0,0.0,0.0,0.0,0.0,12,jspwiki-war\src\main\java\org\apache\wiki\auth\login\UserDatabaseCallback.java,0,0,0,0
org.apache.wiki.auth.login.UserDatabaseLoginModule, 0, 0, 0, 0, 0, 0, 0, 0, 0, 0, 0, 0, 0, 0,0.0,0.0,0.0,0.0,0.0,0.0,0.0,0.0,0.0,0.0,0.0,0.0,0.0,51,jspwiki-war\src\main\java\org\apache\wiki\auth\login\UserDatabaseLoginModule.java,0,0,0,0
org.apache.wiki.auth.login.WebContainerCallbackHandler, 0, 0, 0, 0, 0, 0, 0, 0, 0, 0, 0, 0, 0, 0,0.0,0.0,0.0,0.0,0.0,0.0,0.0,0.0,0.0,0.0,0.0,0.0,0.0,29,jspwiki-war\src\main\java\org\apache\wiki\auth\login\WebContainerCallbackHandler.java,0,0,0,0
org.apache.wiki.auth.login.WebContainerLoginModule, 0, 0, 0, 0, 0, 0, 0, 0, 0, 0, 0, 0, 0, 0,0.0,0.0,0.0,0.0,0.0,0.0,0.0,0.0,0.0,0.0,0.0,0.0,0.0,55,jspwiki-war\src\main\java\org\apache\wiki\auth\login\WebContainerLoginModule.java,0,0,0,0
org.apache.wiki.auth.login.WikiCallbackHandler, 0, 0, 0, 0, 0, 0, 0, 1, 0, 0, 0, 0, 0, 1,0.0,0.0,0.0,0.0,0.0,0.0,0.0,0.0,0.0,0.0,0.0,0.0,0.0,45,jspwiki-war\src\main\java\org\apache\wiki\auth\login\WikiCallbackHandler.java,0,0,0,0
org.apache.wiki.auth.login.WikiEngineCallback, 0, 0, 0, 0, 0, 0, 0, 0, 0, 0, 0, 0, 0, 0,0.0,0.0,0.0,0.0,0.0,0.0,0.0,0.6666666666666666,0.0,0.0,0.0,0.0,0.0,12,jspwiki-war\src\main\java\org\apache\wiki\auth\login\WikiEngineCallback.java,0,0,0,0
org.apache.wiki.auth.permissions.AllPermission, 0, 0, 0, 0, 0, 0, 0, 0, 0, 0, 0, 0, 0, 0,0.0,0.0,0.0,0.0,0.0,0.0,0.0,0.25,0.0,0.0,0.0,0.0,0.0,76,jspwiki-war\src\main\java\org\apache\wiki\auth\permissions\AllPermission.java,0,0,0,0
org.apache.wiki.auth.permissions.AllPermissionCollectionTest, 0, 0, 0, 0, 0, 0, 0, 0, 0, 0, 0, 0, 0, 0,0.0,0.0,0.0,0.0,0.0,0.0,0.0,0.0,0.0,0.0,0.0,0.0,0.0,191,jspwiki-war\src\test\java\org\apache\wiki\auth\permissions\AllPermissionCollectionTest.java,0,0,0,0
org.apache.wiki.auth.permissions.AllPermissionTest, 0, 0, 0, 0, 0, 0, 0, 0, 0, 0, 0, 0, 0, 0,0.0,0.0,0.0,0.0,0.0,0.0,0.0,0.0,0.0,0.0,0.0,0.0,0.0,58,jspwiki-war\src\test\java\org\apache\wiki\auth\permissions\AllPermissionTest.java,0,0,0,0
org.apache.wiki.auth.permissions.AllTests, 0, 0, 0, 0, 0, 0, 0, 0, 0, 0, 0, 0, 0, 0,0.0,0.0,0.0,0.0,0.0,0.0,0.0,0.0,0.0,0.0,0.0,0.0,0.0,16,jspwiki-war\src\test\java\org\apache\wiki\auth\permissions\AllTests.java,0,0,0,0
org.apache.wiki.auth.permissions.GroupPermissionTest, 0, 0, 0, 0, 0, 0, 0, 1, 0, 0, 0, 0, 0, 1,0.0,0.0,0.0,0.0,0.0,0.0,0.0,0.0,0.0,0.0,0.0,0.0,0.0,218,jspwiki-war\src\test\java\org\apache\wiki\auth\permissions\GroupPermissionTest.java,0,0,0,0
org.apache.wiki.auth.permissions.PagePermissionTest, 0, 0, 0, 0, 0, 0, 0, 0, 0, 0, 0, 0, 0, 0,0.0,0.0,0.0,0.0,0.0,0.0,0.0,0.0,0.0,0.0,0.0,0.0,0.0,261,jspwiki-war\src\test\java\org\apache\wiki\auth\permissions\PagePermissionTest.java,0,0,0,0
org.apache.wiki.auth.permissions.WikiPermissionTest, 0, 0, 0, 0, 0, 0, 0, 0, 0, 0, 0, 0, 0, 0,0.0,0.0,0.0,0.0,0.0,0.0,0.0,0.0,0.0,0.0,0.0,0.0,0.0,110,jspwiki-war\src\test\java\org\apache\wiki\auth\permissions\WikiPermissionTest.java,0,0,0,0
org.apache.wiki.auth.user.AbstractUserDatabase, 0, 0, 0, 0, 0, 0, 0, 0, 0, 0, 0, 0, 0, 0,0.0,0.0,0.0,0.0,0.0,0.0,0.0,0.0,0.0,0.0,0.0,0.0,0.0,201,jspwiki-war\src\main\java\org\apache\wiki\auth\user\AbstractUserDatabase.java,0,0,0,0
org.apache.wiki.auth.user.AllTests, 0, 0, 0, 0, 0, 0, 0, 0, 0, 0, 0, 0, 0, 0,0.0,0.0,0.0,0.0,0.0,0.0,0.0,0.0,0.0,0.0,0.0,0.0,0.0,15,jspwiki-war\src\test\java\org\apache\wiki\auth\user\AllTests.java,0,0,0,0
org.apache.wiki.auth.user.DuplicateUserException, 0, 0, 0, 0, 0, 0, 0, 0, 0, 0, 0, 0, 0, 0,0.0,0.0,0.0,0.0,0.0,0.0,0.0,0.0,0.0,0.0,0.0,0.0,0.0,11,jspwiki-war\src\main\java\org\apache\wiki\auth\user\DuplicateUserException.java,0,0,0,0
org.apache.wiki.auth.user.UserDatabase, 0, 0, 0, 0, 0, 0, 0, 0, 0, 0, 0, 0, 0, 0,0.0,0.0,0.0,0.0,0.0,0.0,0.0,0.0,0.0,0.0,0.0,0.0,0.0,11,jspwiki-war\src\main\java\org\apache\wiki\auth\user\UserDatabase.java,0,0,0,0
org.apache.wiki.auth.user.UserProfileTest, 0, 0, 0, 0, 0, 0, 0, 0, 0, 0, 0, 0, 0, 0,0.0,0.0,0.0,0.0,0.0,0.0,0.0,0.0,0.0,0.0,0.0,0.0,0.0,74,jspwiki-war\src\test\java\org\apache\wiki\auth\user\UserProfileTest.java,0,0,0,0
org.apache.wiki.content.AllTests, 0, 0, 0, 0, 0, 0, 0, 0, 0, 0, 0, 0, 0, 0,0.0,0.0,0.0,0.0,0.0,0.0,0.0,0.0,0.0,0.0,0.0,0.0,0.0,13,jspwiki-war\src\test\java\org\apache\wiki\content\AllTests.java,0,0,0,0
org.apache.wiki.diff.AllTests, 0, 0, 0, 0, 0, 0, 0, 0, 0, 0, 0, 0, 0, 0,0.0,0.0,0.0,0.0,0.0,0.0,0.0,0.0,0.0,0.0,0.0,0.0,0.0,9,jspwiki-war\src\test\java\org\apache\wiki\diff\AllTests.java,0,0,0,0
org.apache.wiki.diff.DiffProvider, 0, 0, 0, 0, 0, 0, 0, 0, 0, 0, 0, 0, 0, 0,0.0,0.0,0.0,0.0,0.0,0.0,0.0,0.0,0.0,0.0,0.0,0.0,0.0,9,jspwiki-war\src\main\java\org\apache\wiki\diff\DiffProvider.java,0,0,0,0
org.apache.wiki.event.PageEventFilter, 0, 0, 0, 0, 0, 0, 0, 0, 0, 0, 0, 0, 0, 0,0.0,0.0,0.0,0.5,0.0,0.0,0.0,0.5,0.0,0.0,0.0,0.0,0.0,49,jspwiki-war\src\main\java\org\apache\wiki\event\PageEventFilter.java,0,0,0,0
org.apache.wiki.event.WikiEngineEvent, 0, 0, 0, 0, 0, 0, 0, 0, 0, 0, 0, 0, 0, 0,0.0,0.0,0.0,0.0,0.0,0.0,0.0,1.0,0.0,0.0,0.0,0.0,0.0,59,jspwiki-war\src\main\java\org\apache\wiki\event\WikiEngineEvent.java,0,0,0,0
org.apache.wiki.event.WikiEventListener, 0, 0, 0, 0, 0, 0, 0, 0, 0, 0, 0, 0, 0, 0,0.0,0.0,0.0,0.0,0.0,0.0,0.0,0.0,0.0,0.0,0.0,0.0,0.0,59,jspwiki-war\src\main\java\org\apache\wiki\event\WikiEventListener.java,0,0,0,0
org.apache.wiki.event.WikiEventUtils, 0, 0, 0, 0, 0, 0, 0, 1, 0, 0, 0, 0, 0, 1,0.0,0.0,0.0,0.5,0.0,0.0,0.0,0.5,0.0,0.0,0.0,0.0,0.0,59,jspwiki-war\src\main\java\org\apache\wiki\event\WikiEventUtils.java,0,0,0,0
org.apache.wiki.event.WikiPageEvent, 0, 0, 0, 1, 0, 0, 0, 1, 0, 0, 0, 0, 0, 2,0.0,0.0,0.0,0.0,0.0,0.0,0.0,0.6666666666666666,0.0,0.0,0.0,0.0,0.0,86,jspwiki-war\src\main\java\org\apache\wiki\event\WikiPageEvent.java,0,0,0,0
org.apache.wiki.event.WikiPageRenameEvent, 0, 0, 0, 0, 0, 0, 0, 1, 0, 0, 0, 0, 0, 1,0.0,0.0,0.0,1.0,0.0,0.0,0.0,1.0,0.0,0.0,0.0,0.0,0.0,31,jspwiki-war\src\main\java\org\apache\wiki\event\WikiPageRenameEvent.java,0,0,0,0
org.apache.wiki.filters.AllTests, 0, 0, 0, 0, 0, 0, 0, 0, 0, 0, 0, 0, 0, 0,0.0,0.0,0.0,0.0,0.0,0.0,0.0,0.0,0.0,0.0,0.0,0.0,0.0,13,jspwiki-war\src\test\java\org\apache\wiki\filters\AllTests.java,0,0,0,0
org.apache.wiki.filters.CreoleFilter, 0, 0, 0, 0, 0, 0, 0, 0, 0, 0, 0, 0, 0, 0,0.0,0.0,0.0,0.0,0.0,0.0,0.0,0.0,0.0,0.0,0.0,0.0,0.0,40,jspwiki-war\src\main\java\org\apache\wiki\filters\CreoleFilter.java,0,0,0,0
org.apache.wiki.filters.ProfanityFilter, 0, 0, 0, 0, 0, 0, 0, 0, 0, 0, 0, 0, 0, 0,0.0,0.0,0.0,0.0,0.0,0.0,0.0,0.0,0.0,0.0,0.0,0.0,0.0,40,jspwiki-war\src\main\java\org\apache\wiki\filters\ProfanityFilter.java,0,0,0,0
org.apache.wiki.filters.TestFilter, 0, 0, 1, 0, 0, 0, 0, 0, 0, 0, 0, 0, 0, 1,0.0,0.0,0.0,0.0,0.0,0.0,0.0,0.0,0.0,0.0,0.0,0.0,0.0,6,jspwiki-war\src\test\java\org\apache\wiki\filters\TestFilter.java,0,0,0,0
org.apache.wiki.forms.FormElement, 0, 0, 0, 0, 0, 0, 0, 0, 0, 0, 0, 0, 0, 0,0.0,0.0,0.0,0.0,0.0,0.0,0.0,0.0,0.0,0.0,0.0,0.0,0.0,24,jspwiki-war\src\main\java\org\apache\wiki\forms\FormElement.java,0,0,0,0
org.apache.wiki.forms.FormHandler, 0, 0, 0, 0, 0, 0, 0, 0, 0, 0, 0, 0, 0, 0,0.0,0.0,0.0,0.0,0.0,0.0,0.0,0.0,0.0,0.0,0.0,0.0,0.0,24,jspwiki-war\src\main\java\org\apache\wiki\forms\FormHandler.java,0,0,0,0
org.apache.wiki.htmltowiki.AllTests, 0, 0, 0, 0, 0, 0, 0, 0, 0, 0, 0, 0, 0, 0,0.0,0.0,0.0,0.0,0.0,0.0,0.0,0.0,0.0,0.0,0.0,0.0,0.0,13,jspwiki-war\src\test\java\org\apache\wiki\htmltowiki\AllTests.java,0,0,0,0
org.apache.wiki.htmltowiki.HtmlStringToWikiTranslator, 0, 0, 0, 0, 0, 0, 0, 0, 0, 0, 0, 0, 0, 0,0.0,0.0,0.0,0.0,0.0,0.0,0.0,0.0,0.0,0.0,0.0,0.0,0.0,34,jspwiki-war\src\main\java\org\apache\wiki\htmltowiki\HtmlStringToWikiTranslator.java,0,0,0,0
org.apache.wiki.htmltowiki.HtmlStringToWikiTranslatorTest, 0, 0, 0, 0, 0, 0, 0, 0, 0, 0, 0, 0, 0, 0,0.0,0.0,0.0,0.0,0.0,0.0,0.0,0.0,0.0,0.0,0.0,0.0,0.0,279,jspwiki-war\src\test\java\org\apache\wiki\htmltowiki\HtmlStringToWikiTranslatorTest.java,0,0,0,0
org.apache.wiki.htmltowiki.XHtmlToWikiConfig, 0, 0, 0, 0, 0, 0, 0, 0, 0, 0, 0, 0, 0, 0,0.0,0.0,0.0,0.0,0.0,0.0,0.0,0.0,0.0,0.0,0.0,0.0,0.0,74,jspwiki-war\src\main\java\org\apache\wiki\htmltowiki\XHtmlToWikiConfig.java,0,0,0,0
org.apache.wiki.i18n.InternationalizationManager, 0, 0, 0, 0, 0, 0, 0, 1, 0, 0, 0, 0, 0, 1,0.0,0.0,0.0,0.0,0.0,0.0,0.0,0.0,0.0,0.0,0.0,0.0,0.0,29,jspwiki-war\src\main\java\org\apache\wiki\i18n\InternationalizationManager.java,0,0,0,0
org.apache.wiki.i18n.InternationalizationManagerTest, 0, 0, 0, 0, 0, 0, 0, 0, 0, 0, 0, 0, 0, 0,0.0,0.0,0.0,0.0,0.0,0.0,0.0,1.0,0.0,0.0,0.0,0.0,0.0,30,jspwiki-war\src\test\java\org\apache\wiki\i18n\InternationalizationManagerTest.java,0,0,0,0
org.apache.wiki.management.SimpleMBean, 0, 0, 0, 0, 0, 0, 0, 1, 0, 0, 0, 0, 0, 1,0.0,0.0,0.0,0.0,0.0,0.0,0.0,0.0,0.0,0.0,0.0,0.0,0.0,240,jspwiki-war\src\main\java\org\apache\wiki\management\SimpleMBean.java,0,0,0,0
org.apache.wiki.modules.InternalModule, 0, 0, 0, 0, 0, 0, 0, 0, 0, 0, 0, 0, 0, 0,0.0,0.0,0.0,0.0,0.0,0.0,0.0,0.0,0.0,0.0,0.0,0.0,0.0,240,jspwiki-war\src\main\java\org\apache\wiki\modules\InternalModule.java,0,0,0,0
org.apache.wiki.modules.ModuleManager, 0, 0, 0, 0, 0, 0, 0, 0, 0, 0, 0, 0, 0, 0,0.0,0.0,0.0,0.0,0.0,0.0,0.0,0.0,0.0,0.0,0.0,0.0,0.0,21,jspwiki-war\src\main\java\org\apache\wiki\modules\ModuleManager.java,0,0,0,0
org.apache.wiki.modules.WikiModuleInfo, 0, 0, 0, 0, 0, 0, 0, 0, 0, 0, 0, 0, 0, 0,0.0,0.0,0.0,0.0,0.0,0.0,0.0,0.0,0.0,0.0,0.0,0.0,0.0,92,jspwiki-war\src\main\java\org\apache\wiki\modules\WikiModuleInfo.java,0,0,0,0
org.apache.wiki.parser.AllTests, 0, 0, 0, 0, 0, 0, 0, 0, 0, 0, 0, 0, 0, 0,0.0,0.0,0.0,0.0,0.0,0.0,0.0,0.0,0.0,0.0,0.0,0.0,0.0,15,jspwiki-war\src\test\java\org\apache\wiki\parser\AllTests.java,0,0,0,0
org.apache.wiki.parser.Heading, 0, 0, 1, 0, 0, 0, 0, 0, 0, 0, 0, 0, 0, 1,0.0,0.0,0.0,0.0,0.0,0.0,0.0,0.0,0.0,0.0,0.0,0.0,0.0,10,jspwiki-war\src\main\java\org\apache\wiki\parser\Heading.java,0,0,0,0
org.apache.wiki.parser.HeadingListener, 0, 0, 0, 0, 0, 0, 0, 0, 0, 0, 0, 0, 0, 0,0.0,0.0,0.0,0.0,0.0,0.0,0.0,0.0,0.0,0.0,0.0,0.0,0.0,10,jspwiki-war\src\main\java\org\apache\wiki\parser\HeadingListener.java,0,0,0,0
org.apache.wiki.parser.MarkupParserTest, 0, 0, 0, 0, 0, 0, 0, 0, 0, 0, 0, 0, 0, 0,0.0,0.0,0.0,0.0,0.0,0.0,0.0,0.0,0.0,0.0,0.0,0.0,0.0,32,jspwiki-war\src\test\java\org\apache\wiki\parser\MarkupParserTest.java,0,0,0,0
org.apache.wiki.parser.ParseException, 0, 0, 0, 0, 0, 0, 0, 0, 0, 0, 0, 0, 0, 0,0.0,0.0,0.0,0.0,0.0,0.0,0.0,0.0,0.0,0.0,0.0,0.0,0.0,8,jspwiki-war\src\main\java\org\apache\wiki\parser\ParseException.java,0,0,0,0
org.apache.wiki.parser.VariableContent, 0, 0, 0, 0, 0, 0, 0, 0, 0, 0, 0, 0, 0, 0,0.0,0.0,0.0,0.0,0.0,0.0,0.0,0.0,0.0,0.0,0.0,0.0,0.0,46,jspwiki-war\src\main\java\org\apache\wiki\parser\VariableContent.java,0,0,0,0
org.apache.wiki.parser.WikiDocument, 0, 0, 0, 0, 0, 0, 0, 0, 0, 0, 0, 0, 0, 0,0.0,0.0,0.0,0.0,0.0,0.0,0.0,0.0,0.0,0.0,0.0,0.0,0.0,31,jspwiki-war\src\main\java\org\apache\wiki\parser\WikiDocument.java,0,0,0,0
org.apache.wiki.plugin.AllTests, 0, 0, 0, 0, 0, 0, 0, 0, 0, 0, 0, 0, 0, 0,0.0,0.0,0.0,0.0,0.0,0.0,0.0,0.0,0.0,0.0,0.0,0.0,0.0,22,jspwiki-war\src\test\java\org\apache\wiki\plugin\AllTests.java,0,0,0,0
org.apache.wiki.plugin.CounterPluginTest, 0, 0, 0, 0, 0, 0, 0, 0, 0, 0, 0, 0, 0, 0,0.0,0.0,0.0,0.0,0.0,0.0,0.0,0.0,0.0,0.0,0.0,0.0,0.0,77,jspwiki-war\src\test\java\org\apache\wiki\plugin\CounterPluginTest.java,0,0,0,0
org.apache.wiki.plugin.GroupsTest, 0, 0, 0, 0, 0, 0, 0, 0, 0, 0, 0, 0, 0, 0,0.0,0.0,0.0,0.0,0.0,0.0,0.0,0.0,0.0,0.0,0.0,0.0,0.0,34,jspwiki-war\src\test\java\org\apache\wiki\plugin\GroupsTest.java,0,0,0,0
org.apache.wiki.plugin.IfPluginTest, 0, 0, 0, 0, 0, 0, 0, 0, 0, 0, 0, 0, 0, 0,0.0,0.0,0.0,0.0,0.0,0.0,0.0,0.0,0.0,0.0,0.0,0.0,0.0,77,jspwiki-war\src\test\java\org\apache\wiki\plugin\IfPluginTest.java,0,0,0,0
org.apache.wiki.plugin.InsertPageTest, 0, 0, 0, 0, 0, 0, 0, 0, 0, 0, 0, 0, 0, 0,0.0,0.0,0.0,0.0,0.0,0.0,0.0,0.0,0.0,0.0,0.0,0.0,0.0,66,jspwiki-war\src\test\java\org\apache\wiki\plugin\InsertPageTest.java,0,0,0,0
org.apache.wiki.plugin.TableOfContentsTest, 0, 0, 0, 0, 0, 0, 0, 0, 0, 0, 0, 0, 0, 0,0.0,0.0,0.0,0.0,0.0,0.0,0.0,0.0,0.0,0.0,0.0,0.0,0.0,167,jspwiki-war\src\test\java\org\apache\wiki\plugin\TableOfContentsTest.java,0,0,0,0
org.apache.wiki.plugin.UndefinedPagesPluginTest, 0, 0, 0, 0, 0, 0, 0, 0, 0, 0, 0, 0, 0, 0,0.0,0.0,0.0,0.0,0.0,0.0,0.0,0.0,0.0,0.0,0.0,0.0,0.0,61,jspwiki-war\src\test\java\org\apache\wiki\plugin\UndefinedPagesPluginTest.java,0,0,0,0
org.apache.wiki.providers.AllTests, 0, 0, 0, 0, 0, 0, 0, 0, 0, 0, 0, 0, 0, 0,0.0,0.0,0.0,0.0,0.0,0.0,0.0,0.0,0.0,0.0,0.0,0.0,0.0,16,jspwiki-war\src\test\java\org\apache\wiki\providers\AllTests.java,0,0,0,0
org.apache.wiki.providers.CachingAttachmentProvider, 0, 0, 0, 1, 0, 0, 0, 1, 0, 0, 0, 0, 0, 2,0.0,0.0,0.5,0.0,0.0,0.0,0.0,0.5,0.0,0.0,0.0,0.0,0.0,192,jspwiki-war\src\main\java\org\apache\wiki\providers\CachingAttachmentProvider.java,0,2,6,14
org.apache.wiki.providers.CounterProvider, 1, 0, 1, 1, 0, 0, 0, 0, 0, 0, 0, 0, 0, 3,0.0,0.0,1.0,0.0,0.0,0.0,0.0,0.0,0.0,0.0,0.0,0.0,0.0,99,jspwiki-war\src\test\java\org\apache\wiki\providers\CounterProvider.java,0,0,0,0
org.apache.wiki.providers.FastSearch, 0, 0, 0, 0, 0, 0, 0, 0, 0, 0, 0, 0, 0, 0,0.0,0.0,0.0,0.0,0.0,0.0,0.0,0.0,0.0,0.0,0.0,0.0,0.0,99,jspwiki-war\src\main\java\org\apache\wiki\providers\FastSearch.java,0,0,0,0
org.apache.wiki.providers.NoSuchVersionException, 0, 0, 0, 0, 0, 0, 0, 0, 0, 0, 0, 0, 0, 0,0.0,0.0,0.0,0.0,0.0,0.0,0.0,0.0,0.0,0.0,0.0,0.0,0.0,9,jspwiki-war\src\main\java\org\apache\wiki\providers\NoSuchVersionException.java,0,0,0,0
org.apache.wiki.providers.RepositoryModifiedException, 0, 0, 0, 0, 0, 0, 0, 0, 0, 0, 0, 0, 0, 0,0.0,0.0,0.0,0.0,0.0,0.0,0.0,0.0,0.0,0.0,0.0,0.0,0.0,15,jspwiki-war\src\main\java\org\apache\wiki\providers\RepositoryModifiedException.java,0,0,0,0
org.apache.wiki.providers.VersioningProvider, 0, 0, 0, 0, 0, 0, 0, 0, 0, 0, 0, 0, 0, 0,0.0,0.0,0.0,0.0,0.0,0.0,0.0,0.0,0.0,0.0,0.0,0.0,0.0,15,jspwiki-war\src\main\java\org\apache\wiki\providers\VersioningProvider.java,0,0,0,0
org.apache.wiki.providers.VerySimpleProvider, 0, 0, 1, 0, 0, 0, 0, 0, 0, 0, 0, 0, 0, 1,0.0,0.0,1.0,0.0,0.0,0.0,0.0,0.0,0.0,0.0,0.0,0.0,0.0,75,jspwiki-war\src\test\java\org\apache\wiki\providers\VerySimpleProvider.java,0,0,0,0
org.apache.wiki.providers.WikiAttachmentProvider, 0, 0, 0, 0, 0, 0, 0, 0, 0, 0, 0, 0, 0, 0,0.0,0.0,0.0,0.0,0.0,0.0,0.0,0.0,0.0,0.0,0.0,0.0,0.0,75,jspwiki-war\src\main\java\org\apache\wiki\providers\WikiAttachmentProvider.java,0,0,0,0
org.apache.wiki.providers.WikiPageProvider, 0, 0, 0, 0, 0, 0, 0, 0, 0, 0, 0, 0, 0, 0,0.0,0.0,0.0,0.0,0.0,0.0,0.0,0.0,0.0,0.0,0.0,0.0,0.0,75,jspwiki-war\src\main\java\org\apache\wiki\providers\WikiPageProvider.java,0,0,0,0
org.apache.wiki.render.AllTests, 0, 0, 0, 0, 0, 0, 0, 0, 0, 0, 0, 0, 0, 0,0.0,0.0,0.0,0.0,0.0,0.0,0.0,0.0,0.0,0.0,0.0,0.0,0.0,15,jspwiki-war\src\test\java\org\apache\wiki\render\AllTests.java,0,0,0,0
org.apache.wiki.render.CreoleRendererTest, 0, 0, 0, 0, 0, 0, 0, 0, 0, 0, 0, 0, 0, 0,0.0,0.0,0.0,0.0,0.0,0.0,0.0,0.0,0.0,0.0,0.0,0.0,0.0,95,jspwiki-war\src\test\java\org\apache\wiki\render\CreoleRendererTest.java,0,0,0,0
org.apache.wiki.render.CustomXMLOutputProcessor, 0, 0, 0, 0, 0, 0, 0, 1, 0, 0, 0, 0, 0, 1,0.0,0.0,0.0,0.0,0.0,0.0,0.0,0.0,0.0,0.0,0.0,0.0,0.0,6,jspwiki-war\src\main\java\org\apache\wiki\render\CustomXMLOutputProcessor.java,0,0,0,0
org.apache.wiki.render.RenderingManagerTest, 0, 0, 0, 0, 0, 0, 0, 0, 0, 0, 0, 0, 0, 0,0.0,0.0,0.0,0.0,0.0,0.0,0.0,0.0,0.0,0.0,0.0,0.0,0.0,144,jspwiki-war\src\test\java\org\apache\wiki\render\RenderingManagerTest.java,0,0,4,8
org.apache.wiki.render.WikiRenderer, 0, 0, 0, 0, 0, 0, 0, 0, 0, 0, 0, 0, 0, 0,0.0,0.0,0.0,0.0,0.0,0.0,0.0,0.0,0.0,0.0,0.0,0.0,0.0,13,jspwiki-war\src\main\java\org\apache\wiki\render\WikiRenderer.java,0,0,0,0
org.apache.wiki.render.WysiwygEditingRenderer, 0, 0, 0, 0, 0, 0, 0, 0, 0, 0, 0, 0, 0, 0,0.0,0.0,0.0,0.0,0.0,0.0,0.0,0.0,0.0,0.0,0.0,0.0,0.0,76,jspwiki-war\src\main\java\org\apache\wiki\render\WysiwygEditingRenderer.java,0,0,0,0
org.apache.wiki.render.WysiwygEditingRendererTest, 0, 0, 0, 0, 0, 0, 0, 0, 0, 0, 0, 0, 0, 0,0.0,0.0,0.0,0.0,0.0,0.0,0.0,0.0,0.0,0.0,0.0,0.0,0.0,54,jspwiki-war\src\test\java\org\apache\wiki\render\WysiwygEditingRendererTest.java,0,0,0,0
org.apache.wiki.render.XHTMLRenderer, 0, 0, 0, 0, 0, 0, 0, 0, 0, 0, 0, 0, 0, 0,0.0,0.0,0.0,0.0,0.0,0.0,0.0,0.0,0.0,0.0,0.0,0.0,0.0,24,jspwiki-war\src\main\java\org\apache\wiki\render\XHTMLRenderer.java,0,0,0,0
org.apache.wiki.rpc.RPCCallable, 0, 0, 0, 0, 0, 0, 0, 0, 0, 0, 0, 0, 0, 0,0.0,0.0,0.0,0.0,0.0,0.0,0.0,0.0,0.0,0.0,0.0,0.0,0.0,24,jspwiki-war\src\main\java\org\apache\wiki\rpc\RPCCallable.java,0,0,0,0
org.apache.wiki.rpc.RPCManager, 0, 0, 0, 0, 0, 0, 0, 0, 0, 0, 0, 0, 0, 0,0.0,0.0,0.0,0.0,0.0,0.0,0.0,0.0,0.0,0.0,0.0,0.0,0.0,8,jspwiki-war\src\main\java\org\apache\wiki\rpc\RPCManager.java,0,0,0,0
org.apache.wiki.rss.AllTests, 0, 0, 0, 0, 0, 0, 0, 0, 0, 0, 0, 0, 0, 0,0.0,0.0,0.0,0.0,0.0,0.0,0.0,0.0,0.0,0.0,0.0,0.0,0.0,9,jspwiki-war\src\test\java\org\apache\wiki\rss\AllTests.java,0,0,0,0
org.apache.wiki.rss.AtomFeed, 0, 0, 0, 0, 0, 0, 0, 0, 0, 0, 0, 0, 0, 0,0.0,0.0,0.0,0.0,0.0,0.0,0.0,0.25,0.0,0.0,0.0,0.0,0.0,104,jspwiki-war\src\main\java\org\apache\wiki\rss\AtomFeed.java,0,0,0,0
org.apache.wiki.rss.Entry, 0, 0, 0, 0, 0, 0, 0, 0, 0, 0, 0, 0, 0, 0,0.0,0.0,0.0,0.0,0.0,0.0,0.0,0.0,0.0,0.0,0.0,0.0,0.0,48,jspwiki-war\src\main\java\org\apache\wiki\rss\Entry.java,0,0,0,0
org.apache.wiki.rss.Feed, 0, 0, 0, 0, 0, 0, 0, 0, 0, 0, 0, 0, 0, 0,0.0,0.0,0.0,0.0,0.0,0.0,0.0,0.0,0.0,0.0,0.0,0.0,0.0,72,jspwiki-war\src\main\java\org\apache\wiki\rss\Feed.java,7,1,1,10
org.apache.wiki.rss.RSS10Feed, 0, 0, 0, 0, 0, 0, 0, 0, 0, 0, 0, 0, 0, 0,0.0,0.0,0.0,0.0,0.0,0.0,0.0,0.0,0.0,0.0,0.0,0.0,0.0,88,jspwiki-war\src\main\java\org\apache\wiki\rss\RSS10Feed.java,19,12,41,113
org.apache.wiki.rss.RSS20Feed, 0, 0, 0, 0, 0, 0, 0, 0, 0, 0, 0, 0, 0, 0,0.0,0.0,0.0,0.0,0.0,0.0,0.0,0.25,0.0,0.0,0.0,0.0,0.0,88,jspwiki-war\src\main\java\org\apache\wiki\rss\RSS20Feed.java,0,0,0,0
org.apache.wiki.rss.RSSThread, 1, 0, 0, 0, 0, 0, 0, 1, 0, 0, 0, 0, 0, 2,0.0,0.0,0.0,0.0,0.0,0.0,0.0,0.0,0.0,0.0,0.0,0.0,0.0,58,jspwiki-war\src\main\java\org\apache\wiki\rss\RSSThread.java,0,0,0,0
org.apache.wiki.search.AllTests, 0, 0, 0, 0, 0, 0, 0, 0, 0, 0, 0, 0, 0, 0,0.0,0.0,0.0,0.0,0.0,0.0,0.0,0.0,0.0,0.0,0.0,0.0,0.0,13,jspwiki-war\src\test\java\org\apache\wiki\search\AllTests.java,0,0,0,0
org.apache.wiki.search.LuceneSearchProvider, 0, 0, 0, 1, 0, 0, 0, 1, 0, 0, 0, 0, 0, 2,0.0,0.0,0.0,0.0,0.0,0.0,0.0,0.5,0.0,0.0,0.0,0.0,0.0,514,jspwiki-war\src\main\java\org\apache\wiki\search\LuceneSearchProvider.java,0,0,5,10
org.apache.wiki.search.QueryItem, 0, 0, 1, 0, 0, 0, 0, 0, 0, 0, 0, 0, 0, 1,0.25,0.0,0.5,0.5,0.0,0.0,0.0,0.25,0.0,0.0,0.0,0.0,0.0,7,jspwiki-war\src\main\java\org\apache\wiki\search\QueryItem.java,0,0,0,0
org.apache.wiki.search.SearchMatcher, 0, 0, 0, 0, 0, 0, 0, 0, 0, 0, 0, 0, 0, 0,0.0,0.0,1.0,0.0,0.0,0.0,0.0,0.0,0.0,0.0,0.0,0.0,0.0,60,jspwiki-war\src\main\java\org\apache\wiki\search\SearchMatcher.java,0,0,0,0
org.apache.wiki.search.SearchProvider, 0, 0, 0, 0, 0, 0, 0, 0, 0, 0, 0, 0, 0, 0,0.0,0.0,0.0,0.0,0.0,0.0,0.0,0.0,0.0,0.0,0.0,0.0,0.0,60,jspwiki-war\src\main\java\org\apache\wiki\search\SearchProvider.java,0,0,0,0
org.apache.wiki.search.SearchResult, 0, 0, 0, 0, 0, 0, 0, 0, 0, 0, 0, 0, 0, 0,0.0,0.0,0.0,0.0,0.0,0.0,0.0,0.0,0.0,0.0,0.0,0.0,0.0,60,jspwiki-war\src\main\java\org\apache\wiki\search\SearchResult.java,0,0,0,0
org.apache.wiki.search.SearchResultComparator, 0, 0, 0, 0, 0, 0, 0, 0, 0, 0, 0, 0, 0, 0,0.0,0.0,0.0,0.0,0.0,0.0,0.0,0.0,0.0,0.0,0.0,0.0,0.0,10,jspwiki-war\src\main\java\org\apache\wiki\search\SearchResultComparator.java,0,0,0,0
org.apache.wiki.stress.Benchmark, 0, 0, 0, 0, 0, 0, 0, 0, 0, 0, 0, 0, 0, 0,0.0,0.0,0.0,0.0,0.0,0.0,0.0,0.0,0.0,0.0,0.0,0.0,0.0,8,jspwiki-war\src\test\java\org\apache\wiki\stress\Benchmark.java,0,0,0,0
org.apache.wiki.tags.AdminBeanIteratorInfo, 0, 0, 0, 0, 0, 0, 0, 0, 0, 0, 0, 0, 0, 0,0.0,0.0,0.0,0.0,0.0,0.0,0.0,0.0,0.0,0.0,0.0,0.0,0.0,13,jspwiki-war\src\main\java\org\apache\wiki\tags\AdminBeanIteratorInfo.java,0,0,0,0
org.apache.wiki.tags.AdminBeanIteratorTag, 0, 0, 0, 0, 0, 0, 0, 0, 0, 0, 0, 0, 0, 0,0.0,0.0,0.0,0.0,0.0,0.0,0.0,0.0,0.0,0.0,0.0,0.0,0.0,20,jspwiki-war\src\main\java\org\apache\wiki\tags\AdminBeanIteratorTag.java,0,0,0,0
org.apache.wiki.tags.AttachmentsIteratorInfo, 0, 0, 0, 0, 0, 0, 0, 0, 0, 0, 0, 0, 0, 0,0.0,0.0,0.0,0.0,0.0,0.0,0.0,0.0,0.0,0.0,0.0,0.0,0.0,13,jspwiki-war\src\main\java\org\apache\wiki\tags\AttachmentsIteratorInfo.java,0,0,0,0
org.apache.wiki.tags.AttachmentsIteratorTag, 1, 0, 0, 0, 0, 0, 0, 0, 0, 0, 0, 0, 0, 1,0.0,0.0,0.0,0.0,0.0,0.0,0.0,0.0,0.0,0.0,0.0,0.0,0.0,86,jspwiki-war\src\main\java\org\apache\wiki\tags\AttachmentsIteratorTag.java,0,0,0,0
org.apache.wiki.tags.AuthorTag, 0, 0, 0, 0, 0, 0, 0, 0, 0, 0, 0, 0, 0, 0,0.0,0.0,0.0,0.0,0.0,0.0,0.0,0.0,0.0,0.0,0.0,0.0,0.0,31,jspwiki-war\src\main\java\org\apache\wiki\tags\AuthorTag.java,0,0,0,0
org.apache.wiki.tags.BaseURLTag, 0, 0, 0, 0, 0, 0, 0, 0, 0, 0, 0, 0, 0, 0,0.0,0.0,0.0,0.0,0.0,0.0,0.0,0.0,0.0,0.0,0.0,0.0,0.0,12,jspwiki-war\src\main\java\org\apache\wiki\tags\BaseURLTag.java,0,0,0,0
org.apache.wiki.tags.CalendarTag, 0, 0, 0, 0, 0, 0, 0, 1, 0, 0, 0, 0, 0, 1,0.0,0.0,0.0,0.0,0.0,0.0,0.0,0.0,0.0,0.0,0.0,0.0,0.0,213,jspwiki-war\src\main\java\org\apache\wiki\tags\CalendarTag.java,0,0,0,0
org.apache.wiki.tags.CheckLockInfo, 0, 0, 0, 0, 0, 0, 0, 0, 0, 0, 0, 0, 0, 0,0.0,0.0,0.0,0.0,0.0,0.0,0.0,0.0,0.0,0.0,0.0,0.0,0.0,14,jspwiki-war\src\main\java\org\apache\wiki\tags\CheckLockInfo.java,0,0,0,0
org.apache.wiki.tags.CheckLockTag, 0, 0, 0, 0, 0, 0, 0, 0, 0, 0, 0, 0, 0, 0,0.0,0.0,0.0,0.0,0.0,0.0,0.0,0.0,0.0,0.0,0.0,0.0,0.0,58,jspwiki-war\src\main\java\org\apache\wiki\tags\CheckLockTag.java,0,0,0,0
org.apache.wiki.tags.CheckRequestContextTag, 0, 0, 0, 0, 0, 0, 0, 0, 0, 0, 0, 0, 0, 0,0.0,0.0,0.0,0.0,0.0,0.0,0.0,0.0,0.0,0.0,0.0,0.0,0.0,49,jspwiki-war\src\main\java\org\apache\wiki\tags\CheckRequestContextTag.java,0,0,0,0
org.apache.wiki.tags.CheckVersionTag, 0, 0, 0, 0, 0, 0, 0, 0, 0, 0, 0, 0, 0, 0,0.0,0.0,0.0,0.0,0.0,0.0,0.0,0.0,0.0,0.0,0.0,0.0,0.0,71,jspwiki-war\src\main\java\org\apache\wiki\tags\CheckVersionTag.java,0,0,0,0
org.apache.wiki.tags.CommentLinkTag, 0, 0, 0, 0, 0, 0, 0, 0, 0, 0, 0, 0, 0, 0,0.0,0.0,0.0,0.0,0.0,0.0,0.0,0.0,0.0,0.0,0.0,0.0,0.0,42,jspwiki-war\src\main\java\org\apache\wiki\tags\CommentLinkTag.java,0,0,0,0
org.apache.wiki.tags.ContentEncodingTag, 0, 0, 0, 0, 0, 0, 0, 0, 0, 0, 0, 0, 0, 0,0.0,0.0,0.0,0.0,0.0,0.0,0.0,0.0,0.0,0.0,0.0,0.0,0.0,12,jspwiki-war\src\main\java\org\apache\wiki\tags\ContentEncodingTag.java,0,0,0,0
org.apache.wiki.tags.DiffLinkTag, 0, 0, 0, 0, 0, 0, 0, 0, 0, 0, 0, 0, 0, 0,0.0,0.0,0.0,0.0,0.0,0.0,0.0,0.0,0.0,0.0,0.0,0.0,0.0,110,jspwiki-war\src\main\java\org\apache\wiki\tags\DiffLinkTag.java,0,0,0,0
org.apache.wiki.tags.EditLinkTag, 0, 0, 1, 0, 0, 0, 0, 0, 0, 0, 0, 0, 0, 1,0.0,0.0,0.0,0.0,0.0,0.0,0.0,0.0,0.0,0.0,0.0,0.0,0.0,76,jspwiki-war\src\main\java\org\apache\wiki\tags\EditLinkTag.java,0,0,0,0
org.apache.wiki.tags.EditorIteratorInfo, 0, 0, 0, 0, 0, 0, 0, 0, 0, 0, 0, 0, 0, 0,0.0,0.0,0.0,0.0,0.0,0.0,0.0,0.0,0.0,0.0,0.0,0.0,0.0,12,jspwiki-war\src\main\java\org\apache\wiki\tags\EditorIteratorInfo.java,0,0,0,0
org.apache.wiki.tags.EditorIteratorTag, 1, 0, 0, 0, 0, 0, 0, 0, 0, 0, 0, 0, 0, 1,0.0,0.0,0.0,0.0,0.0,0.0,0.0,0.0,0.0,0.0,0.0,0.0,0.0,20,jspwiki-war\src\main\java\org\apache\wiki\tags\EditorIteratorTag.java,0,0,0,0
org.apache.wiki.tags.EditorTag, 0, 0, 0, 0, 0, 0, 0, 0, 0, 0, 0, 0, 0, 0,0.0,0.0,0.0,0.0,0.0,0.0,0.0,0.0,0.0,0.0,0.0,0.0,0.0,39,jspwiki-war\src\main\java\org\apache\wiki\tags\EditorTag.java,0,0,0,0
org.apache.wiki.tags.FeedDiscoveryTag, 0, 0, 0, 0, 0, 0, 0, 0, 0, 0, 0, 0, 0, 0,0.0,0.0,0.0,0.0,0.0,0.0,0.0,0.0,0.0,0.0,0.0,0.0,0.0,33,jspwiki-war\src\main\java\org\apache\wiki\tags\FeedDiscoveryTag.java,0,0,0,0
org.apache.wiki.tags.HasAttachmentsTag, 0, 0, 0, 0, 0, 0, 0, 0, 0, 0, 0, 0, 0, 0,0.0,0.0,0.0,0.0,0.0,0.0,0.0,0.0,0.0,0.0,0.0,0.0,0.0,26,jspwiki-war\src\main\java\org\apache\wiki\tags\HasAttachmentsTag.java,0,0,0,0
org.apache.wiki.tags.HistoryIteratorInfo, 0, 0, 0, 0, 0, 0, 0, 0, 0, 0, 0, 0, 0, 0,0.0,0.0,0.0,0.0,0.0,0.0,0.0,0.0,0.0,0.0,0.0,0.0,0.0,12,jspwiki-war\src\main\java\org\apache\wiki\tags\HistoryIteratorInfo.java,0,0,0,0
org.apache.wiki.tags.HistoryIteratorTag, 1, 0, 0, 0, 0, 0, 0, 0, 0, 0, 0, 0, 0, 1,0.0,0.0,0.0,0.0,0.0,0.0,0.0,0.0,0.0,0.0,0.0,0.0,0.0,74,jspwiki-war\src\main\java\org\apache\wiki\tags\HistoryIteratorTag.java,0,0,0,0
org.apache.wiki.tags.IfNoSearchResultsTag, 0, 0, 0, 0, 0, 0, 0, 0, 0, 0, 0, 0, 0, 0,0.0,0.0,0.0,0.0,0.0,0.0,0.0,0.0,0.0,0.0,0.0,0.0,0.0,16,jspwiki-war\src\main\java\org\apache\wiki\tags\IfNoSearchResultsTag.java,0,0,0,0
org.apache.wiki.tags.IncludeResourcesTag, 0, 0, 0, 0, 0, 0, 0, 0, 0, 0, 0, 0, 0, 0,0.0,0.0,0.0,0.0,0.0,0.0,0.0,0.0,0.0,0.0,0.0,0.0,0.0,20,jspwiki-war\src\main\java\org\apache\wiki\tags\IncludeResourcesTag.java,0,0,0,0
org.apache.wiki.tags.IncludeTag, 0, 0, 0, 0, 0, 0, 0, 0, 0, 0, 0, 0, 0, 0,0.0,0.0,0.0,0.0,0.0,0.0,0.0,0.0,0.0,0.0,0.0,0.0,0.0,55,jspwiki-war\src\main\java\org\apache\wiki\tags\IncludeTag.java,0,0,0,0
org.apache.wiki.tags.InsertDiffTag, 0, 0, 0, 0, 0, 0, 0, 0, 0, 0, 0, 0, 0, 0,0.0,0.0,0.0,0.0,0.0,0.0,0.0,0.0,0.0,0.0,0.0,0.0,0.0,53,jspwiki-war\src\main\java\org\apache\wiki\tags\InsertDiffTag.java,0,0,0,0
org.apache.wiki.tags.InsertPageTag, 0, 0, 0, 0, 0, 0, 0, 0, 0, 0, 0, 0, 0, 0,0.0,0.0,0.0,0.0,0.0,0.0,0.0,0.0,0.0,0.0,0.0,0.0,0.0,66,jspwiki-war\src\main\java\org\apache\wiki\tags\InsertPageTag.java,0,0,0,0
org.apache.wiki.tags.IteratorTag, 0, 0, 0, 0, 0, 0, 0, 0, 0, 0, 0, 0, 0, 0,0.6,0.0,0.0,0.0,0.0,0.0,0.0,0.0,0.0,0.0,0.0,0.0,0.0,88,jspwiki-war\src\main\java\org\apache\wiki\tags\IteratorTag.java,0,0,0,0
org.apache.wiki.tags.LinkToParentTag, 0, 0, 0, 0, 0, 0, 0, 0, 0, 0, 0, 0, 0, 0,0.0,0.0,0.0,0.0,0.0,0.0,0.0,0.5,0.0,0.0,0.0,0.0,0.0,29,jspwiki-war\src\main\java\org\apache\wiki\tags\LinkToParentTag.java,0,0,0,0
org.apache.wiki.tags.NextVersionTag, 0, 0, 0, 0, 0, 0, 0, 0, 0, 0, 0, 0, 0, 0,0.0,0.0,0.0,0.0,0.0,0.0,0.0,0.0,0.0,0.0,0.0,0.0,0.0,17,jspwiki-war\src\main\java\org\apache\wiki\tags\NextVersionTag.java,0,0,0,0
org.apache.wiki.tags.NoSuchPageTag, 0, 0, 0, 0, 0, 0, 0, 0, 0, 0, 0, 0, 0, 0,0.0,0.0,0.0,0.0,0.0,0.0,0.0,0.0,0.0,0.0,0.0,0.0,0.0,39,jspwiki-war\src\main\java\org\apache\wiki\tags\NoSuchPageTag.java,0,0,0,0
org.apache.wiki.tags.PageDateTag, 0, 0, 0, 0, 0, 0, 0, 0, 0, 0, 0, 0, 0, 0,0.0,0.0,0.0,0.0,0.0,0.0,0.0,0.0,0.0,0.0,0.0,0.0,0.0,43,jspwiki-war\src\main\java\org\apache\wiki\tags\PageDateTag.java,0,0,0,0
org.apache.wiki.tags.PageExistsTag, 0, 0, 0, 0, 0, 0, 0, 0, 0, 0, 0, 0, 0, 0,0.0,0.0,0.0,0.0,0.0,0.0,0.0,0.0,0.0,0.0,0.0,0.0,0.0,11,jspwiki-war\src\main\java\org\apache\wiki\tags\PageExistsTag.java,0,0,0,0
org.apache.wiki.tags.PageInfoLinkTag, 0, 0, 1, 0, 0, 0, 0, 0, 0, 0, 0, 0, 0, 1,0.0,0.0,0.0,0.0,0.0,0.0,0.0,0.0,0.0,0.0,0.0,0.0,0.0,50,jspwiki-war\src\main\java\org\apache\wiki\tags\PageInfoLinkTag.java,0,0,0,0
org.apache.wiki.tags.PageNameTag, 0, 0, 0, 0, 0, 0, 0, 0, 0, 0, 0, 0, 0, 0,0.0,0.0,0.0,0.0,0.0,0.0,0.0,0.5,0.0,0.0,0.0,0.0,0.0,23,jspwiki-war\src\main\java\org\apache\wiki\tags\PageNameTag.java,0,0,0,0
org.apache.wiki.tags.PageSizeTag, 0, 0, 0, 0, 0, 0, 0, 0, 0, 0, 0, 0, 0, 0,0.0,0.0,0.0,0.0,0.0,0.0,0.0,0.0,0.0,0.0,0.0,0.0,0.0,31,jspwiki-war\src\main\java\org\apache\wiki\tags\PageSizeTag.java,0,0,0,0
org.apache.wiki.tags.PageTypeTag, 0, 0, 0, 0, 0, 0, 0, 0, 0, 0, 0, 0, 0, 0,0.0,0.0,0.0,0.0,0.0,0.0,0.0,0.0,0.0,0.0,0.0,0.0,0.0,36,jspwiki-war\src\main\java\org\apache\wiki\tags\PageTypeTag.java,0,0,0,0
org.apache.wiki.tags.PageVersionTag, 0, 0, 0, 0, 0, 0, 0, 0, 0, 0, 0, 0, 0, 0,0.0,0.0,0.0,0.0,0.0,0.0,0.0,0.0,0.0,0.0,0.0,0.0,0.0,20,jspwiki-war\src\main\java\org\apache\wiki\tags\PageVersionTag.java,0,0,0,0
org.apache.wiki.tags.ParamHandler, 0, 0, 0, 0, 0, 0, 0, 0, 0, 0, 0, 0, 0, 0,0.0,0.0,0.0,0.0,0.0,0.0,0.0,0.0,0.0,0.0,0.0,0.0,0.0,20,jspwiki-war\src\main\java\org\apache\wiki\tags\ParamHandler.java,0,0,0,0
org.apache.wiki.tags.ParamTag, 0, 0, 0, 0, 0, 0, 0, 0, 0, 0, 0, 0, 0, 0,0.0,0.0,0.0,0.0,0.0,0.0,0.0,0.0,0.0,0.0,0.0,0.0,0.0,46,jspwiki-war\src\main\java\org\apache\wiki\tags\ParamTag.java,0,0,0,0
org.apache.wiki.tags.ParentPageNameTag, 0, 0, 0, 0, 0, 0, 0, 0, 0, 0, 0, 0, 0, 0,0.0,0.0,0.0,0.0,0.0,0.0,0.0,0.5,0.0,0.0,0.0,0.0,0.0,35,jspwiki-war\src\main\java\org\apache\wiki\tags\ParentPageNameTag.java,0,0,0,0
org.apache.wiki.tags.PermissionTag, 0, 0, 0, 0, 0, 0, 0, 0, 0, 0, 0, 0, 0, 0,0.0,0.0,0.0,0.0,0.0,0.0,0.0,0.0,0.0,0.0,0.0,0.0,0.0,102,jspwiki-war\src\main\java\org\apache\wiki\tags\PermissionTag.java,0,0,0,0
org.apache.wiki.tags.PreviousVersionTag, 0, 0, 0, 0, 0, 0, 0, 0, 0, 0, 0, 0, 0, 0,0.0,0.0,0.0,0.0,0.0,0.0,0.0,0.0,0.0,0.0,0.0,0.0,0.0,16,jspwiki-war\src\main\java\org\apache\wiki\tags\PreviousVersionTag.java,0,0,0,0
org.apache.wiki.tags.RSSImageLinkTag, 0, 0, 0, 0, 0, 0, 0, 0, 0, 0, 0, 0, 0, 0,0.0,0.0,0.0,0.0,0.0,0.0,0.0,0.0,0.0,0.0,0.0,0.0,0.0,57,jspwiki-war\src\main\java\org\apache\wiki\tags\RSSImageLinkTag.java,0,0,0,0
org.apache.wiki.tags.RequestResourceTag, 0, 0, 0, 0, 0, 0, 0, 0, 0, 0, 0, 0, 0, 0,0.0,0.0,0.0,0.0,0.0,0.0,0.0,0.0,0.0,0.0,0.0,0.0,0.0,37,jspwiki-war\src\main\java\org\apache\wiki\tags\RequestResourceTag.java,0,0,0,0
org.apache.wiki.tags.SearchResultIteratorInfo, 0, 0, 0, 0, 0, 0, 0, 0, 0, 0, 0, 0, 0, 0,0.0,0.0,0.0,0.0,0.0,0.0,0.0,0.0,0.0,0.0,0.0,0.0,0.0,12,jspwiki-war\src\main\java\org\apache\wiki\tags\SearchResultIteratorInfo.java,0,0,0,0
org.apache.wiki.tags.SearchResultIteratorTag, 0, 0, 0, 0, 0, 0, 0, 0, 0, 0, 0, 0, 0, 0,0.0,0.0,0.0,0.0,0.0,0.0,0.0,0.0,0.0,0.0,0.0,0.0,0.0,77,jspwiki-war\src\main\java\org\apache\wiki\tags\SearchResultIteratorTag.java,0,0,0,0
org.apache.wiki.tags.SearchResultsSizeTag, 0, 0, 0, 0, 0, 0, 0, 0, 0, 0, 0, 0, 0, 0,0.0,0.0,0.0,0.0,0.0,0.0,0.0,0.0,0.0,0.0,0.0,0.0,0.0,16,jspwiki-war\src\main\java\org\apache\wiki\tags\SearchResultsSizeTag.java,0,0,0,0
org.apache.wiki.tags.SearchResultsTag, 0, 0, 0, 0, 0, 0, 0, 0, 0, 0, 0, 0, 0, 0,0.0,0.0,0.0,0.0,0.0,0.0,0.0,0.0,0.0,0.0,0.0,0.0,0.0,24,jspwiki-war\src\main\java\org\apache\wiki\tags\SearchResultsTag.java,0,0,0,0
org.apache.wiki.tags.TemplateDirTag, 0, 0, 0, 0, 0, 0, 0, 0, 0, 0, 0, 0, 0, 0,0.0,0.0,0.0,0.0,0.0,0.0,0.0,0.0,0.0,0.0,0.0,0.0,0.0,12,jspwiki-war\src\main\java\org\apache\wiki\tags\TemplateDirTag.java,0,0,0,0
org.apache.wiki.tags.TranslateTag, 1, 0, 0, 0, 0, 0, 0, 0, 0, 0, 0, 0, 0, 1,0.0,0.0,0.0,0.0,0.0,0.0,0.0,0.0,0.0,0.0,0.0,0.0,0.0,31,jspwiki-war\src\main\java\org\apache\wiki\tags\TranslateTag.java,0,0,0,0
org.apache.wiki.tags.UploadLinkTag, 0, 0, 0, 0, 0, 0, 0, 0, 0, 0, 0, 0, 0, 0,0.0,0.0,0.0,0.0,0.0,0.0,0.0,0.0,0.0,0.0,0.0,0.0,0.0,34,jspwiki-war\src\main\java\org\apache\wiki\tags\UploadLinkTag.java,0,0,0,0
org.apache.wiki.tags.UserCheckTag, 0, 0, 0, 0, 0, 0, 0, 0, 0, 0, 0, 0, 0, 0,0.0,0.0,0.0,0.0,0.0,0.0,0.0,0.0,0.0,0.0,0.0,0.0,0.0,122,jspwiki-war\src\main\java\org\apache\wiki\tags\UserCheckTag.java,0,0,0,0
org.apache.wiki.tags.UserNameTag, 0, 0, 0, 0, 0, 0, 0, 0, 0, 0, 0, 0, 0, 0,0.0,0.0,0.0,0.0,0.0,0.0,0.0,0.0,0.0,0.0,0.0,0.0,0.0,26,jspwiki-war\src\main\java\org\apache\wiki\tags\UserNameTag.java,0,0,0,0
org.apache.wiki.tags.VariableTag, 0, 0, 0, 0, 0, 0, 0, 0, 0, 0, 0, 0, 0, 0,0.0,0.0,0.0,0.0,0.0,0.0,0.0,0.0,0.0,0.0,0.0,0.0,0.0,56,jspwiki-war\src\main\java\org\apache\wiki\tags\VariableTag.java,0,0,0,0
org.apache.wiki.tags.WikiBodyTag, 0, 0, 0, 0, 0, 0, 0, 0, 0, 0, 0, 0, 0, 0,0.0,0.0,0.0,0.0,0.0,0.0,0.0,0.0,0.0,0.0,0.0,0.0,0.0,31,jspwiki-war\src\main\java\org\apache\wiki\tags\WikiBodyTag.java,0,0,0,0
org.apache.wiki.tags.WikiLinkTag, 0, 0, 0, 0, 0, 0, 0, 0, 0, 0, 0, 0, 0, 0,0.0,0.0,0.2857142857142857,0.0,0.0,0.0,0.0,0.0,0.0,0.0,0.0,0.0,0.0,55,jspwiki-war\src\main\java\org\apache\wiki\tags\WikiLinkTag.java,0,0,0,0
org.apache.wiki.tags.WikiTagBase, 0, 0, 0, 0, 0, 0, 0, 0, 0, 0, 0, 0, 0, 0,0.0,0.0,0.0,0.0,0.0,0.0,0.0,0.030303030303030304,0.0,0.0,0.0,0.0,0.0,56,jspwiki-war\src\main\java\org\apache\wiki\tags\WikiTagBase.java,0,0,0,0
org.apache.wiki.ui.AllTests, 0, 0, 0, 0, 0, 0, 0, 0, 0, 0, 0, 0, 0, 0,0.0,0.0,0.0,0.0,0.0,0.0,0.0,0.0,0.0,0.0,0.0,0.0,0.0,14,jspwiki-war\src\test\java\org\apache\wiki\ui\AllTests.java,0,0,0,0
org.apache.wiki.ui.Command, 0, 0, 0, 0, 0, 0, 0, 0, 0, 0, 0, 0, 0, 0,0.0,0.0,0.0,0.0,0.0,0.0,0.0,0.0,0.0,0.0,0.0,0.0,0.0,14,jspwiki-war\src\main\java\org\apache\wiki\ui\Command.java,0,0,0,0
org.apache.wiki.ui.Editor, 0, 0, 0, 0, 0, 0, 0, 0, 0, 0, 0, 0, 0, 0,1.0,0.0,0.0,0.0,0.0,0.0,0.0,0.0,0.0,0.0,0.0,0.0,0.0,47,jspwiki-war\src\main\java\org\apache\wiki\ui\Editor.java,0,0,0,0
org.apache.wiki.ui.GenericHTTPHandler, 0, 0, 0, 0, 0, 0, 0, 0, 0, 0, 0, 0, 0, 0,0.0,0.0,0.0,0.0,0.0,0.0,0.0,0.0,0.0,0.0,0.0,0.0,0.0,47,jspwiki-war\src\main\java\org\apache\wiki\ui\GenericHTTPHandler.java,0,0,0,0
org.apache.wiki.ui.GroupCommand, 0, 0, 0, 0, 0, 0, 0, 1, 0, 0, 0, 0, 0, 1,0.0,0.0,0.0,0.0,0.0,0.0,0.0,0.0,0.0,0.0,0.0,0.0,0.0,45,jspwiki-war\src\main\java\org\apache\wiki\ui\GroupCommand.java,0,0,0,0
org.apache.wiki.ui.GroupCommandTest, 0, 0, 0, 0, 0, 0, 0, 0, 0, 0, 0, 0, 0, 0,0.0,0.0,0.0,0.0,0.0,0.0,0.0,0.0,0.0,0.0,0.0,0.0,0.0,72,jspwiki-war\src\test\java\org\apache\wiki\ui\GroupCommandTest.java,0,0,0,0
org.apache.wiki.ui.InputValidatorTest, 0, 0, 0, 0, 0, 0, 0, 0, 0, 0, 0, 0, 0, 0,0.0,0.0,0.0,0.0,0.0,0.0,0.0,0.0,0.0,0.0,0.0,0.0,0.0,51,jspwiki-war\src\test\java\org\apache\wiki\ui\InputValidatorTest.java,0,0,0,0
org.apache.wiki.ui.PageCommand, 0, 0, 0, 0, 0, 0, 0, 1, 0, 0, 0, 0, 0, 1,0.0,0.0,0.0,0.0,0.0,0.0,0.0,0.0,0.0,0.0,0.0,0.0,0.0,66,jspwiki-war\src\main\java\org\apache\wiki\ui\PageCommand.java,0,0,0,0
org.apache.wiki.ui.PageCommandTest, 0, 0, 0, 0, 0, 0, 0, 0, 0, 0, 0, 0, 0, 0,0.0,0.0,0.0,0.0,0.0,0.0,0.0,0.0,0.0,0.0,0.0,0.0,0.0,82,jspwiki-war\src\test\java\org\apache\wiki\ui\PageCommandTest.java,0,0,0,0
org.apache.wiki.ui.RedirectCommand, 0, 0, 0, 0, 0, 0, 0, 1, 0, 0, 0, 0, 0, 1,0.0,0.0,0.0,0.0,0.0,0.0,0.0,0.0,0.0,0.0,0.0,0.0,0.0,30,jspwiki-war\src\main\java\org\apache\wiki\ui\RedirectCommand.java,0,0,0,0
org.apache.wiki.ui.RedirectCommandTest, 0, 0, 0, 0, 0, 0, 0, 0, 0, 0, 0, 0, 0, 0,0.0,0.0,0.0,0.0,0.0,0.0,0.0,0.0,0.0,0.0,0.0,0.0,0.0,38,jspwiki-war\src\test\java\org\apache\wiki\ui\RedirectCommandTest.java,0,0,0,0
org.apache.wiki.ui.WikiCommand, 0, 0, 0, 0, 0, 0, 0, 1, 0, 0, 0, 0, 0, 1,0.0,0.0,0.0,0.0,0.0,0.0,0.0,0.0,0.0,0.0,0.0,0.0,0.0,67,jspwiki-war\src\main\java\org\apache\wiki\ui\WikiCommand.java,0,0,0,0
org.apache.wiki.ui.WikiCommandTest, 0, 0, 0, 0, 0, 0, 0, 0, 0, 0, 0, 0, 0, 0,0.0,0.0,0.0,0.0,0.0,0.0,0.0,0.0,0.0,0.0,0.0,0.0,0.0,130,jspwiki-war\src\test\java\org\apache\wiki\ui\WikiCommandTest.java,0,0,0,0
org.apache.wiki.ui.WikiRequestWrapper, 0, 0, 0, 0, 0, 0, 0, 0, 0, 0, 0, 0, 0, 0,0.0,0.0,0.0,0.0,0.0,0.0,0.0,0.5,0.0,0.0,0.0,0.0,0.0,54,jspwiki-war\src\main\java\org\apache\wiki\ui\WikiRequestWrapper.java,0,0,0,0
org.apache.wiki.ui.WikiServletFilter, 0, 0, 0, 0, 0, 0, 0, 1, 0, 0, 0, 0, 0, 1,0.0,0.0,0.0,0.0,0.0,0.0,0.0,0.0,0.0,0.0,0.0,0.0,0.0,104,jspwiki-war\src\main\java\org\apache\wiki\ui\WikiServletFilter.java,0,0,0,0
org.apache.wiki.ui.admin.AdminBean, 0, 0, 0, 0, 0, 0, 0, 0, 0, 0, 0, 0, 0, 0,0.0,0.0,0.0,0.0,0.0,0.0,0.0,0.0,0.0,0.0,0.0,0.0,0.0,104,jspwiki-war\src\main\java\org\apache\wiki\ui\admin\AdminBean.java,0,0,0,0
org.apache.wiki.ui.admin.DefaultAdminBeanManager, 0, 0, 0, 0, 0, 0, 0, 0, 0, 0, 0, 0, 0, 0,0.0,0.0,0.0,0.0,0.0,0.0,0.0,0.0,0.0,0.0,0.0,0.0,0.0,148,jspwiki-war\src\main\java\org\apache\wiki\ui\admin\DefaultAdminBeanManager.java,0,0,0,0
org.apache.wiki.ui.admin.beans.CoreBean, 0, 0, 0, 0, 0, 0, 0, 0, 0, 0, 0, 0, 0, 0,0.0,0.0,0.0,0.0,0.0,0.0,0.0,0.0,0.0,0.0,0.0,0.0,0.0,47,jspwiki-war\src\main\java\org\apache\wiki\ui\admin\beans\CoreBean.java,0,0,0,0
org.apache.wiki.ui.admin.beans.PlainEditorAdminBean, 0, 0, 0, 0, 0, 0, 0, 0, 0, 0, 0, 0, 0, 0,0.0,0.0,0.0,0.0,0.0,0.0,0.0,1.0,0.0,0.0,0.0,0.0,0.0,70,jspwiki-war\src\main\java\org\apache\wiki\ui\admin\beans\PlainEditorAdminBean.java,0,0,0,0
org.apache.wiki.ui.admin.beans.PluginBean, 0, 0, 0, 0, 0, 0, 0, 0, 0, 0, 0, 0, 0, 0,0.0,0.0,0.0,0.0,0.0,0.0,0.0,0.0,0.0,0.0,0.0,0.0,0.0,56,jspwiki-war\src\main\java\org\apache\wiki\ui\admin\beans\PluginBean.java,15,9,30,84
org.apache.wiki.ui.admin.beans.SearchManagerBean, 0, 0, 0, 0, 0, 0, 0, 0, 0, 0, 0, 0, 0, 0,0.0,0.0,0.0,0.0,0.0,0.0,0.0,0.0,0.0,0.0,0.0,0.0,0.0,87,jspwiki-war\src\main\java\org\apache\wiki\ui\admin\beans\SearchManagerBean.java,0,0,0,0
org.apache.wiki.ui.admin.beans.UserBean, 0, 0, 0, 0, 0, 0, 0, 0, 0, 0, 0, 0, 0, 0,0.0,0.0,0.0,0.0,0.0,0.0,0.0,0.0,0.0,0.0,0.0,0.0,0.0,89,jspwiki-war\src\main\java\org\apache\wiki\ui\admin\beans\UserBean.java,0,0,0,0
org.apache.wiki.ui.progress.ProgressItem, 0, 0, 0, 0, 0, 0, 0, 0, 0, 0, 0, 0, 0, 0,0.0,0.0,0.0,0.0,0.0,0.0,0.0,0.0,0.0,0.0,0.0,0.0,0.0,17,jspwiki-war\src\main\java\org\apache\wiki\ui\progress\ProgressItem.java,0,0,0,0
org.apache.wiki.url.AllTests, 0, 0, 0, 0, 0, 0, 0, 0, 0, 0, 0, 0, 0, 0,0.0,0.0,0.0,0.0,0.0,0.0,0.0,0.0,0.0,0.0,0.0,0.0,0.0,11,jspwiki-war\src\test\java\org\apache\wiki\url\AllTests.java,0,0,0,0
org.apache.wiki.url.DefaultURLConstructor, 0, 0, 0, 0, 0, 0, 0, 1, 0, 0, 0, 0, 0, 1,0.3333333333333333,0.0,0.0,0.0,0.0,0.0,0.0,0.6666666666666666,0.0,0.0,0.0,0.0,0.0,115,jspwiki-war\src\main\java\org\apache\wiki\url\DefaultURLConstructor.java,0,0,0,0
org.apache.wiki.url.ShortURLConstructor, 1, 0, 0, 0, 0, 0, 0, 1, 0, 0, 0, 0, 0, 2,0.0,0.0,0.0,0.0,0.0,0.0,0.0,0.6666666666666666,0.0,0.0,0.0,0.0,0.0,151,jspwiki-war\src\main\java\org\apache\wiki\url\ShortURLConstructor.java,0,0,0,0
org.apache.wiki.url.ShortViewURLConstructor, 0, 0, 0, 0, 0, 0, 0, 1, 0, 0, 0, 0, 0, 1,0.5,0.0,0.0,0.0,0.0,0.0,0.0,1.0,0.0,0.0,0.0,0.0,0.0,55,jspwiki-war\src\main\java\org\apache\wiki\url\ShortViewURLConstructor.java,0,0,0,0
org.apache.wiki.url.URLConstructor, 0, 0, 0, 0, 0, 0, 0, 0, 0, 0, 0, 0, 0, 0,0.0,0.0,0.0,0.0,0.0,0.0,0.0,0.0,0.0,0.0,0.0,0.0,0.0,55,jspwiki-war\src\main\java\org\apache\wiki\url\URLConstructor.java,0,0,0,0
org.apache.wiki.util.AllTests, 0, 0, 0, 0, 0, 0, 0, 0, 0, 0, 0, 0, 0, 0,0.0,0.0,0.0,0.0,0.0,0.0,0.0,0.0,0.0,0.0,0.0,0.0,0.0,22,jspwiki-war\src\test\java\org\apache\wiki\util\AllTests.java,0,0,0,0
org.apache.wiki.util.ClassUtilTest, 0, 0, 0, 0, 0, 0, 0, 0, 0, 0, 0, 0, 0, 0,0.0,0.0,0.0,0.0,0.0,0.0,0.0,0.0,0.0,0.0,0.0,0.0,0.0,44,jspwiki-war\src\test\java\org\apache\wiki\util\ClassUtilTest.java,0,0,0,0
org.apache.wiki.util.CryptoUtil, 0, 0, 0, 0, 0, 0, 0, 0, 0, 0, 0, 0, 0, 0,0.0,0.0,0.0,0.0,0.0,0.0,0.0,0.0,0.0,0.0,0.0,0.0,0.0,119,jspwiki-war\src\main\java\org\apache\wiki\util\CryptoUtil.java,0,0,0,0
org.apache.wiki.util.CryptoUtilTest, 0, 0, 0, 0, 0, 0, 0, 0, 0, 0, 0, 0, 0, 0,0.0,0.0,0.0,0.0,0.0,0.0,0.0,0.0,0.0,0.0,0.0,0.0,0.0,93,jspwiki-war\src\test\java\org\apache\wiki\util\CryptoUtilTest.java,0,0,0,0
org.apache.wiki.util.FileUtilTest, 0, 0, 0, 0, 0, 0, 0, 0, 0, 0, 0, 0, 0, 0,0.0,0.0,0.0,0.0,0.0,0.0,0.0,0.0,0.0,0.0,0.0,0.0,0.0,74,jspwiki-war\src\test\java\org\apache\wiki\util\FileUtilTest.java,0,0,0,0
org.apache.wiki.util.HttpUtil, 1, 0, 0, 0, 0, 0, 0, 1, 0, 0, 0, 0, 0, 2,0.0,0.0,0.0,0.0,0.0,0.0,0.0,0.5,0.0,0.0,0.0,0.0,0.0,78,jspwiki-war\src\main\java\org\apache\wiki\util\HttpUtil.java,0,0,0,0
org.apache.wiki.util.PriorityListTest, 0, 0, 0, 0, 0, 0, 0, 0, 0, 0, 0, 0, 0, 0,0.0,0.0,0.0,0.0,0.0,0.0,0.0,0.0,0.0,0.0,0.0,0.0,0.0,69,jspwiki-war\src\test\java\org\apache\wiki\util\PriorityListTest.java,0,0,0,0
org.apache.wiki.util.TimedCounterListTest, 0, 0, 0, 0, 0, 0, 0, 0, 0, 0, 0, 0, 0, 0,0.0,0.0,0.0,0.0,0.0,0.0,0.0,0.0,0.0,0.0,0.0,0.0,0.0,37,jspwiki-war\src\test\java\org\apache\wiki\util\TimedCounterListTest.java,0,0,0,0
org.apache.wiki.util.UtilJ2eeCompat, 1, 0, 0, 0, 0, 0, 0, 0, 0, 0, 0, 0, 0, 1,0.0,0.0,0.0,0.0,0.0,0.0,0.0,0.0,0.0,0.0,0.0,0.0,0.0,93,jspwiki-war\src\main\java\org\apache\wiki\util\UtilJ2eeCompat.java,0,0,0,0
org.apache.wiki.util.UtilJ2eeCompatTest, 0, 0, 0, 0, 0, 0, 0, 0, 0, 0, 0, 0, 0, 0,0.5,0.0,0.0,0.0,0.0,0.0,0.0,0.0,0.0,0.0,0.0,0.0,0.0,27,jspwiki-war\src\test\java\org\apache\wiki\util\UtilJ2eeCompatTest.java,0,0,0,0
org.apache.wiki.util.XmlUtil, 0, 0, 0, 0, 0, 0, 0, 0, 0, 0, 0, 0, 0, 0,0.0,0.0,0.0,0.0,0.0,0.0,0.0,0.0,0.0,0.0,0.0,0.0,0.0,43,jspwiki-war\src\main\java\org\apache\wiki\util\XmlUtil.java,9,11,4,28
org.apache.wiki.util.XmlUtilTest, 0, 0, 0, 0, 0, 0, 0, 0, 0, 0, 0, 0, 0, 0,0.0,0.0,0.0,0.0,0.0,0.0,0.0,0.0,0.0,0.0,0.0,0.0,0.0,39,jspwiki-war\src\test\java\org\apache\wiki\util\XmlUtilTest.java,0,0,0,0
org.apache.wiki.util.comparators.AllTests, 0, 0, 0, 0, 0, 0, 0, 0, 0, 0, 0, 0, 0, 0,0.0,0.0,0.0,0.0,0.0,0.0,0.0,0.0,0.0,0.0,0.0,0.0,0.0,13,jspwiki-war\src\test\java\org\apache\wiki\util\comparators\AllTests.java,0,0,0,0
org.apache.wiki.util.comparators.CollatorComparator, 0, 0, 0, 0, 0, 0, 0, 0, 0, 0, 0, 0, 0, 0,0.0,0.0,0.0,0.0,0.0,0.0,0.0,0.0,0.0,0.0,0.0,0.0,0.0,30,jspwiki-war\src\main\java\org\apache\wiki\util\comparators\CollatorComparator.java,0,0,0,0
org.apache.wiki.util.comparators.HumanComparator, 0, 0, 0, 0, 0, 0, 0, 1, 0, 0, 0, 0, 0, 1,0.0,0.0,0.0,0.0,0.0,0.0,0.0,0.0,0.0,0.0,0.0,0.0,0.0,148,jspwiki-war\src\main\java\org\apache\wiki\util\comparators\HumanComparator.java,0,0,0,0
org.apache.wiki.util.comparators.JavaNaturalComparator, 0, 0, 0, 0, 0, 0, 0, 0, 0, 0, 0, 0, 0, 0,0.0,0.0,0.0,0.0,0.0,0.0,0.0,0.0,0.0,0.0,0.0,0.0,0.0,16,jspwiki-war\src\main\java\org\apache\wiki\util\comparators\JavaNaturalComparator.java,0,0,0,0
org.apache.wiki.web.AllTests, 0, 0, 0, 0, 0, 0, 0, 0, 0, 0, 0, 0, 0, 0,0.0,0.0,0.0,0.0,0.0,0.0,0.0,0.0,0.0,0.0,0.0,0.0,0.0,12,jspwiki-war\src\test\java\org\apache\wiki\web\AllTests.java,0,0,0,0
org.apache.wiki.web.StreamRedirector, 0, 0, 0, 0, 0, 0, 0, 0, 0, 0, 0, 0, 0, 0,0.0,0.0,0.0,0.0,0.0,0.0,0.0,0.0,0.0,0.0,0.0,0.0,0.0,14,jspwiki-war\src\test\java\org\apache\wiki\web\StreamRedirector.java,0,0,0,0
org.apache.wiki.workflow.AllTests, 0, 0, 0, 0, 0, 0, 0, 0, 0, 0, 0, 0, 0, 0,0.0,0.0,0.0,0.0,0.0,0.0,0.0,0.0,0.0,0.0,0.0,0.0,0.0,19,jspwiki-war\src\test\java\org\apache\wiki\workflow\AllTests.java,0,0,0,0
org.apache.wiki.workflow.Decision, 0, 0, 0, 0, 0, 0, 0, 1, 0, 0, 0, 0, 0, 1,0.0,0.0,0.0,0.1111111111111111,0.0,0.0,0.0,0.2222222222222222,0.0,0.0,0.0,0.0,0.0,82,jspwiki-war\src\main\java\org\apache\wiki\workflow\Decision.java,0,0,0,0
org.apache.wiki.workflow.DecisionQueue, 0, 0, 0, 0, 0, 0, 0, 0, 0, 0, 0, 0, 0, 0,0.0,0.0,0.0,0.0,0.0,0.0,0.0,0.3333333333333333,0.0,0.0,0.0,0.0,0.0,73,jspwiki-war\src\main\java\org\apache\wiki\workflow\DecisionQueue.java,0,0,0,0
org.apache.wiki.workflow.DecisionQueueTest, 0, 0, 0, 0, 0, 0, 0, 0, 0, 0, 0, 0, 0, 0,0.0,0.0,0.0,0.0,0.0,0.0,0.0,0.5,0.0,0.0,0.0,0.0,0.0,109,jspwiki-war\src\test\java\org\apache\wiki\workflow\DecisionQueueTest.java,0,0,0,0
org.apache.wiki.workflow.DecisionRequiredException, 0, 0, 0, 0, 0, 0, 0, 0, 0, 0, 0, 0, 0, 0,0.0,0.0,0.0,0.0,0.0,0.0,0.0,0.0,0.0,0.0,0.0,0.0,0.0,8,jspwiki-war\src\main\java\org\apache\wiki\workflow\DecisionRequiredException.java,0,0,0,0
org.apache.wiki.workflow.Fact, 0, 0, 0, 0, 0, 0, 0, 0, 0, 0, 0, 0, 0, 0,0.0,0.0,0.0,0.0,0.0,0.0,0.0,0.3333333333333333,0.0,0.0,0.0,0.0,0.0,40,jspwiki-war\src\main\java\org\apache\wiki\workflow\Fact.java,0,0,0,0
org.apache.wiki.workflow.FactTest, 0, 0, 0, 0, 0, 0, 0, 0, 0, 0, 0, 0, 0, 0,0.0,0.0,0.0,0.0,0.0,0.0,0.0,0.0,0.0,0.0,0.0,0.0,0.0,15,jspwiki-war\src\test\java\org\apache\wiki\workflow\FactTest.java,0,0,0,0
org.apache.wiki.workflow.NoSuchOutcomeException, 0, 0, 0, 0, 0, 0, 0, 0, 0, 0, 0, 0, 0, 0,0.0,0.0,0.0,0.0,0.0,0.0,0.0,0.0,0.0,0.0,0.0,0.0,0.0,8,jspwiki-war\src\main\java\org\apache\wiki\workflow\NoSuchOutcomeException.java,0,0,0,0
org.apache.wiki.workflow.Outcome, 0, 0, 0, 0, 0, 0, 0, 0, 0, 0, 0, 0, 0, 0,0.0,0.0,0.0,0.0,0.0,0.0,0.0,0.25,0.0,0.0,0.0,0.0,0.0,63,jspwiki-war\src\main\java\org\apache\wiki\workflow\Outcome.java,0,0,0,0
org.apache.wiki.workflow.OutcomeTest, 0, 0, 0, 0, 0, 0, 0, 0, 0, 0, 0, 0, 0, 0,0.0,0.0,0.0,0.0,0.0,0.0,0.0,0.3333333333333333,0.0,0.0,0.0,0.0,0.0,77,jspwiki-war\src\test\java\org\apache\wiki\workflow\OutcomeTest.java,0,0,0,0
org.apache.wiki.workflow.SimpleDecision, 0, 0, 0, 0, 0, 0, 0, 1, 0, 0, 0, 0, 0, 1,0.0,0.0,0.0,0.16666666666666666,0.0,0.0,0.0,0.16666666666666666,0.0,0.0,0.0,0.0,0.0,9,jspwiki-war\src\main\java\org\apache\wiki\workflow\SimpleDecision.java,0,0,0,0
org.apache.wiki.workflow.SimpleDecisionTest, 0, 0, 0, 0, 0, 0, 0, 0, 0, 0, 0, 0, 0, 0,0.0,0.0,0.0,0.0,0.0,0.0,0.0,0.6666666666666666,0.0,0.0,0.0,0.0,0.0,127,jspwiki-war\src\test\java\org\apache\wiki\workflow\SimpleDecisionTest.java,0,0,0,0
org.apache.wiki.workflow.SimpleNotification, 0, 0, 0, 0, 0, 0, 0, 1, 0, 0, 0, 0, 0, 1,0.0,0.0,0.0,0.0,0.0,0.0,0.0,1.0,0.0,0.0,0.0,0.0,0.0,16,jspwiki-war\src\main\java\org\apache\wiki\workflow\SimpleNotification.java,0,0,0,0
org.apache.wiki.workflow.Step, 0, 0, 0, 0, 0, 0, 0, 0, 0, 0, 0, 0, 0, 0,0.0,0.0,0.0,0.0,0.0,0.0,0.0,0.0,0.0,0.0,0.0,0.0,0.0,16,jspwiki-war\src\main\java\org\apache\wiki\workflow\Step.java,0,0,0,0
org.apache.wiki.workflow.SystemPrincipal, 0, 0, 0, 0, 0, 0, 0, 0, 0, 0, 0, 0, 0, 0,0.0,0.0,0.0,0.0,0.0,0.0,0.0,0.0,0.0,0.0,0.0,0.0,0.0,13,jspwiki-war\src\main\java\org\apache\wiki\workflow\SystemPrincipal.java,0,0,0,0
org.apache.wiki.workflow.Task, 0, 0, 0, 0, 0, 0, 0, 0, 0, 0, 0, 0, 0, 0,0.0,0.0,0.0,0.5,0.0,0.0,0.0,0.0,0.0,0.0,0.0,0.0,0.0,28,jspwiki-war\src\main\java\org\apache\wiki\workflow\Task.java,0,0,0,0
org.apache.wiki.workflow.TaskTest, 0, 0, 0, 0, 0, 0, 0, 0, 0, 0, 0, 0, 0, 0,0.0,0.0,0.0,0.0,0.0,0.0,0.0,0.5,0.0,0.0,0.0,0.0,0.0,135,jspwiki-war\src\test\java\org\apache\wiki\workflow\TaskTest.java,0,0,0,0
org.apache.wiki.workflow.WorkflowManagerTest, 0, 0, 0, 0, 0, 0, 0, 0, 0, 0, 0, 0, 0, 0,0.0,0.0,0.0,0.0,0.0,0.0,0.0,0.5,0.0,0.0,0.0,0.0,0.0,65,jspwiki-war\src\test\java\org\apache\wiki\workflow\WorkflowManagerTest.java,0,0,0,0
org.apache.wiki.workflow.WorkflowTest, 0, 0, 0, 1, 0, 0, 0, 0, 0, 0, 0, 0, 0, 1,0.0,0.0,0.0,0.0,0.0,0.0,0.0,0.5,0.0,0.0,0.0,0.0,0.0,259,jspwiki-war\src\test\java\org\apache\wiki\workflow\WorkflowTest.java,0,0,0,0
org.apache.wiki.xmlrpc.AllTests, 0, 0, 0, 0, 0, 0, 0, 0, 0, 0, 0, 0, 0, 0,0.0,0.0,0.0,0.0,0.0,0.0,0.0,0.0,0.0,0.0,0.0,0.0,0.0,13,jspwiki-war\src\test\java\org\apache\wiki\xmlrpc\AllTests.java,0,0,0,0
org.apache.wiki.xmlrpc.RPCServlet, 1, 0, 0, 0, 0, 0, 0, 0, 0, 0, 0, 0, 0, 1,0.0,0.0,0.0,0.0,0.0,0.0,0.0,0.0,0.0,0.0,0.0,0.0,0.0,118,jspwiki-war\src\main\java\org\apache\wiki\xmlrpc\RPCServlet.java,0,0,0,0
org.apache.wiki.xmlrpc.WikiRPCHandler, 0, 0, 0, 0, 0, 0, 0, 0, 0, 0, 0, 0, 0, 0,0.0,0.0,0.0,0.0,0.0,0.0,0.0,0.0,0.0,0.0,0.0,0.0,0.0,118,jspwiki-war\src\main\java\org\apache\wiki\xmlrpc\WikiRPCHandler.java,0,0,0,0
