ClassName,AntiSingleton,Blob,ClassDataShouldBePrivate,ComplexClass,LargeClass,LazyClass,LongMethod,LongParameterList,MessageChains,RefusedParentBequest,SpaghettiCode,SpeculativeGenerality,SwissArmyKnife,NumOfAPs,AntiSingleton,Blob,ClassDataShouldBePrivate,ComplexClass,LargeClass,LazyClass,LongMethod,LongParameterList,MessageChains,RefusedParentBequest,SpaghettiCode,SpeculativeGenerality,SwissArmyKnife,LOC,name,deleted,added,changed,all
org.apache.spark.Java8APISuite, 1, 0, 0, 1, 0, 0, 0, 0, 0, 0, 0, 0, 0, 2,0.0,0.0,0.0,0.0,0.0,0.0,0.0,0.0,0.0,0.0,0.0,0.0,0.0,289,extras\java8-tests\src\test\java\org\apache\spark\Java8APISuite.java,0,0,0,0
org.apache.spark.JavaJdbcRDDSuite, 0, 0, 0, 0, 0, 0, 0, 0, 0, 0, 0, 0, 0, 0,0.0,0.0,0.0,0.0,0.0,0.0,0.0,0.0,0.0,0.0,0.0,0.0,0.0,71,core\src\test\java\org\apache\spark\JavaJdbcRDDSuite.java,0,0,0,0
org.apache.spark.JavaSparkListener, 0, 0, 0, 0, 0, 0, 0, 0, 0, 0, 0, 0, 0, 0,0.0,0.0,0.0,0.0,0.0,0.0,0.0,0.0,0.0,0.0,0.0,0.0,0.0,34,core\src\main\java\org\apache\spark\JavaSparkListener.java,0,0,0,0
org.apache.spark.SparkFirehoseListener, 0, 0, 0, 0, 0, 0, 0, 0, 0, 0, 0, 0, 0, 0,0.0,0.0,0.0,0.0,0.0,0.0,0.0,0.0,0.0,0.0,0.0,0.0,0.0,68,core\src\main\java\org\apache\spark\SparkFirehoseListener.java,0,0,0,0
org.apache.spark.SparkJobInfo, 0, 0, 0, 0, 0, 0, 0, 0, 0, 0, 0, 0, 0, 0,0.0,0.0,0.0,0.0,0.0,0.0,0.0,0.0,0.0,0.0,0.0,0.0,0.0,68,core\src\main\java\org\apache\spark\SparkJobInfo.java,0,0,0,0
org.apache.spark.SparkStageInfo, 0, 0, 0, 0, 0, 0, 0, 0, 0, 0, 0, 0, 0, 0,0.0,0.0,0.0,0.0,0.0,0.0,0.0,0.0,0.0,0.0,0.0,0.0,0.0,68,core\src\main\java\org\apache\spark\SparkStageInfo.java,0,0,0,0
org.apache.spark.api.java.JavaFutureAction, 0, 0, 0, 0, 0, 0, 0, 0, 0, 0, 0, 0, 0, 0,0.0,0.0,0.0,0.0,0.0,0.0,0.0,0.0,0.0,0.0,0.0,0.0,0.0,68,core\src\main\java\org\apache\spark\api\java\JavaFutureAction.java,0,0,0,0
org.apache.spark.api.java.JavaSparkContextVarargsWorkaround, 0, 0, 0, 0, 0, 0, 0, 0, 0, 0, 0, 0, 0, 0,0.0,0.0,0.0,0.0,0.0,0.0,0.0,0.0,0.0,0.0,0.0,0.0,0.0,35,core\src\main\java\org\apache\spark\api\java\JavaSparkContextVarargsWorkaround.java,0,0,0,0
org.apache.spark.api.java.StorageLevels, 0, 0, 0, 0, 0, 0, 0, 1, 0, 0, 0, 0, 0, 1,0.0,0.0,0.0,0.0,0.0,0.0,0.0,0.0,0.0,0.0,0.0,0.0,0.0,27,core\src\main\java\org\apache\spark\api\java\StorageLevels.java,0,0,0,0
org.apache.spark.api.java.function.DoubleFlatMapFunction, 0, 0, 0, 0, 0, 0, 0, 0, 0, 0, 0, 0, 0, 0,0.0,0.0,0.0,0.0,0.0,0.0,0.0,0.0,0.0,0.0,0.0,0.0,0.0,27,core\src\main\java\org\apache\spark\api\java\function\DoubleFlatMapFunction.java,0,0,0,0
org.apache.spark.api.java.function.DoubleFunction, 0, 0, 0, 0, 0, 0, 0, 0, 0, 0, 0, 0, 0, 0,0.0,0.0,0.0,0.0,0.0,0.0,0.0,0.0,0.0,0.0,0.0,0.0,0.0,27,core\src\main\java\org\apache\spark\api\java\function\DoubleFunction.java,0,0,0,0
org.apache.spark.api.java.function.FlatMapFunction, 0, 0, 0, 0, 0, 0, 0, 0, 0, 0, 0, 0, 0, 0,0.0,0.0,0.0,0.0,0.0,0.0,0.0,0.0,0.0,0.0,0.0,0.0,0.0,27,core\src\main\java\org\apache\spark\api\java\function\FlatMapFunction.java,0,0,0,0
org.apache.spark.api.java.function.FlatMapFunction2, 0, 0, 0, 0, 0, 0, 0, 0, 0, 0, 0, 0, 0, 0,0.0,0.0,0.0,0.0,0.0,0.0,0.0,0.0,0.0,0.0,0.0,0.0,0.0,27,core\src\main\java\org\apache\spark\api\java\function\FlatMapFunction2.java,0,0,0,0
org.apache.spark.api.java.function.Function, 0, 0, 0, 0, 0, 0, 0, 0, 0, 0, 0, 0, 0, 0,0.0,0.0,0.0,0.0,0.0,0.0,0.0,0.0,0.0,0.0,0.0,0.0,0.0,27,core\src\main\java\org\apache\spark\api\java\function\Function.java,0,0,0,0
org.apache.spark.api.java.function.Function2, 0, 0, 0, 0, 0, 0, 0, 0, 0, 0, 0, 0, 0, 0,0.0,0.0,0.0,0.0,0.0,0.0,0.0,0.0,0.0,0.0,0.0,0.0,0.0,27,core\src\main\java\org\apache\spark\api\java\function\Function2.java,0,0,0,0
org.apache.spark.api.java.function.Function3, 0, 0, 0, 0, 0, 0, 0, 0, 0, 0, 0, 0, 0, 0,0.0,0.0,0.0,0.0,0.0,0.0,0.0,0.0,0.0,0.0,0.0,0.0,0.0,27,core\src\main\java\org\apache\spark\api\java\function\Function3.java,0,0,0,0
org.apache.spark.api.java.function.PairFlatMapFunction, 0, 0, 0, 0, 0, 0, 0, 0, 0, 0, 0, 0, 0, 0,0.0,0.0,0.0,0.0,0.0,0.0,0.0,0.0,0.0,0.0,0.0,0.0,0.0,27,core\src\main\java\org\apache\spark\api\java\function\PairFlatMapFunction.java,0,0,0,0
org.apache.spark.api.java.function.PairFunction, 0, 0, 0, 0, 0, 0, 0, 0, 0, 0, 0, 0, 0, 0,0.0,0.0,0.0,0.0,0.0,0.0,0.0,0.0,0.0,0.0,0.0,0.0,0.0,27,core\src\main\java\org\apache\spark\api\java\function\PairFunction.java,0,0,0,0
org.apache.spark.api.java.function.VoidFunction, 0, 0, 0, 0, 0, 0, 0, 0, 0, 0, 0, 0, 0, 0,0.0,0.0,0.0,0.0,0.0,0.0,0.0,0.0,0.0,0.0,0.0,0.0,0.0,27,core\src\main\java\org\apache\spark\api\java\function\VoidFunction.java,0,0,0,0
org.apache.spark.examples.JavaHdfsLR, 0, 0, 0, 0, 0, 0, 0, 0, 0, 0, 0, 0, 0, 0,0.0,0.0,0.0,0.0,0.0,0.0,0.0,0.0,0.0,0.0,0.0,0.0,0.0,98,examples\src\main\java\org\apache\spark\examples\JavaHdfsLR.java,0,0,0,0
org.apache.spark.examples.JavaPageRank, 0, 0, 0, 0, 0, 0, 0, 0, 0, 0, 0, 0, 0, 0,0.0,0.0,0.0,0.0,0.0,0.0,0.0,0.0,0.0,0.0,0.0,0.0,0.0,64,examples\src\main\java\org\apache\spark\examples\JavaPageRank.java,0,0,0,0
org.apache.spark.examples.JavaSparkPi, 0, 0, 0, 0, 0, 0, 0, 0, 0, 0, 0, 0, 0, 0,0.0,0.0,0.0,0.0,0.0,0.0,0.0,0.0,0.0,0.0,0.0,0.0,0.0,28,examples\src\main\java\org\apache\spark\examples\JavaSparkPi.java,0,0,0,0
org.apache.spark.examples.JavaStatusTrackerDemo, 0, 0, 0, 0, 0, 0, 0, 0, 0, 0, 0, 0, 0, 0,0.0,0.0,0.0,0.0,0.0,0.0,0.0,0.0,0.0,0.0,0.0,0.0,0.0,31,examples\src\main\java\org\apache\spark\examples\JavaStatusTrackerDemo.java,0,0,0,0
org.apache.spark.examples.JavaTC, 0, 0, 0, 0, 0, 0, 0, 0, 0, 0, 0, 0, 0, 0,0.0,0.0,0.0,0.0,0.0,0.0,0.0,0.0,0.0,0.0,0.0,0.0,0.0,47,examples\src\main\java\org\apache\spark\examples\JavaTC.java,0,0,0,0
org.apache.spark.examples.JavaWordCount, 0, 0, 0, 0, 0, 0, 0, 0, 0, 0, 0, 0, 0, 0,0.0,0.0,0.0,0.0,0.0,0.0,0.0,0.0,0.0,0.0,0.0,0.0,0.0,35,examples\src\main\java\org\apache\spark\examples\JavaWordCount.java,0,0,0,0
org.apache.spark.examples.ml.JavaCrossValidatorExample, 0, 0, 0, 0, 0, 0, 0, 0, 0, 0, 0, 0, 0, 0,0.0,0.0,0.0,0.0,0.0,0.0,0.0,0.0,0.0,0.0,0.0,0.0,0.0,55,examples\src\main\java\org\apache\spark\examples\ml\JavaCrossValidatorExample.java,0,0,0,0
org.apache.spark.examples.ml.JavaDeveloperApiExample, 0, 0, 0, 0, 0, 0, 0, 0, 0, 0, 0, 0, 0, 0,0.0,0.0,0.0,0.0,0.0,0.0,0.0,0.0,0.0,0.0,0.0,0.0,0.0,32,examples\src\main\java\org\apache\spark\examples\ml\JavaDeveloperApiExample.java,0,0,0,0
org.apache.spark.examples.ml.JavaSimpleParamsExample, 0, 0, 0, 0, 0, 0, 0, 0, 0, 0, 0, 0, 0, 0,0.0,0.0,0.0,0.0,0.0,0.0,0.0,0.0,0.0,0.0,0.0,0.0,0.0,39,examples\src\main\java\org\apache\spark\examples\ml\JavaSimpleParamsExample.java,0,0,0,0
org.apache.spark.examples.ml.JavaSimpleTextClassificationPipeline, 0, 0, 0, 0, 0, 0, 0, 0, 0, 0, 0, 0, 0, 0,0.0,0.0,0.0,0.0,0.0,0.0,0.0,0.0,0.0,0.0,0.0,0.0,0.0,38,examples\src\main\java\org\apache\spark\examples\ml\JavaSimpleTextClassificationPipeline.java,0,0,0,0
org.apache.spark.examples.ml.MyJavaLogisticRegression, 0, 0, 0, 0, 0, 0, 0, 0, 0, 0, 0, 0, 0, 0,0.0,0.0,0.0,0.0,0.0,0.0,0.0,0.0,0.0,0.0,0.0,0.0,0.0,17,examples\src\main\java\org\apache\spark\examples\ml\JavaSimpleTextClassificationPipeline.java,0,0,0,0
org.apache.spark.examples.ml.MyJavaLogisticRegressionModel, 0, 0, 0, 0, 0, 0, 0, 0, 0, 0, 0, 0, 0, 0,0.0,0.0,0.0,0.0,0.0,0.0,0.0,0.0,0.0,0.0,0.0,0.0,0.0,27,examples\src\main\java\org\apache\spark\examples\ml\JavaSimpleTextClassificationPipeline.java,0,0,0,0
org.apache.spark.examples.mllib.JavaALS, 0, 0, 0, 0, 0, 0, 0, 0, 0, 0, 0, 0, 0, 0,0.0,0.0,0.0,0.0,0.0,0.0,0.0,0.0,0.0,0.0,0.0,0.0,0.0,44,examples\src\main\java\org\apache\spark\examples\mllib\JavaALS.java,0,0,0,0
org.apache.spark.examples.mllib.JavaFPGrowthExample, 0, 0, 0, 0, 0, 0, 0, 0, 0, 0, 0, 0, 0, 0,0.0,0.0,0.0,0.0,0.0,0.0,0.0,0.0,0.0,0.0,0.0,0.0,0.0,37,examples\src\main\java\org\apache\spark\examples\mllib\JavaFPGrowthExample.java,0,0,0,0
org.apache.spark.examples.mllib.JavaGradientBoostedTreesRunner, 0, 0, 0, 0, 0, 0, 0, 0, 0, 0, 0, 0, 0, 0,0.0,0.0,0.0,0.0,0.0,0.0,0.0,0.0,0.0,0.0,0.0,0.0,0.0,73,examples\src\main\java\org\apache\spark\examples\mllib\JavaGradientBoostedTreesRunner.java,0,0,0,0
org.apache.spark.examples.mllib.JavaKMeans, 0, 0, 0, 0, 0, 0, 0, 0, 0, 0, 0, 0, 0, 0,0.0,0.0,0.0,0.0,0.0,0.0,0.0,0.0,0.0,0.0,0.0,0.0,0.0,40,examples\src\main\java\org\apache\spark\examples\mllib\JavaKMeans.java,0,0,0,0
org.apache.spark.examples.mllib.JavaLDAExample, 0, 0, 0, 0, 0, 0, 0, 0, 0, 0, 0, 0, 0, 0,0.0,0.0,0.0,0.0,0.0,0.0,0.0,0.0,0.0,0.0,0.0,0.0,0.0,39,examples\src\main\java\org\apache\spark\examples\mllib\JavaLDAExample.java,0,0,0,0
org.apache.spark.examples.mllib.JavaLR, 0, 0, 0, 0, 0, 0, 0, 0, 0, 0, 0, 0, 0, 0,0.0,0.0,0.0,0.0,0.0,0.0,0.0,0.0,0.0,0.0,0.0,0.0,0.0,33,examples\src\main\java\org\apache\spark\examples\mllib\JavaLR.java,0,0,0,0
org.apache.spark.examples.mllib.JavaPowerIterationClusteringExample, 0, 0, 0, 0, 0, 0, 0, 0, 0, 0, 0, 0, 0, 0,0.0,0.0,0.0,0.0,0.0,0.0,0.0,0.0,0.0,0.0,0.0,0.0,0.0,21,examples\src\main\java\org\apache\spark\examples\mllib\JavaPowerIterationClusteringExample.java,0,0,0,0
org.apache.spark.examples.sql.JavaSparkSQL, 0, 0, 0, 0, 0, 0, 0, 0, 0, 0, 0, 0, 0, 0,0.0,0.0,0.0,0.0,0.0,0.0,0.0,0.0,0.0,0.0,0.0,0.0,0.0,92,examples\src\main\java\org\apache\spark\examples\sql\JavaSparkSQL.java,0,0,9,18
org.apache.spark.examples.streaming.JavaCustomReceiver, 0, 0, 0, 0, 0, 0, 0, 0, 0, 0, 0, 0, 0, 0,0.0,0.0,0.0,0.0,0.0,0.0,0.0,0.0,0.0,0.0,0.0,0.0,0.0,69,examples\src\main\java\org\apache\spark\examples\streaming\JavaCustomReceiver.java,0,0,0,0
org.apache.spark.examples.streaming.JavaFlumeEventCount, 0, 0, 0, 0, 0, 0, 0, 0, 0, 0, 0, 0, 0, 0,0.0,0.0,0.0,0.0,0.0,0.0,0.0,0.0,0.0,0.0,0.0,0.0,0.0,26,examples\src\main\java\org\apache\spark\examples\streaming\JavaFlumeEventCount.java,0,0,0,0
org.apache.spark.examples.streaming.JavaKinesisWordCountASL, 0, 0, 0, 0, 0, 0, 0, 0, 0, 0, 0, 0, 0, 0,0.0,0.0,0.0,0.0,0.0,0.0,0.0,0.0,0.0,0.0,0.0,0.0,0.0,63,extras\kinesis-asl\src\main\java\org\apache\spark\examples\streaming\JavaKinesisWordCountASL.java,0,0,0,0
org.apache.spark.examples.streaming.JavaNetworkWordCount, 0, 0, 0, 0, 0, 0, 0, 0, 0, 0, 0, 0, 0, 0,0.0,0.0,0.0,0.0,0.0,0.0,0.0,0.0,0.0,0.0,0.0,0.0,0.0,35,examples\src\main\java\org\apache\spark\examples\streaming\JavaNetworkWordCount.java,0,0,0,0
org.apache.spark.examples.streaming.JavaQueueStream, 0, 0, 0, 0, 0, 0, 0, 0, 0, 0, 0, 0, 0, 0,0.0,0.0,0.0,0.0,0.0,0.0,0.0,0.0,0.0,0.0,0.0,0.0,0.0,35,examples\src\main\java\org\apache\spark\examples\streaming\JavaQueueStream.java,0,0,0,0
org.apache.spark.examples.streaming.JavaRecoverableNetworkWordCount, 0, 0, 0, 0, 0, 0, 0, 0, 0, 0, 0, 0, 0, 0,0.0,0.0,0.0,0.0,0.0,0.0,0.0,0.0,0.0,0.0,0.0,0.0,0.0,74,examples\src\main\java\org\apache\spark\examples\streaming\JavaRecoverableNetworkWordCount.java,0,0,0,0
org.apache.spark.examples.streaming.JavaStatefulNetworkWordCount, 0, 0, 0, 0, 0, 0, 0, 0, 0, 0, 0, 0, 0, 0,0.0,0.0,0.0,0.0,0.0,0.0,0.0,0.0,0.0,0.0,0.0,0.0,0.0,47,examples\src\main\java\org\apache\spark\examples\streaming\JavaStatefulNetworkWordCount.java,0,0,0,0
org.apache.spark.graphx.TripletFields, 0, 0, 0, 0, 0, 0, 0, 0, 0, 0, 0, 0, 0, 0,0.0,0.0,0.0,0.0,0.0,0.0,0.0,0.0,0.0,0.0,0.0,0.0,0.0,18,graphx\src\main\scala\org\apache\spark\graphx\TripletFields.java,0,0,0,0
org.apache.spark.ml.JavaPipelineSuite, 0, 0, 0, 0, 0, 0, 0, 0, 0, 0, 0, 0, 0, 0,0.0,0.0,0.0,0.0,0.0,0.0,0.0,0.0,0.0,0.0,0.0,0.0,0.0,32,mllib\src\test\java\org\apache\spark\ml\JavaPipelineSuite.java,0,0,0,0
org.apache.spark.ml.classification.JavaLogisticRegressionSuite, 0, 0, 0, 0, 0, 0, 0, 0, 0, 0, 0, 0, 0, 0,0.0,0.0,0.0,0.0,0.0,0.0,0.0,0.0,0.0,0.0,0.0,0.0,0.0,95,mllib\src\test\java\org\apache\spark\ml\classification\JavaLogisticRegressionSuite.java,0,0,0,0
org.apache.spark.ml.classification.JavaStreamingLogisticRegressionSuite, 0, 0, 0, 0, 0, 0, 0, 0, 0, 0, 0, 0, 0, 0,0.0,0.0,0.0,0.0,0.0,0.0,0.0,0.0,0.0,0.0,0.0,0.0,0.0,38,mllib\src\test\java\org\apache\spark\ml\classification\JavaStreamingLogisticRegressionSuite.java,0,0,0,0
org.apache.spark.ml.regression.JavaLinearRegressionSuite, 0, 0, 0, 0, 0, 0, 0, 0, 0, 0, 0, 0, 0, 0,0.0,0.0,0.0,0.0,0.0,0.0,0.0,0.0,0.0,0.0,0.0,0.0,0.0,45,mllib\src\test\java\org\apache\spark\ml\regression\JavaLinearRegressionSuite.java,0,0,0,0
org.apache.spark.ml.tuning.JavaCrossValidatorSuite, 0, 0, 0, 0, 0, 0, 0, 0, 0, 0, 0, 0, 0, 0,0.0,0.0,0.0,0.0,0.0,0.0,0.0,0.0,0.0,0.0,0.0,0.0,0.0,35,mllib\src\test\java\org\apache\spark\ml\tuning\JavaCrossValidatorSuite.java,0,0,0,0
org.apache.spark.mllib.classification.JavaLogisticRegressionSuite, 0, 0, 0, 0, 0, 0, 0, 0, 0, 0, 0, 0, 0, 0,0.0,0.0,0.0,0.0,0.0,0.0,0.0,0.0,0.0,0.0,0.0,0.0,0.0,54,mllib\src\test\java\org\apache\spark\mllib\classification\JavaLogisticRegressionSuite.java,0,0,0,0
org.apache.spark.mllib.classification.JavaNaiveBayesSuite, 0, 0, 0, 0, 0, 0, 0, 0, 0, 0, 0, 0, 0, 0,0.0,0.0,0.0,0.0,0.0,0.0,0.0,0.0,0.0,0.0,0.0,0.0,0.0,59,mllib\src\test\java\org\apache\spark\mllib\classification\JavaNaiveBayesSuite.java,0,0,0,0
org.apache.spark.mllib.classification.JavaSVMSuite, 0, 0, 0, 0, 0, 0, 0, 0, 0, 0, 0, 0, 0, 0,0.0,0.0,0.0,0.0,0.0,0.0,0.0,0.0,0.0,0.0,0.0,0.0,0.0,53,mllib\src\test\java\org\apache\spark\mllib\classification\JavaSVMSuite.java,0,0,0,0
org.apache.spark.mllib.clustering.JavaKMeansSuite, 0, 0, 0, 0, 0, 0, 0, 0, 0, 0, 0, 0, 0, 0,0.0,0.0,0.0,0.0,0.0,0.0,0.0,0.0,0.0,0.0,0.0,0.0,0.0,58,mllib\src\test\java\org\apache\spark\mllib\clustering\JavaKMeansSuite.java,0,0,0,0
org.apache.spark.mllib.clustering.JavaLDASuite, 0, 0, 0, 0, 0, 0, 0, 0, 0, 0, 0, 0, 0, 0,0.0,0.0,0.0,0.0,0.0,0.0,0.0,0.0,0.0,0.0,0.0,0.0,0.0,63,mllib\src\test\java\org\apache\spark\mllib\clustering\JavaLDASuite.java,0,0,0,0
org.apache.spark.mllib.feature.JavaTfIdfSuite, 0, 0, 0, 0, 0, 0, 0, 0, 0, 0, 0, 0, 0, 0,0.0,0.0,0.0,0.0,0.0,0.0,0.0,0.0,0.0,0.0,0.0,0.0,0.0,48,mllib\src\test\java\org\apache\spark\mllib\feature\JavaTfIdfSuite.java,0,0,0,0
org.apache.spark.mllib.feature.JavaWord2VecSuite, 0, 0, 0, 0, 0, 0, 0, 0, 0, 0, 0, 0, 0, 0,0.0,0.0,0.0,0.0,0.0,0.0,0.0,0.0,0.0,0.0,0.0,0.0,0.0,28,mllib\src\test\java\org\apache\spark\mllib\feature\JavaWord2VecSuite.java,0,0,0,0
org.apache.spark.mllib.fpm.JavaFPGrowthSuite, 0, 0, 0, 0, 0, 0, 0, 0, 0, 0, 0, 0, 0, 0,0.0,0.0,0.0,0.0,0.0,0.0,0.0,0.0,0.0,0.0,0.0,0.0,0.0,33,mllib\src\test\java\org\apache\spark\mllib\fpm\JavaFPGrowthSuite.java,0,0,0,0
org.apache.spark.mllib.linalg.JavaMatricesSuite, 0, 0, 0, 0, 0, 0, 0, 0, 0, 0, 0, 0, 0, 0,0.0,0.0,0.0,0.0,0.0,0.0,0.0,0.0,0.0,0.0,0.0,0.0,0.0,118,mllib\src\test\java\org\apache\spark\mllib\linalg\JavaMatricesSuite.java,0,0,0,0
org.apache.spark.mllib.linalg.JavaVectorsSuite, 0, 0, 0, 0, 0, 0, 0, 0, 0, 0, 0, 0, 0, 0,0.0,0.0,0.0,0.0,0.0,0.0,0.0,0.0,0.0,0.0,0.0,0.0,0.0,15,mllib\src\test\java\org\apache\spark\mllib\linalg\JavaVectorsSuite.java,0,0,0,0
org.apache.spark.mllib.random.JavaRandomRDDsSuite, 0, 0, 0, 0, 0, 0, 0, 0, 0, 0, 0, 0, 0, 0,0.0,0.0,0.0,0.0,0.0,0.0,0.0,0.0,0.0,0.0,0.0,0.0,0.0,186,mllib\src\test\java\org\apache\spark\mllib\random\JavaRandomRDDsSuite.java,0,0,0,0
org.apache.spark.mllib.recommendation.JavaALSSuite, 0, 0, 0, 0, 0, 0, 0, 1, 0, 0, 0, 0, 0, 1,0.0,0.0,0.0,0.0,0.0,0.0,0.0,0.0,0.0,0.0,0.0,0.0,0.0,147,mllib\src\test\java\org\apache\spark\mllib\recommendation\JavaALSSuite.java,0,0,0,0
org.apache.spark.mllib.regression.JavaIsotonicRegressionSuite, 0, 0, 0, 0, 0, 0, 0, 0, 0, 0, 0, 0, 0, 0,0.0,0.0,0.0,0.0,0.0,0.0,0.0,0.0,0.0,0.0,0.0,0.0,0.0,43,mllib\src\test\java\org\apache\spark\mllib\regression\JavaIsotonicRegressionSuite.java,0,0,0,0
org.apache.spark.mllib.regression.JavaLassoSuite, 0, 0, 0, 0, 0, 0, 0, 0, 0, 0, 0, 0, 0, 0,0.0,0.0,0.0,0.0,0.0,0.0,0.0,0.0,0.0,0.0,0.0,0.0,0.0,52,mllib\src\test\java\org\apache\spark\mllib\regression\JavaLassoSuite.java,0,0,0,0
org.apache.spark.mllib.regression.JavaLinearRegressionSuite, 0, 0, 0, 0, 0, 0, 0, 0, 0, 0, 0, 0, 0, 0,0.0,0.0,0.0,0.0,0.0,0.0,0.0,0.0,0.0,0.0,0.0,0.0,0.0,68,mllib\src\test\java\org\apache\spark\mllib\regression\JavaLinearRegressionSuite.java,0,0,0,0
org.apache.spark.mllib.regression.JavaRidgeRegressionSuite, 0, 0, 0, 0, 0, 0, 0, 0, 0, 0, 0, 0, 0, 0,0.0,0.0,0.0,0.0,0.0,0.0,0.0,0.0,0.0,0.0,0.0,0.0,0.0,57,mllib\src\test\java\org\apache\spark\mllib\regression\JavaRidgeRegressionSuite.java,0,0,0,0
org.apache.spark.mllib.regression.JavaStreamingLinearRegressionSuite, 0, 0, 0, 0, 0, 0, 0, 0, 0, 0, 0, 0, 0, 0,0.0,0.0,0.0,0.0,0.0,0.0,0.0,0.0,0.0,0.0,0.0,0.0,0.0,38,mllib\src\test\java\org\apache\spark\mllib\regression\JavaStreamingLinearRegressionSuite.java,0,0,0,0
org.apache.spark.network.ChunkFetchIntegrationSuite, 1, 0, 0, 1, 0, 0, 0, 0, 0, 0, 0, 0, 0, 2,0.0,0.0,0.0,0.0,0.0,0.0,0.0,0.0,0.0,0.0,0.0,0.0,0.0,158,network\common\src\test\java\org\apache\spark\network\ChunkFetchIntegrationSuite.java,0,0,0,0
org.apache.spark.network.ProtocolSuite, 0, 0, 0, 0, 0, 0, 0, 0, 0, 0, 0, 0, 0, 0,0.0,0.0,0.0,0.0,0.0,0.0,0.0,0.0,0.0,0.0,0.0,0.0,0.0,41,network\common\src\test\java\org\apache\spark\network\ProtocolSuite.java,3,22,5,35
org.apache.spark.network.TestManagedBuffer, 0, 0, 0, 0, 0, 0, 0, 0, 0, 0, 0, 0, 0, 0,0.0,0.0,0.0,0.0,0.0,0.0,0.0,0.0,0.0,0.0,0.0,0.0,0.0,60,network\common\src\test\java\org\apache\spark\network\TestManagedBuffer.java,0,0,0,0
org.apache.spark.network.TestUtils, 0, 0, 0, 0, 0, 0, 0, 0, 0, 0, 0, 0, 0, 0,0.6666666666666666,0.0,0.0,0.6666666666666666,0.0,0.0,0.0,0.0,0.0,0.0,0.0,0.0,0.0,9,network\common\src\test\java\org\apache\spark\network\TestUtils.java,0,0,0,0
org.apache.spark.network.TransportClientFactorySuite, 0, 0, 0, 0, 0, 0, 0, 0, 0, 0, 0, 0, 0, 0,0.0,0.0,0.0,0.0,0.0,0.0,0.0,0.0,0.0,0.0,0.0,0.0,0.0,117,network\common\src\test\java\org\apache\spark\network\TransportClientFactorySuite.java,0,0,0,0
org.apache.spark.network.TransportContext, 0, 0, 0, 0, 0, 0, 0, 0, 0, 0, 0, 0, 0, 0,0.14285714285714285,0.0,0.0,0.14285714285714285,0.0,0.0,0.0,0.07142857142857142,0.0,0.0,0.0,0.0,0.0,47,network\common\src\main\java\org\apache\spark\network\TransportContext.java,0,0,0,0
org.apache.spark.network.TransportResponseHandlerSuite, 0, 0, 0, 0, 0, 0, 0, 0, 0, 0, 0, 0, 0, 0,0.0,0.0,0.0,0.0,0.0,0.0,0.0,0.0,0.0,0.0,0.0,0.0,0.0,64,network\common\src\test\java\org\apache\spark\network\TransportResponseHandlerSuite.java,0,0,0,0
org.apache.spark.network.buffer.FileSegmentManagedBuffer, 0, 0, 0, 0, 0, 0, 0, 0, 0, 0, 0, 0, 0, 0,0.16666666666666666,0.0,0.0,0.16666666666666666,0.0,0.0,0.0,0.0,0.0,0.0,0.0,0.0,0.0,102,network\common\src\main\java\org\apache\spark\network\buffer\FileSegmentManagedBuffer.java,0,0,0,0
org.apache.spark.network.buffer.LazyFileRegion, 0, 0, 0, 0, 0, 0, 0, 0, 0, 0, 0, 0, 0, 0,0.0,0.0,0.0,0.0,0.0,0.0,0.0,0.0,0.0,0.0,0.0,0.0,0.0,55,network\common\src\main\java\org\apache\spark\network\buffer\LazyFileRegion.java,0,0,0,0
org.apache.spark.network.buffer.ManagedBuffer, 0, 0, 0, 0, 0, 0, 0, 0, 0, 0, 0, 0, 0, 0,0.2222222222222222,0.0,0.0,0.2222222222222222,0.0,0.0,0.0,0.0,0.0,0.0,0.0,0.0,0.0,8,network\common\src\main\java\org\apache\spark\network\buffer\ManagedBuffer.java,0,0,0,0
org.apache.spark.network.buffer.NettyManagedBuffer, 0, 0, 0, 0, 0, 0, 0, 0, 0, 0, 0, 0, 0, 0,0.0,0.0,0.0,0.0,0.0,0.0,0.0,0.0,0.0,0.0,0.0,0.0,0.0,38,network\common\src\main\java\org\apache\spark\network\buffer\NettyManagedBuffer.java,0,0,0,0
org.apache.spark.network.buffer.NioManagedBuffer, 0, 0, 0, 0, 0, 0, 0, 0, 0, 0, 0, 0, 0, 0,0.5,0.0,0.0,0.5,0.0,0.0,0.0,0.0,0.0,0.0,0.0,0.0,0.0,36,network\common\src\main\java\org\apache\spark\network\buffer\NioManagedBuffer.java,0,0,0,0
org.apache.spark.network.client.ChunkFetchFailureException, 0, 0, 0, 0, 0, 0, 0, 0, 0, 0, 0, 0, 0, 0,0.0,0.0,0.0,0.0,0.0,0.0,0.0,0.0,0.0,0.0,0.0,0.0,0.0,8,network\common\src\main\java\org\apache\spark\network\client\ChunkFetchFailureException.java,0,0,0,0
org.apache.spark.network.client.ChunkReceivedCallback, 0, 0, 0, 0, 0, 0, 0, 0, 0, 0, 0, 0, 0, 0,0.0,0.0,0.0,0.0,0.0,0.0,0.0,0.0,0.0,0.0,0.0,0.0,0.0,8,network\common\src\main\java\org\apache\spark\network\client\ChunkReceivedCallback.java,0,0,0,0
org.apache.spark.network.client.RpcResponseCallback, 0, 0, 0, 0, 0, 0, 0, 0, 0, 0, 0, 0, 0, 0,0.0,0.0,0.0,0.0,0.0,0.0,0.0,0.0,0.0,0.0,0.0,0.0,0.0,8,network\common\src\main\java\org\apache\spark\network\client\RpcResponseCallback.java,0,0,0,0
org.apache.spark.network.client.TransportClient, 0, 0, 0, 0, 0, 0, 0, 0, 0, 0, 0, 0, 0, 0,0.07142857142857142,0.0,0.0,0.07142857142857142,0.0,0.0,0.0,0.14285714285714285,0.0,0.0,0.0,0.0,0.0,103,network\common\src\main\java\org\apache\spark\network\client\TransportClient.java,0,0,0,0
org.apache.spark.network.client.TransportClientBootstrap, 0, 0, 0, 0, 0, 0, 0, 0, 0, 0, 0, 0, 0, 0,0.0,0.0,0.0,0.0,0.0,0.0,0.0,0.0,0.0,0.0,0.0,0.0,0.0,103,network\common\src\main\java\org\apache\spark\network\client\TransportClientBootstrap.java,0,0,0,0
org.apache.spark.network.protocol.ChunkFetchFailure, 0, 0, 0, 0, 0, 0, 0, 0, 0, 0, 0, 0, 0, 0,0.0,0.0,0.0,0.0,0.0,0.0,0.0,0.0,0.0,0.0,0.0,0.0,0.0,39,network\common\src\main\java\org\apache\spark\network\protocol\ChunkFetchFailure.java,0,0,0,0
org.apache.spark.network.protocol.ChunkFetchRequest, 0, 0, 0, 0, 0, 0, 0, 0, 0, 0, 0, 0, 0, 0,0.0,0.0,0.0,0.0,0.0,0.0,0.0,0.0,0.0,0.0,0.0,0.0,0.0,33,network\common\src\main\java\org\apache\spark\network\protocol\ChunkFetchRequest.java,0,0,0,0
org.apache.spark.network.protocol.ChunkFetchSuccess, 0, 0, 0, 0, 0, 0, 0, 0, 0, 0, 0, 0, 0, 0,0.0,0.0,0.0,0.0,0.0,0.0,0.0,0.0,0.0,0.0,0.0,0.0,0.0,39,network\common\src\main\java\org\apache\spark\network\protocol\ChunkFetchSuccess.java,0,0,0,0
org.apache.spark.network.protocol.Encodable, 0, 0, 0, 0, 0, 0, 0, 0, 0, 0, 0, 0, 0, 0,0.0,0.0,0.0,0.0,0.0,0.0,0.0,0.0,0.0,0.0,0.0,0.0,0.0,39,network\common\src\main\java\org\apache\spark\network\protocol\Encodable.java,0,0,0,0
org.apache.spark.network.protocol.Encoders, 0, 0, 0, 0, 0, 0, 0, 0, 0, 0, 0, 0, 0, 0,0.0,0.0,0.0,0.0,0.0,0.0,0.0,0.0,0.0,0.0,0.0,0.0,0.0,56,network\common\src\main\java\org\apache\spark\network\protocol\Encoders.java,0,0,0,0
org.apache.spark.network.protocol.Message, 0, 0, 0, 0, 0, 0, 0, 0, 0, 0, 0, 0, 0, 0,0.0,0.0,0.0,0.0,0.0,0.0,0.0,0.0,0.0,0.0,0.0,0.0,0.0,56,network\common\src\main\java\org\apache\spark\network\protocol\Message.java,0,0,0,0
org.apache.spark.network.protocol.MessageDecoder, 0, 0, 0, 0, 0, 0, 0, 0, 0, 0, 0, 0, 0, 0,0.0,0.0,0.0,0.0,0.0,0.0,0.0,0.0,0.0,0.0,0.0,0.0,0.0,29,network\common\src\main\java\org\apache\spark\network\protocol\MessageDecoder.java,0,0,0,0
org.apache.spark.network.protocol.MessageEncoder, 0, 0, 0, 0, 0, 0, 0, 0, 0, 0, 0, 0, 0, 0,0.0,0.0,0.0,0.0,0.0,0.0,0.0,0.0,0.0,0.0,0.0,0.0,0.0,32,network\common\src\main\java\org\apache\spark\network\protocol\MessageEncoder.java,1,2,1,5
org.apache.spark.network.protocol.RequestMessage, 0, 0, 0, 0, 0, 0, 0, 0, 0, 0, 0, 0, 0, 0,0.0,0.0,0.0,0.0,0.0,0.0,0.0,0.0,0.0,0.0,0.0,0.0,0.0,32,network\common\src\main\java\org\apache\spark\network\protocol\RequestMessage.java,0,0,0,0
org.apache.spark.network.protocol.ResponseMessage, 0, 0, 0, 0, 0, 0, 0, 0, 0, 0, 0, 0, 0, 0,0.0,0.0,0.0,0.0,0.0,0.0,0.0,0.0,0.0,0.0,0.0,0.0,0.0,32,network\common\src\main\java\org\apache\spark\network\protocol\ResponseMessage.java,0,0,0,0
org.apache.spark.network.protocol.RpcFailure, 0, 0, 0, 0, 0, 0, 0, 0, 0, 0, 0, 0, 0, 0,0.0,0.0,0.0,0.0,0.0,0.0,0.0,0.0,0.0,0.0,0.0,0.0,0.0,39,network\common\src\main\java\org\apache\spark\network\protocol\RpcFailure.java,0,0,0,0
org.apache.spark.network.protocol.RpcRequest, 0, 0, 0, 0, 0, 0, 0, 0, 0, 0, 0, 0, 0, 0,0.0,0.0,0.0,0.0,0.0,0.0,0.0,0.0,0.0,0.0,0.0,0.0,0.0,39,network\common\src\main\java\org\apache\spark\network\protocol\RpcRequest.java,0,0,0,0
org.apache.spark.network.protocol.RpcResponse, 0, 0, 0, 0, 0, 0, 0, 0, 0, 0, 0, 0, 0, 0,0.0,0.0,0.0,0.0,0.0,0.0,0.0,0.0,0.0,0.0,0.0,0.0,0.0,37,network\common\src\main\java\org\apache\spark\network\protocol\RpcResponse.java,0,0,0,0
org.apache.spark.network.protocol.StreamChunkId, 0, 0, 0, 0, 0, 0, 0, 0, 0, 0, 0, 0, 0, 0,0.0,0.0,0.0,0.0,0.0,0.0,0.0,0.0,0.0,0.0,0.0,0.0,0.0,41,network\common\src\main\java\org\apache\spark\network\protocol\StreamChunkId.java,0,0,0,0
org.apache.spark.network.sasl.SaslClientBootstrap, 0, 0, 0, 0, 0, 0, 0, 0, 0, 0, 0, 0, 0, 0,0.0,0.0,0.0,0.0,0.0,0.0,0.0,0.25,0.0,0.0,0.0,0.0,0.0,31,network\shuffle\src\main\java\org\apache\spark\network\sasl\SaslClientBootstrap.java,0,0,0,0
org.apache.spark.network.sasl.SaslMessage, 0, 0, 0, 0, 0, 0, 0, 0, 0, 0, 0, 0, 0, 0,0.0,0.0,0.0,0.0,0.0,0.0,0.0,0.0,0.0,0.0,0.0,0.0,0.0,28,network\shuffle\src\main\java\org\apache\spark\network\sasl\SaslMessage.java,0,0,0,0
org.apache.spark.network.sasl.SaslRpcHandler, 0, 0, 0, 0, 0, 0, 0, 0, 0, 0, 0, 0, 0, 0,0.0,0.0,0.0,0.0,0.0,0.0,0.0,0.0,0.0,0.0,0.0,0.0,0.0,40,network\shuffle\src\main\java\org\apache\spark\network\sasl\SaslRpcHandler.java,0,0,0,0
org.apache.spark.network.sasl.SecretKeyHolder, 0, 0, 0, 0, 0, 0, 0, 0, 0, 0, 0, 0, 0, 0,0.0,0.0,0.0,0.0,0.0,0.0,0.0,0.0,0.0,0.0,0.0,0.0,0.0,40,network\shuffle\src\main\java\org\apache\spark\network\sasl\SecretKeyHolder.java,0,0,0,0
org.apache.spark.network.server.MessageHandler, 0, 0, 0, 0, 0, 0, 0, 0, 0, 0, 0, 0, 0, 0,0.0,0.0,0.0,0.0,0.0,0.0,0.0,0.0,0.0,0.0,0.0,0.0,0.0,5,network\common\src\main\java\org\apache\spark\network\server\MessageHandler.java,0,0,0,0
org.apache.spark.network.server.NoOpRpcHandler, 0, 0, 0, 0, 0, 0, 0, 0, 0, 0, 0, 0, 0, 0,0.0,0.0,0.0,0.0,0.0,0.0,0.0,0.25,0.0,0.0,0.0,0.0,0.0,12,network\common\src\main\java\org\apache\spark\network\server\NoOpRpcHandler.java,0,0,0,0
org.apache.spark.network.server.RpcHandler, 0, 0, 0, 0, 0, 0, 0, 0, 0, 0, 0, 0, 0, 0,0.0,0.0,0.0,0.0,0.0,0.0,0.0,0.0,0.0,0.0,0.0,0.0,0.0,8,network\common\src\main\java\org\apache\spark\network\server\RpcHandler.java,0,0,0,0
org.apache.spark.network.server.StreamManager, 0, 0, 0, 0, 0, 0, 0, 0, 0, 0, 0, 0, 0, 0,0.2,0.0,0.0,0.2,0.0,0.0,0.0,0.0,0.0,0.0,0.0,0.0,0.0,4,network\common\src\main\java\org\apache\spark\network\server\StreamManager.java,0,0,0,0
org.apache.spark.network.server.TransportChannelHandler, 0, 0, 0, 0, 0, 0, 0, 0, 0, 0, 0, 0, 0, 0,0.0,0.0,0.0,0.0,0.0,0.0,0.0,0.0,0.0,0.0,0.0,0.0,0.0,47,network\common\src\main\java\org\apache\spark\network\server\TransportChannelHandler.java,0,0,0,0
org.apache.spark.network.server.TransportRequestHandler, 0, 0, 0, 0, 0, 0, 0, 0, 0, 0, 0, 0, 0, 0,0.0,0.0,0.0,0.0,0.0,0.0,0.0,0.0,0.0,0.0,0.0,0.0,0.0,87,network\common\src\main\java\org\apache\spark\network\server\TransportRequestHandler.java,0,0,0,0
org.apache.spark.network.server.TransportServer, 0, 0, 0, 0, 0, 0, 0, 0, 0, 0, 0, 0, 0, 0,0.2857142857142857,0.0,0.0,0.2857142857142857,0.0,0.0,0.0,0.0,0.0,0.0,0.0,0.0,0.0,88,network\common\src\main\java\org\apache\spark\network\server\TransportServer.java,0,0,0,0
org.apache.spark.network.shuffle.BlockFetchingListener, 0, 0, 0, 0, 0, 0, 0, 0, 0, 0, 0, 0, 0, 0,0.0,0.0,0.0,0.0,0.0,0.0,0.0,0.0,0.0,0.0,0.0,0.0,0.0,88,network\shuffle\src\main\java\org\apache\spark\network\shuffle\BlockFetchingListener.java,0,0,0,0
org.apache.spark.network.shuffle.BlockTransferMessagesSuite, 0, 0, 0, 0, 0, 0, 0, 0, 0, 0, 0, 0, 0, 0,0.0,0.0,0.0,0.0,0.0,0.0,0.0,0.16666666666666666,0.0,0.0,0.0,0.0,0.0,17,network\shuffle\src\test\java\org\apache\spark\network\shuffle\BlockTransferMessagesSuite.java,0,0,0,0
org.apache.spark.network.shuffle.ExternalShuffleBlockHandler, 0, 0, 0, 0, 0, 0, 0, 0, 0, 0, 0, 0, 0, 0,0.14285714285714285,0.0,0.0,0.14285714285714285,0.0,0.0,0.0,0.0,0.0,0.0,0.0,0.0,0.0,42,network\shuffle\src\main\java\org\apache\spark\network\shuffle\ExternalShuffleBlockHandler.java,0,0,0,0
org.apache.spark.network.shuffle.ExternalShuffleBlockHandlerSuite, 0, 0, 0, 0, 0, 0, 0, 0, 0, 0, 0, 0, 0, 0,0.0,0.0,0.0,0.0,0.0,0.0,0.0,0.1111111111111111,0.0,0.0,0.0,0.0,0.0,65,network\shuffle\src\test\java\org\apache\spark\network\shuffle\ExternalShuffleBlockHandlerSuite.java,0,0,0,0
org.apache.spark.network.shuffle.ExternalShuffleCleanupSuite, 0, 0, 0, 0, 0, 0, 0, 0, 0, 0, 0, 0, 0, 0,0.0,0.0,0.0,0.0,0.0,0.0,0.0,0.0,0.0,0.0,0.0,0.0,0.0,81,network\shuffle\src\test\java\org\apache\spark\network\shuffle\ExternalShuffleCleanupSuite.java,0,0,0,0
org.apache.spark.network.shuffle.ExternalShuffleClient, 0, 0, 0, 0, 0, 0, 0, 1, 0, 0, 0, 0, 0, 1,0.09090909090909091,0.0,0.0,0.09090909090909091,0.0,0.0,0.0,0.09090909090909091,0.0,0.0,0.0,0.0,0.0,72,network\shuffle\src\main\java\org\apache\spark\network\shuffle\ExternalShuffleClient.java,0,0,0,0
org.apache.spark.network.shuffle.ExternalShuffleIntegrationSuite, 1, 0, 0, 1, 0, 0, 0, 0, 0, 0, 0, 0, 0, 2,0.0,0.0,0.0,0.0,0.0,0.0,0.0,0.1,0.0,0.0,0.0,0.0,0.0,213,network\shuffle\src\test\java\org\apache\spark\network\shuffle\ExternalShuffleIntegrationSuite.java,0,0,0,0
org.apache.spark.network.shuffle.OneForOneBlockFetcher, 0, 0, 0, 0, 0, 0, 0, 1, 0, 0, 0, 0, 0, 1,0.0,0.0,0.0,0.0,0.0,0.0,0.0,0.0,0.0,0.0,0.0,0.0,0.0,66,network\shuffle\src\main\java\org\apache\spark\network\shuffle\OneForOneBlockFetcher.java,0,0,0,0
org.apache.spark.network.shuffle.RetryingBlockFetcher, 0, 0, 0, 0, 0, 0, 0, 0, 0, 0, 0, 0, 0, 0,0.0,0.0,0.0,0.0,0.0,0.0,0.0,0.5,0.0,0.0,0.0,0.0,0.0,107,network\shuffle\src\main\java\org\apache\spark\network\shuffle\RetryingBlockFetcher.java,0,0,0,0
org.apache.spark.network.shuffle.ShuffleClient, 0, 0, 0, 0, 0, 0, 0, 1, 0, 0, 0, 0, 0, 1,0.0,0.0,0.0,0.0,0.0,0.0,0.0,1.0,0.0,0.0,0.0,0.0,0.0,9,network\shuffle\src\main\java\org\apache\spark\network\shuffle\ShuffleClient.java,0,0,0,0
org.apache.spark.network.shuffle.TestShuffleDataContext, 0, 0, 0, 0, 0, 0, 0, 0, 0, 0, 0, 0, 0, 0,0.3333333333333333,0.0,0.0,0.3333333333333333,0.0,0.0,0.0,0.0,0.0,0.0,0.0,0.0,0.0,59,network\shuffle\src\test\java\org\apache\spark\network\shuffle\TestShuffleDataContext.java,0,0,0,0
org.apache.spark.network.shuffle.protocol.BlockTransferMessage, 0, 0, 0, 0, 0, 0, 0, 0, 0, 0, 0, 0, 0, 0,0.0,0.0,0.0,0.0,0.0,0.0,0.0,0.3333333333333333,0.0,0.0,0.0,0.0,0.0,32,network\shuffle\src\main\java\org\apache\spark\network\shuffle\protocol\BlockTransferMessage.java,0,0,0,0
org.apache.spark.network.shuffle.protocol.ExecutorShuffleInfo, 0, 0, 0, 0, 0, 0, 0, 0, 0, 0, 0, 0, 0, 0,0.16666666666666666,0.0,0.0,0.16666666666666666,0.0,0.0,0.0,0.16666666666666666,0.0,0.0,0.0,0.0,0.0,50,network\shuffle\src\main\java\org\apache\spark\network\shuffle\protocol\ExecutorShuffleInfo.java,0,0,0,0
org.apache.spark.network.shuffle.protocol.OpenBlocks, 0, 0, 0, 0, 0, 0, 0, 0, 0, 0, 0, 0, 0, 0,0.0,0.0,0.0,0.0,0.0,0.0,0.0,0.25,0.0,0.0,0.0,0.0,0.0,52,network\shuffle\src\main\java\org\apache\spark\network\shuffle\protocol\OpenBlocks.java,0,0,0,0
org.apache.spark.network.shuffle.protocol.RegisterExecutor, 0, 0, 0, 0, 0, 0, 0, 0, 0, 0, 0, 0, 0, 0,0.0,0.0,0.0,0.0,0.0,0.0,0.0,0.2,0.0,0.0,0.0,0.0,0.0,55,network\shuffle\src\main\java\org\apache\spark\network\shuffle\protocol\RegisterExecutor.java,0,0,0,0
org.apache.spark.network.shuffle.protocol.StreamHandle, 0, 0, 0, 0, 0, 0, 0, 0, 0, 0, 0, 0, 0, 0,0.0,0.0,0.0,0.0,0.0,0.0,0.0,0.25,0.0,0.0,0.0,0.0,0.0,44,network\shuffle\src\main\java\org\apache\spark\network\shuffle\protocol\StreamHandle.java,0,0,0,0
org.apache.spark.network.shuffle.protocol.UploadBlock, 0, 0, 0, 0, 0, 0, 0, 1, 0, 0, 0, 0, 0, 1,0.0,0.0,0.0,0.0,0.0,0.0,0.0,0.0,0.0,0.0,0.0,0.0,0.0,72,network\shuffle\src\main\java\org\apache\spark\network\shuffle\protocol\UploadBlock.java,0,0,0,0
org.apache.spark.network.util.ConfigProvider, 0, 0, 0, 0, 0, 0, 0, 0, 0, 0, 0, 0, 0, 0,0.0,0.0,0.0,0.0,0.0,0.0,0.0,0.0,0.0,0.0,0.0,0.0,0.0,22,network\common\src\main\java\org\apache\spark\network\util\ConfigProvider.java,0,0,0,0
org.apache.spark.network.util.JavaUtils, 0, 0, 0, 0, 0, 0, 0, 0, 0, 0, 0, 0, 0, 0,0.0,0.0,0.0,0.0,0.0,0.0,0.0,0.0,0.0,0.0,0.0,0.0,0.0,64,network\common\src\main\java\org\apache\spark\network\util\JavaUtils.java,0,0,0,0
org.apache.spark.network.util.LimitedInputStream, 0, 0, 0, 0, 0, 0, 0, 0, 0, 0, 0, 0, 0, 0,0.0,0.0,0.0,0.0,0.0,0.0,0.0,0.0,0.0,0.0,0.0,0.0,0.0,54,network\common\src\main\java\org\apache\spark\network\util\LimitedInputStream.java,0,0,0,0
org.apache.spark.network.util.NettyUtils, 0, 0, 0, 0, 0, 0, 0, 0, 0, 0, 0, 0, 0, 0,0.0,0.0,0.0,0.0,0.0,0.0,0.0,0.0,0.0,0.0,0.0,0.0,0.0,75,network\common\src\main\java\org\apache\spark\network\util\NettyUtils.java,0,0,0,0
org.apache.spark.network.util.SystemPropertyConfigProvider, 0, 0, 0, 0, 0, 0, 0, 0, 0, 0, 0, 0, 0, 0,0.0,0.0,0.0,0.0,0.0,0.0,0.0,0.0,0.0,0.0,0.0,0.0,0.0,10,network\common\src\main\java\org\apache\spark\network\util\SystemPropertyConfigProvider.java,0,0,0,0
org.apache.spark.network.util.TransportConf, 0, 0, 0, 0, 0, 0, 0, 0, 0, 0, 0, 0, 0, 0,0.15384615384615385,0.0,0.0,0.15384615384615385,0.0,0.0,0.0,0.07692307692307693,0.0,0.0,0.0,0.0,0.0,34,network\common\src\main\java\org\apache\spark\network\util\TransportConf.java,0,0,0,0
org.apache.spark.network.yarn.YarnShuffleService, 0, 0, 0, 0, 0, 0, 0, 0, 0, 0, 0, 0, 0, 0,0.0,0.0,0.0,0.0,0.0,0.0,0.0,0.0,0.0,0.0,0.0,0.0,0.0,85,network\yarn\src\main\java\org\apache\spark\network\yarn\YarnShuffleService.java,0,0,0,0
org.apache.spark.network.yarn.util.HadoopConfigProvider, 0, 0, 0, 0, 0, 0, 0, 0, 0, 0, 0, 0, 0, 0,0.0,0.0,0.0,0.0,0.0,0.0,0.0,0.0,0.0,0.0,0.0,0.0,0.0,14,network\yarn\src\main\java\org\apache\spark\network\yarn\util\HadoopConfigProvider.java,0,0,0,0
org.apache.spark.serializer.TestJavaSerializerImpl, 0, 0, 0, 0, 0, 0, 0, 0, 0, 0, 0, 0, 0, 0,0.0,0.0,0.0,0.0,0.0,0.0,0.0,0.0,0.0,0.0,0.0,0.0,0.0,49,core\src\test\java\org\apache\spark\serializer\TestJavaSerializerImpl.java,0,0,0,0
org.apache.spark.sql.RowFactory, 0, 0, 0, 0, 0, 0, 0, 0, 0, 0, 0, 0, 0, 0,0.0,0.0,0.0,0.0,0.0,0.0,0.0,0.0,0.0,0.0,0.0,0.0,0.0,5,sql\catalyst\src\main\java\org\apache\spark\sql\RowFactory.java,0,0,0,0
org.apache.spark.sql.api.java.UDF1, 0, 0, 0, 0, 0, 0, 0, 0, 0, 0, 0, 0, 0, 0,0.0,0.0,0.0,0.0,0.0,0.0,0.0,0.0,0.0,0.0,0.0,0.0,0.0,5,sql\core\src\main\java\org\apache\spark\sql\api\java\UDF1.java,0,0,0,0
org.apache.spark.sql.api.java.UDF10, 0, 0, 0, 0, 0, 0, 0, 0, 0, 0, 0, 0, 0, 0,0.0,0.0,0.0,0.0,0.0,0.0,0.0,0.0,0.0,0.0,0.0,0.0,0.0,5,sql\core\src\main\java\org\apache\spark\sql\api\java\UDF10.java,0,0,0,0
org.apache.spark.sql.api.java.UDF11, 0, 0, 0, 0, 0, 0, 0, 0, 0, 0, 0, 0, 0, 0,0.0,0.0,0.0,0.0,0.0,0.0,0.0,0.0,0.0,0.0,0.0,0.0,0.0,5,sql\core\src\main\java\org\apache\spark\sql\api\java\UDF11.java,0,0,0,0
org.apache.spark.sql.api.java.UDF12, 0, 0, 0, 0, 0, 0, 0, 0, 0, 0, 0, 0, 0, 0,0.0,0.0,0.0,0.0,0.0,0.0,0.0,0.0,0.0,0.0,0.0,0.0,0.0,5,sql\core\src\main\java\org\apache\spark\sql\api\java\UDF12.java,0,0,0,0
org.apache.spark.sql.api.java.UDF13, 0, 0, 0, 0, 0, 0, 0, 0, 0, 0, 0, 0, 0, 0,0.0,0.0,0.0,0.0,0.0,0.0,0.0,0.0,0.0,0.0,0.0,0.0,0.0,5,sql\core\src\main\java\org\apache\spark\sql\api\java\UDF13.java,0,0,0,0
org.apache.spark.sql.api.java.UDF14, 0, 0, 0, 0, 0, 0, 0, 0, 0, 0, 0, 0, 0, 0,0.0,0.0,0.0,0.0,0.0,0.0,0.0,0.0,0.0,0.0,0.0,0.0,0.0,5,sql\core\src\main\java\org\apache\spark\sql\api\java\UDF14.java,0,0,0,0
org.apache.spark.sql.api.java.UDF15, 0, 0, 0, 0, 0, 0, 0, 0, 0, 0, 0, 0, 0, 0,0.0,0.0,0.0,0.0,0.0,0.0,0.0,0.0,0.0,0.0,0.0,0.0,0.0,5,sql\core\src\main\java\org\apache\spark\sql\api\java\UDF15.java,0,0,0,0
org.apache.spark.sql.api.java.UDF16, 0, 0, 0, 0, 0, 0, 0, 0, 0, 0, 0, 0, 0, 0,0.0,0.0,0.0,0.0,0.0,0.0,0.0,0.0,0.0,0.0,0.0,0.0,0.0,5,sql\core\src\main\java\org\apache\spark\sql\api\java\UDF16.java,0,0,0,0
org.apache.spark.sql.api.java.UDF17, 0, 0, 0, 0, 0, 0, 0, 0, 0, 0, 0, 0, 0, 0,0.0,0.0,0.0,0.0,0.0,0.0,0.0,0.0,0.0,0.0,0.0,0.0,0.0,5,sql\core\src\main\java\org\apache\spark\sql\api\java\UDF17.java,0,0,0,0
org.apache.spark.sql.api.java.UDF18, 0, 0, 0, 0, 0, 0, 0, 0, 0, 0, 0, 0, 0, 0,0.0,0.0,0.0,0.0,0.0,0.0,0.0,0.0,0.0,0.0,0.0,0.0,0.0,5,sql\core\src\main\java\org\apache\spark\sql\api\java\UDF18.java,0,0,0,0
org.apache.spark.sql.api.java.UDF19, 0, 0, 0, 0, 0, 0, 0, 0, 0, 0, 0, 0, 0, 0,0.0,0.0,0.0,0.0,0.0,0.0,0.0,0.0,0.0,0.0,0.0,0.0,0.0,5,sql\core\src\main\java\org\apache\spark\sql\api\java\UDF19.java,0,0,0,0
org.apache.spark.sql.api.java.UDF2, 0, 0, 0, 0, 0, 0, 0, 0, 0, 0, 0, 0, 0, 0,0.0,0.0,0.0,0.0,0.0,0.0,0.0,0.0,0.0,0.0,0.0,0.0,0.0,5,sql\core\src\main\java\org\apache\spark\sql\api\java\UDF2.java,0,0,0,0
org.apache.spark.sql.api.java.UDF20, 0, 0, 0, 0, 0, 0, 0, 0, 0, 0, 0, 0, 0, 0,0.0,0.0,0.0,0.0,0.0,0.0,0.0,0.0,0.0,0.0,0.0,0.0,0.0,5,sql\core\src\main\java\org\apache\spark\sql\api\java\UDF20.java,0,0,0,0
org.apache.spark.sql.api.java.UDF21, 0, 0, 0, 0, 0, 0, 0, 0, 0, 0, 0, 0, 0, 0,0.0,0.0,0.0,0.0,0.0,0.0,0.0,0.0,0.0,0.0,0.0,0.0,0.0,5,sql\core\src\main\java\org\apache\spark\sql\api\java\UDF21.java,0,0,0,0
org.apache.spark.sql.api.java.UDF22, 0, 0, 0, 0, 0, 0, 0, 0, 0, 0, 0, 0, 0, 0,0.0,0.0,0.0,0.0,0.0,0.0,0.0,0.0,0.0,0.0,0.0,0.0,0.0,5,sql\core\src\main\java\org\apache\spark\sql\api\java\UDF22.java,0,0,0,0
org.apache.spark.sql.api.java.UDF3, 0, 0, 0, 0, 0, 0, 0, 0, 0, 0, 0, 0, 0, 0,0.0,0.0,0.0,0.0,0.0,0.0,0.0,0.0,0.0,0.0,0.0,0.0,0.0,5,sql\core\src\main\java\org\apache\spark\sql\api\java\UDF3.java,0,0,0,0
org.apache.spark.sql.api.java.UDF4, 0, 0, 0, 0, 0, 0, 0, 0, 0, 0, 0, 0, 0, 0,0.0,0.0,0.0,0.0,0.0,0.0,0.0,0.0,0.0,0.0,0.0,0.0,0.0,5,sql\core\src\main\java\org\apache\spark\sql\api\java\UDF4.java,0,0,0,0
org.apache.spark.sql.api.java.UDF5, 0, 0, 0, 0, 0, 0, 0, 0, 0, 0, 0, 0, 0, 0,0.0,0.0,0.0,0.0,0.0,0.0,0.0,0.0,0.0,0.0,0.0,0.0,0.0,5,sql\core\src\main\java\org\apache\spark\sql\api\java\UDF5.java,0,0,0,0
org.apache.spark.sql.api.java.UDF6, 0, 0, 0, 0, 0, 0, 0, 0, 0, 0, 0, 0, 0, 0,0.0,0.0,0.0,0.0,0.0,0.0,0.0,0.0,0.0,0.0,0.0,0.0,0.0,5,sql\core\src\main\java\org\apache\spark\sql\api\java\UDF6.java,0,0,0,0
org.apache.spark.sql.api.java.UDF7, 0, 0, 0, 0, 0, 0, 0, 0, 0, 0, 0, 0, 0, 0,0.0,0.0,0.0,0.0,0.0,0.0,0.0,0.0,0.0,0.0,0.0,0.0,0.0,5,sql\core\src\main\java\org\apache\spark\sql\api\java\UDF7.java,0,0,0,0
org.apache.spark.sql.api.java.UDF8, 0, 0, 0, 0, 0, 0, 0, 0, 0, 0, 0, 0, 0, 0,0.0,0.0,0.0,0.0,0.0,0.0,0.0,0.0,0.0,0.0,0.0,0.0,0.0,5,sql\core\src\main\java\org\apache\spark\sql\api\java\UDF8.java,0,0,0,0
org.apache.spark.sql.api.java.UDF9, 0, 0, 0, 0, 0, 0, 0, 0, 0, 0, 0, 0, 0, 0,0.0,0.0,0.0,0.0,0.0,0.0,0.0,0.0,0.0,0.0,0.0,0.0,0.0,5,sql\core\src\main\java\org\apache\spark\sql\api\java\UDF9.java,0,0,0,0
org.apache.spark.sql.hive.execution.UDFIntegerToString, 0, 0, 0, 0, 0, 0, 0, 0, 0, 0, 0, 0, 0, 0,0.0,0.0,0.0,0.0,0.0,0.0,0.0,0.0,0.0,0.0,0.0,0.0,0.0,5,sql\hive\src\test\java\org\apache\spark\sql\hive\execution\UDFIntegerToString.java,0,0,0,0
org.apache.spark.sql.hive.execution.UDFListListInt, 0, 0, 0, 0, 0, 0, 0, 0, 0, 0, 0, 0, 0, 0,0.0,0.0,0.0,0.0,0.0,0.0,0.0,0.0,0.0,0.0,0.0,0.0,0.0,19,sql\hive\src\test\java\org\apache\spark\sql\hive\execution\UDFListListInt.java,0,0,0,0
org.apache.spark.sql.hive.execution.UDFListString, 0, 0, 0, 0, 0, 0, 0, 0, 0, 0, 0, 0, 0, 0,0.0,0.0,0.0,0.0,0.0,0.0,0.0,0.0,0.0,0.0,0.0,0.0,0.0,10,sql\hive\src\test\java\org\apache\spark\sql\hive\execution\UDFListString.java,0,0,0,0
org.apache.spark.sql.hive.execution.UDFStringString, 0, 0, 0, 0, 0, 0, 0, 0, 0, 0, 0, 0, 0, 0,0.0,0.0,0.0,0.0,0.0,0.0,0.0,0.0,0.0,0.0,0.0,0.0,0.0,5,sql\hive\src\test\java\org\apache\spark\sql\hive\execution\UDFStringString.java,0,0,0,0
org.apache.spark.sql.hive.execution.UDFTwoListList, 0, 0, 0, 0, 0, 0, 0, 0, 0, 0, 0, 0, 0, 0,0.0,0.0,0.0,0.0,0.0,0.0,0.0,0.0,0.0,0.0,0.0,0.0,0.0,6,sql\hive\src\test\java\org\apache\spark\sql\hive\execution\UDFTwoListList.java,0,0,0,0
org.apache.spark.sql.types.DataTypes, 0, 0, 0, 1, 0, 0, 0, 0, 0, 0, 0, 0, 0, 1,0.0,0.0,0.0,0.0,0.0,0.0,0.0,0.0,0.0,0.0,0.0,0.0,0.0,92,sql\catalyst\src\main\java\org\apache\spark\sql\types\DataTypes.java,0,0,0,0
org.apache.spark.streaming.Java8APISuite, 0, 0, 0, 1, 0, 0, 0, 0, 0, 0, 0, 0, 0, 1,0.0,0.0,0.0,0.0,0.0,0.0,0.0,0.0,0.0,0.0,0.0,0.0,0.0,644,extras\java8-tests\src\test\java\org\apache\spark\streaming\Java8APISuite.java,0,0,0,0
org.apache.spark.streaming.JavaDurationSuite, 0, 0, 0, 0, 0, 0, 0, 0, 0, 0, 0, 0, 0, 0,0.0,0.0,0.0,0.0,0.0,0.0,0.0,0.0,0.0,0.0,0.0,0.0,0.0,46,streaming\src\test\java\org\apache\spark\streaming\JavaDurationSuite.java,0,0,0,0
org.apache.spark.streaming.JavaReceiverAPISuite, 0, 0, 0, 0, 0, 0, 0, 0, 0, 0, 0, 0, 0, 0,0.0,0.0,0.0,0.0,0.0,0.0,0.0,0.0,0.0,0.0,0.0,0.0,0.0,50,streaming\src\test\java\org\apache\spark\streaming\JavaReceiverAPISuite.java,0,0,0,0
org.apache.spark.streaming.JavaSocketReceiver, 0, 0, 0, 0, 0, 0, 0, 0, 0, 0, 0, 0, 0, 0,0.0,0.0,0.0,0.0,0.0,0.0,0.0,0.0,0.0,0.0,0.0,0.0,0.0,38,streaming\src\test\java\org\apache\spark\streaming\JavaReceiverAPISuite.java,0,0,0,0
org.apache.spark.streaming.JavaTimeSuite, 0, 0, 0, 0, 0, 0, 0, 0, 0, 0, 0, 0, 0, 0,0.0,0.0,0.0,0.0,0.0,0.0,0.0,0.0,0.0,0.0,0.0,0.0,0.0,30,streaming\src\test\java\org\apache\spark\streaming\JavaTimeSuite.java,0,0,0,0
org.apache.spark.streaming.LocalJavaStreamingContext, 0, 0, 0, 0, 0, 0, 0, 0, 0, 0, 0, 0, 0, 0,0.0,0.0,0.0,0.14285714285714285,0.0,0.0,0.0,0.0,0.0,0.0,0.0,0.0,0.0,17,external\flume\src\test\java\org\apache\spark\streaming\LocalJavaStreamingContext.java,0,0,0,0
org.apache.spark.streaming.flume.JavaFlumePollingStreamSuite, 0, 0, 0, 0, 0, 0, 0, 0, 0, 0, 0, 0, 0, 0,0.0,0.0,0.0,0.0,0.0,0.0,0.0,0.0,0.0,0.0,0.0,0.0,0.0,16,external\flume\src\test\java\org\apache\spark\streaming\flume\JavaFlumePollingStreamSuite.java,0,0,0,0
org.apache.spark.streaming.flume.JavaFlumeStreamSuite, 0, 0, 0, 0, 0, 0, 0, 0, 0, 0, 0, 0, 0, 0,0.0,0.0,0.0,0.0,0.0,0.0,0.0,0.0,0.0,0.0,0.0,0.0,0.0,10,external\flume\src\test\java\org\apache\spark\streaming\flume\JavaFlumeStreamSuite.java,0,0,0,0
org.apache.spark.streaming.kinesis.JavaKinesisStreamSuite, 0, 0, 0, 0, 0, 0, 0, 0, 0, 0, 0, 0, 0, 0,0.0,0.0,0.0,0.0,0.0,0.0,0.0,0.0,0.0,0.0,0.0,0.0,0.0,9,extras\kinesis-asl\src\test\java\org\apache\spark\streaming\kinesis\JavaKinesisStreamSuite.java,0,0,0,0
org.apache.spark.streaming.mqtt.JavaMQTTStreamSuite, 0, 0, 0, 0, 0, 0, 0, 0, 0, 0, 0, 0, 0, 0,0.0,0.0,0.0,0.0,0.0,0.0,0.0,0.0,0.0,0.0,0.0,0.0,0.0,10,external\mqtt\src\test\java\org\apache\spark\streaming\mqtt\JavaMQTTStreamSuite.java,0,0,0,0
org.apache.spark.streaming.twitter.JavaTwitterStreamSuite, 0, 0, 0, 0, 0, 0, 0, 0, 0, 0, 0, 0, 0, 0,0.0,0.0,0.0,0.0,0.0,0.0,0.0,0.0,0.0,0.0,0.0,0.0,0.0,15,external\twitter\src\test\java\org\apache\spark\streaming\twitter\JavaTwitterStreamSuite.java,0,0,0,0
org.apache.spark.streaming.zeromq.JavaZeroMQStreamSuite, 0, 0, 0, 0, 0, 0, 0, 0, 0, 0, 0, 0, 0, 0,0.0,0.0,0.0,0.0,0.0,0.0,0.0,0.0,0.0,0.0,0.0,0.0,0.0,20,external\zeromq\src\test\java\org\apache\spark\streaming\zeromq\JavaZeroMQStreamSuite.java,0,0,0,0
org.apache.spark.util.collection.TestTimSort, 0, 0, 0, 0, 0, 0, 0, 0, 0, 0, 0, 0, 0, 0,0.0,0.0,0.0,0.0,0.0,0.0,0.0,0.0,0.0,0.0,0.0,0.0,0.0,59,core\src\test\java\org\apache\spark\util\collection\TestTimSort.java,0,0,0,0
test.org.apache.spark.JavaTaskCompletionListenerImpl, 0, 0, 0, 0, 0, 0, 0, 0, 0, 0, 0, 0, 0, 0,0.0,0.0,0.0,0.0,0.0,0.0,0.0,0.0,0.0,0.0,0.0,0.0,0.0,11,core\src\test\java\test\org\apache\spark\JavaTaskCompletionListenerImpl.java,0,0,0,0
test.org.apache.spark.JavaTaskContextCompileCheck, 0, 0, 0, 0, 0, 0, 0, 0, 0, 0, 0, 0, 0, 0,0.0,0.0,0.0,0.0,0.0,0.0,0.0,0.0,0.0,0.0,0.0,0.0,0.0,13,core\src\test\java\test\org\apache\spark\JavaTaskContextCompileCheck.java,0,0,0,0
test.org.apache.spark.sql.JavaApplySchemaSuite, 0, 0, 0, 0, 0, 0, 0, 0, 0, 0, 0, 0, 0, 0,0.0,0.0,0.0,0.5,0.0,0.0,0.0,0.0,0.0,0.0,0.0,0.0,0.0,142,sql\core\src\test\java\test\org\apache\spark\sql\JavaApplySchemaSuite.java,0,0,0,0
test.org.apache.spark.sql.JavaDataFrameSuite, 0, 0, 0, 0, 0, 0, 0, 0, 0, 0, 0, 0, 0, 0,0.0,0.0,0.0,0.0,0.0,0.0,0.0,0.0,0.0,0.0,0.0,0.0,0.0,46,sql\core\src\test\java\test\org\apache\spark\sql\JavaDataFrameSuite.java,0,0,0,0
test.org.apache.spark.sql.JavaUDFSuite, 0, 0, 0, 0, 0, 0, 0, 0, 0, 0, 0, 0, 0, 0,0.0,0.0,0.0,0.0,0.0,0.0,0.0,0.0,0.0,0.0,0.0,0.0,0.0,36,sql\core\src\test\java\test\org\apache\spark\sql\JavaUDFSuite.java,0,0,0,0
,0.0,0.0,0.0,0.0,0.0,0.0,0.0,0.0,0.0,0.0,0.0,0.0,0.0,36,bagel\src\main\scala\org\apache\spark\bagel\package-info.java,0,0,0,0
