ClassName,AntiSingleton,Blob,ClassDataShouldBePrivate,ComplexClass,LargeClass,LazyClass,LongMethod,LongParameterList,MessageChains,RefusedParentBequest,SpaghettiCode,SpeculativeGenerality,SwissArmyKnife,NumOfAPs,AntiSingleton,Blob,ClassDataShouldBePrivate,ComplexClass,LargeClass,LazyClass,LongMethod,LongParameterList,MessageChains,RefusedParentBequest,SpaghettiCode,SpeculativeGenerality,SwissArmyKnife,LOC,name,deleted,added,changed,all
data.chunk.Chunklink2OpenNLP, 0, 0, 0, 0, 0, 0, 0, 0, 0, 0, 0, 0, 0, 0,0.0,0.0,0.0,0.0,0.0,0.0,0.0,0.0,0.0,0.0,0.0,0.0,0.0,23,ctakes-chunker\scripts\java\data\chunk\Chunklink2OpenNLP.java,0,0,0,0
data.chunk.genia.Genia2PTB, 0, 0, 0, 0, 0, 0, 0, 0, 0, 0, 0, 0, 0, 0,0.0,0.0,0.0,0.0,0.0,0.0,0.0,0.0,0.0,0.0,0.0,0.0,0.0,34,ctakes-chunker\scripts\java\data\chunk\genia\Genia2PTB.java,0,0,0,0
data.pos.training.GeniaPosTrainingDataExtractorTests, 0, 0, 0, 0, 0, 0, 0, 0, 0, 0, 0, 0, 0, 0,0.0,0.0,0.0,0.0,0.0,0.0,0.0,0.0,0.0,0.0,0.0,0.0,0.0,64,ctakes-pos-tagger\scripts\java\data\pos\training\GeniaPosTrainingDataExtractorTests.java,0,0,0,0
org.apache.ctakes.assertion.attributes.GenericAttributeAnalysisEngine, 0, 0, 1, 0, 0, 0, 0, 0, 0, 0, 0, 0, 0, 1,0.0,0.0,0.0,0.0,0.0,0.0,0.0,0.0,0.0,0.0,0.0,0.0,0.0,14,ctakes-assertion\src\main\java\org\apache\ctakes\assertion\attributes\GenericAttributeAnalysisEngine.java,0,0,0,0
org.apache.ctakes.assertion.attributes.SubjectAttributeAnalysisEngine, 0, 0, 1, 0, 0, 0, 0, 0, 0, 0, 0, 0, 0, 1,0.0,0.0,0.0,0.0,0.0,0.0,0.0,0.0,0.0,0.0,0.0,0.0,0.0,14,ctakes-assertion\src\main\java\org\apache\ctakes\assertion\attributes\SubjectAttributeAnalysisEngine.java,0,0,0,0
org.apache.ctakes.assertion.attributes.features.selection.FeatureSelection, 0, 0, 0, 0, 0, 0, 0, 0, 0, 0, 0, 0, 0, 0,0.0,0.0,0.0,0.0,0.0,0.0,0.0,0.0,0.0,0.0,0.0,0.0,0.0,39,ctakes-assertion\src\main\java\org\apache\ctakes\assertion\attributes\features\selection\FeatureSelection.java,0,0,0,0
org.apache.ctakes.assertion.cr.ArgumentInfo, 0, 0, 1, 0, 0, 0, 0, 0, 0, 0, 0, 0, 0, 1,0.0,0.0,0.0,0.0,0.0,0.0,0.0,0.0,0.0,0.0,0.0,0.0,0.0,8,ctakes-assertion\src\main\java\org\apache\ctakes\assertion\cr\ArgumentInfo.java,0,0,0,0
org.apache.ctakes.assertion.cr.NegExCorpusReader, 1, 0, 0, 0, 0, 0, 0, 0, 0, 0, 0, 0, 0, 1,0.0,0.0,0.0,0.0,0.0,0.0,0.0,0.0,0.0,0.0,0.0,0.0,0.0,123,ctakes-assertion\src\main\java\org\apache\ctakes\assertion\cr\NegExCorpusReader.java,0,0,0,0
org.apache.ctakes.assertion.cr.RelationInfo, 0, 0, 1, 0, 0, 0, 0, 1, 0, 0, 0, 0, 0, 2,0.0,0.0,0.0,0.0,0.0,0.0,0.0,0.0,0.0,0.0,0.0,0.0,0.0,45,ctakes-assertion\src\main\java\org\apache\ctakes\assertion\cr\RelationInfo.java,0,0,0,0
org.apache.ctakes.assertion.cr.Span, 0, 0, 1, 0, 0, 0, 0, 0, 0, 0, 0, 0, 0, 1,0.0,0.0,0.0,0.0,0.0,0.0,0.0,0.0,0.0,0.0,0.0,0.0,0.0,19,ctakes-assertion\src\main\java\org\apache\ctakes\assertion\cr\Span.java,0,0,0,0
org.apache.ctakes.assertion.cr.XmiCollectionReaderCtakes, 0, 0, 0, 0, 0, 0, 0, 0, 0, 0, 0, 0, 0, 0,0.0,0.0,0.0,0.0,0.0,0.0,0.0,0.0,0.0,0.0,0.0,0.0,0.0,45,ctakes-assertion\src\main\java\org\apache\ctakes\assertion\cr\XmiCollectionReaderCtakes.java,0,0,0,0
org.apache.ctakes.assertion.eval.MergeGoldViewFromOneCasIntoInitialViewOfAnotherCas, 0, 0, 0, 0, 0, 0, 0, 0, 0, 0, 0, 0, 0, 0,0.0,0.0,0.0,0.0,0.0,0.0,0.0,0.0,0.0,0.0,0.0,0.0,0.0,156,ctakes-assertion\src\main\java\org\apache\ctakes\assertion\eval\MergeGoldViewFromOneCasIntoInitialViewOfAnotherCas.java,0,0,2,4
org.apache.ctakes.assertion.eval.TestFeatureSelection, 0, 0, 0, 0, 0, 0, 0, 0, 0, 0, 0, 0, 0, 0,0.0,0.0,0.0,0.0,0.0,0.0,0.0,0.0,0.0,0.0,0.0,0.0,0.0,7,ctakes-assertion\src\main\java\org\apache\ctakes\assertion\eval\TestFeatureSelection.java,12,0,0,12
org.apache.ctakes.assertion.eval.XMIReader, 0, 0, 0, 0, 0, 0, 0, 0, 0, 0, 0, 0, 0, 0,0.0,0.0,0.0,0.0,0.0,0.0,0.0,0.0,0.0,0.0,0.0,0.0,0.0,35,ctakes-assertion\src\main\java\org\apache\ctakes\assertion\eval\XMIReader.java,3,0,1,5
org.apache.ctakes.assertion.medfacts.ConceptLookup, 1, 0, 0, 0, 0, 0, 0, 0, 0, 0, 0, 0, 0, 1,0.0,0.0,0.0,0.0,0.0,0.0,0.0,0.0,0.0,0.0,0.0,0.0,0.0,135,ctakes-assertion\src\main\java\org\apache\ctakes\assertion\medfacts\ConceptLookup.java,0,0,0,0
org.apache.ctakes.assertion.medfacts.ConvertXMIAssertionsToi2b2Format, 0, 0, 0, 0, 0, 0, 0, 0, 0, 0, 0, 0, 0, 0,0.0,0.0,0.0,0.0,0.0,0.0,0.0,0.0,0.0,0.0,0.0,0.0,0.0,49,ctakes-assertion\src\main\java\org\apache\ctakes\assertion\medfacts\ConvertXMIAssertionsToi2b2Format.java,0,0,0,0
org.apache.ctakes.assertion.medfacts.Converti2b2AnnotationsToCTAKES, 0, 0, 0, 0, 0, 0, 0, 0, 0, 0, 0, 0, 0, 0,1.0,0.0,0.0,0.0,0.0,0.0,0.0,0.0,0.0,0.0,0.0,0.0,0.0,128,ctakes-assertion\src\main\java\org\apache\ctakes\assertion\medfacts\Converti2b2AnnotationsToCTAKES.java,0,0,0,0
org.apache.ctakes.assertion.medfacts.cleartk.AssertionComponents, 1, 0, 1, 0, 0, 0, 0, 0, 0, 0, 0, 0, 0, 2,0.0,0.0,0.0,0.0,0.0,0.0,0.0,0.0,0.0,0.0,0.0,0.0,0.0,6,ctakes-assertion\src\main\java\org\apache\ctakes\assertion\medfacts\cleartk\AssertionComponents.java,0,0,0,0
org.apache.ctakes.assertion.medfacts.cleartk.AssertionSampleFeatureGenerator, 0, 0, 0, 0, 0, 0, 0, 0, 0, 0, 0, 0, 0, 0,0.0,0.0,0.0,0.0,0.0,0.0,0.0,0.0,0.0,0.0,0.0,0.0,0.0,22,ctakes-assertion\src\main\java\org\apache\ctakes\assertion\medfacts\cleartk\AssertionSampleFeatureGenerator.java,0,0,0,0
org.apache.ctakes.assertion.medfacts.cleartk.ConditionalCleartkAnalysisEngine, 0, 0, 0, 0, 0, 0, 0, 0, 0, 0, 0, 0, 0, 0,0.0,0.0,0.0,0.0,0.0,0.0,0.0,0.0,0.0,0.0,0.0,0.0,0.0,52,ctakes-assertion\src\main\java\org\apache\ctakes\assertion\medfacts\cleartk\ConditionalCleartkAnalysisEngine.java,0,0,0,0
org.apache.ctakes.assertion.medfacts.cleartk.CreateAssertionDescriptor, 0, 0, 0, 0, 0, 0, 0, 0, 0, 0, 0, 0, 0, 0,0.0,0.0,0.0,0.0,0.0,0.0,0.0,0.0,0.0,0.0,0.0,0.0,0.0,139,ctakes-assertion\src\main\java\org\apache\ctakes\assertion\medfacts\cleartk\CreateAssertionDescriptor.java,0,0,0,0
org.apache.ctakes.assertion.medfacts.cleartk.GenericCleartkAnalysisEngine, 0, 0, 0, 0, 0, 0, 0, 0, 0, 0, 0, 0, 0, 0,0.0,0.0,0.0,0.0,0.0,0.0,0.0,0.0,0.0,0.0,0.0,0.0,0.0,57,ctakes-assertion\src\main\java\org\apache\ctakes\assertion\medfacts\cleartk\GenericCleartkAnalysisEngine.java,0,0,0,0
org.apache.ctakes.assertion.medfacts.cleartk.HistoryCleartkAnalysisEngine, 0, 0, 0, 0, 0, 0, 0, 0, 0, 0, 0, 0, 0, 0,0.0,0.0,0.0,0.0,0.0,0.0,0.0,0.0,0.0,0.0,0.0,0.0,0.0,57,ctakes-assertion\src\main\java\org\apache\ctakes\assertion\medfacts\cleartk\HistoryCleartkAnalysisEngine.java,0,0,0,0
org.apache.ctakes.assertion.medfacts.cleartk.PolarityCleartkAnalysisEngine, 0, 0, 0, 0, 0, 0, 0, 0, 0, 0, 0, 0, 0, 0,0.0,0.0,0.0,0.0,0.0,0.0,0.0,0.0,0.0,0.0,0.0,0.0,0.0,85,ctakes-assertion\src\main\java\org\apache\ctakes\assertion\medfacts\cleartk\PolarityCleartkAnalysisEngine.java,0,0,0,0
org.apache.ctakes.assertion.medfacts.cleartk.PolarityFedaCleartkAnalysisEngine, 0, 0, 0, 0, 0, 0, 0, 0, 0, 0, 0, 0, 0, 0,0.0,0.0,0.0,0.0,0.0,0.0,0.0,0.0,0.0,0.0,0.0,0.0,0.0,68,ctakes-assertion\src\main\java\org\apache\ctakes\assertion\medfacts\cleartk\PolarityFedaCleartkAnalysisEngine.java,0,0,0,0
org.apache.ctakes.assertion.medfacts.cleartk.SubjectCleartkAnalysisEngine, 0, 0, 0, 0, 0, 0, 0, 0, 0, 0, 0, 0, 0, 0,0.0,0.0,0.0,0.0,0.0,0.0,0.0,0.0,0.0,0.0,0.0,0.0,0.0,63,ctakes-assertion\src\main\java\org\apache\ctakes\assertion\medfacts\cleartk\SubjectCleartkAnalysisEngine.java,0,0,0,0
org.apache.ctakes.assertion.medfacts.cleartk.TrainAssertionModel, 0, 0, 0, 0, 0, 0, 0, 1, 0, 0, 0, 0, 0, 1,0.0,0.0,0.0,0.0,0.0,0.0,0.0,0.0,0.0,0.0,0.0,0.0,0.0,218,ctakes-assertion\src\main\java\org\apache\ctakes\assertion\medfacts\cleartk\TrainAssertionModel.java,0,0,0,0
org.apache.ctakes.assertion.medfacts.cleartk.UncertaintyCleartkAnalysisEngine, 0, 0, 0, 0, 0, 0, 0, 0, 0, 0, 0, 0, 0, 0,0.0,0.0,0.0,0.0,0.0,0.0,0.0,0.0,0.0,0.0,0.0,0.0,0.0,73,ctakes-assertion\src\main\java\org\apache\ctakes\assertion\medfacts\cleartk\UncertaintyCleartkAnalysisEngine.java,0,0,0,0
org.apache.ctakes.assertion.medfacts.cleartk.extractors.AboveLeftFragmentExtractor, 0, 0, 0, 0, 0, 0, 0, 0, 0, 0, 0, 0, 0, 0,0.0,0.0,0.0,0.0,0.0,0.0,0.0,0.0,0.0,0.0,0.0,0.0,0.0,17,ctakes-assertion\src\main\java\org\apache\ctakes\assertion\medfacts\cleartk\extractors\AboveLeftFragmentExtractor.java,0,0,0,0
org.apache.ctakes.assertion.medfacts.cleartk.extractors.AboveRightFragmentExtractor, 0, 0, 0, 0, 0, 0, 0, 0, 0, 0, 0, 0, 0, 0,0.0,0.0,0.0,0.0,0.0,0.0,0.0,0.0,0.0,0.0,0.0,0.0,0.0,17,ctakes-assertion\src\main\java\org\apache\ctakes\assertion\medfacts\cleartk\extractors\AboveRightFragmentExtractor.java,0,0,0,0
org.apache.ctakes.assertion.medfacts.cleartk.extractors.AssertionAboveLeftTreeExtractor, 0, 0, 0, 0, 0, 0, 0, 0, 0, 0, 0, 0, 0, 0,0.0,0.0,0.0,0.0,0.0,0.0,0.0,0.0,0.0,0.0,0.0,0.0,0.0,18,ctakes-assertion\src\main\java\org\apache\ctakes\assertion\medfacts\cleartk\extractors\AssertionAboveLeftTreeExtractor.java,0,0,0,0
org.apache.ctakes.assertion.medfacts.cleartk.extractors.AssertionDependencyTreeExtractor, 0, 0, 0, 0, 0, 0, 0, 0, 0, 0, 0, 0, 0, 0,0.0,0.0,0.0,0.0,0.0,0.0,0.0,0.0,0.0,0.0,0.0,0.0,0.0,34,ctakes-assertion\src\main\java\org\apache\ctakes\assertion\medfacts\cleartk\extractors\AssertionDependencyTreeExtractor.java,0,0,0,0
org.apache.ctakes.assertion.medfacts.cleartk.extractors.DependencyWordsFragmentExtractor, 0, 0, 0, 0, 0, 0, 0, 0, 0, 0, 0, 0, 0, 0,0.0,0.0,0.0,0.0,0.0,0.0,0.0,0.0,0.0,0.0,0.0,0.0,0.0,25,ctakes-assertion\src\main\java\org\apache\ctakes\assertion\medfacts\cleartk\extractors\DependencyWordsFragmentExtractor.java,0,0,0,0
org.apache.ctakes.assertion.medfacts.cleartk.extractors.ExtractorListFeatureFunctionConverter, 0, 0, 0, 0, 0, 0, 0, 0, 0, 0, 0, 0, 0, 0,0.0,0.0,0.0,0.0,0.0,0.0,0.0,0.0,0.0,0.0,0.0,0.0,0.0,13,ctakes-assertion\src\main\java\org\apache\ctakes\assertion\medfacts\cleartk\extractors\ExtractorListFeatureFunctionConverter.java,0,0,0,0
org.apache.ctakes.assertion.medfacts.cleartk.extractors.FedaFeatureFunction, 0, 0, 0, 0, 0, 0, 0, 0, 0, 0, 0, 0, 0, 0,0.0,0.0,0.0,0.0,0.0,0.0,0.0,0.0,0.0,0.0,0.0,0.0,0.0,25,ctakes-assertion\src\main\java\org\apache\ctakes\assertion\medfacts\cleartk\extractors\FedaFeatureFunction.java,0,0,0,0
org.apache.ctakes.assertion.medfacts.cleartk.extractors.NegationDependencyFeatureExtractor, 0, 0, 0, 0, 0, 0, 0, 0, 0, 0, 0, 0, 0, 0,0.0,0.0,0.0,0.0,0.0,0.0,0.0,0.0,0.0,0.0,0.0,0.0,0.0,33,ctakes-assertion\src\main\java\org\apache\ctakes\assertion\medfacts\cleartk\extractors\NegationDependencyFeatureExtractor.java,0,0,0,0
org.apache.ctakes.assertion.medfacts.cleartk.extractors.SRLFeatureExtractor, 0, 0, 0, 0, 0, 0, 0, 0, 0, 0, 0, 0, 0, 0,0.0,0.0,0.0,0.0,0.0,0.0,0.0,0.0,0.0,0.0,0.0,0.0,0.0,65,ctakes-assertion\src\main\java\org\apache\ctakes\assertion\medfacts\cleartk\extractors\SRLFeatureExtractor.java,0,0,0,0
org.apache.ctakes.assertion.medfacts.cleartk.extractors.TreeFragmentFeatureExtractor, 0, 0, 0, 0, 0, 0, 0, 0, 0, 0, 0, 0, 0, 0,0.0,0.0,0.0,0.0,0.0,0.0,0.0,0.0,0.0,0.0,0.0,0.0,0.0,32,ctakes-assertion\src\main\java\org\apache\ctakes\assertion\medfacts\cleartk\extractors\TreeFragmentFeatureExtractor.java,0,0,0,0
org.apache.ctakes.assertion.medfacts.cleartk.extractors.UncertaintyFeatureExtractor, 0, 0, 0, 0, 0, 0, 0, 0, 0, 0, 0, 0, 0, 0,0.0,0.0,0.0,0.0,0.0,0.0,0.0,0.0,0.0,0.0,0.0,0.0,0.0,10,ctakes-assertion\src\main\java\org\apache\ctakes\assertion\medfacts\cleartk\extractors\UncertaintyFeatureExtractor.java,0,0,0,0
org.apache.ctakes.assertion.medfacts.i2b2.api.ConstraintConstructor, 0, 0, 0, 0, 0, 0, 0, 1, 0, 0, 0, 0, 0, 1,0.0,0.0,0.0,0.0,0.0,0.0,0.0,1.0,0.0,0.0,0.0,0.0,0.0,45,ctakes-assertion\src\main\java\org\apache\ctakes\assertion\medfacts\i2b2\api\ConstraintConstructor.java,0,0,0,0
org.apache.ctakes.assertion.medfacts.i2b2.api.ConstraintConstructorFindContainedBy, 0, 0, 0, 0, 0, 0, 0, 1, 0, 0, 0, 0, 0, 1,0.0,0.0,0.0,0.0,0.0,0.0,0.0,1.0,0.0,0.0,0.0,0.0,0.0,30,ctakes-assertion\src\main\java\org\apache\ctakes\assertion\medfacts\i2b2\api\ConstraintConstructorFindContainedBy.java,0,0,0,0
org.apache.ctakes.assertion.medfacts.i2b2.api.ConstraintConstructorFindContainedWithin, 0, 0, 0, 0, 0, 0, 0, 1, 0, 0, 0, 0, 0, 1,0.0,0.0,0.0,0.0,0.0,0.0,0.0,1.0,0.0,0.0,0.0,0.0,0.0,30,ctakes-assertion\src\main\java\org\apache\ctakes\assertion\medfacts\i2b2\api\ConstraintConstructorFindContainedWithin.java,0,0,0,0
org.apache.ctakes.assertion.medfacts.i2b2.api.SingleDocumentProcessorCtakes, 0, 0, 0, 0, 0, 0, 0, 0, 0, 0, 0, 0, 0, 0,0.0,0.0,0.0,0.0,0.0,0.0,0.0,0.0,0.0,0.0,0.0,0.0,0.0,88,ctakes-assertion\src\main\java\org\apache\ctakes\assertion\medfacts\i2b2\api\SingleDocumentProcessorCtakes.java,0,0,0,0
org.apache.ctakes.assertion.pipelines.GenerateDependencyRepresentation, 1, 0, 0, 0, 0, 0, 0, 0, 0, 0, 0, 0, 0, 1,0.0,0.0,0.0,0.0,0.0,0.0,0.0,0.0,0.0,0.0,0.0,0.0,0.0,73,ctakes-assertion\src\main\java\org\apache\ctakes\assertion\pipelines\GenerateDependencyRepresentation.java,0,0,0,0
org.apache.ctakes.assertion.pipelines.GoldEntityAndAttributeReaderPipeline, 0, 0, 0, 0, 0, 0, 0, 0, 0, 0, 0, 0, 0, 0,0.0,0.0,0.0,0.0,0.0,0.0,0.0,0.0,0.0,0.0,0.0,0.0,0.0,26,ctakes-assertion\src\main\java\org\apache\ctakes\assertion\pipelines\GoldEntityAndAttributeReaderPipeline.java,0,0,0,0
org.apache.ctakes.assertion.pipelines.RunJudgeAttributeInstances, 1, 0, 1, 0, 0, 0, 0, 0, 0, 0, 0, 0, 0, 2,0.0,0.0,0.0,0.0,0.0,0.0,0.0,0.0,0.0,0.0,0.0,0.0,0.0,50,ctakes-assertion\src\main\java\org\apache\ctakes\assertion\pipelines\RunJudgeAttributeInstances.java,0,0,0,0
org.apache.ctakes.assertion.train.PolarityCotrainingTests, 0, 0, 0, 0, 0, 0, 0, 0, 0, 0, 0, 0, 0, 0,0.0,0.0,0.0,0.0,0.0,0.0,0.0,0.0,0.0,0.0,0.0,0.0,0.0,82,ctakes-assertion\src\main\java\org\apache\ctakes\assertion\train\PolarityCotrainingTests.java,0,0,0,0
org.apache.ctakes.assertion.train.PolarityDomainAdaptationTests, 0, 0, 0, 0, 0, 0, 0, 0, 0, 0, 0, 0, 0, 0,0.0,0.0,0.0,0.0,0.0,0.0,0.0,0.0,0.0,0.0,0.0,0.0,0.0,86,ctakes-assertion\src\main\java\org\apache\ctakes\assertion\train\PolarityDomainAdaptationTests.java,0,0,0,0
org.apache.ctakes.assertion.util.NegationDepRegex, 0, 0, 1, 1, 0, 0, 0, 0, 0, 0, 0, 0, 0, 2,0.0,0.0,0.0,0.0,0.0,0.0,0.0,0.0,0.0,0.0,0.0,0.0,0.0,305,ctakes-assertion\src\main\java\org\apache\ctakes\assertion\util\NegationDepRegex.java,0,0,0,0
org.apache.ctakes.assertion.util.NegationManualDepContextAnalyzer, 0, 0, 0, 0, 0, 0, 0, 0, 0, 0, 0, 0, 0, 0,0.0,0.0,0.5,0.5,0.0,0.0,0.0,0.0,0.0,0.0,0.0,0.0,0.0,38,ctakes-assertion\src\main\java\org\apache\ctakes\assertion\util\NegationManualDepContextAnalyzer.java,0,0,0,0
org.apache.ctakes.chunker.ChunkAdjusterTests, 0, 0, 0, 0, 0, 0, 0, 0, 0, 0, 0, 0, 0, 0,0.0,0.0,0.0,0.0,0.0,0.0,0.0,0.0,0.0,0.0,0.0,0.0,0.0,8,ctakes-chunker\src\test\java\org\apache\ctakes\chunker\ChunkAdjusterTests.java,0,0,0,0
org.apache.ctakes.chunker.ChunkerTests, 0, 0, 0, 0, 0, 0, 0, 0, 0, 0, 0, 0, 0, 0,0.0,0.0,0.0,0.0,0.0,0.0,0.0,0.0,0.0,0.0,0.0,0.0,0.0,8,ctakes-chunker\src\test\java\org\apache\ctakes\chunker\ChunkerTests.java,0,0,0,0
org.apache.ctakes.chunker.ae.ChunkCreator, 0, 0, 0, 0, 0, 0, 0, 0, 0, 0, 0, 0, 0, 0,0.0,0.0,0.0,0.0,0.0,0.0,0.0,0.0,0.0,0.0,0.0,0.0,0.0,8,ctakes-chunker\src\main\java\org\apache\ctakes\chunker\ae\ChunkCreator.java,0,0,0,0
org.apache.ctakes.chunker.ae.Chunker, 0, 0, 0, 0, 0, 0, 0, 0, 0, 0, 0, 0, 0, 0,0.0,0.0,0.0,0.0,0.0,0.0,0.0,0.0,0.0,0.0,0.0,0.0,0.0,86,ctakes-chunker\src\main\java\org\apache\ctakes\chunker\ae\Chunker.java,0,0,0,0
org.apache.ctakes.chunker.ae.DefaultChunkCreator, 0, 0, 0, 0, 0, 0, 0, 0, 0, 0, 0, 0, 0, 0,0.0,0.0,0.0,0.0,0.0,0.0,0.0,0.0,0.0,0.0,0.0,0.0,0.0,10,ctakes-chunker\src\main\java\org\apache\ctakes\chunker\ae\DefaultChunkCreator.java,0,0,0,0
org.apache.ctakes.chunker.ae.PhraseTypeChunkCreator, 0, 0, 0, 0, 0, 0, 0, 0, 0, 0, 0, 0, 0, 0,0.0,0.0,0.0,0.0,0.0,0.0,0.0,0.0,0.0,0.0,0.0,0.0,0.0,37,ctakes-chunker\src\main\java\org\apache\ctakes\chunker\ae\PhraseTypeChunkCreator.java,0,0,0,0
org.apache.ctakes.chunker.ae.adjuster.ChunkAdjuster, 0, 0, 0, 0, 0, 0, 0, 0, 0, 0, 0, 0, 0, 0,0.0,0.0,0.0,0.0,0.0,0.0,0.0,0.0,0.0,0.0,0.0,0.0,0.0,115,ctakes-chunker\src\main\java\org\apache\ctakes\chunker\ae\adjuster\ChunkAdjuster.java,0,0,0,0
org.apache.ctakes.clinicalpipeline.ClinicalPipelineFactory, 0, 0, 0, 0, 0, 0, 0, 0, 0, 0, 0, 0, 0, 0,0.041666666666666664,0.0,0.041666666666666664,0.041666666666666664,0.0,0.0,0.0,0.0,0.0,0.0,0.0,0.0,0.0,112,ctakes-clinical-pipeline\src\main\java\org\apache\ctakes\clinicalpipeline\ClinicalPipelineFactory.java,35,83,4,126
org.apache.ctakes.clinicalpipeline.ClinicalPipelineWithUmls, 0, 0, 1, 0, 0, 0, 0, 0, 0, 0, 0, 0, 0, 1,0.0,0.0,0.0,0.0,0.0,0.0,0.0,0.0,0.0,0.0,0.0,0.0,0.0,15,ctakes-clinical-pipeline\src\main\java\org\apache\ctakes\clinicalpipeline\ClinicalPipelineWithUmls.java,0,0,0,0
org.apache.ctakes.constituency.parser.MaxentParserWrapper, 0, 0, 0, 0, 0, 0, 0, 0, 0, 0, 0, 0, 0, 0,0.0,0.0,0.0,0.0,0.0,0.0,0.0,0.0,0.0,0.0,0.0,0.0,0.0,43,ctakes-constituency-parser\src\main\java\org\apache\ctakes\constituency\parser\MaxentParserWrapper.java,0,0,0,0
org.apache.ctakes.constituency.parser.ParserWrapper, 0, 0, 0, 0, 0, 0, 0, 0, 0, 0, 0, 0, 0, 0,0.0,0.0,0.0,0.0,0.0,0.0,0.0,0.0,0.0,0.0,0.0,0.0,0.0,43,ctakes-constituency-parser\src\main\java\org\apache\ctakes\constituency\parser\ParserWrapper.java,0,0,0,0
org.apache.ctakes.constituency.parser.ae.ConstituencyParser, 0, 0, 0, 0, 0, 0, 0, 0, 0, 0, 0, 0, 0, 0,0.0,0.0,0.0,0.0,0.0,0.0,0.0,0.0,0.0,0.0,0.0,0.0,0.0,40,ctakes-constituency-parser\src\main\java\org\apache\ctakes\constituency\parser\ae\ConstituencyParser.java,0,0,0,0
org.apache.ctakes.constituency.parser.uima.co.ParserTreeWriterConsumer, 0, 0, 0, 0, 0, 0, 0, 0, 0, 0, 0, 0, 0, 0,0.0,0.0,0.0,0.0,0.0,0.0,0.0,0.0,0.0,0.0,0.0,0.0,0.0,36,ctakes-constituency-parser\src\main\java\org\apache\ctakes\constituency\parser\uima\co\ParserTreeWriterConsumer.java,0,0,0,0
org.apache.ctakes.constituency.parser.util.AnnotationTreeUtils, 0, 0, 0, 0, 0, 0, 0, 0, 0, 0, 0, 0, 0, 0,0.08333333333333333,0.0,0.0,0.0,0.0,0.0,0.0,0.0,0.0,0.0,0.0,0.0,0.0,230,ctakes-constituency-parser\src\main\java\org\apache\ctakes\constituency\parser\util\AnnotationTreeUtils.java,0,0,0,0
org.apache.ctakes.constituency.parser.util.CommandLineParserUtil, 0, 0, 0, 0, 0, 0, 0, 0, 0, 0, 0, 0, 0, 0,0.0,0.0,0.0,0.0,0.0,0.0,0.0,0.0,0.0,0.0,0.0,0.0,0.0,23,ctakes-constituency-parser\src\main\java\org\apache\ctakes\constituency\parser\util\CommandLineParserUtil.java,0,0,0,0
org.apache.ctakes.contexttokenizer.ae.ContextDependentTokenizerAnnotator, 0, 0, 0, 0, 0, 0, 0, 0, 0, 0, 0, 0, 0, 0,0.1,0.0,0.0,0.0,0.0,0.0,0.0,0.0,0.0,0.0,0.0,0.0,0.0,125,ctakes-context-tokenizer\src\main\java\org\apache\ctakes\contexttokenizer\ae\ContextDependentTokenizerAnnotator.java,0,0,0,0
org.apache.ctakes.core.ae.DocumentIdPrinterAnalysisEngine, 0, 0, 0, 0, 0, 0, 0, 0, 0, 0, 0, 0, 0, 0,0.0,0.0,0.0,0.0,0.0,0.0,0.0,0.0,0.0,0.0,0.0,0.0,0.0,12,ctakes-core\src\main\java\org\apache\ctakes\core\ae\DocumentIdPrinterAnalysisEngine.java,0,0,0,0
org.apache.ctakes.core.ae.FilterAnnotator, 0, 0, 0, 0, 0, 0, 0, 0, 0, 0, 0, 0, 0, 0,0.0,0.0,0.0,0.0,0.0,0.0,0.0,0.0,0.0,0.0,0.0,0.0,0.0,34,ctakes-core\src\main\java\org\apache\ctakes\core\ae\FilterAnnotator.java,0,0,0,0
org.apache.ctakes.core.ae.NullAnnotator, 0, 0, 0, 0, 0, 0, 0, 0, 0, 0, 0, 0, 0, 0,0.0,0.0,0.0,0.0,0.0,0.0,0.0,0.0,0.0,0.0,0.0,0.0,0.0,5,ctakes-core\src\main\java\org\apache\ctakes\core\ae\NullAnnotator.java,0,0,0,0
org.apache.ctakes.core.ae.OverlapAnnotator, 0, 0, 0, 1, 0, 0, 0, 0, 0, 0, 0, 0, 0, 1,0.0,0.0,0.0,0.0,0.0,0.0,0.0,0.0,0.0,0.0,0.0,0.0,0.0,303,ctakes-core\src\main\java\org\apache\ctakes\core\ae\OverlapAnnotator.java,0,0,0,0
org.apache.ctakes.core.ae.SentenceDetector, 0, 0, 0, 1, 0, 0, 0, 0, 0, 0, 0, 0, 0, 1,0.14285714285714285,0.0,0.14285714285714285,0.0,0.0,0.0,0.0,0.0,0.0,0.0,0.0,0.0,0.0,185,ctakes-core\src\main\java\org\apache\ctakes\core\ae\SentenceDetector.java,0,0,0,0
org.apache.ctakes.core.ae.SentenceDetectorAnnotatorTest, 0, 0, 0, 0, 0, 0, 0, 0, 0, 0, 0, 0, 0, 0,0.0,0.0,0.0,0.5,0.0,0.0,0.0,0.0,0.0,0.0,0.0,0.0,0.0,58,ctakes-core\src\test\java\org\apache\ctakes\core\ae\SentenceDetectorAnnotatorTest.java,0,0,0,0
org.apache.ctakes.core.ae.SimpleSegmentAnnotator, 0, 0, 0, 0, 0, 0, 0, 0, 0, 0, 0, 0, 0, 0,0.0,0.0,0.0,0.0,0.0,0.0,0.0,0.0,0.0,0.0,0.0,0.0,0.0,32,ctakes-core\src\main\java\org\apache\ctakes\core\ae\SimpleSegmentAnnotator.java,0,0,0,0
org.apache.ctakes.core.ae.SimpleSegmentAnnotatorTests, 0, 0, 0, 0, 0, 0, 0, 0, 0, 0, 0, 0, 0, 0,0.5,0.0,0.0,0.0,0.0,0.0,0.0,0.5,0.0,0.0,0.0,0.0,0.0,29,ctakes-core\src\test\java\org\apache\ctakes\core\ae\SimpleSegmentAnnotatorTests.java,0,0,0,0
org.apache.ctakes.core.ae.SimpleSegmentWithTagsAnnotator, 0, 0, 0, 0, 0, 0, 0, 0, 0, 0, 0, 0, 0, 0,0.0,0.0,0.0,0.0,0.0,0.0,0.0,0.0,0.0,0.0,0.0,0.0,0.0,73,ctakes-core\src\main\java\org\apache\ctakes\core\ae\SimpleSegmentWithTagsAnnotator.java,0,0,0,0
org.apache.ctakes.core.ae.TestCDASegmentAnnotator, 1, 0, 1, 0, 0, 0, 0, 0, 0, 0, 0, 0, 0, 2,0.0,0.0,0.0,0.0,0.0,0.0,0.0,0.0,0.0,0.0,0.0,0.0,0.0,45,ctakes-core\src\test\java\org\apache\ctakes\core\ae\TestCDASegmentAnnotator.java,0,0,0,0
org.apache.ctakes.core.ae.TokenConverter, 0, 0, 0, 0, 0, 0, 0, 0, 0, 0, 0, 0, 0, 0,0.0,0.0,0.0,1.0,0.0,0.0,0.0,0.0,0.0,0.0,0.0,0.0,0.0,162,ctakes-core\src\main\java\org\apache\ctakes\core\ae\TokenConverter.java,0,0,0,0
org.apache.ctakes.core.ae.TokenizerAnnotatorPTB, 1, 0, 0, 0, 0, 0, 0, 0, 0, 0, 0, 0, 0, 1,0.0,0.0,0.0,0.0,0.0,0.0,0.0,0.0,0.0,0.0,0.0,0.0,0.0,85,ctakes-core\src\main\java\org\apache\ctakes\core\ae\TokenizerAnnotatorPTB.java,0,0,0,0
org.apache.ctakes.core.ae.TokenizerAnnotatorPTBTests, 1, 0, 0, 1, 0, 0, 0, 0, 0, 0, 0, 0, 0, 2,1.0,0.0,0.0,0.0,0.0,0.0,0.0,1.0,0.0,0.0,0.0,0.0,0.0,398,ctakes-core\src\test\java\org\apache\ctakes\core\ae\TokenizerAnnotatorPTBTests.java,0,0,0,0
org.apache.ctakes.core.cc.CASConsumerTestDriver, 0, 0, 0, 0, 0, 0, 0, 0, 0, 0, 0, 0, 0, 0,0.0,0.0,0.0,0.0,0.0,0.0,0.0,0.0,0.0,0.0,0.0,0.0,0.0,31,ctakes-core\src\main\java\org\apache\ctakes\core\cc\CASConsumerTestDriver.java,0,0,0,0
org.apache.ctakes.core.cc.CasConsumer, 0, 0, 0, 0, 0, 0, 0, 0, 0, 0, 0, 0, 0, 0,0.0,0.0,0.0,0.0,0.0,0.0,0.0,0.0,0.0,0.0,0.0,0.0,0.0,41,ctakes-core\src\main\java\org\apache\ctakes\core\cc\CasConsumer.java,0,0,0,0
org.apache.ctakes.core.cc.FilesInDirectoryCasConsumer, 0, 0, 0, 0, 0, 0, 0, 0, 0, 0, 0, 0, 0, 0,0.0,0.0,0.0,0.0,0.0,0.0,0.0,0.0,0.0,0.0,0.0,0.0,0.0,48,ctakes-core\src\main\java\org\apache\ctakes\core\cc\FilesInDirectoryCasConsumer.java,0,0,0,0
org.apache.ctakes.core.cc.NonTerminalConsumer, 0, 0, 0, 0, 0, 0, 0, 0, 0, 0, 0, 0, 0, 0,0.0,0.0,0.0,0.0,0.0,0.0,0.0,0.0,0.0,0.0,0.0,0.0,0.0,48,ctakes-core\src\main\java\org\apache\ctakes\core\cc\NonTerminalConsumer.java,0,0,0,0
org.apache.ctakes.core.cc.TokenOffsetsCasConsumer, 0, 0, 0, 0, 0, 0, 0, 0, 0, 0, 0, 0, 0, 0,0.0,0.0,0.0,0.0,0.0,0.0,0.0,0.0,0.0,0.0,0.0,0.0,0.0,48,ctakes-core\src\main\java\org\apache\ctakes\core\cc\TokenOffsetsCasConsumer.java,0,0,0,0
org.apache.ctakes.core.ci.TextModification, 0, 0, 0, 0, 0, 0, 0, 1, 0, 0, 0, 0, 0, 1,0.0,0.0,0.0,0.0,0.0,0.0,0.0,0.0,0.0,0.0,0.0,0.0,0.0,36,ctakes-core\src\main\java\org\apache\ctakes\core\ci\TextModification.java,0,0,0,0
org.apache.ctakes.core.ci.TextModifier, 0, 0, 0, 0, 0, 0, 0, 0, 0, 0, 0, 0, 0, 0,0.0,0.0,0.0,0.0,0.0,0.0,0.0,0.0,0.0,0.0,0.0,0.0,0.0,36,ctakes-core\src\main\java\org\apache\ctakes\core\ci\TextModifier.java,0,0,0,0
org.apache.ctakes.core.cpe.CmdLineCpeRunner, 0, 0, 0, 0, 0, 0, 0, 0, 0, 0, 0, 0, 0, 0,0.0,0.0,0.0,0.0,0.0,0.0,0.0,0.0,0.0,0.0,0.0,0.0,0.0,99,ctakes-core\src\main\java\org\apache\ctakes\core\cpe\CmdLineCpeRunner.java,0,0,0,0
org.apache.ctakes.core.cr.FilesInDirectoryCollectionCyclicalReads, 0, 0, 0, 0, 0, 0, 0, 0, 0, 0, 0, 0, 0, 0,0.0,0.0,0.0,1.0,0.0,0.0,0.0,0.0,0.0,0.0,0.0,0.0,0.0,68,ctakes-core\src\main\java\org\apache\ctakes\core\cr\FilesInDirectoryCollectionCyclicalReads.java,0,0,0,0
org.apache.ctakes.core.cr.FilesInDirectoryCollectionReader, 0, 0, 0, 1, 0, 0, 0, 0, 0, 0, 0, 0, 0, 1,0.0,0.0,0.0,0.0,0.0,0.0,0.0,0.0,0.0,0.0,0.0,0.0,0.0,162,ctakes-core\src\main\java\org\apache\ctakes\core\cr\FilesInDirectoryCollectionReader.java,0,0,0,0
org.apache.ctakes.core.cr.LinesFromFileCollectionReader, 0, 0, 0, 0, 0, 0, 0, 0, 0, 0, 0, 0, 0, 0,0.0,0.0,0.0,0.0,0.0,0.0,0.0,0.0,0.0,0.0,0.0,0.0,0.0,116,ctakes-core\src\main\java\org\apache\ctakes\core\cr\LinesFromFileCollectionReader.java,0,0,0,0
org.apache.ctakes.core.cr.TextReader, 0, 0, 0, 0, 0, 0, 0, 0, 0, 0, 0, 0, 0, 0,0.0,0.0,0.0,0.0,0.0,0.0,0.0,0.0,0.0,0.0,0.0,0.0,0.0,56,ctakes-core\src\main\java\org\apache\ctakes\core\cr\TextReader.java,0,0,0,0
org.apache.ctakes.core.cr.XMIReader, 0, 0, 0, 0, 0, 0, 0, 0, 0, 0, 0, 0, 0, 0,0.0,0.0,0.0,0.0,0.0,0.0,0.0,0.0,0.0,0.0,0.0,0.0,0.0,34,ctakes-core\src\main\java\org\apache\ctakes\core\cr\XMIReader.java,0,0,0,0
org.apache.ctakes.core.cr.XmiCollectionReaderCtakes, 0, 0, 0, 0, 0, 0, 0, 0, 0, 0, 0, 0, 0, 0,0.0,0.0,0.0,0.0,0.0,0.0,0.0,0.0,0.0,0.0,0.0,0.0,0.0,45,ctakes-core\src\main\java\org\apache\ctakes\core\cr\XmiCollectionReaderCtakes.java,0,0,0,0
org.apache.ctakes.core.fsm.adapters.BaseTokenAdapter, 0, 0, 0, 0, 0, 0, 0, 0, 0, 0, 0, 0, 0, 0,0.0,0.0,0.0,0.0,0.0,0.0,0.0,0.0,0.0,0.0,0.0,0.0,0.0,16,ctakes-core\src\main\java\org\apache\ctakes\core\fsm\adapters\BaseTokenAdapter.java,0,0,0,0
org.apache.ctakes.core.fsm.adapters.CharacterTokenAdapter, 0, 0, 0, 0, 0, 0, 0, 0, 0, 0, 0, 0, 0, 0,0.0,0.0,0.0,0.0,0.0,0.0,0.0,0.0,0.0,0.0,0.0,0.0,0.0,14,ctakes-core\src\main\java\org\apache\ctakes\core\fsm\adapters\CharacterTokenAdapter.java,0,0,0,0
org.apache.ctakes.core.fsm.adapters.ContractionTokenAdapter, 0, 0, 0, 0, 0, 0, 0, 0, 0, 0, 0, 0, 0, 0,0.3333333333333333,0.0,0.3333333333333333,0.3333333333333333,0.0,0.0,0.0,0.3333333333333333,0.0,0.0,0.0,0.0,0.0,8,ctakes-core\src\main\java\org\apache\ctakes\core\fsm\adapters\ContractionTokenAdapter.java,0,0,0,0
org.apache.ctakes.core.fsm.adapters.DecimalTokenAdapter, 0, 0, 0, 0, 0, 0, 0, 0, 0, 0, 0, 0, 0, 0,0.3333333333333333,0.0,0.3333333333333333,0.3333333333333333,0.0,0.0,0.0,0.3333333333333333,0.0,0.0,0.0,0.0,0.0,14,ctakes-core\src\main\java\org\apache\ctakes\core\fsm\adapters\DecimalTokenAdapter.java,0,0,0,0
org.apache.ctakes.core.fsm.adapters.IntegerTokenAdapter, 1, 0, 0, 0, 0, 0, 0, 0, 0, 0, 0, 0, 0, 1,0.3333333333333333,0.0,0.3333333333333333,0.3333333333333333,0.0,0.0,0.0,0.3333333333333333,0.0,0.0,0.0,0.0,0.0,42,ctakes-core\src\main\java\org\apache\ctakes\core\fsm\adapters\IntegerTokenAdapter.java,0,0,0,0
org.apache.ctakes.core.fsm.adapters.NewlineTokenAdapter, 0, 0, 0, 0, 0, 0, 0, 0, 0, 0, 0, 0, 0, 0,0.3333333333333333,0.0,0.3333333333333333,0.3333333333333333,0.0,0.0,0.0,0.3333333333333333,0.0,0.0,0.0,0.0,0.0,8,ctakes-core\src\main\java\org\apache\ctakes\core\fsm\adapters\NewlineTokenAdapter.java,0,0,0,0
org.apache.ctakes.core.fsm.adapters.NumberTokenAdapter, 0, 0, 0, 0, 0, 0, 0, 0, 0, 0, 0, 0, 0, 0,0.3333333333333333,0.0,0.0,0.0,0.0,0.0,0.0,0.0,0.0,0.0,0.0,0.0,0.0,30,ctakes-core\src\main\java\org\apache\ctakes\core\fsm\adapters\NumberTokenAdapter.java,0,0,0,0
org.apache.ctakes.core.fsm.adapters.PunctuationTokenAdapter, 0, 0, 0, 0, 0, 0, 0, 0, 0, 0, 0, 0, 0, 0,0.3333333333333333,0.0,0.3333333333333333,0.3333333333333333,0.0,0.0,0.0,0.3333333333333333,0.0,0.0,0.0,0.0,0.0,8,ctakes-core\src\main\java\org\apache\ctakes\core\fsm\adapters\PunctuationTokenAdapter.java,0,0,0,0
org.apache.ctakes.core.fsm.adapters.SymbolTokenAdapter, 0, 0, 0, 0, 0, 0, 0, 0, 0, 0, 0, 0, 0, 0,0.3333333333333333,0.0,0.3333333333333333,0.3333333333333333,0.0,0.0,0.0,0.3333333333333333,0.0,0.0,0.0,0.0,0.0,8,ctakes-core\src\main\java\org\apache\ctakes\core\fsm\adapters\SymbolTokenAdapter.java,0,0,0,0
org.apache.ctakes.core.fsm.adapters.TextTokenAdapter, 0, 0, 0, 0, 0, 0, 0, 0, 0, 0, 0, 0, 0, 0,0.0,0.0,0.0,0.0,0.0,0.0,0.0,0.0,0.0,0.0,0.0,0.0,0.0,13,ctakes-core\src\main\java\org\apache\ctakes\core\fsm\adapters\TextTokenAdapter.java,0,0,0,0
org.apache.ctakes.core.fsm.adapters.WordTokenAdapter, 0, 0, 0, 0, 0, 0, 0, 0, 0, 0, 0, 0, 0, 0,0.3333333333333333,0.0,0.3333333333333333,0.3333333333333333,0.0,0.0,0.0,0.3333333333333333,0.0,0.0,0.0,0.0,0.0,41,ctakes-core\src\main\java\org\apache\ctakes\core\fsm\adapters\WordTokenAdapter.java,0,0,0,0
org.apache.ctakes.core.fsm.condition.CombineCondition, 0, 0, 0, 0, 0, 0, 0, 0, 0, 0, 0, 0, 0, 0,0.0,0.0,0.0,0.0,0.0,0.0,0.0,0.0,0.0,0.0,0.0,0.0,0.0,12,ctakes-core\src\main\java\org\apache\ctakes\core\fsm\condition\CombineCondition.java,0,0,0,0
org.apache.ctakes.core.fsm.condition.DayNightWordCondition, 0, 0, 0, 0, 0, 0, 0, 0, 0, 0, 0, 0, 0, 0,0.0,0.0,0.0,0.0,0.0,0.0,0.0,0.0,0.0,0.0,0.0,0.0,0.0,16,ctakes-core\src\main\java\org\apache\ctakes\core\fsm\condition\DayNightWordCondition.java,0,0,0,0
org.apache.ctakes.core.fsm.condition.DecimalCondition, 0, 0, 0, 0, 0, 0, 0, 0, 0, 0, 0, 0, 0, 0,0.0,0.0,0.0,0.0,0.0,0.0,0.0,0.0,0.0,0.0,0.0,0.0,0.0,8,ctakes-core\src\main\java\org\apache\ctakes\core\fsm\condition\DecimalCondition.java,0,0,0,0
org.apache.ctakes.core.fsm.condition.DecimalRangeCondition, 0, 0, 0, 0, 0, 0, 0, 0, 0, 0, 0, 0, 0, 0,0.0,0.0,0.0,0.0,0.0,0.0,0.0,0.0,0.0,0.0,0.0,0.0,0.0,17,ctakes-core\src\main\java\org\apache\ctakes\core\fsm\condition\DecimalRangeCondition.java,0,0,0,0
org.apache.ctakes.core.fsm.condition.DecimalValueCondition, 0, 0, 0, 0, 0, 0, 0, 0, 0, 0, 0, 0, 0, 0,0.0,0.0,0.0,0.0,0.0,0.0,0.0,0.0,0.0,0.0,0.0,0.0,0.0,15,ctakes-core\src\main\java\org\apache\ctakes\core\fsm\condition\DecimalValueCondition.java,0,0,0,0
org.apache.ctakes.core.fsm.condition.DisjoinCondition, 0, 0, 0, 0, 0, 0, 0, 0, 0, 0, 0, 0, 0, 0,0.0,0.0,0.0,0.0,0.0,0.0,0.0,0.0,0.0,0.0,0.0,0.0,0.0,12,ctakes-core\src\main\java\org\apache\ctakes\core\fsm\condition\DisjoinCondition.java,0,0,0,0
org.apache.ctakes.core.fsm.condition.HourMinuteCondition, 0, 0, 0, 0, 0, 0, 0, 0, 0, 0, 0, 0, 0, 0,0.0,0.0,0.0,0.0,0.0,0.0,0.0,0.0,0.0,0.0,0.0,0.0,0.0,38,ctakes-core\src\main\java\org\apache\ctakes\core\fsm\condition\HourMinuteCondition.java,0,0,0,0
org.apache.ctakes.core.fsm.condition.IntegerCondition, 0, 0, 0, 0, 0, 0, 0, 0, 0, 0, 0, 0, 0, 0,0.0,0.0,0.0,0.0,0.0,0.0,0.0,0.0,0.0,0.0,0.0,0.0,0.0,8,ctakes-core\src\main\java\org\apache\ctakes\core\fsm\condition\IntegerCondition.java,0,0,0,0
org.apache.ctakes.core.fsm.condition.IntegerRangeCondition, 0, 0, 0, 0, 0, 0, 0, 0, 0, 0, 0, 0, 0, 0,0.0,0.0,0.0,0.0,0.0,0.0,0.0,0.0,0.0,0.0,0.0,0.0,0.0,17,ctakes-core\src\main\java\org\apache\ctakes\core\fsm\condition\IntegerRangeCondition.java,0,0,0,0
org.apache.ctakes.core.fsm.condition.IntegerValueCondition, 0, 0, 0, 0, 0, 0, 0, 0, 0, 0, 0, 0, 0, 0,0.0,0.0,0.0,0.0,0.0,0.0,0.0,0.0,0.0,0.0,0.0,0.0,0.0,15,ctakes-core\src\main\java\org\apache\ctakes\core\fsm\condition\IntegerValueCondition.java,0,0,0,0
org.apache.ctakes.core.fsm.condition.NegateCondition, 0, 0, 0, 0, 0, 0, 0, 0, 0, 0, 0, 0, 0, 0,0.0,0.0,0.0,0.0,0.0,0.0,0.0,0.0,0.0,0.0,0.0,0.0,0.0,9,ctakes-core\src\main\java\org\apache\ctakes\core\fsm\condition\NegateCondition.java,0,0,0,0
org.apache.ctakes.core.fsm.condition.NumberCondition, 0, 0, 0, 0, 0, 0, 0, 0, 0, 0, 0, 0, 0, 0,0.0,0.0,0.0,0.0,0.0,0.0,0.0,0.0,0.0,0.0,0.0,0.0,0.0,8,ctakes-core\src\main\java\org\apache\ctakes\core\fsm\condition\NumberCondition.java,0,0,0,0
org.apache.ctakes.core.fsm.condition.PunctuationValueCondition, 0, 0, 0, 0, 0, 0, 0, 0, 0, 0, 0, 0, 0, 0,0.0,0.0,0.0,0.0,0.0,0.0,0.0,0.0,0.0,0.0,0.0,0.0,0.0,15,ctakes-core\src\main\java\org\apache\ctakes\core\fsm\condition\PunctuationValueCondition.java,0,0,0,0
org.apache.ctakes.core.fsm.condition.RangeCondition, 0, 0, 0, 0, 0, 0, 0, 0, 0, 0, 0, 0, 0, 0,0.0,0.0,0.0,0.0,0.0,0.0,0.0,0.0,0.0,0.0,0.0,0.0,0.0,8,ctakes-core\src\main\java\org\apache\ctakes\core\fsm\condition\RangeCondition.java,0,0,0,0
org.apache.ctakes.core.fsm.condition.RomanNumeralCondition, 0, 0, 0, 0, 0, 0, 0, 0, 0, 0, 0, 0, 0, 0,0.0,0.0,0.0,0.0,0.0,0.0,0.0,0.0,0.0,0.0,0.0,0.0,0.0,8,ctakes-core\src\main\java\org\apache\ctakes\core\fsm\condition\RomanNumeralCondition.java,0,0,0,0
org.apache.ctakes.core.fsm.condition.SymbolValueCondition, 0, 0, 0, 0, 0, 0, 0, 0, 0, 0, 0, 0, 0, 0,0.0,0.0,0.0,0.0,0.0,0.0,0.0,0.0,0.0,0.0,0.0,0.0,0.0,15,ctakes-core\src\main\java\org\apache\ctakes\core\fsm\condition\SymbolValueCondition.java,0,0,0,0
org.apache.ctakes.core.fsm.condition.TextSetCondition, 0, 0, 0, 0, 0, 0, 0, 0, 0, 0, 0, 0, 0, 0,0.0,0.0,0.0,0.0,0.0,0.0,0.0,0.0,0.0,0.0,0.0,0.0,0.0,20,ctakes-core\src\main\java\org\apache\ctakes\core\fsm\condition\TextSetCondition.java,0,0,0,0
org.apache.ctakes.core.fsm.condition.TextValueCondition, 0, 0, 0, 0, 0, 0, 0, 0, 0, 0, 0, 0, 0, 0,0.0,0.0,0.0,0.0,0.0,0.0,0.0,0.0,0.0,0.0,0.0,0.0,0.0,23,ctakes-core\src\main\java\org\apache\ctakes\core\fsm\condition\TextValueCondition.java,0,0,0,0
org.apache.ctakes.core.fsm.condition.WordSetCondition, 0, 0, 0, 0, 0, 0, 0, 0, 0, 0, 0, 0, 0, 0,0.0,0.0,0.0,0.0,0.0,0.0,0.0,0.0,0.0,0.0,0.0,0.0,0.0,20,ctakes-core\src\main\java\org\apache\ctakes\core\fsm\condition\WordSetCondition.java,0,0,0,0
org.apache.ctakes.core.fsm.condition.WordValueCondition, 0, 0, 0, 0, 0, 0, 0, 0, 0, 0, 0, 0, 0, 0,0.0,0.0,0.0,0.0,0.0,0.0,0.0,0.0,0.0,0.0,0.0,0.0,0.0,23,ctakes-core\src\main\java\org\apache\ctakes\core\fsm\condition\WordValueCondition.java,0,0,0,0
org.apache.ctakes.core.fsm.machine.FSM, 0, 0, 0, 0, 0, 0, 0, 0, 0, 0, 0, 0, 0, 0,0.0,0.0,0.0,0.0,0.0,0.0,0.0,0.0,0.0,0.0,0.0,0.0,0.0,23,ctakes-core\src\main\java\org\apache\ctakes\core\fsm\machine\FSM.java,0,0,0,0
org.apache.ctakes.core.fsm.output.BaseTokenImpl, 0, 0, 0, 0, 0, 0, 0, 0, 0, 0, 0, 0, 0, 0,0.05555555555555555,0.0,0.05555555555555555,0.05555555555555555,0.0,0.0,0.0,0.05555555555555555,0.0,0.0,0.0,0.0,0.0,14,ctakes-core\src\main\java\org\apache\ctakes\core\fsm\output\BaseTokenImpl.java,0,0,0,0
org.apache.ctakes.core.fsm.output.DateToken, 0, 0, 0, 0, 0, 0, 0, 0, 0, 0, 0, 0, 0, 0,0.0,0.0,0.0,0.0,0.0,0.0,0.0,0.0,0.0,0.0,0.0,0.0,0.0,5,ctakes-core\src\main\java\org\apache\ctakes\core\fsm\output\DateToken.java,0,0,0,0
org.apache.ctakes.core.fsm.output.FractionToken, 0, 0, 0, 0, 0, 0, 0, 0, 0, 0, 0, 0, 0, 0,0.0,0.0,0.0,0.0,0.0,0.0,0.0,0.0,0.0,0.0,0.0,0.0,0.0,5,ctakes-core\src\main\java\org\apache\ctakes\core\fsm\output\FractionToken.java,0,0,0,0
org.apache.ctakes.core.fsm.output.MeasurementToken, 0, 0, 0, 0, 0, 0, 0, 0, 0, 0, 0, 0, 0, 0,0.0,0.0,0.0,0.0,0.0,0.0,0.0,0.0,0.0,0.0,0.0,0.0,0.0,5,ctakes-core\src\main\java\org\apache\ctakes\core\fsm\output\MeasurementToken.java,0,0,0,0
org.apache.ctakes.core.fsm.output.NegationIndicator, 0, 0, 0, 0, 0, 0, 0, 0, 0, 0, 0, 0, 0, 0,0.0,0.0,0.0,0.0,0.0,0.0,0.0,0.0,0.0,0.0,0.0,0.0,0.0,5,ctakes-core\src\main\java\org\apache\ctakes\core\fsm\output\NegationIndicator.java,0,0,0,0
org.apache.ctakes.core.fsm.output.PersonTitleToken, 0, 0, 0, 0, 0, 0, 0, 0, 0, 0, 0, 0, 0, 0,0.0,0.0,0.0,0.0,0.0,0.0,0.0,0.0,0.0,0.0,0.0,0.0,0.0,5,ctakes-core\src\main\java\org\apache\ctakes\core\fsm\output\PersonTitleToken.java,0,0,0,0
org.apache.ctakes.core.fsm.output.RangeToken, 0, 0, 0, 0, 0, 0, 0, 0, 0, 0, 0, 0, 0, 0,0.0,0.0,0.0,0.0,0.0,0.0,0.0,0.0,0.0,0.0,0.0,0.0,0.0,5,ctakes-core\src\main\java\org\apache\ctakes\core\fsm\output\RangeToken.java,0,0,0,0
org.apache.ctakes.core.fsm.output.RomanNumeralToken, 0, 0, 0, 0, 0, 0, 0, 0, 0, 0, 0, 0, 0, 0,0.0,0.0,0.0,0.0,0.0,0.0,0.0,0.0,0.0,0.0,0.0,0.0,0.0,5,ctakes-core\src\main\java\org\apache\ctakes\core\fsm\output\RomanNumeralToken.java,0,0,0,0
org.apache.ctakes.core.fsm.output.StatusIndicator, 0, 0, 0, 0, 0, 0, 0, 0, 0, 0, 0, 0, 0, 0,0.0,0.0,0.0,0.0,0.0,0.0,0.0,0.0,0.0,0.0,0.0,0.0,0.0,13,ctakes-core\src\main\java\org\apache\ctakes\core\fsm\output\StatusIndicator.java,0,0,0,0
org.apache.ctakes.core.fsm.output.TimeToken, 0, 0, 0, 0, 0, 0, 0, 0, 0, 0, 0, 0, 0, 0,0.0,0.0,0.0,0.0,0.0,0.0,0.0,0.0,0.0,0.0,0.0,0.0,0.0,5,ctakes-core\src\main\java\org\apache\ctakes\core\fsm\output\TimeToken.java,0,0,0,0
org.apache.ctakes.core.fsm.state.NamedState, 0, 0, 0, 0, 0, 0, 0, 0, 0, 0, 0, 0, 0, 0,0.0,0.0,0.0,0.0,0.0,0.0,0.0,0.0,0.0,0.0,0.0,0.0,0.0,10,ctakes-core\src\main\java\org\apache\ctakes\core\fsm\state\NamedState.java,0,0,0,0
org.apache.ctakes.core.fsm.state.NonTerminalEndState, 0, 0, 0, 0, 0, 0, 0, 0, 0, 0, 0, 0, 0, 0,0.0,0.0,0.0,0.0,0.0,0.0,0.0,0.0,0.0,0.0,0.0,0.0,0.0,10,ctakes-core\src\main\java\org\apache\ctakes\core\fsm\state\NonTerminalEndState.java,0,0,0,0
org.apache.ctakes.core.fsm.token.BaseToken, 0, 0, 0, 0, 0, 0, 0, 0, 0, 0, 0, 0, 0, 0,0.0,0.0,0.0,0.0,0.0,0.0,0.0,0.0,0.0,0.0,0.0,0.0,0.0,10,ctakes-core\src\main\java\org\apache\ctakes\core\fsm\token\BaseToken.java,0,0,0,0
org.apache.ctakes.core.fsm.token.CharacterToken, 0, 0, 0, 0, 0, 0, 0, 0, 0, 0, 0, 0, 0, 0,0.0,0.0,0.0,0.0,0.0,0.0,0.0,0.0,0.0,0.0,0.0,0.0,0.0,10,ctakes-core\src\main\java\org\apache\ctakes\core\fsm\token\CharacterToken.java,0,0,0,0
org.apache.ctakes.core.fsm.token.ContractionToken, 0, 0, 0, 0, 0, 0, 0, 0, 0, 0, 0, 0, 0, 0,0.0,0.0,0.0,0.0,0.0,0.0,0.0,0.0,0.0,0.0,0.0,0.0,0.0,10,ctakes-core\src\main\java\org\apache\ctakes\core\fsm\token\ContractionToken.java,0,0,0,0
org.apache.ctakes.core.fsm.token.DecimalToken, 0, 0, 0, 0, 0, 0, 0, 0, 0, 0, 0, 0, 0, 0,0.0,0.0,0.0,0.0,0.0,0.0,0.0,0.0,0.0,0.0,0.0,0.0,0.0,10,ctakes-core\src\main\java\org\apache\ctakes\core\fsm\token\DecimalToken.java,0,0,0,0
org.apache.ctakes.core.fsm.token.EolToken, 0, 0, 0, 0, 0, 0, 0, 0, 0, 0, 0, 0, 0, 0,0.0,0.0,0.0,0.0,0.0,0.0,0.0,0.0,0.0,0.0,0.0,0.0,0.0,10,ctakes-core\src\main\java\org\apache\ctakes\core\fsm\token\EolToken.java,0,0,0,0
org.apache.ctakes.core.fsm.token.IntegerToken, 0, 0, 0, 0, 0, 0, 0, 0, 0, 0, 0, 0, 0, 0,0.0,0.0,0.0,0.0,0.0,0.0,0.0,0.0,0.0,0.0,0.0,0.0,0.0,10,ctakes-core\src\main\java\org\apache\ctakes\core\fsm\token\IntegerToken.java,0,0,0,0
org.apache.ctakes.core.fsm.token.NumberToken, 0, 0, 0, 0, 0, 0, 0, 0, 0, 0, 0, 0, 0, 0,0.0,0.0,0.0,0.0,0.0,0.0,0.0,0.0,0.0,0.0,0.0,0.0,0.0,10,ctakes-core\src\main\java\org\apache\ctakes\core\fsm\token\NumberToken.java,0,0,0,0
org.apache.ctakes.core.fsm.token.PunctuationToken, 0, 0, 0, 0, 0, 0, 0, 0, 0, 0, 0, 0, 0, 0,0.0,0.0,0.0,0.0,0.0,0.0,0.0,0.0,0.0,0.0,0.0,0.0,0.0,10,ctakes-core\src\main\java\org\apache\ctakes\core\fsm\token\PunctuationToken.java,0,0,0,0
org.apache.ctakes.core.fsm.token.SymbolToken, 0, 0, 0, 0, 0, 0, 0, 0, 0, 0, 0, 0, 0, 0,0.0,0.0,0.0,0.0,0.0,0.0,0.0,0.0,0.0,0.0,0.0,0.0,0.0,10,ctakes-core\src\main\java\org\apache\ctakes\core\fsm\token\SymbolToken.java,0,0,0,0
org.apache.ctakes.core.fsm.token.TextToken, 0, 0, 0, 0, 0, 0, 0, 0, 0, 0, 0, 0, 0, 0,0.0,0.0,0.0,0.0,0.0,0.0,0.0,0.0,0.0,0.0,0.0,0.0,0.0,10,ctakes-core\src\main\java\org\apache\ctakes\core\fsm\token\TextToken.java,0,0,0,0
org.apache.ctakes.core.fsm.token.WordToken, 0, 0, 0, 0, 0, 0, 0, 0, 0, 0, 0, 0, 0, 0,0.0,0.0,0.0,0.0,0.0,0.0,0.0,0.0,0.0,0.0,0.0,0.0,0.0,10,ctakes-core\src\main\java\org\apache\ctakes\core\fsm\token\WordToken.java,0,0,0,0
org.apache.ctakes.core.fsm.token.adapter.BaseTokenAdapter, 0, 0, 0, 0, 0, 0, 0, 0, 0, 0, 0, 0, 0, 0,0.0,0.0,0.0,0.25,0.0,0.0,0.0,0.0,0.0,0.0,0.0,0.0,0.0,12,ctakes-core\src\main\java\org\apache\ctakes\core\fsm\token\adapter\BaseTokenAdapter.java,0,0,0,0
org.apache.ctakes.core.fsm.token.adapter.CharacterTokenAdapter, 0, 0, 0, 0, 0, 0, 0, 0, 0, 0, 0, 0, 0, 0,0.0,0.0,0.0,0.3333333333333333,0.0,0.0,0.0,0.0,0.0,0.0,0.0,0.0,0.0,11,ctakes-core\src\main\java\org\apache\ctakes\core\fsm\token\adapter\CharacterTokenAdapter.java,0,0,0,0
org.apache.ctakes.core.fsm.token.adapter.DecimalTokenAdapter, 0, 0, 0, 0, 0, 0, 0, 0, 0, 0, 0, 0, 0, 0,0.0,0.0,0.0,0.3333333333333333,0.0,0.0,0.0,0.0,0.0,0.0,0.0,0.0,0.0,11,ctakes-core\src\main\java\org\apache\ctakes\core\fsm\token\adapter\DecimalTokenAdapter.java,0,0,0,0
org.apache.ctakes.core.fsm.token.adapter.IntegerTokenAdapter, 1, 0, 0, 0, 0, 0, 0, 0, 0, 0, 0, 0, 0, 1,0.0,0.0,0.0,0.3333333333333333,0.0,0.0,0.0,0.0,0.0,0.0,0.0,0.0,0.0,34,ctakes-core\src\main\java\org\apache\ctakes\core\fsm\token\adapter\IntegerTokenAdapter.java,0,0,0,0
org.apache.ctakes.core.fsm.token.adapter.NumberTokenAdapter, 0, 0, 0, 0, 0, 0, 0, 0, 0, 0, 0, 0, 0, 0,0.25,0.0,0.0,0.25,0.0,0.0,0.0,0.0,0.0,0.0,0.0,0.0,0.0,23,ctakes-core\src\main\java\org\apache\ctakes\core\fsm\token\adapter\NumberTokenAdapter.java,0,0,0,0
org.apache.ctakes.core.fsm.token.adapter.PunctuationTokenAdapter, 0, 0, 0, 0, 0, 0, 0, 0, 0, 0, 0, 0, 0, 0,0.0,0.0,0.0,0.3333333333333333,0.0,0.0,0.0,0.0,0.0,0.0,0.0,0.0,0.0,6,ctakes-core\src\main\java\org\apache\ctakes\core\fsm\token\adapter\PunctuationTokenAdapter.java,0,0,0,0
org.apache.ctakes.core.fsm.token.adapter.TokenConverter, 0, 0, 0, 0, 0, 0, 0, 0, 0, 0, 0, 0, 0, 0,0.2,0.0,0.0,0.2,0.0,0.0,0.0,0.0,0.0,0.0,0.0,0.0,0.0,32,ctakes-core\src\main\java\org\apache\ctakes\core\fsm\token\adapter\TokenConverter.java,0,0,0,0
org.apache.ctakes.core.fsm.token.adapter.WordTokenAdapter, 0, 0, 0, 0, 0, 0, 0, 0, 0, 0, 0, 0, 0, 0,0.0,0.0,0.0,0.3333333333333333,0.0,0.0,0.0,0.0,0.0,0.0,0.0,0.0,0.0,38,ctakes-core\src\main\java\org\apache\ctakes\core\fsm\token\adapter\WordTokenAdapter.java,0,0,0,0
org.apache.ctakes.core.nlp.tokenizer.ContractionResult, 0, 0, 0, 0, 0, 0, 0, 0, 0, 0, 0, 0, 0, 0,0.0,0.0,0.0,0.0,0.0,0.0,0.0,0.0,0.0,0.0,0.0,0.0,0.0,16,ctakes-core\src\main\java\org\apache\ctakes\core\nlp\tokenizer\ContractionResult.java,0,0,0,0
org.apache.ctakes.core.nlp.tokenizer.OffsetComparator, 0, 0, 0, 0, 0, 0, 0, 0, 0, 0, 0, 0, 0, 0,0.0,0.0,0.0,1.0,0.0,0.0,0.0,0.0,0.0,0.0,0.0,0.0,0.0,17,ctakes-core\src\main\java\org\apache\ctakes\core\nlp\tokenizer\OffsetComparator.java,0,0,0,0
org.apache.ctakes.core.nlp.tokenizer.Token, 0, 0, 0, 1, 0, 0, 0, 0, 0, 0, 0, 0, 0, 1,0.1,0.0,0.0,0.0,0.0,0.0,0.0,0.0,0.0,0.0,0.0,0.0,0.0,109,ctakes-core\src\main\java\org\apache\ctakes\core\nlp\tokenizer\Token.java,0,0,0,0
org.apache.ctakes.core.nlp.tokenizer.TokenizerHelper, 0, 0, 0, 0, 0, 0, 0, 0, 0, 0, 0, 0, 0, 0,0.0,0.0,0.0,0.0,0.0,0.0,0.0,0.0,0.0,0.0,0.0,0.0,0.0,44,ctakes-core\src\main\java\org\apache\ctakes\core\nlp\tokenizer\TokenizerHelper.java,0,0,0,0
org.apache.ctakes.core.resource.FileLocator, 0, 0, 0, 0, 0, 0, 0, 0, 0, 0, 0, 0, 0, 0,0.125,0.0,0.0625,0.125,0.0,0.0,0.0,0.0,0.0,0.0,0.0,0.0,0.0,52,ctakes-core\src\main\java\org\apache\ctakes\core\resource\FileLocator.java,3,39,31,104
org.apache.ctakes.core.resource.FileResource, 0, 0, 0, 0, 0, 0, 0, 0, 0, 0, 0, 0, 0, 0,0.0,0.0,0.0,0.0,0.0,0.0,0.0,0.0,0.0,0.0,0.0,0.0,0.0,52,ctakes-core\src\main\java\org\apache\ctakes\core\resource\FileResource.java,0,0,0,0
org.apache.ctakes.core.resource.FileResourceImpl, 0, 0, 0, 0, 0, 0, 0, 0, 0, 0, 0, 0, 0, 0,0.0,0.0,0.0,0.0,0.0,0.0,0.0,0.0,0.0,0.0,0.0,0.0,0.0,27,ctakes-core\src\main\java\org\apache\ctakes\core\resource\FileResourceImpl.java,0,0,0,0
org.apache.ctakes.core.resource.JdbcConnectionResource, 0, 0, 0, 0, 0, 0, 0, 0, 0, 0, 0, 0, 0, 0,0.0,0.0,0.0,0.0,0.0,0.0,0.0,0.0,0.0,0.0,0.0,0.0,0.0,27,ctakes-core\src\main\java\org\apache\ctakes\core\resource\JdbcConnectionResource.java,0,0,0,0
org.apache.ctakes.core.resource.JdbcConnectionResourceImpl, 0, 0, 0, 0, 0, 0, 0, 0, 0, 0, 0, 0, 0, 0,0.0,0.0,0.0,0.0,0.0,0.0,0.0,0.0,0.0,0.0,0.0,0.0,0.0,59,ctakes-core\src\main\java\org\apache\ctakes\core\resource\JdbcConnectionResourceImpl.java,0,0,0,0
org.apache.ctakes.core.resource.LinesFromFileStringsResourceImpl, 1, 0, 1, 0, 0, 0, 0, 0, 0, 0, 0, 0, 0, 2,0.0,0.0,0.0,0.0,0.0,0.0,0.0,0.0,0.0,0.0,0.0,0.0,0.0,34,ctakes-core\src\main\java\org\apache\ctakes\core\resource\LinesFromFileStringsResourceImpl.java,0,0,0,0
org.apache.ctakes.core.resource.LuceneIndexReaderResource, 0, 0, 0, 0, 0, 0, 0, 0, 0, 0, 0, 0, 0, 0,0.0,0.0,0.0,0.0,0.0,0.0,0.0,0.0,0.0,0.0,0.0,0.0,0.0,34,ctakes-core\src\main\java\org\apache\ctakes\core\resource\LuceneIndexReaderResource.java,0,0,0,0
org.apache.ctakes.core.resource.LuceneIndexReaderResourceImpl, 0, 0, 0, 0, 0, 0, 0, 0, 0, 0, 0, 0, 0, 0,0.0,0.0,0.0,0.0,0.0,0.0,0.0,0.0,0.0,0.0,0.0,0.0,0.0,34,ctakes-core\src\main\java\org\apache\ctakes\core\resource\LuceneIndexReaderResourceImpl.java,0,0,0,0
org.apache.ctakes.core.resource.StringsResource, 0, 0, 0, 0, 0, 0, 0, 0, 0, 0, 0, 0, 0, 0,0.0,0.0,0.0,0.0,0.0,0.0,0.0,0.0,0.0,0.0,0.0,0.0,0.0,34,ctakes-core\src\main\java\org\apache\ctakes\core\resource\StringsResource.java,0,0,0,0
org.apache.ctakes.core.sentence.EndOfSentenceScannerImpl, 0, 0, 0, 0, 0, 0, 0, 0, 0, 0, 0, 0, 0, 0,0.0,0.0,0.0,1.0,0.0,0.0,0.0,0.0,0.0,0.0,0.0,0.0,0.0,27,ctakes-core\src\main\java\org\apache\ctakes\core\sentence\EndOfSentenceScannerImpl.java,0,0,0,0
org.apache.ctakes.core.sentence.SentenceSpan, 1, 0, 1, 0, 0, 0, 0, 0, 0, 0, 0, 0, 0, 2,0.0,0.0,0.0,1.0,0.0,0.0,0.0,0.0,0.0,0.0,0.0,0.0,0.0,65,ctakes-core\src\main\java\org\apache\ctakes\core\sentence\SentenceSpan.java,0,0,0,0
org.apache.ctakes.core.util.DateParser, 0, 0, 0, 0, 0, 0, 0, 0, 0, 0, 0, 0, 0, 0,1.0,0.0,1.0,1.0,0.0,0.0,0.0,1.0,0.0,0.0,0.0,0.0,0.0,76,ctakes-core\src\main\java\org\apache\ctakes\core\util\DateParser.java,0,0,0,0
org.apache.ctakes.core.util.DocumentIDAnnotationUtil, 0, 0, 0, 0, 0, 0, 0, 0, 0, 0, 0, 0, 0, 0,0.07142857142857142,0.0,0.07142857142857142,0.07142857142857142,0.0,0.0,0.0,0.0,0.0,0.0,0.0,0.0,0.0,15,ctakes-core\src\main\java\org\apache\ctakes\core\util\DocumentIDAnnotationUtil.java,0,0,0,0
org.apache.ctakes.core.util.DocumentSection, 0, 0, 0, 0, 0, 0, 0, 0, 0, 0, 0, 0, 0, 0,0.0,0.0,0.0,0.0,0.0,0.0,0.0,0.0,0.0,0.0,0.0,0.0,0.0,35,ctakes-core\src\main\java\org\apache\ctakes\core\util\DocumentSection.java,0,0,0,0
org.apache.ctakes.core.util.FSUtil, 0, 0, 0, 0, 0, 0, 0, 1, 0, 0, 0, 0, 0, 1,0.25,0.0,0.25,0.5,0.0,0.0,0.0,0.25,0.0,0.0,0.0,0.0,0.0,76,ctakes-core\src\main\java\org\apache\ctakes\core\util\FSUtil.java,0,0,0,0
org.apache.ctakes.core.util.JCasUtil, 0, 0, 0, 0, 0, 0, 0, 0, 0, 0, 0, 0, 0, 0,0.25,0.0,0.25,0.75,0.0,0.0,0.0,0.25,0.0,0.0,0.0,0.0,0.0,19,ctakes-core\src\main\java\org\apache\ctakes\core\util\JCasUtil.java,0,0,0,0
org.apache.ctakes.core.util.ListFactory, 0, 0, 0, 0, 0, 0, 0, 0, 0, 0, 0, 0, 0, 0,0.0,0.0,0.0,0.0,0.0,0.0,0.0,0.0,0.0,0.0,0.0,0.0,0.0,24,ctakes-core\src\main\java\org\apache\ctakes\core\util\ListFactory.java,0,0,0,0
org.apache.ctakes.core.util.Mapper, 0, 0, 0, 0, 0, 0, 0, 0, 0, 0, 0, 0, 0, 0,0.0,0.0,0.0,0.0,0.0,0.0,0.0,0.0,0.0,0.0,0.0,0.0,0.0,16,ctakes-core\src\main\java\org\apache\ctakes\core\util\Mapper.java,0,0,0,0
org.apache.ctakes.core.util.SHARPKnowtatorXMLDefaults, 0, 0, 0, 0, 0, 0, 0, 0, 0, 0, 0, 0, 0, 0,0.0,0.0,0.0,0.0,0.0,0.0,0.0,0.0,0.0,0.0,0.0,0.0,0.0,7,ctakes-core\src\main\java\org\apache\ctakes\core\util\SHARPKnowtatorXMLDefaults.java,0,0,0,0
org.apache.ctakes.coreference.ae.MipacqMarkableCreator, 1, 0, 1, 0, 0, 0, 0, 0, 0, 0, 0, 0, 0, 2,0.0,0.0,0.0,0.0,0.0,0.0,0.0,0.0,0.0,0.0,0.0,0.0,0.0,50,ctakes-coreference\src\main\java\org\apache\ctakes\coreference\ae\MipacqMarkableCreator.java,0,0,0,0
org.apache.ctakes.coreference.cc.ODIEVectorFileWriter, 0, 0, 0, 1, 0, 0, 0, 0, 0, 0, 0, 0, 0, 1,0.0,0.0,0.0,0.25,0.0,0.0,0.0,0.0,0.0,0.0,0.0,0.0,0.0,245,ctakes-coreference\src\main\java\org\apache\ctakes\coreference\cc\ODIEVectorFileWriter.java,0,0,0,0
org.apache.ctakes.coreference.cc.PreprocessAndWriteXmi, 0, 0, 0, 0, 0, 0, 0, 0, 0, 0, 0, 0, 0, 0,0.0,0.0,0.0,0.0,0.0,0.0,0.0,0.0,0.0,0.0,0.0,0.0,0.0,62,ctakes-coreference\src\main\java\org\apache\ctakes\coreference\cc\PreprocessAndWriteXmi.java,0,0,0,0
org.apache.ctakes.coreference.eval.helpers.SpanAlignment, 0, 0, 0, 0, 0, 0, 0, 0, 0, 0, 0, 0, 0, 0,0.0,0.0,0.0,0.0,0.0,0.0,0.0,0.0,0.0,0.0,0.0,0.0,0.0,66,ctakes-coreference\src\main\java\org\apache\ctakes\coreference\eval\helpers\SpanAlignment.java,0,0,0,0
org.apache.ctakes.coreference.eval.helpers.SpanOffsetComparator, 0, 0, 0, 0, 0, 0, 0, 0, 0, 0, 0, 0, 0, 0,0.0,0.0,0.0,0.0,0.0,0.0,0.0,0.0,0.0,0.0,0.0,0.0,0.0,20,ctakes-coreference\src\main\java\org\apache\ctakes\coreference\eval\helpers\SpanOffsetComparator.java,0,0,0,0
org.apache.ctakes.coreference.eval.helpers.Test, 0, 0, 0, 0, 0, 0, 0, 0, 0, 0, 0, 0, 0, 0,0.0,0.0,0.0,0.0,0.0,0.0,0.0,0.0,0.0,0.0,0.0,0.0,0.0,24,ctakes-coreference\src\main\java\org\apache\ctakes\coreference\eval\helpers\Test.java,0,0,0,0
org.apache.ctakes.coreference.treekernel.training.KernelMatrixCompositor, 0, 0, 0, 0, 0, 0, 0, 0, 0, 0, 0, 0, 0, 0,0.0,0.0,0.0,0.0,0.0,0.0,0.0,0.0,0.0,0.0,0.0,0.0,0.0,58,ctakes-coreference\src\main\java\org\apache\ctakes\coreference\treekernel\training\KernelMatrixCompositor.java,0,0,0,0
org.apache.ctakes.coreference.treekernel.training.LinearKernelMatrixWriter, 1, 0, 0, 0, 0, 0, 0, 0, 0, 0, 0, 0, 0, 1,0.0,0.0,0.0,0.0,0.0,0.0,0.0,0.0,0.0,0.0,0.0,0.0,0.0,110,ctakes-coreference\src\main\java\org\apache\ctakes\coreference\treekernel\training\LinearKernelMatrixWriter.java,0,0,0,0
org.apache.ctakes.coreference.treekernel.training.RowFillerThread, 0, 0, 0, 0, 0, 0, 0, 0, 0, 0, 0, 0, 0, 0,0.6666666666666666,0.0,0.0,0.0,0.0,0.0,0.0,0.0,0.0,0.0,0.0,0.0,0.0,39,ctakes-coreference\src\main\java\org\apache\ctakes\coreference\treekernel\training\RowFillerThread.java,0,0,0,0
org.apache.ctakes.coreference.treekernel.training.TreeKernelTrainer, 1, 0, 0, 0, 0, 0, 0, 0, 0, 0, 0, 0, 0, 1,0.0,0.0,0.0,0.0,0.0,0.0,0.0,0.0,0.0,0.0,0.0,0.0,0.0,109,ctakes-coreference\src\main\java\org\apache\ctakes\coreference\treekernel\training\TreeKernelTrainer.java,0,0,0,0
org.apache.ctakes.coreference.util.AbstractClassifier, 0, 0, 0, 0, 0, 0, 0, 0, 0, 0, 0, 0, 0, 0,0.0,0.0,0.0,0.0,0.0,0.0,0.0,0.0,0.0,0.0,0.0,0.0,0.0,26,ctakes-coreference\src\main\java\org\apache\ctakes\coreference\util\AbstractClassifier.java,0,0,0,0
org.apache.ctakes.coreference.util.AnaphoricityAttributeCalculator, 0, 0, 0, 1, 0, 0, 0, 0, 0, 0, 0, 0, 0, 1,0.0,0.0,0.0,0.0,0.0,0.0,0.0,0.0,0.0,0.0,0.0,0.0,0.0,143,ctakes-coreference\src\main\java\org\apache\ctakes\coreference\util\AnaphoricityAttributeCalculator.java,0,0,0,0
org.apache.ctakes.coreference.util.AnnotOffsetComparator, 0, 0, 0, 0, 0, 0, 0, 0, 0, 0, 0, 0, 0, 0,0.0,0.0,0.0,0.0,0.0,0.0,0.0,0.0,0.0,0.0,0.0,0.0,0.0,6,ctakes-coreference\src\main\java\org\apache\ctakes\coreference\util\AnnotOffsetComparator.java,0,0,0,0
org.apache.ctakes.coreference.util.AnnotationCounter, 0, 0, 0, 0, 0, 0, 0, 0, 0, 0, 0, 0, 0, 0,0.0,0.0,0.0,1.0,0.0,0.0,0.0,0.0,0.0,0.0,0.0,0.0,0.0,17,ctakes-coreference\src\main\java\org\apache\ctakes\coreference\util\AnnotationCounter.java,0,0,0,0
org.apache.ctakes.coreference.util.CorefConsts, 0, 0, 0, 0, 0, 0, 0, 0, 0, 0, 0, 0, 0, 0,0.0,0.0,0.0,0.0,0.0,0.0,0.0,0.0,0.0,0.0,0.0,0.0,0.0,10,ctakes-coreference\src\main\java\org\apache\ctakes\coreference\util\CorefConsts.java,0,0,0,0
org.apache.ctakes.coreference.util.EditDistance, 0, 0, 0, 0, 0, 0, 0, 0, 0, 0, 0, 0, 0, 0,0.0,0.0,0.0,0.0,0.0,0.0,0.0,0.0,0.0,0.0,0.0,0.0,0.0,40,ctakes-coreference\src\main\java\org\apache\ctakes\coreference\util\EditDistance.java,0,0,0,0
org.apache.ctakes.coreference.util.FeatureVector, 0, 0, 0, 0, 0, 0, 0, 0, 0, 0, 0, 0, 0, 0,0.0,0.0,0.0,0.0,0.0,0.0,0.0,0.0,0.0,0.0,0.0,0.0,0.0,89,ctakes-coreference\src\main\java\org\apache\ctakes\coreference\util\FeatureVector.java,0,0,0,0
org.apache.ctakes.coreference.util.MarkableDepUtils, 0, 0, 0, 0, 0, 0, 0, 0, 0, 0, 0, 0, 0, 0,0.0,0.0,0.0,0.0,0.0,0.0,0.0,0.0,0.0,0.0,0.0,0.0,0.0,15,ctakes-coreference\src\main\java\org\apache\ctakes\coreference\util\MarkableDepUtils.java,0,0,0,0
org.apache.ctakes.coreference.util.MarkableTreeUtils, 0, 0, 0, 0, 0, 0, 0, 0, 0, 0, 0, 0, 0, 0,0.0,0.0,0.0,0.6666666666666666,0.0,0.0,0.0,0.0,0.0,0.0,0.0,0.0,0.0,58,ctakes-coreference\src\main\java\org\apache\ctakes\coreference\util\MarkableTreeUtils.java,0,0,0,0
org.apache.ctakes.coreference.util.PairAttributeCalculator, 0, 0, 0, 1, 0, 0, 0, 0, 0, 0, 0, 0, 0, 1,0.0,0.0,0.0,0.3333333333333333,0.0,0.0,0.0,0.0,0.0,0.0,0.0,0.0,0.0,392,ctakes-coreference\src\main\java\org\apache\ctakes\coreference\util\PairAttributeCalculator.java,0,0,0,0
org.apache.ctakes.coreference.util.ParentPtrTree, 0, 0, 0, 0, 0, 0, 0, 0, 0, 0, 0, 0, 0, 0,0.0,0.0,0.0,0.0,0.0,0.0,0.0,0.0,0.0,0.0,0.0,0.0,0.0,57,ctakes-coreference\src\main\java\org\apache\ctakes\coreference\util\ParentPtrTree.java,0,0,0,0
org.apache.ctakes.coreference.util.SvmUtils, 0, 0, 0, 0, 0, 0, 0, 0, 0, 0, 0, 0, 0, 0,0.0,0.0,0.0,0.0,0.0,0.0,0.0,0.0,0.0,0.0,0.0,0.0,0.0,13,ctakes-coreference\src\main\java\org\apache\ctakes\coreference\util\SvmUtils.java,0,0,0,0
org.apache.ctakes.coreference.util.TextMatch, 0, 0, 0, 0, 0, 0, 0, 0, 0, 0, 0, 0, 0, 0,0.0,0.0,0.0,1.0,0.0,0.0,0.0,0.0,0.0,0.0,0.0,0.0,0.0,16,ctakes-coreference\src\main\java\org\apache\ctakes\coreference\util\TextMatch.java,0,0,0,0
org.apache.ctakes.coreference.util.ThreadDelegator, 0, 0, 0, 0, 0, 0, 0, 0, 0, 0, 0, 0, 0, 0,0.0,0.0,0.0,0.0,0.0,0.0,0.0,0.0,0.0,0.0,0.0,0.0,0.0,16,ctakes-coreference\src\main\java\org\apache\ctakes\coreference\util\ThreadDelegator.java,0,0,0,0
org.apache.ctakes.dependency.parser.ae.ClearNLPDependencyParserAE, 0, 0, 1, 0, 0, 0, 0, 0, 0, 0, 0, 0, 0, 1,0.0,0.0,0.1,0.0,0.0,0.0,0.0,0.0,0.0,0.0,0.0,0.0,0.0,67,ctakes-dependency-parser\src\main\java\org\apache\ctakes\dependency\parser\ae\ClearNLPDependencyParserAE.java,0,0,0,0
org.apache.ctakes.dependency.parser.ae.util.TestClearNLPAnalysisEngines, 1, 0, 1, 0, 0, 0, 0, 0, 0, 0, 0, 0, 0, 2,0.0,0.0,0.0,0.0,0.0,0.0,0.0,1.0,0.0,0.0,0.0,0.0,0.0,55,ctakes-dependency-parser\src\test\java\org\apache\ctakes\dependency\parser\ae\util\TestClearNLPAnalysisEngines.java,0,0,0,0
org.apache.ctakes.dependency.parser.ae.util.WriteClearNLPDescriptors, 0, 0, 0, 0, 0, 0, 0, 1, 0, 0, 0, 0, 0, 1,1.0,0.0,1.0,0.0,0.0,0.0,0.0,0.0,0.0,0.0,0.0,0.0,0.0,84,ctakes-dependency-parser\src\main\java\org\apache\ctakes\dependency\parser\ae\util\WriteClearNLPDescriptors.java,0,0,0,0
org.apache.ctakes.dependency.parser.ae.util.XMIReader, 0, 0, 0, 0, 0, 0, 0, 0, 0, 0, 0, 0, 0, 0,0.0,0.0,0.0,0.0,0.0,0.0,0.0,0.0,0.0,0.0,0.0,0.0,0.0,38,ctakes-dependency-parser\src\main\java\org\apache\ctakes\dependency\parser\ae\util\XMIReader.java,0,0,0,0
org.apache.ctakes.dependency.parser.util.ClearDependencyUtility, 0, 0, 1, 0, 0, 0, 0, 0, 0, 0, 0, 0, 0, 1,0.0,0.0,1.0,0.0,0.0,0.0,0.0,0.0,0.0,0.0,0.0,0.0,0.0,35,ctakes-dependency-parser\src\main\java\org\apache\ctakes\dependency\parser\util\ClearDependencyUtility.java,0,0,0,0
org.apache.ctakes.dependency.parser.util.Delim, 1, 0, 1, 0, 0, 0, 0, 0, 0, 0, 0, 0, 0, 2,0.0,0.0,0.0,0.0,0.0,0.0,0.0,0.0,0.0,0.0,0.0,0.0,0.0,12,ctakes-dependency-parser\src\main\java\org\apache\ctakes\dependency\parser\util\Delim.java,0,0,0,0
org.apache.ctakes.dictionary.lookup.AbstractBaseDictionary, 0, 0, 0, 0, 0, 0, 0, 0, 0, 0, 0, 0, 0, 0,0.0,0.0,0.0,0.0,0.0,0.0,0.0,0.0,0.0,0.0,0.0,0.0,0.0,10,ctakes-dictionary-lookup\src\main\java\org\apache\ctakes\dictionary\lookup\AbstractBaseDictionary.java,0,0,0,0
org.apache.ctakes.dictionary.lookup.AbstractBaseMetaDataHit, 0, 0, 0, 0, 0, 0, 0, 0, 0, 0, 0, 0, 0, 0,0.0,0.0,0.0,0.0,0.0,0.0,0.0,0.0,0.0,0.0,0.0,0.0,0.0,24,ctakes-dictionary-lookup\src\main\java\org\apache\ctakes\dictionary\lookup\AbstractBaseMetaDataHit.java,0,0,0,0
org.apache.ctakes.dictionary.lookup.BaseDictionaryImpl, 0, 0, 0, 0, 0, 0, 0, 0, 0, 0, 0, 0, 0, 0,0.0,0.0,0.0,0.0,0.0,0.0,0.0,0.0,0.0,0.0,0.0,0.0,0.0,15,ctakes-dictionary-lookup\src\main\java\org\apache\ctakes\dictionary\lookup\BaseDictionaryImpl.java,0,0,0,0
org.apache.ctakes.dictionary.lookup.BaseMetaDataHitImpl, 0, 0, 0, 0, 0, 0, 0, 0, 0, 0, 0, 0, 0, 0,0.0,0.0,0.0,0.0,0.0,0.0,0.0,0.0,0.0,0.0,0.0,0.0,0.0,24,ctakes-dictionary-lookup\src\main\java\org\apache\ctakes\dictionary\lookup\BaseMetaDataHitImpl.java,0,0,0,0
org.apache.ctakes.dictionary.lookup.Dictionary, 0, 0, 0, 0, 0, 0, 0, 0, 0, 0, 0, 0, 0, 0,0.0,0.0,0.0,0.0,0.0,0.0,0.0,0.0,0.0,0.0,0.0,0.0,0.0,24,ctakes-dictionary-lookup\src\main\java\org\apache\ctakes\dictionary\lookup\Dictionary.java,0,0,0,0
org.apache.ctakes.dictionary.lookup.DictionaryException, 0, 0, 0, 0, 0, 0, 0, 0, 0, 0, 0, 0, 0, 0,0.0,0.0,0.0,0.0,0.0,0.0,0.0,0.0,0.0,0.0,0.0,0.0,0.0,6,ctakes-dictionary-lookup\src\main\java\org\apache\ctakes\dictionary\lookup\DictionaryException.java,0,0,0,0
org.apache.ctakes.dictionary.lookup.MetaDataHit, 0, 0, 0, 0, 0, 0, 0, 0, 0, 0, 0, 0, 0, 0,0.0,0.0,0.0,0.0,0.0,0.0,0.0,0.0,0.0,0.0,0.0,0.0,0.0,6,ctakes-dictionary-lookup\src\main\java\org\apache\ctakes\dictionary\lookup\MetaDataHit.java,0,0,0,0
org.apache.ctakes.dictionary.lookup.MetaDataHitConst, 0, 0, 0, 0, 0, 0, 0, 0, 0, 0, 0, 0, 0, 0,0.0,0.0,0.0,0.0,0.0,0.0,0.0,0.0,0.0,0.0,0.0,0.0,0.0,6,ctakes-dictionary-lookup\src\main\java\org\apache\ctakes\dictionary\lookup\MetaDataHitConst.java,0,0,0,0
org.apache.ctakes.dictionary.lookup.ae.DebugConsumerImpl, 0, 0, 0, 0, 0, 0, 0, 0, 0, 0, 0, 0, 0, 0,0.0,0.0,0.0,0.0,0.0,0.0,0.0,0.0,0.0,0.0,0.0,0.0,0.0,27,ctakes-dictionary-lookup\src\main\java\org\apache\ctakes\dictionary\lookup\ae\DebugConsumerImpl.java,0,0,0,0
org.apache.ctakes.dictionary.lookup.ae.LookupConsumer, 0, 0, 0, 0, 0, 0, 0, 0, 0, 0, 0, 0, 0, 0,0.0,0.0,0.0,0.0,0.0,0.0,0.0,0.0,0.0,0.0,0.0,0.0,0.0,27,ctakes-dictionary-lookup\src\main\java\org\apache\ctakes\dictionary\lookup\ae\LookupConsumer.java,0,0,0,0
org.apache.ctakes.dictionary.lookup.ae.LookupSpec, 0, 0, 0, 0, 0, 0, 0, 0, 0, 0, 0, 0, 0, 0,0.0,0.0,0.0,0.0,0.0,0.0,0.0,0.0,0.0,0.0,0.0,0.0,0.0,21,ctakes-dictionary-lookup\src\main\java\org\apache\ctakes\dictionary\lookup\ae\LookupSpec.java,0,0,0,0
org.apache.ctakes.dictionary.lookup.ae.NamedEntityLookupConsumerImpl, 0, 0, 0, 0, 0, 0, 0, 0, 0, 0, 0, 0, 0, 0,0.0,0.0,0.0,0.0,0.0,0.0,0.0,0.0,0.0,0.0,0.0,0.0,0.0,81,ctakes-dictionary-lookup\src\main\java\org\apache\ctakes\dictionary\lookup\ae\NamedEntityLookupConsumerImpl.java,0,0,0,0
org.apache.ctakes.dictionary.lookup.ae.ThreadedUmlsDictionaryLookupAnnotator, 0, 0, 0, 0, 0, 0, 0, 0, 0, 0, 0, 0, 0, 0,0.0,0.0,0.0,0.0,0.0,0.0,0.0,0.0,0.0,0.0,0.0,0.0,0.0,60,ctakes-dictionary-lookup\src\main\java\org\apache\ctakes\dictionary\lookup\ae\ThreadedUmlsDictionaryLookupAnnotator.java,0,2,2,6
org.apache.ctakes.dictionary.lookup.ae.UmlsDictionaryLookupAnnotator, 0, 0, 0, 0, 0, 0, 0, 0, 0, 0, 0, 0, 0, 0,0.0,0.0,0.0,0.0,0.0,0.0,0.0,0.0,0.0,0.0,0.0,0.0,0.0,101,ctakes-dictionary-lookup\src\main\java\org\apache\ctakes\dictionary\lookup\ae\UmlsDictionaryLookupAnnotator.java,10,10,9,38
org.apache.ctakes.dictionary.lookup.ae.UmlsToSnomedDbConsumerImpl, 0, 0, 0, 0, 0, 0, 0, 0, 0, 0, 0, 0, 0, 0,0.0,0.0,0.0,0.0,0.0,0.0,0.0,0.0,0.0,0.0,0.0,0.0,0.0,40,ctakes-dictionary-lookup\src\main\java\org\apache\ctakes\dictionary\lookup\ae\UmlsToSnomedDbConsumerImpl.java,0,0,0,0
org.apache.ctakes.dictionary.lookup.ae.UmlsToSnomedLuceneConsumerImpl, 0, 0, 0, 0, 0, 0, 0, 0, 0, 0, 0, 0, 0, 0,0.0,0.0,0.0,0.0,0.0,0.0,0.0,0.0,0.0,0.0,0.0,0.0,0.0,50,ctakes-dictionary-lookup\src\main\java\org\apache\ctakes\dictionary\lookup\ae\UmlsToSnomedLuceneConsumerImpl.java,0,0,0,0
org.apache.ctakes.dictionary.lookup.algorithms.PermutationUtil, 0, 0, 0, 0, 0, 0, 0, 1, 0, 0, 0, 0, 0, 1,0.0,0.0,0.0,0.0,0.0,0.0,0.0,0.0,0.0,0.0,0.0,0.0,0.0,92,ctakes-dictionary-lookup\src\main\java\org\apache\ctakes\dictionary\lookup\algorithms\PermutationUtil.java,0,0,0,0
org.apache.ctakes.dictionary.lookup.filter.CollectionFilter, 0, 0, 0, 0, 0, 0, 0, 0, 0, 0, 0, 0, 0, 0,0.0,0.0,0.0,0.0,0.0,0.0,0.0,0.0,0.0,0.0,0.0,0.0,0.0,92,ctakes-dictionary-lookup\src\main\java\org\apache\ctakes\dictionary\lookup\filter\CollectionFilter.java,0,0,0,0
org.apache.ctakes.dictionary.lookup.filter.FilterException, 0, 0, 0, 0, 0, 0, 0, 0, 0, 0, 0, 0, 0, 0,0.0,0.0,0.0,0.0,0.0,0.0,0.0,0.0,0.0,0.0,0.0,0.0,0.0,6,ctakes-dictionary-lookup\src\main\java\org\apache\ctakes\dictionary\lookup\filter\FilterException.java,0,0,0,0
org.apache.ctakes.dictionary.lookup.filter.MetaDataPostLookupFilterImpl, 0, 0, 0, 0, 0, 0, 0, 0, 0, 0, 0, 0, 0, 0,0.0,0.0,0.0,0.0,0.0,0.0,0.0,0.0,0.0,0.0,0.0,0.0,0.0,45,ctakes-dictionary-lookup\src\main\java\org\apache\ctakes\dictionary\lookup\filter\MetaDataPostLookupFilterImpl.java,0,0,0,0
org.apache.ctakes.dictionary.lookup.filter.PostLookupFilter, 0, 0, 0, 0, 0, 0, 0, 0, 0, 0, 0, 0, 0, 0,0.0,0.0,0.0,0.0,0.0,0.0,0.0,0.0,0.0,0.0,0.0,0.0,0.0,45,ctakes-dictionary-lookup\src\main\java\org\apache\ctakes\dictionary\lookup\filter\PostLookupFilter.java,0,0,0,0
org.apache.ctakes.dictionary.lookup.filter.PostLookupFilterGroupImpl, 0, 0, 0, 0, 0, 0, 0, 0, 0, 0, 0, 0, 0, 0,0.0,0.0,0.0,0.0,0.0,0.0,0.0,0.0,0.0,0.0,0.0,0.0,0.0,44,ctakes-dictionary-lookup\src\main\java\org\apache\ctakes\dictionary\lookup\filter\PostLookupFilterGroupImpl.java,0,0,0,0
org.apache.ctakes.dictionary.lookup.filter.PreLookupFilter, 0, 0, 0, 0, 0, 0, 0, 0, 0, 0, 0, 0, 0, 0,0.0,0.0,0.0,0.0,0.0,0.0,0.0,0.0,0.0,0.0,0.0,0.0,0.0,44,ctakes-dictionary-lookup\src\main\java\org\apache\ctakes\dictionary\lookup\filter\PreLookupFilter.java,0,0,0,0
org.apache.ctakes.dictionary.lookup.filter.SetValuePostLookupFilterImpl, 0, 0, 0, 0, 0, 0, 0, 0, 0, 0, 0, 0, 0, 0,0.0,0.0,0.0,0.0,0.0,0.0,0.0,0.0,0.0,0.0,0.0,0.0,0.0,103,ctakes-dictionary-lookup\src\main\java\org\apache\ctakes\dictionary\lookup\filter\SetValuePostLookupFilterImpl.java,0,0,0,0
org.apache.ctakes.dictionary.lookup.filter.StringPreLookupFilterImpl, 0, 0, 0, 0, 0, 0, 0, 0, 0, 0, 0, 0, 0, 0,0.0,0.0,0.0,0.0,0.0,0.0,0.0,0.0,0.0,0.0,0.0,0.0,0.0,10,ctakes-dictionary-lookup\src\main\java\org\apache\ctakes\dictionary\lookup\filter\StringPreLookupFilterImpl.java,0,0,0,0
org.apache.ctakes.dictionary.lookup.lucene.LuceneDictionaryImpl, 0, 0, 0, 0, 0, 0, 0, 0, 0, 0, 0, 0, 0, 0,0.0,0.0,0.0,0.0,0.0,0.0,0.0,0.0,0.0,0.0,0.0,0.0,0.0,68,ctakes-dictionary-lookup\src\main\java\org\apache\ctakes\dictionary\lookup\lucene\LuceneDictionaryImpl.java,0,0,0,0
org.apache.ctakes.dictionary.lookup.lucene.LuceneDocumentMetaDataHitImpl, 0, 0, 0, 0, 0, 0, 0, 0, 0, 0, 0, 0, 0, 0,0.0,0.0,0.0,0.0,0.0,0.0,0.0,0.0,0.0,0.0,0.0,0.0,0.0,29,ctakes-dictionary-lookup\src\main\java\org\apache\ctakes\dictionary\lookup\lucene\LuceneDocumentMetaDataHitImpl.java,0,0,0,0
org.apache.ctakes.dictionary.lookup.phrasebuilder.PhraseBuilder, 0, 0, 0, 0, 0, 0, 0, 0, 0, 0, 0, 0, 0, 0,0.0,0.0,0.0,0.0,0.0,0.0,0.0,0.0,0.0,0.0,0.0,0.0,0.0,29,ctakes-dictionary-lookup\src\main\java\org\apache\ctakes\dictionary\lookup\phrasebuilder\PhraseBuilder.java,0,0,0,0
org.apache.ctakes.dictionary.lookup.phrasebuilder.VariantPhraseBuilderImpl, 0, 0, 0, 0, 0, 0, 0, 0, 0, 0, 0, 0, 0, 0,0.0,0.0,0.0,0.0,0.0,0.0,0.0,0.0,0.0,0.0,0.0,0.0,0.0,50,ctakes-dictionary-lookup\src\main\java\org\apache\ctakes\dictionary\lookup\phrasebuilder\VariantPhraseBuilderImpl.java,0,0,0,0
org.apache.ctakes.dictionary.lookup.strtable.FieldConstraint, 0, 0, 0, 0, 0, 0, 0, 0, 0, 0, 0, 0, 0, 0,0.0,0.0,0.0,0.0,0.0,0.0,0.0,0.0,0.0,0.0,0.0,0.0,0.0,50,ctakes-dictionary-lookup\src\main\java\org\apache\ctakes\dictionary\lookup\strtable\FieldConstraint.java,0,0,0,0
org.apache.ctakes.dictionary.lookup.strtable.FieldConstraintImpl, 0, 0, 0, 0, 0, 0, 0, 0, 0, 0, 0, 0, 0, 0,0.0,0.0,0.0,0.0,0.0,0.0,0.0,0.0,0.0,0.0,0.0,0.0,0.0,64,ctakes-dictionary-lookup\src\main\java\org\apache\ctakes\dictionary\lookup\strtable\FieldConstraintImpl.java,0,0,0,0
org.apache.ctakes.dictionary.lookup.strtable.StringTableDictionaryImpl, 0, 0, 0, 0, 0, 0, 0, 0, 0, 0, 0, 0, 0, 0,0.0,0.0,0.0,0.0,0.0,0.0,0.0,0.0,0.0,0.0,0.0,0.0,0.0,25,ctakes-dictionary-lookup\src\main\java\org\apache\ctakes\dictionary\lookup\strtable\StringTableDictionaryImpl.java,0,0,0,0
org.apache.ctakes.dictionary.lookup.strtable.StringTableFactory, 0, 0, 0, 0, 0, 0, 0, 1, 0, 0, 0, 0, 0, 1,0.0,0.0,0.0,0.0,0.0,0.0,0.0,0.0,0.0,0.0,0.0,0.0,0.0,75,ctakes-dictionary-lookup\src\main\java\org\apache\ctakes\dictionary\lookup\strtable\StringTableFactory.java,0,0,0,0
org.apache.ctakes.dictionary.lookup.strtable.StringTableRowMetaDataHitImpl, 0, 0, 0, 0, 0, 0, 0, 0, 0, 0, 0, 0, 0, 0,0.0,0.0,0.0,0.0,0.0,0.0,0.0,0.0,0.0,0.0,0.0,0.0,0.0,18,ctakes-dictionary-lookup\src\main\java\org\apache\ctakes\dictionary\lookup\strtable\StringTableRowMetaDataHitImpl.java,0,0,0,0
org.apache.ctakes.dictionary.lookup.tools.CreateLuceneIndexForExampleDrugs, 0, 0, 0, 0, 0, 0, 0, 0, 0, 0, 0, 0, 0, 0,0.0,0.0,0.0,0.0,0.0,0.0,0.0,0.0,0.0,0.0,0.0,0.0,0.0,39,ctakes-dictionary-lookup\scripts\java\org\apache\ctakes\dictionary\lookup\tools\CreateLuceneIndexForExampleDrugs.java,0,0,0,0
org.apache.ctakes.dictionary.lookup.tools.CreateLuceneIndexForSnomedLikeSample, 0, 0, 0, 0, 0, 0, 0, 0, 0, 0, 0, 0, 0, 0,0.0,0.0,0.0,0.0,0.0,0.0,0.0,0.0,0.0,0.0,0.0,0.0,0.0,123,ctakes-dictionary-lookup\scripts\java\org\apache\ctakes\dictionary\lookup\tools\CreateLuceneIndexForSnomedLikeSample.java,0,0,0,0
org.apache.ctakes.dictionary.lookup.vo.LookupAnnotation, 0, 0, 0, 0, 0, 0, 0, 0, 0, 0, 0, 0, 0, 0,0.0,0.0,0.0,0.0,0.0,0.0,0.0,0.0,0.0,0.0,0.0,0.0,0.0,123,ctakes-dictionary-lookup\src\main\java\org\apache\ctakes\dictionary\lookup\vo\LookupAnnotation.java,0,0,0,0
org.apache.ctakes.dictionary.lookup.vo.LookupHit, 0, 0, 0, 0, 0, 0, 0, 0, 0, 0, 0, 0, 0, 0,0.0,0.0,0.0,0.0,0.0,0.0,0.0,0.0,0.0,0.0,0.0,0.0,0.0,56,ctakes-dictionary-lookup\src\main\java\org\apache\ctakes\dictionary\lookup\vo\LookupHit.java,0,0,0,0
org.apache.ctakes.dictionary.lookup.vo.LookupToken, 0, 0, 0, 0, 0, 0, 0, 0, 0, 0, 0, 0, 0, 0,0.0,0.0,0.0,0.0,0.0,0.0,0.0,0.0,0.0,0.0,0.0,0.0,0.0,56,ctakes-dictionary-lookup\src\main\java\org\apache\ctakes\dictionary\lookup\vo\LookupToken.java,0,0,0,0
org.apache.ctakes.dictionary.lookup2.ae.DefaultJCasTermAnnotator, 0, 0, 0, 0, 0, 0, 0, 0, 0, 0, 0, 0, 0, 0,0.0,0.0,0.0,0.0,0.0,0.0,0.0,0.25,0.0,0.0,0.0,0.0,0.0,35,ctakes-dictionary-lookup-fast\src\main\java\org\apache\ctakes\dictionary\lookup2\ae\DefaultJCasTermAnnotator.java,0,0,0,0
org.apache.ctakes.dictionary.lookup2.ae.DictionaryLookupFactory, 0, 0, 0, 0, 0, 0, 0, 0, 0, 0, 0, 0, 0, 0,0.0,0.0,0.0,0.0,0.0,0.0,0.0,0.0,0.0,0.0,0.0,0.0,0.0,19,ctakes-dictionary-lookup-fast\src\main\java\org\apache\ctakes\dictionary\lookup2\ae\DictionaryLookupFactory.java,0,0,0,0
org.apache.ctakes.dictionary.lookup2.ae.JCasTermAnnotator, 0, 0, 0, 0, 0, 0, 0, 0, 0, 0, 0, 0, 0, 0,0.0,0.0,0.0,0.0,0.0,0.0,0.0,0.0,0.0,0.0,0.0,0.0,0.0,19,ctakes-dictionary-lookup-fast\src\main\java\org\apache\ctakes\dictionary\lookup2\ae\JCasTermAnnotator.java,0,0,0,0
org.apache.ctakes.dictionary.lookup2.ae.OverlapJCasTermAnnotator, 0, 0, 0, 0, 0, 0, 0, 1, 0, 0, 0, 0, 0, 1,0.0,0.0,0.0,0.0,0.0,0.0,0.0,0.3333333333333333,0.0,0.0,0.0,0.0,0.0,146,ctakes-dictionary-lookup-fast\src\main\java\org\apache\ctakes\dictionary\lookup2\ae\OverlapJCasTermAnnotator.java,0,0,0,0
org.apache.ctakes.dictionary.lookup2.concept.Concept, 0, 0, 0, 0, 0, 0, 0, 0, 0, 0, 0, 0, 0, 0,0.0,0.0,0.0,0.0,0.0,0.0,0.0,0.5,0.0,0.0,0.0,0.0,0.0,58,ctakes-dictionary-lookup-fast\src\main\java\org\apache\ctakes\dictionary\lookup2\concept\Concept.java,3,0,2,7
org.apache.ctakes.dictionary.lookup2.consumer.DefaultTermConsumer, 0, 0, 0, 0, 0, 0, 0, 1, 0, 0, 0, 0, 0, 1,0.0,0.0,0.0,0.0,0.0,0.0,0.0,0.3333333333333333,0.0,0.0,0.0,0.0,0.0,100,ctakes-dictionary-lookup-fast\src\main\java\org\apache\ctakes\dictionary\lookup2\consumer\DefaultTermConsumer.java,1,19,13,46
org.apache.ctakes.dictionary.lookup2.consumer.PrecisionTermConsumer, 0, 0, 0, 0, 0, 0, 0, 1, 0, 0, 0, 0, 0, 1,0.0,0.0,0.0,0.0,0.0,0.0,0.0,1.0,0.0,0.0,0.0,0.0,0.0,78,ctakes-dictionary-lookup-fast\src\main\java\org\apache\ctakes\dictionary\lookup2\consumer\PrecisionTermConsumer.java,0,0,2,4
org.apache.ctakes.dictionary.lookup2.consumer.SemanticCleanupTermConsumer, 0, 0, 0, 0, 0, 0, 0, 1, 0, 0, 0, 0, 0, 1,0.0,0.0,0.0,0.0,0.0,0.0,0.0,1.0,0.0,0.0,0.0,0.0,0.0,77,ctakes-dictionary-lookup-fast\src\main\java\org\apache\ctakes\dictionary\lookup2\consumer\SemanticCleanupTermConsumer.java,1,1,2,6
org.apache.ctakes.dictionary.lookup2.consumer.TermConsumer, 0, 0, 0, 0, 0, 0, 0, 0, 0, 0, 0, 0, 0, 0,0.0,0.0,0.0,0.0,0.0,0.0,0.0,0.0,0.0,0.0,0.0,0.0,0.0,77,ctakes-dictionary-lookup-fast\src\main\java\org\apache\ctakes\dictionary\lookup2\consumer\TermConsumer.java,0,0,1,2
org.apache.ctakes.dictionary.lookup2.dictionary.AbstractRareWordDictionary, 0, 0, 0, 0, 0, 0, 0, 0, 0, 0, 0, 0, 0, 0,0.0,0.0,0.0,0.0,0.0,0.0,0.0,0.0,0.0,0.0,0.0,0.0,0.0,20,ctakes-dictionary-lookup-fast\src\main\java\org\apache\ctakes\dictionary\lookup2\dictionary\AbstractRareWordDictionary.java,0,0,0,0
org.apache.ctakes.dictionary.lookup2.dictionary.MemRareWordDictionary, 0, 0, 0, 0, 0, 0, 0, 0, 0, 0, 0, 0, 0, 0,0.0,0.0,0.0,0.0,0.0,0.0,0.0,0.0,0.0,0.0,0.0,0.0,0.0,12,ctakes-dictionary-lookup-fast\src\main\java\org\apache\ctakes\dictionary\lookup2\dictionary\MemRareWordDictionary.java,0,0,0,0
org.apache.ctakes.dictionary.lookup2.dictionary.RareWordDictionary, 0, 0, 0, 0, 0, 0, 0, 0, 0, 0, 0, 0, 0, 0,0.0,0.0,0.0,0.0,0.0,0.0,0.0,0.0,0.0,0.0,0.0,0.0,0.0,12,ctakes-dictionary-lookup-fast\src\main\java\org\apache\ctakes\dictionary\lookup2\dictionary\RareWordDictionary.java,0,0,0,0
org.apache.ctakes.dictionary.lookup2.dictionary.UmlsJdbcRareWordDictionary, 0, 0, 0, 0, 0, 0, 0, 0, 0, 0, 0, 0, 0, 0,0.0,0.0,0.0,0.0,0.0,0.0,0.0,0.0,0.0,0.0,0.0,0.0,0.0,24,ctakes-dictionary-lookup-fast\src\main\java\org\apache\ctakes\dictionary\lookup2\dictionary\UmlsJdbcRareWordDictionary.java,0,0,1,2
org.apache.ctakes.dictionary.lookup2.term.RareWordTerm, 0, 0, 0, 0, 0, 0, 0, 1, 0, 0, 0, 0, 0, 1,0.0,0.0,0.0,0.0,0.0,0.0,0.0,0.25,0.0,0.0,0.0,0.0,0.0,45,ctakes-dictionary-lookup-fast\src\main\java\org\apache\ctakes\dictionary\lookup2\term\RareWordTerm.java,0,0,0,0
org.apache.ctakes.dictionary.lookup2.term.SpannedRareWordTerm, 0, 0, 0, 0, 0, 0, 0, 0, 0, 0, 0, 0, 0, 0,0.0,0.0,0.0,0.0,0.0,0.0,0.0,0.5,0.0,0.0,0.0,0.0,0.0,31,ctakes-dictionary-lookup-fast\src\main\java\org\apache\ctakes\dictionary\lookup2\term\SpannedRareWordTerm.java,0,0,0,0
org.apache.ctakes.dictionary.lookup2.textspan.DefaultTextSpan, 0, 0, 0, 0, 0, 0, 0, 0, 0, 0, 0, 0, 0, 0,0.0,0.0,0.0,0.0,0.0,0.0,0.0,0.25,0.0,0.0,0.0,0.0,0.0,36,ctakes-dictionary-lookup-fast\src\main\java\org\apache\ctakes\dictionary\lookup2\textspan\DefaultTextSpan.java,0,0,0,0
org.apache.ctakes.dictionary.lookup2.textspan.TextSpan, 0, 0, 0, 0, 0, 0, 0, 0, 0, 0, 0, 0, 0, 0,0.0,0.0,0.0,0.0,0.0,0.0,0.0,0.0,0.0,0.0,0.0,0.0,0.0,36,ctakes-dictionary-lookup-fast\src\main\java\org\apache\ctakes\dictionary\lookup2\textspan\TextSpan.java,0,0,0,0
org.apache.ctakes.dictionary.lookup2.util.DictionarySpec, 0, 0, 0, 0, 0, 0, 0, 0, 0, 0, 0, 0, 0, 0,0.0,0.0,0.0,0.0,0.0,0.0,0.0,0.0,0.0,0.0,0.0,0.0,0.0,36,ctakes-dictionary-lookup-fast\src\main\java\org\apache\ctakes\dictionary\lookup2\util\DictionarySpec.java,0,0,0,0
org.apache.ctakes.dictionary.lookup2.util.FastLookupToken, 0, 0, 0, 0, 0, 0, 0, 0, 0, 0, 0, 0, 0, 0,0.0,0.0,0.0,0.0,0.0,0.0,0.0,0.2,0.0,0.0,0.0,0.0,0.0,40,ctakes-dictionary-lookup-fast\src\main\java\org\apache\ctakes\dictionary\lookup2\util\FastLookupToken.java,0,0,0,0
org.apache.ctakes.dictionary.lookup2.util.LookupUtil, 0, 0, 0, 0, 0, 0, 0, 0, 0, 0, 0, 0, 0, 0,0.0,0.0,0.0,0.0,0.0,0.0,0.0,0.0,0.0,0.0,0.0,0.0,0.0,21,ctakes-dictionary-lookup-fast\src\main\java\org\apache\ctakes\dictionary\lookup2\util\LookupUtil.java,0,0,0,0
org.apache.ctakes.dictionary.lookup2.util.SemanticUtil, 0, 0, 0, 0, 0, 0, 0, 0, 0, 0, 0, 0, 0, 0,0.0,0.0,0.0,0.0,0.0,0.0,0.0,0.5,0.0,0.0,0.0,0.0,0.0,31,ctakes-dictionary-lookup-fast\src\main\java\org\apache\ctakes\dictionary\lookup2\util\SemanticUtil.java,0,0,0,0
org.apache.ctakes.dictionary.lookup2.util.TokenMatchUtil, 0, 0, 0, 0, 0, 0, 0, 0, 0, 0, 0, 0, 0, 0,0.0,0.0,0.0,0.0,0.0,0.0,0.0,0.5,0.0,0.0,0.0,0.0,0.0,38,ctakes-dictionary-lookup-fast\src\main\java\org\apache\ctakes\dictionary\lookup2\util\TokenMatchUtil.java,0,0,0,0
org.apache.ctakes.dictionary.lookup2.util.collection.CollectionCreator, 0, 0, 0, 0, 0, 0, 0, 0, 0, 0, 0, 0, 0, 0,0.0,0.0,0.0,0.0,0.0,0.0,0.0,0.0,0.0,0.0,0.0,0.0,0.0,38,ctakes-dictionary-lookup-fast\src\main\java\org\apache\ctakes\dictionary\lookup2\util\collection\CollectionCreator.java,0,0,0,0
org.apache.ctakes.dictionary.lookup2.util.collection.CollectionCreatorFactory, 0, 0, 0, 0, 0, 0, 0, 0, 0, 0, 0, 0, 0, 0,0.0,0.0,0.0,0.0,0.0,0.0,0.0,0.0,0.0,0.0,0.0,0.0,0.0,28,ctakes-dictionary-lookup-fast\src\main\java\org\apache\ctakes\dictionary\lookup2\util\collection\CollectionCreatorFactory.java,0,0,0,0
org.apache.ctakes.drugner.DrugModel, 0, 0, 0, 0, 0, 0, 0, 0, 0, 0, 0, 0, 0, 0,0.0,0.0,0.0,0.0,0.0,0.0,0.0,0.0,0.0,0.0,0.0,0.0,0.0,28,ctakes-drug-ner\src\main\java\org\apache\ctakes\drugner\DrugModel.java,0,0,0,0
org.apache.ctakes.drugner.ae.DrugMentionAnnotator, 1, 0, 1, 1, 0, 0, 0, 1, 0, 0, 0, 0, 0, 4,0.05555555555555555,0.0,0.0,0.05555555555555555,0.0,0.0,0.0,0.05555555555555555,0.0,0.0,0.0,0.0,0.0,2849,ctakes-drug-ner\src\main\java\org\apache\ctakes\drugner\ae\DrugMentionAnnotator.java,0,0,0,0
org.apache.ctakes.drugner.ae.impl.NegContextInitializerImpl, 0, 0, 0, 0, 0, 0, 0, 0, 0, 0, 0, 0, 0, 0,0.0,0.0,0.0,0.0,0.0,0.0,0.0,0.0,0.0,0.0,0.0,0.0,0.0,75,ctakes-drug-ner\src\main\java\org\apache\ctakes\drugner\ae\impl\NegContextInitializerImpl.java,0,0,0,0
org.apache.ctakes.drugner.cc.ConsumeNamedEntityRecordModel, 0, 0, 0, 1, 0, 0, 0, 0, 0, 0, 0, 0, 0, 1,0.0,0.0,0.0,0.0,0.0,0.0,0.0,1.0,0.0,0.0,0.0,0.0,0.0,362,ctakes-drug-ner\src\main\java\org\apache\ctakes\drugner\cc\ConsumeNamedEntityRecordModel.java,0,0,0,0
org.apache.ctakes.drugner.elements.AssociatedCodeElement, 0, 0, 0, 0, 0, 0, 0, 0, 0, 0, 0, 0, 0, 0,0.0,0.0,0.0,0.0,0.0,0.0,0.0,0.0,0.0,0.0,0.0,0.0,0.0,21,ctakes-drug-ner\src\main\java\org\apache\ctakes\drugner\elements\AssociatedCodeElement.java,0,0,0,0
org.apache.ctakes.drugner.elements.AssociatedPrimaryCodeElement, 0, 0, 0, 0, 0, 0, 0, 0, 0, 0, 0, 0, 0, 0,0.0,0.0,0.0,0.0,0.0,0.0,0.0,0.0,0.0,0.0,0.0,0.0,0.0,21,ctakes-drug-ner\src\main\java\org\apache\ctakes\drugner\elements\AssociatedPrimaryCodeElement.java,0,0,0,0
org.apache.ctakes.drugner.elements.AssociatedSecondaryCodeElement, 0, 0, 0, 0, 0, 0, 0, 0, 0, 0, 0, 0, 0, 0,0.0,0.0,0.0,0.0,0.0,0.0,0.0,0.0,0.0,0.0,0.0,0.0,0.0,21,ctakes-drug-ner\src\main\java\org\apache\ctakes\drugner\elements\AssociatedSecondaryCodeElement.java,0,0,0,0
org.apache.ctakes.drugner.elements.ConfidenceScoreElement, 0, 0, 0, 0, 0, 0, 0, 0, 0, 0, 0, 0, 0, 0,0.0,0.0,0.0,0.0,0.0,0.0,0.0,0.0,0.0,0.0,0.0,0.0,0.0,21,ctakes-drug-ner\src\main\java\org\apache\ctakes\drugner\elements\ConfidenceScoreElement.java,0,0,0,0
org.apache.ctakes.drugner.elements.DosageElement, 0, 0, 0, 0, 0, 0, 0, 0, 0, 0, 0, 0, 0, 0,0.0,0.0,0.0,0.0,0.0,0.0,0.0,0.0,0.0,0.0,0.0,0.0,0.0,21,ctakes-drug-ner\src\main\java\org\apache\ctakes\drugner\elements\DosageElement.java,0,0,0,0
org.apache.ctakes.drugner.elements.DrugChangeStatusElement, 0, 0, 0, 0, 0, 0, 0, 0, 0, 0, 0, 0, 0, 0,1.0,0.0,1.0,1.0,0.0,0.0,0.0,1.0,0.0,0.0,0.0,0.0,0.0,28,ctakes-drug-ner\src\main\java\org\apache\ctakes\drugner\elements\DrugChangeStatusElement.java,0,0,0,0
org.apache.ctakes.drugner.elements.DurationElement, 0, 0, 0, 0, 0, 0, 0, 0, 0, 0, 0, 0, 0, 0,0.0,0.0,0.0,0.0,0.0,0.0,0.0,0.0,0.0,0.0,0.0,0.0,0.0,21,ctakes-drug-ner\src\main\java\org\apache\ctakes\drugner\elements\DurationElement.java,0,0,0,0
org.apache.ctakes.drugner.elements.FormElement, 0, 0, 0, 1, 0, 0, 0, 0, 0, 0, 0, 0, 0, 1,0.0,0.0,0.0,0.0,0.0,0.0,0.0,0.0,0.0,0.0,0.0,0.0,0.0,46,ctakes-drug-ner\src\main\java\org\apache\ctakes\drugner\elements\FormElement.java,0,0,0,0
org.apache.ctakes.drugner.elements.FrequencyElement, 0, 0, 0, 0, 0, 0, 0, 0, 0, 0, 0, 0, 0, 0,1.0,0.0,1.0,1.0,0.0,0.0,0.0,1.0,0.0,0.0,0.0,0.0,0.0,21,ctakes-drug-ner\src\main\java\org\apache\ctakes\drugner\elements\FrequencyElement.java,0,0,0,0
org.apache.ctakes.drugner.elements.FrequencyUnitElement, 0, 0, 0, 0, 0, 0, 0, 0, 0, 0, 0, 0, 0, 0,0.0,0.0,0.0,0.0,0.0,0.0,0.0,0.0,0.0,0.0,0.0,0.0,0.0,28,ctakes-drug-ner\src\main\java\org\apache\ctakes\drugner\elements\FrequencyUnitElement.java,0,0,0,0
org.apache.ctakes.drugner.elements.RouteElement, 0, 0, 0, 1, 0, 0, 0, 0, 0, 0, 0, 0, 0, 1,0.0,0.0,0.0,0.0,0.0,0.0,0.0,0.0,0.0,0.0,0.0,0.0,0.0,34,ctakes-drug-ner\src\main\java\org\apache\ctakes\drugner\elements\RouteElement.java,0,0,0,0
org.apache.ctakes.drugner.elements.StartDateElement, 0, 0, 0, 0, 0, 0, 0, 0, 0, 0, 0, 0, 0, 0,0.0,0.0,0.0,0.0,0.0,0.0,0.0,0.0,0.0,0.0,0.0,0.0,0.0,21,ctakes-drug-ner\src\main\java\org\apache\ctakes\drugner\elements\StartDateElement.java,0,0,0,0
org.apache.ctakes.drugner.elements.StrengthElement, 0, 0, 0, 0, 0, 0, 0, 0, 0, 0, 0, 0, 0, 0,0.0,0.0,0.0,0.0,0.0,0.0,0.0,0.0,0.0,0.0,0.0,0.0,0.0,21,ctakes-drug-ner\src\main\java\org\apache\ctakes\drugner\elements\StrengthElement.java,0,0,0,0
org.apache.ctakes.drugner.elements.StrengthUnitElement, 0, 0, 0, 0, 0, 0, 0, 0, 0, 0, 0, 0, 0, 0,0.0,0.0,0.0,0.0,0.0,0.0,0.0,0.0,0.0,0.0,0.0,0.0,0.0,21,ctakes-drug-ner\src\main\java\org\apache\ctakes\drugner\elements\StrengthUnitElement.java,0,0,0,0
org.apache.ctakes.drugner.elements.TextMentionElement, 0, 0, 0, 0, 0, 0, 0, 0, 0, 0, 0, 0, 0, 0,0.0,0.0,0.0,0.0,0.0,0.0,0.0,0.0,0.0,0.0,0.0,0.0,0.0,21,ctakes-drug-ner\src\main\java\org\apache\ctakes\drugner\elements\TextMentionElement.java,0,0,0,0
org.apache.ctakes.drugner.fsm.elements.conditions.ContainsSetTextValueCondition, 0, 0, 0, 0, 0, 0, 0, 0, 0, 0, 0, 0, 0, 0,0.0,0.0,0.0,0.0,0.0,0.0,0.0,0.0,0.0,0.0,0.0,0.0,0.0,51,ctakes-drug-ner\src\main\java\org\apache\ctakes\drugner\fsm\elements\conditions\ContainsSetTextValueCondition.java,0,0,0,0
org.apache.ctakes.drugner.fsm.elements.conditions.DecimalStrengthStatusCondition, 0, 0, 0, 0, 0, 0, 0, 0, 0, 0, 0, 0, 0, 0,0.0,0.0,0.0,0.0,0.0,0.0,0.0,0.0,0.0,0.0,0.0,0.0,0.0,11,ctakes-drug-ner\src\main\java\org\apache\ctakes\drugner\fsm\elements\conditions\DecimalStrengthStatusCondition.java,0,0,0,0
org.apache.ctakes.drugner.fsm.elements.conditions.DosageCondition, 0, 0, 0, 0, 0, 0, 0, 0, 0, 0, 0, 0, 0, 0,0.0,0.0,0.0,0.0,0.0,0.0,0.0,0.0,0.0,0.0,0.0,0.0,0.0,11,ctakes-drug-ner\src\main\java\org\apache\ctakes\drugner\fsm\elements\conditions\DosageCondition.java,0,0,0,0
org.apache.ctakes.drugner.fsm.elements.conditions.DrugChangeStatusCondition, 0, 0, 0, 0, 0, 0, 0, 0, 0, 0, 0, 0, 0, 0,0.0,0.0,0.0,0.0,0.0,0.0,0.0,0.0,0.0,0.0,0.0,0.0,0.0,11,ctakes-drug-ner\src\main\java\org\apache\ctakes\drugner\fsm\elements\conditions\DrugChangeStatusCondition.java,0,0,0,0
org.apache.ctakes.drugner.fsm.elements.conditions.FormCondition, 0, 0, 0, 0, 0, 0, 0, 0, 0, 0, 0, 0, 0, 0,0.0,0.0,0.0,0.0,0.0,0.0,0.0,0.0,0.0,0.0,0.0,0.0,0.0,11,ctakes-drug-ner\src\main\java\org\apache\ctakes\drugner\fsm\elements\conditions\FormCondition.java,0,0,0,0
org.apache.ctakes.drugner.fsm.elements.conditions.FractionCondition, 0, 0, 0, 0, 0, 0, 0, 0, 0, 0, 0, 0, 0, 0,0.0,0.0,0.0,0.0,0.0,0.0,0.0,0.0,0.0,0.0,0.0,0.0,0.0,11,ctakes-drug-ner\src\main\java\org\apache\ctakes\drugner\fsm\elements\conditions\FractionCondition.java,0,0,0,0
org.apache.ctakes.drugner.fsm.elements.conditions.FractionStrengthCondition, 0, 0, 0, 0, 0, 0, 0, 0, 0, 0, 0, 0, 0, 0,0.0,0.0,0.0,0.0,0.0,0.0,0.0,0.0,0.0,0.0,0.0,0.0,0.0,11,ctakes-drug-ner\src\main\java\org\apache\ctakes\drugner\fsm\elements\conditions\FractionStrengthCondition.java,0,0,0,0
org.apache.ctakes.drugner.fsm.elements.conditions.FrequencyUnitCondition, 0, 0, 0, 0, 0, 0, 0, 0, 0, 0, 0, 0, 0, 0,0.0,0.0,0.0,0.0,0.0,0.0,0.0,0.0,0.0,0.0,0.0,0.0,0.0,11,ctakes-drug-ner\src\main\java\org\apache\ctakes\drugner\fsm\elements\conditions\FrequencyUnitCondition.java,0,0,0,0
org.apache.ctakes.drugner.fsm.elements.conditions.RangeDosageCondition, 0, 0, 0, 0, 0, 0, 0, 0, 0, 0, 0, 0, 0, 0,0.0,0.0,0.0,0.0,0.0,0.0,0.0,0.0,0.0,0.0,0.0,0.0,0.0,11,ctakes-drug-ner\src\main\java\org\apache\ctakes\drugner\fsm\elements\conditions\RangeDosageCondition.java,0,0,0,0
org.apache.ctakes.drugner.fsm.elements.conditions.RangeStrengthCondition, 0, 0, 0, 0, 0, 0, 0, 0, 0, 0, 0, 0, 0, 0,0.0,0.0,0.0,0.0,0.0,0.0,0.0,0.0,0.0,0.0,0.0,0.0,0.0,11,ctakes-drug-ner\src\main\java\org\apache\ctakes\drugner\fsm\elements\conditions\RangeStrengthCondition.java,0,0,0,0
org.apache.ctakes.drugner.fsm.elements.conditions.RouteCondition, 0, 0, 0, 0, 0, 0, 0, 0, 0, 0, 0, 0, 0, 0,0.0,0.0,0.0,0.0,0.0,0.0,0.0,0.0,0.0,0.0,0.0,0.0,0.0,11,ctakes-drug-ner\src\main\java\org\apache\ctakes\drugner\fsm\elements\conditions\RouteCondition.java,0,0,0,0
org.apache.ctakes.drugner.fsm.elements.conditions.StrengthCondition, 0, 0, 0, 0, 0, 0, 0, 0, 0, 0, 0, 0, 0, 0,0.0,0.0,0.0,0.0,0.0,0.0,0.0,0.0,0.0,0.0,0.0,0.0,0.0,11,ctakes-drug-ner\src\main\java\org\apache\ctakes\drugner\fsm\elements\conditions\StrengthCondition.java,0,0,0,0
org.apache.ctakes.drugner.fsm.elements.conditions.StrengthUnitCombinedCondition, 0, 0, 0, 0, 0, 0, 0, 0, 0, 0, 0, 0, 0, 0,0.0,0.0,0.0,0.0,0.0,0.0,0.0,0.0,0.0,0.0,0.0,0.0,0.0,11,ctakes-drug-ner\src\main\java\org\apache\ctakes\drugner\fsm\elements\conditions\StrengthUnitCombinedCondition.java,0,0,0,0
org.apache.ctakes.drugner.fsm.elements.conditions.StrengthUnitCondition, 0, 0, 0, 0, 0, 0, 0, 0, 0, 0, 0, 0, 0, 0,0.0,0.0,0.0,0.0,0.0,0.0,0.0,0.0,0.0,0.0,0.0,0.0,0.0,11,ctakes-drug-ner\src\main\java\org\apache\ctakes\drugner\fsm\elements\conditions\StrengthUnitCondition.java,0,0,0,0
org.apache.ctakes.drugner.fsm.elements.conditions.TimeCondition, 0, 0, 0, 0, 0, 0, 0, 0, 0, 0, 0, 0, 0, 0,0.0,0.0,0.0,0.0,0.0,0.0,0.0,0.0,0.0,0.0,0.0,0.0,0.0,11,ctakes-drug-ner\src\main\java\org\apache\ctakes\drugner\fsm\elements\conditions\TimeCondition.java,0,0,0,0
org.apache.ctakes.drugner.fsm.output.elements.AssociatedCodeToken, 0, 0, 0, 0, 0, 0, 0, 0, 0, 0, 0, 0, 0, 0,0.0,0.0,0.0,0.0,0.0,0.0,0.0,0.0,0.0,0.0,0.0,0.0,0.0,5,ctakes-drug-ner\src\main\java\org\apache\ctakes\drugner\fsm\output\elements\AssociatedCodeToken.java,0,0,0,0
org.apache.ctakes.drugner.fsm.output.elements.BaseTokenImpl, 0, 0, 0, 0, 0, 0, 0, 0, 0, 0, 0, 0, 0, 0,0.047619047619047616,0.0,0.047619047619047616,0.09523809523809523,0.0,0.0,0.0,0.047619047619047616,0.0,0.0,0.0,0.0,0.0,18,ctakes-drug-ner\src\main\java\org\apache\ctakes\drugner\fsm\output\elements\BaseTokenImpl.java,0,0,0,0
org.apache.ctakes.drugner.fsm.output.elements.ConfidenceScoreToken, 0, 0, 0, 0, 0, 0, 0, 0, 0, 0, 0, 0, 0, 0,0.0,0.0,0.0,0.0,0.0,0.0,0.0,0.0,0.0,0.0,0.0,0.0,0.0,5,ctakes-drug-ner\src\main\java\org\apache\ctakes\drugner\fsm\output\elements\ConfidenceScoreToken.java,0,0,0,0
org.apache.ctakes.drugner.fsm.output.elements.DosageToken, 0, 0, 0, 0, 0, 0, 0, 0, 0, 0, 0, 0, 0, 0,0.0,0.0,0.0,0.0,0.0,0.0,0.0,0.0,0.0,0.0,0.0,0.0,0.0,5,ctakes-drug-ner\src\main\java\org\apache\ctakes\drugner\fsm\output\elements\DosageToken.java,0,0,0,0
org.apache.ctakes.drugner.fsm.output.elements.DrugChangeStatusToken, 0, 0, 0, 0, 0, 0, 0, 0, 0, 0, 0, 0, 0, 0,0.5,0.0,0.5,0.5,0.0,0.0,0.0,0.5,0.0,0.0,0.0,0.0,0.0,25,ctakes-drug-ner\src\main\java\org\apache\ctakes\drugner\fsm\output\elements\DrugChangeStatusToken.java,0,0,0,0
org.apache.ctakes.drugner.fsm.output.elements.DurationToken, 0, 0, 0, 0, 0, 0, 0, 0, 0, 0, 0, 0, 0, 0,0.0,0.0,0.0,0.0,0.0,0.0,0.0,0.0,0.0,0.0,0.0,0.0,0.0,5,ctakes-drug-ner\src\main\java\org\apache\ctakes\drugner\fsm\output\elements\DurationToken.java,0,0,0,0
org.apache.ctakes.drugner.fsm.output.elements.FormToken, 0, 0, 0, 0, 0, 0, 0, 0, 0, 0, 0, 0, 0, 0,0.0,0.0,0.0,0.0,0.0,0.0,0.0,0.0,0.0,0.0,0.0,0.0,0.0,5,ctakes-drug-ner\src\main\java\org\apache\ctakes\drugner\fsm\output\elements\FormToken.java,0,0,0,0
org.apache.ctakes.drugner.fsm.output.elements.FrequencyToken, 0, 0, 0, 0, 0, 0, 0, 0, 0, 0, 0, 0, 0, 0,0.0,0.0,0.0,0.0,0.0,0.0,0.0,0.0,0.0,0.0,0.0,0.0,0.0,7,ctakes-drug-ner\src\main\java\org\apache\ctakes\drugner\fsm\output\elements\FrequencyToken.java,0,0,0,0
org.apache.ctakes.drugner.fsm.output.elements.FrequencyUnitToken, 0, 0, 0, 1, 0, 0, 0, 0, 0, 0, 0, 0, 0, 1,0.5,0.0,0.5,0.5,0.0,0.0,0.0,0.5,0.0,0.0,0.0,0.0,0.0,31,ctakes-drug-ner\src\main\java\org\apache\ctakes\drugner\fsm\output\elements\FrequencyUnitToken.java,0,0,0,0
org.apache.ctakes.drugner.fsm.output.elements.RouteToken, 0, 0, 0, 0, 0, 0, 0, 0, 0, 0, 0, 0, 0, 0,0.5,0.0,0.5,0.5,0.0,0.0,0.0,0.5,0.0,0.0,0.0,0.0,0.0,24,ctakes-drug-ner\src\main\java\org\apache\ctakes\drugner\fsm\output\elements\RouteToken.java,0,0,0,0
org.apache.ctakes.drugner.fsm.output.elements.StrengthToken, 0, 0, 0, 0, 0, 0, 0, 0, 0, 0, 0, 0, 0, 0,0.0,0.0,0.0,0.0,0.0,0.0,0.0,0.0,0.0,0.0,0.0,0.0,0.0,5,ctakes-drug-ner\src\main\java\org\apache\ctakes\drugner\fsm\output\elements\StrengthToken.java,0,0,0,0
org.apache.ctakes.drugner.fsm.output.elements.StrengthUnitCombinedToken, 0, 0, 0, 0, 0, 0, 0, 0, 0, 0, 0, 0, 0, 0,0.0,0.0,0.0,0.0,0.0,0.0,0.0,0.0,0.0,0.0,0.0,0.0,0.0,5,ctakes-drug-ner\src\main\java\org\apache\ctakes\drugner\fsm\output\elements\StrengthUnitCombinedToken.java,0,0,0,0
org.apache.ctakes.drugner.fsm.output.elements.StrengthUnitToken, 0, 0, 0, 0, 0, 0, 0, 0, 0, 0, 0, 0, 0, 0,0.0,0.0,0.0,0.0,0.0,0.0,0.0,0.0,0.0,0.0,0.0,0.0,0.0,5,ctakes-drug-ner\src\main\java\org\apache\ctakes\drugner\fsm\output\elements\StrengthUnitToken.java,0,0,0,0
org.apache.ctakes.drugner.fsm.output.util.DecimalStrengthToken, 0, 0, 0, 0, 0, 0, 0, 0, 0, 0, 0, 0, 0, 0,0.0,0.0,0.0,0.0,0.0,0.0,0.0,0.0,0.0,0.0,0.0,0.0,0.0,7,ctakes-drug-ner\src\main\java\org\apache\ctakes\drugner\fsm\output\util\DecimalStrengthToken.java,0,0,0,0
org.apache.ctakes.drugner.fsm.output.util.FractionStrengthToken, 0, 0, 0, 0, 0, 0, 0, 0, 0, 0, 0, 0, 0, 0,0.0,0.0,0.0,0.0,0.0,0.0,0.0,0.0,0.0,0.0,0.0,0.0,0.0,7,ctakes-drug-ner\src\main\java\org\apache\ctakes\drugner\fsm\output\util\FractionStrengthToken.java,0,0,0,0
org.apache.ctakes.drugner.fsm.output.util.FractionToken, 0, 0, 0, 0, 0, 0, 0, 0, 0, 0, 0, 0, 0, 0,0.0,0.0,0.0,0.0,0.0,0.0,0.0,0.0,0.0,0.0,0.0,0.0,0.0,7,ctakes-drug-ner\src\main\java\org\apache\ctakes\drugner\fsm\output\util\FractionToken.java,0,0,0,0
org.apache.ctakes.drugner.fsm.output.util.HyphenatedDrugToken, 0, 0, 0, 0, 0, 0, 0, 0, 0, 0, 0, 0, 0, 0,0.0,0.0,0.0,0.0,0.0,0.0,0.0,0.0,0.0,0.0,0.0,0.0,0.0,7,ctakes-drug-ner\src\main\java\org\apache\ctakes\drugner\fsm\output\util\HyphenatedDrugToken.java,0,0,0,0
org.apache.ctakes.drugner.fsm.output.util.NonIndicator, 0, 0, 0, 0, 0, 0, 0, 0, 0, 0, 0, 0, 0, 0,0.0,0.0,0.0,0.0,0.0,0.0,0.0,0.0,0.0,0.0,0.0,0.0,0.0,7,ctakes-drug-ner\src\main\java\org\apache\ctakes\drugner\fsm\output\util\NonIndicator.java,0,0,0,0
org.apache.ctakes.drugner.fsm.output.util.RangeStrengthToken, 0, 0, 0, 0, 0, 0, 0, 0, 0, 0, 0, 0, 0, 0,0.0,0.0,0.0,0.0,0.0,0.0,0.0,0.0,0.0,0.0,0.0,0.0,0.0,7,ctakes-drug-ner\src\main\java\org\apache\ctakes\drugner\fsm\output\util\RangeStrengthToken.java,0,0,0,0
org.apache.ctakes.drugner.fsm.output.util.RangeToken, 0, 0, 0, 0, 0, 0, 0, 0, 0, 0, 0, 0, 0, 0,0.0,0.0,0.0,0.0,0.0,0.0,0.0,0.0,0.0,0.0,0.0,0.0,0.0,7,ctakes-drug-ner\src\main\java\org\apache\ctakes\drugner\fsm\output\util\RangeToken.java,0,0,0,0
org.apache.ctakes.drugner.fsm.output.util.SubSectionIndicator, 0, 0, 0, 0, 0, 0, 0, 0, 0, 0, 0, 0, 0, 0,0.5,0.0,0.5,0.5,0.0,0.0,0.0,0.5,0.0,0.0,0.0,0.0,0.0,17,ctakes-drug-ner\src\main\java\org\apache\ctakes\drugner\fsm\output\util\SubSectionIndicator.java,0,0,0,0
org.apache.ctakes.drugner.fsm.output.util.SuffixFrequencyToken, 0, 0, 0, 0, 0, 0, 0, 0, 0, 0, 0, 0, 0, 0,0.0,0.0,0.0,0.0,0.0,0.0,0.0,0.0,0.0,0.0,0.0,0.0,0.0,5,ctakes-drug-ner\src\main\java\org\apache\ctakes\drugner\fsm\output\util\SuffixFrequencyToken.java,0,0,0,0
org.apache.ctakes.drugner.fsm.output.util.SuffixStrengthToken, 0, 0, 0, 0, 0, 0, 0, 0, 0, 0, 0, 0, 0, 0,0.0,0.0,0.0,0.0,0.0,0.0,0.0,0.0,0.0,0.0,0.0,0.0,0.0,5,ctakes-drug-ner\src\main\java\org\apache\ctakes\drugner\fsm\output\util\SuffixStrengthToken.java,0,0,0,0
org.apache.ctakes.drugner.fsm.states.util.IndentStartState, 0, 0, 0, 0, 0, 0, 0, 0, 0, 0, 0, 0, 0, 0,0.0,0.0,0.0,0.0,0.0,0.0,0.0,0.0,0.0,0.0,0.0,0.0,0.0,14,ctakes-drug-ner\src\main\java\org\apache\ctakes\drugner\fsm\states\util\IndentStartState.java,0,0,0,0
org.apache.ctakes.examples.ae.ExampleHelloWorldAnnotator, 0, 0, 0, 0, 0, 0, 0, 0, 0, 0, 0, 0, 0, 0,0.0,0.0,0.0,0.0,0.0,0.0,0.0,0.0,0.0,0.0,0.0,0.0,0.0,46,ctakes-examples\src\main\java\org\apache\ctakes\examples\ae\ExampleHelloWorldAnnotator.java,0,0,0,0
org.apache.ctakes.examples.pipelines.ExampleAggregatePipeline, 0, 0, 0, 0, 0, 0, 0, 0, 0, 0, 0, 0, 0, 0,0.0,0.0,0.0,0.0,0.0,0.0,0.0,0.0,0.0,0.0,0.0,0.0,0.0,16,ctakes-examples\src\main\java\org\apache\ctakes\examples\pipelines\ExampleAggregatePipeline.java,0,0,0,0
org.apache.ctakes.jdl.App, 0, 0, 0, 0, 0, 0, 0, 0, 0, 0, 0, 0, 0, 0,0.0,0.0,0.0,0.0,0.0,0.0,0.0,0.0,0.0,0.0,0.0,0.0,0.0,7,ctakes-ytex\src\main\java\org\apache\ctakes\jdl\App.java,0,0,0,0
org.apache.ctakes.jdl.AppJdl, 0, 0, 0, 0, 0, 0, 0, 0, 0, 0, 0, 0, 0, 0,0.0,0.0,0.0,0.0,0.0,0.0,0.0,0.0,0.0,0.0,0.0,0.0,0.0,59,ctakes-ytex\src\main\java\org\apache\ctakes\jdl\AppJdl.java,0,0,0,0
org.apache.ctakes.jdl.AppJdlTest, 0, 0, 0, 0, 0, 0, 0, 0, 0, 0, 0, 0, 0, 0,0.0,0.0,0.0,0.0,0.0,0.0,0.0,0.0,0.0,0.0,0.0,0.0,0.0,36,ctakes-ytex\src\test\java\org\apache\ctakes\jdl\AppJdlTest.java,0,0,0,0
org.apache.ctakes.jdl.AppMain, 0, 0, 0, 0, 0, 0, 0, 0, 0, 0, 0, 0, 0, 0,0.0,0.0,0.0,0.0,0.0,0.0,0.0,0.0,0.0,0.0,0.0,0.0,0.0,42,ctakes-ytex\src\main\java\org\apache\ctakes\jdl\AppMain.java,0,0,0,0
org.apache.ctakes.jdl.AppMainTest, 0, 0, 0, 0, 0, 0, 0, 0, 0, 0, 0, 0, 0, 0,0.0,0.0,0.0,0.0,0.0,0.0,0.0,0.0,0.0,0.0,0.0,0.0,0.0,54,ctakes-ytex\src\test\java\org\apache\ctakes\jdl\AppMainTest.java,0,0,0,0
org.apache.ctakes.jdl.AppTest, 0, 0, 0, 0, 0, 0, 0, 0, 0, 0, 0, 0, 0, 0,0.0,0.0,0.0,0.0,0.0,0.0,0.0,0.0,0.0,0.0,0.0,0.0,0.0,16,ctakes-ytex\src\test\java\org\apache\ctakes\jdl\AppTest.java,0,0,0,0
org.apache.ctakes.jdl.common.FileUtil, 0, 0, 0, 0, 0, 0, 0, 0, 0, 0, 0, 0, 0, 0,1.0,0.0,1.0,0.0,0.0,0.0,0.0,0.0,0.0,0.0,0.0,0.0,0.0,34,ctakes-ytex\src\main\java\org\apache\ctakes\jdl\common\FileUtil.java,0,0,0,0
org.apache.ctakes.jdl.common.FileUtilTest, 1, 0, 1, 0, 0, 0, 0, 0, 0, 0, 0, 0, 0, 2,0.0,0.0,0.0,0.0,0.0,0.0,0.0,0.0,0.0,0.0,0.0,0.0,0.0,32,ctakes-ytex\src\test\java\org\apache\ctakes\jdl\common\FileUtilTest.java,0,0,0,0
org.apache.ctakes.jdl.common.Singleton, 0, 0, 0, 0, 0, 0, 0, 0, 0, 0, 0, 0, 0, 0,0.0,0.0,0.0,0.0,0.0,0.0,0.0,0.0,0.0,0.0,0.0,0.0,0.0,11,ctakes-ytex\src\main\java\org\apache\ctakes\jdl\common\Singleton.java,0,0,0,0
org.apache.ctakes.jdl.common.SingletonTest, 0, 0, 0, 0, 0, 0, 0, 0, 0, 0, 0, 0, 0, 0,0.0,0.0,0.0,0.0,0.0,0.0,0.0,0.0,0.0,0.0,0.0,0.0,0.0,12,ctakes-ytex\src\test\java\org\apache\ctakes\jdl\common\SingletonTest.java,0,0,0,0
org.apache.ctakes.jdl.data.base.JdlConnection, 0, 0, 0, 0, 0, 0, 0, 0, 0, 0, 0, 0, 0, 0,0.0,0.0,0.0,0.0,0.0,0.0,0.0,0.0,0.0,0.0,0.0,0.0,0.0,49,ctakes-ytex\src\main\java\org\apache\ctakes\jdl\data\base\JdlConnection.java,0,0,0,0
org.apache.ctakes.jdl.data.base.JdlConnectionTest, 0, 0, 0, 0, 0, 0, 0, 0, 0, 0, 0, 0, 0, 0,0.0,0.0,0.0,0.0,0.0,0.0,0.0,0.0,0.0,0.0,0.0,0.0,0.0,34,ctakes-ytex\src\test\java\org\apache\ctakes\jdl\data\base\JdlConnectionTest.java,0,0,0,0
org.apache.ctakes.jdl.data.loader.CsvLoaderTest, 0, 0, 0, 0, 0, 0, 0, 0, 0, 0, 0, 0, 0, 0,0.0,0.0,0.0,0.0,0.0,0.0,0.0,0.0,0.0,0.0,0.0,0.0,0.0,24,ctakes-ytex\src\test\java\org\apache\ctakes\jdl\data\loader\CsvLoaderTest.java,0,0,0,0
org.apache.ctakes.jdl.data.loader.Loader, 0, 0, 0, 0, 0, 0, 0, 0, 0, 0, 0, 0, 0, 0,0.0,0.0,0.0,0.0,0.0,0.0,0.0,0.0,0.0,0.0,0.0,0.0,0.0,11,ctakes-ytex\src\main\java\org\apache\ctakes\jdl\data\loader\Loader.java,0,0,0,0
org.apache.ctakes.jdl.data.loader.XmlLoader, 0, 0, 0, 0, 0, 0, 0, 0, 0, 0, 0, 0, 0, 0,0.0,0.0,0.0,0.0,0.0,0.0,0.0,0.0,0.0,0.0,0.0,0.0,0.0,74,ctakes-ytex\src\main\java\org\apache\ctakes\jdl\data\loader\XmlLoader.java,0,0,0,0
org.apache.ctakes.jdl.data.loader.XmlLoaderTest, 0, 0, 0, 0, 0, 0, 0, 0, 0, 0, 0, 0, 0, 0,0.0,0.0,0.0,0.0,0.0,0.0,0.0,0.0,0.0,0.0,0.0,0.0,0.0,24,ctakes-ytex\src\test\java\org\apache\ctakes\jdl\data\loader\XmlLoaderTest.java,0,0,0,0
org.apache.ctakes.jdl.data.xml.DomParser, 0, 0, 0, 0, 0, 0, 0, 0, 0, 0, 0, 0, 0, 0,1.0,0.0,1.0,0.0,0.0,0.0,0.0,0.0,0.0,0.0,0.0,0.0,0.0,31,ctakes-ytex\src\main\java\org\apache\ctakes\jdl\data\xml\DomParser.java,0,0,0,0
org.apache.ctakes.jdl.data.xml.DomParserTest, 1, 0, 1, 0, 0, 0, 0, 0, 0, 0, 0, 0, 0, 2,0.0,0.0,0.0,0.0,0.0,0.0,0.0,0.0,0.0,0.0,0.0,0.0,0.0,20,ctakes-ytex\src\test\java\org\apache\ctakes\jdl\data\xml\DomParserTest.java,0,0,0,0
org.apache.ctakes.jdl.data.xml.DomUtil, 0, 0, 0, 0, 0, 0, 0, 0, 0, 0, 0, 0, 0, 0,0.4,0.0,0.4,0.0,0.0,0.0,0.0,0.0,0.0,0.0,0.0,0.0,0.0,66,ctakes-ytex\src\main\java\org\apache\ctakes\jdl\data\xml\DomUtil.java,0,0,0,0
org.apache.ctakes.jdl.data.xml.DomUtilTest, 1, 0, 1, 0, 0, 0, 0, 0, 0, 0, 0, 0, 0, 2,0.0,0.0,0.0,0.0,0.0,0.0,0.0,0.0,0.0,0.0,0.0,0.0,0.0,35,ctakes-ytex\src\test\java\org\apache\ctakes\jdl\data\xml\DomUtilTest.java,0,0,0,0
org.apache.ctakes.jdl.data.xml.SaxParser, 0, 0, 0, 0, 0, 0, 0, 0, 0, 0, 0, 0, 0, 0,0.0,0.0,0.0,0.0,0.0,0.0,0.0,0.0,0.0,0.0,0.0,0.0,0.0,49,ctakes-ytex\src\main\java\org\apache\ctakes\jdl\data\xml\SaxParser.java,0,0,0,0
org.apache.ctakes.jdl.data.xml.SchemaUtil, 0, 0, 0, 0, 0, 0, 0, 0, 0, 0, 0, 0, 0, 0,0.5,0.0,0.5,0.0,0.0,0.0,0.0,0.0,0.0,0.0,0.0,0.0,0.0,48,ctakes-ytex\src\main\java\org\apache\ctakes\jdl\data\xml\SchemaUtil.java,0,0,0,0
org.apache.ctakes.jdl.data.xml.ValidationTest, 1, 0, 1, 0, 0, 0, 0, 0, 0, 0, 0, 0, 0, 2,0.0,0.0,0.0,0.0,0.0,0.0,0.0,0.0,0.0,0.0,0.0,0.0,0.0,44,ctakes-ytex\src\test\java\org\apache\ctakes\jdl\data\xml\ValidationTest.java,0,0,0,0
org.apache.ctakes.jdl.data.xml.jaxb.ObjectFactoryBind, 0, 0, 0, 0, 0, 0, 0, 0, 0, 0, 0, 0, 0, 0,0.5,0.0,0.5,0.0,0.0,0.0,0.0,0.0,0.0,0.0,0.0,0.0,0.0,20,ctakes-ytex\src\main\java\org\apache\ctakes\jdl\data\xml\jaxb\ObjectFactoryBind.java,0,0,0,0
org.apache.ctakes.jdl.data.xml.jaxb.ObjectFactoryBindTest, 1, 0, 1, 0, 0, 0, 0, 0, 0, 0, 0, 0, 0, 2,0.0,0.0,0.0,0.0,0.0,0.0,0.0,0.0,0.0,0.0,0.0,0.0,0.0,22,ctakes-ytex\src\test\java\org\apache\ctakes\jdl\data\xml\jaxb\ObjectFactoryBindTest.java,0,0,0,0
org.apache.ctakes.jdl.data.xml.jaxb.ObjectFactoryUtil, 0, 0, 0, 0, 0, 0, 0, 0, 0, 0, 0, 0, 0, 0,0.125,0.0,0.125,0.0,0.0,0.0,0.0,0.0,0.0,0.0,0.0,0.0,0.0,35,ctakes-ytex\src\main\java\org\apache\ctakes\jdl\data\xml\jaxb\ObjectFactoryUtil.java,0,0,0,0
org.apache.ctakes.jdl.data.xml.jaxb.ObjectFactoryUtilTest, 1, 0, 1, 0, 0, 0, 0, 0, 0, 0, 0, 0, 0, 2,0.0,0.0,0.0,0.0,0.0,0.0,0.0,0.0,0.0,0.0,0.0,0.0,0.0,37,ctakes-ytex\src\test\java\org\apache\ctakes\jdl\data\xml\jaxb\ObjectFactoryUtilTest.java,0,0,0,0
org.apache.ctakes.jdl.test.PropFileMaps, 0, 0, 0, 0, 0, 0, 0, 0, 0, 0, 0, 0, 0, 0,0.0,0.0,0.0,0.0,0.0,0.0,0.0,0.0,0.0,0.0,0.0,0.0,0.0,14,ctakes-ytex\src\test\java\org\apache\ctakes\jdl\test\PropFileMaps.java,0,0,0,0
org.apache.ctakes.jdl.test.Resources, 0, 0, 0, 1, 0, 0, 0, 0, 0, 0, 0, 0, 0, 1,0.0,0.0,0.0,0.0,0.0,0.0,0.0,0.0,0.0,0.0,0.0,0.0,0.0,20,ctakes-ytex\src\test\java\org\apache\ctakes\jdl\test\Resources.java,0,0,0,0
org.apache.ctakes.jdl.test.SqlJdl, 0, 0, 0, 0, 0, 0, 0, 0, 0, 0, 0, 0, 0, 0,0.0,0.0,0.0,0.0,0.0,0.0,0.0,0.0,0.0,0.0,0.0,0.0,0.0,41,ctakes-ytex\src\test\java\org\apache\ctakes\jdl\test\SqlJdl.java,0,0,0,0
org.apache.ctakes.lvg.resource.LvgCmdApiResource, 0, 0, 0, 0, 0, 0, 0, 0, 0, 0, 0, 0, 0, 0,0.0,0.0,0.0,0.0,0.0,0.0,0.0,0.0,0.0,0.0,0.0,0.0,0.0,41,ctakes-lvg\src\main\java\org\apache\ctakes\lvg\resource\LvgCmdApiResource.java,0,0,0,0
org.apache.ctakes.lvg.resource.LvgCmdApiResourceImpl, 0, 0, 0, 0, 0, 0, 0, 0, 0, 0, 0, 0, 0, 0,0.0,0.0,0.0,0.0,0.0,0.0,0.0,0.0,0.0,0.0,0.0,0.0,0.0,74,ctakes-lvg\src\main\java\org\apache\ctakes\lvg\resource\LvgCmdApiResourceImpl.java,0,0,0,0
org.apache.ctakes.lvg.test.TestLvgAnnotator, 0, 0, 0, 0, 0, 0, 0, 0, 0, 0, 0, 0, 0, 0,0.3333333333333333,0.0,0.0,0.3333333333333333,0.0,0.0,0.0,0.0,0.0,0.0,0.0,0.0,0.0,31,ctakes-lvg\src\main\test\org\apache\ctakes\lvg\test\TestLvgAnnotator.java,0,0,0,0
org.apache.ctakes.necontexts.ContextAnalyzer, 0, 0, 0, 0, 0, 0, 0, 0, 0, 0, 0, 0, 0, 0,0.0,0.0,0.0,0.0,0.0,0.0,0.0,0.0,0.0,0.0,0.0,0.0,0.0,31,ctakes-ne-contexts\src\main\java\org\apache\ctakes\necontexts\ContextAnalyzer.java,0,0,0,0
org.apache.ctakes.necontexts.ContextAnalyzerAdapter, 0, 0, 0, 0, 0, 0, 0, 0, 0, 0, 0, 0, 0, 0,0.0,0.0,0.0,0.0,0.0,0.0,0.0,0.0,0.0,0.0,0.0,0.0,0.0,10,ctakes-ne-contexts\src\main\java\org\apache\ctakes\necontexts\ContextAnalyzerAdapter.java,0,0,0,0
org.apache.ctakes.necontexts.ContextAnnotator, 0, 0, 0, 1, 0, 0, 0, 0, 0, 0, 0, 0, 0, 1,0.5,0.0,0.0,0.0,0.0,0.0,0.0,0.0,0.0,0.0,0.0,0.0,0.0,190,ctakes-ne-contexts\src\main\java\org\apache\ctakes\necontexts\ContextAnnotator.java,0,0,0,0
org.apache.ctakes.necontexts.ContextAnnotatorTests, 1, 0, 0, 0, 0, 0, 0, 0, 0, 0, 0, 0, 0, 1,0.5,0.0,0.0,0.5,0.0,0.0,0.0,0.5,0.0,0.0,0.0,0.0,0.0,34,ctakes-ne-contexts\src\test\java\org\apache\ctakes\necontexts\ContextAnnotatorTests.java,0,0,0,0
org.apache.ctakes.necontexts.ContextHitConsumer, 0, 0, 0, 0, 0, 0, 0, 0, 0, 0, 0, 0, 0, 0,0.0,0.0,0.0,0.0,0.0,0.0,0.0,0.0,0.0,0.0,0.0,0.0,0.0,34,ctakes-ne-contexts\src\main\java\org\apache\ctakes\necontexts\ContextHitConsumer.java,0,0,0,0
org.apache.ctakes.necontexts.ContextHitConsumerAdapter, 0, 0, 0, 0, 0, 0, 0, 0, 0, 0, 0, 0, 0, 0,0.0,0.0,0.0,0.0,0.0,0.0,0.0,0.0,0.0,0.0,0.0,0.0,0.0,5,ctakes-ne-contexts\src\main\java\org\apache\ctakes\necontexts\ContextHitConsumerAdapter.java,0,0,0,0
org.apache.ctakes.necontexts.NamedEntityContextAnalyzer, 0, 0, 0, 0, 0, 0, 0, 0, 0, 0, 0, 0, 0, 0,0.0,0.0,0.0,0.0,0.0,0.0,0.0,0.0,0.0,0.0,0.0,0.0,0.0,58,ctakes-ne-contexts\src\main\java\org\apache\ctakes\necontexts\NamedEntityContextAnalyzer.java,0,0,0,0
org.apache.ctakes.necontexts.NamedEntityContextHitConsumer, 0, 0, 0, 0, 0, 0, 0, 0, 0, 0, 0, 0, 0, 0,0.0,0.0,0.0,0.0,0.0,0.0,0.0,0.0,0.0,0.0,0.0,0.0,0.0,18,ctakes-ne-contexts\src\main\java\org\apache\ctakes\necontexts\NamedEntityContextHitConsumer.java,0,0,0,0
org.apache.ctakes.necontexts.NegationAnnotatorTests, 1, 0, 0, 0, 0, 0, 0, 0, 0, 0, 0, 0, 0, 1,1.0,0.0,0.0,0.0,0.0,0.0,0.0,1.0,0.0,0.0,0.0,0.0,0.0,16,ctakes-ne-contexts\src\test\java\org\apache\ctakes\necontexts\NegationAnnotatorTests.java,0,0,0,0
org.apache.ctakes.necontexts.StatusAnnotatorTests, 0, 0, 0, 0, 0, 0, 0, 0, 0, 0, 0, 0, 0, 0,1.0,0.0,0.0,0.0,0.0,0.0,0.0,1.0,0.0,0.0,0.0,0.0,0.0,15,ctakes-ne-contexts\src\test\java\org\apache\ctakes\necontexts\StatusAnnotatorTests.java,0,0,0,0
org.apache.ctakes.necontexts.negation.NegationContextAnalyzer, 0, 0, 0, 0, 0, 0, 0, 0, 0, 0, 0, 0, 0, 0,0.0,0.0,0.0,0.0,0.0,0.0,0.0,0.0,0.0,0.0,0.0,0.0,0.0,17,ctakes-ne-contexts\src\main\java\org\apache\ctakes\necontexts\negation\NegationContextAnalyzer.java,0,0,0,0
org.apache.ctakes.necontexts.negation.NegationContextHitConsumer, 0, 0, 0, 0, 0, 0, 0, 0, 0, 0, 0, 0, 0, 0,0.0,0.0,0.0,0.0,0.0,0.0,0.0,0.0,0.0,0.0,0.0,0.0,0.0,10,ctakes-ne-contexts\src\main\java\org\apache\ctakes\necontexts\negation\NegationContextHitConsumer.java,0,0,0,0
org.apache.ctakes.necontexts.status.StatusContextAnalyzer, 0, 0, 0, 0, 0, 0, 0, 0, 0, 0, 0, 0, 0, 0,0.0,0.0,0.0,0.0,0.0,0.0,0.0,0.0,0.0,0.0,0.0,0.0,0.0,34,ctakes-ne-contexts\src\main\java\org\apache\ctakes\necontexts\status\StatusContextAnalyzer.java,0,0,0,0
org.apache.ctakes.necontexts.status.StatusContextHitConsumer, 0, 0, 0, 0, 0, 0, 0, 0, 0, 0, 0, 0, 0, 0,0.0,0.0,0.0,0.0,0.0,0.0,0.0,0.0,0.0,0.0,0.0,0.0,0.0,14,ctakes-ne-contexts\src\main\java\org\apache\ctakes\necontexts\status\StatusContextHitConsumer.java,0,0,0,0
org.apache.ctakes.postagger.ClearNLPPOSTaggerAE, 0, 0, 1, 0, 0, 0, 0, 0, 0, 0, 0, 0, 0, 1,0.0,0.0,0.0,0.0,0.0,0.0,0.0,0.0,0.0,0.0,0.0,0.0,0.0,43,ctakes-pos-tagger\src\main\java\org\apache\ctakes\postagger\ClearNLPPOSTaggerAE.java,0,0,0,0
org.apache.ctakes.postagger.POSTagger, 0, 0, 0, 0, 0, 0, 0, 0, 0, 0, 0, 0, 0, 0,0.0,0.0,0.0,0.0,0.0,0.0,0.0,0.0,0.0,0.0,0.0,0.0,0.0,65,ctakes-pos-tagger\src\main\java\org\apache\ctakes\postagger\POSTagger.java,0,0,0,0
org.apache.ctakes.postagger.test.CpeTests, 0, 0, 0, 0, 0, 0, 0, 0, 0, 0, 0, 0, 0, 0,0.0,0.0,0.0,0.0,0.0,0.0,0.0,0.0,0.0,0.0,0.0,0.0,0.0,94,ctakes-pos-tagger\src\test\java\org\apache\ctakes\postagger\test\CpeTests.java,0,0,0,0
org.apache.ctakes.postagger.test.OpenNLPPOSCollectionReaderTests, 0, 0, 0, 0, 0, 0, 0, 0, 0, 0, 0, 0, 0, 0,1.0,0.0,0.0,0.0,0.0,0.0,0.0,1.0,0.0,0.0,0.0,0.0,0.0,95,ctakes-pos-tagger\src\test\java\org\apache\ctakes\postagger\test\OpenNLPPOSCollectionReaderTests.java,0,0,0,0
org.apache.ctakes.postagger.test.POSTaggerTests, 0, 0, 0, 0, 0, 0, 0, 0, 0, 0, 0, 0, 0, 0,1.0,0.0,0.0,0.0,0.0,0.0,0.0,1.0,0.0,0.0,0.0,0.0,0.0,15,ctakes-pos-tagger\src\test\java\org\apache\ctakes\postagger\test\POSTaggerTests.java,0,0,0,0
org.apache.ctakes.preprocessor.Annotation, 0, 0, 1, 0, 0, 0, 0, 0, 0, 0, 0, 0, 0, 1,0.0,0.0,0.0,0.0,0.0,0.0,0.0,0.0,0.0,0.0,0.0,0.0,0.0,6,ctakes-preprocessor\src\main\java\org\apache\ctakes\preprocessor\Annotation.java,0,0,0,0
org.apache.ctakes.preprocessor.DTDloader, 0, 0, 0, 0, 0, 0, 0, 0, 0, 0, 0, 0, 0, 0,0.0,0.0,0.0,0.0,0.0,0.0,0.0,0.0,0.0,0.0,0.0,0.0,0.0,13,ctakes-preprocessor\src\main\java\org\apache\ctakes\preprocessor\DTDloader.java,0,1,2,5
org.apache.ctakes.preprocessor.IntegerRange, 0, 0, 1, 0, 0, 0, 0, 0, 0, 0, 0, 0, 0, 1,0.0,0.0,1.0,0.0,0.0,0.0,0.0,0.0,0.0,0.0,0.0,0.0,0.0,5,ctakes-preprocessor\src\main\java\org\apache\ctakes\preprocessor\IntegerRange.java,0,0,0,0
org.apache.ctakes.preprocessor.PreProcessor, 0, 0, 0, 0, 0, 0, 0, 0, 0, 0, 0, 0, 0, 0,0.0,0.0,0.0,0.0,0.0,0.0,0.0,0.0,0.0,0.0,0.0,0.0,0.0,5,ctakes-preprocessor\src\main\java\org\apache\ctakes\preprocessor\PreProcessor.java,0,0,0,0
org.apache.ctakes.preprocessor.SegmentMetaData, 0, 0, 1, 0, 0, 0, 0, 0, 0, 0, 0, 0, 0, 1,0.0,0.0,1.0,0.0,0.0,0.0,0.0,0.0,0.0,0.0,0.0,0.0,0.0,6,ctakes-preprocessor\src\main\java\org\apache\ctakes\preprocessor\SegmentMetaData.java,0,0,0,0
org.apache.ctakes.regression.test.RegressionPipelineTest, 0, 0, 0, 0, 0, 0, 0, 0, 0, 0, 0, 0, 0, 0,0.0,0.0,0.0,0.0,0.0,0.0,0.0,0.0,0.0,0.0,0.0,0.0,0.0,112,ctakes-regression-test\src\test\java\org\apache\ctakes\regression\test\RegressionPipelineTest.java,0,0,0,0
org.apache.ctakes.relationextractor.ae.DegreeOfRelationExtractorAnnotator, 0, 0, 0, 0, 0, 0, 0, 0, 0, 0, 0, 0, 0, 0,0.0,0.0,0.0,0.0,0.0,0.0,0.0,0.0,0.0,0.0,0.0,0.0,0.0,46,ctakes-relation-extractor\src\main\java\org\apache\ctakes\relationextractor\ae\DegreeOfRelationExtractorAnnotator.java,0,0,0,0
org.apache.ctakes.relationextractor.ae.LocationOfRelationExtractorAnnotator, 0, 0, 0, 0, 0, 0, 0, 0, 0, 0, 0, 0, 0, 0,0.0,0.0,0.0,0.0,0.0,0.0,0.0,0.0,0.0,0.0,0.0,0.0,0.0,46,ctakes-relation-extractor\src\main\java\org\apache\ctakes\relationextractor\ae\LocationOfRelationExtractorAnnotator.java,0,0,0,0
org.apache.ctakes.relationextractor.ae.ModifierExtractorAnnotator, 0, 0, 0, 0, 0, 0, 0, 0, 0, 0, 0, 0, 0, 0,0.0,0.0,0.0,0.0,0.0,0.0,0.0,0.0,0.0,0.0,0.0,0.0,0.0,54,ctakes-relation-extractor\src\main\java\org\apache\ctakes\relationextractor\ae\ModifierExtractorAnnotator.java,0,0,0,0
org.apache.ctakes.relationextractor.ae.NamedEntityFeaturesExtractorTest, 0, 0, 0, 0, 0, 0, 0, 0, 0, 0, 0, 0, 0, 0,0.0,0.0,0.0,0.0,0.0,0.0,0.0,0.0,0.0,0.0,0.0,0.0,0.0,23,ctakes-relation-extractor\src\test\java\org\apache\ctakes\relationextractor\ae\NamedEntityFeaturesExtractorTest.java,0,0,0,0
org.apache.ctakes.relationextractor.ae.RelationExtractorAnnotatorsTest, 0, 0, 0, 0, 0, 0, 0, 0, 0, 0, 0, 0, 0, 0,0.0,0.0,0.0,0.0,0.0,0.0,0.0,0.0,0.0,0.0,0.0,0.0,0.0,60,ctakes-relation-extractor\src\test\java\org\apache\ctakes\relationextractor\ae\RelationExtractorAnnotatorsTest.java,0,0,0,0
org.apache.ctakes.relationextractor.ae.baselines.Baseline1DegreeOfRelationExtractorAnnotator, 0, 0, 0, 0, 0, 0, 0, 0, 0, 0, 0, 0, 0, 0,0.0,0.0,0.0,0.0,0.0,0.0,0.0,0.0,0.0,0.0,0.0,0.0,0.0,23,ctakes-relation-extractor\src\main\java\org\apache\ctakes\relationextractor\ae\baselines\Baseline1DegreeOfRelationExtractorAnnotator.java,0,0,0,0
org.apache.ctakes.relationextractor.ae.baselines.Baseline1EntityMentionPairRelationExtractorAnnotator, 0, 0, 0, 0, 0, 0, 0, 0, 0, 0, 0, 0, 0, 0,0.0,0.0,0.0,0.0,0.0,0.0,0.0,0.0,0.0,0.0,0.0,0.0,0.0,34,ctakes-relation-extractor\src\main\java\org\apache\ctakes\relationextractor\ae\baselines\Baseline1EntityMentionPairRelationExtractorAnnotator.java,0,0,0,0
org.apache.ctakes.relationextractor.ae.baselines.Baseline4DegreeOfRelationExtractorAnnotator, 0, 0, 0, 0, 0, 0, 0, 0, 0, 0, 0, 0, 0, 0,0.0,0.0,0.0,0.0,0.0,0.0,0.0,0.0,0.0,0.0,0.0,0.0,0.0,25,ctakes-relation-extractor\src\main\java\org\apache\ctakes\relationextractor\ae\baselines\Baseline4DegreeOfRelationExtractorAnnotator.java,0,0,0,0
org.apache.ctakes.relationextractor.ae.baselines.Baseline4EntityMentionPairRelationExtractorAnnotator, 0, 0, 0, 0, 0, 0, 0, 0, 0, 0, 0, 0, 0, 0,0.0,0.0,0.0,0.0,0.0,0.0,0.0,0.0,0.0,0.0,0.0,0.0,0.0,45,ctakes-relation-extractor\src\main\java\org\apache\ctakes\relationextractor\ae\baselines\Baseline4EntityMentionPairRelationExtractorAnnotator.java,0,0,0,0
org.apache.ctakes.relationextractor.ae.baselines.Utils, 0, 0, 0, 0, 0, 0, 0, 0, 0, 0, 0, 0, 0, 0,0.0,0.0,0.0,0.0,0.0,0.0,0.0,0.0,0.0,0.0,0.0,0.0,0.0,56,ctakes-relation-extractor\src\main\java\org\apache\ctakes\relationextractor\ae\baselines\Utils.java,0,0,0,0
org.apache.ctakes.relationextractor.ae.features.ArgumentOrderFeatureExtractor, 0, 0, 0, 0, 0, 0, 0, 0, 0, 0, 0, 0, 0, 0,0.0,0.0,0.0,0.0,0.0,0.0,0.0,0.0,0.0,0.0,0.0,0.0,0.0,13,ctakes-relation-extractor\src\main\java\org\apache\ctakes\relationextractor\ae\features\ArgumentOrderFeatureExtractor.java,0,0,1,2
org.apache.ctakes.relationextractor.ae.features.DependencyPathFeaturesExtractor, 0, 0, 0, 0, 0, 0, 0, 0, 0, 0, 0, 0, 0, 0,0.0,0.0,0.0,0.0,0.0,0.0,0.0,0.0,0.0,0.0,0.0,0.0,0.0,19,ctakes-relation-extractor\src\main\java\org\apache\ctakes\relationextractor\ae\features\DependencyPathFeaturesExtractor.java,0,0,1,2
org.apache.ctakes.relationextractor.ae.features.DependencyTreeFeaturesExtractor, 0, 0, 0, 0, 0, 0, 0, 0, 0, 0, 0, 0, 0, 0,0.0,0.0,0.0,0.0,0.0,0.0,0.0,0.0,0.0,0.0,0.0,0.0,0.0,26,ctakes-relation-extractor\src\main\java\org\apache\ctakes\relationextractor\ae\features\DependencyTreeFeaturesExtractor.java,0,0,1,2
org.apache.ctakes.relationextractor.ae.features.EntitySpanFeatureExtractor, 0, 0, 0, 0, 0, 0, 0, 0, 0, 0, 0, 0, 0, 0,0.0,0.0,0.0,0.0,0.0,0.0,0.0,0.0,0.0,0.0,0.0,0.0,0.0,21,ctakes-relation-extractor\src\main\java\org\apache\ctakes\relationextractor\ae\features\EntitySpanFeatureExtractor.java,0,0,1,2
org.apache.ctakes.relationextractor.ae.features.FlatTreeFeatureExtractor, 0, 0, 0, 0, 0, 0, 0, 0, 0, 0, 0, 0, 0, 0,0.0,0.0,0.0,0.0,0.0,0.0,0.0,0.0,0.0,0.0,0.0,0.0,0.0,31,ctakes-relation-extractor\src\main\java\org\apache\ctakes\relationextractor\ae\features\FlatTreeFeatureExtractor.java,0,0,1,2
org.apache.ctakes.relationextractor.ae.features.NamedEntityFeaturesExtractor, 0, 0, 0, 0, 0, 0, 0, 0, 0, 0, 0, 0, 0, 0,0.0,0.0,0.0,0.0,0.0,0.0,0.0,0.0,0.0,0.0,0.0,0.0,0.0,34,ctakes-relation-extractor\src\main\java\org\apache\ctakes\relationextractor\ae\features\NamedEntityFeaturesExtractor.java,0,0,1,2
org.apache.ctakes.relationextractor.ae.features.PETFeatureExtractor, 0, 0, 0, 0, 0, 0, 0, 0, 0, 0, 0, 0, 0, 0,0.0,0.0,0.0,0.0,0.0,0.0,0.0,0.0,0.0,0.0,0.0,0.0,0.0,19,ctakes-relation-extractor\src\main\java\org\apache\ctakes\relationextractor\ae\features\PETFeatureExtractor.java,0,0,1,2
org.apache.ctakes.relationextractor.ae.features.PartOfSpeechFeaturesExtractor, 0, 0, 0, 0, 0, 0, 0, 0, 0, 0, 0, 0, 0, 0,0.0,0.0,0.0,0.0,0.0,0.0,0.0,0.0,0.0,0.0,0.0,0.0,0.0,21,ctakes-relation-extractor\src\main\java\org\apache\ctakes\relationextractor\ae\features\PartOfSpeechFeaturesExtractor.java,0,0,1,2
org.apache.ctakes.relationextractor.ae.features.PhraseChunkingExtractor, 0, 0, 0, 0, 0, 0, 0, 0, 0, 0, 0, 0, 0, 0,0.0,0.0,0.0,0.0,0.0,0.0,0.0,0.0,0.0,0.0,0.0,0.0,0.0,83,ctakes-relation-extractor\src\main\java\org\apache\ctakes\relationextractor\ae\features\PhraseChunkingExtractor.java,0,0,1,2
org.apache.ctakes.relationextractor.ae.features.PrepositionFeatureExtractor, 0, 0, 0, 0, 0, 0, 0, 0, 0, 0, 0, 0, 0, 0,0.0,0.0,0.0,0.0,0.0,0.0,0.0,0.0,0.0,0.0,0.0,0.0,0.0,26,ctakes-relation-extractor\src\main\java\org\apache\ctakes\relationextractor\ae\features\PrepositionFeatureExtractor.java,0,0,1,2
org.apache.ctakes.relationextractor.ae.features.PunctuationFeatureExtractor, 0, 0, 0, 0, 0, 0, 0, 0, 0, 0, 0, 0, 0, 0,0.0,0.0,0.0,0.0,0.0,0.0,0.0,0.0,0.0,0.0,0.0,0.0,0.0,19,ctakes-relation-extractor\src\main\java\org\apache\ctakes\relationextractor\ae\features\PunctuationFeatureExtractor.java,0,0,1,2
org.apache.ctakes.relationextractor.ae.features.RelationFeaturesExtractor, 0, 0, 0, 0, 0, 0, 0, 0, 0, 0, 0, 0, 0, 0,0.0,0.0,0.0,0.0,0.0,0.0,0.0,0.0,0.0,0.0,0.0,0.0,0.0,19,ctakes-relation-extractor\src\main\java\org\apache\ctakes\relationextractor\ae\features\RelationFeaturesExtractor.java,0,0,2,4
org.apache.ctakes.relationextractor.ae.features.TokenFeaturesExtractor, 0, 0, 0, 0, 0, 0, 0, 0, 0, 0, 0, 0, 0, 0,0.0,0.0,0.0,0.0,0.0,0.0,0.0,0.0,0.0,0.0,0.0,0.0,0.0,65,ctakes-relation-extractor\src\main\java\org\apache\ctakes\relationextractor\ae\features\TokenFeaturesExtractor.java,0,0,1,2
org.apache.ctakes.relationextractor.ae.features.TreeFragmentFeatureExtractor, 1, 0, 0, 0, 0, 0, 0, 0, 0, 0, 0, 0, 0, 1,0.0,0.0,0.0,0.0,0.0,0.0,0.0,0.0,0.0,0.0,0.0,0.0,0.0,40,ctakes-relation-extractor\src\main\java\org\apache\ctakes\relationextractor\ae\features\TreeFragmentFeatureExtractor.java,0,0,1,2
org.apache.ctakes.relationextractor.ae.features.WordNetFeatureExtractor, 0, 0, 0, 0, 0, 0, 0, 0, 0, 0, 0, 0, 0, 0,0.0,0.0,0.0,0.0,0.0,0.0,0.0,0.0,0.0,0.0,0.0,0.0,0.0,23,ctakes-relation-extractor\src\main\java\org\apache\ctakes\relationextractor\ae\features\WordNetFeatureExtractor.java,0,0,0,0
org.apache.ctakes.relationextractor.ae.features.WordNetUtils, 0, 0, 0, 0, 0, 0, 0, 0, 0, 0, 0, 0, 0, 0,0.0,0.0,0.0,0.0,0.0,0.0,0.0,0.0,0.0,0.0,0.0,0.0,0.0,98,ctakes-relation-extractor\src\main\java\org\apache\ctakes\relationextractor\ae\features\WordNetUtils.java,0,0,0,0
org.apache.ctakes.relationextractor.data.CategoricalDistribution, 0, 0, 0, 0, 0, 0, 0, 0, 0, 0, 0, 0, 0, 0,0.0,0.0,0.0,0.0,0.0,0.0,0.0,0.0,0.0,0.0,0.0,0.0,0.0,35,ctakes-relation-extractor\src\main\java\org\apache\ctakes\relationextractor\data\CategoricalDistribution.java,0,0,0,0
org.apache.ctakes.relationextractor.data.Constants, 0, 0, 0, 0, 0, 0, 0, 0, 0, 0, 0, 0, 0, 0,0.0,0.0,0.0,0.0,0.0,0.0,0.0,0.0,0.0,0.0,0.0,0.0,0.0,24,ctakes-relation-extractor\src\main\java\org\apache\ctakes\relationextractor\data\Constants.java,0,0,0,0
org.apache.ctakes.relationextractor.data.GoldAnnotationAnalysisPipeline, 0, 0, 0, 0, 0, 0, 0, 0, 0, 0, 0, 0, 0, 0,0.0,0.0,0.0,0.0,0.0,0.0,0.0,0.0,0.0,0.0,0.0,0.0,0.0,29,ctakes-relation-extractor\src\main\java\org\apache\ctakes\relationextractor\data\GoldAnnotationAnalysisPipeline.java,0,0,0,0
org.apache.ctakes.relationextractor.data.GoldAnnotationStatsCalculator, 0, 0, 1, 1, 0, 0, 0, 0, 0, 0, 0, 0, 0, 2,0.0,0.0,0.0,0.0,0.0,0.0,0.0,0.0,0.0,0.0,0.0,0.0,0.0,161,ctakes-relation-extractor\src\main\java\org\apache\ctakes\relationextractor\data\GoldAnnotationStatsCalculator.java,0,0,0,0
org.apache.ctakes.relationextractor.data.Splitter, 0, 0, 0, 0, 0, 0, 0, 0, 0, 0, 0, 0, 0, 0,0.0,0.0,0.0,0.0,0.0,0.0,0.0,0.0,0.0,0.0,0.0,0.0,0.0,63,ctakes-relation-extractor\src\main\java\org\apache\ctakes\relationextractor\data\Splitter.java,0,0,0,0
org.apache.ctakes.relationextractor.eval.ModifierExtractorEvaluation, 0, 0, 0, 0, 0, 0, 0, 0, 0, 0, 0, 0, 0, 0,0.0,0.0,0.3333333333333333,0.0,0.0,0.0,0.0,0.3333333333333333,0.0,0.0,0.0,0.0,0.0,93,ctakes-relation-extractor\src\main\java\org\apache\ctakes\relationextractor\eval\ModifierExtractorEvaluation.java,0,0,0,0
org.apache.ctakes.relationextractor.eval.ParameterSettings, 0, 0, 1, 0, 0, 0, 0, 0, 0, 0, 0, 0, 0, 1,0.0,0.0,0.0,0.0,0.0,0.0,0.0,0.0,0.0,0.0,0.0,0.0,0.0,44,ctakes-relation-extractor\src\main\java\org\apache\ctakes\relationextractor\eval\ParameterSettings.java,0,0,0,0
org.apache.ctakes.relationextractor.eval.PrintRelationStatistics, 0, 0, 0, 0, 0, 0, 0, 0, 0, 0, 0, 0, 0, 0,0.0,0.0,0.0,0.0,0.0,0.0,0.0,0.0,0.0,0.0,0.0,0.0,0.0,49,ctakes-relation-extractor\src\main\java\org\apache\ctakes\relationextractor\eval\PrintRelationStatistics.java,0,0,0,0
org.apache.ctakes.relationextractor.eval.XMIReader, 0, 0, 0, 0, 0, 0, 0, 0, 0, 0, 0, 0, 0, 0,0.0,0.0,0.0,0.0,0.0,0.0,0.0,0.0,0.0,0.0,0.0,0.0,0.0,35,ctakes-relation-extractor\src\main\java\org\apache\ctakes\relationextractor\eval\XMIReader.java,0,0,0,0
org.apache.ctakes.relationextractor.knowtator.ArgumentInfo, 0, 0, 1, 0, 0, 0, 0, 0, 0, 0, 0, 0, 0, 1,0.0,0.0,0.0,0.0,0.0,0.0,0.0,0.0,0.0,0.0,0.0,0.0,0.0,8,ctakes-relation-extractor\src\main\java\org\apache\ctakes\relationextractor\knowtator\ArgumentInfo.java,0,0,0,0
org.apache.ctakes.relationextractor.knowtator.RelationInfo, 0, 0, 1, 0, 0, 0, 0, 1, 0, 0, 0, 0, 0, 2,0.0,0.0,0.0,0.0,0.0,0.0,0.0,0.0,0.0,0.0,0.0,0.0,0.0,45,ctakes-relation-extractor\src\main\java\org\apache\ctakes\relationextractor\knowtator\RelationInfo.java,0,0,0,0
org.apache.ctakes.relationextractor.knowtator.Span, 0, 0, 1, 0, 0, 0, 0, 0, 0, 0, 0, 0, 0, 1,0.0,0.0,0.0,0.0,0.0,0.0,0.0,0.0,0.0,0.0,0.0,0.0,0.0,25,ctakes-relation-extractor\src\main\java\org\apache\ctakes\relationextractor\knowtator\Span.java,0,0,0,0
org.apache.ctakes.relationextractor.pipelines.RelationAnnotationViewer, 0, 0, 0, 0, 0, 0, 0, 0, 0, 0, 0, 0, 0, 0,0.0,0.0,0.0,0.0,0.0,0.0,0.0,0.0,0.0,0.0,0.0,0.0,0.0,53,ctakes-relation-extractor\src\main\java\org\apache\ctakes\relationextractor\pipelines\RelationAnnotationViewer.java,0,0,0,0
org.apache.ctakes.relationextractor.pipelines.RelationExtractorConsumer, 0, 0, 0, 0, 0, 0, 0, 0, 0, 0, 0, 0, 0, 0,0.0,0.0,0.0,0.0,0.0,0.0,0.0,0.0,0.0,0.0,0.0,0.0,0.0,47,ctakes-relation-extractor\src\main\java\org\apache\ctakes\relationextractor\pipelines\RelationExtractorConsumer.java,0,0,0,0
org.apache.ctakes.relationextractor.pipelines.RelationExtractorPipeline, 0, 0, 0, 0, 0, 0, 0, 0, 0, 0, 0, 0, 0, 0,0.0,0.0,0.0,0.0,0.0,0.0,0.0,0.0,0.0,0.0,0.0,0.0,0.0,29,ctakes-relation-extractor\src\main\java\org\apache\ctakes\relationextractor\pipelines\RelationExtractorPipeline.java,0,0,0,0
org.apache.ctakes.relationextractor.pipelines.RelationExtractorPipelineSingleCas, 0, 0, 0, 0, 0, 0, 0, 0, 0, 0, 0, 0, 0, 0,0.0,0.0,0.0,0.0,0.0,0.0,0.0,0.0,0.0,0.0,0.0,0.0,0.0,12,ctakes-relation-extractor\src\main\java\org\apache\ctakes\relationextractor\pipelines\RelationExtractorPipelineSingleCas.java,0,0,0,0
org.apache.ctakes.relationextractor.pipelines.RelationExtractorTrain, 0, 0, 0, 0, 0, 0, 0, 1, 0, 0, 0, 0, 0, 1,0.0,0.0,0.0,0.0,0.0,0.0,0.0,0.0,0.0,0.0,0.0,0.0,0.0,126,ctakes-relation-extractor\src\main\java\org\apache\ctakes\relationextractor\pipelines\RelationExtractorTrain.java,0,0,0,0
org.apache.ctakes.relationextractor.pipelines.SelectiveRelationAnnotationViewer, 0, 0, 0, 0, 0, 0, 0, 0, 0, 0, 0, 0, 0, 0,0.0,0.0,0.0,0.0,0.0,0.0,0.0,0.0,0.0,0.0,0.0,0.0,0.0,115,ctakes-relation-extractor\src\main\java\org\apache\ctakes\relationextractor\pipelines\SelectiveRelationAnnotationViewer.java,0,0,0,0
org.apache.ctakes.sideeffect.ae.PSESentenceAnnotator, 0, 0, 0, 0, 0, 0, 0, 0, 0, 0, 0, 0, 0, 0,0.0,0.0,0.0,0.0,0.0,0.0,0.0,0.5,0.0,0.0,0.0,0.0,0.0,70,ctakes-side-effect\src\main\java\org\apache\ctakes\sideeffect\ae\PSESentenceAnnotator.java,0,0,0,0
org.apache.ctakes.sideeffect.cc.SideEffectCasConsumer, 0, 0, 0, 0, 0, 0, 0, 0, 0, 0, 0, 0, 0, 0,0.0,0.0,0.0,0.0,0.0,0.0,0.0,0.0,0.0,0.0,0.0,0.0,0.0,70,ctakes-side-effect\src\main\java\org\apache\ctakes\sideeffect\cc\SideEffectCasConsumer.java,0,0,0,0
org.apache.ctakes.sideeffect.cc.SideEffectSentenceCasConsumer, 0, 0, 0, 0, 0, 0, 0, 0, 0, 0, 0, 0, 0, 0,0.0,0.0,0.0,0.0,0.0,0.0,0.0,0.0,0.0,0.0,0.0,0.0,0.0,52,ctakes-side-effect\src\main\java\org\apache\ctakes\sideeffect\cc\SideEffectSentenceCasConsumer.java,0,0,0,0
org.apache.ctakes.sideeffect.util.SEUtil, 0, 0, 0, 0, 0, 0, 0, 0, 0, 0, 0, 0, 0, 0,0.0,0.0,0.0,0.0,0.0,0.0,0.0,0.25,0.0,0.0,0.0,0.0,0.0,212,ctakes-side-effect\src\main\java\org\apache\ctakes\sideeffect\util\SEUtil.java,0,0,0,0
org.apache.ctakes.smokingstatus.Const, 0, 0, 0, 0, 0, 0, 0, 0, 0, 0, 0, 0, 0, 0,0.0,0.0,0.0,0.0,0.0,0.0,0.0,0.0,0.0,0.0,0.0,0.0,0.0,212,ctakes-smoking-status\src\main\java\org\apache\ctakes\smokingstatus\Const.java,0,0,0,0
org.apache.ctakes.smokingstatus.ae.KuRuleBasedClassifierAnnotator, 0, 0, 0, 0, 0, 0, 0, 0, 0, 0, 0, 0, 0, 0,0.0,0.0,0.0,0.0,0.0,0.0,0.0,0.0,0.0,0.0,0.0,0.0,0.0,85,ctakes-smoking-status\src\main\java\org\apache\ctakes\smokingstatus\ae\KuRuleBasedClassifierAnnotator.java,0,0,0,0
org.apache.ctakes.smokingstatus.ae.ResolutionAnnotator, 0, 0, 1, 0, 0, 0, 0, 0, 0, 0, 0, 0, 0, 1,0.0,0.0,0.0,0.0,0.0,0.0,0.0,0.0,0.0,0.0,0.0,0.0,0.0,147,ctakes-smoking-status\src\main\java\org\apache\ctakes\smokingstatus\ae\ResolutionAnnotator.java,0,0,0,0
org.apache.ctakes.smokingstatus.context.NamedEntityContextAnalyzer, 0, 0, 0, 0, 0, 0, 0, 0, 0, 0, 0, 0, 0, 0,0.0,0.0,0.0,0.0,0.0,0.0,0.0,0.0,0.0,0.0,0.0,0.0,0.0,57,ctakes-smoking-status\src\main\java\org\apache\ctakes\smokingstatus\context\NamedEntityContextAnalyzer.java,0,0,0,0
org.apache.ctakes.smokingstatus.context.negation.NegationContextAnalyzer, 0, 0, 0, 0, 0, 0, 0, 0, 0, 0, 0, 0, 0, 0,0.0,0.0,0.0,0.0,0.0,0.0,0.0,0.0,0.0,0.0,0.0,0.0,0.0,17,ctakes-smoking-status\src\main\java\org\apache\ctakes\smokingstatus\context\negation\NegationContextAnalyzer.java,0,0,0,0
org.apache.ctakes.smokingstatus.util.ClassifiableEntry, 0, 0, 1, 0, 0, 0, 0, 0, 0, 0, 0, 0, 0, 1,0.0,0.0,0.0,0.0,0.0,0.0,0.0,0.0,0.0,0.0,0.0,0.0,0.0,7,ctakes-smoking-status\src\main\java\org\apache\ctakes\smokingstatus\util\ClassifiableEntry.java,0,0,0,0
org.apache.ctakes.smokingstatus.util.TruthValue, 0, 0, 1, 0, 0, 0, 0, 0, 0, 0, 0, 0, 0, 1,0.0,0.0,0.0,0.0,0.0,0.0,0.0,0.0,0.0,0.0,0.0,0.0,0.0,5,ctakes-smoking-status\src\main\java\org\apache\ctakes\smokingstatus\util\TruthValue.java,0,0,0,0
org.apache.ctakes.temporal.ae.BackwardsTimeAnnotator, 0, 0, 0, 0, 0, 0, 0, 0, 0, 0, 0, 0, 0, 0,0.0,0.0,0.0,0.0,0.0,0.0,0.0,0.0,0.0,0.0,0.0,0.0,0.0,144,ctakes-temporal\src\main\java\org\apache\ctakes\temporal\ae\BackwardsTimeAnnotator.java,0,0,0,0
org.apache.ctakes.temporal.ae.BackwardsTimeAnnotatorTest, 0, 0, 0, 0, 0, 0, 0, 0, 0, 0, 0, 0, 0, 0,0.0,0.0,0.3333333333333333,0.0,0.0,0.0,0.0,0.0,0.0,0.0,0.0,0.0,0.0,30,ctakes-temporal\src\test\java\org\apache\ctakes\temporal\ae\BackwardsTimeAnnotatorTest.java,0,0,0,0
org.apache.ctakes.temporal.ae.CRFTimeAnnotator, 0, 0, 0, 0, 0, 0, 0, 0, 0, 0, 0, 0, 0, 0,0.0,0.0,0.0,0.0,0.0,0.0,0.0,0.0,0.0,0.0,0.0,0.0,0.0,109,ctakes-temporal\src\main\java\org\apache\ctakes\temporal\ae\CRFTimeAnnotator.java,0,0,0,0
org.apache.ctakes.temporal.ae.ClearTKDocumentCreationTimeAnnotator, 0, 0, 0, 0, 0, 0, 0, 0, 0, 0, 0, 0, 0, 0,0.0,0.0,0.0,0.0,0.0,0.0,0.0,0.0,0.0,0.0,0.0,0.0,0.0,13,ctakes-temporal\src\main\java\org\apache\ctakes\temporal\ae\ClearTKDocumentCreationTimeAnnotator.java,0,0,0,0
org.apache.ctakes.temporal.ae.ClearTKLinkToTHYMELinkAnnotator, 1, 0, 0, 0, 0, 0, 0, 0, 0, 0, 0, 0, 0, 1,0.0,0.0,0.0,0.0,0.0,0.0,0.0,1.0,0.0,0.0,0.0,0.0,0.0,46,ctakes-temporal\src\main\java\org\apache\ctakes\temporal\ae\ClearTKLinkToTHYMELinkAnnotator.java,0,0,0,0
org.apache.ctakes.temporal.ae.ContextualModalityAnnotator, 0, 0, 0, 0, 0, 0, 0, 0, 0, 0, 0, 0, 0, 0,0.0,0.0,0.0,0.0,0.0,0.0,0.0,0.5,0.0,0.0,0.0,0.0,0.0,61,ctakes-temporal\src\main\java\org\apache\ctakes\temporal\ae\ContextualModalityAnnotator.java,0,0,0,0
org.apache.ctakes.temporal.ae.ContextualModalityAnnotatorTest, 0, 0, 0, 0, 0, 0, 0, 0, 0, 0, 0, 0, 0, 0,0.0,0.0,0.16666666666666666,0.16666666666666666,0.0,0.0,0.0,0.16666666666666666,0.0,0.0,0.0,0.0,0.0,42,ctakes-temporal\src\test\java\org\apache\ctakes\temporal\ae\ContextualModalityAnnotatorTest.java,0,0,0,0
org.apache.ctakes.temporal.ae.DocTimeRelAnnotator, 0, 0, 0, 0, 0, 0, 0, 0, 0, 0, 0, 0, 0, 0,0.0,0.0,0.0,0.0,0.0,0.0,0.0,0.16666666666666666,0.0,0.0,0.0,0.0,0.0,88,ctakes-temporal\src\main\java\org\apache\ctakes\temporal\ae\DocTimeRelAnnotator.java,5,10,7,29
org.apache.ctakes.temporal.ae.DocTimeRelAnnotatorTest, 0, 0, 0, 0, 0, 0, 0, 0, 0, 0, 0, 0, 0, 0,0.0,0.0,0.2,0.2,0.0,0.0,0.0,0.2,0.0,0.0,0.0,0.0,0.0,54,ctakes-temporal\src\test\java\org\apache\ctakes\temporal\ae\DocTimeRelAnnotatorTest.java,0,0,0,0
org.apache.ctakes.temporal.ae.EventAnnotator, 0, 0, 0, 1, 0, 0, 0, 1, 0, 0, 0, 0, 0, 2,0.0,0.0,0.0,0.0,0.0,0.0,0.0,0.08333333333333333,0.0,0.0,0.0,0.0,0.0,250,ctakes-temporal\src\main\java\org\apache\ctakes\temporal\ae\EventAnnotator.java,0,0,0,0
org.apache.ctakes.temporal.ae.EventAnnotatorTest, 0, 0, 0, 0, 0, 0, 0, 0, 0, 0, 0, 0, 0, 0,0.0,0.0,0.3333333333333333,0.3333333333333333,0.0,0.0,0.0,0.3333333333333333,0.0,0.0,0.0,0.0,0.0,31,ctakes-temporal\src\test\java\org\apache\ctakes\temporal\ae\EventAnnotatorTest.java,13,9,1,24
org.apache.ctakes.temporal.ae.EventCoreferenceAnnotator, 0, 0, 0, 0, 0, 0, 0, 0, 0, 0, 0, 0, 0, 0,0.0,0.0,0.0,0.0,0.0,0.0,0.0,0.0,0.0,0.0,0.0,0.0,0.0,144,ctakes-temporal\src\main\java\org\apache\ctakes\temporal\ae\EventCoreferenceAnnotator.java,181,0,0,181
org.apache.ctakes.temporal.ae.EventEventRelationAnnotatorTest, 0, 0, 0, 0, 0, 0, 0, 0, 0, 0, 0, 0, 0, 0,0.0,0.0,0.25,0.25,0.0,0.0,0.0,0.25,0.0,0.0,0.0,0.0,0.0,45,ctakes-temporal\src\test\java\org\apache\ctakes\temporal\ae\EventEventRelationAnnotatorTest.java,0,0,0,0
org.apache.ctakes.temporal.ae.EventTimeRelationAnnotatorTest, 0, 0, 0, 0, 0, 0, 0, 0, 0, 0, 0, 0, 0, 0,0.0,0.0,0.25,0.25,0.0,0.0,0.0,0.25,0.0,0.0,0.0,0.0,0.0,45,ctakes-temporal\src\test\java\org\apache\ctakes\temporal\ae\EventTimeRelationAnnotatorTest.java,0,0,0,0
org.apache.ctakes.temporal.ae.EventToClearTKEventAnnotator, 0, 0, 0, 0, 0, 0, 0, 0, 0, 0, 0, 0, 0, 0,0.0,0.0,0.0,0.0,0.0,0.0,0.0,1.0,0.0,0.0,0.0,0.0,0.0,19,ctakes-temporal\src\main\java\org\apache\ctakes\temporal\ae\EventToClearTKEventAnnotator.java,0,0,0,0
org.apache.ctakes.temporal.ae.MetaTimeAnnotator, 1, 0, 0, 0, 0, 0, 0, 0, 0, 0, 0, 0, 0, 1,0.0,0.0,0.0,0.5,0.0,0.0,0.0,0.0,0.0,0.0,0.0,0.0,0.0,130,ctakes-temporal\src\main\java\org\apache\ctakes\temporal\ae\MetaTimeAnnotator.java,0,0,0,0
org.apache.ctakes.temporal.ae.NEPredicateEventAnnotator, 0, 0, 0, 0, 0, 0, 0, 0, 0, 0, 0, 0, 0, 0,0.0,0.0,0.0,0.0,0.0,0.0,0.0,0.5,0.0,0.0,0.0,0.0,0.0,45,ctakes-temporal\src\main\java\org\apache\ctakes\temporal\ae\NEPredicateEventAnnotator.java,0,0,0,0
org.apache.ctakes.temporal.ae.TemporalEntityAnnotator_ImplBase, 0, 0, 0, 0, 0, 0, 0, 0, 0, 0, 0, 0, 0, 0,0.0,0.0,0.0,0.5,0.0,0.0,0.0,0.25,0.0,0.0,0.0,0.0,0.0,11,ctakes-temporal\src\main\java\org\apache\ctakes\temporal\ae\TemporalEntityAnnotator_ImplBase.java,0,0,0,0
org.apache.ctakes.temporal.ae.TemporalRelationRuleAnnotator, 0, 0, 0, 0, 0, 0, 0, 0, 0, 0, 0, 0, 0, 0,0.0,0.0,0.0,0.0,0.0,0.0,0.0,0.0,0.0,0.0,0.0,0.0,0.0,132,ctakes-temporal\src\main\java\org\apache\ctakes\temporal\ae\TemporalRelationRuleAnnotator.java,0,0,0,0
org.apache.ctakes.temporal.ae.TemporalSequenceAnnotator_ImplBase, 0, 0, 0, 0, 0, 0, 0, 0, 0, 0, 0, 0, 0, 0,0.5,0.0,0.0,0.0,0.0,0.0,0.0,0.0,0.0,0.0,0.0,0.0,0.0,12,ctakes-temporal\src\main\java\org\apache\ctakes\temporal\ae\TemporalSequenceAnnotator_ImplBase.java,0,0,0,0
org.apache.ctakes.temporal.ae.TimeAnnotator, 0, 0, 0, 1, 0, 0, 0, 0, 0, 0, 0, 0, 0, 1,0.3333333333333333,0.0,0.0,0.0,0.0,0.0,0.0,0.0,0.0,0.0,0.0,0.0,0.0,193,ctakes-temporal\src\main\java\org\apache\ctakes\temporal\ae\TimeAnnotator.java,0,0,0,0
org.apache.ctakes.temporal.ae.TimexToClearTKTimexAnnotator, 0, 0, 0, 0, 0, 0, 0, 0, 0, 0, 0, 0, 0, 0,0.0,0.0,0.0,0.0,0.0,0.0,0.0,1.0,0.0,0.0,0.0,0.0,0.0,15,ctakes-temporal\src\main\java\org\apache\ctakes\temporal\ae\TimexToClearTKTimexAnnotator.java,0,0,0,0
org.apache.ctakes.temporal.ae.baselines.RecallBaselineEventEventRelationAnnotator, 0, 0, 0, 0, 0, 0, 0, 0, 0, 0, 0, 0, 0, 0,0.0,0.0,0.0,0.0,0.0,0.0,0.0,0.0,0.0,0.0,0.0,0.0,0.0,42,ctakes-temporal\src\main\java\org\apache\ctakes\temporal\ae\baselines\RecallBaselineEventEventRelationAnnotator.java,0,0,0,0
org.apache.ctakes.temporal.ae.baselines.TreeHeightBaseline, 0, 0, 0, 0, 0, 0, 0, 0, 0, 0, 0, 0, 0, 0,0.0,0.0,0.0,0.0,0.0,0.0,0.0,0.0,0.0,0.0,0.0,0.0,0.0,59,ctakes-temporal\src\main\java\org\apache\ctakes\temporal\ae\baselines\TreeHeightBaseline.java,2,3,4,13
org.apache.ctakes.temporal.ae.feature.CheckSpecialWordRelationExtractor, 0, 0, 0, 0, 0, 0, 0, 0, 0, 0, 0, 0, 0, 0,0.0,0.0,0.0,0.0,0.0,0.0,0.0,0.0,0.0,0.0,0.0,0.0,0.0,65,ctakes-temporal\src\main\java\org\apache\ctakes\temporal\ae\feature\CheckSpecialWordRelationExtractor.java,0,0,1,2
org.apache.ctakes.temporal.ae.feature.ChunkingExtractor, 0, 0, 0, 0, 0, 0, 0, 1, 0, 0, 0, 0, 0, 1,0.0,0.0,0.0,1.0,0.0,0.0,0.0,1.0,0.0,0.0,0.0,0.0,0.0,23,ctakes-temporal\src\main\java\org\apache\ctakes\temporal\ae\feature\ChunkingExtractor.java,0,0,0,0
org.apache.ctakes.temporal.ae.feature.ConjunctionRelationFeaturesExtractor, 0, 0, 0, 0, 0, 0, 0, 0, 0, 0, 0, 0, 0, 0,0.0,0.0,0.0,0.0,0.0,0.0,0.0,0.0,0.0,0.0,0.0,0.0,0.0,37,ctakes-temporal\src\main\java\org\apache\ctakes\temporal\ae\feature\ConjunctionRelationFeaturesExtractor.java,0,0,1,2
org.apache.ctakes.temporal.ae.feature.CoordinateFeaturesExtractor, 0, 0, 0, 0, 0, 0, 0, 0, 0, 0, 0, 0, 0, 0,0.0,0.0,0.0,0.0,0.0,0.0,0.0,0.0,0.0,0.0,0.0,0.0,0.0,42,ctakes-temporal\src\main\java\org\apache\ctakes\temporal\ae\feature\CoordinateFeaturesExtractor.java,0,0,1,2
org.apache.ctakes.temporal.ae.feature.DependencyPathFeaturesExtractor, 0, 0, 0, 0, 0, 0, 0, 0, 0, 0, 0, 0, 0, 0,0.0,0.0,0.0,0.0,0.0,0.0,0.0,0.0,0.0,0.0,0.0,0.0,0.0,17,ctakes-temporal\src\main\java\org\apache\ctakes\temporal\ae\feature\DependencyPathFeaturesExtractor.java,0,0,1,2
org.apache.ctakes.temporal.ae.feature.DependingVerbsFeatureExtractor, 0, 0, 0, 0, 0, 0, 0, 0, 0, 0, 0, 0, 0, 0,0.0,0.0,0.0,0.0,0.0,0.0,0.0,0.0,0.0,0.0,0.0,0.0,0.0,72,ctakes-temporal\src\main\java\org\apache\ctakes\temporal\ae\feature\DependingVerbsFeatureExtractor.java,0,0,1,2
org.apache.ctakes.temporal.ae.feature.DeterminerRelationFeaturesExtractor, 0, 0, 0, 0, 0, 0, 0, 0, 0, 0, 0, 0, 0, 0,0.0,0.0,0.0,0.0,0.0,0.0,0.0,0.0,0.0,0.0,0.0,0.0,0.0,21,ctakes-temporal\src\main\java\org\apache\ctakes\temporal\ae\feature\DeterminerRelationFeaturesExtractor.java,0,0,1,2
org.apache.ctakes.temporal.ae.feature.DocTimeRelFeatureExtractor, 0, 0, 0, 0, 0, 0, 0, 0, 0, 0, 0, 0, 0, 0,0.0,0.0,0.0,0.0,0.0,0.0,0.0,0.0,0.0,0.0,0.0,0.0,0.0,18,ctakes-temporal\src\main\java\org\apache\ctakes\temporal\ae\feature\DocTimeRelFeatureExtractor.java,0,0,1,2
org.apache.ctakes.temporal.ae.feature.EventArgumentPropertyExtractor, 0, 0, 0, 0, 0, 0, 0, 0, 0, 0, 0, 0, 0, 0,0.0,0.0,0.0,0.0,0.0,0.0,0.0,0.0,0.0,0.0,0.0,0.0,0.0,60,ctakes-temporal\src\main\java\org\apache\ctakes\temporal\ae\feature\EventArgumentPropertyExtractor.java,0,0,1,2
org.apache.ctakes.temporal.ae.feature.EventPropertyExtractor, 0, 0, 0, 0, 0, 0, 0, 0, 0, 0, 0, 0, 0, 0,0.0,0.0,0.0,0.0,0.0,0.0,0.0,0.0,0.0,0.0,0.0,0.0,0.0,20,ctakes-temporal\src\main\java\org\apache\ctakes\temporal\ae\feature\EventPropertyExtractor.java,0,0,0,0
org.apache.ctakes.temporal.ae.feature.EventTimeRelationFeatureExtractor, 0, 0, 0, 0, 0, 0, 0, 0, 0, 0, 0, 0, 0, 0,0.0,0.0,0.0,0.0,0.0,0.0,0.0,0.0,0.0,0.0,0.0,0.0,0.0,69,ctakes-temporal\src\main\java\org\apache\ctakes\temporal\ae\feature\EventTimeRelationFeatureExtractor.java,0,0,1,2
org.apache.ctakes.temporal.ae.feature.EventTimeRelationsFeaturesExtractor, 0, 0, 0, 0, 0, 0, 0, 0, 0, 0, 0, 0, 0, 0,0.0,0.0,0.0,0.0,0.0,0.0,0.0,0.0,0.0,0.0,0.0,0.0,0.0,25,ctakes-temporal\src\main\java\org\apache\ctakes\temporal\ae\feature\EventTimeRelationsFeaturesExtractor.java,0,0,1,2
org.apache.ctakes.temporal.ae.feature.ListFeaturesExtractor, 0, 0, 0, 0, 0, 0, 0, 0, 0, 0, 0, 0, 0, 0,0.0,0.0,0.0,0.0,0.0,0.0,0.0,0.0,0.0,0.0,0.0,0.0,0.0,75,ctakes-temporal\src\main\java\org\apache\ctakes\temporal\ae\feature\ListFeaturesExtractor.java,0,0,1,2
org.apache.ctakes.temporal.ae.feature.NumberOfEventTimeBetweenCandidatesExtractor, 0, 0, 0, 0, 0, 0, 0, 0, 0, 0, 0, 0, 0, 0,0.0,0.0,0.0,0.0,0.0,0.0,0.0,0.0,0.0,0.0,0.0,0.0,0.0,38,ctakes-temporal\src\main\java\org\apache\ctakes\temporal\ae\feature\NumberOfEventTimeBetweenCandidatesExtractor.java,0,0,1,2
org.apache.ctakes.temporal.ae.feature.OverlappedHeadFeaturesExtractor, 0, 0, 0, 0, 0, 0, 0, 0, 0, 0, 0, 0, 0, 0,0.0,0.0,0.0,0.0,0.0,0.0,0.0,0.0,0.0,0.0,0.0,0.0,0.0,47,ctakes-temporal\src\main\java\org\apache\ctakes\temporal\ae\feature\OverlappedHeadFeaturesExtractor.java,0,0,0,0
org.apache.ctakes.temporal.ae.feature.ParseFeatureExtractor, 0, 0, 0, 0, 0, 0, 0, 0, 0, 0, 0, 0, 0, 0,0.0,0.0,0.0,0.0,0.0,0.0,0.0,0.0,0.0,0.0,0.0,0.0,0.0,25,ctakes-temporal\src\main\java\org\apache\ctakes\temporal\ae\feature\ParseFeatureExtractor.java,0,0,1,2
org.apache.ctakes.temporal.ae.feature.PredicateArgumentExtractor, 0, 0, 0, 0, 0, 0, 0, 0, 0, 0, 0, 0, 0, 0,0.0,0.0,0.0,1.0,0.0,0.0,0.0,1.0,0.0,0.0,0.0,0.0,0.0,34,ctakes-temporal\src\main\java\org\apache\ctakes\temporal\ae\feature\PredicateArgumentExtractor.java,0,0,0,0
org.apache.ctakes.temporal.ae.feature.SRLRelationFeaturesExtractor, 0, 0, 0, 0, 0, 0, 0, 0, 0, 0, 0, 0, 0, 0,0.0,0.0,0.0,0.0,0.0,0.0,0.0,0.0,0.0,0.0,0.0,0.0,0.0,51,ctakes-temporal\src\main\java\org\apache\ctakes\temporal\ae\feature\SRLRelationFeaturesExtractor.java,0,0,1,2
org.apache.ctakes.temporal.ae.feature.SyntacticParentFeatureExtractor, 0, 0, 0, 0, 0, 0, 0, 0, 0, 0, 0, 0, 0, 0,0.0,0.0,0.0,0.0,0.0,0.0,0.0,0.0,0.0,0.0,0.0,0.0,0.0,11,ctakes-temporal\src\main\java\org\apache\ctakes\temporal\ae\feature\SyntacticParentFeatureExtractor.java,0,0,1,2
org.apache.ctakes.temporal.ae.feature.TemporalAttributeFeatureExtractor, 0, 0, 0, 0, 0, 0, 0, 0, 0, 0, 0, 0, 0, 0,0.0,0.0,0.0,0.0,0.0,0.0,0.0,0.0,0.0,0.0,0.0,0.0,0.0,24,ctakes-temporal\src\main\java\org\apache\ctakes\temporal\ae\feature\TemporalAttributeFeatureExtractor.java,0,0,1,2
org.apache.ctakes.temporal.ae.feature.TemporalAttributeForMixEventTimeExtractor, 0, 0, 0, 0, 0, 0, 0, 0, 0, 0, 0, 0, 0, 0,0.0,0.0,0.0,0.0,0.0,0.0,0.0,0.0,0.0,0.0,0.0,0.0,0.0,34,ctakes-temporal\src\main\java\org\apache\ctakes\temporal\ae\feature\TemporalAttributeForMixEventTimeExtractor.java,0,0,1,2
org.apache.ctakes.temporal.ae.feature.TemporalPETFlatExtractor, 0, 0, 0, 0, 0, 0, 0, 0, 0, 0, 0, 0, 0, 0,0.0,0.0,0.0,0.0,0.0,0.0,0.0,0.0,0.0,0.0,0.0,0.0,0.0,125,ctakes-temporal\src\main\java\org\apache\ctakes\temporal\ae\feature\TemporalPETFlatExtractor.java,0,0,1,2
org.apache.ctakes.temporal.ae.feature.TokenPropertyFeaturesExtractor, 0, 0, 0, 0, 0, 0, 0, 0, 0, 0, 0, 0, 0, 0,0.0,0.0,0.0,0.0,0.0,0.0,0.0,0.0,0.0,0.0,0.0,0.0,0.0,87,ctakes-temporal\src\main\java\org\apache\ctakes\temporal\ae\feature\TokenPropertyFeaturesExtractor.java,0,0,1,2
org.apache.ctakes.temporal.ae.feature.UmlsFeatureExtractor, 0, 0, 0, 0, 0, 0, 0, 0, 0, 0, 0, 0, 0, 0,0.0,0.0,0.0,0.0,0.0,0.0,0.0,0.0,0.0,0.0,0.0,0.0,0.0,44,ctakes-temporal\src\main\java\org\apache\ctakes\temporal\ae\feature\UmlsFeatureExtractor.java,0,0,1,2
org.apache.ctakes.temporal.ae.feature.UmlsSingleFeatureExtractor, 0, 0, 0, 0, 0, 0, 0, 0, 0, 0, 0, 0, 0, 0,0.0,0.0,0.0,0.0,0.0,0.0,0.0,0.0,0.0,0.0,0.0,0.0,0.0,27,ctakes-temporal\src\main\java\org\apache\ctakes\temporal\ae\feature\UmlsSingleFeatureExtractor.java,0,0,0,0
org.apache.ctakes.temporal.ae.feature.UnexpandedTokenFeaturesExtractor, 0, 0, 0, 0, 0, 0, 0, 0, 0, 0, 0, 0, 0, 0,0.0,0.0,0.0,0.0,0.0,0.0,0.0,0.0,0.0,0.0,0.0,0.0,0.0,36,ctakes-temporal\src\main\java\org\apache\ctakes\temporal\ae\feature\UnexpandedTokenFeaturesExtractor.java,0,0,0,0
org.apache.ctakes.temporal.ae.feature.coreference.DistSemFeatureExtractor, 0, 0, 0, 0, 0, 0, 0, 0, 0, 0, 0, 0, 0, 0,0.0,0.0,0.0,0.0,0.0,0.0,0.0,0.0,0.0,0.0,0.0,0.0,0.0,55,ctakes-temporal\src\main\java\org\apache\ctakes\temporal\ae\feature\coreference\DistSemFeatureExtractor.java,75,0,0,75
org.apache.ctakes.temporal.ae.feature.coreference.DistanceFeatureExtractor, 0, 0, 0, 0, 0, 0, 0, 0, 0, 0, 0, 0, 0, 0,0.0,0.0,0.0,0.0,0.0,0.0,0.0,0.0,0.0,0.0,0.0,0.0,0.0,12,ctakes-temporal\src\main\java\org\apache\ctakes\temporal\ae\feature\coreference\DistanceFeatureExtractor.java,24,0,0,24
org.apache.ctakes.temporal.ae.feature.coreference.StringMatchingFeatureExtractor, 0, 0, 0, 0, 0, 0, 0, 0, 0, 0, 0, 0, 0, 0,0.0,0.0,0.0,0.0,0.0,0.0,0.0,0.0,0.0,0.0,0.0,0.0,0.0,71,ctakes-temporal\src\main\java\org\apache\ctakes\temporal\ae\feature\coreference\StringMatchingFeatureExtractor.java,84,0,0,84
org.apache.ctakes.temporal.ae.feature.coreference.TokenFeatureExtractor, 0, 0, 0, 0, 0, 0, 0, 0, 0, 0, 0, 0, 0, 0,0.0,0.0,0.0,0.0,0.0,0.0,0.0,0.0,0.0,0.0,0.0,0.0,0.0,72,ctakes-temporal\src\main\java\org\apache\ctakes\temporal\ae\feature\coreference\TokenFeatureExtractor.java,82,0,0,82
org.apache.ctakes.temporal.ae.feature.coreference.UMLSFeatureExtractor, 0, 0, 0, 0, 0, 0, 0, 0, 0, 0, 0, 0, 0, 0,0.0,0.0,0.0,0.0,0.0,0.0,0.0,0.0,0.0,0.0,0.0,0.0,0.0,48,ctakes-temporal\src\main\java\org\apache\ctakes\temporal\ae\feature\coreference\UMLSFeatureExtractor.java,63,0,0,63
org.apache.ctakes.temporal.ae.feature.selection.FeatureSelection, 0, 0, 0, 0, 0, 0, 0, 0, 0, 0, 0, 0, 0, 0,0.0,0.0,0.0,1.0,0.0,0.0,0.0,0.5,0.0,0.0,0.0,0.0,0.0,39,ctakes-temporal\src\main\java\org\apache\ctakes\temporal\ae\feature\selection\FeatureSelection.java,0,0,0,0
org.apache.ctakes.temporal.ae.feature.treekernel.DependencySingleTreeExtractor, 0, 0, 0, 0, 0, 0, 0, 0, 0, 0, 0, 0, 0, 0,0.0,0.0,0.0,0.0,0.0,0.0,0.0,0.0,0.0,0.0,0.0,0.0,0.0,34,ctakes-temporal\src\main\java\org\apache\ctakes\temporal\ae\feature\treekernel\DependencySingleTreeExtractor.java,0,0,0,0
org.apache.ctakes.temporal.ae.feature.treekernel.EventTimeFlatTreeFeatureExtractor, 0, 0, 0, 0, 0, 0, 0, 1, 0, 0, 0, 0, 0, 1,0.0,0.0,0.0,0.0,0.0,0.0,0.0,0.0,0.0,0.0,0.0,0.0,0.0,63,ctakes-temporal\src\main\java\org\apache\ctakes\temporal\ae\feature\treekernel\EventTimeFlatTreeFeatureExtractor.java,0,0,1,2
org.apache.ctakes.temporal.ae.feature.treekernel.SyntaticSingleTreeExtractor, 0, 0, 0, 0, 0, 0, 0, 0, 0, 0, 0, 0, 0, 0,0.0,0.0,0.0,0.0,0.0,0.0,0.0,0.0,0.0,0.0,0.0,0.0,0.0,26,ctakes-temporal\src\main\java\org\apache\ctakes\temporal\ae\feature\treekernel\SyntaticSingleTreeExtractor.java,0,0,0,0
org.apache.ctakes.temporal.ae.feature.treekernel.TemporalFTExtractor, 0, 0, 0, 0, 0, 0, 0, 0, 0, 0, 0, 0, 0, 0,0.0,0.0,0.0,0.0,0.0,0.0,0.0,0.0,0.0,0.0,0.0,0.0,0.0,49,ctakes-temporal\src\main\java\org\apache\ctakes\temporal\ae\feature\treekernel\TemporalFTExtractor.java,0,0,1,2
org.apache.ctakes.temporal.ae.feature.treekernel.TemporalPETExtractor, 0, 0, 0, 0, 0, 0, 0, 0, 0, 0, 0, 0, 0, 0,0.0,0.0,0.0,0.0,0.0,0.0,0.0,0.0,0.0,0.0,0.0,0.0,0.0,94,ctakes-temporal\src\main\java\org\apache\ctakes\temporal\ae\feature\treekernel\TemporalPETExtractor.java,0,0,1,2
org.apache.ctakes.temporal.ae.feature.treekernel.TemporalPathExtractor, 0, 0, 0, 0, 0, 0, 0, 0, 0, 0, 0, 0, 0, 0,0.0,0.0,0.0,0.0,0.0,0.0,0.0,0.0,0.0,0.0,0.0,0.0,0.0,48,ctakes-temporal\src\main\java\org\apache\ctakes\temporal\ae\feature\treekernel\TemporalPathExtractor.java,0,0,1,2
org.apache.ctakes.temporal.data.analysis.CompareFeatureStructures, 0, 0, 0, 0, 0, 0, 0, 0, 0, 0, 0, 0, 0, 0,0.0,0.0,0.0,0.0,0.0,0.0,0.0,0.0,0.0,0.0,0.0,0.0,0.0,242,ctakes-temporal\src\main\java\org\apache\ctakes\temporal\data\analysis\CompareFeatureStructures.java,0,0,0,0
org.apache.ctakes.temporal.data.analysis.EventContextAnalysisPipeline, 0, 0, 0, 0, 0, 0, 0, 0, 0, 0, 0, 0, 0, 0,0.0,0.0,0.0,0.0,0.0,0.0,0.0,0.0,0.0,0.0,0.0,0.0,0.0,122,ctakes-temporal\src\main\java\org\apache\ctakes\temporal\data\analysis\EventContextAnalysisPipeline.java,0,0,0,0
org.apache.ctakes.temporal.data.analysis.PrintInconsistentAnnotations, 0, 0, 0, 0, 0, 0, 0, 0, 0, 0, 0, 0, 0, 0,0.0,0.0,0.0,0.0,0.0,0.0,0.0,0.0,0.0,0.0,0.0,0.0,0.0,120,ctakes-temporal\src\main\java\org\apache\ctakes\temporal\data\analysis\PrintInconsistentAnnotations.java,0,0,0,0
org.apache.ctakes.temporal.data.analysis.PrintNormalizedTemporalExpressions, 0, 0, 0, 0, 0, 0, 0, 0, 0, 0, 0, 0, 0, 0,0.0,0.0,0.0,0.0,0.0,0.0,0.0,0.0,0.0,0.0,0.0,0.0,0.0,24,ctakes-temporal\src\main\java\org\apache\ctakes\temporal\data\analysis\PrintNormalizedTemporalExpressions.java,0,0,0,0
org.apache.ctakes.temporal.data.analysis.TimexTreeAlignmentStatistics, 0, 0, 0, 0, 0, 0, 0, 0, 0, 0, 0, 0, 0, 0,0.0,0.0,0.0,0.0,0.0,0.0,0.0,0.0,0.0,0.0,0.0,0.0,0.0,60,ctakes-temporal\src\main\java\org\apache\ctakes\temporal\data\analysis\TimexTreeAlignmentStatistics.java,0,0,0,0
org.apache.ctakes.temporal.duration.PreserveUMLSEventEventRelationsInGold, 0, 0, 0, 0, 0, 0, 0, 0, 0, 0, 0, 0, 0, 0,0.0,0.0,0.0,0.0,0.0,0.0,0.0,0.0,0.0,0.0,0.0,0.0,0.0,58,ctakes-temporal\src\main\java\org\apache\ctakes\temporal\duration\PreserveUMLSEventEventRelationsInGold.java,0,0,0,0
org.apache.ctakes.temporal.duration.PreserveUMLSEventTimeRelationsInGold, 0, 0, 0, 0, 0, 0, 0, 0, 0, 0, 0, 0, 0, 0,0.0,0.0,0.0,0.0,0.0,0.0,0.0,0.0,0.0,0.0,0.0,0.0,0.0,63,ctakes-temporal\src\main\java\org\apache\ctakes\temporal\duration\PreserveUMLSEventTimeRelationsInGold.java,0,0,0,0
org.apache.ctakes.temporal.eval.EvaluationOfClearTKEventSpans, 0, 0, 0, 0, 0, 0, 0, 1, 0, 0, 0, 0, 0, 1,0.0,0.0,0.0,0.0,0.0,0.0,0.0,0.0,0.0,0.0,0.0,0.0,0.0,54,ctakes-temporal\src\main\java\org\apache\ctakes\temporal\eval\EvaluationOfClearTKEventSpans.java,1,2,1,5
org.apache.ctakes.temporal.eval.EvaluationOfClearTKRelations, 0, 0, 0, 0, 0, 0, 0, 1, 0, 0, 0, 0, 0, 1,0.3333333333333333,0.0,0.0,0.0,0.0,0.0,0.0,0.0,0.0,0.0,0.0,0.0,0.0,110,ctakes-temporal\src\main\java\org\apache\ctakes\temporal\eval\EvaluationOfClearTKRelations.java,1,2,2,7
org.apache.ctakes.temporal.eval.EvaluationOfClearTKTimeSpans, 0, 0, 0, 0, 0, 0, 0, 1, 0, 0, 0, 0, 0, 1,0.0,0.0,0.0,0.0,0.0,0.0,0.0,0.0,0.0,0.0,0.0,0.0,0.0,53,ctakes-temporal\src\main\java\org\apache\ctakes\temporal\eval\EvaluationOfClearTKTimeSpans.java,1,2,1,5
org.apache.ctakes.temporal.eval.EvaluationOfEventProperties, 0, 0, 0, 0, 0, 0, 0, 1, 0, 0, 0, 0, 0, 1,0.0,0.0,0.0,0.0,0.0,0.0,0.0,0.0,0.0,0.0,0.0,0.0,0.0,210,ctakes-temporal\src\main\java\org\apache\ctakes\temporal\eval\EvaluationOfEventProperties.java,2,2,3,10
org.apache.ctakes.temporal.eval.EvaluationOfNEPredicateEventSpans, 0, 0, 0, 0, 0, 0, 0, 1, 0, 0, 0, 0, 0, 1,0.0,0.0,0.0,0.0,0.0,0.0,0.0,0.0,0.0,0.0,0.0,0.0,0.0,53,ctakes-temporal\src\main\java\org\apache\ctakes\temporal\eval\EvaluationOfNEPredicateEventSpans.java,0,1,4,9
org.apache.ctakes.temporal.eval.RemoveTreeAlignedMentions, 1, 0, 1, 0, 0, 0, 0, 0, 0, 0, 0, 0, 0, 2,0.0,0.0,0.0,0.0,0.0,0.0,0.0,0.0,0.0,0.0,0.0,0.0,0.0,34,ctakes-temporal\src\main\java\org\apache\ctakes\temporal\eval\RemoveTreeAlignedMentions.java,0,0,0,0
org.apache.ctakes.temporal.eval.THYMEData, 0, 0, 0, 0, 0, 0, 0, 0, 0, 0, 0, 0, 0, 0,0.0,0.0,0.0,0.0,0.0,0.0,0.0,0.0,0.0,0.0,0.0,0.0,0.0,47,ctakes-temporal\src\main\java\org\apache\ctakes\temporal\eval\THYMEData.java,0,1,0,1
org.apache.ctakes.temporal.pipelines.EventAndTimeExtractionPipeline, 0, 0, 0, 0, 0, 0, 0, 0, 0, 0, 0, 0, 0, 0,0.0,0.0,0.0,0.3333333333333333,0.0,0.0,0.0,0.3333333333333333,0.0,0.0,0.0,0.0,0.0,32,ctakes-temporal\src\main\java\org\apache\ctakes\temporal\pipelines\EventAndTimeExtractionPipeline.java,0,0,0,0
org.apache.ctakes.temporal.pipelines.EventExtractionPipeline, 0, 0, 0, 0, 0, 0, 0, 0, 0, 0, 0, 0, 0, 0,0.0,0.0,0.0,0.5,0.0,0.0,0.0,0.5,0.0,0.0,0.0,0.0,0.0,26,ctakes-temporal\src\main\java\org\apache\ctakes\temporal\pipelines\EventExtractionPipeline.java,0,0,0,0
org.apache.ctakes.temporal.pipelines.EventPrintingPipeline, 0, 0, 0, 0, 0, 0, 0, 0, 0, 0, 0, 0, 0, 0,0.0,0.0,0.0,0.0,0.0,0.0,0.0,0.0,0.0,0.0,0.0,0.0,0.0,38,ctakes-temporal\src\main\java\org\apache\ctakes\temporal\pipelines\EventPrintingPipeline.java,0,0,0,0
org.apache.ctakes.temporal.pipelines.FullTemporalExtractionPipeline, 0, 0, 0, 0, 0, 0, 0, 0, 0, 0, 0, 0, 0, 0,0.0,0.0,0.0,0.25,0.0,0.0,0.0,0.25,0.0,0.0,0.0,0.0,0.0,84,ctakes-temporal\src\main\java\org\apache\ctakes\temporal\pipelines\FullTemporalExtractionPipeline.java,3,0,0,3
org.apache.ctakes.temporal.pipelines.TemporalExtractionPipeline_ImplBase, 0, 0, 0, 0, 0, 0, 0, 0, 0, 0, 0, 0, 0, 0,0.08333333333333333,0.0,0.08333333333333333,0.08333333333333333,0.0,0.0,0.0,0.0,0.0,0.0,0.0,0.0,0.0,40,ctakes-temporal\src\main\java\org\apache\ctakes\temporal\pipelines\TemporalExtractionPipeline_ImplBase.java,0,0,0,0
org.apache.ctakes.temporal.pipelines.TimeExtractionPipeline, 0, 0, 0, 0, 0, 0, 0, 0, 0, 0, 0, 0, 0, 0,0.0,0.0,0.0,0.0,0.0,0.0,0.0,0.0,0.0,0.0,0.0,0.0,0.0,23,ctakes-temporal\src\main\java\org\apache\ctakes\temporal\pipelines\TimeExtractionPipeline.java,0,0,0,0
org.apache.ctakes.temporal.utils.CheckKnowtatorAnnotations, 0, 0, 0, 0, 0, 0, 0, 0, 0, 0, 0, 0, 0, 0,0.0,0.0,0.0,0.0,0.0,0.0,0.0,0.0,0.0,0.0,0.0,0.0,0.0,51,ctakes-temporal\src\main\java\org\apache\ctakes\temporal\utils\CheckKnowtatorAnnotations.java,0,0,0,0
org.apache.ctakes.temporal.utils.CorefConst, 0, 0, 0, 0, 0, 0, 0, 0, 0, 0, 0, 0, 0, 0,0.0,0.0,0.0,0.0,0.0,0.0,0.0,0.0,0.0,0.0,0.0,0.0,0.0,4,ctakes-temporal\src\main\java\org\apache\ctakes\temporal\utils\CorefConst.java,5,0,0,5
org.apache.ctakes.temporal.utils.RunCorpusDiagnostics, 0, 0, 0, 0, 0, 0, 0, 0, 0, 0, 0, 0, 0, 0,0.0,0.0,0.0,0.0,0.0,0.0,0.0,0.0,0.0,0.0,0.0,0.0,0.0,59,ctakes-temporal\src\main\java\org\apache\ctakes\temporal\utils\RunCorpusDiagnostics.java,0,0,0,0
org.apache.ctakes.temporal.utils.TLinkTypeArray2, 0, 0, 0, 1, 0, 0, 0, 1, 0, 0, 0, 0, 0, 2,0.0,0.0,0.0,0.0,0.0,0.0,0.0,0.0,0.0,0.0,0.0,0.0,0.0,267,ctakes-temporal\src\main\java\org\apache\ctakes\temporal\utils\TLinkTypeArray2.java,0,0,0,0
org.apache.ctakes.temporal.utils.TimeRelationConstants, 0, 0, 0, 0, 0, 0, 0, 0, 0, 0, 0, 0, 0, 0,0.0,0.0,0.0,0.0,0.0,0.0,0.0,0.0,0.0,0.0,0.0,0.0,0.0,267,ctakes-temporal\src\main\java\org\apache\ctakes\temporal\utils\TimeRelationConstants.java,0,0,0,0
org.apache.ctakes.typesystem.type.constants.CONST, 0, 0, 0, 1, 0, 0, 0, 0, 0, 0, 0, 0, 0, 1,0.0,0.0,0.0,0.0,0.0,0.0,0.0,0.0,0.0,0.0,0.0,0.0,0.0,155,ctakes-type-system\src\main\java\org\apache\ctakes\typesystem\type\constants\CONST.java,0,0,0,0
org.apache.ctakes.utils.distsem.DistanceMetrics, 0, 0, 0, 0, 0, 0, 0, 0, 0, 0, 0, 0, 0, 0,0.0,0.0,0.0,0.0,0.0,0.0,0.0,0.0,0.0,0.0,0.0,0.0,0.0,41,ctakes-utils\src\main\java\org\apache\ctakes\utils\distsem\DistanceMetrics.java,0,0,0,0
org.apache.ctakes.utils.distsem.WordVector, 0, 0, 0, 0, 0, 0, 0, 0, 0, 0, 0, 0, 0, 0,0.0,0.0,0.0,0.0,0.0,0.0,0.0,0.0,0.0,0.0,0.0,0.0,0.0,27,ctakes-utils\src\main\java\org\apache\ctakes\utils\distsem\WordVector.java,0,0,0,0
org.apache.ctakes.utils.distsem.WordVectorReader, 0, 0, 0, 0, 0, 0, 0, 0, 0, 0, 0, 0, 0, 0,0.0,0.0,0.0,0.0,0.0,0.0,0.0,0.0,0.0,0.0,0.0,0.0,0.0,29,ctakes-utils\src\main\java\org\apache\ctakes\utils\distsem\WordVectorReader.java,0,0,0,0
org.apache.ctakes.utils.kernel.Kernel, 0, 0, 0, 0, 0, 0, 0, 0, 0, 0, 0, 0, 0, 0,0.3333333333333333,0.0,0.0,0.0,0.0,0.0,0.0,0.0,0.0,0.0,0.0,0.0,0.0,22,ctakes-utils\src\main\java\org\apache\ctakes\utils\kernel\Kernel.java,0,0,0,0
org.apache.ctakes.utils.kernel.LinearKernel, 0, 0, 0, 0, 0, 0, 0, 0, 0, 0, 0, 0, 0, 0,1.0,0.0,0.0,0.0,0.0,0.0,0.0,0.0,0.0,0.0,0.0,0.0,0.0,8,ctakes-utils\src\main\java\org\apache\ctakes\utils\kernel\LinearKernel.java,0,0,0,0
org.apache.ctakes.utils.kernel.RBFKernel, 0, 0, 0, 0, 0, 0, 0, 0, 0, 0, 0, 0, 0, 0,0.5,0.0,0.0,0.0,0.0,0.0,0.0,0.0,0.0,0.0,0.0,0.0,0.0,28,ctakes-utils\src\main\java\org\apache\ctakes\utils\kernel\RBFKernel.java,0,0,0,0
org.apache.ctakes.utils.test.TestUtil, 1, 0, 0, 0, 0, 0, 0, 1, 0, 0, 0, 0, 0, 2,0.42857142857142855,0.0,0.0,0.14285714285714285,0.0,0.0,0.0,0.0,0.0,0.0,0.0,0.0,0.0,101,ctakes-utils\src\main\java\org\apache\ctakes\utils\test\TestUtil.java,0,0,0,0
org.apache.ctakes.utils.tree.FragmentUtils, 0, 0, 0, 0, 0, 0, 0, 0, 0, 0, 0, 0, 0, 0,0.5,0.0,0.0,0.0,0.0,0.0,0.0,0.0,0.0,0.0,0.0,0.0,0.0,27,ctakes-utils\src\main\java\org\apache\ctakes\utils\tree\FragmentUtils.java,0,0,0,0
org.apache.ctakes.utils.wiki.ApproximateMath, 0, 0, 0, 0, 0, 0, 0, 0, 0, 0, 0, 0, 0, 0,0.0,0.0,0.0,0.0,0.0,0.0,0.0,0.0,0.0,0.0,0.0,0.0,0.0,32,ctakes-utils\src\main\java\org\apache\ctakes\utils\wiki\ApproximateMath.java,0,0,0,0
org.apache.ctakes.utils.wiki.ApproximateSimilarity, 0, 0, 0, 0, 0, 0, 0, 0, 0, 0, 0, 0, 0, 0,0.0,0.0,0.0,0.0,0.0,0.0,0.0,0.0,0.0,0.0,0.0,0.0,0.0,11,ctakes-utils\src\main\java\org\apache\ctakes\utils\wiki\ApproximateSimilarity.java,0,0,0,0
org.apache.ctakes.utils.wiki.SearchResult, 0, 0, 1, 0, 0, 0, 0, 0, 0, 0, 0, 0, 0, 1,0.0,0.0,0.0,0.0,0.0,0.0,0.0,0.0,0.0,0.0,0.0,0.0,0.0,11,ctakes-utils\src\main\java\org\apache\ctakes\utils\wiki\SearchResult.java,0,0,0,0
org.apache.ctakes.utils.wiki.TestCosineSimilarity, 0, 0, 0, 0, 0, 0, 0, 0, 0, 0, 0, 0, 0, 0,0.0,0.0,0.0,0.0,0.0,0.0,0.0,0.0,0.0,0.0,0.0,0.0,0.0,34,ctakes-utils\src\main\java\org\apache\ctakes\utils\wiki\TestCosineSimilarity.java,0,0,0,0
org.apache.ctakes.utils.xcas_comparison.Compare, 0, 0, 0, 0, 0, 0, 0, 0, 0, 0, 0, 0, 0, 0,0.0,0.0,0.0,0.0,0.0,0.0,0.0,0.0,0.0,0.0,0.0,0.0,0.0,19,ctakes-utils\src\main\java\org\apache\ctakes\utils\xcas_comparison\Compare.java,0,0,0,0
org.apache.ctakes.utils.xcas_comparison.XcasDiff, 0, 0, 0, 0, 0, 0, 0, 0, 0, 0, 0, 0, 0, 0,0.0,0.0,0.0,0.0,0.0,0.0,0.0,0.0,0.0,0.0,0.0,0.0,0.0,125,ctakes-utils\src\main\java\org\apache\ctakes\utils\xcas_comparison\XcasDiff.java,0,0,0,0
org.apache.ctakes.ytex.KernelLauncher, 0, 0, 0, 0, 0, 0, 0, 0, 0, 0, 0, 0, 0, 0,0.0,0.0,0.0,0.0,0.0,0.0,0.0,0.0,0.0,0.0,0.0,0.0,0.0,128,ctakes-ytex\src\main\java\org\apache\ctakes\ytex\KernelLauncher.java,0,0,0,0
org.apache.ctakes.ytex.R.RGramMatrixExporter, 0, 0, 0, 0, 0, 0, 0, 0, 0, 0, 0, 0, 0, 0,0.0,0.0,0.0,0.0,0.0,0.0,0.0,0.0,0.0,0.0,0.0,0.0,0.0,128,ctakes-ytex\src\main\java\org\apache\ctakes\ytex\R\RGramMatrixExporter.java,0,0,0,0
org.apache.ctakes.ytex.kernel.BagOfWordsExporter, 0, 0, 0, 0, 0, 0, 0, 0, 0, 0, 0, 0, 0, 0,0.0,0.0,0.0,0.0,0.0,0.0,0.0,0.0,0.0,0.0,0.0,0.0,0.0,128,ctakes-ytex\src\main\java\org\apache\ctakes\ytex\kernel\BagOfWordsExporter.java,0,0,0,0
org.apache.ctakes.ytex.kernel.ClassifierEvaluationParser, 0, 0, 0, 0, 0, 0, 0, 0, 0, 0, 0, 0, 0, 0,0.0,0.0,0.0,0.0,0.0,0.0,0.0,0.0,0.0,0.0,0.0,0.0,0.0,128,ctakes-ytex\src\main\java\org\apache\ctakes\ytex\kernel\ClassifierEvaluationParser.java,0,0,0,0
org.apache.ctakes.ytex.kernel.ClassifierEvaluationResult, 0, 0, 0, 0, 0, 0, 0, 0, 0, 0, 0, 0, 0, 0,0.0,0.0,0.0,0.0,0.0,0.0,0.0,0.0,0.0,0.0,0.0,0.0,0.0,30,ctakes-ytex\src\main\java\org\apache\ctakes\ytex\kernel\ClassifierEvaluationResult.java,0,0,0,0
org.apache.ctakes.ytex.kernel.ClassifierEvaluationResults, 0, 0, 0, 0, 0, 0, 0, 0, 0, 0, 0, 0, 0, 0,0.0,0.0,0.0,0.0,0.0,0.0,0.0,0.0,0.0,0.0,0.0,0.0,0.0,43,ctakes-ytex\src\main\java\org\apache\ctakes\ytex\kernel\ClassifierEvaluationResults.java,0,0,0,0
org.apache.ctakes.ytex.kernel.CytoscapeHelper, 0, 0, 0, 0, 0, 0, 0, 0, 0, 0, 0, 0, 0, 0,0.0,0.0,0.0,0.0,0.0,0.0,0.0,0.0,0.0,0.0,0.0,0.0,0.0,43,ctakes-ytex\src\main\java\org\apache\ctakes\ytex\kernel\CytoscapeHelper.java,0,0,0,0
org.apache.ctakes.ytex.kernel.ImputedFeatureEvaluator, 0, 0, 0, 0, 0, 0, 0, 0, 0, 0, 0, 0, 0, 0,0.0,0.0,0.0,0.0,0.0,0.0,0.0,0.0,0.0,0.0,0.0,0.0,0.0,43,ctakes-ytex\src\main\java\org\apache\ctakes\ytex\kernel\ImputedFeatureEvaluator.java,0,0,0,0
org.apache.ctakes.ytex.kernel.IntrinsicInfoContentEvaluator, 0, 0, 0, 0, 0, 0, 0, 0, 0, 0, 0, 0, 0, 0,0.0,0.0,0.0,0.0,0.0,0.0,0.0,0.0,0.0,0.0,0.0,0.0,0.0,43,ctakes-ytex\src\main\java\org\apache\ctakes\ytex\kernel\IntrinsicInfoContentEvaluator.java,0,0,0,0
org.apache.ctakes.ytex.kernel.KernelContextHolder, 1, 0, 0, 0, 0, 0, 0, 0, 0, 0, 0, 0, 0, 1,0.0,0.0,0.0,0.0,0.0,0.0,0.0,0.0,0.0,0.0,0.0,0.0,0.0,12,ctakes-ytex\src\main\java\org\apache\ctakes\ytex\kernel\KernelContextHolder.java,0,0,0,0
org.apache.ctakes.ytex.kernel.OrderedPair, 0, 0, 0, 0, 0, 0, 0, 0, 0, 0, 0, 0, 0, 0,0.0,0.0,0.0,0.0,0.0,0.0,0.0,0.0,0.0,0.0,0.0,0.0,0.0,44,ctakes-ytex\src\main\java\org\apache\ctakes\ytex\kernel\OrderedPair.java,0,0,0,0
org.apache.ctakes.ytex.kernel.Pair, 0, 0, 0, 0, 0, 0, 0, 0, 0, 0, 0, 0, 0, 0,0.0,0.0,0.0,0.0,0.0,0.0,0.0,0.0,0.0,0.0,0.0,0.0,0.0,39,ctakes-ytex\src\main\java\org\apache\ctakes\ytex\kernel\Pair.java,0,0,0,0
org.apache.ctakes.ytex.kernel.RRFtoWideTab, 0, 0, 0, 0, 0, 0, 0, 0, 0, 0, 0, 0, 0, 0,0.0,0.0,0.0,0.0,0.0,0.0,0.0,0.0,0.0,0.0,0.0,0.0,0.0,43,ctakes-ytex\src\main\java\org\apache\ctakes\ytex\kernel\RRFtoWideTab.java,0,0,0,0
org.apache.ctakes.ytex.kernel.SimSvcContextHolder, 1, 0, 0, 0, 0, 0, 0, 0, 0, 0, 0, 0, 0, 1,0.0,0.0,0.0,0.0,0.0,0.0,0.0,0.0,0.0,0.0,0.0,0.0,0.0,12,ctakes-ytex\src\main\java\org\apache\ctakes\ytex\kernel\SimSvcContextHolder.java,0,0,0,0
org.apache.ctakes.ytex.kernel.SparseDataExporter, 0, 0, 0, 0, 0, 0, 0, 0, 0, 0, 0, 0, 0, 0,0.0,0.0,0.0,0.0,0.0,0.0,0.0,0.0,0.0,0.0,0.0,0.0,0.0,12,ctakes-ytex\src\main\java\org\apache\ctakes\ytex\kernel\SparseDataExporter.java,0,0,0,0
org.apache.ctakes.ytex.kernel.SparseDataFormatterFactory, 0, 0, 0, 0, 0, 0, 0, 0, 0, 0, 0, 0, 0, 0,0.0,0.0,0.0,0.0,0.0,0.0,0.0,0.0,0.0,0.0,0.0,0.0,0.0,12,ctakes-ytex\src\main\java\org\apache\ctakes\ytex\kernel\SparseDataFormatterFactory.java,0,0,0,0
org.apache.ctakes.ytex.kernel.dao.ConceptDao, 0, 0, 0, 0, 0, 0, 0, 0, 0, 0, 0, 0, 0, 0,0.0,0.0,0.0,0.0,0.0,0.0,0.0,0.0,0.0,0.0,0.0,0.0,0.0,12,ctakes-ytex\src\main\java\org\apache\ctakes\ytex\kernel\dao\ConceptDao.java,0,0,0,0
org.apache.ctakes.ytex.kernel.dao.KernelEvaluationDao, 0, 0, 0, 0, 0, 0, 0, 0, 0, 0, 0, 0, 0, 0,0.0,0.0,0.0,0.0,0.0,0.0,0.0,0.0,0.0,0.0,0.0,0.0,0.0,12,ctakes-ytex\src\main\java\org\apache\ctakes\ytex\kernel\dao\KernelEvaluationDao.java,0,0,0,0
org.apache.ctakes.ytex.kernel.dao.KernelEvaluationDaoImpl, 0, 0, 0, 0, 0, 0, 0, 1, 0, 0, 0, 0, 0, 1,0.0,0.0,0.0,0.5,0.0,0.0,0.0,0.0,0.0,0.0,0.0,0.0,0.0,123,ctakes-ytex\src\main\java\org\apache\ctakes\ytex\kernel\dao\KernelEvaluationDaoImpl.java,0,0,0,0
org.apache.ctakes.ytex.kernel.evaluator.AttributeProductKernel, 0, 0, 0, 0, 0, 0, 0, 0, 0, 0, 0, 0, 0, 0,0.0,0.0,0.0,0.0,0.0,0.0,0.0,0.0,0.0,0.0,0.0,0.0,0.0,12,ctakes-ytex\src\main\java\org\apache\ctakes\ytex\kernel\evaluator\AttributeProductKernel.java,0,0,0,0
org.apache.ctakes.ytex.kernel.evaluator.CacheKernel, 0, 0, 0, 0, 0, 0, 0, 0, 0, 0, 0, 0, 0, 0,0.0,0.0,0.0,0.0,0.0,0.0,0.0,0.0,0.0,0.0,0.0,0.0,0.0,47,ctakes-ytex\src\main\java\org\apache\ctakes\ytex\kernel\evaluator\CacheKernel.java,0,0,0,0
org.apache.ctakes.ytex.kernel.evaluator.CacheKeyGenerator, 0, 0, 0, 0, 0, 0, 0, 0, 0, 0, 0, 0, 0, 0,0.0,0.0,0.0,0.0,0.0,0.0,0.0,0.0,0.0,0.0,0.0,0.0,0.0,47,ctakes-ytex\src\main\java\org\apache\ctakes\ytex\kernel\evaluator\CacheKeyGenerator.java,0,0,0,0
org.apache.ctakes.ytex.kernel.evaluator.ConvolutionKernel, 0, 0, 0, 0, 0, 0, 0, 0, 0, 0, 0, 0, 0, 0,0.0,0.0,0.0,0.0,0.0,0.0,0.0,0.0,0.0,0.0,0.0,0.0,0.0,41,ctakes-ytex\src\main\java\org\apache\ctakes\ytex\kernel\evaluator\ConvolutionKernel.java,0,0,0,0
org.apache.ctakes.ytex.kernel.evaluator.EqualityKernel, 0, 0, 0, 0, 0, 0, 0, 0, 0, 0, 0, 0, 0, 0,0.0,0.0,0.0,0.0,0.0,0.0,0.0,0.0,0.0,0.0,0.0,0.0,0.0,13,ctakes-ytex\src\main\java\org\apache\ctakes\ytex\kernel\evaluator\EqualityKernel.java,0,0,0,0
org.apache.ctakes.ytex.kernel.evaluator.Kernel, 0, 0, 0, 0, 0, 0, 0, 0, 0, 0, 0, 0, 0, 0,0.0,0.0,0.0,0.0,0.0,0.0,0.0,0.0,0.0,0.0,0.0,0.0,0.0,13,ctakes-ytex\src\main\java\org\apache\ctakes\ytex\kernel\evaluator\Kernel.java,0,0,0,0
org.apache.ctakes.ytex.kernel.evaluator.LinKernel, 0, 0, 0, 0, 0, 0, 0, 0, 0, 0, 0, 0, 0, 0,0.0,0.0,0.0,0.0,0.0,0.0,0.0,0.0,0.0,0.0,0.0,0.0,0.0,6,ctakes-ytex\src\main\java\org\apache\ctakes\ytex\kernel\evaluator\LinKernel.java,0,0,0,0
org.apache.ctakes.ytex.kernel.evaluator.MethodCachingInterceptor, 0, 0, 0, 0, 0, 0, 0, 0, 0, 0, 0, 0, 0, 0,0.0,0.0,0.0,0.0,0.0,0.0,0.0,0.0,0.0,0.0,0.0,0.0,0.0,56,ctakes-ytex\src\main\java\org\apache\ctakes\ytex\kernel\evaluator\MethodCachingInterceptor.java,0,0,0,0
org.apache.ctakes.ytex.kernel.evaluator.NamedEntityNegationKernel, 0, 0, 0, 0, 0, 0, 0, 0, 0, 0, 0, 0, 0, 0,0.0,0.0,0.0,0.0,0.0,0.0,0.0,0.0,0.0,0.0,0.0,0.0,0.0,22,ctakes-ytex\src\main\java\org\apache\ctakes\ytex\kernel\evaluator\NamedEntityNegationKernel.java,0,0,0,0
org.apache.ctakes.ytex.kernel.evaluator.NodeAttributeKernel, 0, 0, 0, 0, 0, 0, 0, 0, 0, 0, 0, 0, 0, 0,0.0,0.0,0.0,0.0,0.0,0.0,0.0,0.0,0.0,0.0,0.0,0.0,0.0,29,ctakes-ytex\src\main\java\org\apache\ctakes\ytex\kernel\evaluator\NodeAttributeKernel.java,0,0,0,0
org.apache.ctakes.ytex.kernel.evaluator.NormKernel, 0, 0, 0, 0, 0, 0, 0, 0, 0, 0, 0, 0, 0, 0,0.0,0.0,0.0,0.0,0.0,0.0,0.0,0.0,0.0,0.0,0.0,0.0,0.0,71,ctakes-ytex\src\main\java\org\apache\ctakes\ytex\kernel\evaluator\NormKernel.java,0,0,0,0
org.apache.ctakes.ytex.kernel.evaluator.SumKernel, 0, 0, 0, 0, 0, 0, 0, 0, 0, 0, 0, 0, 0, 0,0.0,0.0,0.0,0.0,0.0,0.0,0.0,0.0,0.0,0.0,0.0,0.0,0.0,17,ctakes-ytex\src\main\java\org\apache\ctakes\ytex\kernel\evaluator\SumKernel.java,0,0,0,0
org.apache.ctakes.ytex.kernel.evaluator.SymmetricPairCacheKeyGenerator, 0, 0, 0, 0, 0, 0, 0, 0, 0, 0, 0, 0, 0, 0,0.0,0.0,0.0,0.0,0.0,0.0,0.0,0.0,0.0,0.0,0.0,0.0,0.0,11,ctakes-ytex\src\main\java\org\apache\ctakes\ytex\kernel\evaluator\SymmetricPairCacheKeyGenerator.java,0,0,0,0
org.apache.ctakes.ytex.kernel.metric.ConceptInfo, 0, 0, 0, 0, 0, 0, 0, 0, 0, 0, 0, 0, 0, 0,0.0,0.0,0.0,0.0,0.0,0.0,0.0,0.0,0.0,0.0,0.0,0.0,0.0,41,ctakes-ytex\src\main\java\org\apache\ctakes\ytex\kernel\metric\ConceptInfo.java,0,0,0,0
org.apache.ctakes.ytex.kernel.metric.ConceptPair, 0, 0, 0, 0, 0, 0, 0, 0, 0, 0, 0, 0, 0, 0,0.0,0.0,0.0,0.0,0.0,0.0,0.0,0.0,0.0,0.0,0.0,0.0,0.0,68,ctakes-ytex\src\main\java\org\apache\ctakes\ytex\kernel\metric\ConceptPair.java,0,0,0,0
org.apache.ctakes.ytex.kernel.metric.ConceptPairSimilarity, 0, 0, 0, 0, 0, 0, 0, 0, 0, 0, 0, 0, 0, 0,0.0,0.0,0.0,0.5,0.0,0.0,0.0,0.0,0.0,0.0,0.0,0.0,0.0,30,ctakes-ytex\src\main\java\org\apache\ctakes\ytex\kernel\metric\ConceptPairSimilarity.java,0,0,0,0
org.apache.ctakes.ytex.kernel.metric.SimilarityInfo, 0, 0, 0, 1, 0, 0, 0, 0, 0, 0, 0, 0, 0, 1,0.0,0.0,0.0,0.0,0.0,0.0,0.0,0.0,0.0,0.0,0.0,0.0,0.0,59,ctakes-ytex\src\main\java\org\apache\ctakes\ytex\kernel\metric\SimilarityInfo.java,0,0,0,0
org.apache.ctakes.ytex.kernel.model.ClassifierEvaluationIRStat, 0, 0, 0, 1, 0, 0, 0, 1, 0, 0, 0, 0, 0, 2,0.0,0.0,0.0,0.0,0.0,0.0,0.0,0.0,0.0,0.0,0.0,0.0,0.0,124,ctakes-ytex\src\main\java\org\apache\ctakes\ytex\kernel\model\ClassifierEvaluationIRStat.java,0,0,0,0
org.apache.ctakes.ytex.kernel.model.CrossValidationFold, 0, 0, 0, 1, 0, 0, 0, 1, 0, 0, 0, 0, 0, 2,0.0,0.0,0.0,0.0,0.0,0.0,0.0,0.0,0.0,0.0,0.0,0.0,0.0,65,ctakes-ytex\src\main\java\org\apache\ctakes\ytex\kernel\model\CrossValidationFold.java,0,0,0,0
org.apache.ctakes.ytex.kernel.model.CrossValidationFoldInstance, 0, 0, 0, 0, 0, 0, 0, 0, 0, 0, 0, 0, 0, 0,0.0,0.0,0.0,0.0,0.0,0.0,0.0,0.0,0.0,0.0,0.0,0.0,0.0,48,ctakes-ytex\src\main\java\org\apache\ctakes\ytex\kernel\model\CrossValidationFoldInstance.java,0,0,0,0
org.apache.ctakes.ytex.kernel.model.FeatureEvaluation, 0, 0, 0, 1, 0, 0, 0, 0, 0, 0, 0, 0, 0, 1,0.0,0.0,0.0,0.0,0.0,0.0,0.0,0.0,0.0,0.0,0.0,0.0,0.0,70,ctakes-ytex\src\main\java\org\apache\ctakes\ytex\kernel\model\FeatureEvaluation.java,0,0,0,0
org.apache.ctakes.ytex.kernel.model.FeatureParentChild, 0, 0, 0, 0, 0, 0, 0, 0, 0, 0, 0, 0, 0, 0,0.0,0.0,0.0,0.0,0.0,0.0,0.0,0.0,0.0,0.0,0.0,0.0,0.0,24,ctakes-ytex\src\main\java\org\apache\ctakes\ytex\kernel\model\FeatureParentChild.java,0,0,0,0
org.apache.ctakes.ytex.kernel.model.KernelEvaluation, 0, 0, 0, 1, 0, 0, 0, 0, 0, 0, 0, 0, 0, 1,0.0,0.0,0.0,0.0,0.0,0.0,0.0,1.0,0.0,0.0,0.0,0.0,0.0,52,ctakes-ytex\src\main\java\org\apache\ctakes\ytex\kernel\model\KernelEvaluation.java,0,0,0,0
org.apache.ctakes.ytex.kernel.model.KernelEvaluationInstance, 0, 0, 0, 0, 0, 0, 0, 0, 0, 0, 0, 0, 0, 0,0.0,0.0,0.0,0.0,0.0,0.0,0.0,1.0,0.0,0.0,0.0,0.0,0.0,68,ctakes-ytex\src\main\java\org\apache\ctakes\ytex\kernel\model\KernelEvaluationInstance.java,0,0,0,0
org.apache.ctakes.ytex.kernel.model.ObjPair, 0, 0, 1, 0, 0, 0, 0, 0, 0, 0, 0, 0, 0, 1,0.0,0.0,0.0,0.0,0.0,0.0,0.0,0.0,0.0,0.0,0.0,0.0,0.0,12,ctakes-ytex\src\main\java\org\apache\ctakes\ytex\kernel\model\ObjPair.java,0,0,0,0
org.apache.ctakes.ytex.kernel.model.SVMClassifierEvaluation, 0, 0, 0, 1, 0, 0, 0, 0, 0, 0, 0, 0, 0, 1,0.0,0.0,0.0,0.0,0.0,0.0,0.0,0.0,0.0,0.0,0.0,0.0,0.0,52,ctakes-ytex\src\main\java\org\apache\ctakes\ytex\kernel\model\SVMClassifierEvaluation.java,0,0,0,0
org.apache.ctakes.ytex.kernel.model.SemiLClassifierEvaluation, 0, 0, 0, 1, 0, 0, 0, 0, 0, 0, 0, 0, 0, 1,0.0,0.0,0.0,0.0,0.0,0.0,0.0,0.0,0.0,0.0,0.0,0.0,0.0,59,ctakes-ytex\src\main\java\org\apache\ctakes\ytex\kernel\model\SemiLClassifierEvaluation.java,0,0,0,0
org.apache.ctakes.ytex.kernel.tree.NodeMappingInfo, 0, 0, 0, 0, 0, 0, 0, 0, 0, 0, 0, 0, 0, 0,0.0,0.0,0.0,0.0,0.0,0.0,0.0,0.0,0.0,0.0,0.0,0.0,0.0,24,ctakes-ytex\src\main\java\org\apache\ctakes\ytex\kernel\tree\NodeMappingInfo.java,0,0,0,0
org.apache.ctakes.ytex.kernel.tree.TreeMappingInfo, 0, 0, 0, 0, 0, 0, 0, 0, 0, 0, 0, 0, 0, 0,0.0,0.0,0.0,0.0,0.0,0.0,0.0,0.0,0.0,0.0,0.0,0.0,0.0,40,ctakes-ytex\src\main\java\org\apache\ctakes\ytex\kernel\tree\TreeMappingInfo.java,0,0,0,0
org.apache.ctakes.ytex.libsvm.LibSVMGramMatrixExporter, 0, 0, 0, 0, 0, 0, 0, 0, 0, 0, 0, 0, 0, 0,0.0,0.0,0.0,0.0,0.0,0.0,0.0,0.0,0.0,0.0,0.0,0.0,0.0,40,ctakes-ytex\src\main\java\org\apache\ctakes\ytex\libsvm\LibSVMGramMatrixExporter.java,0,0,0,0
org.apache.ctakes.ytex.sparsematrix.InstanceDataExporter, 0, 0, 0, 0, 0, 0, 0, 0, 0, 0, 0, 0, 0, 0,0.0,0.0,0.0,0.0,0.0,0.0,0.0,0.0,0.0,0.0,0.0,0.0,0.0,40,ctakes-ytex\src\main\java\org\apache\ctakes\ytex\sparsematrix\InstanceDataExporter.java,0,0,0,0
org.apache.ctakes.ytex.tools.RunCPE, 0, 0, 0, 0, 0, 0, 0, 0, 0, 0, 0, 0, 0, 0,0.0,0.0,0.0,0.0,0.0,0.0,0.0,0.0,0.0,0.0,0.0,0.0,0.0,97,ctakes-ytex-uima\src\main\java\org\apache\ctakes\ytex\tools\RunCPE.java,0,0,0,0
org.apache.ctakes.ytex.tools.SetupAuiFirstWordTest, 0, 0, 0, 0, 0, 0, 0, 0, 0, 0, 0, 0, 0, 0,0.0,0.0,0.0,1.0,0.0,0.0,0.0,0.0,0.0,0.0,0.0,0.0,0.0,8,ctakes-ytex-uima\src\test\java\org\apache\ctakes\ytex\tools\SetupAuiFirstWordTest.java,0,0,0,0
org.apache.ctakes.ytex.uima.TestUtils, 0, 0, 0, 0, 0, 0, 0, 0, 0, 0, 0, 0, 0, 0,0.0,0.0,0.0,0.0,0.0,0.0,0.0,0.0,0.0,0.0,0.0,0.0,0.0,44,ctakes-ytex-uima\src\test\java\org\apache\ctakes\ytex\uima\TestUtils.java,0,0,0,0
org.apache.ctakes.ytex.uima.annotators.DBCollectionReaderTest, 0, 0, 0, 0, 0, 0, 0, 0, 0, 0, 0, 0, 0, 0,0.0,0.0,0.0,0.0,0.0,0.0,0.0,0.0,0.0,0.0,0.0,0.0,0.0,16,ctakes-ytex-uima\src\test\java\org\apache\ctakes\ytex\uima\annotators\DBCollectionReaderTest.java,0,0,0,0
org.apache.ctakes.ytex.uima.annotators.DBConsumer, 0, 0, 0, 0, 0, 0, 0, 0, 0, 0, 0, 0, 0, 0,0.0,0.0,0.0,0.0,0.0,0.0,0.0,0.0,0.0,0.0,0.0,0.0,0.0,70,ctakes-ytex-uima\src\main\java\org\apache\ctakes\ytex\uima\annotators\DBConsumer.java,0,0,0,0
org.apache.ctakes.ytex.uima.annotators.DateAnnotator, 0, 0, 0, 0, 0, 0, 0, 0, 0, 0, 0, 0, 0, 0,0.0,0.0,0.0,0.0,0.0,0.0,0.0,0.0,0.0,0.0,0.0,0.0,0.0,47,ctakes-ytex-uima\src\main\java\org\apache\ctakes\ytex\uima\annotators\DateAnnotator.java,0,0,0,0
org.apache.ctakes.ytex.uima.annotators.DateAnnotatorTest, 0, 0, 0, 0, 0, 0, 0, 0, 0, 0, 0, 0, 0, 0,0.0,0.0,0.0,0.0,0.0,0.0,0.0,0.0,0.0,0.0,0.0,0.0,0.0,20,ctakes-ytex-uima\src\test\java\org\apache\ctakes\ytex\uima\annotators\DateAnnotatorTest.java,0,0,0,0
org.apache.ctakes.ytex.uima.annotators.DictionaryLookupAnnotatorTest, 0, 0, 0, 0, 0, 0, 0, 0, 0, 0, 0, 0, 0, 0,0.0,0.0,0.0,0.0,0.0,0.0,0.0,0.0,0.0,0.0,0.0,0.0,0.0,55,ctakes-ytex-uima\src\test\java\org\apache\ctakes\ytex\uima\annotators\DictionaryLookupAnnotatorTest.java,0,0,0,0
org.apache.ctakes.ytex.uima.annotators.NamedEntityRegexTest, 0, 0, 0, 0, 0, 0, 0, 0, 0, 0, 0, 0, 0, 0,0.0,0.0,0.0,1.0,0.0,0.0,0.0,0.0,0.0,0.0,0.0,0.0,0.0,29,ctakes-ytex-uima\src\test\java\org\apache\ctakes\ytex\uima\annotators\NamedEntityRegexTest.java,0,0,0,0
org.apache.ctakes.ytex.uima.annotators.SegmentRegexTest, 0, 0, 0, 0, 0, 0, 0, 0, 0, 0, 0, 0, 0, 0,0.0,0.0,0.0,0.0,0.0,0.0,0.0,0.0,0.0,0.0,0.0,0.0,0.0,35,ctakes-ytex-uima\src\test\java\org\apache\ctakes\ytex\uima\annotators\SegmentRegexTest.java,0,0,0,0
org.apache.ctakes.ytex.uima.annotators.SentenceDetectorTest, 0, 0, 0, 0, 0, 0, 0, 0, 0, 0, 0, 0, 0, 0,0.0,0.0,0.0,0.0,0.0,0.0,0.0,0.0,0.0,0.0,0.0,0.0,0.0,34,ctakes-ytex-uima\src\test\java\org\apache\ctakes\ytex\uima\annotators\SentenceDetectorTest.java,0,0,0,0
org.apache.ctakes.ytex.uima.dao.DocumentDao, 0, 0, 0, 0, 0, 0, 0, 0, 0, 0, 0, 0, 0, 0,0.0,0.0,0.0,0.0,0.0,0.0,0.0,0.0,0.0,0.0,0.0,0.0,0.0,34,ctakes-ytex-uima\src\main\java\org\apache\ctakes\ytex\uima\dao\DocumentDao.java,0,0,0,0
org.apache.ctakes.ytex.uima.dao.DocumentDaoImpl, 0, 0, 0, 0, 0, 0, 0, 0, 0, 0, 0, 0, 0, 0,0.0,0.0,0.0,1.0,0.0,0.0,0.0,0.0,0.0,0.0,0.0,0.0,0.0,14,ctakes-ytex-uima\src\main\java\org\apache\ctakes\ytex\uima\dao\DocumentDaoImpl.java,0,0,0,0
org.apache.ctakes.ytex.uima.dao.NamedEntityRegexDao, 0, 0, 0, 0, 0, 0, 0, 0, 0, 0, 0, 0, 0, 0,0.0,0.0,0.0,0.0,0.0,0.0,0.0,0.0,0.0,0.0,0.0,0.0,0.0,14,ctakes-ytex-uima\src\main\java\org\apache\ctakes\ytex\uima\dao\NamedEntityRegexDao.java,0,0,0,0
org.apache.ctakes.ytex.uima.dao.NamedEntityRegexDaoImpl, 0, 0, 0, 0, 0, 0, 0, 0, 0, 0, 0, 0, 0, 0,0.0,0.0,0.0,0.0,0.0,0.0,0.0,0.0,0.0,0.0,0.0,0.0,0.0,13,ctakes-ytex-uima\src\main\java\org\apache\ctakes\ytex\uima\dao\NamedEntityRegexDaoImpl.java,0,0,0,0
org.apache.ctakes.ytex.uima.dao.SegmentRegexDao, 0, 0, 0, 0, 0, 0, 0, 0, 0, 0, 0, 0, 0, 0,0.0,0.0,0.0,0.0,0.0,0.0,0.0,0.0,0.0,0.0,0.0,0.0,0.0,13,ctakes-ytex-uima\src\main\java\org\apache\ctakes\ytex\uima\dao\SegmentRegexDao.java,0,0,0,0
org.apache.ctakes.ytex.uima.dao.SegmentRegexDaoImpl, 0, 0, 0, 0, 0, 0, 0, 0, 0, 0, 0, 0, 0, 0,0.0,0.0,0.0,0.0,0.0,0.0,0.0,0.0,0.0,0.0,0.0,0.0,0.0,13,ctakes-ytex-uima\src\main\java\org\apache\ctakes\ytex\uima\dao\SegmentRegexDaoImpl.java,0,0,0,0
org.apache.ctakes.ytex.uima.mapper.ColumnMappingInfo, 0, 0, 0, 1, 0, 0, 0, 0, 0, 0, 0, 0, 0, 1,0.0,0.0,0.0,0.0,0.0,0.0,0.0,0.0,0.0,0.0,0.0,0.0,0.0,101,ctakes-ytex-uima\src\main\java\org\apache\ctakes\ytex\uima\mapper\ColumnMappingInfo.java,0,0,0,0
org.apache.ctakes.ytex.uima.mapper.DocumentMapperService, 0, 0, 0, 0, 0, 0, 0, 0, 0, 0, 0, 0, 0, 0,0.0,0.0,0.0,0.0,0.0,0.0,0.0,0.0,0.0,0.0,0.0,0.0,0.0,101,ctakes-ytex-uima\src\main\java\org\apache\ctakes\ytex\uima\mapper\DocumentMapperService.java,0,0,0,0
org.apache.ctakes.ytex.uima.mapper.ISO8601Converter, 0, 0, 0, 0, 0, 0, 0, 0, 0, 0, 0, 0, 0, 0,0.0,0.0,0.0,0.0,0.0,0.0,0.0,0.0,0.0,0.0,0.0,0.0,0.0,29,ctakes-ytex-uima\src\main\java\org\apache\ctakes\ytex\uima\mapper\ISO8601Converter.java,0,0,0,0
org.apache.ctakes.ytex.uima.mapper.MapperConfig, 1, 0, 0, 0, 0, 0, 0, 0, 0, 0, 0, 0, 0, 1,0.0,0.0,0.0,0.0,0.0,0.0,0.0,0.0,0.0,0.0,0.0,0.0,0.0,33,ctakes-ytex-uima\src\main\java\org\apache\ctakes\ytex\uima\mapper\MapperConfig.java,0,0,0,0
org.apache.ctakes.ytex.uima.model.AnnotationContainmentLink, 0, 0, 0, 0, 0, 0, 0, 0, 0, 0, 0, 0, 0, 0,0.0,0.0,0.0,0.0,0.0,0.0,0.0,0.0,0.0,0.0,0.0,0.0,0.0,31,ctakes-ytex-uima\src\main\java\org\apache\ctakes\ytex\uima\model\AnnotationContainmentLink.java,0,0,0,0
org.apache.ctakes.ytex.uima.model.BooleanUtil, 0, 0, 0, 0, 0, 0, 0, 0, 0, 0, 0, 0, 0, 0,0.0,0.0,0.0,0.0,0.0,0.0,0.0,0.0,0.0,0.0,0.0,0.0,0.0,23,ctakes-ytex-uima\src\main\java\org\apache\ctakes\ytex\uima\model\BooleanUtil.java,0,0,0,0
org.apache.ctakes.ytex.uima.model.Document, 0, 0, 0, 1, 0, 0, 0, 0, 0, 0, 0, 0, 0, 1,0.0,0.0,0.0,0.3333333333333333,0.0,0.0,0.0,0.0,0.0,0.0,0.0,0.0,0.0,69,ctakes-ytex-uima\src\main\java\org\apache\ctakes\ytex\uima\model\Document.java,0,0,0,0
org.apache.ctakes.ytex.uima.model.DocumentAnnotation, 0, 0, 0, 1, 0, 0, 0, 0, 0, 0, 0, 0, 0, 1,0.0,0.0,0.0,0.5,0.0,0.0,0.0,0.0,0.0,0.0,0.0,0.0,0.0,52,ctakes-ytex-uima\src\main\java\org\apache\ctakes\ytex\uima\model\DocumentAnnotation.java,0,0,0,0
org.apache.ctakes.ytex.uima.model.DocumentClass, 0, 0, 0, 0, 0, 0, 0, 0, 0, 0, 0, 0, 0, 0,0.0,0.0,0.0,1.0,0.0,0.0,0.0,0.0,0.0,0.0,0.0,0.0,0.0,41,ctakes-ytex-uima\src\main\java\org\apache\ctakes\ytex\uima\model\DocumentClass.java,0,0,0,0
org.apache.ctakes.ytex.uima.model.NamedEntityRegex, 0, 0, 0, 1, 0, 0, 0, 0, 0, 0, 0, 0, 0, 1,0.0,0.0,0.0,0.0,0.0,0.0,0.0,0.0,0.0,0.0,0.0,0.0,0.0,71,ctakes-ytex-uima\src\main\java\org\apache\ctakes\ytex\uima\model\NamedEntityRegex.java,0,0,0,0
org.apache.ctakes.ytex.uima.model.SegmentRegex, 0, 0, 0, 0, 0, 0, 0, 0, 0, 0, 0, 0, 0, 0,0.0,0.0,0.0,0.0,0.0,0.0,0.0,0.0,0.0,0.0,0.0,0.0,0.0,59,ctakes-ytex-uima\src\main\java\org\apache\ctakes\ytex\uima\model\SegmentRegex.java,0,0,0,0
org.apache.ctakes.ytex.uima.model.UimaType, 0, 0, 0, 0, 0, 0, 0, 0, 0, 0, 0, 0, 0, 0,0.0,0.0,0.0,1.0,0.0,0.0,0.0,0.0,0.0,0.0,0.0,0.0,0.0,56,ctakes-ytex-uima\src\main\java\org\apache\ctakes\ytex\uima\model\UimaType.java,0,0,0,0
org.apache.ctakes.ytex.umls.dao.UMLSDaoTest, 0, 0, 0, 0, 0, 0, 0, 0, 0, 0, 0, 0, 0, 0,0.0,0.0,0.0,0.0,0.0,0.0,0.0,0.0,0.0,0.0,0.0,0.0,0.0,24,ctakes-ytex\src\test\java\org\apache\ctakes\ytex\umls\dao\UMLSDaoTest.java,0,0,0,0
org.apache.ctakes.ytex.umls.model.MRCONSO, 0, 0, 0, 1, 0, 0, 0, 0, 0, 0, 0, 0, 0, 1,0.0,0.0,0.0,0.0,0.0,0.0,0.0,0.0,0.0,0.0,0.0,0.0,0.0,155,ctakes-ytex\src\main\java\org\apache\ctakes\ytex\umls\model\MRCONSO.java,0,0,0,0
org.apache.ctakes.ytex.umls.model.MRREL, 0, 0, 0, 1, 0, 0, 0, 0, 0, 0, 0, 0, 0, 1,0.0,0.0,0.0,0.0,0.0,0.0,0.0,0.0,0.0,0.0,0.0,0.0,0.0,72,ctakes-ytex\src\main\java\org\apache\ctakes\ytex\umls\model\MRREL.java,0,0,0,0
org.apache.ctakes.ytex.umls.model.MRSTY, 0, 0, 0, 1, 0, 0, 0, 0, 0, 0, 0, 0, 0, 1,0.0,0.0,0.0,0.0,0.0,0.0,0.0,0.0,0.0,0.0,0.0,0.0,0.0,81,ctakes-ytex\src\main\java\org\apache\ctakes\ytex\umls\model\MRSTY.java,0,0,0,0
org.apache.ctakes.ytex.umls.model.UmlsAuiFirstWord, 0, 0, 0, 1, 0, 0, 0, 0, 0, 0, 0, 0, 0, 1,0.0,0.0,0.0,0.0,0.0,0.0,0.0,0.0,0.0,0.0,0.0,0.0,0.0,50,ctakes-ytex\src\main\java\org\apache\ctakes\ytex\umls\model\UmlsAuiFirstWord.java,0,0,0,0
org.apache.ctakes.ytex.web.search.ConceptFirstWord, 0, 0, 0, 0, 0, 0, 0, 0, 0, 0, 0, 0, 0, 0,0.0,0.0,0.0,0.0,0.0,0.0,0.0,0.0,0.0,0.0,0.0,0.0,0.0,28,ctakes-ytex-web\src\main\java\org\apache\ctakes\ytex\web\search\ConceptFirstWord.java,0,0,0,0
org.apache.ctakes.ytex.web.search.ConceptSearchService, 0, 0, 0, 0, 0, 0, 0, 0, 0, 0, 0, 0, 0, 0,0.0,0.0,0.0,0.0,0.0,0.0,0.0,0.0,0.0,0.0,0.0,0.0,0.0,28,ctakes-ytex-web\src\main\java\org\apache\ctakes\ytex\web\search\ConceptSearchService.java,0,0,0,0
org.apache.ctakes.ytex.web.search.DocumentSearchResult, 0, 0, 0, 1, 0, 0, 0, 1, 0, 0, 0, 0, 0, 2,0.0,0.0,0.0,0.0,0.0,0.0,0.0,0.0,0.0,0.0,0.0,0.0,0.0,63,ctakes-ytex-web\src\main\java\org\apache\ctakes\ytex\web\search\DocumentSearchResult.java,0,0,0,0
org.apache.ctakes.ytex.web.search.FullTextDocumentViewBean, 0, 0, 0, 0, 0, 0, 0, 0, 0, 0, 0, 0, 0, 0,0.0,0.0,0.0,0.0,0.0,0.0,0.0,0.0,0.0,0.0,0.0,0.0,0.0,30,ctakes-ytex-web\src\main\java\org\apache\ctakes\ytex\web\search\FullTextDocumentViewBean.java,0,0,0,0
org.apache.ctakes.ytex.web.search.SearchConfigBean, 0, 0, 0, 0, 0, 0, 0, 0, 0, 0, 0, 0, 0, 0,0.0,0.0,0.0,0.0,0.0,0.0,0.0,0.0,0.0,0.0,0.0,0.0,0.0,9,ctakes-ytex-web\src\main\java\org\apache\ctakes\ytex\web\search\SearchConfigBean.java,0,0,0,0
org.apache.ctakes.ytex.web.search.SemanticSimServiceBean, 0, 0, 0, 0, 0, 0, 0, 0, 0, 0, 0, 0, 0, 0,0.0,0.0,0.0,0.0,0.0,0.0,0.0,0.0,0.0,0.0,0.0,0.0,0.0,25,ctakes-ytex-web\src\main\java\org\apache\ctakes\ytex\web\search\SemanticSimServiceBean.java,0,0,0,0
org.apache.ctakes.ytex.weka.DocumentResultInstanceImporter, 0, 0, 0, 0, 0, 0, 0, 1, 0, 0, 0, 0, 0, 1,0.0,0.0,0.0,0.0,0.0,0.0,0.0,0.0,0.0,0.0,0.0,0.0,0.0,28,ctakes-ytex\src\main\java\org\apache\ctakes\ytex\weka\DocumentResultInstanceImporter.java,0,0,0,0
org.apache.ctakes.ytex.weka.ExportBagOfWords, 0, 0, 0, 0, 0, 0, 0, 0, 0, 0, 0, 0, 0, 0,1.0,0.0,0.0,0.0,0.0,0.0,0.0,0.0,0.0,0.0,0.0,0.0,0.0,7,ctakes-ytex\src\main\java\org\apache\ctakes\ytex\weka\ExportBagOfWords.java,0,0,0,0
org.apache.ctakes.ytex.weka.ExportGramMatrix, 0, 0, 0, 0, 0, 0, 0, 0, 0, 0, 0, 0, 0, 0,1.0,0.0,0.0,0.0,0.0,0.0,0.0,0.0,0.0,0.0,0.0,0.0,0.0,12,ctakes-ytex\src\main\java\org\apache\ctakes\ytex\weka\ExportGramMatrix.java,0,0,0,0
org.apache.ctakes.ytex.weka.GramMatrixExporter, 0, 0, 0, 0, 0, 0, 0, 0, 0, 0, 0, 0, 0, 0,0.0,0.0,0.0,0.0,0.0,0.0,0.0,0.0,0.0,0.0,0.0,0.0,0.0,12,ctakes-ytex\src\main\java\org\apache\ctakes\ytex\weka\GramMatrixExporter.java,0,0,0,0
org.apache.ctakes.ytex.weka.WekaAttributeEvaluator, 0, 0, 0, 0, 0, 0, 0, 0, 0, 0, 0, 0, 0, 0,0.0,0.0,0.0,0.0,0.0,0.0,0.0,0.0,0.0,0.0,0.0,0.0,0.0,12,ctakes-ytex\src\main\java\org\apache\ctakes\ytex\weka\WekaAttributeEvaluator.java,0,0,0,0
org.apache.ctakes.ytex.weka.WekaBagOfWordsExporter, 0, 0, 0, 0, 0, 0, 0, 0, 0, 0, 0, 0, 0, 0,0.0,0.0,0.0,0.0,0.0,0.0,0.0,0.0,0.0,0.0,0.0,0.0,0.0,12,ctakes-ytex\src\main\java\org\apache\ctakes\ytex\weka\WekaBagOfWordsExporter.java,0,0,0,0
org.apache.ctakes.ytex.weka.WekaResultInstanceImporter, 0, 0, 0, 0, 0, 0, 0, 0, 0, 0, 0, 0, 0, 0,0.0,0.0,0.0,0.0,0.0,0.0,0.0,0.0,0.0,0.0,0.0,0.0,0.0,12,ctakes-ytex\src\main\java\org\apache\ctakes\ytex\weka\WekaResultInstanceImporter.java,0,0,0,0
org.apache.ctakes.ytex.weka.WekaResultsImporter, 0, 0, 0, 0, 0, 0, 0, 0, 0, 0, 0, 0, 0, 0,0.0,0.0,0.0,0.0,0.0,0.0,0.0,0.0,0.0,0.0,0.0,0.0,0.0,12,ctakes-ytex\src\main\java\org\apache\ctakes\ytex\weka\WekaResultsImporter.java,0,0,0,0
org.apache.ctakes.ytex.ws.ConceptSimilarityRestService, 0, 0, 0, 0, 0, 0, 0, 0, 0, 0, 0, 0, 0, 0,0.0,0.0,0.0,0.0,0.0,0.0,0.0,0.0,0.0,0.0,0.0,0.0,0.0,12,ctakes-ytex-web\src\main\java\org\apache\ctakes\ytex\ws\ConceptSimilarityRestService.java,0,0,0,0
org.apache.ctakes.ytex.ws.ConceptSimilarityWebService, 0, 0, 0, 0, 0, 0, 0, 0, 0, 0, 0, 0, 0, 0,0.0,0.0,0.0,0.0,0.0,0.0,0.0,0.0,0.0,0.0,0.0,0.0,0.0,12,ctakes-ytex-web\src\main\java\org\apache\ctakes\ytex\ws\ConceptSimilarityWebService.java,0,0,0,0
org.apache.ctakes.ytex.ws.SimServiceInfo, 0, 0, 0, 0, 0, 0, 0, 0, 0, 0, 0, 0, 0, 0,0.0,0.0,0.0,0.0,0.0,0.0,0.0,0.0,0.0,0.0,0.0,0.0,0.0,24,ctakes-ytex-web\src\main\java\org\apache\ctakes\ytex\ws\SimServiceInfo.java,0,0,0,0
org.mitre.medfacts.uima.CreateAssertionZonerDescriptors, 0, 0, 0, 0, 0, 0, 0, 0, 0, 0, 0, 0, 0, 0,0.0,0.0,0.0,0.0,0.0,0.0,0.0,0.0,0.0,0.0,0.0,0.0,0.0,74,ctakes-assertion-zoner\src\main\java\org\mitre\medfacts\uima\CreateAssertionZonerDescriptors.java,0,0,0,0
org.mitre.medfacts.uima.CreateZonerDescriptor, 0, 0, 0, 0, 0, 0, 0, 0, 0, 0, 0, 0, 0, 0,0.0,0.0,0.0,0.0,0.0,0.0,0.0,0.0,0.0,0.0,0.0,0.0,0.0,31,ctakes-assertion-zoner\src\main\java\org\mitre\medfacts\uima\CreateZonerDescriptor.java,0,0,0,0
org.mitre.medfacts.uima.RunZoner, 0, 0, 0, 0, 0, 0, 0, 0, 0, 0, 0, 0, 0, 0,0.0,0.0,0.0,0.0,0.0,0.0,0.0,0.0,0.0,0.0,0.0,0.0,0.0,105,ctakes-assertion-zoner\src\main\java\org\mitre\medfacts\uima\RunZoner.java,0,0,0,0
org.mitre.medfacts.uima.ZoneAnnotator, 0, 0, 0, 0, 0, 0, 0, 0, 0, 0, 0, 0, 0, 0,0.0,0.0,0.0,0.0,0.0,0.0,0.0,0.0,0.0,0.0,0.0,0.0,0.0,64,ctakes-assertion-zoner\src\main\java\org\mitre\medfacts\uima\ZoneAnnotator.java,0,0,0,0
,0.0,0.0,0.0,0.0,0.0,0.0,0.0,0.0,0.0,0.0,0.0,0.0,0.0,64,ctakes-assertion\src\main\java\org\apache\ctakes\assertion\attributes\features\selection\Chi2FeatureSelection.java,0,0,0,0
