ClassName,AntiSingleton,Blob,ClassDataShouldBePrivate,ComplexClass,LargeClass,LazyClass,LongMethod,LongParameterList,MessageChains,RefusedParentBequest,SpaghettiCode,SpeculativeGenerality,SwissArmyKnife,NumOfAPs,AntiSingleton,Blob,ClassDataShouldBePrivate,ComplexClass,LargeClass,LazyClass,LongMethod,LongParameterList,MessageChains,RefusedParentBequest,SpaghettiCode,SpeculativeGenerality,SwissArmyKnife,LOC,name,deleted,added,changed,all
org.apache.sqoop.audit.AuditLoggerConstants, 0, 0, 0, 0, 0, 0, 0, 0, 0, 0, 0, 0, 0, 0,0.0,0.0,0.0,0.0,0.0,0.0,0.0,0.0,0.0,0.0,0.0,0.0,0.0,6,core\src\main\java\org\apache\sqoop\audit\AuditLoggerConstants.java,0,0,0,0
org.apache.sqoop.classification.InterfaceAudience, 0, 0, 0, 0, 0, 0, 0, 0, 0, 0, 0, 0, 0, 0,0.0,0.0,0.0,0.0,0.0,0.0,0.0,0.0,0.0,0.0,0.0,0.0,0.0,13,common\src\main\java\org\apache\sqoop\classification\InterfaceAudience.java,0,0,0,0
org.apache.sqoop.classification.InterfaceStability, 0, 0, 0, 0, 0, 0, 0, 0, 0, 0, 0, 0, 0, 0,0.0,0.0,0.0,0.0,0.0,0.0,0.0,0.0,0.0,0.0,0.0,0.0,0.0,10,common\src\main\java\org\apache\sqoop\classification\InterfaceStability.java,0,0,0,0
org.apache.sqoop.client.SubmissionCallback, 0, 0, 0, 0, 0, 0, 0, 0, 0, 0, 0, 0, 0, 0,0.0,0.0,0.0,0.0,0.0,0.0,0.0,0.0,0.0,0.0,0.0,0.0,0.0,10,client\src\main\java\org\apache\sqoop\client\SubmissionCallback.java,0,0,0,0
org.apache.sqoop.client.request.ConnectorResourceRequest, 0, 0, 0, 0, 0, 0, 0, 0, 0, 0, 0, 0, 0, 0,0.0,0.0,0.0,0.5,0.0,0.0,0.0,0.0,0.0,0.0,0.0,0.0,0.0,24,client\src\main\java\org\apache\sqoop\client\request\ConnectorResourceRequest.java,0,0,0,0
org.apache.sqoop.client.request.DriverResourceRequest, 0, 0, 0, 0, 0, 0, 0, 0, 0, 0, 0, 0, 0, 0,0.0,0.0,0.0,0.3333333333333333,0.0,0.0,0.0,0.0,0.0,0.0,0.0,0.0,0.0,17,client\src\main\java\org\apache\sqoop\client\request\DriverResourceRequest.java,0,0,0,0
org.apache.sqoop.client.request.JobResourceRequest, 0, 0, 0, 1, 0, 0, 0, 0, 0, 0, 0, 0, 0, 1,0.0,0.0,0.0,0.25,0.0,0.0,0.0,0.0,0.0,0.0,0.0,0.0,0.0,82,client\src\main\java\org\apache\sqoop\client\request\JobResourceRequest.java,0,0,0,0
org.apache.sqoop.client.request.LinkResourceRequest, 0, 0, 0, 0, 0, 0, 0, 0, 0, 0, 0, 0, 0, 0,0.0,0.0,0.0,0.25,0.0,0.0,0.0,0.0,0.0,0.0,0.0,0.0,0.0,52,client\src\main\java\org\apache\sqoop\client\request\LinkResourceRequest.java,0,0,0,0
org.apache.sqoop.client.request.SqoopResourceRequests, 0, 0, 0, 1, 0, 0, 0, 0, 0, 0, 0, 0, 0, 1,0.0,0.0,0.0,0.14285714285714285,0.0,0.0,0.0,0.0,0.0,0.0,0.0,0.0,0.0,100,client\src\main\java\org\apache\sqoop\client\request\SqoopResourceRequests.java,7,38,2,49
org.apache.sqoop.client.request.SubmissionResourceRequest, 0, 0, 0, 0, 0, 0, 0, 0, 0, 0, 0, 0, 0, 0,0.0,0.0,0.0,0.3333333333333333,0.0,0.0,0.0,0.0,0.0,0.0,0.0,0.0,0.0,21,client\src\main\java\org\apache\sqoop\client\request\SubmissionResourceRequest.java,0,0,0,0
org.apache.sqoop.client.request.VersionResourceRequest, 0, 0, 0, 0, 0, 0, 0, 0, 0, 0, 0, 0, 0, 0,0.0,0.0,0.0,0.25,0.0,0.0,0.0,0.25,0.0,0.0,0.0,0.0,0.0,16,client\src\main\java\org\apache\sqoop\client\request\VersionResourceRequest.java,0,0,0,0
org.apache.sqoop.common.ErrorCode, 0, 0, 0, 0, 0, 0, 0, 0, 0, 0, 0, 0, 0, 0,0.0,0.0,0.0,0.0,0.0,0.0,0.0,0.0,0.0,0.0,0.0,0.0,0.0,16,common\src\main\java\org\apache\sqoop\common\ErrorCode.java,0,0,0,0
org.apache.sqoop.common.ImmutableContext, 0, 0, 0, 0, 0, 0, 0, 0, 0, 0, 0, 0, 0, 0,0.0,0.0,0.0,0.0,0.0,0.0,0.0,0.0,0.0,0.0,0.0,0.0,0.0,16,common\src\main\java\org\apache\sqoop\common\ImmutableContext.java,0,1,1,3
org.apache.sqoop.common.MutableContext, 0, 0, 0, 0, 0, 0, 0, 0, 0, 0, 0, 0, 0, 0,0.0,0.0,0.0,0.0,0.0,0.0,0.0,0.0,0.0,0.0,0.0,0.0,0.0,16,common\src\main\java\org\apache\sqoop\common\MutableContext.java,0,0,0,0
org.apache.sqoop.common.MutableMapContext, 0, 0, 0, 0, 0, 0, 0, 0, 0, 0, 0, 0, 0, 0,0.0,0.0,0.0,0.5,0.0,0.0,0.0,0.16666666666666666,0.0,0.0,0.0,0.0,0.0,28,common\src\main\java\org\apache\sqoop\common\MutableMapContext.java,0,0,0,0
org.apache.sqoop.common.PrefixContext, 0, 0, 0, 0, 0, 0, 0, 0, 0, 0, 0, 0, 0, 0,0.0,0.0,0.0,0.0,0.0,0.0,0.0,0.125,0.0,0.0,0.0,0.0,0.0,31,common\src\main\java\org\apache\sqoop\common\PrefixContext.java,38,0,0,38
org.apache.sqoop.common.SqoopException, 0, 0, 0, 0, 0, 0, 0, 0, 0, 0, 0, 0, 0, 0,0.0,0.0,0.0,0.3125,0.0,0.0,0.0,0.0625,0.0,0.0,0.0,0.0,0.0,30,common\src\main\java\org\apache\sqoop\common\SqoopException.java,0,0,0,0
org.apache.sqoop.common.SqoopProtocolConstants, 0, 0, 0, 0, 0, 0, 0, 0, 0, 0, 0, 0, 0, 0,0.0,0.0,0.0,0.0,0.0,0.0,0.0,0.0,0.0,0.0,0.0,0.0,0.0,12,common\src\main\java\org\apache\sqoop\common\SqoopProtocolConstants.java,0,0,0,0
org.apache.sqoop.common.TestSqoopResponseCode, 0, 0, 0, 0, 0, 0, 0, 0, 0, 0, 0, 0, 0, 0,0.0,0.0,0.0,0.0,0.0,0.0,0.0,0.0,0.0,0.0,0.0,0.0,0.0,11,common\src\test\java\org\apache\sqoop\common\TestSqoopResponseCode.java,0,0,0,0
org.apache.sqoop.common.TestSupportedDirections, 0, 0, 0, 0, 0, 0, 0, 0, 0, 0, 0, 0, 0, 0,0.0,0.0,0.0,0.0,0.0,0.0,0.0,0.0,0.0,0.0,0.0,0.0,0.0,36,common\src\test\java\org\apache\sqoop\common\TestSupportedDirections.java,0,0,0,0
org.apache.sqoop.common.TestVersionInfo, 0, 0, 0, 0, 0, 0, 0, 0, 0, 0, 0, 0, 0, 0,0.0,0.0,0.0,0.0,0.0,0.0,0.0,0.0,0.0,0.0,0.0,0.0,0.0,10,common\src\test\java\org\apache\sqoop\common\TestVersionInfo.java,0,0,0,0
org.apache.sqoop.common.test.asserts.ProviderAsserts, 0, 0, 0, 0, 0, 0, 0, 0, 0, 0, 0, 0, 0, 0,1.0,0.0,0.0,1.0,0.0,0.0,0.0,0.0,0.0,0.0,0.0,0.0,0.0,28,common-test\src\main\java\org\apache\sqoop\common\test\asserts\ProviderAsserts.java,0,4,2,8
org.apache.sqoop.common.test.db.DerbyProvider, 0, 0, 0, 1, 0, 0, 0, 0, 0, 0, 0, 0, 0, 1,0.0,0.0,0.0,0.0,0.0,0.0,0.0,0.0,0.0,0.0,0.0,0.0,0.0,91,common-test\src\main\java\org\apache\sqoop\common\test\db\DerbyProvider.java,0,6,0,6
org.apache.sqoop.common.test.kafka.KafkaLocal, 0, 0, 1, 0, 0, 0, 0, 0, 0, 0, 0, 0, 0, 1,0.0,0.0,0.0,0.0,0.0,0.0,0.0,0.0,0.0,0.0,0.0,0.0,0.0,17,common-test\src\main\java\org\apache\sqoop\common\test\kafka\KafkaLocal.java,0,0,0,0
org.apache.sqoop.common.test.kafka.ZooKeeperLocal, 0, 0, 0, 0, 0, 0, 0, 0, 0, 0, 0, 0, 0, 0,0.0,0.0,1.0,0.0,0.0,0.0,0.0,0.0,0.0,0.0,0.0,0.0,0.0,31,common-test\src\main\java\org\apache\sqoop\common\test\kafka\ZooKeeperLocal.java,0,0,0,0
org.apache.sqoop.common.test.utils.NetworkUtils, 0, 0, 0, 0, 0, 0, 0, 0, 0, 0, 0, 0, 0, 0,0.0,0.0,0.0,1.0,0.0,0.0,0.0,0.0,0.0,0.0,0.0,0.0,0.0,15,common-test\src\main\java\org\apache\sqoop\common\test\utils\NetworkUtils.java,0,19,0,19
org.apache.sqoop.connector.ConnectorManagerUtils, 0, 0, 0, 0, 0, 0, 0, 0, 0, 0, 0, 0, 0, 0,0.0,0.0,0.0,0.0,0.0,0.0,0.0,0.0,0.0,0.0,0.0,0.0,0.0,82,core\src\main\java\org\apache\sqoop\connector\ConnectorManagerUtils.java,0,1,0,1
org.apache.sqoop.connector.TestConnectorManagerUtils, 0, 0, 0, 0, 0, 0, 0, 0, 0, 0, 0, 0, 0, 0,0.0,0.0,0.0,0.0,0.0,0.0,0.0,0.0,0.0,0.0,0.0,0.0,0.0,40,core\src\test\java\org\apache\sqoop\connector\TestConnectorManagerUtils.java,0,0,0,0
org.apache.sqoop.connector.common.AvroDataTypeUtil, 0, 0, 0, 0, 0, 0, 0, 0, 0, 0, 0, 0, 0, 0,0.0,0.0,0.0,0.0,0.0,0.0,0.0,0.0,0.0,0.0,0.0,0.0,0.0,57,connector\connector-sdk\src\main\java\org\apache\sqoop\connector\common\AvroDataTypeUtil.java,0,0,0,0
org.apache.sqoop.connector.common.EmptyConfiguration, 0, 0, 0, 0, 0, 0, 0, 0, 0, 0, 0, 0, 0, 0,0.0,0.0,0.0,0.0,0.0,0.0,0.0,0.0,0.0,0.0,0.0,0.0,0.0,2,connector\connector-sdk\src\main\java\org\apache\sqoop\connector\common\EmptyConfiguration.java,0,0,0,0
org.apache.sqoop.connector.common.JarUtil, 0, 0, 0, 0, 0, 0, 0, 0, 0, 0, 0, 0, 0, 0,0.0,0.0,0.0,0.0,0.0,0.0,0.0,0.0,0.0,0.0,0.0,0.0,0.0,22,connector\connector-sdk\src\main\java\org\apache\sqoop\connector\common\JarUtil.java,0,0,0,0
org.apache.sqoop.connector.common.SqoopAvroUtils, 0, 0, 0, 0, 0, 0, 0, 0, 0, 0, 0, 0, 0, 0,0.0,0.0,0.0,0.0,0.0,0.0,0.0,0.0,0.0,0.0,0.0,0.0,0.0,82,connector\connector-sdk\src\main\java\org\apache\sqoop\connector\common\SqoopAvroUtils.java,0,0,0,0
org.apache.sqoop.connector.hdfs.FileUtils, 0, 0, 0, 0, 0, 0, 0, 0, 0, 0, 0, 0, 0, 0,0.0,0.0,0.0,0.0,0.0,0.0,0.0,0.25,0.0,0.0,0.0,0.0,0.0,43,connector\connector-hdfs\src\test\java\org\apache\sqoop\connector\hdfs\FileUtils.java,0,0,0,0
org.apache.sqoop.connector.hdfs.HdfsConnector, 0, 0, 0, 0, 0, 0, 0, 0, 0, 0, 0, 0, 0, 0,0.0,0.0,0.0,0.0,0.0,0.0,0.0,0.0,0.0,0.0,0.0,0.0,0.0,51,connector\connector-hdfs\src\main\java\org\apache\sqoop\connector\hdfs\HdfsConnector.java,0,0,0,0
org.apache.sqoop.connector.hdfs.HdfsConnectorUpgrader, 0, 0, 0, 0, 0, 0, 0, 0, 0, 0, 0, 0, 0, 0,0.0,0.0,0.0,0.0,0.0,0.0,0.0,0.0,0.0,0.0,0.0,0.0,0.0,14,connector\connector-hdfs\src\main\java\org\apache\sqoop\connector\hdfs\HdfsConnectorUpgrader.java,0,0,0,0
org.apache.sqoop.connector.hdfs.HdfsConstants, 0, 0, 0, 0, 0, 0, 0, 0, 0, 0, 0, 0, 0, 0,0.0,0.0,0.0,0.0,0.0,0.0,0.0,0.0,0.0,0.0,0.0,0.0,0.0,6,connector\connector-hdfs\src\main\java\org\apache\sqoop\connector\hdfs\HdfsConstants.java,0,2,0,2
org.apache.sqoop.connector.hdfs.HdfsExtractor, 0, 0, 0, 0, 0, 0, 0, 1, 0, 0, 0, 0, 0, 1,0.0,0.0,0.0,0.0,0.0,0.0,0.0,0.0,0.0,0.0,0.0,0.0,0.0,128,connector\connector-hdfs\src\main\java\org\apache\sqoop\connector\hdfs\HdfsExtractor.java,2,6,5,18
org.apache.sqoop.connector.hdfs.HdfsFromDestroyer, 0, 0, 0, 0, 0, 0, 0, 0, 0, 0, 0, 0, 0, 0,0.0,0.0,0.3333333333333333,0.0,0.0,0.0,0.0,0.0,0.0,0.0,0.0,0.0,0.0,6,connector\connector-hdfs\src\main\java\org\apache\sqoop\connector\hdfs\HdfsFromDestroyer.java,0,0,0,0
org.apache.sqoop.connector.hdfs.HdfsFromInitializer, 0, 0, 0, 0, 0, 0, 0, 0, 0, 0, 0, 0, 0, 0,0.0,0.0,0.3333333333333333,0.0,0.0,0.0,0.0,0.0,0.0,0.0,0.0,0.0,0.0,6,connector\connector-hdfs\src\main\java\org\apache\sqoop\connector\hdfs\HdfsFromInitializer.java,0,1,3,7
org.apache.sqoop.connector.hdfs.HdfsLoader, 0, 0, 0, 0, 0, 0, 0, 0, 0, 0, 0, 0, 0, 0,0.0,0.0,0.0,0.0,0.0,0.0,0.0,0.0,0.0,0.0,0.0,0.0,0.0,88,connector\connector-hdfs\src\main\java\org\apache\sqoop\connector\hdfs\HdfsLoader.java,2,6,2,12
org.apache.sqoop.connector.hdfs.HdfsToDestroyer, 0, 0, 0, 0, 0, 0, 0, 0, 0, 0, 0, 0, 0, 0,0.0,0.0,0.3333333333333333,0.0,0.0,0.0,0.0,0.0,0.0,0.0,0.0,0.0,0.0,6,connector\connector-hdfs\src\main\java\org\apache\sqoop\connector\hdfs\HdfsToDestroyer.java,0,26,2,30
org.apache.sqoop.connector.hdfs.HdfsToInitializer, 0, 0, 0, 0, 0, 0, 0, 0, 0, 0, 0, 0, 0, 0,0.0,0.0,0.3333333333333333,0.0,0.0,0.0,0.0,0.0,0.0,0.0,0.0,0.0,0.0,6,connector\connector-hdfs\src\main\java\org\apache\sqoop\connector\hdfs\HdfsToInitializer.java,0,36,2,40
org.apache.sqoop.connector.hdfs.HdfsUtils, 0, 0, 0, 0, 0, 0, 0, 0, 0, 0, 0, 0, 0, 0,0.0,0.0,0.5,0.0,0.0,0.0,0.0,0.16666666666666666,0.0,0.0,0.0,0.0,0.0,44,connector\connector-hdfs\src\main\java\org\apache\sqoop\connector\hdfs\HdfsUtils.java,4,47,12,75
org.apache.sqoop.connector.hdfs.TestExtractor, 0, 0, 0, 0, 0, 0, 0, 0, 0, 0, 0, 0, 0, 0,0.0,0.0,0.2857142857142857,0.0,0.0,0.0,0.0,0.14285714285714285,0.0,0.0,0.0,0.0,0.0,125,connector\connector-hdfs\src\test\java\org\apache\sqoop\connector\hdfs\TestExtractor.java,3,14,14,45
org.apache.sqoop.connector.hdfs.TestHdfsBase, 0, 0, 0, 0, 0, 0, 0, 1, 0, 0, 0, 0, 0, 1,0.0,0.0,0.0,0.0,0.0,0.0,0.0,0.0,0.0,0.0,0.0,0.0,0.0,103,connector\connector-hdfs\src\test\java\org\apache\sqoop\connector\hdfs\TestHdfsBase.java,0,0,0,0
org.apache.sqoop.connector.hdfs.TestHdfsUtils, 0, 0, 0, 0, 0, 0, 0, 0, 0, 0, 0, 0, 0, 0,0.0,0.0,0.75,0.0,0.0,0.0,0.0,0.0,0.0,0.0,0.0,0.0,0.0,43,connector\connector-hdfs\src\test\java\org\apache\sqoop\connector\hdfs\TestHdfsUtils.java,0,4,5,14
org.apache.sqoop.connector.hdfs.TestLinkConfig, 0, 0, 0, 0, 0, 0, 0, 0, 0, 0, 0, 0, 0, 0,0.0,0.0,0.0,0.0,0.0,0.0,0.0,0.0,0.0,0.0,0.0,0.0,0.0,45,connector\connector-hdfs\src\test\java\org\apache\sqoop\connector\hdfs\TestLinkConfig.java,0,0,0,0
org.apache.sqoop.connector.hdfs.TestLoader, 0, 0, 0, 0, 0, 0, 0, 0, 0, 0, 0, 0, 0, 0,0.0,0.0,0.2857142857142857,0.0,0.0,0.0,0.0,0.14285714285714285,0.0,0.0,0.0,0.0,0.0,189,connector\connector-hdfs\src\test\java\org\apache\sqoop\connector\hdfs\TestLoader.java,3,11,17,48
org.apache.sqoop.connector.hdfs.TestPartitioner, 0, 0, 0, 0, 0, 0, 0, 0, 0, 0, 0, 0, 0, 0,0.0,0.0,0.2857142857142857,0.0,0.0,0.0,0.0,0.14285714285714285,0.0,0.0,0.0,0.0,0.0,57,connector\connector-hdfs\src\test\java\org\apache\sqoop\connector\hdfs\TestPartitioner.java,3,1,2,8
org.apache.sqoop.connector.hdfs.configuration.FromJobConfig, 0, 0, 1, 0, 0, 0, 0, 0, 0, 0, 0, 0, 0, 1,0.0,0.0,1.0,0.0,0.0,0.0,0.0,0.0,0.0,0.0,0.0,0.0,0.0,5,connector\connector-hdfs\src\main\java\org\apache\sqoop\connector\hdfs\configuration\FromJobConfig.java,0,0,0,0
org.apache.sqoop.connector.hdfs.configuration.FromJobConfiguration, 0, 0, 1, 0, 0, 0, 0, 0, 0, 0, 0, 0, 0, 1,0.0,0.0,0.14285714285714285,0.0,0.0,0.0,0.0,0.0,0.0,0.0,0.0,0.0,0.0,6,connector\connector-hdfs\src\main\java\org\apache\sqoop\connector\hdfs\configuration\FromJobConfiguration.java,0,0,0,0
org.apache.sqoop.connector.hdfs.configuration.LinkConfiguration, 0, 0, 1, 0, 0, 0, 0, 0, 0, 0, 0, 0, 0, 1,0.0,0.0,0.0,0.0,0.0,0.0,0.0,0.0,0.0,0.0,0.0,0.0,0.0,7,connector\connector-hdfs\src\main\java\org\apache\sqoop\connector\hdfs\configuration\LinkConfiguration.java,0,0,0,0
org.apache.sqoop.connector.hdfs.configuration.ToJobConfig, 1, 0, 1, 0, 0, 0, 0, 0, 0, 0, 0, 0, 0, 2,0.0,0.0,1.0,0.0,0.0,0.0,0.0,0.0,0.0,0.0,0.0,0.0,0.0,23,connector\connector-hdfs\src\main\java\org\apache\sqoop\connector\hdfs\configuration\ToJobConfig.java,1,1,0,2
org.apache.sqoop.connector.hdfs.configuration.ToJobConfiguration, 0, 0, 1, 0, 0, 0, 0, 0, 0, 0, 0, 0, 0, 1,0.16666666666666666,0.0,0.16666666666666666,0.0,0.0,0.0,0.0,0.0,0.0,0.0,0.0,0.0,0.0,7,connector\connector-hdfs\src\main\java\org\apache\sqoop\connector\hdfs\configuration\ToJobConfiguration.java,0,0,0,0
org.apache.sqoop.connector.hdfs.hdfsWriter.GenericHdfsWriter, 0, 0, 0, 0, 0, 0, 0, 0, 0, 0, 0, 0, 0, 0,0.0,0.0,0.0,0.0,0.0,0.0,0.0,0.0,0.0,0.0,0.0,0.0,0.0,5,connector\connector-hdfs\src\main\java\org\apache\sqoop\connector\hdfs\hdfsWriter\GenericHdfsWriter.java,0,0,0,0
org.apache.sqoop.connector.hdfs.hdfsWriter.HdfsSequenceWriter, 0, 0, 0, 0, 0, 0, 0, 0, 0, 0, 0, 0, 0, 0,0.0,0.0,0.0,0.0,0.0,0.0,0.0,0.0,0.0,0.0,0.0,0.0,0.0,24,connector\connector-hdfs\src\main\java\org\apache\sqoop\connector\hdfs\hdfsWriter\HdfsSequenceWriter.java,0,0,0,0
org.apache.sqoop.connector.hdfs.hdfsWriter.HdfsTextWriter, 0, 0, 0, 0, 0, 0, 0, 0, 0, 0, 0, 0, 0, 0,0.0,0.0,0.0,0.0,0.0,0.0,0.0,0.0,0.0,0.0,0.0,0.0,0.0,24,connector\connector-hdfs\src\main\java\org\apache\sqoop\connector\hdfs\hdfsWriter\HdfsTextWriter.java,0,0,0,0
org.apache.sqoop.connector.idf.IntermediateDataFormat, 0, 0, 0, 1, 0, 0, 0, 0, 0, 0, 0, 0, 0, 1,0.0,0.0,0.0,0.2857142857142857,0.0,0.0,0.0,0.0,0.0,0.0,0.0,0.0,0.0,73,connector\connector-sdk\src\main\java\org\apache\sqoop\connector\idf\IntermediateDataFormat.java,0,0,0,0
org.apache.sqoop.connector.jdbc.GenericJdbcConnector, 0, 0, 0, 0, 0, 0, 0, 0, 0, 0, 0, 0, 0, 0,0.0,0.0,0.0,0.0,0.0,0.0,0.0,0.0,0.0,0.0,0.0,0.0,0.0,49,connector\connector-generic-jdbc\src\main\java\org\apache\sqoop\connector\jdbc\GenericJdbcConnector.java,0,0,0,0
org.apache.sqoop.connector.jdbc.GenericJdbcConnectorConstants, 0, 0, 0, 0, 0, 0, 0, 0, 0, 0, 0, 0, 0, 0,0.0,0.0,0.0,0.0,0.0,0.0,0.0,0.0,0.0,0.0,0.0,0.0,0.0,23,connector\connector-generic-jdbc\src\main\java\org\apache\sqoop\connector\jdbc\GenericJdbcConnectorConstants.java,0,2,0,2
org.apache.sqoop.connector.jdbc.GenericJdbcExecutor, 0, 0, 0, 1, 0, 0, 0, 0, 0, 0, 0, 0, 0, 1,0.0,0.0,0.0,0.25,0.0,0.0,0.0,0.125,0.0,0.0,0.0,0.0,0.0,257,connector\connector-generic-jdbc\src\main\java\org\apache\sqoop\connector\jdbc\GenericJdbcExecutor.java,4,32,5,46
org.apache.sqoop.connector.jdbc.GenericJdbcExecutorTest, 0, 0, 0, 0, 0, 0, 0, 0, 0, 0, 0, 0, 0, 0,0.0,0.0,0.0,1.0,0.0,0.0,0.0,0.0,0.0,0.0,0.0,0.0,0.0,57,connector\connector-generic-jdbc\src\test\java\org\apache\sqoop\connector\jdbc\GenericJdbcExecutorTest.java,1,9,1,12
org.apache.sqoop.connector.jdbc.GenericJdbcFromDestroyer, 0, 0, 0, 0, 0, 0, 0, 0, 0, 0, 0, 0, 0, 0,0.0,0.0,0.3333333333333333,0.0,0.0,0.0,0.0,0.0,0.0,0.0,0.0,0.0,0.0,8,connector\connector-generic-jdbc\src\main\java\org\apache\sqoop\connector\jdbc\GenericJdbcFromDestroyer.java,0,0,0,0
org.apache.sqoop.connector.jdbc.GenericJdbcLoader, 0, 0, 0, 0, 0, 0, 0, 0, 0, 0, 0, 0, 0, 0,0.0,0.0,0.0,0.2,0.0,0.0,0.0,0.0,0.0,0.0,0.0,0.0,0.0,48,connector\connector-generic-jdbc\src\main\java\org\apache\sqoop\connector\jdbc\GenericJdbcLoader.java,4,0,1,6
org.apache.sqoop.connector.jdbc.GenericJdbcPartition, 0, 0, 0, 0, 0, 0, 0, 0, 0, 0, 0, 0, 0, 0,0.0,0.0,0.0,0.0,0.0,0.0,0.0,0.0,0.0,0.0,0.0,0.0,0.0,21,connector\connector-generic-jdbc\src\main\java\org\apache\sqoop\connector\jdbc\GenericJdbcPartition.java,0,0,0,0
org.apache.sqoop.connector.jdbc.GenericJdbcTestConstants, 0, 0, 0, 0, 0, 0, 0, 0, 0, 0, 0, 0, 0, 0,0.0,0.0,0.0,0.0,0.0,0.0,0.0,0.0,0.0,0.0,0.0,0.0,0.0,4,connector\connector-generic-jdbc\src\test\java\org\apache\sqoop\connector\jdbc\GenericJdbcTestConstants.java,0,6,0,6
org.apache.sqoop.connector.jdbc.GenericJdbcToDestroyer, 0, 0, 0, 0, 0, 0, 0, 0, 0, 0, 0, 0, 0, 0,0.0,0.0,0.25,0.25,0.0,0.0,0.0,0.0,0.0,0.0,0.0,0.0,0.0,35,connector\connector-generic-jdbc\src\main\java\org\apache\sqoop\connector\jdbc\GenericJdbcToDestroyer.java,5,0,2,9
org.apache.sqoop.connector.jdbc.TestExtractor, 0, 0, 0, 0, 0, 0, 0, 0, 0, 0, 0, 0, 0, 0,0.0,0.0,0.2857142857142857,0.14285714285714285,0.0,0.0,0.0,0.0,0.0,0.0,0.0,0.0,0.0,178,connector\connector-generic-jdbc\src\test\java\org\apache\sqoop\connector\jdbc\TestExtractor.java,1,0,1,3
org.apache.sqoop.connector.jdbc.TestFromInitializer, 0, 0, 0, 1, 0, 0, 0, 1, 0, 0, 0, 0, 0, 2,0.0,0.0,0.3333333333333333,0.16666666666666666,0.0,0.0,0.0,0.0,0.0,0.0,0.0,0.0,0.0,307,connector\connector-generic-jdbc\src\test\java\org\apache\sqoop\connector\jdbc\TestFromInitializer.java,1,98,1,101
org.apache.sqoop.connector.jdbc.TestGenericJdbcConnectorUpgrader, 0, 0, 0, 0, 0, 0, 0, 0, 0, 0, 0, 0, 0, 0,0.0,0.0,0.0,0.0,0.0,0.0,0.0,0.5,0.0,0.0,0.0,0.0,0.0,126,connector\connector-generic-jdbc\src\test\java\org\apache\sqoop\connector\jdbc\TestGenericJdbcConnectorUpgrader.java,64,0,0,64
org.apache.sqoop.connector.jdbc.TestLoader, 0, 0, 0, 0, 0, 0, 0, 0, 0, 0, 0, 0, 0, 0,0.0,0.0,0.3333333333333333,0.16666666666666666,0.0,0.0,0.0,0.0,0.0,0.0,0.0,0.0,0.0,95,connector\connector-generic-jdbc\src\test\java\org\apache\sqoop\connector\jdbc\TestLoader.java,1,0,1,3
org.apache.sqoop.connector.jdbc.TestToInitializer, 0, 0, 0, 1, 0, 0, 0, 0, 0, 0, 0, 0, 0, 1,0.0,0.0,0.2857142857142857,0.14285714285714285,0.0,0.0,0.0,0.0,0.0,0.0,0.0,0.0,0.0,271,connector\connector-generic-jdbc\src\test\java\org\apache\sqoop\connector\jdbc\TestToInitializer.java,1,0,1,3
org.apache.sqoop.connector.jdbc.configuration.FromJobConfig, 0, 0, 1, 0, 0, 0, 0, 0, 0, 0, 0, 0, 0, 1,0.0,0.0,1.0,0.0,0.0,0.0,0.0,0.0,0.0,0.0,0.0,0.0,0.0,33,connector\connector-generic-jdbc\src\main\java\org\apache\sqoop\connector\jdbc\configuration\FromJobConfig.java,0,0,0,0
org.apache.sqoop.connector.jdbc.configuration.FromJobConfiguration, 0, 0, 1, 0, 0, 0, 0, 0, 0, 0, 0, 0, 0, 1,0.0,0.0,0.25,0.25,0.0,0.0,0.0,0.25,0.0,0.0,0.0,0.0,0.0,6,connector\connector-generic-jdbc\src\main\java\org\apache\sqoop\connector\jdbc\configuration\FromJobConfiguration.java,0,2,0,2
org.apache.sqoop.connector.jdbc.configuration.LinkConfiguration, 0, 0, 1, 0, 0, 0, 0, 0, 0, 0, 0, 0, 0, 1,0.0,0.0,0.0,0.5,0.0,0.0,0.0,0.25,0.0,0.0,0.0,0.0,0.0,6,connector\connector-generic-jdbc\src\main\java\org\apache\sqoop\connector\jdbc\configuration\LinkConfiguration.java,0,0,0,0
org.apache.sqoop.connector.jdbc.configuration.ToJobConfig, 0, 0, 1, 0, 0, 0, 0, 0, 0, 0, 0, 0, 0, 1,0.0,0.0,1.0,0.0,0.0,0.0,0.0,0.0,0.0,0.0,0.0,0.0,0.0,33,connector\connector-generic-jdbc\src\main\java\org\apache\sqoop\connector\jdbc\configuration\ToJobConfig.java,0,0,0,0
org.apache.sqoop.connector.jdbc.configuration.ToJobConfiguration, 0, 0, 1, 0, 0, 0, 0, 0, 0, 0, 0, 0, 0, 1,0.0,0.0,0.25,0.25,0.0,0.0,0.0,0.0,0.0,0.0,0.0,0.0,0.0,6,connector\connector-generic-jdbc\src\main\java\org\apache\sqoop\connector\jdbc\configuration\ToJobConfiguration.java,0,0,0,0
org.apache.sqoop.connector.jdbc.util.SqlTypesUtils, 0, 0, 0, 0, 0, 0, 0, 0, 0, 0, 0, 0, 0, 0,0.0,0.0,0.0,0.0,0.0,0.0,0.0,0.0,0.0,0.0,0.0,0.0,0.0,47,connector\connector-generic-jdbc\src\main\java\org\apache\sqoop\connector\jdbc\util\SqlTypesUtils.java,0,0,0,0
org.apache.sqoop.connector.kafka.KafkaConnector, 0, 0, 0, 0, 0, 0, 0, 0, 0, 0, 0, 0, 0, 0,0.0,0.0,0.0,0.0,0.0,0.0,0.0,0.0,0.0,0.0,0.0,0.0,0.0,38,connector\connector-kafka\src\main\java\org\apache\sqoop\connector\kafka\KafkaConnector.java,0,0,0,0
org.apache.sqoop.connector.kafka.KafkaConstants, 0, 0, 0, 0, 0, 0, 0, 0, 0, 0, 0, 0, 0, 0,0.0,0.0,0.0,0.0,0.0,0.0,0.0,0.0,0.0,0.0,0.0,0.0,0.0,15,connector\connector-kafka\src\main\java\org\apache\sqoop\connector\kafka\KafkaConstants.java,0,0,0,0
org.apache.sqoop.connector.kafka.KafkaToDestroyer, 0, 0, 0, 0, 0, 0, 0, 0, 0, 0, 0, 0, 0, 0,0.0,0.0,0.3333333333333333,0.0,0.0,0.0,0.0,0.0,0.0,0.0,0.0,0.0,0.0,6,connector\connector-kafka\src\main\java\org\apache\sqoop\connector\kafka\KafkaToDestroyer.java,0,0,0,0
org.apache.sqoop.connector.kafka.KafkaToInitializer, 0, 0, 0, 0, 0, 0, 0, 0, 0, 0, 0, 0, 0, 0,0.0,0.0,0.25,0.0,0.0,0.0,0.0,0.0,0.0,0.0,0.0,0.0,0.0,16,connector\connector-kafka\src\main\java\org\apache\sqoop\connector\kafka\KafkaToInitializer.java,0,0,0,0
org.apache.sqoop.connector.kafka.TestConfiguration, 0, 0, 0, 0, 0, 0, 0, 0, 0, 0, 0, 0, 0, 0,0.0,0.0,1.0,0.0,0.0,0.0,0.0,0.0,0.0,0.0,0.0,0.0,0.0,49,connector\connector-kafka\src\test\java\org\apache\sqoop\connector\kafka\TestConfiguration.java,0,0,0,0
org.apache.sqoop.connector.kafka.TestKafkaLoader, 0, 0, 0, 0, 0, 0, 0, 0, 0, 0, 0, 0, 0, 0,0.0,0.0,0.5,0.0,0.0,0.0,0.0,0.0,0.0,0.0,0.0,0.0,0.0,52,connector\connector-kafka\src\test\java\org\apache\sqoop\connector\kafka\TestKafkaLoader.java,0,0,0,0
org.apache.sqoop.connector.kafka.configuration.LinkConfig, 0, 0, 1, 0, 0, 0, 0, 0, 0, 0, 0, 0, 0, 1,0.0,0.0,1.0,0.0,0.0,0.0,0.0,0.0,0.0,0.0,0.0,0.0,0.0,4,connector\connector-kafka\src\main\java\org\apache\sqoop\connector\kafka\configuration\LinkConfig.java,0,0,0,0
org.apache.sqoop.connector.kafka.configuration.LinkConfiguration, 0, 0, 1, 0, 0, 0, 0, 0, 0, 0, 0, 0, 0, 1,0.0,0.0,0.3333333333333333,0.0,0.0,0.0,0.0,0.0,0.0,0.0,0.0,0.0,0.0,7,connector\connector-kafka\src\main\java\org\apache\sqoop\connector\kafka\configuration\LinkConfiguration.java,0,0,0,0
org.apache.sqoop.connector.kafka.configuration.ToJobConfig, 0, 0, 1, 0, 0, 0, 0, 0, 0, 0, 0, 0, 0, 1,0.0,0.0,1.0,0.0,0.0,0.0,0.0,0.0,0.0,0.0,0.0,0.0,0.0,3,connector\connector-kafka\src\main\java\org\apache\sqoop\connector\kafka\configuration\ToJobConfig.java,0,0,0,0
org.apache.sqoop.connector.kafka.configuration.ToJobConfiguration, 0, 0, 1, 0, 0, 0, 0, 0, 0, 0, 0, 0, 0, 1,0.0,0.0,0.25,0.0,0.0,0.0,0.0,0.0,0.0,0.0,0.0,0.0,0.0,7,connector\connector-kafka\src\main\java\org\apache\sqoop\connector\kafka\configuration\ToJobConfiguration.java,0,0,0,0
org.apache.sqoop.connector.kite.KiteConnector, 0, 0, 0, 0, 0, 0, 0, 0, 0, 0, 0, 0, 0, 0,0.0,0.0,0.0,0.0,0.0,0.0,0.0,0.0,0.0,0.0,0.0,0.0,0.0,46,connector\connector-kite\src\main\java\org\apache\sqoop\connector\kite\KiteConnector.java,0,0,0,0
org.apache.sqoop.connector.kite.KiteConnectorConstants, 0, 0, 0, 0, 0, 0, 0, 0, 0, 0, 0, 0, 0, 0,0.0,0.0,0.0,0.0,0.0,0.0,0.0,0.0,0.0,0.0,0.0,0.0,0.0,4,connector\connector-kite\src\main\java\org\apache\sqoop\connector\kite\KiteConnectorConstants.java,0,0,0,0
org.apache.sqoop.connector.kite.KiteConnectorUpgrader, 0, 0, 0, 0, 0, 0, 0, 0, 0, 0, 0, 0, 0, 0,0.0,0.0,0.0,0.0,0.0,0.0,0.0,0.0,0.0,0.0,0.0,0.0,0.0,14,connector\connector-kite\src\main\java\org\apache\sqoop\connector\kite\KiteConnectorUpgrader.java,0,37,1,39
org.apache.sqoop.connector.kite.KiteDatasetPartition, 0, 0, 0, 0, 0, 0, 0, 0, 0, 0, 0, 0, 0, 0,0.0,0.0,0.0,0.0,0.0,0.0,0.0,0.0,0.0,0.0,0.0,0.0,0.0,22,connector\connector-kite\src\main\java\org\apache\sqoop\connector\kite\KiteDatasetPartition.java,0,0,0,0
org.apache.sqoop.connector.kite.KiteDatasetPartitioner, 0, 0, 0, 0, 0, 0, 0, 0, 0, 0, 0, 0, 0, 0,0.0,0.0,0.0,0.0,0.0,0.0,0.0,0.0,0.0,0.0,0.0,0.0,0.0,11,connector\connector-kite\src\main\java\org\apache\sqoop\connector\kite\KiteDatasetPartitioner.java,0,3,1,5
org.apache.sqoop.connector.kite.KiteExtractor, 0, 0, 0, 0, 0, 0, 0, 0, 0, 0, 0, 0, 0, 0,0.0,0.0,0.0,0.0,0.0,0.0,0.0,0.0,0.0,0.0,0.0,0.0,0.0,31,connector\connector-kite\src\main\java\org\apache\sqoop\connector\kite\KiteExtractor.java,0,2,1,4
org.apache.sqoop.connector.kite.KiteFromDestroyer, 0, 0, 0, 0, 0, 0, 0, 0, 0, 0, 0, 0, 0, 0,0.0,0.0,0.3333333333333333,0.0,0.0,0.0,0.0,0.0,0.0,0.0,0.0,0.0,0.0,6,connector\connector-kite\src\main\java\org\apache\sqoop\connector\kite\KiteFromDestroyer.java,0,0,0,0
org.apache.sqoop.connector.kite.KiteFromInitializer, 0, 0, 0, 0, 0, 0, 0, 0, 0, 0, 0, 0, 0, 0,0.0,0.0,0.14285714285714285,0.0,0.0,0.0,0.0,0.0,0.0,0.0,0.0,0.0,0.0,27,connector\connector-kite\src\main\java\org\apache\sqoop\connector\kite\KiteFromInitializer.java,0,28,2,32
org.apache.sqoop.connector.kite.KiteLoader, 0, 0, 0, 0, 0, 0, 0, 0, 0, 0, 0, 0, 0, 0,0.0,0.0,0.0,0.0,0.0,0.0,0.0,0.0,0.0,0.0,0.0,0.0,0.0,41,connector\connector-kite\src\main\java\org\apache\sqoop\connector\kite\KiteLoader.java,0,1,5,11
org.apache.sqoop.connector.kite.KiteToDestroyer, 0, 0, 0, 0, 0, 0, 0, 0, 0, 0, 0, 0, 0, 0,0.0,0.0,0.25,0.0,0.0,0.0,0.0,0.0,0.0,0.0,0.0,0.0,0.0,43,connector\connector-kite\src\main\java\org\apache\sqoop\connector\kite\KiteToDestroyer.java,0,0,0,0
org.apache.sqoop.connector.kite.KiteToInitializer, 0, 0, 0, 0, 0, 0, 0, 0, 0, 0, 0, 0, 0, 0,0.0,0.0,0.14285714285714285,0.0,0.0,0.0,0.0,0.0,0.0,0.0,0.0,0.0,0.0,30,connector\connector-kite\src\main\java\org\apache\sqoop\connector\kite\KiteToInitializer.java,0,25,0,25
org.apache.sqoop.connector.kite.TestKiteExecutor, 0, 0, 0, 0, 0, 0, 0, 0, 0, 0, 0, 0, 0, 0,0.0,0.0,0.0,0.0,0.0,0.0,0.0,0.0,0.0,0.0,0.0,0.0,0.0,92,connector\connector-kite\src\test\java\org\apache\sqoop\connector\kite\TestKiteExecutor.java,0,34,1,36
org.apache.sqoop.connector.kite.TestKiteExtractor, 0, 0, 0, 0, 0, 0, 0, 0, 0, 0, 0, 0, 0, 0,0.0,0.0,0.2857142857142857,0.0,0.0,0.0,0.0,0.0,0.0,0.0,0.0,0.0,0.0,45,connector\connector-kite\src\test\java\org\apache\sqoop\connector\kite\TestKiteExtractor.java,0,0,0,0
org.apache.sqoop.connector.kite.TestKiteFromInitializer, 0, 0, 0, 0, 0, 0, 0, 0, 0, 0, 0, 0, 0, 0,0.0,0.0,0.3333333333333333,0.0,0.0,0.0,0.0,0.0,0.0,0.0,0.0,0.0,0.0,22,connector\connector-kite\src\test\java\org\apache\sqoop\connector\kite\TestKiteFromInitializer.java,0,1,2,5
org.apache.sqoop.connector.kite.TestKiteLoader, 0, 0, 0, 0, 0, 0, 0, 0, 0, 0, 0, 0, 0, 0,0.0,0.0,0.4,0.0,0.0,0.0,0.0,0.0,0.0,0.0,0.0,0.0,0.0,49,connector\connector-kite\src\test\java\org\apache\sqoop\connector\kite\TestKiteLoader.java,0,0,1,2
org.apache.sqoop.connector.kite.TestKiteToDestroyer, 0, 0, 0, 0, 0, 0, 0, 0, 0, 0, 0, 0, 0, 0,0.0,0.0,0.4,0.0,0.0,0.0,0.0,0.0,0.0,0.0,0.0,0.0,0.0,48,connector\connector-kite\src\test\java\org\apache\sqoop\connector\kite\TestKiteToDestroyer.java,0,0,0,0
org.apache.sqoop.connector.kite.TestKiteToInitializer, 0, 0, 0, 0, 0, 0, 0, 0, 0, 0, 0, 0, 0, 0,0.0,0.0,0.5,0.0,0.0,0.0,0.0,0.0,0.0,0.0,0.0,0.0,0.0,33,connector\connector-kite\src\test\java\org\apache\sqoop\connector\kite\TestKiteToInitializer.java,0,0,0,0
org.apache.sqoop.connector.kite.configuration.FromJobConfig, 0, 0, 1, 0, 0, 0, 0, 0, 0, 0, 0, 0, 0, 1,0.0,0.0,1.0,0.0,0.0,0.0,0.0,0.0,0.0,0.0,0.0,0.0,0.0,3,connector\connector-kite\src\main\java\org\apache\sqoop\connector\kite\configuration\FromJobConfig.java,0,0,1,2
org.apache.sqoop.connector.kite.configuration.FromJobConfiguration, 0, 0, 1, 0, 0, 0, 0, 0, 0, 0, 0, 0, 0, 1,0.0,0.0,0.2,0.0,0.0,0.0,0.0,0.0,0.0,0.0,0.0,0.0,0.0,5,connector\connector-kite\src\main\java\org\apache\sqoop\connector\kite\configuration\FromJobConfiguration.java,0,0,0,0
org.apache.sqoop.connector.kite.configuration.LinkConfig, 0, 0, 1, 0, 0, 0, 0, 0, 0, 0, 0, 0, 0, 1,0.0,0.0,1.0,0.0,0.0,0.0,0.0,0.0,0.0,0.0,0.0,0.0,0.0,15,connector\connector-kite\src\main\java\org\apache\sqoop\connector\kite\configuration\LinkConfig.java,0,0,3,6
org.apache.sqoop.connector.kite.configuration.LinkConfiguration, 0, 0, 1, 0, 0, 0, 0, 0, 0, 0, 0, 0, 0, 1,0.0,0.0,0.2,0.0,0.0,0.0,0.0,0.0,0.0,0.0,0.0,0.0,0.0,6,connector\connector-kite\src\main\java\org\apache\sqoop\connector\kite\configuration\LinkConfiguration.java,0,0,0,0
org.apache.sqoop.connector.kite.configuration.TestConfigUtil, 0, 0, 0, 0, 0, 0, 0, 0, 0, 0, 0, 0, 0, 0,0.0,0.0,0.0,0.0,0.0,0.0,0.0,0.0,0.0,0.0,0.0,0.0,0.0,13,connector\connector-kite\src\test\java\org\apache\sqoop\connector\kite\configuration\TestConfigUtil.java,0,0,0,0
org.apache.sqoop.connector.kite.configuration.ToJobConfig, 0, 0, 1, 0, 0, 0, 0, 0, 0, 0, 0, 0, 0, 1,0.0,0.0,1.0,0.0,0.0,0.0,0.0,0.0,0.0,0.0,0.0,0.0,0.0,5,connector\connector-kite\src\main\java\org\apache\sqoop\connector\kite\configuration\ToJobConfig.java,0,0,1,2
org.apache.sqoop.connector.kite.configuration.ToJobConfiguration, 0, 0, 1, 0, 0, 0, 0, 0, 0, 0, 0, 0, 0, 1,0.0,0.0,0.16666666666666666,0.0,0.0,0.0,0.0,0.0,0.0,0.0,0.0,0.0,0.0,6,connector\connector-kite\src\main\java\org\apache\sqoop\connector\kite\configuration\ToJobConfiguration.java,0,0,0,0
org.apache.sqoop.connector.kite.util.KiteDataTypeUtil, 0, 0, 0, 0, 0, 0, 0, 0, 0, 0, 0, 0, 0, 0,0.0,0.0,0.0,0.0,0.0,0.0,0.0,0.0,0.0,0.0,0.0,0.0,0.0,99,connector\connector-kite\src\main\java\org\apache\sqoop\connector\kite\util\KiteDataTypeUtil.java,1,27,8,44
org.apache.sqoop.connector.matcher.LocationMatcher, 0, 0, 0, 0, 0, 0, 0, 0, 0, 0, 0, 0, 0, 0,0.0,0.0,0.0,0.0,0.0,0.0,0.0,0.0,0.0,0.0,0.0,0.0,0.0,22,connector\connector-sdk\src\main\java\org\apache\sqoop\connector\matcher\LocationMatcher.java,0,0,0,0
org.apache.sqoop.connector.matcher.Matcher, 0, 0, 0, 0, 0, 0, 0, 0, 0, 0, 0, 0, 0, 0,0.0,0.0,0.0,0.125,0.0,0.0,0.0,0.0,0.0,0.0,0.0,0.0,0.0,37,connector\connector-sdk\src\main\java\org\apache\sqoop\connector\matcher\Matcher.java,0,0,0,0
org.apache.sqoop.connector.matcher.MatcherFactory, 0, 0, 0, 0, 0, 0, 0, 0, 0, 0, 0, 0, 0, 0,0.0,0.0,0.0,0.16666666666666666,0.0,0.0,0.0,0.0,0.0,0.0,0.0,0.0,0.0,9,connector\connector-sdk\src\main\java\org\apache\sqoop\connector\matcher\MatcherFactory.java,0,0,0,0
org.apache.sqoop.connector.matcher.SchemaFixture, 0, 0, 0, 0, 0, 0, 0, 0, 0, 0, 0, 0, 0, 0,0.0,0.0,0.0,0.0,0.0,0.0,0.0,0.0,0.0,0.0,0.0,0.0,0.0,31,connector\connector-sdk\src\test\java\org\apache\sqoop\connector\matcher\SchemaFixture.java,0,0,0,0
org.apache.sqoop.connector.matcher.TestLocationMatcher, 0, 0, 0, 0, 0, 0, 0, 0, 0, 0, 0, 0, 0, 0,0.0,0.0,0.0,0.0,0.0,0.0,0.0,0.0,0.0,0.0,0.0,0.0,0.0,43,connector\connector-sdk\src\test\java\org\apache\sqoop\connector\matcher\TestLocationMatcher.java,0,0,0,0
org.apache.sqoop.connector.matcher.TestNameMatcher, 0, 0, 0, 0, 0, 0, 0, 0, 0, 0, 0, 0, 0, 0,0.0,0.0,0.0,0.0,0.0,0.0,0.0,0.0,0.0,0.0,0.0,0.0,0.0,47,connector\connector-sdk\src\test\java\org\apache\sqoop\connector\matcher\TestNameMatcher.java,0,0,0,0
org.apache.sqoop.connector.spi.ConnectorConfigurableUpgrader, 0, 0, 0, 0, 0, 0, 0, 0, 0, 0, 0, 0, 0, 0,0.0,0.0,0.0,0.2,0.0,0.0,0.0,0.2,0.0,0.0,0.0,0.0,0.0,11,connector\connector-sdk\src\main\java\org\apache\sqoop\connector\spi\ConnectorConfigurableUpgrader.java,0,0,0,0
org.apache.sqoop.connector.spi.SqoopConnector, 0, 0, 0, 0, 0, 0, 0, 0, 0, 0, 0, 0, 0, 0,0.0,0.0,0.0,0.38461538461538464,0.0,0.0,0.0,0.07692307692307693,0.0,0.0,0.0,0.0,0.0,20,connector\connector-sdk\src\main\java\org\apache\sqoop\connector\spi\SqoopConnector.java,0,0,0,0
org.apache.sqoop.core.ConfigurationConstants, 0, 0, 0, 0, 0, 0, 0, 0, 0, 0, 0, 0, 0, 0,0.0,0.0,0.0,0.0,0.0,0.0,0.0,0.0,0.0,0.0,0.0,0.0,0.0,27,core\src\main\java\org\apache\sqoop\core\ConfigurationConstants.java,0,0,0,0
org.apache.sqoop.core.ConfigurationListener, 0, 0, 0, 0, 0, 0, 0, 0, 0, 0, 0, 0, 0, 0,0.0,0.0,0.0,0.0,0.0,0.0,0.0,0.0,0.0,0.0,0.0,0.0,0.0,27,core\src\main\java\org\apache\sqoop\core\ConfigurationListener.java,0,0,0,0
org.apache.sqoop.core.Reconfigurable, 0, 0, 0, 0, 0, 0, 0, 0, 0, 0, 0, 0, 0, 0,0.0,0.0,0.0,0.0,0.0,0.0,0.0,0.0,0.0,0.0,0.0,0.0,0.0,27,core\src\main\java\org\apache\sqoop\core\Reconfigurable.java,0,0,0,0
org.apache.sqoop.core.SqoopServer, 0, 0, 0, 0, 0, 0, 0, 0, 0, 0, 0, 0, 0, 0,0.2857142857142857,0.0,0.0,0.2857142857142857,0.0,0.0,0.0,0.0,0.0,0.0,0.0,0.0,0.0,32,core\src\main\java\org\apache\sqoop\core\SqoopServer.java,0,0,0,0
org.apache.sqoop.driver.Driver, 0, 0, 0, 1, 0, 0, 0, 0, 0, 0, 0, 0, 0, 1,0.0,0.0,0.0,0.42857142857142855,0.0,0.0,0.0,0.14285714285714285,0.0,0.0,0.0,0.0,0.0,55,core\src\main\java\org\apache\sqoop\driver\Driver.java,0,0,0,0
org.apache.sqoop.driver.DriverConstants, 0, 0, 0, 0, 0, 0, 0, 0, 0, 0, 0, 0, 0, 0,0.0,0.0,0.0,0.0,0.0,0.0,0.0,0.0,0.0,0.0,0.0,0.0,0.0,27,core\src\main\java\org\apache\sqoop\driver\DriverConstants.java,0,0,0,0
org.apache.sqoop.driver.DriverUpgrader, 0, 0, 0, 0, 0, 0, 0, 0, 0, 0, 0, 0, 0, 0,0.0,0.0,0.0,0.6666666666666666,0.0,0.0,0.0,0.3333333333333333,0.0,0.0,0.0,0.0,0.0,5,core\src\main\java\org\apache\sqoop\driver\DriverUpgrader.java,0,0,0,0
org.apache.sqoop.driver.ExecutionEngine, 0, 0, 0, 0, 0, 0, 0, 0, 0, 0, 0, 0, 0, 0,0.0,0.0,0.0,0.6666666666666666,0.0,0.0,0.0,0.0,0.0,0.0,0.0,0.0,0.0,10,core\src\main\java\org\apache\sqoop\driver\ExecutionEngine.java,0,0,0,0
org.apache.sqoop.driver.JobManager, 0, 0, 0, 1, 0, 0, 0, 0, 0, 0, 0, 0, 0, 1,0.047619047619047616,0.0,0.047619047619047616,0.3333333333333333,0.0,0.0,0.0,0.047619047619047616,0.0,0.0,0.0,0.0,0.0,404,core\src\main\java\org\apache\sqoop\driver\JobManager.java,0,5,7,19
org.apache.sqoop.driver.JobRequest, 0, 0, 0, 1, 0, 0, 0, 0, 0, 0, 0, 0, 0, 1,0.08333333333333333,0.0,0.08333333333333333,0.25,0.0,0.0,0.0,0.08333333333333333,0.0,0.0,0.0,0.0,0.0,194,core\src\main\java\org\apache\sqoop\driver\JobRequest.java,0,0,0,0
org.apache.sqoop.driver.SubmissionEngine, 0, 0, 0, 0, 0, 0, 0, 0, 0, 0, 0, 0, 0, 0,0.3333333333333333,0.0,0.3333333333333333,1.0,0.0,0.0,0.0,0.3333333333333333,0.0,0.0,0.0,0.0,0.0,10,core\src\main\java\org\apache\sqoop\driver\SubmissionEngine.java,0,0,0,0
org.apache.sqoop.driver.TestDriverConfigUpgrader, 0, 0, 0, 0, 0, 0, 0, 0, 0, 0, 0, 0, 0, 0,0.0,0.0,0.0,0.0,0.0,0.0,0.0,0.3333333333333333,0.0,0.0,0.0,0.0,0.0,88,core\src\test\java\org\apache\sqoop\driver\TestDriverConfigUpgrader.java,0,0,0,0
org.apache.sqoop.driver.TestJobManager, 0, 0, 0, 1, 0, 0, 0, 0, 0, 0, 0, 0, 0, 1,0.0,0.0,0.0,0.2857142857142857,0.0,0.0,0.0,0.0,0.0,0.0,0.0,0.0,0.0,128,core\src\test\java\org\apache\sqoop\driver\TestJobManager.java,0,1,0,1
org.apache.sqoop.driver.TestJobRequest, 0, 0, 0, 0, 0, 0, 0, 0, 0, 0, 0, 0, 0, 0,0.0,0.0,0.0,1.0,0.0,0.0,0.0,0.0,0.0,0.0,0.0,0.0,0.0,34,core\src\test\java\org\apache\sqoop\driver\TestJobRequest.java,0,0,0,0
org.apache.sqoop.driver.configuration.JobConfiguration, 0, 0, 1, 0, 0, 0, 0, 0, 0, 0, 0, 0, 0, 1,0.0,0.0,1.0,0.0,0.0,0.0,0.0,0.0,0.0,0.0,0.0,0.0,0.0,7,core\src\main\java\org\apache\sqoop\driver\configuration\JobConfiguration.java,0,0,0,0
org.apache.sqoop.driver.configuration.ThrottlingConfig, 0, 0, 1, 0, 0, 0, 0, 0, 0, 0, 0, 0, 0, 1,0.0,0.0,1.0,0.0,0.0,0.0,0.0,0.0,0.0,0.0,0.0,0.0,0.0,4,core\src\main\java\org\apache\sqoop\driver\configuration\ThrottlingConfig.java,0,0,0,0
org.apache.sqoop.etl.io.DataReader, 0, 0, 0, 0, 0, 0, 0, 0, 0, 0, 0, 0, 0, 0,0.0,0.0,0.0,0.0,0.0,0.0,0.0,0.0,0.0,0.0,0.0,0.0,0.0,5,common\src\main\java\org\apache\sqoop\etl\io\DataReader.java,0,0,0,0
org.apache.sqoop.etl.io.DataWriter, 0, 0, 0, 0, 0, 0, 0, 0, 0, 0, 0, 0, 0, 0,0.0,0.0,0.0,0.0,0.0,0.0,0.0,0.25,0.0,0.0,0.0,0.0,0.0,5,common\src\main\java\org\apache\sqoop\etl\io\DataWriter.java,0,0,0,0
org.apache.sqoop.execution.mapreduce.MRJobRequest, 0, 0, 0, 1, 0, 0, 0, 0, 0, 0, 0, 0, 0, 1,0.0,0.0,0.0,0.5,0.0,0.0,0.0,0.0,0.0,0.0,0.0,0.0,0.0,53,execution\mapreduce\src\main\java\org\apache\sqoop\execution\mapreduce\MRJobRequest.java,0,0,0,0
org.apache.sqoop.execution.mapreduce.MapreduceExecutionEngine, 0, 0, 0, 0, 0, 0, 0, 0, 0, 0, 0, 0, 0, 0,0.0,0.0,0.0,0.2857142857142857,0.0,0.0,0.0,0.0,0.0,0.0,0.0,0.0,0.0,35,execution\mapreduce\src\main\java\org\apache\sqoop\execution\mapreduce\MapreduceExecutionEngine.java,0,0,0,0
org.apache.sqoop.handler.DriverRequestHandler, 0, 0, 0, 0, 0, 0, 0, 0, 0, 0, 0, 0, 0, 0,0.0,0.0,0.0,0.16666666666666666,0.0,0.0,0.0,0.0,0.0,0.0,0.0,0.0,0.0,17,server\src\main\java\org\apache\sqoop\handler\DriverRequestHandler.java,0,0,1,2
org.apache.sqoop.handler.HandlerUtils, 0, 0, 0, 0, 0, 0, 0, 0, 0, 0, 0, 0, 0, 0,0.0,0.0,0.0,0.2,0.0,0.0,0.0,0.0,0.0,0.0,0.0,0.0,0.0,44,server\src\main\java\org\apache\sqoop\handler\HandlerUtils.java,0,0,1,2
org.apache.sqoop.handler.JobRequestHandler, 0, 0, 0, 1, 0, 0, 0, 0, 0, 0, 0, 0, 0, 1,0.0,0.0,0.0,0.3076923076923077,0.0,0.0,0.0,0.0,0.0,0.0,0.0,0.0,0.0,264,server\src\main\java\org\apache\sqoop\handler\JobRequestHandler.java,2,4,21,48
org.apache.sqoop.handler.LinkRequestHandler, 0, 0, 0, 0, 0, 0, 0, 0, 0, 0, 0, 0, 0, 0,0.0,0.0,0.0,0.2,0.0,0.0,0.0,0.0,0.0,0.0,0.0,0.0,0.0,165,server\src\main\java\org\apache\sqoop\handler\LinkRequestHandler.java,1,4,8,21
org.apache.sqoop.handler.SubmissionRequestHandler, 0, 0, 0, 0, 0, 0, 0, 0, 0, 0, 0, 0, 0, 0,0.0,0.0,0.0,0.16666666666666666,0.0,0.0,0.0,0.0,0.0,0.0,0.0,0.0,0.0,38,server\src\main\java\org\apache\sqoop\handler\SubmissionRequestHandler.java,0,0,2,4
org.apache.sqoop.handler.VersionRequestHandler, 0, 0, 0, 0, 0, 0, 0, 0, 0, 0, 0, 0, 0, 0,0.0,0.0,0.0,0.25,0.0,0.0,0.0,0.25,0.0,0.0,0.0,0.0,0.0,24,server\src\main\java\org\apache\sqoop\handler\VersionRequestHandler.java,0,0,1,2
org.apache.sqoop.integration.connector.jdbc.generic.FromHDFSToRDBMSTest, 0, 0, 0, 0, 0, 0, 0, 0, 0, 0, 0, 0, 0, 0,0.6666666666666666,0.0,0.3333333333333333,0.6666666666666666,0.0,0.0,0.0,0.0,0.0,0.0,0.0,0.0,0.0,31,test\src\test\java\org\apache\sqoop\integration\connector\jdbc\generic\FromHDFSToRDBMSTest.java,3,12,2,19
org.apache.sqoop.integration.connector.jdbc.generic.FromRDBMSToHDFSTest, 0, 0, 0, 0, 0, 0, 0, 0, 0, 0, 0, 0, 0, 0,0.75,0.0,0.5,0.75,0.0,0.0,0.0,0.25,0.0,0.0,0.0,0.0,0.0,120,test\src\test\java\org\apache\sqoop\integration\connector\jdbc\generic\FromRDBMSToHDFSTest.java,4,33,9,55
org.apache.sqoop.integration.connector.jdbc.generic.PartitionerTest, 1, 0, 1, 0, 0, 0, 0, 0, 0, 0, 0, 0, 0, 2,0.5,0.0,0.25,0.5,0.0,0.0,0.0,0.0,0.0,0.0,0.0,0.0,0.0,70,test\src\test\java\org\apache\sqoop\integration\connector\jdbc\generic\PartitionerTest.java,1,1,2,6
org.apache.sqoop.integration.connector.jdbc.generic.TableStagedRDBMSTest, 0, 0, 0, 0, 0, 0, 0, 0, 0, 0, 0, 0, 0, 0,0.5,0.0,0.25,0.5,0.0,0.0,0.0,0.0,0.0,0.0,0.0,0.0,0.0,39,test\src\test\java\org\apache\sqoop\integration\connector\jdbc\generic\TableStagedRDBMSTest.java,2,3,6,17
org.apache.sqoop.integration.connector.kafka.FromHDFSToKafkaTest, 0, 0, 0, 0, 0, 0, 0, 0, 0, 0, 0, 0, 0, 0,0.5,0.0,0.25,0.5,0.0,0.0,0.0,0.0,0.0,0.0,0.0,0.0,0.0,24,test\src\test\java\org\apache\sqoop\integration\connector\kafka\FromHDFSToKafkaTest.java,0,1,0,1
org.apache.sqoop.integration.connector.kafka.FromRDBMSToKafkaTest, 0, 0, 0, 0, 0, 0, 0, 0, 0, 0, 0, 0, 0, 0,0.5,0.0,0.25,0.5,0.0,0.0,0.0,0.0,0.0,0.0,0.0,0.0,0.0,28,test\src\test\java\org\apache\sqoop\integration\connector\kafka\FromRDBMSToKafkaTest.java,2,0,1,4
org.apache.sqoop.integration.repository.postgresql.PostgresqlTestCase, 1, 0, 1, 1, 0, 0, 0, 1, 0, 0, 0, 0, 0, 4,0.1,0.0,0.1,0.3,0.0,0.0,0.0,0.2,0.0,0.0,0.0,0.0,0.0,102,repository\repository-postgresql\src\test\java\org\apache\sqoop\integration\repository\postgresql\PostgresqlTestCase.java,0,0,2,4
org.apache.sqoop.integration.repository.postgresql.TestConnectorHandling, 0, 0, 0, 0, 0, 0, 0, 0, 0, 0, 0, 0, 0, 0,0.5,0.0,0.5,0.5,0.0,0.0,0.0,0.5,0.0,0.0,0.0,0.0,0.0,81,repository\repository-postgresql\src\test\java\org\apache\sqoop\integration\repository\postgresql\TestConnectorHandling.java,0,1,16,33
org.apache.sqoop.integration.repository.postgresql.TestDriverHandling, 0, 0, 0, 0, 0, 0, 0, 0, 0, 0, 0, 0, 0, 0,0.5,0.0,0.5,0.5,0.0,0.0,0.0,0.5,0.0,0.0,0.0,0.0,0.0,38,repository\repository-postgresql\src\test\java\org\apache\sqoop\integration\repository\postgresql\TestDriverHandling.java,0,1,4,9
org.apache.sqoop.integration.repository.postgresql.TestHandler, 0, 0, 0, 0, 0, 0, 0, 0, 0, 0, 0, 0, 0, 0,1.0,0.0,1.0,1.0,0.0,0.0,0.0,1.0,0.0,0.0,0.0,0.0,0.0,11,repository\repository-postgresql\src\test\java\org\apache\sqoop\integration\repository\postgresql\TestHandler.java,0,0,0,0
org.apache.sqoop.integration.repository.postgresql.TestLinkHandling, 0, 0, 0, 1, 0, 0, 0, 0, 0, 0, 0, 0, 0, 1,0.25,0.0,0.25,0.5,0.0,0.0,0.0,0.25,0.0,0.0,0.0,0.0,0.0,180,repository\repository-postgresql\src\test\java\org\apache\sqoop\integration\repository\postgresql\TestLinkHandling.java,0,1,9,19
org.apache.sqoop.integration.repository.postgresql.TestStructure, 0, 0, 0, 0, 0, 0, 0, 0, 0, 0, 0, 0, 0, 0,1.0,0.0,1.0,1.0,0.0,0.0,0.0,1.0,0.0,0.0,0.0,0.0,0.0,53,repository\repository-postgresql\src\test\java\org\apache\sqoop\integration\repository\postgresql\TestStructure.java,0,0,0,0
org.apache.sqoop.integration.repository.postgresql.TestSubmissionHandling, 0, 0, 0, 1, 0, 0, 0, 0, 0, 0, 0, 0, 0, 1,0.3333333333333333,0.0,0.3333333333333333,0.5,0.0,0.0,0.0,0.3333333333333333,0.0,0.0,0.0,0.0,0.0,239,repository\repository-postgresql\src\test\java\org\apache\sqoop\integration\repository\postgresql\TestSubmissionHandling.java,0,1,10,21
org.apache.sqoop.integration.server.SubmissionWithDisabledModelObjectsTest, 0, 0, 0, 0, 0, 0, 0, 0, 0, 0, 0, 0, 0, 0,0.5,0.0,0.25,0.5,0.0,0.0,0.0,0.0,0.0,0.0,0.0,0.0,0.0,52,test\src\test\java\org\apache\sqoop\integration\server\SubmissionWithDisabledModelObjectsTest.java,3,1,2,8
org.apache.sqoop.integration.server.VersionTest, 0, 0, 0, 0, 0, 0, 0, 0, 0, 0, 0, 0, 0, 0,0.3333333333333333,0.0,0.3333333333333333,0.6666666666666666,0.0,0.0,0.0,0.3333333333333333,0.0,0.0,0.0,0.0,0.0,12,test\src\test\java\org\apache\sqoop\integration\server\VersionTest.java,0,0,0,0
org.apache.sqoop.job.Constants, 0, 0, 0, 0, 0, 0, 0, 0, 0, 0, 0, 0, 0, 0,0.0,0.0,0.0,0.25,0.0,0.0,0.0,0.0,0.0,0.0,0.0,0.0,0.0,13,connector\connector-sdk\src\main\java\org\apache\sqoop\job\Constants.java,0,0,0,0
org.apache.sqoop.job.MRJobConstants, 0, 0, 0, 1, 0, 0, 0, 0, 0, 0, 0, 0, 0, 1,0.0,0.0,0.0,0.0,0.0,0.0,0.0,0.0,0.0,0.0,0.0,0.0,0.0,35,execution\mapreduce\src\main\java\org\apache\sqoop\job\MRJobConstants.java,0,0,0,0
org.apache.sqoop.job.TestMapReduce, 0, 0, 0, 0, 0, 0, 0, 0, 0, 0, 0, 0, 0, 0,0.0,0.0,0.0,0.0,0.0,0.0,0.0,0.0,0.0,0.0,0.0,0.0,0.0,189,execution\mapreduce\src\test\java\org\apache\sqoop\job\TestMapReduce.java,0,0,0,0
org.apache.sqoop.job.TestMatching, 0, 0, 0, 0, 0, 0, 0, 0, 0, 0, 0, 0, 0, 0,0.0,0.0,0.0,0.0,0.0,0.0,0.0,0.0,0.0,0.0,0.0,0.0,0.0,198,execution\mapreduce\src\test\java\org\apache\sqoop\job\TestMatching.java,0,0,0,0
org.apache.sqoop.job.etl.Destroyer, 0, 0, 0, 0, 0, 0, 0, 0, 0, 0, 0, 0, 0, 0,0.0,0.0,0.0,0.09090909090909091,0.0,0.0,0.0,0.0,0.0,0.0,0.0,0.0,0.0,5,common\src\main\java\org\apache\sqoop\job\etl\DestroyerContext.java,0,0,0,0
org.apache.sqoop.job.etl.DestroyerContext, 0, 0, 0, 0, 0, 0, 0, 0, 0, 0, 0, 0, 0, 0,0.0,0.0,0.0,0.08333333333333333,0.0,0.0,0.0,0.0,0.0,0.0,0.0,0.0,0.0,15,common\src\main\java\org\apache\sqoop\job\etl\DestroyerContext.java,0,0,0,0
org.apache.sqoop.job.etl.Extractor, 0, 0, 0, 0, 0, 0, 0, 0, 0, 0, 0, 0, 0, 0,0.0,0.0,0.0,0.0,0.0,0.0,0.0,0.14285714285714285,0.0,0.0,0.0,0.0,0.0,7,common\src\main\java\org\apache\sqoop\job\etl\ExtractorContext.java,0,0,0,0
org.apache.sqoop.job.etl.ExtractorContext, 0, 0, 0, 0, 0, 0, 0, 0, 0, 0, 0, 0, 0, 0,0.0,0.0,0.0,0.0,0.0,0.0,0.0,0.1111111111111111,0.0,0.0,0.0,0.0,0.0,15,common\src\main\java\org\apache\sqoop\job\etl\ExtractorContext.java,0,0,0,0
org.apache.sqoop.job.etl.From, 0, 0, 0, 0, 0, 0, 0, 0, 0, 0, 0, 0, 0, 0,0.0,0.0,0.0,0.0,0.0,0.0,0.0,0.0,0.0,0.0,0.0,0.0,0.0,25,connector\connector-sdk\src\main\java\org\apache\sqoop\job\etl\From.java,0,0,0,0
org.apache.sqoop.job.etl.Initializer, 0, 0, 0, 0, 0, 0, 0, 0, 0, 0, 0, 0, 0, 0,0.0,0.0,0.0,0.25,0.0,0.0,0.0,0.08333333333333333,0.0,0.0,0.0,0.0,0.0,12,common\src\main\java\org\apache\sqoop\job\etl\InitializerContext.java,0,0,0,0
org.apache.sqoop.job.etl.InitializerContext, 0, 0, 0, 0, 0, 0, 0, 0, 0, 0, 0, 0, 0, 0,0.0,0.0,0.0,0.3,0.0,0.0,0.0,0.1,0.0,0.0,0.0,0.0,0.0,9,common\src\main\java\org\apache\sqoop\job\etl\InitializerContext.java,0,0,0,0
org.apache.sqoop.job.etl.Loader, 0, 0, 0, 0, 0, 0, 0, 0, 0, 0, 0, 0, 0, 0,0.0,0.0,0.0,0.0,0.0,0.0,0.0,0.0,0.0,0.0,0.0,0.0,0.0,5,common\src\main\java\org\apache\sqoop\job\etl\LoaderContext.java,0,0,0,0
org.apache.sqoop.job.etl.LoaderContext, 0, 0, 0, 0, 0, 0, 0, 0, 0, 0, 0, 0, 0, 0,0.0,0.0,0.0,0.0,0.0,0.0,0.0,0.0,0.0,0.0,0.0,0.0,0.0,15,common\src\main\java\org\apache\sqoop\job\etl\LoaderContext.java,0,0,0,0
org.apache.sqoop.job.etl.Partition, 0, 0, 0, 0, 0, 0, 0, 0, 0, 0, 0, 0, 0, 0,0.0,0.0,0.0,0.0,0.0,0.0,0.0,0.0,0.0,0.0,0.0,0.0,0.0,5,common\src\main\java\org\apache\sqoop\job\etl\PartitionerContext.java,0,0,0,0
org.apache.sqoop.job.etl.Partitioner, 0, 0, 0, 0, 0, 0, 0, 0, 0, 0, 0, 0, 0, 0,0.0,0.0,0.0,0.0,0.0,0.0,0.0,0.0,0.0,0.0,0.0,0.0,0.0,4,common\src\main\java\org\apache\sqoop\job\etl\PartitionerContext.java,0,0,0,0
org.apache.sqoop.job.etl.PartitionerContext, 0, 0, 0, 0, 0, 0, 0, 0, 0, 0, 0, 0, 0, 0,0.0,0.0,0.0,0.0,0.0,0.0,0.0,0.0,0.0,0.0,0.0,0.0,0.0,15,common\src\main\java\org\apache\sqoop\job\etl\PartitionerContext.java,0,0,0,0
org.apache.sqoop.job.etl.To, 0, 0, 0, 0, 0, 0, 0, 0, 0, 0, 0, 0, 0, 0,0.0,0.0,0.0,0.0,0.0,0.0,0.0,0.0,0.0,0.0,0.0,0.0,0.0,20,connector\connector-sdk\src\main\java\org\apache\sqoop\job\etl\To.java,0,0,0,0
org.apache.sqoop.job.etl.Transferable, 0, 0, 0, 0, 0, 0, 0, 0, 0, 0, 0, 0, 0, 0,0.0,0.0,0.0,0.4,0.0,0.0,0.0,0.0,0.0,0.0,0.0,0.0,0.0,21,common\src\main\java\org\apache\sqoop\job\etl\TransferableContext.java,0,0,0,0
org.apache.sqoop.job.etl.TransferableContext, 0, 0, 0, 0, 0, 0, 0, 0, 0, 0, 0, 0, 0, 0,0.0,0.0,0.0,0.0,0.0,0.0,0.0,0.125,0.0,0.0,0.0,0.0,0.0,24,common\src\main\java\org\apache\sqoop\job\etl\TransferableContext.java,0,0,0,0
org.apache.sqoop.job.io.SqoopWritable, 0, 0, 0, 0, 0, 0, 0, 0, 0, 0, 0, 0, 0, 0,0.0,0.0,0.0,0.3333333333333333,0.0,0.0,0.0,0.0,0.0,0.0,0.0,0.0,0.0,64,execution\mapreduce\src\main\java\org\apache\sqoop\job\io\SqoopWritable.java,0,0,0,0
org.apache.sqoop.job.io.TestSqoopWritable, 0, 0, 0, 0, 0, 0, 0, 0, 0, 0, 0, 0, 0, 0,0.0,0.0,0.0,0.5,0.0,0.0,0.0,0.0,0.0,0.0,0.0,0.0,0.0,46,execution\mapreduce\src\test\java\org\apache\sqoop\job\io\TestSqoopWritable.java,0,0,0,0
org.apache.sqoop.job.mr.SqoopDestroyerExecutor, 0, 0, 0, 0, 0, 0, 0, 0, 0, 0, 0, 0, 0, 0,0.0,0.0,0.0,0.0,0.0,0.0,0.0,0.0,0.0,0.0,0.0,0.0,0.0,35,execution\mapreduce\src\main\java\org\apache\sqoop\job\mr\SqoopDestroyerExecutor.java,0,0,1,2
org.apache.sqoop.job.mr.SqoopInputFormat, 0, 0, 0, 0, 0, 0, 0, 0, 0, 0, 0, 0, 0, 0,0.0,0.0,0.0,0.0,0.0,0.0,0.0,0.0,0.0,0.0,0.0,0.0,0.0,69,execution\mapreduce\src\main\java\org\apache\sqoop\job\mr\SqoopInputFormat.java,0,0,1,2
org.apache.sqoop.job.mr.SqoopMapper, 0, 0, 0, 0, 0, 0, 0, 0, 0, 0, 0, 0, 0, 0,0.0,0.0,0.0,0.1111111111111111,0.0,0.0,0.0,0.0,0.0,0.0,0.0,0.0,0.0,82,execution\mapreduce\src\main\java\org\apache\sqoop\job\mr\SqoopMapper.java,0,0,1,2
org.apache.sqoop.job.mr.SqoopNullOutputFormat, 0, 0, 0, 0, 0, 0, 0, 0, 0, 0, 0, 0, 0, 0,0.0,0.0,0.0,1.0,0.0,0.0,0.0,0.0,0.0,0.0,0.0,0.0,0.0,48,execution\mapreduce\src\main\java\org\apache\sqoop\job\mr\SqoopNullOutputFormat.java,0,0,0,0
org.apache.sqoop.job.mr.SqoopOutputFormatLoadExecutor, 0, 0, 0, 1, 0, 0, 0, 0, 0, 0, 0, 0, 0, 1,0.0,0.0,0.0,0.25,0.0,0.0,0.0,0.0,0.0,0.0,0.0,0.0,0.0,169,execution\mapreduce\src\main\java\org\apache\sqoop\job\mr\SqoopOutputFormatLoadExecutor.java,0,0,1,2
org.apache.sqoop.job.mr.SqoopProgressRunnable, 0, 0, 0, 0, 0, 0, 0, 0, 0, 0, 0, 0, 0, 0,0.0,0.0,0.0,0.0,0.0,0.0,0.0,0.0,0.0,0.0,0.0,0.0,0.0,12,execution\mapreduce\src\main\java\org\apache\sqoop\job\mr\SqoopProgressRunnable.java,0,0,0,0
org.apache.sqoop.job.mr.SqoopReducer, 0, 0, 0, 0, 0, 0, 0, 0, 0, 0, 0, 0, 0, 0,0.0,0.0,0.0,0.0,0.0,0.0,0.0,0.0,0.0,0.0,0.0,0.0,0.0,22,execution\mapreduce\src\main\java\org\apache\sqoop\job\mr\SqoopReducer.java,0,0,0,0
org.apache.sqoop.job.mr.SqoopSplit, 0, 0, 0, 0, 0, 0, 0, 0, 0, 0, 0, 0, 0, 0,0.0,0.0,0.0,0.0,0.0,0.0,0.0,0.0,0.0,0.0,0.0,0.0,0.0,36,execution\mapreduce\src\main\java\org\apache\sqoop\job\mr\SqoopSplit.java,0,0,0,0
org.apache.sqoop.job.mr.TestMRConfigurationUtils, 0, 0, 0, 0, 0, 0, 0, 0, 0, 0, 0, 0, 0, 0,0.0,0.0,0.0,0.0,0.0,0.0,0.0,0.0,0.0,0.0,0.0,0.0,0.0,100,execution\mapreduce\src\test\java\org\apache\sqoop\job\mr\TestMRConfigurationUtils.java,0,0,0,0
org.apache.sqoop.job.util.MRJobTestUtil, 0, 0, 0, 0, 0, 0, 0, 0, 0, 0, 0, 0, 0, 0,0.0,0.0,0.0,0.25,0.0,0.0,0.0,0.0,0.0,0.0,0.0,0.0,0.0,49,execution\mapreduce\src\test\java\org\apache\sqoop\job\util\MRJobTestUtil.java,0,0,0,0
org.apache.sqoop.json.ConfigurableBean, 0, 0, 0, 0, 0, 0, 0, 0, 0, 0, 0, 0, 0, 0,0.0,0.0,0.0,0.0,0.0,0.0,0.0,0.0,0.0,0.0,0.0,0.0,0.0,2,common\src\main\java\org\apache\sqoop\json\ConfigurableBean.java,0,0,0,0
org.apache.sqoop.json.DriverBean, 0, 0, 0, 0, 0, 0, 0, 0, 0, 0, 0, 0, 0, 0,0.0,0.0,0.0,0.16666666666666666,0.0,0.0,0.0,0.0,0.0,0.0,0.0,0.0,0.0,39,common\src\main\java\org\apache\sqoop\json\DriverBean.java,0,0,0,0
org.apache.sqoop.json.JSONUtils, 0, 0, 0, 0, 0, 0, 0, 0, 0, 0, 0, 0, 0, 0,0.0,0.0,0.0,0.1875,0.0,0.0,0.0,0.0,0.0,0.0,0.0,0.0,0.0,20,common\src\main\java\org\apache\sqoop\json\JSONUtils.java,0,0,0,0
org.apache.sqoop.json.JobsBean, 0, 0, 0, 0, 0, 0, 0, 0, 0, 0, 0, 0, 0, 0,0.0,0.0,0.0,0.6666666666666666,0.0,0.0,0.0,0.0,0.0,0.0,0.0,0.0,0.0,24,common\src\main\java\org\apache\sqoop\json\JobsBean.java,0,0,0,0
org.apache.sqoop.json.JsonBean, 0, 0, 0, 0, 0, 0, 0, 0, 0, 0, 0, 0, 0, 0,0.0,0.0,0.0,0.0,0.0,0.0,0.0,0.0,0.0,0.0,0.0,0.0,0.0,24,common\src\main\java\org\apache\sqoop\json\JsonBean.java,0,0,0,0
org.apache.sqoop.json.LinksBean, 0, 0, 0, 0, 0, 0, 0, 0, 0, 0, 0, 0, 0, 0,0.0,0.0,0.0,0.0,0.0,0.0,0.0,0.0,0.0,0.0,0.0,0.0,0.0,23,common\src\main\java\org\apache\sqoop\json\LinksBean.java,0,0,0,0
org.apache.sqoop.json.SchemaBean, 0, 0, 0, 0, 0, 0, 0, 0, 0, 0, 0, 0, 0, 0,0.0,0.0,0.0,0.5,0.0,0.0,0.0,0.0,0.0,0.0,0.0,0.0,0.0,19,common\src\main\java\org\apache\sqoop\json\SchemaBean.java,0,0,0,0
org.apache.sqoop.json.SubmissionsBean, 0, 0, 0, 0, 0, 0, 0, 0, 0, 0, 0, 0, 0, 0,0.16666666666666666,0.0,0.16666666666666666,0.5,0.0,0.0,0.0,0.16666666666666666,0.0,0.0,0.0,0.0,0.0,24,common\src\main\java\org\apache\sqoop\json\SubmissionsBean.java,0,0,0,0
org.apache.sqoop.json.TestDriverBean, 0, 0, 0, 0, 0, 0, 0, 0, 0, 0, 0, 0, 0, 0,0.0,0.0,0.0,0.0,0.0,0.0,0.0,0.0,0.0,0.0,0.0,0.0,0.0,16,common\src\test\java\org\apache\sqoop\json\TestDriverBean.java,0,0,0,0
org.apache.sqoop.json.TestJSONUtils, 0, 0, 0, 0, 0, 0, 0, 0, 0, 0, 0, 0, 0, 0,0.0,0.0,0.0,0.0,0.0,0.0,0.0,0.0,0.0,0.0,0.0,0.0,0.0,28,common\src\test\java\org\apache\sqoop\json\TestJSONUtils.java,0,0,0,0
org.apache.sqoop.json.TestJobBean, 0, 0, 0, 0, 0, 0, 0, 0, 0, 0, 0, 0, 0, 0,0.0,0.0,0.0,0.2,0.0,0.0,0.0,0.2,0.0,0.0,0.0,0.0,0.0,35,common\src\test\java\org\apache\sqoop\json\TestJobBean.java,0,0,8,16
org.apache.sqoop.json.TestJobsBean, 0, 0, 0, 0, 0, 0, 0, 0, 0, 0, 0, 0, 0, 0,0.0,0.0,0.0,0.16666666666666666,0.0,0.0,0.0,0.16666666666666666,0.0,0.0,0.0,0.0,0.0,42,common\src\test\java\org\apache\sqoop\json\TestJobsBean.java,0,0,8,16
org.apache.sqoop.json.TestLinkBean, 0, 0, 0, 0, 0, 0, 0, 0, 0, 0, 0, 0, 0, 0,0.0,0.0,0.0,0.2,0.0,0.0,0.0,0.2,0.0,0.0,0.0,0.0,0.0,61,common\src\test\java\org\apache\sqoop\json\TestLinkBean.java,0,0,0,0
org.apache.sqoop.json.TestLinksBean, 0, 0, 0, 0, 0, 0, 0, 0, 0, 0, 0, 0, 0, 0,0.0,0.0,0.0,0.16666666666666666,0.0,0.0,0.0,0.16666666666666666,0.0,0.0,0.0,0.0,0.0,43,common\src\test\java\org\apache\sqoop\json\TestLinksBean.java,0,0,0,0
org.apache.sqoop.json.TestSchemaBean, 0, 0, 0, 0, 0, 0, 0, 0, 0, 0, 0, 0, 0, 0,0.0,0.0,0.0,0.3333333333333333,0.0,0.0,0.0,0.0,0.0,0.0,0.0,0.0,0.0,12,common\src\test\java\org\apache\sqoop\json\TestSchemaBean.java,0,0,0,0
org.apache.sqoop.json.TestSubmissionBean, 0, 0, 0, 1, 0, 0, 0, 0, 0, 0, 0, 0, 0, 1,0.16666666666666666,0.0,0.16666666666666666,0.3333333333333333,0.0,0.0,0.0,0.16666666666666666,0.0,0.0,0.0,0.0,0.0,371,common\src\test\java\org\apache\sqoop\json\TestSubmissionBean.java,0,0,0,0
org.apache.sqoop.json.TestThrowableBean, 0, 0, 0, 0, 0, 0, 0, 0, 0, 0, 0, 0, 0, 0,0.0,0.0,0.0,0.0,0.0,0.0,0.0,0.0,0.0,0.0,0.0,0.0,0.0,33,common\src\test\java\org\apache\sqoop\json\TestThrowableBean.java,0,0,0,0
org.apache.sqoop.json.ThrowableBean, 0, 0, 0, 0, 0, 0, 0, 0, 0, 0, 0, 0, 0, 0,0.0,0.0,0.0,0.0,0.0,0.0,0.0,0.0,0.0,0.0,0.0,0.0,0.0,90,common\src\main\java\org\apache\sqoop\json\ThrowableBean.java,0,0,0,0
org.apache.sqoop.json.VersionBean, 0, 0, 0, 1, 0, 0, 0, 1, 0, 0, 0, 0, 0, 2,0.0,0.0,0.0,0.0,0.0,0.0,0.0,0.0,0.0,0.0,0.0,0.0,0.0,74,common\src\main\java\org\apache\sqoop\json\VersionBean.java,0,0,0,0
org.apache.sqoop.json.util.BeanTestUtil, 0, 0, 0, 0, 0, 0, 0, 1, 0, 0, 0, 0, 0, 1,0.0,0.0,0.0,0.14285714285714285,0.0,0.0,0.0,0.0,0.0,0.0,0.0,0.0,0.0,47,common\src\test\java\org\apache\sqoop\json\util\BeanTestUtil.java,0,0,0,0
org.apache.sqoop.json.util.ConfigInputConstants, 0, 0, 0, 0, 0, 0, 0, 0, 0, 0, 0, 0, 0, 0,0.0,0.0,0.0,0.0,0.0,0.0,0.0,0.0,0.0,0.0,0.0,0.0,0.0,17,common\src\main\java\org\apache\sqoop\json\util\ConfigInputConstants.java,0,0,0,0
org.apache.sqoop.json.util.SchemaSerialization, 0, 0, 0, 1, 0, 0, 0, 0, 0, 0, 0, 0, 0, 1,0.0,0.0,0.0,0.25,0.0,0.0,0.0,0.0,0.0,0.0,0.0,0.0,0.0,210,common\src\main\java\org\apache\sqoop\json\util\SchemaSerialization.java,0,0,0,0
org.apache.sqoop.json.util.TestSchemaSerialization, 0, 0, 0, 1, 0, 0, 0, 0, 0, 0, 0, 0, 0, 1,0.0,0.0,0.0,0.16666666666666666,0.0,0.0,0.0,0.0,0.0,0.0,0.0,0.0,0.0,148,common\src\test\java\org\apache\sqoop\json\util\TestSchemaSerialization.java,0,0,0,0
org.apache.sqoop.model.Configurable, 0, 0, 0, 0, 0, 0, 0, 0, 0, 0, 0, 0, 0, 0,0.0,0.0,0.0,0.0,0.0,0.0,0.0,0.0,0.0,0.0,0.0,0.0,0.0,0,common\src\main\java\org\apache\sqoop\model\Configurable.java,0,0,0,0
org.apache.sqoop.model.MAccountableEntity, 0, 0, 0, 1, 0, 0, 0, 0, 0, 0, 0, 0, 0, 1,0.045454545454545456,0.0,0.045454545454545456,0.36363636363636365,0.0,0.0,0.0,0.09090909090909091,0.0,0.0,0.0,0.0,0.0,54,common\src\main\java\org\apache\sqoop\model\MAccountableEntity.java,0,0,0,0
org.apache.sqoop.model.MBooleanInput, 0, 0, 0, 0, 0, 0, 0, 0, 0, 0, 0, 0, 0, 0,0.0,0.0,0.0,0.0,0.0,0.0,0.0,0.0,0.0,0.0,0.0,0.0,0.0,51,common\src\main\java\org\apache\sqoop\model\MBooleanInput.java,0,0,0,0
org.apache.sqoop.model.MClonable, 0, 0, 0, 0, 0, 0, 0, 0, 0, 0, 0, 0, 0, 0,0.0,0.0,0.0,0.0,0.0,0.0,0.0,0.0,0.0,0.0,0.0,0.0,0.0,51,common\src\main\java\org\apache\sqoop\model\MClonable.java,0,0,0,0
org.apache.sqoop.model.MEnumInput, 0, 0, 0, 0, 0, 0, 0, 1, 0, 0, 0, 0, 0, 1,0.0,0.0,0.0,0.0,0.0,0.0,0.0,0.0,0.0,0.0,0.0,0.0,0.0,85,common\src\main\java\org\apache\sqoop\model\MEnumInput.java,0,0,0,0
org.apache.sqoop.model.MIntegerInput, 0, 0, 0, 0, 0, 0, 0, 0, 0, 0, 0, 0, 0, 0,0.0,0.0,0.0,0.0,0.0,0.0,0.0,0.0,0.0,0.0,0.0,0.0,0.0,55,common\src\main\java\org\apache\sqoop\model\MIntegerInput.java,0,0,0,0
org.apache.sqoop.model.MNamedElement, 0, 0, 0, 0, 0, 0, 0, 0, 0, 0, 0, 0, 0, 0,0.03571428571428571,0.0,0.03571428571428571,0.17857142857142858,0.0,0.0,0.0,0.14285714285714285,0.0,0.0,0.0,0.0,0.0,28,common\src\main\java\org\apache\sqoop\model\MNamedElement.java,0,0,0,0
org.apache.sqoop.model.MPersistableEntity, 0, 0, 0, 0, 0, 0, 0, 0, 0, 0, 0, 0, 0, 0,0.0625,0.0,0.041666666666666664,0.20833333333333334,0.0,0.0,0.0,0.10416666666666667,0.0,0.0,0.0,0.0,0.0,20,common\src\main\java\org\apache\sqoop\model\MPersistableEntity.java,0,0,0,0
org.apache.sqoop.model.MStringInput, 0, 0, 0, 0, 0, 0, 0, 1, 0, 0, 0, 0, 0, 1,0.07692307692307693,0.0,0.07692307692307693,0.07692307692307693,0.0,0.0,0.0,0.07692307692307693,0.0,0.0,0.0,0.0,0.0,68,common\src\main\java\org\apache\sqoop\model\MStringInput.java,0,0,0,0
org.apache.sqoop.model.MSubmission, 1, 0, 1, 1, 0, 0, 0, 1, 0, 0, 0, 0, 0, 4,0.11764705882352941,0.0,0.058823529411764705,0.47058823529411764,0.0,0.0,0.0,0.058823529411764705,0.0,0.0,0.0,0.0,0.0,99,common\src\main\java\org\apache\sqoop\model\MSubmission.java,0,0,0,0
org.apache.sqoop.model.MValidatedElement, 0, 0, 0, 0, 0, 0, 0, 0, 0, 0, 0, 0, 0, 0,0.0,0.0,0.0,0.25,0.0,0.0,0.0,0.0,0.0,0.0,0.0,0.0,0.0,35,common\src\main\java\org\apache\sqoop\model\MValidatedElement.java,0,0,0,0
org.apache.sqoop.model.SubmissionError, 0, 0, 0, 0, 0, 0, 0, 0, 0, 0, 0, 0, 0, 0,0.4,0.0,0.2,0.8,0.0,0.0,0.0,0.2,0.0,0.0,0.0,0.0,0.0,20,common\src\main\java\org\apache\sqoop\model\SubmissionError.java,0,0,0,0
org.apache.sqoop.model.TestMAccountableEntity, 0, 0, 0, 0, 0, 0, 0, 0, 0, 0, 0, 0, 0, 0,0.0,0.0,0.0,0.5,0.0,0.0,0.0,0.0,0.0,0.0,0.0,0.0,0.0,25,common\src\test\java\org\apache\sqoop\model\TestMAccountableEntity.java,0,4,2,8
org.apache.sqoop.model.TestMBooleanInput, 0, 0, 0, 0, 0, 0, 0, 0, 0, 0, 0, 0, 0, 0,0.0,0.0,0.0,0.0,0.0,0.0,0.0,0.0,0.0,0.0,0.0,0.0,0.0,47,common\src\test\java\org\apache\sqoop\model\TestMBooleanInput.java,0,0,0,0
org.apache.sqoop.model.TestMConfig, 0, 0, 0, 0, 0, 0, 0, 0, 0, 0, 0, 0, 0, 0,0.0,0.0,0.0,0.0,0.0,0.0,0.0,0.5,0.0,0.0,0.0,0.0,0.0,48,common\src\test\java\org\apache\sqoop\model\TestMConfig.java,0,3,3,9
org.apache.sqoop.model.TestMConfigList, 0, 0, 0, 0, 0, 0, 0, 0, 0, 0, 0, 0, 0, 0,0.0,0.0,0.0,0.0,0.0,0.0,0.0,0.6666666666666666,0.0,0.0,0.0,0.0,0.0,25,common\src\test\java\org\apache\sqoop\model\TestMConfigList.java,0,0,0,0
org.apache.sqoop.model.TestMConnector, 0, 0, 0, 0, 0, 0, 0, 0, 0, 0, 0, 0, 0, 0,0.0,0.0,0.0,0.0,0.0,0.0,0.0,0.5,0.0,0.0,0.0,0.0,0.0,141,common\src\test\java\org\apache\sqoop\model\TestMConnector.java,0,0,4,8
org.apache.sqoop.model.TestMDriver, 0, 0, 0, 0, 0, 0, 0, 0, 0, 0, 0, 0, 0, 0,0.0,0.0,0.0,0.0,0.0,0.0,0.0,0.0,0.0,0.0,0.0,0.0,0.0,11,common\src\test\java\org\apache\sqoop\model\TestMDriver.java,0,0,0,0
org.apache.sqoop.model.TestMEnumInput, 0, 0, 0, 0, 0, 0, 0, 0, 0, 0, 0, 0, 0, 0,0.0,0.0,0.0,0.0,0.0,0.0,0.0,0.5,0.0,0.0,0.0,0.0,0.0,28,common\src\test\java\org\apache\sqoop\model\TestMEnumInput.java,0,0,0,0
org.apache.sqoop.model.TestMIntegerInput, 0, 0, 0, 0, 0, 0, 0, 0, 0, 0, 0, 0, 0, 0,0.0,0.0,0.0,0.0,0.0,0.0,0.0,0.3333333333333333,0.0,0.0,0.0,0.0,0.0,46,common\src\test\java\org\apache\sqoop\model\TestMIntegerInput.java,0,0,0,0
org.apache.sqoop.model.TestMJob, 0, 0, 0, 0, 0, 0, 0, 0, 0, 0, 0, 0, 0, 0,0.0,0.0,0.0,0.2,0.0,0.0,0.0,0.2,0.0,0.0,0.0,0.0,0.0,93,common\src\test\java\org\apache\sqoop\model\TestMJob.java,0,2,20,42
org.apache.sqoop.model.TestMJobConfig, 0, 0, 0, 0, 0, 0, 0, 0, 0, 0, 0, 0, 0, 0,0.0,0.0,0.0,0.0,0.0,0.0,0.0,0.0,0.0,0.0,0.0,0.0,0.0,13,common\src\test\java\org\apache\sqoop\model\TestMJobConfig.java,0,0,0,0
org.apache.sqoop.model.TestMLink, 0, 0, 0, 0, 0, 0, 0, 0, 0, 0, 0, 0, 0, 0,0.0,0.0,0.0,0.2,0.0,0.0,0.0,0.2,0.0,0.0,0.0,0.0,0.0,55,common\src\test\java\org\apache\sqoop\model\TestMLink.java,0,0,0,0
org.apache.sqoop.model.TestMLinkConfig, 0, 0, 0, 0, 0, 0, 0, 0, 0, 0, 0, 0, 0, 0,0.0,0.0,0.0,0.0,0.0,0.0,0.0,0.0,0.0,0.0,0.0,0.0,0.0,14,common\src\test\java\org\apache\sqoop\model\TestMLinkConfig.java,0,0,0,0
org.apache.sqoop.model.TestMNamedElement, 0, 0, 0, 0, 0, 0, 0, 0, 0, 0, 0, 0, 0, 0,0.0,0.0,0.0,0.0,0.0,0.0,0.0,0.0,0.0,0.0,0.0,0.0,0.0,9,common\src\test\java\org\apache\sqoop\model\TestMNamedElement.java,0,0,0,0
org.apache.sqoop.model.TestMPersistableEntity, 0, 0, 0, 0, 0, 0, 0, 0, 0, 0, 0, 0, 0, 0,0.0,0.0,0.0,0.0,0.0,0.0,0.0,0.0,0.0,0.0,0.0,0.0,0.0,16,common\src\test\java\org\apache\sqoop\model\TestMPersistableEntity.java,0,0,0,0
org.apache.sqoop.model.TestMStringInput, 0, 0, 0, 0, 0, 0, 0, 0, 0, 0, 0, 0, 0, 0,0.0,0.0,0.0,0.0,0.0,0.0,0.0,0.5,0.0,0.0,0.0,0.0,0.0,52,common\src\test\java\org\apache\sqoop\model\TestMStringInput.java,0,0,0,0
org.apache.sqoop.model.TestMValidatedElement, 0, 0, 0, 0, 0, 0, 0, 0, 0, 0, 0, 0, 0, 0,0.0,0.0,0.0,0.0,0.0,0.0,0.0,0.0,0.0,0.0,0.0,0.0,0.0,24,common\src\test\java\org\apache\sqoop\model\TestMValidatedElement.java,0,0,0,0
org.apache.sqoop.repository.JdbcRepository, 0, 0, 0, 1, 0, 0, 0, 0, 0, 0, 0, 0, 0, 1,0.0,0.0,0.0,0.6666666666666666,0.0,0.0,0.0,0.3333333333333333,0.0,0.0,0.0,0.0,0.0,485,core\src\main\java\org\apache\sqoop\repository\JdbcRepository.java,0,84,0,84
org.apache.sqoop.repository.JdbcRepositoryHandler, 0, 0, 0, 1, 0, 0, 0, 0, 0, 0, 0, 0, 0, 1,0.3333333333333333,0.0,0.3333333333333333,1.0,0.0,0.0,0.0,0.6666666666666666,0.0,0.0,0.0,0.0,0.0,43,core\src\main\java\org\apache\sqoop\repository\JdbcRepositoryHandler.java,0,8,0,8
org.apache.sqoop.repository.JdbcRepositoryTransactionFactory, 0, 0, 0, 0, 0, 0, 0, 0, 0, 0, 0, 0, 0, 0,0.0,0.0,0.0,0.0,0.0,0.0,0.0,0.0,0.0,0.0,0.0,0.0,0.0,12,core\src\main\java\org\apache\sqoop\repository\JdbcRepositoryTransactionFactory.java,0,0,0,0
org.apache.sqoop.repository.RepoConfigurationConstants, 0, 0, 0, 0, 0, 0, 0, 0, 0, 0, 0, 0, 0, 0,0.0,0.0,0.0,0.0,0.0,0.0,0.0,0.0,0.0,0.0,0.0,0.0,0.0,28,core\src\main\java\org\apache\sqoop\repository\RepoConfigurationConstants.java,0,0,0,0
org.apache.sqoop.repository.RepositoryProvider, 0, 0, 0, 0, 0, 0, 0, 0, 0, 0, 0, 0, 0, 0,0.0,0.0,0.0,0.0,0.0,0.0,0.0,0.0,0.0,0.0,0.0,0.0,0.0,28,core\src\main\java\org\apache\sqoop\repository\RepositoryProvider.java,0,0,0,0
org.apache.sqoop.repository.RepositoryTransaction, 0, 0, 0, 0, 0, 0, 0, 0, 0, 0, 0, 0, 0, 0,0.0,0.0,0.0,0.0,0.0,0.0,0.0,0.0,0.0,0.0,0.0,0.0,0.0,28,core\src\main\java\org\apache\sqoop\repository\RepositoryTransaction.java,0,0,0,0
org.apache.sqoop.repository.TestJdbcRepository, 0, 0, 0, 1, 0, 0, 0, 1, 0, 0, 0, 0, 0, 2,0.0,0.0,0.0,0.375,0.0,0.0,0.0,0.0,0.0,0.0,0.0,0.0,0.0,546,core\src\test\java\org\apache\sqoop\repository\TestJdbcRepository.java,0,0,0,0
org.apache.sqoop.repository.common.CommonRepoConstants, 0, 0, 0, 0, 0, 0, 0, 0, 0, 0, 0, 0, 0, 0,0.0,0.0,0.0,0.0,0.0,0.0,0.0,0.0,0.0,0.0,0.0,0.0,0.0,3,repository\repository-common\src\main\java\org\apache\sqoop\repository\common\CommonRepoConstants.java,0,0,0,0
org.apache.sqoop.repository.common.CommonRepoUtils, 0, 0, 0, 0, 0, 0, 0, 0, 0, 0, 0, 0, 0, 0,0.0,0.0,0.0,0.0,0.0,0.0,0.0,0.0,0.0,0.0,0.0,0.0,0.0,36,repository\repository-common\src\main\java\org\apache\sqoop\repository\common\CommonRepoUtils.java,0,0,5,10
org.apache.sqoop.repository.common.CommonRepositoryInsertUpdateDeleteSelectQuery, 0, 0, 0, 1, 0, 0, 0, 0, 0, 0, 0, 0, 0, 1,0.0,0.0,0.0,0.0,0.0,0.0,0.0,0.0,0.0,0.0,0.0,0.0,0.0,645,repository\repository-common\src\main\java\org\apache\sqoop\repository\common\CommonRepositoryInsertUpdateDeleteSelectQuery.java,2,16,0,18
org.apache.sqoop.repository.common.CommonRepositorySchemaConstants, 0, 0, 0, 1, 0, 0, 0, 0, 0, 0, 0, 0, 0, 1,0.0,0.0,0.0,0.0,0.0,0.0,0.0,0.0,0.0,0.0,0.0,0.0,0.0,146,repository\repository-common\src\main\java\org\apache\sqoop\repository\common\CommonRepositorySchemaConstants.java,0,1,0,1
org.apache.sqoop.repository.common.TestCommonRepoUtils, 0, 0, 0, 0, 0, 0, 0, 0, 0, 0, 0, 0, 0, 0,0.0,0.0,0.0,0.0,0.0,0.0,0.0,0.0,0.0,0.0,0.0,0.0,0.0,15,repository\repository-common\src\test\java\org\apache\sqoop\repository\common\TestCommonRepoUtils.java,0,0,0,0
org.apache.sqoop.repository.derby.DerbyRepoConstants, 0, 0, 0, 0, 0, 0, 0, 0, 0, 0, 0, 0, 0, 0,0.0,0.0,0.0,0.0,0.0,0.0,0.0,0.0,0.0,0.0,0.0,0.0,0.0,7,repository\repository-derby\src\main\java\org\apache\sqoop\repository\derby\DerbyRepoConstants.java,0,0,1,2
org.apache.sqoop.repository.derby.DerbySchemaConstants, 0, 0, 0, 1, 0, 0, 0, 0, 0, 0, 0, 0, 0, 1,0.0,0.0,0.0,0.0,0.0,0.0,0.0,0.0,0.0,0.0,0.0,0.0,0.0,97,repository\repository-derby\src\main\java\org\apache\sqoop\repository\derby\DerbySchemaConstants.java,0,0,0,0
org.apache.sqoop.repository.derby.DerbySchemaCreateQuery, 0, 0, 0, 1, 0, 0, 0, 0, 0, 0, 0, 0, 0, 1,0.0,0.0,0.0,0.0,0.0,0.0,0.0,0.0,0.0,0.0,0.0,0.0,0.0,185,repository\repository-derby\src\main\java\org\apache\sqoop\repository\derby\DerbySchemaCreateQuery.java,0,0,0,0
org.apache.sqoop.repository.derby.DerbySchemaInsertUpdateDeleteSelectQuery, 0, 0, 0, 0, 0, 0, 0, 0, 0, 0, 0, 0, 0, 0,0.0,0.0,0.0,1.0,0.0,0.0,0.0,0.0,0.0,0.0,0.0,0.0,0.0,53,repository\repository-derby\src\main\java\org\apache\sqoop\repository\derby\DerbySchemaInsertUpdateDeleteSelectQuery.java,0,6,0,6
org.apache.sqoop.repository.derby.DerbySchemaUpgradeQuery, 0, 0, 0, 1, 0, 0, 0, 0, 0, 0, 0, 0, 0, 1,0.0,0.0,0.0,0.0,0.0,0.0,0.0,0.0,0.0,0.0,0.0,0.0,0.0,349,repository\repository-derby\src\main\java\org\apache\sqoop\repository\derby\DerbySchemaUpgradeQuery.java,0,96,0,96
org.apache.sqoop.repository.derby.TestConnectorHandling, 0, 0, 0, 0, 0, 0, 0, 0, 0, 0, 0, 0, 0, 0,0.0,0.0,0.0,0.0,0.0,0.0,0.0,0.0,0.0,0.0,0.0,0.0,0.0,96,repository\repository-derby\src\test\java\org\apache\sqoop\repository\derby\TestConnectorHandling.java,0,0,0,0
org.apache.sqoop.repository.derby.TestDriverHandling, 0, 0, 0, 0, 0, 0, 0, 0, 0, 0, 0, 0, 0, 0,0.0,0.0,0.0,0.0,0.0,0.0,0.0,0.0,0.0,0.0,0.0,0.0,0.0,50,repository\repository-derby\src\test\java\org\apache\sqoop\repository\derby\TestDriverHandling.java,0,0,0,0
org.apache.sqoop.repository.derby.TestLinkHandling, 0, 0, 0, 1, 0, 0, 0, 0, 0, 0, 0, 0, 0, 1,0.0,0.0,0.0,0.25,0.0,0.0,0.0,0.0,0.0,0.0,0.0,0.0,0.0,173,repository\repository-derby\src\test\java\org\apache\sqoop\repository\derby\TestLinkHandling.java,0,36,0,36
org.apache.sqoop.repository.derby.TestRepositoryUpgrade, 0, 0, 0, 0, 0, 0, 0, 0, 0, 0, 0, 0, 0, 0,0.0,0.0,0.0,0.0,0.0,0.0,0.0,0.0,0.0,0.0,0.0,0.0,0.0,97,repository\repository-derby\src\test\java\org\apache\sqoop\repository\derby\TestRepositoryUpgrade.java,0,0,0,0
org.apache.sqoop.repository.derby.TestSubmissionHandling, 0, 0, 0, 0, 0, 0, 0, 0, 0, 0, 0, 0, 0, 0,0.2,0.0,0.2,0.4,0.0,0.0,0.0,0.2,0.0,0.0,0.0,0.0,0.0,211,repository\repository-derby\src\test\java\org\apache\sqoop\repository\derby\TestSubmissionHandling.java,0,0,0,0
org.apache.sqoop.repository.postgresql.PostgresqlRepoConstants, 0, 0, 0, 0, 0, 0, 0, 0, 0, 0, 0, 0, 0, 0,0.0,0.0,0.0,0.0,0.0,0.0,0.0,0.0,0.0,0.0,0.0,0.0,0.0,5,repository\repository-postgresql\src\main\java\org\apache\sqoop\repository\postgresql\PostgresqlRepoConstants.java,0,0,0,0
org.apache.sqoop.repository.postgresql.PostgresqlSchemaCreateQuery, 0, 0, 0, 1, 0, 0, 0, 0, 0, 0, 0, 0, 0, 1,0.0,0.0,0.0,0.0,0.0,0.0,0.0,0.0,0.0,0.0,0.0,0.0,0.0,198,repository\repository-postgresql\src\main\java\org\apache\sqoop\repository\postgresql\PostgresqlSchemaCreateQuery.java,0,0,0,0
org.apache.sqoop.repository.postgresql.PostgresqlSchemaQuery, 0, 0, 0, 0, 0, 0, 0, 0, 0, 0, 0, 0, 0, 0,0.0,0.0,0.0,0.0,0.0,0.0,0.0,0.0,0.0,0.0,0.0,0.0,0.0,20,repository\repository-postgresql\src\main\java\org\apache\sqoop\repository\postgresql\PostgresqlSchemaQuery.java,0,0,0,0
org.apache.sqoop.request.HttpEventContext, 0, 0, 0, 0, 0, 0, 0, 0, 0, 0, 0, 0, 0, 0,0.0,0.0,0.0,1.0,0.0,0.0,0.0,0.0,0.0,0.0,0.0,0.0,0.0,9,core\src\main\java\org\apache\sqoop\request\HttpEventContext.java,0,0,0,0
org.apache.sqoop.schema.ByteArraySchema, 0, 0, 0, 0, 0, 0, 0, 0, 0, 0, 0, 0, 0, 0,0.0,0.0,0.0,0.5,0.0,0.0,0.0,0.0,0.0,0.0,0.0,0.0,0.0,12,common\src\main\java\org\apache\sqoop\schema\ByteArraySchema.java,0,0,0,0
org.apache.sqoop.schema.NullSchema, 0, 0, 0, 0, 0, 0, 0, 0, 0, 0, 0, 0, 0, 0,0.0,0.0,0.0,0.25,0.0,0.0,0.0,0.0,0.0,0.0,0.0,0.0,0.0,10,common\src\main\java\org\apache\sqoop\schema\NullSchema.java,0,0,0,0
org.apache.sqoop.schema.type.AbstractComplexType, 0, 0, 0, 0, 0, 0, 0, 0, 0, 0, 0, 0, 0, 0,0.0,0.0,0.0,0.0,0.0,0.0,0.0,0.0,0.0,0.0,0.0,0.0,0.0,11,common\src\main\java\org\apache\sqoop\schema\type\AbstractComplexType.java,0,0,0,0
org.apache.sqoop.schema.type.AbstractDateTime, 0, 0, 0, 0, 0, 0, 0, 0, 0, 0, 0, 0, 0, 0,0.0,0.0,0.0,0.0,0.0,0.0,0.0,0.0,0.0,0.0,0.0,0.0,0.0,8,common\src\main\java\org\apache\sqoop\schema\type\AbstractDateTime.java,0,0,0,0
org.apache.sqoop.schema.type.AbstractNumber, 0, 0, 0, 0, 0, 0, 0, 0, 0, 0, 0, 0, 0, 0,0.0,0.0,0.0,0.0,0.0,0.0,0.0,0.0,0.0,0.0,0.0,0.0,0.0,8,common\src\main\java\org\apache\sqoop\schema\type\AbstractNumber.java,0,0,0,0
org.apache.sqoop.schema.type.AbstractPrimitiveType, 0, 0, 0, 0, 0, 0, 0, 0, 0, 0, 0, 0, 0, 0,0.0,0.0,0.0,0.0,0.0,0.0,0.0,0.0,0.0,0.0,0.0,0.0,0.0,8,common\src\main\java\org\apache\sqoop\schema\type\AbstractPrimitiveType.java,0,0,0,0
org.apache.sqoop.schema.type.TestArray, 0, 0, 0, 0, 0, 0, 0, 0, 0, 0, 0, 0, 0, 0,0.0,0.0,0.0,0.0,0.0,0.0,0.0,0.0,0.0,0.0,0.0,0.0,0.0,30,common\src\test\java\org\apache\sqoop\schema\type\TestArray.java,0,0,0,0
org.apache.sqoop.schema.type.TestEnum, 0, 0, 0, 0, 0, 0, 0, 0, 0, 0, 0, 0, 0, 0,0.0,0.0,0.0,0.0,0.0,0.0,0.0,0.0,0.0,0.0,0.0,0.0,0.0,27,common\src\test\java\org\apache\sqoop\schema\type\TestEnum.java,0,0,0,0
org.apache.sqoop.schema.type.TestMap, 0, 0, 0, 0, 0, 0, 0, 0, 0, 0, 0, 0, 0, 0,0.0,0.0,0.0,0.0,0.0,0.0,0.0,0.0,0.0,0.0,0.0,0.0,0.0,30,common\src\test\java\org\apache\sqoop\schema\type\TestMap.java,0,0,0,0
org.apache.sqoop.schema.type.TestSet, 0, 0, 0, 0, 0, 0, 0, 0, 0, 0, 0, 0, 0, 0,0.0,0.0,0.0,0.0,0.0,0.0,0.0,0.0,0.0,0.0,0.0,0.0,0.0,23,common\src\test\java\org\apache\sqoop\schema\type\TestSet.java,0,0,0,0
org.apache.sqoop.schema.type.Unknown, 0, 0, 0, 0, 0, 0, 0, 0, 0, 0, 0, 0, 0, 0,0.0,0.0,0.0,0.6666666666666666,0.0,0.0,0.0,0.0,0.0,0.0,0.0,0.0,0.0,28,common\src\main\java\org\apache\sqoop\schema\type\Unknown.java,0,0,0,0
org.apache.sqoop.security.Authentication.KerberosAuthenticationHandler, 0, 0, 0, 0, 0, 0, 0, 0, 0, 0, 0, 0, 0, 0,0.0,0.0,0.0,0.0,0.0,0.0,0.0,0.0,0.0,0.0,0.0,0.0,0.0,42,security\src\main\java\org\apache\sqoop\security\Authentication\KerberosAuthenticationHandler.java,0,0,1,2
org.apache.sqoop.security.Authentication.SimpleAuthenticationHandler, 0, 0, 0, 0, 0, 0, 0, 0, 0, 0, 0, 0, 0, 0,0.0,0.0,0.0,0.0,0.0,0.0,0.0,0.0,0.0,0.0,0.0,0.0,0.0,13,security\src\main\java\org\apache\sqoop\security\Authentication\SimpleAuthenticationHandler.java,0,0,1,2
org.apache.sqoop.security.AuthenticationHandler, 0, 0, 0, 0, 0, 0, 0, 0, 0, 0, 0, 0, 0, 0,0.16666666666666666,0.0,0.0,0.0,0.0,0.0,0.0,0.0,0.0,0.0,0.0,0.0,0.0,15,core\src\main\java\org\apache\sqoop\security\AuthenticationHandler.java,0,4,0,4
org.apache.sqoop.security.AuthenticationManager, 1, 0, 0, 0, 0, 0, 0, 0, 0, 0, 0, 0, 0, 1,0.0,0.0,0.0,0.0,0.0,0.0,0.0,0.0,0.0,0.0,0.0,0.0,0.0,41,core\src\main\java\org\apache\sqoop\security\AuthenticationManager.java,0,0,1,2
org.apache.sqoop.security.AuthenticationProvider, 0, 0, 0, 0, 0, 0, 0, 0, 0, 0, 0, 0, 0, 0,0.0,0.0,0.0,0.2,0.0,0.0,0.0,0.0,0.0,0.0,0.0,0.0,0.0,4,core\src\main\java\org\apache\sqoop\security\AuthenticationProvider.java,0,4,0,4
org.apache.sqoop.security.Authorization.AuthorizationEngine, 0, 0, 0, 1, 0, 0, 0, 0, 0, 0, 0, 0, 0, 1,0.2,0.0,0.0,0.2,0.0,0.0,0.0,0.0,0.0,0.0,0.0,0.0,0.0,98,security\src\main\java\org\apache\sqoop\security\Authorization\AuthorizationEngine.java,13,28,27,95
org.apache.sqoop.security.Authorization.DefaultAuthenticationProvider, 0, 0, 0, 0, 0, 0, 0, 0, 0, 0, 0, 0, 0, 0,0.0,0.0,0.0,0.0,0.0,0.0,0.0,0.0,0.0,0.0,0.0,0.0,0.0,23,security\src\main\java\org\apache\sqoop\security\Authorization\DefaultAuthenticationProvider.java,0,0,1,2
org.apache.sqoop.security.Authorization.DefaultAuthorizationAccessController, 0, 0, 0, 0, 0, 0, 0, 0, 0, 0, 0, 0, 0, 0,0.0,0.0,0.0,0.0,0.0,0.0,0.0,0.0,0.0,0.0,0.0,0.0,0.0,90,security\src\main\java\org\apache\sqoop\security\Authorization\DefaultAuthorizationAccessController.java,0,0,1,2
org.apache.sqoop.security.Authorization.DefaultAuthorizationHandler, 0, 0, 0, 1, 0, 0, 0, 0, 0, 0, 0, 0, 0, 1,0.0,0.0,0.0,0.0,0.0,0.0,0.0,0.0,0.0,0.0,0.0,0.0,0.0,90,security\src\main\java\org\apache\sqoop\security\Authorization\DefaultAuthorizationHandler.java,0,2,4,10
org.apache.sqoop.security.Authorization.DefaultAuthorizationValidator, 0, 0, 0, 0, 0, 0, 0, 0, 0, 0, 0, 0, 0, 0,0.0,0.0,0.0,0.0,0.0,0.0,0.0,0.0,0.0,0.0,0.0,0.0,0.0,9,security\src\main\java\org\apache\sqoop\security\Authorization\DefaultAuthorizationValidator.java,0,0,1,2
org.apache.sqoop.security.AuthorizationAccessController, 0, 0, 0, 0, 0, 0, 0, 0, 0, 0, 0, 0, 0, 0,0.0,0.0,0.0,0.3333333333333333,0.0,0.0,0.0,0.0,0.0,0.0,0.0,0.0,0.0,13,core\src\main\java\org\apache\sqoop\security\AuthorizationAccessController.java,0,4,0,4
org.apache.sqoop.security.AuthorizationHandler, 0, 0, 0, 0, 0, 0, 0, 0, 0, 0, 0, 0, 0, 0,0.2,0.0,0.0,0.4,0.0,0.0,0.0,0.0,0.0,0.0,0.0,0.0,0.0,15,core\src\main\java\org\apache\sqoop\security\AuthorizationHandler.java,0,4,1,6
org.apache.sqoop.security.AuthorizationManager, 1, 0, 0, 0, 0, 0, 0, 0, 0, 0, 0, 0, 0, 1,0.0,0.0,0.0,0.25,0.0,0.0,0.0,0.0,0.0,0.0,0.0,0.0,0.0,40,core\src\main\java\org\apache\sqoop\security\AuthorizationManager.java,0,4,3,10
org.apache.sqoop.security.AuthorizationValidator, 0, 0, 0, 0, 0, 0, 0, 0, 0, 0, 0, 0, 0, 0,0.0,0.0,0.0,0.3333333333333333,0.0,0.0,0.0,0.0,0.0,0.0,0.0,0.0,0.0,2,core\src\main\java\org\apache\sqoop\security\AuthorizationValidator.java,0,4,0,4
org.apache.sqoop.security.SecurityConstants, 0, 0, 0, 1, 0, 0, 0, 0, 0, 0, 0, 0, 0, 1,0.0,0.0,0.0,0.0,0.0,0.0,0.0,0.0,0.0,0.0,0.0,0.0,0.0,38,core\src\main\java\org\apache\sqoop\security\SecurityConstants.java,0,2,0,2
org.apache.sqoop.security.SecurityFactory, 0, 0, 0, 0, 0, 0, 0, 0, 0, 0, 0, 0, 0, 0,0.2,0.0,0.0,0.1,0.0,0.0,0.0,0.0,0.0,0.0,0.0,0.0,0.0,76,core\src\main\java\org\apache\sqoop\security\SecurityFactory.java,0,0,0,0
org.apache.sqoop.server.RequestContext, 0, 0, 0, 0, 0, 0, 0, 0, 0, 0, 0, 0, 0, 0,0.1,0.0,0.0,0.1,0.0,0.0,0.0,0.0,0.0,0.0,0.0,0.0,0.0,57,server\src\main\java\org\apache\sqoop\server\RequestContext.java,0,0,1,2
org.apache.sqoop.server.RequestHandler, 0, 0, 0, 0, 0, 0, 0, 0, 0, 0, 0, 0, 0, 0,0.0,0.0,0.0,0.0,0.0,0.0,0.0,0.0,0.0,0.0,0.0,0.0,0.0,57,server\src\main\java\org\apache\sqoop\server\RequestHandler.java,0,5,0,5
org.apache.sqoop.server.ServerInitializer, 0, 0, 0, 0, 0, 0, 0, 0, 0, 0, 0, 0, 0, 0,0.0,0.0,0.0,0.0,0.0,0.0,0.0,0.0,0.0,0.0,0.0,0.0,0.0,17,server\src\main\java\org\apache\sqoop\server\ServerInitializer.java,0,0,0,0
org.apache.sqoop.server.SqoopProtocolServlet, 0, 0, 0, 0, 0, 0, 0, 0, 0, 0, 0, 0, 0, 0,0.0,0.0,0.0,0.0,0.0,0.0,0.0,0.0,0.0,0.0,0.0,0.0,0.0,122,server\src\main\java\org\apache\sqoop\server\SqoopProtocolServlet.java,0,0,1,2
org.apache.sqoop.server.VersionServlet, 0, 0, 0, 0, 0, 0, 0, 0, 0, 0, 0, 0, 0, 0,0.0,0.0,0.0,0.0,0.0,0.0,0.0,0.0,0.0,0.0,0.0,0.0,0.0,10,server\src\main\java\org\apache\sqoop\server\VersionServlet.java,0,0,0,0
org.apache.sqoop.server.v1.ConfigurableServlet, 0, 0, 0, 0, 0, 0, 0, 0, 0, 0, 0, 0, 0, 0,0.0,0.0,0.0,0.0,0.0,0.0,0.0,0.0,0.0,0.0,0.0,0.0,0.0,17,server\src\main\java\org\apache\sqoop\server\v1\ConfigurableServlet.java,0,0,0,0
org.apache.sqoop.server.v1.ConnectorServlet, 0, 0, 0, 0, 0, 0, 0, 0, 0, 0, 0, 0, 0, 0,0.0,0.0,0.0,0.0,0.0,0.0,0.0,0.0,0.0,0.0,0.0,0.0,0.0,10,server\src\main\java\org\apache\sqoop\server\v1\ConnectorServlet.java,0,0,0,0
org.apache.sqoop.server.v1.ConnectorsServlet, 0, 0, 0, 0, 0, 0, 0, 0, 0, 0, 0, 0, 0, 0,0.0,0.0,0.0,0.0,0.0,0.0,0.0,0.0,0.0,0.0,0.0,0.0,0.0,10,server\src\main\java\org\apache\sqoop\server\v1\ConnectorsServlet.java,0,0,0,0
org.apache.sqoop.server.v1.DriverServlet, 0, 0, 0, 0, 0, 0, 0, 0, 0, 0, 0, 0, 0, 0,0.0,0.0,0.0,0.0,0.0,0.0,0.0,0.0,0.0,0.0,0.0,0.0,0.0,10,server\src\main\java\org\apache\sqoop\server\v1\DriverServlet.java,0,0,0,0
org.apache.sqoop.server.v1.JobServlet, 0, 0, 0, 0, 0, 0, 0, 0, 0, 0, 0, 0, 0, 0,0.0,0.0,0.0,0.5,0.0,0.0,0.0,0.0,0.0,0.0,0.0,0.0,0.0,22,server\src\main\java\org\apache\sqoop\server\v1\JobServlet.java,0,0,0,0
org.apache.sqoop.server.v1.JobsServlet, 0, 0, 0, 0, 0, 0, 0, 0, 0, 0, 0, 0, 0, 0,0.0,0.0,0.0,0.5,0.0,0.0,0.0,0.0,0.0,0.0,0.0,0.0,0.0,10,server\src\main\java\org\apache\sqoop\server\v1\JobsServlet.java,0,0,0,0
org.apache.sqoop.server.v1.LinkServlet, 0, 0, 0, 0, 0, 0, 0, 0, 0, 0, 0, 0, 0, 0,0.0,0.0,0.0,0.0,0.0,0.0,0.0,0.0,0.0,0.0,0.0,0.0,0.0,21,server\src\main\java\org\apache\sqoop\server\v1\LinkServlet.java,0,0,0,0
org.apache.sqoop.server.v1.LinksServlet, 0, 0, 0, 0, 0, 0, 0, 0, 0, 0, 0, 0, 0, 0,0.0,0.0,0.0,0.0,0.0,0.0,0.0,0.0,0.0,0.0,0.0,0.0,0.0,10,server\src\main\java\org\apache\sqoop\server\v1\LinksServlet.java,0,0,0,0
org.apache.sqoop.server.v1.SubmissionsServlet, 0, 0, 0, 0, 0, 0, 0, 0, 0, 0, 0, 0, 0, 0,0.0,0.0,0.0,0.0,0.0,0.0,0.0,0.0,0.0,0.0,0.0,0.0,0.0,10,server\src\main\java\org\apache\sqoop\server\v1\SubmissionsServlet.java,0,0,0,0
org.apache.sqoop.shell.CloneCommand, 0, 0, 0, 0, 0, 0, 0, 0, 0, 0, 0, 0, 0, 0,0.0,0.0,0.0,0.0,0.0,0.0,0.0,0.0,0.0,0.0,0.0,0.0,0.0,12,shell\src\main\java\org\apache\sqoop\shell\CloneCommand.java,0,0,0,0
org.apache.sqoop.shell.CloneJobFunction, 0, 0, 0, 0, 0, 0, 0, 0, 0, 0, 0, 0, 0, 0,0.0,0.0,0.0,0.0,0.0,0.0,0.0,0.0,0.0,0.0,0.0,0.0,0.0,56,shell\src\main\java\org\apache\sqoop\shell\CloneJobFunction.java,0,0,2,4
org.apache.sqoop.shell.CloneLinkFunction, 0, 0, 0, 0, 0, 0, 0, 0, 0, 0, 0, 0, 0, 0,0.0,0.0,0.0,0.0,0.0,0.0,0.0,0.0,0.0,0.0,0.0,0.0,0.0,53,shell\src\main\java\org\apache\sqoop\shell\CloneLinkFunction.java,0,0,0,0
org.apache.sqoop.shell.CreateCommand, 0, 0, 0, 0, 0, 0, 0, 0, 0, 0, 0, 0, 0, 0,0.0,0.0,0.0,0.0,0.0,0.0,0.0,0.0,0.0,0.0,0.0,0.0,0.0,12,shell\src\main\java\org\apache\sqoop\shell\CreateCommand.java,0,1,1,3
org.apache.sqoop.shell.CreateJobFunction, 0, 0, 0, 0, 0, 0, 0, 0, 0, 0, 0, 0, 0, 0,0.0,0.0,0.0,0.0,0.0,0.0,0.0,0.0,0.0,0.0,0.0,0.0,0.0,67,shell\src\main\java\org\apache\sqoop\shell\CreateJobFunction.java,0,0,2,4
org.apache.sqoop.shell.CreateLinkFunction, 0, 0, 0, 0, 0, 0, 0, 0, 0, 0, 0, 0, 0, 0,0.0,0.0,0.0,0.0,0.0,0.0,0.0,0.0,0.0,0.0,0.0,0.0,0.0,52,shell\src\main\java\org\apache\sqoop\shell\CreateLinkFunction.java,0,0,0,0
org.apache.sqoop.shell.DeleteCommand, 0, 0, 0, 0, 0, 0, 0, 0, 0, 0, 0, 0, 0, 0,0.0,0.0,0.0,0.0,0.0,0.0,0.0,0.0,0.0,0.0,0.0,0.0,0.0,12,shell\src\main\java\org\apache\sqoop\shell\DeleteCommand.java,0,1,1,3
org.apache.sqoop.shell.DeleteJobFunction, 0, 0, 0, 0, 0, 0, 0, 0, 0, 0, 0, 0, 0, 0,0.0,0.0,0.0,0.0,0.0,0.0,0.0,0.0,0.0,0.0,0.0,0.0,0.0,16,shell\src\main\java\org\apache\sqoop\shell\DeleteJobFunction.java,0,0,0,0
org.apache.sqoop.shell.DeleteLinkFunction, 0, 0, 0, 0, 0, 0, 0, 0, 0, 0, 0, 0, 0, 0,0.0,0.0,0.0,0.0,0.0,0.0,0.0,0.0,0.0,0.0,0.0,0.0,0.0,16,shell\src\main\java\org\apache\sqoop\shell\DeleteLinkFunction.java,0,0,0,0
org.apache.sqoop.shell.DisableCommand, 0, 0, 0, 0, 0, 0, 0, 0, 0, 0, 0, 0, 0, 0,0.0,0.0,0.0,0.0,0.0,0.0,0.0,0.0,0.0,0.0,0.0,0.0,0.0,12,shell\src\main\java\org\apache\sqoop\shell\DisableCommand.java,0,0,0,0
org.apache.sqoop.shell.DisableJobFunction, 0, 0, 0, 0, 0, 0, 0, 0, 0, 0, 0, 0, 0, 0,0.0,0.0,0.0,0.0,0.0,0.0,0.0,0.0,0.0,0.0,0.0,0.0,0.0,23,shell\src\main\java\org\apache\sqoop\shell\DisableJobFunction.java,0,0,0,0
org.apache.sqoop.shell.DisableLinkFunction, 0, 0, 0, 0, 0, 0, 0, 0, 0, 0, 0, 0, 0, 0,0.0,0.0,0.0,0.0,0.0,0.0,0.0,0.0,0.0,0.0,0.0,0.0,0.0,16,shell\src\main\java\org\apache\sqoop\shell\DisableLinkFunction.java,0,0,0,0
org.apache.sqoop.shell.EnableCommand, 0, 0, 0, 0, 0, 0, 0, 0, 0, 0, 0, 0, 0, 0,0.0,0.0,0.0,0.0,0.0,0.0,0.0,0.0,0.0,0.0,0.0,0.0,0.0,12,shell\src\main\java\org\apache\sqoop\shell\EnableCommand.java,0,0,0,0
org.apache.sqoop.shell.EnableJobFunction, 0, 0, 0, 0, 0, 0, 0, 0, 0, 0, 0, 0, 0, 0,0.0,0.0,0.0,0.0,0.0,0.0,0.0,0.0,0.0,0.0,0.0,0.0,0.0,16,shell\src\main\java\org\apache\sqoop\shell\EnableJobFunction.java,0,0,0,0
org.apache.sqoop.shell.EnableLinkFunction, 0, 0, 0, 0, 0, 0, 0, 0, 0, 0, 0, 0, 0, 0,0.0,0.0,0.0,0.0,0.0,0.0,0.0,0.0,0.0,0.0,0.0,0.0,0.0,16,shell\src\main\java\org\apache\sqoop\shell\EnableLinkFunction.java,0,0,0,0
org.apache.sqoop.shell.SetCommand, 0, 0, 0, 0, 0, 0, 0, 0, 0, 0, 0, 0, 0, 0,0.0,0.0,0.0,0.0,0.0,0.0,0.0,0.0,0.0,0.0,0.0,0.0,0.0,12,shell\src\main\java\org\apache\sqoop\shell\SetCommand.java,0,0,0,0
org.apache.sqoop.shell.SetOptionFunction, 0, 0, 0, 0, 0, 0, 0, 0, 0, 0, 0, 0, 0, 0,0.0,0.0,0.0,0.0,0.0,0.0,0.0,0.0,0.0,0.0,0.0,0.0,0.0,51,shell\src\main\java\org\apache\sqoop\shell\SetOptionFunction.java,0,0,0,0
org.apache.sqoop.shell.SetServerFunction, 0, 0, 0, 0, 0, 0, 0, 0, 0, 0, 0, 0, 0, 0,0.0,0.0,0.0,0.0,0.0,0.0,0.0,0.0,0.0,0.0,0.0,0.0,0.0,52,shell\src\main\java\org\apache\sqoop\shell\SetServerFunction.java,0,0,0,0
org.apache.sqoop.shell.ShowCommand, 0, 0, 0, 0, 0, 0, 0, 0, 0, 0, 0, 0, 0, 0,0.0,0.0,0.0,0.0,0.0,0.0,0.0,0.0,0.0,0.0,0.0,0.0,0.0,18,shell\src\main\java\org\apache\sqoop\shell\ShowCommand.java,0,3,0,3
org.apache.sqoop.shell.ShowConnectorFunction, 0, 0, 0, 0, 0, 0, 0, 0, 0, 0, 0, 0, 0, 0,0.0,0.0,0.0,0.0,0.0,0.0,0.0,0.0,0.0,0.0,0.0,0.0,0.0,68,shell\src\main\java\org\apache\sqoop\shell\ShowConnectorFunction.java,0,0,0,0
org.apache.sqoop.shell.ShowDriverFunction, 0, 0, 0, 0, 0, 0, 0, 0, 0, 0, 0, 0, 0, 0,0.0,0.0,0.0,0.0,0.0,0.0,0.0,0.0,0.0,0.0,0.0,0.0,0.0,21,shell\src\main\java\org\apache\sqoop\shell\ShowDriverFunction.java,0,0,0,0
org.apache.sqoop.shell.ShowJobFunction, 0, 0, 0, 0, 0, 0, 0, 0, 0, 0, 0, 0, 0, 0,0.0,0.0,0.0,0.2,0.0,0.0,0.0,0.0,0.0,0.0,0.0,0.0,0.0,93,shell\src\main\java\org\apache\sqoop\shell\ShowJobFunction.java,5,6,4,19
org.apache.sqoop.shell.ShowJobStatusFunction, 0, 0, 0, 0, 0, 0, 0, 0, 0, 0, 0, 0, 0, 0,0.5,0.0,0.5,0.5,0.0,0.0,0.0,0.5,0.0,0.0,0.0,0.0,0.0,25,shell\src\main\java\org\apache\sqoop\shell\ShowJobStatusFunction.java,0,0,0,0
org.apache.sqoop.shell.ShowLinkFunction, 0, 0, 0, 0, 0, 0, 0, 0, 0, 0, 0, 0, 0, 0,0.0,0.0,0.0,0.2,0.0,0.0,0.0,0.0,0.0,0.0,0.0,0.0,0.0,71,shell\src\main\java\org\apache\sqoop\shell\ShowLinkFunction.java,0,36,7,50
org.apache.sqoop.shell.ShowOptionFunction, 0, 0, 0, 0, 0, 0, 0, 0, 0, 0, 0, 0, 0, 0,0.0,0.0,0.0,0.0,0.0,0.0,0.0,0.0,0.0,0.0,0.0,0.0,0.0,46,shell\src\main\java\org\apache\sqoop\shell\ShowOptionFunction.java,0,0,0,0
org.apache.sqoop.shell.ShowServerFunction, 0, 0, 0, 0, 0, 0, 0, 0, 0, 0, 0, 0, 0, 0,0.0,0.0,0.0,0.0,0.0,0.0,0.0,0.0,0.0,0.0,0.0,0.0,0.0,59,shell\src\main\java\org\apache\sqoop\shell\ShowServerFunction.java,0,0,0,0
org.apache.sqoop.shell.ShowSubmissionFunction, 0, 0, 0, 0, 0, 0, 0, 0, 0, 0, 0, 0, 0, 0,0.25,0.0,0.25,0.5,0.0,0.0,0.0,0.25,0.0,0.0,0.0,0.0,0.0,65,shell\src\main\java\org\apache\sqoop\shell\ShowSubmissionFunction.java,0,0,0,0
org.apache.sqoop.shell.ShowVersionFunction, 0, 0, 0, 0, 0, 0, 0, 0, 0, 0, 0, 0, 0, 0,0.0,0.0,0.0,0.3333333333333333,0.0,0.0,0.0,0.3333333333333333,0.0,0.0,0.0,0.0,0.0,80,shell\src\main\java\org\apache\sqoop\shell\ShowVersionFunction.java,0,0,0,0
org.apache.sqoop.shell.SqoopFunction, 0, 0, 0, 0, 0, 0, 0, 0, 0, 0, 0, 0, 0, 0,0.0,0.0,0.0,0.0,0.0,0.0,0.0,0.0,0.0,0.0,0.0,0.0,0.0,25,shell\src\main\java\org\apache\sqoop\shell\SqoopFunction.java,0,0,0,0
org.apache.sqoop.shell.SqoopShell, 0, 0, 0, 0, 0, 0, 0, 0, 0, 0, 0, 0, 0, 0,0.0,0.0,0.0,0.0,0.0,0.0,0.0,0.0,0.0,0.0,0.0,0.0,0.0,76,shell\src\main\java\org\apache\sqoop\shell\SqoopShell.java,0,2,0,2
org.apache.sqoop.shell.StartCommand, 0, 0, 0, 0, 0, 0, 0, 0, 0, 0, 0, 0, 0, 0,0.0,0.0,0.0,0.0,0.0,0.0,0.0,0.0,0.0,0.0,0.0,0.0,0.0,11,shell\src\main\java\org\apache\sqoop\shell\StartCommand.java,0,0,0,0
org.apache.sqoop.shell.StartJobFunction, 0, 0, 0, 0, 0, 0, 0, 0, 0, 0, 0, 0, 0, 0,0.5,0.0,0.5,0.5,0.0,0.0,0.0,0.5,0.0,0.0,0.0,0.0,0.0,51,shell\src\main\java\org\apache\sqoop\shell\StartJobFunction.java,0,0,0,0
org.apache.sqoop.shell.StatusCommand, 0, 0, 0, 0, 0, 0, 0, 0, 0, 0, 0, 0, 0, 0,0.0,0.0,0.0,0.0,0.0,0.0,0.0,0.0,0.0,0.0,0.0,0.0,0.0,11,shell\src\main\java\org\apache\sqoop\shell\StatusCommand.java,0,0,0,0
org.apache.sqoop.shell.StopCommand, 0, 0, 0, 0, 0, 0, 0, 0, 0, 0, 0, 0, 0, 0,0.0,0.0,0.0,0.0,0.0,0.0,0.0,0.0,0.0,0.0,0.0,0.0,0.0,11,shell\src\main\java\org\apache\sqoop\shell\StopCommand.java,0,0,0,0
org.apache.sqoop.shell.StopJobFunction, 0, 0, 0, 0, 0, 0, 0, 0, 0, 0, 0, 0, 0, 0,0.5,0.0,0.5,0.5,0.0,0.0,0.0,0.5,0.0,0.0,0.0,0.0,0.0,24,shell\src\main\java\org\apache\sqoop\shell\StopJobFunction.java,0,0,0,0
org.apache.sqoop.shell.UpdateCommand, 0, 0, 0, 0, 0, 0, 0, 0, 0, 0, 0, 0, 0, 0,0.0,0.0,0.0,0.0,0.0,0.0,0.0,0.0,0.0,0.0,0.0,0.0,0.0,12,shell\src\main\java\org\apache\sqoop\shell\UpdateCommand.java,0,0,0,0
org.apache.sqoop.shell.UpdateJobFunction, 0, 0, 0, 0, 0, 0, 0, 0, 0, 0, 0, 0, 0, 0,0.0,0.0,0.0,0.0,0.0,0.0,0.0,0.0,0.0,0.0,0.0,0.0,0.0,56,shell\src\main\java\org\apache\sqoop\shell\UpdateJobFunction.java,0,0,2,4
org.apache.sqoop.shell.UpdateLinkFunction, 0, 0, 0, 0, 0, 0, 0, 0, 0, 0, 0, 0, 0, 0,0.0,0.0,0.0,0.0,0.0,0.0,0.0,0.0,0.0,0.0,0.0,0.0,0.0,52,shell\src\main\java\org\apache\sqoop\shell\UpdateLinkFunction.java,0,0,0,0
org.apache.sqoop.shell.core.Constants, 0, 0, 0, 1, 0, 0, 0, 0, 0, 0, 0, 0, 0, 1,0.0,0.0,0.0,0.0,0.0,0.0,0.0,0.0,0.0,0.0,0.0,0.0,0.0,344,shell\src\main\java\org\apache\sqoop\shell\core\Constants.java,0,69,4,77
org.apache.sqoop.shell.utils.ConfigOptions, 0, 0, 0, 0, 0, 0, 0, 0, 0, 0, 0, 0, 0, 0,0.0,0.0,0.0,0.0,0.0,0.0,0.0,0.0,0.0,0.0,0.0,0.0,0.0,42,shell\src\main\java\org\apache\sqoop\shell\utils\ConfigOptions.java,0,0,0,0
org.apache.sqoop.shell.utils.DynamicConfigOptions, 0, 0, 0, 0, 0, 0, 0, 0, 0, 0, 0, 0, 0, 0,0.0,0.0,0.0,0.0,0.0,0.0,0.0,0.0,0.0,0.0,0.0,0.0,0.0,3,shell\src\main\java\org\apache\sqoop\shell\utils\DynamicConfigOptions.java,0,0,0,0
org.apache.sqoop.shell.utils.JobDynamicConfigOptions, 0, 0, 0, 0, 0, 0, 0, 0, 0, 0, 0, 0, 0, 0,0.0,0.0,0.0,0.0,0.0,0.0,0.0,0.0,0.0,0.0,0.0,0.0,0.0,19,shell\src\main\java\org\apache\sqoop\shell\utils\JobDynamicConfigOptions.java,0,0,2,4
org.apache.sqoop.shell.utils.LinkDynamicConfigOptions, 0, 0, 0, 0, 0, 0, 0, 0, 0, 0, 0, 0, 0, 0,0.0,0.0,0.0,0.0,0.0,0.0,0.0,0.0,0.0,0.0,0.0,0.0,0.0,11,shell\src\main\java\org\apache\sqoop\shell\utils\LinkDynamicConfigOptions.java,0,0,0,0
org.apache.sqoop.shell.utils.TableDisplayer, 0, 0, 0, 0, 0, 0, 0, 0, 0, 0, 0, 0, 0, 0,0.0,0.0,0.0,0.0,0.0,0.0,0.0,0.0,0.0,0.0,0.0,0.0,0.0,61,shell\src\main\java\org\apache\sqoop\shell\utils\TableDisplayer.java,0,0,0,0
org.apache.sqoop.shell.utils.ThrowableDisplayer, 0, 0, 0, 0, 0, 0, 0, 0, 0, 0, 0, 0, 0, 0,0.0,0.0,0.0,0.0,0.0,0.0,0.0,0.0,0.0,0.0,0.0,0.0,0.0,44,shell\src\main\java\org\apache\sqoop\shell\utils\ThrowableDisplayer.java,0,0,0,0
org.apache.sqoop.submission.TestSubmissionStatus, 0, 0, 0, 0, 0, 0, 0, 0, 0, 0, 0, 0, 0, 0,0.0,0.0,0.0,0.0,0.0,0.0,0.0,0.0,0.0,0.0,0.0,0.0,0.0,28,common\src\test\java\org\apache\sqoop\submission\TestSubmissionStatus.java,0,0,0,0
org.apache.sqoop.submission.counter.Counter, 0, 0, 0, 0, 0, 0, 0, 0, 0, 0, 0, 0, 0, 0,0.0,0.0,0.0,0.4,0.0,0.0,0.0,0.0,0.0,0.0,0.0,0.0,0.0,20,common\src\main\java\org\apache\sqoop\submission\counter\Counter.java,0,0,0,0
org.apache.sqoop.submission.counter.TestCounter, 0, 0, 0, 0, 0, 0, 0, 0, 0, 0, 0, 0, 0, 0,0.0,0.0,0.0,0.0,0.0,0.0,0.0,0.0,0.0,0.0,0.0,0.0,0.0,13,common\src\test\java\org\apache\sqoop\submission\counter\TestCounter.java,0,0,0,0
org.apache.sqoop.submission.counter.TestCounterGroup, 0, 0, 0, 0, 0, 0, 0, 0, 0, 0, 0, 0, 0, 0,0.0,0.0,0.0,0.0,0.0,0.0,0.0,0.0,0.0,0.0,0.0,0.0,0.0,38,common\src\test\java\org\apache\sqoop\submission\counter\TestCounterGroup.java,0,0,0,0
org.apache.sqoop.submission.counter.TestCounters, 0, 0, 0, 0, 0, 0, 0, 0, 0, 0, 0, 0, 0, 0,0.0,0.0,0.0,0.0,0.0,0.0,0.0,0.0,0.0,0.0,0.0,0.0,0.0,29,common\src\test\java\org\apache\sqoop\submission\counter\TestCounters.java,0,0,0,0
org.apache.sqoop.submission.mapreduce.Constants, 0, 0, 0, 0, 0, 0, 0, 0, 0, 0, 0, 0, 0, 0,0.0,0.0,0.0,0.0,0.0,0.0,0.0,0.0,0.0,0.0,0.0,0.0,0.0,8,submission\mapreduce\src\main\java\org\apache\sqoop\submission\mapreduce\Constants.java,0,0,0,0
org.apache.sqoop.test.asserts.HdfsAsserts, 0, 0, 0, 0, 0, 0, 0, 0, 0, 0, 0, 0, 0, 0,1.0,0.0,1.0,1.0,0.0,0.0,0.0,0.0,0.0,0.0,0.0,0.0,0.0,32,test\src\main\java\org\apache\sqoop\test\asserts\HdfsAsserts.java,0,2,1,4
org.apache.sqoop.test.data.Cities, 0, 0, 0, 0, 0, 0, 0, 0, 0, 0, 0, 0, 0, 0,0.3333333333333333,0.0,0.0,0.3333333333333333,0.0,0.0,0.0,0.0,0.0,0.0,0.0,0.0,0.0,25,test\src\main\java\org\apache\sqoop\test\data\Cities.java,0,1,1,3
org.apache.sqoop.test.data.DataSet, 0, 0, 0, 0, 0, 0, 0, 0, 0, 0, 0, 0, 0, 0,0.3333333333333333,0.0,0.0,0.3333333333333333,0.0,0.0,0.0,0.0,0.0,0.0,0.0,0.0,0.0,18,test\src\main\java\org\apache\sqoop\test\data\DataSet.java,0,1,3,7
org.apache.sqoop.test.data.UbuntuReleases, 0, 0, 0, 0, 0, 0, 0, 0, 0, 0, 0, 0, 0, 0,0.5,0.0,0.0,0.5,0.0,0.0,0.0,0.0,0.0,0.0,0.0,0.0,0.0,41,test\src\main\java\org\apache\sqoop\test\data\UbuntuReleases.java,0,1,1,3
org.apache.sqoop.test.hadoop.HadoopLocalRunner, 0, 0, 0, 0, 0, 0, 0, 0, 0, 0, 0, 0, 0, 0,0.0,0.0,0.0,0.0,0.0,0.0,0.0,0.0,0.0,0.0,0.0,0.0,0.0,16,test\src\main\java\org\apache\sqoop\test\hadoop\HadoopLocalRunner.java,0,1,1,3
org.apache.sqoop.test.hadoop.HadoopMiniClusterRunner, 0, 0, 0, 0, 0, 0, 0, 0, 0, 0, 0, 0, 0, 0,0.0,0.0,0.0,0.0,0.0,0.0,0.0,0.0,0.0,0.0,0.0,0.0,0.0,45,test\src\main\java\org\apache\sqoop\test\hadoop\HadoopMiniClusterRunner.java,0,4,4,12
org.apache.sqoop.test.hadoop.HadoopRunner, 0, 0, 0, 0, 0, 0, 0, 0, 0, 0, 0, 0, 0, 0,0.5,0.0,0.25,0.5,0.0,0.0,0.0,0.0,0.0,0.0,0.0,0.0,0.0,28,test\src\main\java\org\apache\sqoop\test\hadoop\HadoopRunner.java,0,1,1,3
org.apache.sqoop.test.minicluster.InProcessSqoopMiniCluster, 0, 0, 0, 0, 0, 0, 0, 0, 0, 0, 0, 0, 0, 0,0.0,0.0,0.0,0.0,0.0,0.0,0.0,0.0,0.0,0.0,0.0,0.0,0.0,17,test\src\main\java\org\apache\sqoop\test\minicluster\InProcessSqoopMiniCluster.java,0,0,0,0
org.apache.sqoop.test.testcases.ConnectorTestCase, 1, 0, 0, 1, 0, 0, 0, 0, 0, 0, 0, 0, 0, 2,0.17647058823529413,0.0,0.17647058823529413,0.11764705882352941,0.0,0.0,0.0,0.058823529411764705,0.0,0.0,0.0,0.0,0.0,109,test\src\main\java\org\apache\sqoop\test\testcases\ConnectorTestCase.java,3,30,6,45
org.apache.sqoop.test.testcases.KafkaConnectorTestCase, 0, 0, 0, 0, 0, 0, 0, 0, 0, 0, 0, 0, 0, 0,0.3333333333333333,0.0,0.0,0.3333333333333333,0.0,0.0,0.0,0.0,0.0,0.0,0.0,0.0,0.0,32,test\src\main\java\org\apache\sqoop\test\testcases\KafkaConnectorTestCase.java,1,6,2,11
org.apache.sqoop.test.testcases.TomcatTestCase, 1, 0, 1, 1, 0, 0, 0, 0, 0, 0, 0, 0, 0, 3,0.18181818181818182,0.0,0.09090909090909091,0.09090909090909091,0.0,0.0,0.0,0.0,0.0,0.0,0.0,0.0,0.0,68,test\src\main\java\org\apache\sqoop\test\testcases\TomcatTestCase.java,0,11,2,15
org.apache.sqoop.test.utils.CompressionUtils, 0, 0, 0, 0, 0, 0, 0, 0, 0, 0, 0, 0, 0, 0,0.0,0.0,0.0,0.0,0.0,0.0,0.0,0.0,0.0,0.0,0.0,0.0,0.0,29,test\src\main\java\org\apache\sqoop\test\utils\CompressionUtils.java,0,0,0,0
org.apache.sqoop.test.utils.ParametrizedUtils, 0, 0, 0, 0, 0, 0, 0, 0, 0, 0, 0, 0, 0, 0,1.0,0.0,1.0,0.0,0.0,0.0,0.0,0.0,0.0,0.0,0.0,0.0,0.0,32,test\src\main\java\org\apache\sqoop\test\utils\ParametrizedUtils.java,0,8,0,8
org.apache.sqoop.tomcat.TomcatToolRunner, 0, 0, 0, 0, 0, 0, 0, 0, 0, 0, 0, 0, 0, 0,0.0,0.0,0.0,0.0,0.0,0.0,0.0,0.0,0.0,0.0,0.0,0.0,0.0,24,tomcat\src\main\java\org\apache\sqoop\tomcat\TomcatToolRunner.java,0,0,0,0
org.apache.sqoop.tools.ConfiguredTool, 0, 0, 0, 0, 0, 0, 0, 0, 0, 0, 0, 0, 0, 0,0.0,0.0,0.0,0.0,0.0,0.0,0.0,0.0,0.0,0.0,0.0,0.0,0.0,12,tools\src\main\java\org\apache\sqoop\tools\ConfiguredTool.java,0,0,0,0
org.apache.sqoop.tools.Tool, 0, 0, 0, 0, 0, 0, 0, 0, 0, 0, 0, 0, 0, 0,0.0,0.0,0.0,0.0,0.0,0.0,0.0,0.0,0.0,0.0,0.0,0.0,0.0,3,tools\src\main\java\org\apache\sqoop\tools\Tool.java,0,0,0,0
org.apache.sqoop.tools.ToolRunner, 0, 0, 0, 0, 0, 0, 0, 0, 0, 0, 0, 0, 0, 0,0.0,0.0,0.0,0.0,0.0,0.0,0.0,0.0,0.0,0.0,0.0,0.0,0.0,33,tools\src\main\java\org\apache\sqoop\tools\ToolRunner.java,0,0,0,0
org.apache.sqoop.tools.tool.JSONConstants, 0, 0, 0, 1, 0, 0, 0, 0, 0, 0, 0, 0, 0, 1,0.0,0.0,0.0,0.0,0.0,0.0,0.0,0.0,0.0,0.0,0.0,0.0,0.0,19,tools\src\main\java\org\apache\sqoop\tools\tool\JSONConstants.java,1,2,0,3
org.apache.sqoop.tools.tool.RepositoryDumpTool, 0, 0, 0, 0, 0, 0, 0, 0, 0, 0, 0, 0, 0, 0,0.0,0.0,0.0,0.0,0.0,0.0,0.0,0.0,0.0,0.0,0.0,0.0,0.0,75,tools\src\main\java\org\apache\sqoop\tools\tool\RepositoryDumpTool.java,2,11,12,37
org.apache.sqoop.tools.tool.UpgradeTool, 0, 0, 0, 0, 0, 0, 0, 0, 0, 0, 0, 0, 0, 0,0.0,0.0,0.0,0.5,0.0,0.0,0.0,0.0,0.0,0.0,0.0,0.0,0.0,23,tools\src\main\java\org\apache\sqoop\tools\tool\UpgradeTool.java,0,0,0,0
org.apache.sqoop.tools.tool.VerifyTool, 0, 0, 0, 0, 0, 0, 0, 0, 0, 0, 0, 0, 0, 0,0.0,0.0,0.0,0.0,0.0,0.0,0.0,0.0,0.0,0.0,0.0,0.0,0.0,16,tools\src\main\java\org\apache\sqoop\tools\tool\VerifyTool.java,0,0,0,0
org.apache.sqoop.utils.ClassUtils, 0, 0, 0, 0, 0, 0, 0, 0, 0, 0, 0, 0, 0, 0,0.0,0.0,0.0,0.125,0.0,0.0,0.0,0.0,0.0,0.0,0.0,0.0,0.0,74,common\src\main\java\org\apache\sqoop\utils\ClassUtils.java,1,0,0,1
org.apache.sqoop.utils.TestClassUtils, 0, 0, 0, 0, 0, 0, 0, 0, 0, 0, 0, 0, 0, 0,0.0,0.0,0.0,0.0,0.0,0.0,0.0,0.0,0.0,0.0,0.0,0.0,0.0,85,common\src\test\java\org\apache\sqoop\utils\TestClassUtils.java,0,0,1,2
org.apache.sqoop.utils.UrlSafeUtils, 0, 0, 0, 0, 0, 0, 0, 0, 0, 0, 0, 0, 0, 0,0.0,0.0,0.0,0.0,0.0,0.0,0.0,1.0,0.0,0.0,0.0,0.0,0.0,19,common\src\main\java\org\apache\sqoop\utils\UrlSafeUtils.java,0,0,0,0
org.apache.sqoop.validation.Message, 0, 0, 0, 0, 0, 0, 0, 0, 0, 0, 0, 0, 0, 0,0.0,0.0,0.0,0.0,0.0,0.0,0.0,0.0,0.0,0.0,0.0,0.0,0.0,34,common\src\main\java\org\apache\sqoop\validation\Message.java,0,0,0,0
org.apache.sqoop.validation.TestStatus, 0, 0, 0, 0, 0, 0, 0, 0, 0, 0, 0, 0, 0, 0,0.0,0.0,0.0,0.0,0.0,0.0,0.0,0.0,0.0,0.0,0.0,0.0,0.0,23,common\src\test\java\org\apache\sqoop\validation\TestStatus.java,0,0,0,0
org.apache.sqoop.validation.TestValidationRunner, 0, 0, 0, 0, 0, 0, 0, 0, 0, 0, 0, 0, 0, 0,0.0,0.0,0.0,0.0,0.0,0.0,0.0,0.0,0.0,0.0,0.0,0.0,0.0,118,common\src\test\java\org\apache\sqoop\validation\TestValidationRunner.java,0,0,0,0
org.apache.sqoop.validation.validators.AbstractValidator, 0, 0, 0, 0, 0, 0, 0, 0, 0, 0, 0, 0, 0, 0,0.0,0.0,0.0,0.0,0.0,0.0,0.0,0.0,0.0,0.0,0.0,0.0,0.0,34,common\src\main\java\org\apache\sqoop\validation\validators\AbstractValidator.java,0,0,0,0
org.apache.sqoop.validation.validators.CSVURIValidator, 0, 0, 0, 0, 0, 0, 0, 0, 0, 0, 0, 0, 0, 0,0.0,0.0,0.0,0.0,0.0,0.0,0.0,0.0,0.0,0.0,0.0,0.0,0.0,27,common\src\main\java\org\apache\sqoop\validation\validators\CSVURIValidator.java,0,0,0,0
org.apache.sqoop.validation.validators.ClassAvailable, 0, 0, 0, 0, 0, 0, 0, 0, 0, 0, 0, 0, 0, 0,0.0,0.0,0.0,0.0,0.0,0.0,0.0,0.0,0.0,0.0,0.0,0.0,0.0,14,common\src\main\java\org\apache\sqoop\validation\validators\ClassAvailable.java,0,0,0,0
org.apache.sqoop.validation.validators.DatasetURIValidator, 0, 0, 0, 0, 0, 0, 0, 0, 0, 0, 0, 0, 0, 0,0.0,0.0,0.0,0.0,0.0,0.0,0.0,0.0,0.0,0.0,0.0,0.0,0.0,13,common\src\main\java\org\apache\sqoop\validation\validators\DatasetURIValidator.java,22,0,0,22
org.apache.sqoop.validation.validators.NotEmpty, 0, 0, 0, 0, 0, 0, 0, 0, 0, 0, 0, 0, 0, 0,0.0,0.0,0.0,0.0,0.0,0.0,0.0,0.0,0.0,0.0,0.0,0.0,0.0,8,common\src\main\java\org\apache\sqoop\validation\validators\NotEmpty.java,0,0,0,0
org.apache.sqoop.validation.validators.NotNull, 0, 0, 0, 0, 0, 0, 0, 0, 0, 0, 0, 0, 0, 0,0.0,0.0,0.0,0.0,0.0,0.0,0.0,0.0,0.0,0.0,0.0,0.0,0.0,8,common\src\main\java\org\apache\sqoop\validation\validators\NotNull.java,0,0,0,0
org.apache.sqoop.validation.validators.StartsWith, 0, 0, 0, 0, 0, 0, 0, 0, 0, 0, 0, 0, 0, 0,0.0,0.0,0.0,0.0,0.0,0.0,0.0,0.0,0.0,0.0,0.0,0.0,0.0,8,common\src\main\java\org\apache\sqoop\validation\validators\StartsWith.java,0,0,0,0
org.apache.sqoop.validation.validators.TestCSVURIValidator, 0, 0, 0, 0, 0, 0, 0, 0, 0, 0, 0, 0, 0, 0,0.0,0.0,0.0,0.0,0.0,0.0,0.0,0.0,0.0,0.0,0.0,0.0,0.0,33,common\src\test\java\org\apache\sqoop\validation\validators\TestCSVURIValidator.java,0,0,0,0
org.apache.sqoop.validation.validators.TestClassAvailable, 0, 0, 0, 0, 0, 0, 0, 0, 0, 0, 0, 0, 0, 0,0.0,0.0,0.0,0.0,0.0,0.0,0.0,0.0,0.0,0.0,0.0,0.0,0.0,20,common\src\test\java\org\apache\sqoop\validation\validators\TestClassAvailable.java,0,0,0,0
org.apache.sqoop.validation.validators.TestContains, 0, 0, 0, 0, 0, 0, 0, 0, 0, 0, 0, 0, 0, 0,0.0,0.0,0.0,0.0,0.0,0.0,0.0,0.0,0.0,0.0,0.0,0.0,0.0,45,common\src\test\java\org\apache\sqoop\validation\validators\TestContains.java,0,0,0,0
org.apache.sqoop.validation.validators.TestHostAndPortValidator, 0, 0, 0, 0, 0, 0, 0, 0, 0, 0, 0, 0, 0, 0,0.0,0.0,0.0,0.0,0.0,0.0,0.0,0.0,0.0,0.0,0.0,0.0,0.0,37,common\src\test\java\org\apache\sqoop\validation\validators\TestHostAndPortValidator.java,0,0,0,0
org.apache.sqoop.validation.validators.TestNotEmpty, 0, 0, 0, 0, 0, 0, 0, 0, 0, 0, 0, 0, 0, 0,0.0,0.0,0.0,0.0,0.0,0.0,0.0,0.0,0.0,0.0,0.0,0.0,0.0,20,common\src\test\java\org\apache\sqoop\validation\validators\TestNotEmpty.java,0,0,0,0
org.apache.sqoop.validation.validators.TestNotNull, 0, 0, 0, 0, 0, 0, 0, 0, 0, 0, 0, 0, 0, 0,0.0,0.0,0.0,0.0,0.0,0.0,0.0,0.0,0.0,0.0,0.0,0.0,0.0,16,common\src\test\java\org\apache\sqoop\validation\validators\TestNotNull.java,0,0,0,0
org.apache.sqoop.validation.validators.TestNullOrContains, 0, 0, 0, 0, 0, 0, 0, 0, 0, 0, 0, 0, 0, 0,0.0,0.0,0.0,0.0,0.0,0.0,0.0,0.0,0.0,0.0,0.0,0.0,0.0,50,common\src\test\java\org\apache\sqoop\validation\validators\TestNullOrContains.java,0,0,0,0
org.apache.sqoop.validation.validators.TestStartsWith, 0, 0, 0, 0, 0, 0, 0, 0, 0, 0, 0, 0, 0, 0,0.0,0.0,0.0,0.0,0.0,0.0,0.0,0.0,0.0,0.0,0.0,0.0,0.0,33,common\src\test\java\org\apache\sqoop\validation\validators\TestStartsWith.java,0,0,0,0
org.apache.sqoop.validation.validators.TestValidator, 0, 0, 0, 0, 0, 0, 0, 0, 0, 0, 0, 0, 0, 0,0.0,0.0,0.0,0.0,0.0,0.0,0.0,0.0,0.0,0.0,0.0,0.0,0.0,24,common\src\test\java\org\apache\sqoop\validation\validators\TestValidator.java,0,0,0,0
