ClassName,AntiSingleton,Blob,ClassDataShouldBePrivate,ComplexClass,LargeClass,LazyClass,LongMethod,LongParameterList,MessageChains,RefusedParentBequest,SpaghettiCode,SpeculativeGenerality,SwissArmyKnife,NumOfAPs,AntiSingleton,Blob,ClassDataShouldBePrivate,ComplexClass,LargeClass,LazyClass,LongMethod,LongParameterList,MessageChains,RefusedParentBequest,SpaghettiCode,SpeculativeGenerality,SwissArmyKnife,LOC,name,deleted,added,changed,all
org.apache.hadoop.io.FileChunk, 0, 0, 0, 0, 0, 0, 0, 1, 0, 0, 0, 0, 0, 1,0.0,0.0,0.0,0.5,0.0,0.0,0.0,0.5,0.0,0.0,0.0,0.0,0.0,71,tez-runtime-library\src\main\java\org\apache\hadoop\io\FileChunk.java,0,0,0,0
org.apache.hadoop.mapred.split.TestGroupedSplits, 0, 0, 0, 0, 0, 0, 0, 0, 0, 0, 0, 0, 0, 0,0.0,0.0,0.0,0.0,0.0,0.0,0.0,0.0,0.0,0.0,0.0,0.0,0.0,404,tez-mapreduce\src\test\java\org\apache\hadoop\mapred\split\TestGroupedSplits.java,0,0,0,0
org.apache.hadoop.mapred.split.TezGroupedSplit, 0, 0, 0, 0, 0, 0, 0, 0, 0, 0, 0, 0, 0, 0,0.0,0.0,0.0,0.0,0.0,0.0,0.0,0.0,0.0,0.0,0.0,0.0,0.0,112,tez-mapreduce\src\main\java\org\apache\hadoop\mapred\split\TezGroupedSplit.java,0,0,0,0
org.apache.hadoop.mapred.split.TezGroupedSplitsInputFormat, 0, 0, 0, 0, 0, 0, 0, 0, 0, 0, 0, 0, 0, 0,0.0,0.0,0.0,0.0,0.0,0.0,0.0,0.0,0.0,0.0,0.0,0.0,0.0,134,tez-mapreduce\src\main\java\org\apache\hadoop\mapred\split\TezGroupedSplitsInputFormat.java,0,0,0,0
org.apache.hadoop.mapreduce.split.SplitMetaInfoReaderTez, 0, 0, 0, 0, 0, 0, 0, 0, 0, 0, 0, 0, 0, 0,0.0,0.0,0.0,0.0,0.0,0.0,0.0,0.0,0.0,0.0,0.0,0.0,0.0,52,tez-mapreduce\src\main\java\org\apache\hadoop\mapreduce\split\SplitMetaInfoReaderTez.java,0,0,0,0
org.apache.hadoop.mapreduce.split.TezGroupedSplit, 0, 0, 0, 0, 0, 0, 0, 0, 0, 0, 0, 0, 0, 0,0.0,0.0,0.0,0.0,0.0,0.0,0.0,0.0,0.0,0.0,0.0,0.0,0.0,121,tez-mapreduce\src\main\java\org\apache\hadoop\mapreduce\split\TezGroupedSplit.java,0,0,0,0
org.apache.hadoop.mapreduce.split.TezGroupedSplitsInputFormat, 0, 0, 0, 0, 0, 0, 0, 0, 0, 0, 0, 0, 0, 0,0.0,0.0,0.0,0.0,0.0,0.0,0.0,0.0,0.0,0.0,0.0,0.0,0.0,165,tez-mapreduce\src\main\java\org\apache\hadoop\mapreduce\split\TezGroupedSplitsInputFormat.java,0,0,0,0
org.apache.tez.client.FrameworkClient, 0, 0, 0, 0, 0, 0, 0, 0, 0, 0, 0, 0, 0, 0,0.25,0.0,0.25,0.25,0.0,0.0,0.0,0.25,0.0,0.0,0.0,0.0,0.0,17,tez-api\src\main\java\org\apache\tez\client\FrameworkClient.java,0,0,0,0
org.apache.tez.client.LocalClient, 0, 0, 0, 0, 0, 0, 0, 1, 0, 0, 0, 0, 0, 1,0.0,0.0,0.0,0.0,0.0,0.3333333333333333,0.0,0.3333333333333333,0.0,0.0,0.0,0.0,0.0,214,tez-dag\src\main\java\org\apache\tez\client\LocalClient.java,0,11,0,11
org.apache.tez.client.TezApiVersionInfo, 0, 0, 0, 0, 0, 1, 0, 0, 0, 0, 0, 0, 0, 1,0.0,0.0,0.0,0.0,0.0,0.0,0.0,1.0,0.0,0.0,0.0,0.0,0.0,5,tez-api\src\main\java\org\apache\tez\client\TezApiVersionInfo.java,0,0,0,0
org.apache.tez.client.TezYarnClient, 0, 0, 0, 0, 0, 0, 0, 0, 0, 0, 0, 0, 0, 0,0.0,0.0,0.0,0.0,0.0,0.0,0.0,0.0,0.0,0.0,0.0,0.0,0.0,38,tez-api\src\main\java\org\apache\tez\client\TezYarnClient.java,0,6,1,8
org.apache.tez.common.ATSConstants, 0, 0, 0, 1, 0, 0, 0, 0, 0, 0, 0, 0, 0, 1,0.0,0.0,0.0,0.0,0.0,0.0,0.0,0.0,0.0,0.0,0.0,0.0,0.0,69,tez-api\src\main\java\org\apache\tez\common\ATSConstants.java,1,3,0,4
org.apache.tez.common.ContainerContext, 0, 0, 0, 0, 0, 0, 0, 0, 0, 0, 0, 0, 0, 0,0.0,0.0,0.0,0.0,0.0,0.0,0.0,0.0,0.0,0.0,0.0,0.0,0.0,20,tez-runtime-internals\src\main\java\org\apache\tez\common\ContainerContext.java,0,0,0,0
org.apache.tez.common.MRFrameworkConfigs, 0, 0, 0, 0, 0, 0, 0, 0, 0, 0, 0, 0, 0, 0,0.0,0.0,0.0,0.0,0.0,0.0,0.0,0.0,0.0,0.0,0.0,0.0,0.0,6,tez-mapreduce\src\main\java\org\apache\tez\common\MRFrameworkConfigs.java,0,0,0,0
org.apache.tez.common.MockDNSToSwitchMapping, 0, 0, 0, 0, 0, 0, 0, 0, 0, 0, 0, 0, 0, 0,0.0,0.0,0.0,0.0,0.0,0.0,0.0,0.0,0.0,0.0,0.0,0.0,0.0,25,tez-common\src\test\java\org\apache\tez\common\MockDNSToSwitchMapping.java,0,0,0,0
org.apache.tez.common.ProtoConverters, 0, 0, 0, 0, 0, 0, 0, 0, 0, 0, 0, 0, 0, 0,0.0,0.0,0.0,0.0,0.0,0.0,0.0,0.0,0.0,0.0,0.0,0.0,0.0,90,tez-runtime-internals\src\main\java\org\apache\tez\common\ProtoConverters.java,0,0,0,0
org.apache.tez.common.TestReflectionUtils, 0, 0, 0, 0, 0, 0, 0, 0, 0, 0, 0, 0, 0, 0,0.0,0.0,0.0,0.0,0.0,0.0,0.0,0.0,0.0,0.0,0.0,0.0,0.0,42,tez-api\src\test\java\org\apache\tez\common\TestReflectionUtils.java,0,0,0,0
org.apache.tez.common.TestVersionInfo, 0, 0, 0, 0, 0, 0, 0, 0, 0, 0, 0, 0, 0, 0,0.0,0.0,0.0,0.0,0.0,0.0,0.0,0.0,0.0,0.0,0.0,0.0,0.0,34,tez-api\src\test\java\org\apache\tez\common\TestVersionInfo.java,0,0,0,0
org.apache.tez.common.TezConverterUtils, 0, 0, 0, 0, 0, 0, 0, 0, 0, 0, 0, 0, 0, 0,0.0,0.0,0.0,0.0,0.0,0.0,0.0,0.0,0.0,0.0,0.0,0.0,0.0,23,tez-runtime-internals\src\main\java\org\apache\tez\common\TezConverterUtils.java,0,0,0,0
org.apache.tez.common.TezLocalResource, 0, 0, 0, 0, 0, 0, 0, 0, 0, 0, 0, 0, 0, 0,0.0,0.0,0.0,0.0,0.0,0.0,0.0,0.0,0.0,0.0,0.0,0.0,0.0,41,tez-runtime-internals\src\main\java\org\apache\tez\common\TezLocalResource.java,0,0,0,0
org.apache.tez.common.TezRuntimeFrameworkConfigs, 0, 0, 0, 0, 0, 0, 0, 0, 0, 0, 0, 0, 0, 0,0.0,0.0,0.0,0.0,0.0,0.0,0.0,0.0,0.0,0.0,0.0,0.0,0.0,8,tez-runtime-library\src\main\java\org\apache\tez\common\TezRuntimeFrameworkConfigs.java,0,0,0,0
org.apache.tez.common.TezTaskStatus, 0, 0, 0, 0, 0, 0, 0, 0, 0, 0, 0, 0, 0, 0,0.0,0.0,0.0,0.0,0.0,0.0,0.0,0.0,0.0,0.0,0.0,0.0,0.0,8,tez-mapreduce\src\main\java\org\apache\tez\common\TezTaskStatus.java,0,0,0,0
org.apache.tez.common.TezTaskUmbilicalProtocol, 0, 0, 0, 0, 0, 0, 0, 0, 0, 0, 0, 0, 0, 0,0.0,0.0,0.0,0.0,0.0,0.0,0.0,0.0,0.0,0.0,0.0,0.0,0.0,8,tez-runtime-internals\src\main\java\org\apache\tez\common\TezTaskUmbilicalProtocol.java,0,0,0,0
org.apache.tez.common.counters.AbstractCounter, 0, 0, 0, 0, 0, 0, 0, 0, 0, 0, 0, 0, 0, 0,0.0,0.0,0.0,0.0,0.0,0.0,0.0,0.0,0.0,0.0,0.0,0.0,0.0,21,tez-api\src\main\java\org\apache\tez\common\counters\AbstractCounter.java,0,0,0,0
org.apache.tez.common.counters.CounterGroup, 0, 0, 0, 0, 0, 0, 0, 0, 0, 0, 0, 0, 0, 0,0.0,0.0,0.0,0.0,0.0,0.0,0.0,0.0,0.0,0.0,0.0,0.0,0.0,21,tez-api\src\main\java\org\apache\tez\common\counters\CounterGroup.java,0,0,0,0
org.apache.tez.common.counters.FrameworkCounterGroup, 0, 0, 0, 0, 0, 0, 0, 0, 0, 0, 0, 0, 0, 0,0.0,0.0,0.0,0.0,0.0,0.0,0.0,0.0,0.0,0.0,0.0,0.0,0.0,185,tez-api\src\main\java\org\apache\tez\common\counters\FrameworkCounterGroup.java,0,0,0,0
org.apache.tez.common.counters.GenericCounter, 0, 0, 0, 0, 0, 0, 0, 0, 0, 0, 0, 0, 0, 0,0.0,0.0,0.0,0.0,0.0,0.0,0.0,0.0,0.0,0.0,0.0,0.0,0.0,60,tez-api\src\main\java\org\apache\tez\common\counters\GenericCounter.java,0,0,0,0
org.apache.tez.common.counters.LimitExceededException, 0, 0, 0, 0, 0, 0, 0, 0, 0, 0, 0, 0, 0, 0,0.0,0.0,0.0,0.0,0.0,0.0,0.0,0.0,0.0,0.0,0.0,0.0,0.0,9,tez-api\src\main\java\org\apache\tez\common\counters\LimitExceededException.java,0,0,0,0
org.apache.tez.common.counters.Limits, 0, 0, 0, 0, 0, 0, 0, 0, 0, 0, 0, 0, 0, 0,0.0,0.0,0.0,0.0,0.0,0.0,0.0,0.0,0.0,0.0,0.0,0.0,0.0,79,tez-api\src\main\java\org\apache\tez\common\counters\Limits.java,0,0,0,0
org.apache.tez.common.counters.TezCounter, 0, 0, 0, 0, 0, 0, 0, 0, 0, 0, 0, 0, 0, 0,0.0,0.0,0.0,0.0,0.0,0.0,0.0,0.0,0.0,0.0,0.0,0.0,0.0,79,tez-api\src\main\java\org\apache\tez\common\counters\TezCounter.java,0,0,0,0
org.apache.tez.common.counters.TezCounters, 0, 0, 0, 0, 0, 0, 0, 0, 0, 0, 0, 0, 0, 0,0.0,0.0,0.0,0.15789473684210525,0.0,0.0,0.0,0.2631578947368421,0.0,0.0,0.0,0.0,0.0,75,tez-api\src\main\java\org\apache\tez\common\counters\TezCounters.java,0,0,0,0
org.apache.tez.common.security.DAGClientSecurityInfo, 0, 0, 0, 0, 0, 0, 0, 0, 0, 0, 0, 0, 0, 0,0.0,0.0,0.0,0.0,0.0,0.0,0.0,0.0,0.0,0.0,0.0,0.0,0.0,23,tez-api\src\main\java\org\apache\tez\common\security\DAGClientSecurityInfo.java,0,0,0,0
org.apache.tez.common.security.JobTokenIdentifier, 0, 0, 0, 0, 0, 0, 0, 0, 0, 0, 0, 0, 0, 0,0.0,0.0,0.0,0.0,0.0,0.0,0.0,0.0,0.0,0.0,0.0,0.0,0.0,39,tez-api\src\main\java\org\apache\tez\common\security\JobTokenIdentifier.java,0,0,0,0
org.apache.tez.common.security.Master, 0, 0, 0, 0, 0, 0, 0, 0, 0, 0, 0, 0, 0, 0,0.0,0.0,0.0,0.0,0.0,0.0,0.0,0.0,0.0,0.0,0.0,0.0,0.0,20,tez-api\src\main\java\org\apache\tez\common\security\Master.java,0,0,0,0
org.apache.tez.common.security.TestACLConfigurationParser, 0, 0, 0, 0, 0, 0, 0, 0, 0, 0, 0, 0, 0, 0,0.0,0.0,0.0,0.0,0.0,0.0,0.0,0.0,0.0,0.0,0.0,0.0,0.0,83,tez-api\src\test\java\org\apache\tez\common\security\TestACLConfigurationParser.java,0,0,0,0
org.apache.tez.common.security.TestDAGAccessControls, 0, 0, 0, 0, 0, 0, 0, 0, 0, 0, 0, 0, 0, 0,0.0,0.0,0.0,0.0,0.0,0.0,0.0,0.0,0.0,0.0,0.0,0.0,0.0,64,tez-api\src\test\java\org\apache\tez\common\security\TestDAGAccessControls.java,0,0,0,0
org.apache.tez.common.security.TestTokenCache, 0, 0, 0, 0, 0, 0, 0, 0, 0, 0, 0, 0, 0, 0,0.0,0.0,0.0,0.0,0.0,0.0,0.0,0.0,0.0,0.0,0.0,0.0,0.0,66,tez-api\src\test\java\org\apache\tez\common\security\TestTokenCache.java,0,0,0,0
org.apache.tez.common.security.TokenCache, 0, 0, 0, 0, 0, 0, 0, 0, 0, 0, 0, 0, 0, 0,0.0,0.0,0.0,0.0,0.0,0.0,0.0,0.0,0.0,0.0,0.0,0.0,0.0,69,tez-api\src\main\java\org\apache\tez\common\security\TokenCache.java,0,0,0,0
org.apache.tez.dag.api.DAGNotRunningException, 0, 0, 0, 0, 0, 0, 0, 0, 0, 0, 0, 0, 0, 0,0.0,0.0,0.0,0.0,0.0,0.0,0.0,0.0,0.0,0.0,0.0,0.0,0.0,8,tez-api\src\main\java\org\apache\tez\dag\api\DAGNotRunningException.java,0,0,0,0
org.apache.tez.dag.api.DAGSubmissionTimedOut, 0, 0, 0, 0, 0, 0, 0, 0, 0, 0, 0, 0, 0, 0,0.0,0.0,0.0,0.0,0.0,0.0,0.0,0.0,0.0,0.0,0.0,0.0,0.0,6,tez-api\src\main\java\org\apache\tez\dag\api\DAGSubmissionTimedOut.java,0,0,0,0
org.apache.tez.dag.api.DataSinkDescriptor, 0, 0, 0, 0, 0, 0, 0, 0, 0, 0, 0, 0, 0, 0,0.0,0.0,0.0,0.0,0.0,0.0,0.0,0.0,0.0,0.0,0.0,0.0,0.0,36,tez-api\src\main\java\org\apache\tez\dag\api\DataSinkDescriptor.java,0,0,0,0
org.apache.tez.dag.api.Edge, 0, 0, 0, 0, 0, 0, 0, 0, 0, 0, 0, 0, 0, 0,0.6,0.0,0.26666666666666666,0.06666666666666667,0.0,0.0,0.0,0.3333333333333333,0.0,0.0,0.0,0.0,0.0,34,tez-api\src\main\java\org\apache\tez\dag\api\Edge.java,0,0,0,0
org.apache.tez.dag.api.EdgeManagerPluginContext, 0, 0, 0, 0, 0, 0, 0, 0, 0, 0, 0, 0, 0, 0,0.0,0.0,0.0,0.0,0.0,0.0,0.0,0.0,0.0,0.0,0.0,0.0,0.0,34,tez-api\src\main\java\org\apache\tez\dag\api\EdgeManagerPluginContext.java,0,0,0,0
org.apache.tez.dag.api.EdgeManagerPluginDescriptor, 0, 0, 0, 0, 0, 0, 0, 0, 0, 0, 0, 0, 0, 0,0.0,0.0,0.0,0.0,0.0,0.0,0.0,0.5,0.0,0.0,0.0,0.0,0.0,8,tez-api\src\main\java\org\apache\tez\dag\api\EdgeManagerPluginDescriptor.java,0,0,0,0
org.apache.tez.dag.api.EdgeProperty, 0, 0, 0, 0, 0, 0, 0, 1, 0, 0, 0, 0, 0, 1,0.5,0.0,0.2857142857142857,0.07142857142857142,0.0,0.0,0.0,0.07142857142857142,0.0,0.0,0.0,0.0,0.0,94,tez-api\src\main\java\org\apache\tez\dag\api\EdgeProperty.java,0,0,0,0
org.apache.tez.dag.api.EntityDescriptor, 0, 0, 0, 0, 0, 0, 0, 0, 0, 0, 0, 0, 0, 0,0.13043478260869565,0.0,0.043478260869565216,0.043478260869565216,0.0,0.0,0.0,0.08695652173913043,0.0,0.0,0.0,0.0,0.0,66,tez-api\src\main\java\org\apache\tez\dag\api\EntityDescriptor.java,0,0,0,0
org.apache.tez.dag.api.GroupInputEdge, 0, 0, 0, 0, 0, 0, 0, 0, 0, 0, 0, 0, 0, 0,0.0,0.0,0.0,0.0,0.0,0.0,0.0,0.5,0.0,0.0,0.0,0.0,0.0,45,tez-api\src\main\java\org\apache\tez\dag\api\GroupInputEdge.java,0,0,0,0
org.apache.tez.dag.api.InputDescriptor, 0, 0, 0, 0, 0, 0, 0, 0, 0, 0, 0, 0, 0, 0,0.25,0.0,0.08333333333333333,0.08333333333333333,0.0,0.0,0.0,0.16666666666666666,0.0,0.0,0.0,0.0,0.0,12,tez-api\src\main\java\org\apache\tez\dag\api\InputDescriptor.java,0,0,0,0
org.apache.tez.dag.api.InputInitializerDescriptor, 0, 0, 0, 0, 0, 0, 0, 0, 0, 0, 0, 0, 0, 0,0.3333333333333333,0.0,0.0,0.0,0.0,0.0,0.0,0.0,0.0,0.0,0.0,0.0,0.0,12,tez-api\src\main\java\org\apache\tez\dag\api\InputInitializerDescriptor.java,0,0,0,0
org.apache.tez.dag.api.OutputCommitterDescriptor, 0, 0, 0, 0, 0, 0, 0, 0, 0, 0, 0, 0, 0, 0,0.0,0.0,0.0,0.0,0.0,0.0,0.0,0.0,0.0,0.0,0.0,0.0,0.0,12,tez-api\src\main\java\org\apache\tez\dag\api\OutputCommitterDescriptor.java,0,0,0,0
org.apache.tez.dag.api.OutputDescriptor, 0, 0, 0, 0, 0, 0, 0, 0, 0, 0, 0, 0, 0, 0,0.1,0.0,0.0,0.0,0.0,0.0,0.0,0.2,0.0,0.0,0.0,0.0,0.0,12,tez-api\src\main\java\org\apache\tez\dag\api\OutputDescriptor.java,0,0,0,0
org.apache.tez.dag.api.PreWarmVertex, 0, 0, 0, 0, 0, 0, 0, 0, 0, 0, 0, 0, 0, 0,0.0,0.0,0.0,0.0,0.0,0.0,0.0,0.0,0.0,0.0,0.0,0.0,0.0,64,tez-api\src\main\java\org\apache\tez\dag\api\PreWarmVertex.java,0,0,0,0
org.apache.tez.dag.api.ProcessorDescriptor, 0, 0, 0, 0, 0, 0, 0, 0, 0, 0, 0, 0, 0, 0,0.38461538461538464,0.0,0.0,0.0,0.0,0.0,0.0,0.3076923076923077,0.0,0.0,0.0,0.0,0.0,12,tez-api\src\main\java\org\apache\tez\dag\api\ProcessorDescriptor.java,0,0,0,0
org.apache.tez.dag.api.RootInputLeafOutput, 0, 0, 0, 0, 0, 0, 0, 0, 0, 0, 0, 0, 0, 0,0.0,0.0,0.0,0.0,0.0,0.0,0.0,0.3333333333333333,0.0,0.0,0.0,0.0,0.0,24,tez-api\src\main\java\org\apache\tez\dag\api\RootInputLeafOutput.java,0,0,0,0
org.apache.tez.dag.api.SessionNotRunning, 0, 0, 0, 0, 0, 0, 0, 0, 0, 0, 0, 0, 0, 0,0.0,0.0,0.0,0.0,0.0,0.0,0.0,0.0,0.0,0.0,0.0,0.0,0.0,12,tez-api\src\main\java\org\apache\tez\dag\api\SessionNotRunning.java,0,0,0,0
org.apache.tez.dag.api.TaskLocationHint, 0, 0, 0, 0, 0, 0, 0, 0, 0, 0, 0, 0, 0, 0,0.0,0.0,0.0,0.0,0.0,0.0,0.0,0.3333333333333333,0.0,0.0,0.0,0.0,0.0,111,tez-api\src\main\java\org\apache\tez\dag\api\TaskLocationHint.java,0,0,0,0
org.apache.tez.dag.api.TestDagTypeConverters, 0, 0, 0, 0, 0, 0, 0, 0, 0, 0, 0, 0, 0, 0,0.0,0.0,0.0,0.0,0.0,0.0,0.0,0.0,0.0,0.0,0.0,0.0,0.0,21,tez-api\src\test\java\org\apache\tez\dag\api\TestDagTypeConverters.java,0,23,0,23
org.apache.tez.dag.api.TestTaskLocationHint, 0, 0, 0, 0, 0, 0, 0, 0, 0, 0, 0, 0, 0, 0,0.0,0.0,0.0,0.0,0.0,0.0,0.0,0.0,0.0,0.0,0.0,0.0,0.0,35,tez-api\src\test\java\org\apache\tez\dag\api\TestTaskLocationHint.java,0,0,0,0
org.apache.tez.dag.api.TestTezConfiguration, 0, 0, 0, 0, 0, 0, 0, 0, 0, 0, 0, 0, 0, 0,1.0,0.0,1.0,1.0,0.0,0.0,0.0,0.0,0.0,0.0,0.0,0.0,0.0,16,tez-api\src\test\java\org\apache\tez\dag\api\TestTezConfiguration.java,0,0,0,0
org.apache.tez.dag.api.TezConfiguration, 1, 0, 1, 1, 0, 0, 0, 0, 0, 0, 0, 0, 0, 3,0.2,0.0,0.0,0.0,0.0,0.0,0.0,0.25,0.0,0.0,0.0,0.0,0.0,337,tez-api\src\main\java\org\apache\tez\dag\api\TezConfiguration.java,0,17,0,17
org.apache.tez.dag.api.TezConstants, 0, 0, 0, 0, 0, 0, 0, 0, 0, 0, 0, 0, 0, 0,0.0,0.0,0.0,0.0,0.0,0.0,0.0,0.0,0.0,0.0,0.0,0.0,0.0,35,tez-api\src\main\java\org\apache\tez\dag\api\TezConstants.java,0,0,0,0
org.apache.tez.dag.api.TezException, 0, 0, 0, 0, 0, 0, 0, 0, 0, 0, 0, 0, 0, 0,0.0,0.0,0.0,0.0,0.0,0.0,0.0,0.0,0.0,0.0,0.0,0.0,0.0,8,tez-api\src\main\java\org\apache\tez\dag\api\TezException.java,0,0,0,0
org.apache.tez.dag.api.TezUncheckedException, 0, 0, 0, 0, 0, 0, 0, 0, 0, 0, 0, 0, 0, 0,0.0,0.0,0.0,0.0,0.0,0.0,0.0,0.2857142857142857,0.0,0.0,0.0,0.0,0.0,8,tez-api\src\main\java\org\apache\tez\dag\api\TezUncheckedException.java,0,0,0,0
org.apache.tez.dag.api.UserPayload, 0, 0, 0, 0, 0, 0, 0, 0, 0, 0, 0, 0, 0, 0,0.375,0.0,0.25,0.0625,0.0,0.0,0.0,0.0625,0.0,0.0,0.0,0.0,0.0,40,tez-api\src\main\java\org\apache\tez\dag\api\UserPayload.java,0,0,0,0
org.apache.tez.dag.api.VertexLocationHint, 0, 0, 0, 0, 0, 0, 0, 0, 0, 0, 0, 0, 0, 0,0.0,0.0,0.0,0.0,0.0,0.0,0.0,0.0,0.0,0.0,0.0,0.0,0.0,47,tez-api\src\main\java\org\apache\tez\dag\api\VertexLocationHint.java,0,0,0,0
org.apache.tez.dag.api.VertexManagerPluginDescriptor, 0, 0, 0, 0, 0, 0, 0, 0, 0, 0, 0, 0, 0, 0,0.5,0.0,0.0,0.0,0.0,0.0,0.0,0.0,0.0,0.0,0.0,0.0,0.0,12,tez-api\src\main\java\org\apache\tez\dag\api\VertexManagerPluginDescriptor.java,0,0,0,0
org.apache.tez.dag.api.client.DAGClient, 0, 0, 0, 0, 0, 0, 0, 0, 0, 0, 0, 0, 0, 0,0.3684210526315789,0.0,0.0,0.05263157894736842,0.0,0.0,0.0,0.21052631578947367,0.0,0.0,0.0,0.0,0.0,14,tez-api\src\main\java\org\apache\tez\dag\api\client\DAGClient.java,0,0,0,0
org.apache.tez.dag.api.client.DAGClientServer, 0, 0, 0, 0, 0, 0, 0, 1, 0, 0, 0, 0, 0, 1,0.0,0.0,0.0,0.0,0.0,0.0,0.0,0.0,0.0,0.0,0.0,0.0,0.0,71,tez-dag\src\main\java\org\apache\tez\dag\api\client\DAGClientServer.java,0,0,0,0
org.apache.tez.dag.api.client.DAGStatusBuilder, 0, 0, 0, 0, 0, 0, 0, 0, 0, 0, 0, 0, 0, 0,0.0,0.0,0.0,0.0,0.0,0.0,0.0,0.0,0.0,0.0,0.0,0.0,0.0,53,tez-dag\src\main\java\org\apache\tez\dag\api\client\DAGStatusBuilder.java,0,0,0,0
org.apache.tez.dag.api.client.MRDAGClient, 0, 0, 0, 0, 0, 0, 0, 0, 0, 0, 0, 0, 0, 0,0.0,0.0,0.0,0.0,0.0,0.0,0.0,0.0,0.0,0.0,0.0,0.0,0.0,45,tez-mapreduce\src\main\java\org\apache\tez\dag\api\client\MRDAGClient.java,0,0,0,0
org.apache.tez.dag.api.client.ProgressBuilder, 0, 0, 0, 0, 0, 0, 0, 0, 0, 0, 0, 0, 0, 0,0.0,0.0,0.0,0.0,0.0,0.0,0.0,0.0,0.0,0.0,0.0,0.0,0.0,32,tez-dag\src\main\java\org\apache\tez\dag\api\client\ProgressBuilder.java,0,0,0,0
org.apache.tez.dag.api.client.TestDAGClientServer, 0, 0, 0, 0, 0, 0, 0, 0, 0, 0, 0, 0, 0, 0,0.0,0.0,0.0,0.0,0.0,0.0,0.0,0.5,0.0,0.0,0.0,0.0,0.0,46,tez-dag\src\test\java\org\apache\tez\dag\api\client\TestDAGClientServer.java,0,0,0,0
org.apache.tez.dag.api.client.TestVertexStatusBuilder, 0, 0, 0, 0, 0, 0, 0, 0, 0, 0, 0, 0, 0, 0,0.0,0.0,0.0,0.0,0.0,0.0,0.0,0.0,0.0,0.0,0.0,0.0,0.0,17,tez-dag\src\test\java\org\apache\tez\dag\api\client\TestVertexStatusBuilder.java,0,0,0,0
org.apache.tez.dag.api.client.VertexStatusBuilder, 0, 0, 0, 0, 0, 0, 0, 0, 0, 0, 0, 0, 0, 0,0.0,0.0,0.0,0.0,0.0,0.0,0.0,0.0,0.0,0.0,0.0,0.0,0.0,53,tez-dag\src\main\java\org\apache\tez\dag\api\client\VertexStatusBuilder.java,0,0,0,0
org.apache.tez.dag.api.client.rpc.DAGClientAMProtocolBlockingPB, 0, 0, 0, 0, 0, 0, 0, 0, 0, 0, 0, 0, 0, 0,0.0,0.0,0.0,0.0,0.0,0.0,0.0,0.0,0.0,0.0,0.0,0.0,0.0,53,tez-api\src\main\java\org\apache\tez\dag\api\client\rpc\DAGClientAMProtocolBlockingPB.java,0,0,0,0
org.apache.tez.dag.api.client.rpc.DAGClientRPCImpl, 0, 0, 0, 0, 0, 0, 0, 0, 0, 0, 0, 0, 0, 0,0.2,0.0,0.2,0.2,0.0,0.0,0.0,0.0,0.0,0.0,0.0,0.0,0.0,177,tez-api\src\main\java\org\apache\tez\dag\api\client\rpc\DAGClientRPCImpl.java,0,0,0,0
org.apache.tez.dag.api.client.rpc.TestDAGClient, 0, 0, 0, 0, 0, 0, 0, 0, 0, 0, 0, 0, 0, 0,0.3333333333333333,0.0,0.3333333333333333,0.3333333333333333,0.0,0.0,0.0,0.0,0.0,0.0,0.0,0.0,0.0,183,tez-api\src\test\java\org\apache\tez\dag\api\client\rpc\TestDAGClient.java,0,0,0,0
org.apache.tez.dag.api.event.VertexStateUpdate, 0, 0, 0, 0, 0, 0, 0, 0, 0, 0, 0, 0, 0, 0,0.0,0.0,0.0,0.0,0.0,0.0,0.0,0.0,0.0,0.0,0.0,0.0,0.0,18,tez-api\src\main\java\org\apache\tez\dag\api\event\VertexStateUpdate.java,0,0,0,0
org.apache.tez.dag.api.event.VertexStateUpdateParallelismUpdated, 0, 0, 0, 0, 0, 0, 0, 0, 0, 0, 0, 0, 0, 0,0.0,0.0,0.0,0.0,0.0,0.0,0.0,0.0,0.0,0.0,0.0,0.0,0.0,16,tez-api\src\main\java\org\apache\tez\dag\api\event\VertexStateUpdateParallelismUpdated.java,0,0,0,0
org.apache.tez.dag.api.oldrecords.AMInfo, 0, 0, 0, 0, 0, 0, 0, 0, 0, 0, 0, 0, 0, 0,0.0,0.0,0.0,0.0,0.0,0.0,0.0,0.0,0.0,0.0,0.0,0.0,0.0,16,tez-dag\src\main\java\org\apache\tez\dag\api\oldrecords\AMInfo.java,0,0,0,0
org.apache.tez.dag.api.oldrecords.TaskAttemptReport, 0, 0, 0, 0, 0, 0, 0, 0, 0, 0, 0, 0, 0, 0,0.0,0.0,0.0,0.0,0.0,0.0,0.0,0.0,0.0,0.0,0.0,0.0,0.0,16,tez-dag\src\main\java\org\apache\tez\dag\api\oldrecords\TaskAttemptReport.java,0,0,0,0
org.apache.tez.dag.api.oldrecords.TaskReport, 0, 0, 0, 0, 0, 0, 0, 0, 0, 0, 0, 0, 0, 0,0.0,0.0,0.0,0.0,0.0,0.0,0.0,0.0,0.0,0.0,0.0,0.0,0.0,16,tez-dag\src\main\java\org\apache\tez\dag\api\oldrecords\TaskReport.java,0,0,0,0
org.apache.tez.dag.app.ClusterInfo, 0, 0, 0, 0, 0, 0, 0, 0, 0, 0, 0, 0, 0, 0,0.0,0.0,0.0,0.0,0.0,0.0,0.0,0.0,0.0,0.0,0.0,0.0,0.0,20,tez-dag\src\main\java\org\apache\tez\dag\app\ClusterInfo.java,0,0,0,0
org.apache.tez.dag.app.ContainerHeartbeatHandler, 0, 0, 0, 0, 0, 0, 0, 0, 0, 0, 0, 0, 0, 0,0.0,0.0,0.0,0.0,0.0,0.0,0.0,0.0,0.0,0.0,0.0,0.0,0.0,25,tez-dag\src\main\java\org\apache\tez\dag\app\ContainerHeartbeatHandler.java,0,0,0,0
org.apache.tez.dag.app.ControlledClock, 0, 0, 0, 0, 0, 0, 0, 0, 0, 0, 0, 0, 0, 0,0.0,0.0,0.0,0.0,0.0,0.0,0.0,0.0,0.0,0.0,0.0,0.0,0.0,20,tez-dag\src\main\java\org\apache\tez\dag\app\ControlledClock.java,0,0,0,0
org.apache.tez.dag.app.MockClock, 0, 0, 0, 0, 0, 0, 0, 0, 0, 0, 0, 0, 0, 0,0.0,0.0,0.0,0.0,0.0,0.0,0.0,0.0,0.0,0.0,0.0,0.0,0.0,10,tez-dag\src\test\java\org\apache\tez\dag\app\MockClock.java,0,0,0,0
org.apache.tez.dag.app.MockLocalClient, 0, 0, 0, 0, 0, 0, 0, 1, 0, 0, 0, 0, 0, 1,0.6666666666666666,0.0,0.0,0.0,0.0,0.0,0.0,0.6666666666666666,0.0,0.0,0.0,0.0,0.0,19,tez-dag\src\test\java\org\apache\tez\dag\app\MockLocalClient.java,0,0,0,0
org.apache.tez.dag.app.TaskAttemptListener, 0, 0, 0, 0, 0, 0, 0, 0, 0, 0, 0, 0, 0, 0,0.0,0.0,0.0,0.0,0.0,0.0,0.0,0.0,0.0,0.0,0.0,0.0,0.0,19,tez-dag\src\main\java\org\apache\tez\dag\app\TaskAttemptListener.java,0,0,0,0
org.apache.tez.dag.app.TaskHeartbeatHandler, 0, 0, 0, 0, 0, 0, 0, 0, 0, 0, 0, 0, 0, 0,0.0,0.0,0.0,0.0,0.0,0.0,0.0,0.0,0.0,0.0,0.0,0.0,0.0,25,tez-dag\src\main\java\org\apache\tez\dag\app\TaskHeartbeatHandler.java,0,0,0,0
org.apache.tez.dag.app.TestPreemption, 1, 0, 0, 0, 0, 0, 0, 1, 0, 0, 0, 0, 0, 2,0.09090909090909091,0.0,0.09090909090909091,0.09090909090909091,0.0,0.0,0.0,0.18181818181818182,0.0,0.0,0.0,0.0,0.0,131,tez-dag\src\test\java\org\apache\tez\dag\app\TestPreemption.java,0,0,0,0
org.apache.tez.dag.app.TestSpeculation, 1, 0, 0, 0, 0, 0, 0, 0, 0, 0, 0, 0, 0, 1,0.14285714285714285,0.0,0.14285714285714285,0.14285714285714285,0.0,0.0,0.0,0.14285714285714285,0.0,0.0,0.0,0.0,0.0,115,tez-dag\src\test\java\org\apache\tez\dag\app\TestSpeculation.java,0,0,0,0
org.apache.tez.dag.app.TezDagVersionInfo, 0, 0, 0, 0, 0, 1, 0, 0, 0, 0, 0, 0, 0, 1,0.0,0.0,0.0,0.0,0.0,0.0,0.0,0.0,0.0,0.0,0.0,0.0,0.0,5,tez-dag\src\main\java\org\apache\tez\dag\app\TezDagVersionInfo.java,0,0,0,0
org.apache.tez.dag.app.dag.DAGReport, 0, 0, 0, 1, 0, 0, 0, 0, 0, 0, 0, 0, 0, 1,0.0,0.0,0.0,0.0,0.0,0.0,0.0,1.0,0.0,0.0,0.0,0.0,0.0,34,tez-dag\src\main\java\org\apache\tez\dag\app\dag\DAGReport.java,0,0,0,0
org.apache.tez.dag.app.dag.DAGScheduler, 0, 0, 0, 0, 0, 0, 0, 0, 0, 0, 0, 0, 0, 0,0.0,0.0,0.0,0.0,0.0,0.0,0.0,0.0,0.0,0.0,0.0,0.0,0.0,34,tez-dag\src\main\java\org\apache\tez\dag\app\dag\DAGScheduler.java,0,0,0,0
org.apache.tez.dag.app.dag.StateChangeNotifier, 0, 0, 0, 0, 0, 0, 0, 0, 0, 0, 0, 0, 0, 0,0.0,0.0,0.0,0.0,0.0,0.0,0.0,0.0,0.0,0.0,0.0,0.0,0.0,140,tez-dag\src\main\java\org\apache\tez\dag\app\dag\StateChangeNotifier.java,0,0,0,0
org.apache.tez.dag.app.dag.TaskAttempt, 0, 0, 0, 0, 0, 0, 0, 0, 0, 0, 0, 0, 0, 0,0.0,0.0,0.0,0.0,0.0,0.0,0.0,0.0,0.0,0.0,0.0,0.0,0.0,140,tez-dag\src\main\java\org\apache\tez\dag\app\dag\TaskAttempt.java,0,0,0,0
org.apache.tez.dag.app.dag.TaskStateUpdateListener, 0, 0, 0, 0, 0, 0, 0, 0, 0, 0, 0, 0, 0, 0,0.0,0.0,0.0,0.0,0.0,0.0,0.0,0.0,0.0,0.0,0.0,0.0,0.0,140,tez-dag\src\main\java\org\apache\tez\dag\app\dag\TaskStateUpdateListener.java,0,0,0,0
org.apache.tez.dag.app.dag.TestStateChangeNotifier, 0, 0, 0, 0, 0, 0, 0, 0, 0, 0, 0, 0, 0, 0,0.0,0.0,0.0,0.0,0.0,0.0,0.0,0.0,0.0,0.0,0.0,0.0,0.0,178,tez-dag\src\test\java\org\apache\tez\dag\app\dag\TestStateChangeNotifier.java,0,0,0,0
org.apache.tez.dag.app.dag.VertexStateUpdateListener, 0, 0, 0, 0, 0, 0, 0, 0, 0, 0, 0, 0, 0, 0,0.0,0.0,0.0,0.0,0.0,0.0,0.0,0.0,0.0,0.0,0.0,0.0,0.0,178,tez-dag\src\main\java\org\apache\tez\dag\app\dag\VertexStateUpdateListener.java,0,0,0,0
org.apache.tez.dag.app.dag.event.DAGAppMasterEvent, 0, 0, 0, 0, 0, 1, 0, 0, 0, 0, 0, 0, 0, 1,0.0,0.0,0.0,0.0,0.0,0.0,0.0,0.0,0.0,0.0,0.0,0.0,0.0,5,tez-dag\src\main\java\org\apache\tez\dag\app\dag\event\DAGAppMasterEvent.java,0,0,0,0
org.apache.tez.dag.app.dag.event.DAGAppMasterEventDAGFinished, 0, 0, 0, 0, 0, 0, 0, 0, 0, 0, 0, 0, 0, 0,0.0,0.0,0.0,0.5,0.0,0.5,0.0,0.0,0.0,0.0,0.0,0.0,0.0,16,tez-dag\src\main\java\org\apache\tez\dag\app\dag\event\DAGAppMasterEventDAGFinished.java,0,0,0,0
org.apache.tez.dag.app.dag.event.DAGAppMasterEventSchedulingServiceError, 0, 0, 0, 0, 0, 0, 0, 0, 0, 0, 0, 0, 0, 0,0.0,0.0,0.0,0.0,0.0,1.0,0.0,0.0,0.0,0.0,0.0,0.0,0.0,10,tez-dag\src\main\java\org\apache\tez\dag\app\dag\event\DAGAppMasterEventSchedulingServiceError.java,0,0,0,0
org.apache.tez.dag.app.dag.event.DAGEvent, 0, 0, 0, 0, 0, 0, 0, 0, 0, 0, 0, 0, 0, 0,0.0,0.0,0.0,0.125,0.0,0.0,0.0,0.0,0.0,0.0,0.0,0.0,0.0,10,tez-dag\src\main\java\org\apache\tez\dag\app\dag\event\DAGEvent.java,0,0,0,0
org.apache.tez.dag.app.dag.event.DAGEventCounterUpdate, 0, 0, 0, 0, 0, 0, 0, 0, 0, 0, 0, 0, 0, 0,0.0,0.0,0.0,0.0,0.0,0.0,0.0,0.0,0.0,0.0,0.0,0.0,0.0,27,tez-dag\src\main\java\org\apache\tez\dag\app\dag\event\DAGEventCounterUpdate.java,0,0,0,0
org.apache.tez.dag.app.dag.event.DAGEventDiagnosticsUpdate, 0, 0, 0, 0, 0, 0, 0, 0, 0, 0, 0, 0, 0, 0,0.0,0.0,0.0,0.0,0.0,0.0,0.0,0.0,0.0,0.0,0.0,0.0,0.0,10,tez-dag\src\main\java\org\apache\tez\dag\app\dag\event\DAGEventDiagnosticsUpdate.java,0,0,0,0
org.apache.tez.dag.app.dag.event.DAGEventRecoverEvent, 0, 0, 0, 0, 0, 0, 0, 0, 0, 0, 0, 0, 0, 0,0.0,0.0,0.0,0.5,0.0,0.0,0.0,0.0,0.0,0.0,0.0,0.0,0.0,22,tez-dag\src\main\java\org\apache\tez\dag\app\dag\event\DAGEventRecoverEvent.java,0,0,0,0
org.apache.tez.dag.app.dag.event.DAGEventSchedulerUpdate, 0, 0, 0, 0, 0, 0, 0, 0, 0, 0, 0, 0, 0, 0,0.0,0.0,0.0,0.0,0.0,0.0,0.0,0.0,0.0,0.0,0.0,0.0,0.0,21,tez-dag\src\main\java\org\apache\tez\dag\app\dag\event\DAGEventSchedulerUpdate.java,0,0,0,0
org.apache.tez.dag.app.dag.event.DAGEventSchedulerUpdateTAAssigned, 0, 0, 0, 0, 0, 0, 0, 0, 0, 0, 0, 0, 0, 0,0.0,0.0,0.0,0.0,0.0,0.0,0.0,0.0,0.0,0.0,0.0,0.0,0.0,10,tez-dag\src\main\java\org\apache\tez\dag\app\dag\event\DAGEventSchedulerUpdateTAAssigned.java,0,0,0,0
org.apache.tez.dag.app.dag.event.DAGEventStartDag, 0, 0, 0, 0, 0, 0, 0, 0, 0, 0, 0, 0, 0, 0,0.0,0.0,0.0,0.0,0.0,0.0,0.0,0.0,0.0,0.0,0.0,0.0,0.0,9,tez-dag\src\main\java\org\apache\tez\dag\app\dag\event\DAGEventStartDag.java,0,0,0,0
org.apache.tez.dag.app.dag.event.DAGEventVertexCompleted, 0, 0, 0, 0, 0, 0, 0, 0, 0, 0, 0, 0, 0, 0,0.0,0.0,0.0,0.0,0.0,0.0,0.0,0.0,0.0,0.0,0.0,0.0,0.0,27,tez-dag\src\main\java\org\apache\tez\dag\app\dag\event\DAGEventVertexCompleted.java,0,0,0,0
org.apache.tez.dag.app.dag.event.DAGEventVertexReRunning, 0, 0, 0, 0, 0, 0, 0, 0, 0, 0, 0, 0, 0, 0,0.0,0.0,0.0,0.0,0.0,0.0,0.0,0.0,0.0,0.0,0.0,0.0,0.0,10,tez-dag\src\main\java\org\apache\tez\dag\app\dag\event\DAGEventVertexReRunning.java,0,0,0,0
org.apache.tez.dag.app.dag.event.DiagnosableEvent, 0, 0, 0, 0, 0, 0, 0, 0, 0, 0, 0, 0, 0, 0,0.0,0.0,0.0,0.0,0.0,0.0,0.0,0.0,0.0,0.0,0.0,0.0,0.0,10,tez-dag\src\main\java\org\apache\tez\dag\app\dag\event\DiagnosableEvent.java,0,0,0,0
org.apache.tez.dag.app.dag.event.SpeculatorEvent, 0, 0, 0, 0, 0, 0, 0, 0, 0, 0, 0, 0, 0, 0,0.0,0.0,0.0,0.0,0.0,0.0,0.0,0.0,0.0,0.0,0.0,0.0,0.0,10,tez-dag\src\main\java\org\apache\tez\dag\app\dag\event\SpeculatorEvent.java,0,0,0,0
org.apache.tez.dag.app.dag.event.SpeculatorEventTaskAttemptStatusUpdate, 0, 0, 0, 0, 0, 0, 0, 0, 0, 0, 0, 0, 0, 0,0.0,0.0,0.0,0.0,0.0,0.0,0.0,0.0,0.0,0.0,0.0,0.0,0.0,30,tez-dag\src\main\java\org\apache\tez\dag\app\dag\event\SpeculatorEventTaskAttemptStatusUpdate.java,0,0,0,0
org.apache.tez.dag.app.dag.event.TaskAttemptEvent, 0, 0, 0, 0, 0, 0, 0, 0, 0, 0, 0, 0, 0, 0,0.0,0.0,0.0,0.0,0.0,0.0,0.0,0.0,0.0,0.0,0.0,0.0,0.0,10,tez-dag\src\main\java\org\apache\tez\dag\app\dag\event\TaskAttemptEvent.java,0,0,0,0
org.apache.tez.dag.app.dag.event.TaskAttemptEventAttemptFailed, 0, 0, 0, 0, 0, 0, 0, 0, 0, 0, 0, 0, 0, 0,0.0,0.0,0.0,0.0,0.0,0.0,0.0,0.0,0.0,0.0,0.0,0.0,0.0,19,tez-dag\src\main\java\org\apache\tez\dag\app\dag\event\TaskAttemptEventAttemptFailed.java,0,0,0,0
org.apache.tez.dag.app.dag.event.TaskAttemptEventContainerTerminated, 0, 0, 0, 0, 0, 0, 0, 0, 0, 0, 0, 0, 0, 0,0.0,0.0,0.0,0.0,0.0,0.0,0.0,0.0,0.0,0.0,0.0,0.0,0.0,19,tez-dag\src\main\java\org\apache\tez\dag\app\dag\event\TaskAttemptEventContainerTerminated.java,0,0,0,0
org.apache.tez.dag.app.dag.event.TaskAttemptEventContainerTerminatedBySystem, 0, 0, 0, 0, 0, 0, 0, 0, 0, 0, 0, 0, 0, 0,0.0,0.0,0.0,0.0,0.0,0.0,0.0,0.0,0.0,0.0,0.0,0.0,0.0,19,tez-dag\src\main\java\org\apache\tez\dag\app\dag\event\TaskAttemptEventContainerTerminatedBySystem.java,0,0,0,0
org.apache.tez.dag.app.dag.event.TaskAttemptEventContainerTerminating, 0, 0, 0, 0, 0, 0, 0, 0, 0, 0, 0, 0, 0, 0,0.0,0.0,0.0,0.0,0.0,0.0,0.0,0.0,0.0,0.0,0.0,0.0,0.0,19,tez-dag\src\main\java\org\apache\tez\dag\app\dag\event\TaskAttemptEventContainerTerminating.java,0,0,0,0
org.apache.tez.dag.app.dag.event.TaskAttemptEventDiagnosticsUpdate, 0, 0, 0, 0, 0, 0, 0, 0, 0, 0, 0, 0, 0, 0,0.0,0.0,0.0,0.0,0.0,0.0,0.0,0.0,0.0,0.0,0.0,0.0,0.0,11,tez-dag\src\main\java\org\apache\tez\dag\app\dag\event\TaskAttemptEventDiagnosticsUpdate.java,0,0,0,0
org.apache.tez.dag.app.dag.event.TaskAttemptEventKillRequest, 0, 0, 0, 0, 0, 0, 0, 0, 0, 0, 0, 0, 0, 0,0.0,0.0,0.0,0.0,0.0,0.0,0.0,0.0,0.0,0.0,0.0,0.0,0.0,18,tez-dag\src\main\java\org\apache\tez\dag\app\dag\event\TaskAttemptEventKillRequest.java,0,0,0,0
org.apache.tez.dag.app.dag.event.TaskAttemptEventNodeFailed, 0, 0, 0, 0, 0, 0, 0, 0, 0, 0, 0, 0, 0, 0,0.0,0.0,0.0,0.0,0.0,0.0,0.0,0.0,0.0,0.0,0.0,0.0,0.0,19,tez-dag\src\main\java\org\apache\tez\dag\app\dag\event\TaskAttemptEventNodeFailed.java,0,0,0,0
org.apache.tez.dag.app.dag.event.TaskAttemptEventOutputFailed, 0, 0, 0, 0, 0, 0, 0, 0, 0, 0, 0, 0, 0, 0,0.0,0.0,0.0,0.0,0.0,0.0,0.0,0.0,0.0,0.0,0.0,0.0,0.0,21,tez-dag\src\main\java\org\apache\tez\dag\app\dag\event\TaskAttemptEventOutputFailed.java,0,0,0,0
org.apache.tez.dag.app.dag.event.TaskAttemptEventSchedule, 0, 0, 0, 0, 0, 0, 0, 0, 0, 0, 0, 0, 0, 0,0.0,0.0,0.0,0.0,0.0,0.0,0.0,0.0,0.0,0.0,0.0,0.0,0.0,15,tez-dag\src\main\java\org\apache\tez\dag\app\dag\event\TaskAttemptEventSchedule.java,0,0,0,0
org.apache.tez.dag.app.dag.event.TaskAttemptEventStatusUpdate, 0, 0, 0, 0, 0, 0, 0, 0, 0, 0, 0, 0, 0, 0,0.0,0.0,0.0,0.0,0.0,0.0,0.0,0.0,0.0,0.0,0.0,0.0,0.0,11,tez-dag\src\main\java\org\apache\tez\dag\app\dag\event\TaskAttemptEventStatusUpdate.java,0,0,0,0
org.apache.tez.dag.app.dag.event.TaskAttemptEventTerminationCauseEvent, 0, 0, 0, 0, 0, 0, 0, 0, 0, 0, 0, 0, 0, 0,0.0,0.0,0.0,0.0,0.0,0.0,0.0,0.0,0.0,0.0,0.0,0.0,0.0,11,tez-dag\src\main\java\org\apache\tez\dag\app\dag\event\TaskAttemptEventTerminationCauseEvent.java,0,0,0,0
org.apache.tez.dag.app.dag.event.TaskEvent, 0, 0, 0, 0, 0, 0, 0, 0, 0, 0, 0, 0, 0, 0,0.0,0.0,0.0,0.2,0.0,0.0,0.0,0.0,0.0,0.0,0.0,0.0,0.0,10,tez-dag\src\main\java\org\apache\tez\dag\app\dag\event\TaskEvent.java,0,0,0,0
org.apache.tez.dag.app.dag.event.TaskEventRecoverTask, 0, 0, 0, 0, 0, 0, 0, 0, 0, 0, 0, 0, 0, 0,0.0,0.0,0.0,0.0,0.0,0.0,0.0,0.0,0.0,0.0,0.0,0.0,0.0,22,tez-dag\src\main\java\org\apache\tez\dag\app\dag\event\TaskEventRecoverTask.java,0,0,0,0
org.apache.tez.dag.app.dag.event.TaskEventTAUpdate, 0, 0, 0, 0, 0, 0, 0, 0, 0, 0, 0, 0, 0, 0,0.0,0.0,0.0,0.0,0.0,0.0,0.0,0.0,0.0,0.0,0.0,0.0,0.0,10,tez-dag\src\main\java\org\apache\tez\dag\app\dag\event\TaskEventTAUpdate.java,0,0,0,0
org.apache.tez.dag.app.dag.event.TaskEventTermination, 0, 0, 0, 0, 0, 0, 0, 0, 0, 0, 0, 0, 0, 0,0.0,0.0,0.0,0.0,0.0,0.0,0.0,0.0,0.0,0.0,0.0,0.0,0.0,22,tez-dag\src\main\java\org\apache\tez\dag\app\dag\event\TaskEventTermination.java,0,0,0,0
org.apache.tez.dag.app.dag.event.VertexEvent, 0, 0, 0, 0, 0, 0, 0, 0, 0, 0, 0, 0, 0, 0,0.0,0.0,0.0,0.0,0.0,0.0,0.0,0.06666666666666667,0.0,0.0,0.0,0.0,0.0,10,tez-dag\src\main\java\org\apache\tez\dag\app\dag\event\VertexEvent.java,0,0,0,0
org.apache.tez.dag.app.dag.event.VertexEventManagerUserCodeError, 0, 0, 0, 0, 0, 0, 0, 0, 0, 0, 0, 0, 0, 0,0.0,0.0,0.0,0.25,0.0,0.0,0.0,0.0,0.0,0.0,0.0,0.0,0.0,10,tez-dag\src\main\java\org\apache\tez\dag\app\dag\event\VertexEventManagerUserCodeError.java,0,0,0,0
org.apache.tez.dag.app.dag.event.VertexEventNullEdgeInitialized, 0, 0, 0, 0, 0, 0, 0, 0, 0, 0, 0, 0, 0, 0,0.0,0.0,0.0,0.0,0.0,0.0,0.0,0.0,0.0,0.0,0.0,0.0,0.0,15,tez-dag\src\main\java\org\apache\tez\dag\app\dag\event\VertexEventNullEdgeInitialized.java,0,0,0,0
org.apache.tez.dag.app.dag.event.VertexEventOneToOneSourceSplit, 0, 0, 0, 0, 0, 0, 0, 0, 0, 0, 0, 0, 0, 0,0.0,0.0,0.0,0.0,0.0,0.0,0.0,0.0,0.0,0.0,0.0,0.0,0.0,23,tez-dag\src\main\java\org\apache\tez\dag\app\dag\event\VertexEventOneToOneSourceSplit.java,25,0,0,25
org.apache.tez.dag.app.dag.event.VertexEventRecoverVertex, 0, 0, 0, 0, 0, 0, 0, 0, 0, 0, 0, 0, 0, 0,0.0,0.0,0.0,0.5,0.0,0.0,0.0,0.0,0.0,0.0,0.0,0.0,0.0,10,tez-dag\src\main\java\org\apache\tez\dag\app\dag\event\VertexEventRecoverVertex.java,0,0,0,0
org.apache.tez.dag.app.dag.event.VertexEventRootInputFailed, 0, 0, 0, 0, 0, 0, 0, 0, 0, 0, 0, 0, 0, 0,0.0,0.0,0.0,0.0,0.0,0.0,0.0,0.0,0.0,0.0,0.0,0.0,0.0,15,tez-dag\src\main\java\org\apache\tez\dag\app\dag\event\VertexEventRootInputFailed.java,0,0,0,0
org.apache.tez.dag.app.dag.event.VertexEventRootInputInitialized, 0, 0, 0, 0, 0, 0, 0, 0, 0, 0, 0, 0, 0, 0,0.0,0.0,0.0,0.0,0.0,0.0,0.0,0.0,0.0,0.0,0.0,0.0,0.0,19,tez-dag\src\main\java\org\apache\tez\dag\app\dag\event\VertexEventRootInputInitialized.java,0,0,0,0
org.apache.tez.dag.app.dag.event.VertexEventRouteEvent, 0, 0, 0, 0, 0, 0, 0, 0, 0, 0, 0, 0, 0, 0,0.0,0.0,0.0,0.0,0.0,0.0,0.0,0.0,0.0,0.0,0.0,0.0,0.0,19,tez-dag\src\main\java\org\apache\tez\dag\app\dag\event\VertexEventRouteEvent.java,0,0,0,0
org.apache.tez.dag.app.dag.event.VertexEventSourceTaskAttemptCompleted, 0, 0, 0, 0, 0, 0, 0, 0, 0, 0, 0, 0, 0, 0,0.0,0.0,0.0,0.0,0.0,0.0,0.0,0.0,0.0,0.0,0.0,0.0,0.0,13,tez-dag\src\main\java\org\apache\tez\dag\app\dag\event\VertexEventSourceTaskAttemptCompleted.java,0,0,0,0
org.apache.tez.dag.app.dag.event.VertexEventSourceVertexRecovered, 0, 0, 0, 0, 0, 0, 0, 1, 0, 0, 0, 0, 0, 1,0.0,0.0,0.0,0.0,0.0,0.0,0.0,0.0,0.0,0.0,0.0,0.0,0.0,29,tez-dag\src\main\java\org\apache\tez\dag\app\dag\event\VertexEventSourceVertexRecovered.java,0,0,0,0
org.apache.tez.dag.app.dag.event.VertexEventSourceVertexStarted, 0, 0, 0, 0, 0, 0, 0, 0, 0, 0, 0, 0, 0, 0,0.0,0.0,0.0,0.0,0.0,0.0,0.0,0.0,0.0,0.0,0.0,0.0,0.0,17,tez-dag\src\main\java\org\apache\tez\dag\app\dag\event\VertexEventSourceVertexStarted.java,0,0,0,0
org.apache.tez.dag.app.dag.event.VertexEventTaskAttemptCompleted, 0, 0, 0, 0, 0, 0, 0, 0, 0, 0, 0, 0, 0, 0,0.0,0.0,0.0,0.0,0.0,0.0,0.0,0.0,0.0,0.0,0.0,0.0,0.0,17,tez-dag\src\main\java\org\apache\tez\dag\app\dag\event\VertexEventTaskAttemptCompleted.java,0,0,0,0
org.apache.tez.dag.app.dag.event.VertexEventTaskCompleted, 0, 0, 0, 0, 0, 0, 0, 0, 0, 0, 0, 0, 0, 0,0.0,0.0,0.0,0.0,0.0,0.0,0.0,0.0,0.0,0.0,0.0,0.0,0.0,15,tez-dag\src\main\java\org\apache\tez\dag\app\dag\event\VertexEventTaskCompleted.java,0,0,0,0
org.apache.tez.dag.app.dag.event.VertexEventTaskReschedule, 0, 0, 0, 0, 0, 0, 0, 0, 0, 0, 0, 0, 0, 0,0.0,0.0,0.0,0.0,0.0,0.0,0.0,0.0,0.0,0.0,0.0,0.0,0.0,10,tez-dag\src\main\java\org\apache\tez\dag\app\dag\event\VertexEventTaskReschedule.java,0,0,0,0
org.apache.tez.dag.app.dag.event.VertexEventTermination, 0, 0, 0, 0, 0, 0, 0, 0, 0, 0, 0, 0, 0, 0,0.0,0.0,0.0,0.0,0.0,0.0,0.0,0.0,0.0,0.0,0.0,0.0,0.0,10,tez-dag\src\main\java\org\apache\tez\dag\app\dag\event\VertexEventTermination.java,0,0,0,0
org.apache.tez.dag.app.dag.impl.AMUserCodeException, 0, 0, 0, 0, 0, 0, 0, 0, 0, 0, 0, 0, 0, 0,0.0,0.0,0.0,0.3333333333333333,0.0,0.0,0.0,0.0,0.0,0.0,0.0,0.0,0.0,20,tez-dag\src\main\java\org\apache\tez\dag\app\dag\impl\AMUserCodeException.java,0,0,0,0
org.apache.tez.dag.app.dag.impl.DAGSchedulerNaturalOrder, 0, 0, 0, 0, 0, 0, 0, 0, 0, 0, 0, 0, 0, 0,0.0,0.0,0.0,0.0,0.0,0.0,0.0,0.0,0.0,0.0,0.0,0.0,0.0,38,tez-dag\src\main\java\org\apache\tez\dag\app\dag\impl\DAGSchedulerNaturalOrder.java,0,0,0,0
org.apache.tez.dag.app.dag.impl.OutputCommitterContextImpl, 0, 0, 0, 0, 0, 0, 0, 1, 0, 0, 0, 0, 0, 1,0.0,0.0,0.0,0.0,0.0,0.0,0.0,0.0,0.0,0.0,0.0,0.0,0.0,57,tez-dag\src\main\java\org\apache\tez\dag\app\dag\impl\OutputCommitterContextImpl.java,0,0,0,0
org.apache.tez.dag.app.dag.impl.TaskAttemptImplHelpers, 0, 0, 0, 0, 0, 0, 0, 0, 0, 0, 0, 0, 0, 0,0.0,0.0,0.0,0.0,0.0,0.0,0.0,0.0,0.0,0.0,0.0,0.0,0.0,30,tez-dag\src\main\java\org\apache\tez\dag\app\dag\impl\TaskAttemptImplHelpers.java,0,0,0,0
org.apache.tez.dag.app.dag.impl.TaskReportImpl, 0, 0, 0, 0, 0, 0, 0, 1, 0, 0, 0, 0, 0, 1,0.0,0.0,0.0,0.0,0.0,0.0,0.0,0.0,0.0,0.0,0.0,0.0,0.0,57,tez-dag\src\main\java\org\apache\tez\dag\app\dag\impl\TaskReportImpl.java,0,0,0,0
org.apache.tez.dag.app.dag.impl.TestDAGRecovery, 0, 0, 0, 1, 0, 0, 0, 0, 0, 0, 0, 0, 0, 1,0.0,0.0,0.0,0.0,0.0,0.0,0.0,0.0,0.0,0.0,0.0,0.0,0.0,335,tez-dag\src\test\java\org\apache\tez\dag\app\dag\impl\TestDAGRecovery.java,0,0,1,2
org.apache.tez.dag.app.dag.impl.TestDAGScheduler, 0, 0, 0, 0, 0, 0, 0, 0, 0, 0, 0, 0, 0, 0,0.0,0.0,0.0,0.0,0.0,0.0,0.0,0.0,0.0,0.0,0.0,0.0,0.0,32,tez-dag\src\test\java\org\apache\tez\dag\app\dag\impl\TestDAGScheduler.java,0,0,0,0
org.apache.tez.dag.app.dag.impl.TestRootInputVertexManager, 0, 0, 0, 0, 0, 0, 0, 0, 0, 0, 0, 0, 0, 0,0.0,0.0,0.0,0.0,0.0,0.0,0.0,0.0,0.0,0.0,0.0,0.0,0.0,54,tez-dag\src\test\java\org\apache\tez\dag\app\dag\impl\TestRootInputVertexManager.java,0,0,0,0
org.apache.tez.dag.app.dag.impl.TestTaskAttemptRecovery, 0, 0, 0, 0, 0, 0, 0, 0, 0, 0, 0, 0, 0, 0,0.0,0.0,0.0,0.0,0.0,0.0,0.0,0.4,0.0,0.0,0.0,0.0,0.0,130,tez-dag\src\test\java\org\apache\tez\dag\app\dag\impl\TestTaskAttemptRecovery.java,0,68,2,72
org.apache.tez.dag.app.dag.impl.TestVertexRecovery, 0, 0, 0, 1, 0, 0, 0, 0, 0, 0, 0, 0, 0, 1,0.0,0.0,0.0,0.0,0.0,0.0,0.0,0.0,0.0,0.0,0.0,0.0,0.0,684,tez-dag\src\test\java\org\apache\tez\dag\app\dag\impl\TestVertexRecovery.java,0,102,0,102
org.apache.tez.dag.app.dag.impl.TestVertexStats, 0, 0, 0, 0, 0, 0, 0, 0, 0, 0, 0, 0, 0, 0,0.0,0.0,0.0,0.0,0.0,0.0,0.0,0.3333333333333333,0.0,0.0,0.0,0.0,0.0,123,tez-dag\src\test\java\org\apache\tez\dag\app\dag\impl\TestVertexStats.java,0,0,0,0
org.apache.tez.dag.app.dag.impl.TezRootInputInitializerContextImpl, 0, 0, 0, 0, 0, 0, 0, 0, 0, 0, 0, 0, 0, 0,0.0,0.0,0.0,0.0,0.0,0.0,0.0,0.0,0.0,0.0,0.0,0.0,0.0,68,tez-dag\src\main\java\org\apache\tez\dag\app\dag\impl\TezRootInputInitializerContextImpl.java,0,0,0,0
org.apache.tez.dag.app.dag.speculation.legacy.DataStatistics, 0, 0, 0, 0, 0, 0, 0, 0, 0, 0, 0, 0, 0, 0,0.0,0.0,0.0,0.0,0.0,0.0,0.0,0.0,0.0,0.0,0.0,0.0,0.0,47,tez-dag\src\main\java\org\apache\tez\dag\app\dag\speculation\legacy\DataStatistics.java,0,0,0,0
org.apache.tez.dag.app.dag.speculation.legacy.TaskRuntimeEstimator, 0, 0, 0, 0, 0, 0, 0, 0, 0, 0, 0, 0, 0, 0,0.0,0.0,0.0,0.0,0.0,0.0,0.0,0.0,0.0,0.0,0.0,0.0,0.0,47,tez-dag\src\main\java\org\apache\tez\dag\app\dag\speculation\legacy\TaskRuntimeEstimator.java,0,0,0,0
org.apache.tez.dag.app.dag.speculation.legacy.TestDataStatistics, 0, 0, 0, 0, 0, 0, 0, 0, 0, 0, 0, 0, 0, 0,0.0,0.0,0.0,0.0,0.0,0.0,0.0,0.0,0.0,0.0,0.0,0.0,0.0,44,tez-dag\src\test\java\org\apache\tez\dag\app\dag\speculation\legacy\TestDataStatistics.java,0,0,0,0
org.apache.tez.dag.app.launcher.ContainerLauncher, 0, 0, 0, 0, 0, 0, 0, 0, 0, 0, 0, 0, 0, 0,0.0,0.0,0.0,0.0,0.0,0.0,0.0,0.0,0.0,0.0,0.0,0.0,0.0,44,tez-dag\src\main\java\org\apache\tez\dag\app\launcher\ContainerLauncher.java,0,0,0,0
org.apache.tez.dag.app.rm.AMSchedulerEvent, 0, 0, 0, 0, 0, 1, 0, 0, 0, 0, 0, 0, 0, 1,0.0,0.0,0.0,0.0,0.0,0.0,0.0,0.25,0.0,0.0,0.0,0.0,0.0,5,tez-dag\src\main\java\org\apache\tez\dag\app\rm\AMSchedulerEvent.java,0,0,0,0
org.apache.tez.dag.app.rm.AMSchedulerEventDeallocateContainer, 0, 0, 0, 0, 0, 0, 0, 0, 0, 0, 0, 0, 0, 0,0.0,0.0,0.0,0.0,0.0,1.0,0.0,0.0,0.0,0.0,0.0,0.0,0.0,10,tez-dag\src\main\java\org\apache\tez\dag\app\rm\AMSchedulerEventDeallocateContainer.java,0,0,0,0
org.apache.tez.dag.app.rm.AMSchedulerEventNodeBlacklistUpdate, 0, 0, 0, 0, 0, 0, 0, 0, 0, 0, 0, 0, 0, 0,0.0,0.0,0.0,0.0,0.0,0.3333333333333333,0.0,0.3333333333333333,0.0,0.0,0.0,0.0,0.0,11,tez-dag\src\main\java\org\apache\tez\dag\app\rm\AMSchedulerEventNodeBlacklistUpdate.java,0,0,0,0
org.apache.tez.dag.app.rm.AMSchedulerEventTAEnded, 0, 0, 0, 0, 0, 0, 0, 0, 0, 0, 0, 0, 0, 0,0.0,0.0,0.0,0.0,0.0,0.5,0.0,0.0,0.0,0.0,0.0,0.0,0.0,24,tez-dag\src\main\java\org\apache\tez\dag\app\rm\AMSchedulerEventTAEnded.java,0,0,0,0
org.apache.tez.dag.app.rm.AMSchedulerEventTALaunchRequest, 0, 0, 0, 0, 0, 0, 0, 1, 0, 0, 0, 0, 0, 1,0.0,0.0,0.0,0.0,0.0,0.25,0.0,0.0,0.0,0.0,0.0,0.0,0.0,44,tez-dag\src\main\java\org\apache\tez\dag\app\rm\AMSchedulerEventTALaunchRequest.java,0,0,0,0
org.apache.tez.dag.app.rm.ContainerAllocator, 0, 0, 0, 0, 0, 0, 0, 0, 0, 0, 0, 0, 0, 0,0.0,0.0,0.0,0.0,0.0,0.0,0.0,0.0,0.0,0.0,0.0,0.0,0.0,44,tez-dag\src\main\java\org\apache\tez\dag\app\rm\ContainerAllocator.java,0,0,0,0
org.apache.tez.dag.app.rm.NMCommunicatorEvent, 0, 0, 0, 0, 0, 0, 0, 0, 0, 0, 0, 0, 0, 0,0.0,0.0,0.0,0.0,0.0,0.5,0.0,0.0,0.0,0.0,0.0,0.0,0.0,62,tez-dag\src\main\java\org\apache\tez\dag\app\rm\NMCommunicatorEvent.java,0,0,0,0
org.apache.tez.dag.app.rm.NMCommunicatorLaunchRequestEvent, 0, 0, 0, 0, 0, 0, 0, 0, 0, 0, 0, 0, 0, 0,0.0,0.0,0.0,0.0,0.0,0.0,0.0,0.0,0.0,0.0,0.0,0.0,0.0,17,tez-dag\src\main\java\org\apache\tez\dag\app\rm\NMCommunicatorLaunchRequestEvent.java,0,0,0,0
org.apache.tez.dag.app.rm.NMCommunicatorStopRequestEvent, 0, 0, 0, 0, 0, 1, 0, 0, 0, 0, 0, 0, 0, 1,0.0,0.0,0.0,0.0,0.0,0.0,0.0,0.0,0.0,0.0,0.0,0.0,0.0,7,tez-dag\src\main\java\org\apache\tez\dag\app\rm\NMCommunicatorStopRequestEvent.java,0,0,0,0
org.apache.tez.dag.app.rm.TestTaskSchedulerEventHandler, 0, 0, 0, 0, 0, 0, 0, 0, 0, 0, 0, 0, 0, 0,0.0,0.0,0.0,0.0,0.0,0.0,0.0,0.4,0.0,0.0,0.0,0.0,0.0,165,tez-dag\src\test\java\org\apache\tez\dag\app\rm\TestTaskSchedulerEventHandler.java,0,35,4,43
org.apache.tez.dag.app.rm.TestTezAMRMClient, 0, 0, 0, 0, 0, 0, 0, 0, 0, 0, 0, 0, 0, 0,0.0,0.0,0.0,0.0,0.0,0.0,0.0,0.0,0.0,0.0,0.0,0.0,0.0,46,tez-dag\src\test\java\org\apache\tez\dag\app\rm\TestTezAMRMClient.java,0,0,0,0
org.apache.tez.dag.app.rm.container.AMContainer, 0, 0, 0, 0, 0, 0, 0, 0, 0, 0, 0, 0, 0, 0,0.0,0.0,0.0,0.0,0.0,0.0,0.0,0.0,0.0,0.0,0.0,0.0,0.0,46,tez-dag\src\main\java\org\apache\tez\dag\app\rm\container\AMContainer.java,0,0,0,0
org.apache.tez.dag.app.rm.container.AMContainerEvent, 0, 0, 0, 0, 0, 0, 0, 0, 0, 0, 0, 0, 0, 0,0.0,0.0,0.0,0.0,0.0,0.18181818181818182,0.0,0.0,0.0,0.0,0.0,0.0,0.0,10,tez-dag\src\main\java\org\apache\tez\dag\app\rm\container\AMContainerEvent.java,0,0,0,0
org.apache.tez.dag.app.rm.container.AMContainerEventCompleted, 0, 0, 0, 0, 0, 0, 0, 0, 0, 0, 0, 0, 0, 0,0.0,0.0,0.0,0.0,0.0,0.0,0.0,0.0,0.0,0.0,0.0,0.0,0.0,30,tez-dag\src\main\java\org\apache\tez\dag\app\rm\container\AMContainerEventCompleted.java,0,1,2,5
org.apache.tez.dag.app.rm.container.AMContainerEventLaunchFailed, 0, 0, 0, 0, 0, 0, 0, 0, 0, 0, 0, 0, 0, 0,0.0,0.0,0.0,0.0,0.0,0.0,0.0,0.0,0.0,0.0,0.0,0.0,0.0,11,tez-dag\src\main\java\org\apache\tez\dag\app\rm\container\AMContainerEventLaunchFailed.java,0,0,0,0
org.apache.tez.dag.app.rm.container.AMContainerEventLaunchRequest, 0, 0, 0, 0, 0, 0, 0, 0, 0, 0, 0, 0, 0, 0,0.0,0.0,0.0,0.0,0.0,0.0,0.0,0.0,0.0,0.0,0.0,0.0,0.0,19,tez-dag\src\main\java\org\apache\tez\dag\app\rm\container\AMContainerEventLaunchRequest.java,0,0,0,0
org.apache.tez.dag.app.rm.container.AMContainerEventLaunched, 0, 0, 0, 0, 0, 1, 0, 0, 0, 0, 0, 0, 0, 1,0.0,0.0,0.0,0.0,0.0,0.0,0.0,0.0,0.0,0.0,0.0,0.0,0.0,5,tez-dag\src\main\java\org\apache\tez\dag\app\rm\container\AMContainerEventLaunched.java,0,0,0,0
org.apache.tez.dag.app.rm.container.AMContainerEventNodeFailed, 0, 0, 0, 0, 0, 0, 0, 0, 0, 0, 0, 0, 0, 0,0.0,0.0,0.0,0.0,0.0,0.0,0.0,0.5,0.0,0.0,0.0,0.0,0.0,12,tez-dag\src\main\java\org\apache\tez\dag\app\rm\container\AMContainerEventNodeFailed.java,0,0,0,0
org.apache.tez.dag.app.rm.container.AMContainerEventStopFailed, 0, 0, 0, 0, 0, 0, 0, 0, 0, 0, 0, 0, 0, 0,0.0,0.0,0.0,0.0,0.0,0.0,0.0,0.0,0.0,0.0,0.0,0.0,0.0,10,tez-dag\src\main\java\org\apache\tez\dag\app\rm\container\AMContainerEventStopFailed.java,0,0,0,0
org.apache.tez.dag.app.rm.container.AMContainerEventStopRequest, 0, 0, 0, 0, 0, 1, 0, 0, 0, 0, 0, 0, 0, 1,0.0,0.0,0.0,0.0,0.0,0.0,0.0,0.0,0.0,0.0,0.0,0.0,0.0,5,tez-dag\src\main\java\org\apache\tez\dag\app\rm\container\AMContainerEventStopRequest.java,0,0,0,0
org.apache.tez.dag.app.rm.container.AMContainerEventTASucceeded, 0, 0, 0, 0, 0, 0, 0, 0, 0, 0, 0, 0, 0, 0,0.0,0.0,0.0,0.0,0.0,0.0,0.0,0.0,0.0,0.0,0.0,0.0,0.0,11,tez-dag\src\main\java\org\apache\tez\dag\app\rm\container\AMContainerEventTASucceeded.java,0,0,0,0
org.apache.tez.dag.app.rm.container.TestAMContainerMap, 0, 0, 0, 0, 0, 0, 0, 0, 0, 0, 0, 0, 0, 0,0.0,0.0,0.0,0.0,0.0,0.0,0.0,0.0,0.0,0.0,0.0,0.0,0.0,27,tez-dag\src\test\java\org\apache\tez\dag\app\rm\container\TestAMContainerMap.java,0,0,0,0
org.apache.tez.dag.app.rm.node.AMNode, 0, 0, 0, 0, 0, 0, 0, 0, 0, 0, 0, 0, 0, 0,0.0,0.0,0.0,0.0,0.0,0.0,0.0,0.0,0.0,0.0,0.0,0.0,0.0,27,tez-dag\src\main\java\org\apache\tez\dag\app\rm\node\AMNode.java,0,0,0,0
org.apache.tez.dag.app.rm.node.AMNodeEvent, 0, 0, 0, 0, 0, 0, 0, 0, 0, 0, 0, 0, 0, 0,0.0,0.0,0.0,0.0,0.0,0.0,0.0,0.16666666666666666,0.0,0.0,0.0,0.0,0.0,10,tez-dag\src\main\java\org\apache\tez\dag\app\rm\node\AMNodeEvent.java,0,0,0,0
org.apache.tez.dag.app.rm.node.AMNodeEventContainerAllocated, 0, 0, 0, 0, 0, 0, 0, 0, 0, 0, 0, 0, 0, 0,0.0,0.0,0.0,0.0,0.0,0.0,0.0,0.0,0.0,0.0,0.0,0.0,0.0,10,tez-dag\src\main\java\org\apache\tez\dag\app\rm\node\AMNodeEventContainerAllocated.java,0,0,0,0
org.apache.tez.dag.app.rm.node.AMNodeEventNodeCountUpdated, 0, 0, 0, 0, 0, 0, 0, 0, 0, 0, 0, 0, 0, 0,0.0,0.0,0.0,0.0,0.0,0.0,0.0,0.0,0.0,0.0,0.0,0.0,0.0,10,tez-dag\src\main\java\org\apache\tez\dag\app\rm\node\AMNodeEventNodeCountUpdated.java,0,0,0,0
org.apache.tez.dag.app.rm.node.AMNodeEventStateChanged, 0, 0, 0, 0, 0, 0, 0, 0, 0, 0, 0, 0, 0, 0,0.0,0.0,0.0,0.0,0.0,0.0,0.0,0.0,0.0,0.0,0.0,0.0,0.0,13,tez-dag\src\main\java\org\apache\tez\dag\app\rm\node\AMNodeEventStateChanged.java,0,0,0,0
org.apache.tez.dag.app.rm.node.AMNodeEventTaskAttemptEnded, 0, 0, 0, 0, 0, 0, 0, 0, 0, 0, 0, 0, 0, 0,0.0,0.0,0.0,0.0,0.0,0.0,0.0,0.0,0.0,0.0,0.0,0.0,0.0,24,tez-dag\src\main\java\org\apache\tez\dag\app\rm\node\AMNodeEventTaskAttemptEnded.java,0,0,0,0
org.apache.tez.dag.app.rm.node.AMNodeEventTaskAttemptSucceeded, 0, 0, 0, 0, 0, 0, 0, 0, 0, 0, 0, 0, 0, 0,0.0,0.0,0.0,0.0,0.0,0.0,0.0,0.0,0.0,0.0,0.0,0.0,0.0,16,tez-dag\src\main\java\org\apache\tez\dag\app\rm\node\AMNodeEventTaskAttemptSucceeded.java,0,0,0,0
org.apache.tez.dag.app.rm.node.AMNodeImpl, 0, 0, 0, 0, 0, 0, 0, 1, 0, 0, 0, 0, 0, 1,0.0,0.0,0.0,0.0,0.0,0.0,0.0,0.0,0.0,0.0,0.0,0.0,0.0,348,tez-dag\src\main\java\org\apache\tez\dag\app\rm\node\AMNodeImpl.java,0,0,0,0
org.apache.tez.dag.app.rm.node.TestAMNodeTracker, 0, 0, 0, 0, 0, 0, 0, 0, 0, 0, 0, 0, 0, 0,0.0,0.0,0.0,0.0,0.0,0.0,0.0,0.125,0.0,0.0,0.0,0.0,0.0,231,tez-dag\src\test\java\org\apache\tez\dag\app\rm\node\TestAMNodeTracker.java,0,0,0,0
org.apache.tez.dag.app.security.authorize.TezAMPolicyProvider, 0, 0, 0, 0, 0, 0, 0, 0, 0, 0, 0, 0, 0, 0,0.0,0.0,0.0,0.0,0.0,0.0,0.0,0.0,0.0,0.0,0.0,0.0,0.0,15,tez-dag\src\main\java\org\apache\tez\dag\app\security\authorize\TezAMPolicyProvider.java,0,0,0,0
org.apache.tez.dag.history.DAGHistoryEvent, 0, 0, 0, 0, 0, 0, 0, 0, 0, 0, 0, 0, 0, 0,0.0,0.0,0.0,0.0,0.0,0.0,0.0,0.0,0.0,0.0,0.0,0.0,0.0,18,tez-dag\src\main\java\org\apache\tez\dag\history\DAGHistoryEvent.java,0,0,0,0
org.apache.tez.dag.history.HistoryEvent, 0, 0, 0, 0, 0, 0, 0, 0, 0, 0, 0, 0, 0, 0,0.0,0.0,0.0,0.0,0.0,0.0,0.0,0.0,0.0,0.0,0.0,0.0,0.0,18,tez-dag\src\main\java\org\apache\tez\dag\history\HistoryEvent.java,0,0,0,0
org.apache.tez.dag.history.HistoryEventHandler, 0, 0, 0, 0, 0, 0, 0, 0, 0, 0, 0, 0, 0, 0,0.0,0.0,0.0,0.0,0.0,0.0,0.0,0.0,0.0,0.0,0.0,0.0,0.0,75,tez-dag\src\main\java\org\apache\tez\dag\history\HistoryEventHandler.java,0,0,0,0
org.apache.tez.dag.history.SummaryEvent, 0, 0, 0, 0, 0, 0, 0, 0, 0, 0, 0, 0, 0, 0,0.0,0.0,0.0,0.0,0.0,0.0,0.0,0.0,0.0,0.0,0.0,0.0,0.0,75,tez-dag\src\main\java\org\apache\tez\dag\history\SummaryEvent.java,0,0,0,0
org.apache.tez.dag.history.events.AMLaunchedEvent, 0, 0, 0, 0, 0, 0, 0, 0, 0, 0, 0, 0, 0, 0,0.0,0.0,0.0,0.0,0.0,0.0,0.0,0.0,0.0,0.0,0.0,0.0,0.0,70,tez-dag\src\main\java\org\apache\tez\dag\history\events\AMLaunchedEvent.java,0,0,0,0
org.apache.tez.dag.history.events.AMStartedEvent, 0, 0, 0, 0, 0, 0, 0, 0, 0, 0, 0, 0, 0, 0,0.0,0.0,0.0,0.0,0.0,0.0,0.0,0.0,0.0,0.0,0.0,0.0,0.0,62,tez-dag\src\main\java\org\apache\tez\dag\history\events\AMStartedEvent.java,0,0,0,0
org.apache.tez.dag.history.events.AppLaunchedEvent, 0, 0, 0, 0, 0, 0, 0, 1, 0, 0, 0, 0, 0, 1,0.0,0.0,0.0,0.0,0.0,0.0,0.0,0.0,0.0,0.0,0.0,0.0,0.0,64,tez-dag\src\main\java\org\apache\tez\dag\history\events\AppLaunchedEvent.java,0,0,0,0
org.apache.tez.dag.history.events.ContainerLaunchedEvent, 0, 0, 0, 0, 0, 0, 0, 0, 0, 0, 0, 0, 0, 0,0.0,0.0,0.0,0.0,0.0,0.0,0.0,0.0,0.0,0.0,0.0,0.0,0.0,66,tez-dag\src\main\java\org\apache\tez\dag\history\events\ContainerLaunchedEvent.java,0,0,0,0
org.apache.tez.dag.history.events.ContainerStoppedEvent, 0, 0, 0, 0, 0, 0, 0, 0, 0, 0, 0, 0, 0, 0,0.0,0.0,0.0,0.0,0.0,0.0,0.0,0.0,0.0,0.0,0.0,0.0,0.0,75,tez-dag\src\main\java\org\apache\tez\dag\history\events\ContainerStoppedEvent.java,0,0,0,0
org.apache.tez.dag.history.events.DAGCommitStartedEvent, 0, 0, 0, 0, 0, 0, 0, 0, 0, 0, 0, 0, 0, 0,0.0,0.0,0.0,0.5,0.0,0.0,0.0,0.0,0.0,0.0,0.0,0.0,0.0,63,tez-dag\src\main\java\org\apache\tez\dag\history\events\DAGCommitStartedEvent.java,0,0,0,0
org.apache.tez.dag.history.events.DAGStartedEvent, 0, 0, 0, 0, 0, 0, 0, 0, 0, 0, 0, 0, 0, 0,0.0,0.0,0.0,0.5,0.0,0.0,0.0,0.0,0.0,0.0,0.0,0.0,0.0,69,tez-dag\src\main\java\org\apache\tez\dag\history\events\DAGStartedEvent.java,0,0,0,0
org.apache.tez.dag.history.events.TaskAttemptFinishedEvent, 0, 0, 0, 0, 0, 0, 0, 1, 0, 0, 0, 0, 0, 1,0.0,0.0,0.0,0.0,0.0,0.0,0.0,0.0,0.0,0.0,0.0,0.0,0.0,121,tez-dag\src\main\java\org\apache\tez\dag\history\events\TaskAttemptFinishedEvent.java,0,0,0,0
org.apache.tez.dag.history.events.TaskAttemptStartedEvent, 0, 0, 0, 0, 0, 0, 0, 1, 0, 0, 0, 0, 0, 1,0.0,0.0,0.0,0.0,0.0,0.0,0.0,0.0,0.0,0.0,0.0,0.0,0.0,95,tez-dag\src\main\java\org\apache\tez\dag\history\events\TaskAttemptStartedEvent.java,0,0,0,0
org.apache.tez.dag.history.events.TaskFinishedEvent, 0, 0, 0, 0, 0, 0, 0, 1, 0, 0, 0, 0, 0, 1,0.0,0.0,0.0,0.0,0.0,0.0,0.0,0.0,0.0,0.0,0.0,0.0,0.0,111,tez-dag\src\main\java\org\apache\tez\dag\history\events\TaskFinishedEvent.java,0,0,0,0
org.apache.tez.dag.history.events.TaskStartedEvent, 0, 0, 0, 0, 0, 0, 0, 0, 0, 0, 0, 0, 0, 0,0.0,0.0,0.0,0.0,0.0,0.0,0.0,0.0,0.0,0.0,0.0,0.0,0.0,67,tez-dag\src\main\java\org\apache\tez\dag\history\events\TaskStartedEvent.java,0,0,0,0
org.apache.tez.dag.history.events.VertexCommitStartedEvent, 0, 0, 0, 0, 0, 0, 0, 0, 0, 0, 0, 0, 0, 0,0.0,0.0,0.0,0.0,0.0,0.0,0.0,0.0,0.0,0.0,0.0,0.0,0.0,69,tez-dag\src\main\java\org\apache\tez\dag\history\events\VertexCommitStartedEvent.java,0,0,0,0
org.apache.tez.dag.history.events.VertexGroupCommitFinishedEvent, 0, 0, 0, 0, 0, 0, 0, 0, 0, 0, 0, 0, 0, 0,0.0,0.0,0.0,1.0,0.0,0.0,0.0,0.0,0.0,0.0,0.0,0.0,0.0,78,tez-dag\src\main\java\org\apache\tez\dag\history\events\VertexGroupCommitFinishedEvent.java,0,0,0,0
org.apache.tez.dag.history.events.VertexGroupCommitStartedEvent, 0, 0, 0, 0, 0, 0, 0, 0, 0, 0, 0, 0, 0, 0,0.0,0.0,0.0,1.0,0.0,0.0,0.0,0.0,0.0,0.0,0.0,0.0,0.0,78,tez-dag\src\main\java\org\apache\tez\dag\history\events\VertexGroupCommitStartedEvent.java,0,0,0,0
org.apache.tez.dag.history.events.VertexRecoverableEventsGeneratedEvent, 0, 0, 0, 0, 0, 0, 0, 0, 0, 0, 0, 0, 0, 0,0.0,0.0,0.0,0.14285714285714285,0.0,0.0,0.0,0.0,0.0,0.0,0.0,0.0,0.0,158,tez-dag\src\main\java\org\apache\tez\dag\history\events\VertexRecoverableEventsGeneratedEvent.java,0,0,0,0
org.apache.tez.dag.history.events.VertexStartedEvent, 0, 0, 0, 0, 0, 0, 0, 0, 0, 0, 0, 0, 0, 0,0.0,0.0,0.0,0.5,0.0,0.0,0.0,0.0,0.0,0.0,0.0,0.0,0.0,67,tez-dag\src\main\java\org\apache\tez\dag\history\events\VertexStartedEvent.java,0,0,0,0
org.apache.tez.dag.history.logging.HistoryLoggingService, 0, 0, 0, 0, 0, 0, 0, 0, 0, 0, 0, 0, 0, 0,0.0,0.0,0.0,0.0,0.0,0.0,0.0,0.0,0.0,0.0,0.0,0.0,0.0,10,tez-dag\src\main\java\org\apache\tez\dag\history\logging\HistoryLoggingService.java,0,0,0,0
org.apache.tez.dag.history.logging.ats.TestATSHistoryLoggingService, 0, 0, 0, 0, 0, 0, 0, 0, 0, 0, 0, 0, 0, 0,0.0,0.0,0.0,0.0,0.0,0.0,0.0,0.0,0.0,0.0,0.0,0.0,0.0,84,tez-plugins\tez-yarn-timeline-history\src\test\java\org\apache\tez\dag\history\logging\ats\TestATSHistoryLoggingService.java,0,151,0,151
org.apache.tez.dag.history.logging.impl.SimpleHistoryLoggingService, 0, 0, 0, 0, 0, 0, 0, 0, 0, 0, 0, 0, 0, 0,0.0,0.0,0.0,0.0,0.0,0.0,0.0,0.0,0.0,0.0,0.0,0.0,0.0,126,tez-dag\src\main\java\org\apache\tez\dag\history\logging\impl\SimpleHistoryLoggingService.java,0,0,1,2
org.apache.tez.dag.records.TestTezIds, 0, 0, 0, 0, 0, 0, 0, 0, 0, 0, 0, 0, 0, 0,0.0,0.0,0.0,0.0,0.0,0.0,0.0,0.0,0.0,0.0,0.0,0.0,0.0,70,tez-common\src\test\java\org\apache\tez\dag\records\TestTezIds.java,0,0,0,0
org.apache.tez.dag.records.TezID, 0, 0, 0, 0, 0, 0, 0, 0, 0, 0, 0, 0, 0, 0,0.0,0.0,0.0,0.0,0.0,0.0,0.0,0.125,0.0,0.0,0.0,0.0,0.0,47,tez-common\src\main\java\org\apache\tez\dag\records\TezID.java,0,0,0,0
org.apache.tez.dag.records.TezTaskAttemptID, 0, 0, 0, 0, 0, 0, 0, 0, 0, 0, 0, 0, 0, 0,0.047619047619047616,0.0,0.0,0.023809523809523808,0.0,0.0,0.0,0.21428571428571427,0.0,0.0,0.0,0.0,0.0,98,tez-common\src\main\java\org\apache\tez\dag\records\TezTaskAttemptID.java,0,0,0,0
org.apache.tez.dag.records.TezTaskID, 0, 0, 0, 0, 0, 0, 0, 0, 0, 0, 0, 0, 0, 0,0.08333333333333333,0.0,0.0,0.041666666666666664,0.0,0.0,0.0,0.20833333333333334,0.0,0.0,0.0,0.0,0.0,97,tez-common\src\main\java\org\apache\tez\dag\records\TezTaskID.java,0,0,0,0
org.apache.tez.dag.records.TezVertexID, 0, 0, 0, 0, 0, 0, 0, 0, 0, 0, 0, 0, 0, 0,0.058823529411764705,0.0,0.0,0.029411764705882353,0.0,0.0,0.0,0.11764705882352941,0.0,0.0,0.0,0.0,0.0,90,tez-common\src\main\java\org\apache\tez\dag\records\TezVertexID.java,0,0,0,0
org.apache.tez.dag.utils.ProtoUtils, 0, 0, 0, 0, 0, 0, 0, 0, 0, 0, 0, 0, 0, 0,0.0,0.0,0.0,0.0,0.0,0.0,0.0,0.0,0.0,0.0,0.0,0.0,0.0,14,tez-dag\src\main\java\org\apache\tez\dag\utils\ProtoUtils.java,0,0,0,0
org.apache.tez.dag.utils.Simple2LevelVersionComparator, 0, 0, 0, 0, 0, 0, 0, 0, 0, 0, 0, 0, 0, 0,0.0,0.0,0.0,0.0,0.0,0.0,0.0,0.0,0.0,0.0,0.0,0.0,0.0,63,tez-dag\src\main\java\org\apache\tez\dag\utils\Simple2LevelVersionComparator.java,0,0,0,0
org.apache.tez.dag.utils.TestSimple2LevelVersionComparator, 0, 0, 0, 0, 0, 0, 0, 0, 0, 0, 0, 0, 0, 0,0.0,0.0,0.0,0.0,0.0,0.0,0.0,0.0,0.0,0.0,0.0,0.0,0.0,37,tez-dag\src\test\java\org\apache\tez\dag\utils\TestSimple2LevelVersionComparator.java,0,0,0,0
org.apache.tez.dag.utils.TestTaskSpecificLaunchCmdOption, 1, 0, 0, 0, 0, 0, 0, 0, 0, 0, 0, 0, 0, 1,0.0,0.0,0.0,0.0,0.0,0.0,0.0,0.0,0.0,0.0,0.0,0.0,0.0,230,tez-dag\src\test\java\org\apache\tez\dag\utils\TestTaskSpecificLaunchCmdOption.java,0,0,0,0
org.apache.tez.dag.utils.TezBuilderUtils, 0, 0, 0, 0, 0, 0, 0, 1, 0, 0, 0, 0, 0, 1,0.0,0.0,0.0,0.25,0.0,0.0,0.0,0.0,0.0,0.0,0.0,0.0,0.0,19,tez-dag\src\main\java\org\apache\tez\dag\utils\TezBuilderUtils.java,0,0,0,0
org.apache.tez.examples.ExampleDriver, 0, 0, 0, 0, 0, 0, 0, 0, 0, 0, 0, 0, 0, 0,0.0,0.0,0.0,0.0,0.0,0.0,0.0,0.0,0.0,0.0,0.0,0.0,0.0,27,tez-examples\src\main\java\org\apache\tez\examples\ExampleDriver.java,0,0,0,0
org.apache.tez.examples.HashJoinExample, 0, 0, 0, 0, 0, 0, 0, 1, 0, 0, 0, 0, 0, 1,0.2857142857142857,0.0,0.14285714285714285,0.14285714285714285,0.0,0.0,0.0,0.0,0.0,0.0,0.0,0.0,0.0,213,tez-examples\src\main\java\org\apache\tez\examples\HashJoinExample.java,61,3,11,86
org.apache.tez.examples.JoinValidate, 0, 0, 0, 0, 0, 0, 0, 0, 0, 0, 0, 0, 0, 0,0.3333333333333333,0.0,0.16666666666666666,0.16666666666666666,0.0,0.0,0.0,0.0,0.0,0.0,0.0,0.0,0.0,168,tez-examples\src\main\java\org\apache\tez\examples\JoinValidate.java,54,9,4,71
org.apache.tez.examples.OrderedWordCount, 0, 0, 0, 0, 0, 0, 0, 1, 0, 0, 0, 0, 0, 1,0.25,0.0,0.125,0.125,0.0,0.0,0.0,0.0,0.0,0.0,0.0,0.0,0.0,129,tez-examples\src\main\java\org\apache\tez\examples\OrderedWordCount.java,38,12,4,58
org.apache.tez.examples.SimpleSessionExample, 0, 0, 0, 0, 0, 0, 0, 0, 0, 0, 0, 0, 0, 0,0.4,0.0,0.2,0.2,0.0,0.0,0.0,0.2,0.0,0.0,0.0,0.0,0.0,66,tez-examples\src\main\java\org\apache\tez\examples\SimpleSessionExample.java,41,16,17,91
org.apache.tez.examples.SortMergeJoinExample, 0, 0, 0, 0, 0, 0, 0, 1, 0, 0, 0, 0, 0, 1,0.2857142857142857,0.0,0.14285714285714285,0.14285714285714285,0.0,0.0,0.0,0.0,0.0,0.0,0.0,0.0,0.0,200,tez-examples\src\main\java\org\apache\tez\examples\SortMergeJoinExample.java,62,2,11,86
org.apache.tez.examples.WordCount, 1, 0, 0, 0, 0, 0, 0, 0, 0, 0, 0, 0, 0, 1,0.16666666666666666,0.0,0.16666666666666666,0.16666666666666666,0.0,0.0,0.0,0.0,0.0,0.0,0.0,0.0,0.0,119,tez-examples\src\main\java\org\apache\tez\examples\WordCount.java,39,12,4,59
org.apache.tez.mapreduce.TestMRRJobs, 1, 0, 0, 0, 0, 0, 0, 0, 0, 0, 0, 0, 0, 1,0.0,0.0,0.0,0.0,0.0,0.0,0.0,0.0,0.0,0.0,0.0,0.0,0.0,190,tez-tests\src\test\java\org\apache\tez\mapreduce\TestMRRJobs.java,0,0,0,0
org.apache.tez.mapreduce.TestUmbilical, 0, 0, 0, 0, 0, 0, 0, 0, 0, 0, 0, 0, 0, 0,0.0,0.0,0.0,0.0,0.0,0.0,0.0,0.0,0.0,0.0,0.0,0.0,0.0,25,tez-mapreduce\src\test\java\org\apache\tez\mapreduce\TestUmbilical.java,0,0,0,0
org.apache.tez.mapreduce.TezTestUtils, 0, 0, 0, 0, 0, 0, 0, 0, 0, 0, 0, 0, 0, 0,0.0,0.0,0.0,0.0,0.0,0.0,0.0,0.0,0.0,0.0,0.0,0.0,0.0,21,tez-mapreduce\src\test\java\org\apache\tez\mapreduce\TezTestUtils.java,0,0,0,0
org.apache.tez.mapreduce.client.ClientServiceDelegate, 0, 0, 0, 0, 0, 0, 0, 0, 0, 0, 0, 0, 0, 0,0.5,0.0,0.5,0.5,0.0,0.0,0.0,0.0,0.0,0.0,0.0,0.0,0.0,47,tez-mapreduce\src\main\java\org\apache\tez\mapreduce\client\ClientServiceDelegate.java,0,0,0,0
org.apache.tez.mapreduce.client.ResourceMgrDelegate, 0, 0, 0, 0, 0, 0, 0, 0, 0, 0, 0, 0, 0, 0,0.0,0.0,0.0,0.0,0.0,0.0,0.0,0.0,0.0,0.0,0.0,0.0,0.0,150,tez-mapreduce\src\main\java\org\apache\tez\mapreduce\client\ResourceMgrDelegate.java,0,0,0,0
org.apache.tez.mapreduce.client.YarnTezClientProtocolProvider, 0, 0, 0, 0, 0, 0, 0, 0, 0, 0, 0, 0, 0, 0,0.0,0.0,0.0,0.0,0.0,0.0,0.0,0.0,0.0,0.0,0.0,0.0,0.0,17,tez-mapreduce\src\main\java\org\apache\tez\mapreduce\client\YarnTezClientProtocolProvider.java,0,0,0,0
org.apache.tez.mapreduce.combine.MRCombiner, 0, 0, 0, 0, 0, 0, 0, 1, 0, 0, 0, 0, 0, 1,0.0,0.0,0.0,0.0,0.0,0.0,0.0,0.0,0.0,0.0,0.0,0.0,0.0,139,tez-mapreduce\src\main\java\org\apache\tez\mapreduce\combine\MRCombiner.java,0,0,0,0
org.apache.tez.mapreduce.committer.MROutputCommitter, 0, 0, 0, 0, 0, 0, 0, 0, 0, 0, 0, 0, 0, 0,0.0,0.0,0.0,0.0,0.0,0.0,0.0,0.0,0.0,0.0,0.0,0.0,0.0,139,tez-mapreduce\src\main\java\org\apache\tez\mapreduce\committer\MROutputCommitter.java,0,0,0,0
org.apache.tez.mapreduce.common.MRInputAMSplitGenerator, 0, 0, 0, 0, 0, 0, 0, 0, 0, 0, 0, 0, 0, 0,0.0,0.0,0.0,0.0,0.0,0.0,0.0,0.2,0.0,0.0,0.0,0.0,0.0,98,tez-mapreduce\src\main\java\org\apache\tez\mapreduce\common\MRInputAMSplitGenerator.java,0,0,0,0
org.apache.tez.mapreduce.common.MRInputSplitDistributor, 0, 0, 0, 0, 0, 0, 0, 0, 0, 0, 0, 0, 0, 0,0.0,0.0,0.0,0.0,0.0,0.0,0.0,0.0,0.0,0.0,0.0,0.0,0.0,61,tez-mapreduce\src\main\java\org\apache\tez\mapreduce\common\MRInputSplitDistributor.java,0,0,0,0
org.apache.tez.mapreduce.common.TestMRInputSplitDistributor, 0, 0, 0, 0, 0, 0, 0, 0, 0, 0, 0, 0, 0, 0,0.0,0.0,0.0,0.0,0.0,0.0,0.0,0.0,0.0,0.0,0.0,0.0,0.0,159,tez-mapreduce\src\test\java\org\apache\tez\mapreduce\common\TestMRInputSplitDistributor.java,0,0,0,0
org.apache.tez.mapreduce.common.Utils, 0, 0, 0, 0, 0, 0, 0, 0, 0, 0, 0, 0, 0, 0,0.0,0.0,0.0,0.0,0.0,0.0,0.0,0.5,0.0,0.0,0.0,0.0,0.0,18,tez-mapreduce\src\main\java\org\apache\tez\mapreduce\common\Utils.java,0,0,0,0
org.apache.tez.mapreduce.examples.BroadcastAndOneToOneExample, 1, 0, 0, 0, 0, 0, 0, 0, 0, 0, 0, 0, 0, 1,0.14285714285714285,0.0,0.14285714285714285,0.14285714285714285,0.0,0.0,0.0,0.0,0.0,0.0,0.0,0.0,0.0,173,tez-tests\src\main\java\org\apache\tez\mapreduce\examples\BroadcastAndOneToOneExample.java,0,0,0,0
org.apache.tez.mapreduce.examples.BroadcastLoadGen, 0, 0, 0, 0, 0, 0, 0, 0, 0, 0, 0, 0, 0, 0,0.0,0.0,0.0,0.0,0.0,0.0,0.0,0.0,0.0,0.0,0.0,0.0,0.0,83,tez-tests\src\main\java\org\apache\tez\mapreduce\examples\BroadcastLoadGen.java,0,1,0,1
org.apache.tez.mapreduce.examples.ExampleDriver, 0, 0, 0, 0, 0, 0, 0, 0, 0, 0, 0, 0, 0, 0,0.0,0.0,0.0,0.0,0.0,0.0,0.0,0.0,0.0,0.0,0.0,0.0,0.0,114,tez-tests\src\main\java\org\apache\tez\mapreduce\examples\ExampleDriver.java,0,0,0,0
org.apache.tez.mapreduce.examples.Join, 0, 0, 0, 0, 0, 0, 0, 0, 0, 0, 0, 0, 0, 0,0.0,0.0,0.0,0.0,0.0,0.0,0.0,0.0,0.0,0.0,0.0,0.0,0.0,98,tez-tests\src\main\java\org\apache\tez\mapreduce\examples\Join.java,0,0,0,0
org.apache.tez.mapreduce.examples.MapredWordCount, 0, 0, 0, 0, 0, 0, 0, 0, 0, 0, 0, 0, 0, 0,0.0,0.0,0.0,0.0,0.0,0.0,0.0,0.0,0.0,0.0,0.0,0.0,0.0,77,tez-tests\src\main\java\org\apache\tez\mapreduce\examples\MapredWordCount.java,0,0,0,0
org.apache.tez.mapreduce.examples.RandomWriter, 0, 0, 0, 0, 0, 0, 0, 0, 0, 0, 0, 0, 0, 0,0.0,0.0,0.0,0.0,0.0,0.0,0.0,0.0,0.0,0.0,0.0,0.0,0.0,163,tez-tests\src\main\java\org\apache\tez\mapreduce\examples\RandomWriter.java,0,0,0,0
org.apache.tez.mapreduce.examples.SecondarySort, 0, 0, 0, 0, 0, 0, 0, 0, 0, 0, 0, 0, 0, 0,0.0,0.0,0.0,0.0,0.0,0.0,0.0,0.0,0.0,0.0,0.0,0.0,0.0,147,tez-tests\src\main\java\org\apache\tez\mapreduce\examples\SecondarySort.java,0,0,0,0
org.apache.tez.mapreduce.examples.Sort, 0, 0, 0, 0, 0, 0, 0, 0, 0, 0, 0, 0, 0, 0,0.0,0.0,0.0,0.0,0.0,0.0,0.0,0.0,0.0,0.0,0.0,0.0,0.0,120,tez-tests\src\main\java\org\apache\tez\mapreduce\examples\Sort.java,0,0,0,0
org.apache.tez.mapreduce.examples.TezExampleBase, 0, 0, 0, 0, 0, 0, 0, 0, 0, 0, 0, 0, 0, 0,0.3333333333333333,0.0,0.3333333333333333,0.3333333333333333,0.0,0.0,0.0,0.0,0.0,0.0,0.0,0.0,0.0,73,tez-tests\src\main\java\org\apache\tez\mapreduce\examples\TezExampleBase.java,91,0,0,91
org.apache.tez.mapreduce.examples.helpers.SplitsInClientOptionParser, 0, 0, 0, 0, 0, 0, 0, 0, 0, 0, 0, 0, 0, 0,0.0,0.0,0.0,0.0,0.0,0.0,0.0,0.0,0.0,0.0,0.0,0.0,0.0,34,tez-tests\src\main\java\org\apache\tez\mapreduce\examples\helpers\SplitsInClientOptionParser.java,0,0,0,0
org.apache.tez.mapreduce.examples.processor.FilterByWordOutputProcessor, 0, 0, 0, 0, 0, 0, 0, 0, 0, 0, 0, 0, 0, 0,0.0,0.0,0.0,0.0,0.0,0.0,0.0,0.2,0.0,0.0,0.0,0.0,0.0,46,tez-tests\src\main\java\org\apache\tez\mapreduce\examples\processor\FilterByWordOutputProcessor.java,0,0,0,0
org.apache.tez.mapreduce.hadoop.IDConverter, 0, 0, 0, 0, 0, 0, 0, 0, 0, 0, 0, 0, 0, 0,0.0,0.0,0.0,0.125,0.0,0.0,0.0,0.125,0.0,0.0,0.0,0.0,0.0,42,tez-mapreduce\src\main\java\org\apache\tez\mapreduce\hadoop\IDConverter.java,0,0,0,0
org.apache.tez.mapreduce.hadoop.InputSplitInfo, 0, 0, 0, 0, 0, 0, 0, 0, 0, 0, 0, 0, 0, 0,0.0,0.0,0.0,0.0,0.0,0.0,0.0,0.0,0.0,0.0,0.0,0.0,0.0,42,tez-mapreduce\src\main\java\org\apache\tez\mapreduce\hadoop\InputSplitInfo.java,0,0,0,0
org.apache.tez.mapreduce.hadoop.InputSplitInfoDisk, 0, 0, 0, 0, 0, 0, 0, 1, 0, 0, 0, 0, 0, 1,0.0,0.0,0.0,0.0,0.0,0.0,0.0,0.0,0.0,0.0,0.0,0.0,0.0,59,tez-mapreduce\src\main\java\org\apache\tez\mapreduce\hadoop\InputSplitInfoDisk.java,0,0,0,0
org.apache.tez.mapreduce.hadoop.InputSplitInfoMem, 0, 0, 0, 0, 0, 0, 0, 1, 0, 0, 0, 0, 0, 1,0.0,0.0,0.0,0.0,0.0,0.0,0.0,0.0,0.0,0.0,0.0,0.0,0.0,111,tez-mapreduce\src\main\java\org\apache\tez\mapreduce\hadoop\InputSplitInfoMem.java,0,0,0,0
org.apache.tez.mapreduce.hadoop.MRConfig, 0, 0, 0, 0, 0, 0, 0, 0, 0, 0, 0, 0, 0, 0,0.0,0.0,0.0,0.0,0.0,0.0,0.0,0.0,0.0,0.0,0.0,0.0,0.0,111,tez-mapreduce\src\main\java\org\apache\tez\mapreduce\hadoop\MRConfig.java,0,0,0,0
org.apache.tez.mapreduce.hadoop.MRJobConfig, 0, 0, 0, 0, 0, 0, 0, 0, 0, 0, 0, 0, 0, 0,0.0,0.0,0.0,0.0,0.0,0.0,0.0,0.0,0.0,0.0,0.0,0.0,0.0,111,tez-mapreduce\src\main\java\org\apache\tez\mapreduce\hadoop\MRJobConfig.java,0,0,0,0
org.apache.tez.mapreduce.hadoop.MRTaskStatus, 0, 0, 0, 1, 0, 0, 0, 0, 0, 0, 0, 0, 0, 1,0.0,0.0,0.0,0.0,0.0,0.0,0.0,0.0,0.0,0.0,0.0,0.0,0.0,217,tez-mapreduce\src\main\java\org\apache\tez\mapreduce\hadoop\MRTaskStatus.java,0,0,0,0
org.apache.tez.mapreduce.hadoop.MultiStageMRConfToTezTranslator, 0, 0, 0, 0, 0, 0, 0, 0, 0, 0, 0, 0, 0, 0,0.0,0.0,0.0,0.0,0.0,0.0,0.0,0.0,0.0,0.0,0.0,0.0,0.0,40,tez-mapreduce\src\main\java\org\apache\tez\mapreduce\hadoop\MultiStageMRConfToTezTranslator.java,0,0,0,0
org.apache.tez.mapreduce.hadoop.TestConfigTranslationMRToTez, 0, 0, 0, 0, 0, 0, 0, 0, 0, 0, 0, 0, 0, 0,0.0,0.0,0.0,0.0,0.0,0.0,0.0,0.0,0.0,0.0,0.0,0.0,0.0,34,tez-mapreduce\src\test\java\org\apache\tez\mapreduce\hadoop\TestConfigTranslationMRToTez.java,0,0,0,0
org.apache.tez.mapreduce.hadoop.TestDeprecatedKeys, 0, 0, 0, 0, 0, 0, 0, 0, 0, 0, 0, 0, 0, 0,0.0,0.0,0.0,0.0,0.0,0.0,0.0,0.0,0.0,0.0,0.0,0.0,0.0,113,tez-mapreduce\src\test\java\org\apache\tez\mapreduce\hadoop\TestDeprecatedKeys.java,0,0,0,0
org.apache.tez.mapreduce.hadoop.TezTypeConverters, 0, 0, 0, 0, 0, 0, 0, 0, 0, 0, 0, 0, 0, 0,0.0,0.0,0.0,0.0,0.0,0.0,0.0,0.0,0.0,0.0,0.0,0.0,0.0,38,tez-mapreduce\src\main\java\org\apache\tez\mapreduce\hadoop\TezTypeConverters.java,0,0,0,0
org.apache.tez.mapreduce.hadoop.mapred.JobContextImpl, 0, 0, 0, 0, 0, 0, 0, 0, 0, 0, 0, 0, 0, 0,0.0,0.0,0.0,0.0,0.0,0.0,0.0,0.0,0.0,0.0,0.0,0.0,0.0,21,tez-mapreduce\src\main\java\org\apache\tez\mapreduce\hadoop\mapred\JobContextImpl.java,0,0,0,0
org.apache.tez.mapreduce.hadoop.mapred.MRReporter, 0, 0, 0, 0, 0, 0, 0, 0, 0, 0, 0, 0, 0, 0,0.0,0.0,0.0,0.0,0.0,0.0,0.0,0.0,0.0,0.0,0.0,0.0,0.0,50,tez-mapreduce\src\main\java\org\apache\tez\mapreduce\hadoop\mapred\MRReporter.java,0,0,0,0
org.apache.tez.mapreduce.hadoop.mapred.TaskAttemptContextImpl, 0, 0, 0, 0, 0, 0, 0, 0, 0, 0, 0, 0, 0, 0,0.0,0.0,0.0,0.0,0.0,0.0,0.0,0.0,0.0,0.0,0.0,0.0,0.0,40,tez-mapreduce\src\main\java\org\apache\tez\mapreduce\hadoop\mapred\TaskAttemptContextImpl.java,0,0,0,0
org.apache.tez.mapreduce.hadoop.mapreduce.JobContextImpl, 0, 0, 0, 1, 0, 0, 0, 0, 0, 0, 0, 0, 0, 1,0.0,0.0,0.0,0.0,0.0,0.0,0.0,0.0,0.0,0.0,0.0,0.0,0.0,177,tez-mapreduce\src\main\java\org\apache\tez\mapreduce\hadoop\mapreduce\JobContextImpl.java,0,0,0,0
org.apache.tez.mapreduce.hadoop.mapreduce.MapContextImpl, 0, 0, 0, 0, 0, 0, 0, 1, 0, 0, 0, 0, 0, 1,0.0,0.0,0.0,0.0,0.0,0.0,0.0,1.0,0.0,0.0,0.0,0.0,0.0,31,tez-mapreduce\src\main\java\org\apache\tez\mapreduce\hadoop\mapreduce\MapContextImpl.java,0,0,0,0
org.apache.tez.mapreduce.hadoop.mapreduce.TaskAttemptContextImpl, 0, 0, 0, 0, 0, 0, 0, 1, 0, 0, 0, 0, 0, 1,0.0,0.0,0.0,0.0,0.0,0.0,0.0,0.2,0.0,0.0,0.0,0.0,0.0,65,tez-mapreduce\src\main\java\org\apache\tez\mapreduce\hadoop\mapreduce\TaskAttemptContextImpl.java,0,0,0,0
org.apache.tez.mapreduce.hadoop.mapreduce.TaskInputOutputContextImpl, 0, 0, 0, 0, 0, 0, 0, 1, 0, 0, 0, 0, 0, 1,0.0,0.0,0.0,0.0,0.0,0.0,0.0,1.0,0.0,0.0,0.0,0.0,0.0,27,tez-mapreduce\src\main\java\org\apache\tez\mapreduce\hadoop\mapreduce\TaskInputOutputContextImpl.java,0,0,0,0
org.apache.tez.mapreduce.hadoop.mapreduce.TezNullOutputCommitter, 0, 0, 0, 0, 0, 0, 0, 0, 0, 0, 0, 0, 0, 0,0.0,0.0,0.0,0.0,0.0,0.0,0.0,0.0,0.0,0.0,0.0,0.0,0.0,19,tez-mapreduce\src\main\java\org\apache\tez\mapreduce\hadoop\mapreduce\TezNullOutputCommitter.java,0,0,0,0
org.apache.tez.mapreduce.input.LocalMergedInput, 0, 0, 0, 0, 0, 0, 0, 0, 0, 0, 0, 0, 0, 0,0.0,0.0,0.0,0.0,0.0,0.0,0.0,0.0,0.0,0.0,0.0,0.0,0.0,27,tez-mapreduce\src\test\java\org\apache\tez\mapreduce\input\LocalMergedInput.java,0,0,0,0
org.apache.tez.mapreduce.input.MRInput, 0, 0, 0, 0, 0, 0, 0, 0, 0, 0, 0, 0, 0, 0,0.07142857142857142,0.0,0.0,0.0,0.0,0.0,0.0,0.2857142857142857,0.0,0.0,0.0,0.0,0.0,399,tez-mapreduce\src\main\java\org\apache\tez\mapreduce\input\MRInput.java,0,0,0,0
org.apache.tez.mapreduce.input.MRInputLegacy, 0, 0, 0, 0, 0, 0, 0, 0, 0, 0, 0, 0, 0, 0,0.0,0.0,0.0,0.0,0.0,0.0,0.0,0.0,0.0,0.0,0.0,0.0,0.0,84,tez-mapreduce\src\main\java\org\apache\tez\mapreduce\input\MRInputLegacy.java,0,0,0,0
org.apache.tez.mapreduce.input.MultiMRInput, 0, 0, 0, 0, 0, 0, 0, 0, 0, 0, 0, 0, 0, 0,0.0,0.0,0.0,0.0,0.0,0.0,0.0,0.14285714285714285,0.0,0.0,0.0,0.0,0.0,104,tez-mapreduce\src\main\java\org\apache\tez\mapreduce\input\MultiMRInput.java,0,0,0,0
org.apache.tez.mapreduce.input.base.MRInputBase, 0, 0, 0, 0, 0, 0, 0, 0, 0, 0, 0, 0, 0, 0,0.0,0.0,0.0,0.0,0.0,0.25,0.0,0.0,0.0,0.0,0.0,0.0,0.0,48,tez-mapreduce\src\main\java\org\apache\tez\mapreduce\input\base\MRInputBase.java,0,0,0,0
org.apache.tez.mapreduce.lib.MRInputUtils, 0, 0, 0, 0, 0, 0, 0, 0, 0, 0, 0, 0, 0, 0,0.0,0.0,0.0,0.0,0.0,0.0,0.0,0.0,0.0,0.0,0.0,0.0,0.0,84,tez-mapreduce\src\main\java\org\apache\tez\mapreduce\lib\MRInputUtils.java,0,0,0,0
org.apache.tez.mapreduce.lib.MRReader, 0, 0, 0, 0, 0, 0, 0, 0, 0, 0, 0, 0, 0, 0,0.0,0.0,0.0,0.0,0.0,0.0,0.0,0.16666666666666666,0.0,0.0,0.0,0.0,0.0,8,tez-mapreduce\src\main\java\org\apache\tez\mapreduce\lib\MRReader.java,0,0,0,0
org.apache.tez.mapreduce.lib.MRReaderMapReduce, 0, 0, 0, 0, 0, 0, 0, 1, 0, 0, 0, 0, 0, 1,0.0,0.0,0.0,0.0,0.0,0.0,0.0,0.2,0.0,0.0,0.0,0.0,0.0,99,tez-mapreduce\src\main\java\org\apache\tez\mapreduce\lib\MRReaderMapReduce.java,0,0,0,0
org.apache.tez.mapreduce.lib.MRReaderMapred, 0, 0, 0, 0, 0, 0, 0, 0, 0, 0, 0, 0, 0, 0,0.0,0.0,0.0,0.0,0.0,0.0,0.0,0.0,0.0,0.0,0.0,0.0,0.0,99,tez-mapreduce\src\main\java\org\apache\tez\mapreduce\lib\MRReaderMapred.java,0,0,0,0
org.apache.tez.mapreduce.output.LocalOnFileSorterOutput, 0, 0, 0, 0, 0, 0, 0, 0, 0, 0, 0, 0, 0, 0,0.0,0.0,0.0,0.3333333333333333,0.0,0.0,0.0,0.0,0.0,0.0,0.0,0.0,0.0,28,tez-mapreduce\src\test\java\org\apache\tez\mapreduce\output\LocalOnFileSorterOutput.java,0,0,0,0
org.apache.tez.mapreduce.output.MROutput, 0, 0, 0, 0, 0, 0, 0, 0, 0, 0, 0, 0, 0, 0,0.08333333333333333,0.0,0.0,0.0,0.0,0.0,0.0,0.3333333333333333,0.0,0.0,0.0,0.0,0.0,345,tez-mapreduce\src\main\java\org\apache\tez\mapreduce\output\MROutput.java,3,26,7,43
org.apache.tez.mapreduce.output.MROutputLegacy, 0, 0, 0, 0, 0, 0, 0, 0, 0, 0, 0, 0, 0, 0,0.0,0.0,0.0,0.0,0.0,0.0,0.0,0.0,0.0,0.0,0.0,0.0,0.0,17,tez-mapreduce\src\main\java\org\apache\tez\mapreduce\output\MROutputLegacy.java,0,0,0,0
org.apache.tez.mapreduce.partition.MRPartitioner, 0, 0, 0, 0, 0, 0, 0, 0, 0, 0, 0, 0, 0, 0,0.0,0.0,0.0,0.0,0.0,0.0,0.0,0.0,0.0,0.0,0.0,0.0,0.0,53,tez-mapreduce\src\main\java\org\apache\tez\mapreduce\partition\MRPartitioner.java,0,0,0,0
org.apache.tez.mapreduce.processor.MRTaskReporter, 0, 0, 0, 0, 0, 0, 0, 0, 0, 0, 0, 0, 0, 0,0.0,0.0,0.0,0.0,0.0,0.0,0.0,0.25,0.0,0.0,0.0,0.0,0.0,71,tez-mapreduce\src\main\java\org\apache\tez\mapreduce\processor\MRTaskReporter.java,0,0,0,0
org.apache.tez.mapreduce.processor.SimpleMRProcessor, 0, 0, 0, 0, 0, 0, 0, 0, 0, 0, 0, 0, 0, 0,0.0,0.0,0.0,0.0,0.0,0.0,0.0,0.0,0.0,0.0,0.0,0.0,0.0,49,tez-mapreduce\src\main\java\org\apache\tez\mapreduce\processor\SimpleMRProcessor.java,0,0,0,0
org.apache.tez.mapreduce.processor.map.TestMapProcessor, 0, 0, 0, 0, 0, 0, 0, 0, 0, 0, 0, 0, 0, 0,0.0,0.0,0.0,0.0,0.0,0.0,0.0,0.0,0.0,0.0,0.0,0.0,0.0,87,tez-mapreduce\src\test\java\org\apache\tez\mapreduce\processor\map\TestMapProcessor.java,0,0,0,0
org.apache.tez.runtime.RuntimeTask, 0, 0, 0, 0, 0, 0, 0, 0, 0, 0, 0, 0, 0, 0,0.0,0.0,0.0,0.0,0.0,0.0,0.0,0.0,0.0,0.0,0.0,0.0,0.0,67,tez-runtime-internals\src\main\java\org\apache\tez\runtime\RuntimeTask.java,0,0,0,0
org.apache.tez.runtime.api.AbstractLogicalIOProcessor, 0, 0, 0, 0, 0, 0, 0, 0, 0, 0, 0, 0, 0, 0,0.0,0.0,0.0,0.0,0.0,0.0,0.0,0.0,0.0,0.0,0.0,0.0,0.0,12,tez-api\src\main\java\org\apache\tez\runtime\api\AbstractLogicalIOProcessor.java,0,0,0,0
org.apache.tez.runtime.api.AbstractLogicalInput, 0, 0, 0, 0, 0, 0, 0, 0, 0, 0, 0, 0, 0, 0,0.125,0.0,0.125,0.125,0.0,0.0,0.0,0.125,0.0,0.0,0.0,0.0,0.0,16,tez-api\src\main\java\org\apache\tez\runtime\api\AbstractLogicalInput.java,0,0,0,0
org.apache.tez.runtime.api.AbstractLogicalOutput, 0, 0, 0, 0, 0, 0, 0, 0, 0, 0, 0, 0, 0, 0,0.0,0.0,0.0,0.0,0.0,0.0,0.0,0.0,0.0,0.0,0.0,0.0,0.0,15,tez-api\src\main\java\org\apache\tez\runtime\api\AbstractLogicalOutput.java,0,0,0,0
org.apache.tez.runtime.api.Event, 0, 0, 0, 0, 0, 1, 0, 0, 0, 0, 0, 0, 0, 1,0.0,0.0,0.0,0.0,0.0,0.0625,0.0,0.0625,0.0,0.0,0.0,0.0,0.0,2,tez-api\src\main\java\org\apache\tez\runtime\api\Event.java,0,0,0,0
org.apache.tez.runtime.api.Input, 0, 0, 0, 0, 0, 0, 0, 0, 0, 0, 0, 0, 0, 0,0.0,0.0,0.0,0.0,0.0,0.0,0.0,0.0,0.0,0.0,0.0,0.0,0.0,2,tez-api\src\main\java\org\apache\tez\runtime\api\Input.java,0,0,0,0
org.apache.tez.runtime.api.InputContext, 0, 0, 0, 0, 0, 0, 0, 0, 0, 0, 0, 0, 0, 0,0.0,0.0,0.0,0.0,0.0,0.0,0.0,0.0,0.0,0.0,0.0,0.0,0.0,2,tez-api\src\main\java\org\apache\tez\runtime\api\InputContext.java,0,0,0,0
org.apache.tez.runtime.api.InputFrameworkInterface, 0, 0, 0, 0, 0, 0, 0, 0, 0, 0, 0, 0, 0, 0,0.0,0.0,0.0,0.0,0.0,0.0,0.0,0.0,0.0,0.0,0.0,0.0,0.0,2,tez-api\src\main\java\org\apache\tez\runtime\api\InputFrameworkInterface.java,0,0,0,0
org.apache.tez.runtime.api.InputInitializerContext, 0, 0, 0, 0, 0, 0, 0, 0, 0, 0, 0, 0, 0, 0,0.0,0.0,0.0,0.0,0.0,0.0,0.0,0.0,0.0,0.0,0.0,0.0,0.0,2,tez-api\src\main\java\org\apache\tez\runtime\api\InputInitializerContext.java,0,0,0,0
org.apache.tez.runtime.api.InputSpecUpdate, 0, 0, 0, 0, 0, 0, 0, 0, 0, 0, 0, 0, 0, 0,0.0,0.0,0.0,0.0,0.0,0.0,0.0,0.0,0.0,0.0,0.0,0.0,0.0,43,tez-api\src\main\java\org\apache\tez\runtime\api\InputSpecUpdate.java,0,0,0,0
org.apache.tez.runtime.api.LogicalIOProcessor, 0, 0, 0, 0, 0, 0, 0, 0, 0, 0, 0, 0, 0, 0,0.0,0.0,0.0,0.0,0.0,0.0,0.0,0.0,0.0,0.0,0.0,0.0,0.0,43,tez-api\src\main\java\org\apache\tez\runtime\api\LogicalIOProcessor.java,0,0,0,0
org.apache.tez.runtime.api.LogicalInput, 0, 0, 0, 0, 0, 0, 0, 0, 0, 0, 0, 0, 0, 0,0.0,0.0,0.0,0.0,0.0,0.0,0.0,0.0,0.0,0.0,0.0,0.0,0.0,43,tez-api\src\main\java\org\apache\tez\runtime\api\LogicalInput.java,0,0,0,0
org.apache.tez.runtime.api.LogicalInputFrameworkInterface, 0, 0, 0, 0, 0, 0, 0, 0, 0, 0, 0, 0, 0, 0,0.0,0.0,0.0,0.0,0.0,0.0,0.0,0.0,0.0,0.0,0.0,0.0,0.0,43,tez-api\src\main\java\org\apache\tez\runtime\api\LogicalInputFrameworkInterface.java,0,0,0,0
org.apache.tez.runtime.api.LogicalOutput, 0, 0, 0, 0, 0, 0, 0, 0, 0, 0, 0, 0, 0, 0,0.0,0.0,0.0,0.0,0.0,0.0,0.0,0.0,0.0,0.0,0.0,0.0,0.0,43,tez-api\src\main\java\org\apache\tez\runtime\api\LogicalOutput.java,0,0,0,0
org.apache.tez.runtime.api.LogicalOutputFrameworkInterface, 0, 0, 0, 0, 0, 0, 0, 0, 0, 0, 0, 0, 0, 0,0.0,0.0,0.0,0.0,0.0,0.0,0.0,0.0,0.0,0.0,0.0,0.0,0.0,43,tez-api\src\main\java\org\apache\tez\runtime\api\LogicalOutputFrameworkInterface.java,0,0,0,0
org.apache.tez.runtime.api.MemoryUpdateCallback, 0, 0, 0, 0, 0, 0, 0, 0, 0, 0, 0, 0, 0, 0,0.0,0.0,0.0,0.0,0.0,0.0,0.0,0.0,0.0,0.0,0.0,0.0,0.0,3,tez-api\src\main\java\org\apache\tez\runtime\api\MemoryUpdateCallback.java,0,0,0,0
org.apache.tez.runtime.api.MergedInputContext, 0, 0, 0, 0, 0, 0, 0, 0, 0, 0, 0, 0, 0, 0,0.0,0.0,0.0,0.0,0.0,0.0,0.0,0.0,0.0,0.0,0.0,0.0,0.0,3,tez-api\src\main\java\org\apache\tez\runtime\api\MergedInputContext.java,0,0,0,0
org.apache.tez.runtime.api.MergedLogicalInput, 0, 0, 0, 0, 0, 0, 0, 0, 0, 0, 0, 0, 0, 0,0.0,0.0,0.0,0.0,0.0,0.0,0.0,0.0,0.0,0.0,0.0,0.0,0.0,30,tez-api\src\main\java\org\apache\tez\runtime\api\MergedLogicalInput.java,0,0,0,0
org.apache.tez.runtime.api.ObjectRegistry, 0, 0, 0, 0, 0, 0, 0, 0, 0, 0, 0, 0, 0, 0,0.0,0.0,0.0,0.0,0.0,0.0,0.0,0.0,0.0,0.0,0.0,0.0,0.0,30,tez-api\src\main\java\org\apache\tez\runtime\api\ObjectRegistry.java,0,0,0,0
org.apache.tez.runtime.api.Output, 0, 0, 0, 0, 0, 0, 0, 0, 0, 0, 0, 0, 0, 0,0.0,0.0,0.0,0.0,0.0,0.0,0.0,0.0,0.0,0.0,0.0,0.0,0.0,30,tez-api\src\main\java\org\apache\tez\runtime\api\Output.java,0,0,0,0
org.apache.tez.runtime.api.OutputCommitter, 0, 0, 0, 0, 0, 0, 0, 0, 0, 0, 0, 0, 0, 0,0.0,0.0,0.0,0.0,0.0,0.0,0.0,0.0,0.0,0.0,0.0,0.0,0.0,19,tez-api\src\main\java\org\apache\tez\runtime\api\OutputCommitter.java,0,0,0,0
org.apache.tez.runtime.api.OutputCommitterContext, 0, 0, 0, 0, 0, 0, 0, 0, 0, 0, 0, 0, 0, 0,0.0,0.0,0.0,0.0,0.0,0.0,0.0,0.0,0.0,0.0,0.0,0.0,0.0,19,tez-api\src\main\java\org\apache\tez\runtime\api\OutputCommitterContext.java,0,0,0,0
org.apache.tez.runtime.api.OutputContext, 0, 0, 0, 0, 0, 0, 0, 0, 0, 0, 0, 0, 0, 0,0.0,0.0,0.0,0.0,0.0,0.0,0.0,0.0,0.0,0.0,0.0,0.0,0.0,19,tez-api\src\main\java\org\apache\tez\runtime\api\OutputContext.java,0,0,0,0
org.apache.tez.runtime.api.OutputFrameworkInterface, 0, 0, 0, 0, 0, 0, 0, 0, 0, 0, 0, 0, 0, 0,0.0,0.0,0.0,0.0,0.0,0.0,0.0,0.0,0.0,0.0,0.0,0.0,0.0,19,tez-api\src\main\java\org\apache\tez\runtime\api\OutputFrameworkInterface.java,0,0,0,0
org.apache.tez.runtime.api.Processor, 0, 0, 0, 0, 0, 0, 0, 0, 0, 0, 0, 0, 0, 0,0.0,0.0,0.0,0.0,0.0,0.0,0.0,0.0,0.0,0.0,0.0,0.0,0.0,19,tez-api\src\main\java\org\apache\tez\runtime\api\Processor.java,0,0,0,0
org.apache.tez.runtime.api.ProcessorContext, 0, 0, 0, 0, 0, 0, 0, 0, 0, 0, 0, 0, 0, 0,0.0,0.0,0.0,0.0,0.0,0.0,0.0,0.0,0.0,0.0,0.0,0.0,0.0,19,tez-api\src\main\java\org\apache\tez\runtime\api\ProcessorContext.java,0,0,0,0
org.apache.tez.runtime.api.ProcessorFrameworkInterface, 0, 0, 0, 0, 0, 0, 0, 0, 0, 0, 0, 0, 0, 0,0.0,0.0,0.0,0.0,0.0,0.0,0.0,0.0,0.0,0.0,0.0,0.0,0.0,19,tez-api\src\main\java\org\apache\tez\runtime\api\ProcessorFrameworkInterface.java,0,0,0,0
org.apache.tez.runtime.api.Reader, 0, 0, 0, 0, 0, 1, 0, 0, 0, 0, 0, 0, 0, 1,0.25,0.0,0.25,0.25,0.0,0.0,0.0,0.0,0.0,0.0,0.0,0.0,0.0,2,tez-api\src\main\java\org\apache\tez\runtime\api\Reader.java,0,0,0,0
org.apache.tez.runtime.api.TaskContext, 0, 0, 0, 0, 0, 0, 0, 0, 0, 0, 0, 0, 0, 0,0.0,0.0,0.0,0.0,0.0,0.0,0.0,0.0,0.0,0.0,0.0,0.0,0.0,2,tez-api\src\main\java\org\apache\tez\runtime\api\TaskContext.java,0,0,0,0
org.apache.tez.runtime.api.Writer, 0, 0, 0, 0, 0, 1, 0, 0, 0, 0, 0, 0, 0, 1,0.0,0.0,0.0,0.0,0.0,0.0,0.0,0.0,0.0,0.0,0.0,0.0,0.0,2,tez-api\src\main\java\org\apache\tez\runtime\api\Writer.java,0,0,0,0
org.apache.tez.runtime.api.event.TestCompositeDataMovementEvent, 0, 0, 0, 0, 0, 0, 0, 0, 0, 0, 0, 0, 0, 0,0.0,0.0,0.0,0.0,0.0,0.0,0.0,0.0,0.0,0.0,0.0,0.0,0.0,23,tez-api\src\test\java\org\apache\tez\runtime\api\event\TestCompositeDataMovementEvent.java,0,0,0,0
org.apache.tez.runtime.api.events.DataMovementEvent, 0, 0, 0, 0, 0, 0, 0, 0, 0, 0, 0, 0, 0, 0,0.125,0.0,0.125,0.125,0.0,0.125,0.0,0.125,0.0,0.0,0.0,0.0,0.0,63,tez-api\src\main\java\org\apache\tez\runtime\api\events\DataMovementEvent.java,0,0,0,0
org.apache.tez.runtime.api.events.InputConfigureVertexTasksEvent, 0, 0, 0, 0, 0, 0, 0, 0, 0, 0, 0, 0, 0, 0,0.0,0.0,0.0,0.0,0.0,0.2,0.0,0.0,0.0,0.0,0.0,0.0,0.0,24,tez-api\src\main\java\org\apache\tez\runtime\api\events\InputConfigureVertexTasksEvent.java,0,0,0,0
org.apache.tez.runtime.api.events.InputDataInformationEvent, 0, 0, 0, 0, 0, 0, 0, 0, 0, 0, 0, 0, 0, 0,0.0,0.0,0.0,0.1,0.0,0.1,0.0,0.0,0.0,0.0,0.0,0.0,0.0,45,tez-api\src\main\java\org\apache\tez\runtime\api\events\InputDataInformationEvent.java,0,0,0,0
org.apache.tez.runtime.api.events.InputFailedEvent, 0, 0, 0, 0, 0, 0, 0, 0, 0, 0, 0, 0, 0, 0,0.16666666666666666,0.0,0.16666666666666666,0.16666666666666666,0.0,0.16666666666666666,0.0,0.16666666666666666,0.0,0.0,0.0,0.0,0.0,30,tez-api\src\main\java\org\apache\tez\runtime\api\events\InputFailedEvent.java,0,0,0,0
org.apache.tez.runtime.api.events.InputInitializerEvent, 0, 0, 0, 0, 0, 0, 0, 0, 0, 0, 0, 0, 0, 0,0.0,0.0,0.0,0.0,0.0,0.5,0.0,0.0,0.0,0.0,0.0,0.0,0.0,38,tez-api\src\main\java\org\apache\tez\runtime\api\events\InputInitializerEvent.java,0,0,0,0
org.apache.tez.runtime.api.events.InputReadErrorEvent, 0, 0, 0, 0, 0, 0, 0, 0, 0, 0, 0, 0, 0, 0,0.3333333333333333,0.0,0.3333333333333333,0.3333333333333333,0.0,0.3333333333333333,0.0,0.0,0.0,0.0,0.0,0.0,0.0,25,tez-api\src\main\java\org\apache\tez\runtime\api\events\InputReadErrorEvent.java,0,0,0,0
org.apache.tez.runtime.api.events.InputUpdatePayloadEvent, 0, 0, 0, 0, 0, 0, 0, 0, 0, 0, 0, 0, 0, 0,0.0,0.0,0.0,0.0,0.0,0.5,0.0,0.0,0.0,0.0,0.0,0.0,0.0,13,tez-api\src\main\java\org\apache\tez\runtime\api\events\InputUpdatePayloadEvent.java,0,0,0,0
org.apache.tez.runtime.api.events.TaskAttemptCompletedEvent, 0, 0, 0, 0, 0, 1, 0, 0, 0, 0, 0, 0, 0, 1,0.0,0.0,0.0,0.0,0.0,0.5,0.0,0.0,0.0,0.0,0.0,0.0,0.0,4,tez-runtime-internals\src\main\java\org\apache\tez\runtime\api\events\TaskAttemptCompletedEvent.java,0,0,0,0
org.apache.tez.runtime.api.events.TaskAttemptFailedEvent, 0, 0, 0, 0, 0, 0, 0, 0, 0, 0, 0, 0, 0, 0,0.0,0.0,0.0,0.0,0.0,0.5,0.0,0.0,0.0,0.0,0.0,0.0,0.0,9,tez-runtime-internals\src\main\java\org\apache\tez\runtime\api\events\TaskAttemptFailedEvent.java,0,0,0,0
org.apache.tez.runtime.api.events.TaskStatusUpdateEvent, 0, 0, 0, 0, 0, 0, 0, 0, 0, 0, 0, 0, 0, 0,0.0,0.0,0.0,0.0,0.0,0.25,0.0,0.0,0.0,0.0,0.0,0.0,0.0,34,tez-runtime-internals\src\main\java\org\apache\tez\runtime\api\events\TaskStatusUpdateEvent.java,0,0,0,0
org.apache.tez.runtime.api.events.VertexManagerEvent, 0, 0, 0, 0, 0, 0, 0, 0, 0, 0, 0, 0, 0, 0,0.0,0.0,0.0,0.0,0.0,0.5,0.0,0.0,0.0,0.0,0.0,0.0,0.0,19,tez-api\src\main\java\org\apache\tez\runtime\api\events\VertexManagerEvent.java,0,0,0,0
org.apache.tez.runtime.api.impl.EventMetaData, 0, 0, 0, 0, 0, 0, 0, 0, 0, 0, 0, 0, 0, 0,0.0,0.0,0.0,0.16666666666666666,0.0,0.0,0.0,0.16666666666666666,0.0,0.0,0.0,0.0,0.0,79,tez-runtime-internals\src\main\java\org\apache\tez\runtime\api\impl\EventMetaData.java,0,0,0,0
org.apache.tez.runtime.api.impl.InputSpec, 0, 0, 0, 0, 0, 0, 0, 0, 0, 0, 0, 0, 0, 0,0.0,0.0,0.0,0.0,0.0,0.0,0.0,0.0,0.0,0.0,0.0,0.0,0.0,44,tez-runtime-internals\src\main\java\org\apache\tez\runtime\api\impl\InputSpec.java,0,0,0,0
org.apache.tez.runtime.api.impl.OutputSpec, 0, 0, 0, 0, 0, 0, 0, 0, 0, 0, 0, 0, 0, 0,0.0,0.0,0.0,0.0,0.0,0.0,0.0,0.0,0.0,0.0,0.0,0.0,0.0,41,tez-runtime-internals\src\main\java\org\apache\tez\runtime\api\impl\OutputSpec.java,0,0,0,0
org.apache.tez.runtime.api.impl.TezCountersDelegate, 0, 0, 0, 0, 0, 0, 0, 0, 0, 0, 0, 0, 0, 0,0.0,0.0,0.0,0.0,0.0,0.0,0.0,0.0,0.0,0.0,0.0,0.0,0.0,18,tez-runtime-internals\src\main\java\org\apache\tez\runtime\api\impl\TezCountersDelegate.java,0,0,0,0
org.apache.tez.runtime.api.impl.TezEvent, 0, 0, 0, 0, 0, 0, 0, 0, 0, 0, 0, 0, 0, 0,0.0,0.0,0.0,0.07692307692307693,0.0,0.15384615384615385,0.0,0.07692307692307693,0.0,0.0,0.0,0.0,0.0,211,tez-runtime-internals\src\main\java\org\apache\tez\runtime\api\impl\TezEvent.java,0,0,0,0
org.apache.tez.runtime.api.impl.TezHeartbeatRequest, 0, 0, 0, 0, 0, 0, 0, 1, 0, 0, 0, 0, 0, 1,0.0,0.0,0.0,0.0,0.0,0.0,0.0,0.0,0.0,0.0,0.0,0.0,0.0,92,tez-runtime-internals\src\main\java\org\apache\tez\runtime\api\impl\TezHeartbeatRequest.java,0,0,0,0
org.apache.tez.runtime.api.impl.TezHeartbeatResponse, 0, 0, 0, 0, 0, 0, 0, 0, 0, 0, 0, 0, 0, 0,0.0,0.0,0.0,0.0,0.0,0.0,0.0,0.0,0.0,0.0,0.0,0.0,0.0,64,tez-runtime-internals\src\main\java\org\apache\tez\runtime\api\impl\TezHeartbeatResponse.java,0,0,0,0
org.apache.tez.runtime.api.impl.TezUmbilical, 0, 0, 0, 0, 0, 0, 0, 0, 0, 0, 0, 0, 0, 0,0.0,0.0,0.0,0.0,0.0,0.0,0.0,0.0,0.0,0.0,0.0,0.0,0.0,64,tez-runtime-internals\src\main\java\org\apache\tez\runtime\api\impl\TezUmbilical.java,0,0,0,0
org.apache.tez.runtime.common.objectregistry.TestObjectRegistry, 0, 0, 0, 0, 0, 0, 0, 0, 0, 0, 0, 0, 0, 0,0.0,0.0,0.0,0.0,0.0,0.0,0.0,0.0,0.0,0.0,0.0,0.0,0.0,39,tez-runtime-internals\src\test\java\org\apache\tez\runtime\common\objectregistry\TestObjectRegistry.java,0,0,0,0
org.apache.tez.runtime.common.resources.InitialMemoryAllocator, 0, 0, 0, 0, 0, 0, 0, 0, 0, 0, 0, 0, 0, 0,0.0,0.0,0.0,0.0,0.0,0.0,0.0,0.0,0.0,0.0,0.0,0.0,0.0,39,tez-common\src\main\java\org\apache\tez\runtime\common\resources\InitialMemoryAllocator.java,0,0,0,0
org.apache.tez.runtime.common.resources.InitialMemoryRequestContext, 0, 0, 0, 0, 0, 0, 0, 0, 0, 0, 0, 0, 0, 0,0.0,0.0,0.0,0.0,0.0,0.0,0.0,0.0,0.0,0.0,0.0,0.0,0.0,31,tez-common\src\main\java\org\apache\tez\runtime\common\resources\InitialMemoryRequestContext.java,0,0,0,0
org.apache.tez.runtime.common.resources.ScalingAllocator, 0, 0, 0, 0, 0, 0, 0, 0, 0, 0, 0, 0, 0, 0,0.0,0.0,0.0,0.0,0.0,0.0,0.0,0.0,0.0,0.0,0.0,0.0,0.0,55,tez-runtime-internals\src\main\java\org\apache\tez\runtime\common\resources\ScalingAllocator.java,0,0,0,0
org.apache.tez.runtime.common.resources.TestMemoryDistributor, 0, 0, 0, 0, 0, 0, 0, 0, 0, 0, 0, 0, 0, 0,0.0,0.0,0.0,0.0,0.0,0.0,0.0,0.0,0.0,0.0,0.0,0.0,0.0,152,tez-runtime-internals\src\test\java\org\apache\tez\runtime\common\resources\TestMemoryDistributor.java,0,0,0,0
org.apache.tez.runtime.common.resources.TestWeightedScalingMemoryDistributor, 0, 0, 0, 0, 0, 0, 0, 0, 0, 0, 0, 0, 0, 0,0.0,0.0,0.0,0.0,0.0,0.0,0.0,0.0,0.0,0.0,0.0,0.0,0.0,89,tez-runtime-library\src\test\java\org\apache\tez\runtime\common\resources\TestWeightedScalingMemoryDistributor.java,0,0,0,0
org.apache.tez.runtime.common.security.JobTokenSelector, 0, 0, 0, 0, 0, 0, 0, 0, 0, 0, 0, 0, 0, 0,0.0,0.0,0.0,0.0,0.0,0.0,0.0,0.0,0.0,0.0,0.0,0.0,0.0,17,tez-runtime-internals\src\main\java\org\apache\tez\runtime\common\security\JobTokenSelector.java,0,0,0,0
org.apache.tez.runtime.library.api.KeyValueReader, 0, 0, 0, 0, 0, 0, 0, 0, 0, 0, 0, 0, 0, 0,0.0,0.0,0.0,0.0,0.0,0.14285714285714285,0.0,0.2857142857142857,0.0,0.0,0.0,0.0,0.0,5,tez-runtime-library\src\main\java\org\apache\tez\runtime\library\api\KeyValueReader.java,0,0,0,0
org.apache.tez.runtime.library.api.KeyValueWriter, 0, 0, 0, 0, 0, 0, 0, 0, 0, 0, 0, 0, 0, 0,0.0,0.0,0.0,0.0,0.0,0.25,0.0,0.0,0.0,0.0,0.0,0.0,0.0,3,tez-runtime-library\src\main\java\org\apache\tez\runtime\library\api\KeyValueWriter.java,0,0,0,0
org.apache.tez.runtime.library.api.KeyValuesReader, 0, 0, 0, 0, 0, 0, 0, 0, 0, 0, 0, 0, 0, 0,0.0,0.0,0.0,0.0,0.0,0.3333333333333333,0.0,0.0,0.0,0.0,0.0,0.0,0.0,5,tez-runtime-library\src\main\java\org\apache\tez\runtime\library\api\KeyValuesReader.java,0,0,0,0
org.apache.tez.runtime.library.api.KeyValuesWriter, 0, 0, 0, 0, 0, 0, 0, 0, 0, 0, 0, 0, 0, 0,0.0,0.0,0.0,0.0,0.0,0.0,0.0,0.0,0.0,0.0,0.0,0.0,0.0,3,tez-runtime-library\src\main\java\org\apache\tez\runtime\library\api\KeyValuesWriter.java,0,0,0,0
org.apache.tez.runtime.library.api.Partitioner, 0, 0, 0, 0, 0, 0, 0, 0, 0, 0, 0, 0, 0, 0,0.0,0.0,0.0,0.0,0.0,0.0,0.0,0.0,0.0,0.0,0.0,0.0,0.0,3,tez-runtime-library\src\main\java\org\apache\tez\runtime\library\api\Partitioner.java,0,0,0,0
org.apache.tez.runtime.library.api.TestTezRuntimeConfiguration, 0, 0, 0, 0, 0, 0, 0, 0, 0, 0, 0, 0, 0, 0,0.0,0.0,0.0,0.0,0.0,0.0,0.0,0.0,0.0,0.0,0.0,0.0,0.0,19,tez-runtime-library\src\test\java\org\apache\tez\runtime\library\api\TestTezRuntimeConfiguration.java,0,0,0,0
org.apache.tez.runtime.library.broadcast.output.FileBasedKVWriter, 0, 0, 0, 0, 0, 0, 0, 0, 0, 0, 0, 0, 0, 0,0.0,0.0,0.0,0.0,0.0,0.0,0.0,0.0,0.0,0.0,0.0,0.0,0.0,98,tez-runtime-library\src\main\java\org\apache\tez\runtime\library\broadcast\output\FileBasedKVWriter.java,0,0,0,0
org.apache.tez.runtime.library.common.Constants, 1, 0, 1, 0, 0, 0, 0, 0, 0, 0, 0, 0, 0, 2,0.0,0.0,0.0,0.0,0.0,0.0,0.0,0.0,0.0,0.0,0.0,0.0,0.0,25,tez-runtime-library\src\main\java\org\apache\tez\runtime\library\common\Constants.java,0,0,0,0
org.apache.tez.runtime.library.common.InputAttemptIdentifier, 0, 0, 0, 0, 0, 0, 0, 0, 0, 0, 0, 0, 0, 0,0.0,0.0,0.0,0.08333333333333333,0.0,0.0,0.0,0.375,0.0,0.0,0.0,0.0,0.0,74,tez-runtime-library\src\main\java\org\apache\tez\runtime\library\common\InputAttemptIdentifier.java,0,0,0,0
org.apache.tez.runtime.library.common.InputIdentifier, 0, 0, 0, 0, 0, 0, 0, 0, 0, 0, 0, 0, 0, 0,0.0,0.0,0.0,0.25,0.0,0.0,0.0,0.5,0.0,0.0,0.0,0.0,0.0,30,tez-runtime-library\src\main\java\org\apache\tez\runtime\library\common\InputIdentifier.java,0,0,0,0
org.apache.tez.runtime.library.common.MemoryUpdateCallbackHandler, 0, 0, 0, 0, 0, 0, 0, 0, 0, 0, 0, 0, 0, 0,0.0,0.0,0.0,0.0,0.0,0.0,0.0,0.25,0.0,0.0,0.0,0.0,0.0,14,tez-runtime-library\src\main\java\org\apache\tez\runtime\library\common\MemoryUpdateCallbackHandler.java,0,0,0,0
org.apache.tez.runtime.library.common.TestInputIdentifiers, 0, 0, 0, 0, 0, 0, 0, 0, 0, 0, 0, 0, 0, 0,0.0,0.0,0.0,0.0,0.0,0.0,0.0,0.0,0.0,0.0,0.0,0.0,0.0,15,tez-runtime-library\src\test\java\org\apache\tez\runtime\library\common\TestInputIdentifiers.java,0,0,0,0
org.apache.tez.runtime.library.common.TezRuntimeUtils, 0, 0, 0, 0, 0, 0, 0, 0, 0, 0, 0, 0, 0, 0,0.0,0.0,0.0,0.2857142857142857,0.0,0.0,0.0,0.14285714285714285,0.0,0.0,0.0,0.0,0.0,103,tez-runtime-library\src\main\java\org\apache\tez\runtime\library\common\TezRuntimeUtils.java,0,0,0,0
org.apache.tez.runtime.library.common.combine.Combiner, 0, 0, 0, 0, 0, 0, 0, 0, 0, 0, 0, 0, 0, 0,0.0,0.0,0.0,0.0,0.0,0.0,0.0,0.0,0.0,0.0,0.0,0.0,0.0,103,tez-runtime-library\src\main\java\org\apache\tez\runtime\library\common\combine\Combiner.java,0,0,0,0
org.apache.tez.runtime.library.common.comparator.ProxyComparator, 0, 0, 0, 0, 0, 0, 0, 0, 0, 0, 0, 0, 0, 0,0.0,0.0,0.0,0.0,0.0,0.0,0.0,0.0,0.0,0.0,0.0,0.0,0.0,103,tez-runtime-library\src\main\java\org\apache\tez\runtime\library\common\comparator\ProxyComparator.java,0,0,0,0
org.apache.tez.runtime.library.common.comparator.TestProxyComparator, 0, 0, 0, 0, 0, 0, 0, 0, 0, 0, 0, 0, 0, 0,0.0,0.0,0.0,0.0,0.0,0.0,0.0,1.0,0.0,0.0,0.0,0.0,0.0,44,tez-runtime-library\src\test\java\org\apache\tez\runtime\library\common\comparator\TestProxyComparator.java,0,0,0,0
org.apache.tez.runtime.library.common.comparator.TezBytesComparator, 0, 0, 0, 0, 0, 0, 0, 1, 0, 0, 0, 0, 0, 1,0.0,0.0,0.0,0.0,0.0,0.0,0.0,0.0,0.0,0.0,0.0,0.0,0.0,30,tez-runtime-library\src\main\java\org\apache\tez\runtime\library\common\comparator\TezBytesComparator.java,0,0,0,0
org.apache.tez.runtime.library.common.localshuffle.LocalShuffle, 0, 0, 0, 0, 0, 0, 0, 0, 0, 0, 0, 0, 0, 0,0.0,0.0,0.0,0.0,0.0,0.0,0.0,0.0,0.0,0.0,0.0,0.0,0.0,69,tez-runtime-library\src\main\java\org\apache\tez\runtime\library\common\localshuffle\LocalShuffle.java,0,0,0,0
org.apache.tez.runtime.library.common.readers.UnorderedKVReader, 0, 0, 0, 0, 0, 0, 0, 1, 0, 0, 0, 0, 0, 1,0.0,0.0,0.0,0.0,0.0,0.0,0.0,0.6,0.0,0.0,0.0,0.0,0.0,112,tez-runtime-library\src\main\java\org\apache\tez\runtime\library\common\readers\UnorderedKVReader.java,0,11,0,11
org.apache.tez.runtime.library.common.security.SecureShuffleUtils, 0, 0, 0, 0, 0, 0, 0, 0, 0, 0, 0, 0, 0, 0,0.0,0.0,0.0,0.0,0.0,0.0,0.0,0.0,0.0,0.0,0.0,0.0,0.0,40,tez-runtime-library\src\main\java\org\apache\tez\runtime\library\common\security\SecureShuffleUtils.java,0,0,0,0
org.apache.tez.runtime.library.common.serializer.TezBytesWritableSerialization, 0, 0, 0, 0, 0, 0, 0, 0, 0, 0, 0, 0, 0, 0,0.0,0.0,0.0,0.0,0.0,0.0,0.0,0.0,0.0,0.0,0.0,0.0,0.0,59,tez-runtime-library\src\main\java\org\apache\tez\runtime\library\common\serializer\TezBytesWritableSerialization.java,0,0,0,0
org.apache.tez.runtime.library.common.shuffle.DiskFetchedInput, 0, 0, 0, 0, 0, 0, 0, 1, 0, 0, 0, 0, 0, 1,0.0,0.0,0.0,0.0,0.0,0.0,0.0,0.3333333333333333,0.0,0.0,0.0,0.0,0.0,69,tez-runtime-library\src\main\java\org\apache\tez\runtime\library\common\shuffle\DiskFetchedInput.java,0,0,0,0
org.apache.tez.runtime.library.common.shuffle.FetchResult, 0, 0, 0, 0, 0, 0, 0, 0, 0, 0, 0, 0, 0, 0,0.0,0.0,0.0,0.0,0.0,0.0,0.0,0.0,0.0,0.0,0.0,0.0,0.0,25,tez-runtime-library\src\main\java\org\apache\tez\runtime\library\common\shuffle\FetchResult.java,0,0,0,0
org.apache.tez.runtime.library.common.shuffle.FetchedInput, 0, 0, 0, 0, 0, 0, 0, 1, 0, 0, 0, 0, 0, 1,0.0,0.0,0.0,0.0,0.0,0.0,0.0,0.4444444444444444,0.0,0.0,0.0,0.0,0.0,73,tez-runtime-library\src\main\java\org\apache\tez\runtime\library\common\shuffle\FetchedInput.java,0,0,0,0
org.apache.tez.runtime.library.common.shuffle.FetchedInputAllocator, 0, 0, 0, 0, 0, 0, 0, 0, 0, 0, 0, 0, 0, 0,0.0,0.0,0.0,0.0,0.0,0.0,0.0,0.0,0.0,0.0,0.0,0.0,0.0,73,tez-runtime-library\src\main\java\org\apache\tez\runtime\library\common\shuffle\FetchedInputAllocator.java,0,0,0,0
org.apache.tez.runtime.library.common.shuffle.FetchedInputCallback, 0, 0, 0, 0, 0, 0, 0, 0, 0, 0, 0, 0, 0, 0,0.0,0.0,0.0,0.0,0.0,0.0,0.0,0.0,0.0,0.0,0.0,0.0,0.0,73,tez-runtime-library\src\main\java\org\apache\tez\runtime\library\common\shuffle\FetchedInputCallback.java,0,0,0,0
org.apache.tez.runtime.library.common.shuffle.FetcherCallback, 0, 0, 0, 0, 0, 0, 0, 0, 0, 0, 0, 0, 0, 0,0.0,0.0,0.0,0.0,0.0,0.0,0.0,0.0,0.0,0.0,0.0,0.0,0.0,73,tez-runtime-library\src\main\java\org\apache\tez\runtime\library\common\shuffle\FetcherCallback.java,0,0,0,0
org.apache.tez.runtime.library.common.shuffle.InputHost, 0, 0, 0, 0, 0, 0, 0, 0, 0, 0, 0, 0, 0, 0,0.0,0.0,0.0,0.0,0.0,0.0,0.0,0.0,0.0,0.0,0.0,0.0,0.0,84,tez-runtime-library\src\main\java\org\apache\tez\runtime\library\common\shuffle\InputHost.java,0,0,0,0
org.apache.tez.runtime.library.common.shuffle.LocalDiskFetchedInput, 0, 0, 0, 0, 0, 0, 0, 1, 0, 0, 0, 0, 0, 1,0.0,0.0,0.0,0.0,0.0,0.0,0.0,0.3333333333333333,0.0,0.0,0.0,0.0,0.0,72,tez-runtime-library\src\main\java\org\apache\tez\runtime\library\common\shuffle\LocalDiskFetchedInput.java,0,0,0,0
org.apache.tez.runtime.library.common.shuffle.MemoryFetchedInput, 0, 0, 0, 0, 0, 0, 0, 0, 0, 0, 0, 0, 0, 0,0.0,0.0,0.0,0.0,0.0,0.0,0.0,0.6,0.0,0.0,0.0,0.0,0.0,52,tez-runtime-library\src\main\java\org\apache\tez\runtime\library\common\shuffle\MemoryFetchedInput.java,0,0,0,0
org.apache.tez.runtime.library.common.shuffle.ShuffleEventHandler, 0, 0, 0, 0, 0, 0, 0, 0, 0, 0, 0, 0, 0, 0,0.0,0.0,0.0,0.0,0.0,0.0,0.0,0.0,0.0,0.0,0.0,0.0,0.0,52,tez-runtime-library\src\main\java\org\apache\tez\runtime\library\common\shuffle\ShuffleEventHandler.java,0,0,0,0
org.apache.tez.runtime.library.common.shuffle.TestFetcher, 0, 0, 0, 0, 0, 0, 0, 0, 0, 0, 0, 0, 0, 0,0.2,0.0,0.2,0.2,0.0,0.0,0.0,0.4,0.0,0.0,0.0,0.0,0.0,120,tez-runtime-library\src\test\java\org\apache\tez\runtime\library\common\shuffle\TestFetcher.java,0,0,0,0
org.apache.tez.runtime.library.common.shuffle.impl.ShuffleInputEventHandlerImpl, 0, 0, 0, 0, 0, 0, 0, 1, 0, 0, 0, 0, 0, 1,0.0,0.0,0.0,0.0,0.0,0.1,0.0,0.3,0.0,0.0,0.0,0.0,0.0,102,tez-runtime-library\src\main\java\org\apache\tez\runtime\library\common\shuffle\impl\ShuffleInputEventHandlerImpl.java,0,0,0,0
org.apache.tez.runtime.library.common.shuffle.impl.SimpleFetchedInputAllocator, 0, 0, 0, 0, 0, 0, 0, 0, 0, 0, 0, 0, 0, 0,0.0,0.0,0.0,0.0,0.0,0.0,0.0,0.42857142857142855,0.0,0.0,0.0,0.0,0.0,126,tez-runtime-library\src\main\java\org\apache\tez\runtime\library\common\shuffle\impl\SimpleFetchedInputAllocator.java,0,0,0,0
org.apache.tez.runtime.library.common.shuffle.impl.TestShuffleInputEventHandlerImpl, 0, 0, 0, 0, 0, 0, 0, 0, 0, 0, 0, 0, 0, 0,0.0,0.0,0.0,0.0,0.0,0.25,0.0,0.25,0.0,0.0,0.0,0.0,0.0,94,tez-runtime-library\src\test\java\org\apache\tez\runtime\library\common\shuffle\impl\TestShuffleInputEventHandlerImpl.java,0,0,0,0
org.apache.tez.runtime.library.common.shuffle.impl.TestSimpleFetchedInputAllocator, 0, 0, 0, 0, 0, 0, 0, 0, 0, 0, 0, 0, 0, 0,0.0,0.0,0.0,0.0,0.0,0.0,0.0,0.3333333333333333,0.0,0.0,0.0,0.0,0.0,35,tez-runtime-library\src\test\java\org\apache\tez\runtime\library\common\shuffle\impl\TestSimpleFetchedInputAllocator.java,0,0,0,0
org.apache.tez.runtime.library.common.shuffle.orderedgrouped.ExceptionReporter, 0, 0, 0, 0, 0, 0, 0, 0, 0, 0, 0, 0, 0, 0,0.0,0.0,0.0,0.0,0.0,0.0,0.0,0.0,0.0,0.0,0.0,0.0,0.0,35,tez-runtime-library\src\main\java\org\apache\tez\runtime\library\common\shuffle\orderedgrouped\ExceptionReporter.java,0,0,0,0
org.apache.tez.runtime.library.common.shuffle.orderedgrouped.InMemoryReader, 0, 0, 0, 0, 0, 0, 0, 1, 0, 0, 0, 0, 0, 1,0.0,0.0,0.0,0.3333333333333333,0.0,0.0,0.0,0.6666666666666666,0.0,0.0,0.0,0.0,0.0,103,tez-runtime-library\src\main\java\org\apache\tez\runtime\library\common\shuffle\orderedgrouped\InMemoryReader.java,0,0,0,0
org.apache.tez.runtime.library.common.shuffle.orderedgrouped.InMemoryWriter, 0, 0, 0, 0, 0, 0, 0, 0, 0, 0, 0, 0, 0, 0,0.0,0.0,0.0,0.5,0.0,0.0,0.0,0.5,0.0,0.0,0.0,0.0,0.0,18,tez-runtime-library\src\main\java\org\apache\tez\runtime\library\common\shuffle\orderedgrouped\InMemoryWriter.java,0,0,0,0
org.apache.tez.runtime.library.common.shuffle.orderedgrouped.MapHost, 0, 0, 0, 0, 0, 0, 0, 0, 0, 0, 0, 0, 0, 0,0.0,0.0,0.0,0.0,0.0,0.0,0.0,0.0,0.0,0.0,0.0,0.0,0.0,73,tez-runtime-library\src\main\java\org\apache\tez\runtime\library\common\shuffle\orderedgrouped\MapHost.java,0,0,0,0
org.apache.tez.runtime.library.common.shuffle.orderedgrouped.MapOutput, 0, 0, 0, 1, 0, 0, 0, 1, 0, 0, 0, 0, 0, 2,0.0,0.0,0.0,0.0,0.0,0.0,0.0,0.3333333333333333,0.0,0.0,0.0,0.0,0.0,164,tez-runtime-library\src\main\java\org\apache\tez\runtime\library\common\shuffle\orderedgrouped\MapOutput.java,0,0,0,0
org.apache.tez.runtime.library.common.shuffle.orderedgrouped.MergeThread, 0, 0, 0, 0, 0, 0, 0, 0, 0, 0, 0, 0, 0, 0,0.0,0.0,0.0,0.0,0.0,0.0,0.0,0.0,0.0,0.0,0.0,0.0,0.0,67,tez-runtime-library\src\main\java\org\apache\tez\runtime\library\common\shuffle\orderedgrouped\MergeThread.java,0,0,0,0
org.apache.tez.runtime.library.common.shuffle.orderedgrouped.Shuffle, 0, 0, 0, 1, 0, 0, 0, 0, 0, 0, 0, 0, 0, 1,0.0,0.0,0.0,0.0,0.0,0.0,0.0,0.2,0.0,0.0,0.0,0.0,0.0,338,tez-runtime-library\src\main\java\org\apache\tez\runtime\library\common\shuffle\orderedgrouped\Shuffle.java,0,9,2,13
org.apache.tez.runtime.library.common.shuffle.orderedgrouped.ShuffleClientMetrics, 0, 0, 0, 0, 0, 0, 0, 1, 0, 0, 0, 0, 0, 1,0.0,0.0,0.0,0.5,0.0,0.0,0.0,0.0,0.0,0.0,0.0,0.0,0.0,60,tez-runtime-library\src\main\java\org\apache\tez\runtime\library\common\shuffle\orderedgrouped\ShuffleClientMetrics.java,0,0,0,0
org.apache.tez.runtime.library.common.shuffle.orderedgrouped.ShuffleHeader, 0, 0, 0, 0, 0, 0, 0, 0, 0, 0, 0, 0, 0, 0,0.0,0.0,0.0,1.0,0.0,0.0,0.0,0.0,0.0,0.0,0.0,0.0,0.0,43,tez-runtime-library\src\main\java\org\apache\tez\runtime\library\common\shuffle\orderedgrouped\ShuffleHeader.java,0,0,0,0
org.apache.tez.runtime.library.common.shuffle.orderedgrouped.ShuffleInputEventHandlerOrderedGrouped, 0, 0, 0, 0, 0, 0, 0, 0, 0, 0, 0, 0, 0, 0,0.0,0.0,0.0,0.14285714285714285,0.0,0.14285714285714285,0.0,0.0,0.0,0.0,0.0,0.0,0.0,80,tez-runtime-library\src\main\java\org\apache\tez\runtime\library\common\shuffle\orderedgrouped\ShuffleInputEventHandlerOrderedGrouped.java,0,0,0,0
org.apache.tez.runtime.library.common.shuffle.orderedgrouped.TestFetcher, 0, 0, 0, 0, 0, 0, 0, 0, 0, 0, 0, 0, 0, 0,0.2,0.0,0.2,0.4,0.0,0.0,0.0,0.2,0.0,0.0,0.0,0.0,0.0,182,tez-runtime-library\src\test\java\org\apache\tez\runtime\library\common\shuffle\orderedgrouped\TestFetcher.java,0,0,0,0
org.apache.tez.runtime.library.common.shuffle.orderedgrouped.TestMergeManager, 0, 0, 0, 0, 0, 0, 0, 1, 0, 0, 0, 0, 0, 1,0.2,0.0,0.2,0.4,0.0,0.0,0.0,0.2,0.0,0.0,0.0,0.0,0.0,143,tez-runtime-library\src\test\java\org\apache\tez\runtime\library\common\shuffle\orderedgrouped\TestMergeManager.java,0,0,0,0
org.apache.tez.runtime.library.common.shuffle.orderedgrouped.TestShuffleInputEventHandler, 0, 0, 0, 0, 0, 0, 0, 0, 0, 0, 0, 0, 0, 0,0.0,0.0,0.0,0.0,0.0,0.2,0.0,0.0,0.0,0.0,0.0,0.0,0.0,110,tez-runtime-library\src\test\java\org\apache\tez\runtime\library\common\shuffle\orderedgrouped\TestShuffleInputEventHandler.java,0,0,0,0
org.apache.tez.runtime.library.common.sort.impl.ExternalSorter, 0, 0, 0, 1, 0, 0, 0, 0, 0, 0, 0, 0, 0, 1,0.0,0.0,0.0,0.2,0.0,0.0,0.0,0.0,0.0,0.0,0.0,0.0,0.0,171,tez-runtime-library\src\main\java\org\apache\tez\runtime\library\common\sort\impl\ExternalSorter.java,0,0,0,0
org.apache.tez.runtime.library.common.sort.impl.IFile, 0, 0, 0, 0, 0, 0, 0, 0, 0, 0, 0, 0, 0, 0,0.0,0.0,0.0,0.0,0.0,0.0,0.0,0.0,0.0,0.0,0.0,0.0,0.0,526,tez-runtime-library\src\main\java\org\apache\tez\runtime\library\common\sort\impl\IFile.java,0,0,0,0
org.apache.tez.runtime.library.common.sort.impl.IFileInputStream, 0, 0, 0, 1, 0, 0, 0, 0, 0, 0, 0, 0, 0, 1,0.0,0.0,0.0,0.0,0.0,0.0,0.0,0.0,0.0,0.0,0.0,0.0,0.0,192,tez-runtime-library\src\main\java\org\apache\tez\runtime\library\common\sort\impl\IFileInputStream.java,0,0,0,0
org.apache.tez.runtime.library.common.sort.impl.IFileOutputStream, 0, 0, 0, 0, 0, 0, 0, 0, 0, 0, 0, 0, 0, 0,0.0,0.0,0.0,0.0,0.0,0.0,0.0,0.0,0.0,0.0,0.0,0.0,0.0,60,tez-runtime-library\src\main\java\org\apache\tez\runtime\library\common\sort\impl\IFileOutputStream.java,0,0,0,0
org.apache.tez.runtime.library.common.sort.impl.TestIFile, 0, 0, 0, 1, 0, 0, 0, 1, 0, 0, 0, 0, 0, 2,0.2,0.0,0.0,0.0,0.0,0.0,0.0,0.2,0.0,0.0,0.0,0.0,0.0,405,tez-runtime-library\src\test\java\org\apache\tez\runtime\library\common\sort\impl\TestIFile.java,0,0,0,0
org.apache.tez.runtime.library.common.sort.impl.TezIndexRecord, 0, 0, 0, 0, 0, 0, 0, 0, 0, 0, 0, 0, 0, 0,0.0,0.0,0.0,0.25,0.0,0.0,0.0,0.25,0.0,0.0,0.0,0.0,0.0,23,tez-runtime-library\src\main\java\org\apache\tez\runtime\library\common\sort\impl\TezIndexRecord.java,0,0,0,0
org.apache.tez.runtime.library.common.sort.impl.TezRawKeyValueIterator, 0, 0, 0, 0, 0, 0, 0, 0, 0, 0, 0, 0, 0, 0,0.0,0.0,0.0,0.0,0.0,0.0,0.0,0.0,0.0,0.0,0.0,0.0,0.0,23,tez-runtime-library\src\main\java\org\apache\tez\runtime\library\common\sort\impl\TezRawKeyValueIterator.java,0,0,0,0
org.apache.tez.runtime.library.common.sort.impl.TezSpillRecord, 0, 0, 0, 0, 0, 0, 0, 0, 0, 0, 0, 0, 0, 0,0.0,0.0,0.0,0.3333333333333333,0.0,0.0,0.0,0.0,0.0,0.0,0.0,0.0,0.0,83,tez-runtime-library\src\main\java\org\apache\tez\runtime\library\common\sort\impl\TezSpillRecord.java,0,0,0,0
org.apache.tez.runtime.library.common.sort.impl.dflt.DefaultSorter, 0, 0, 0, 1, 0, 0, 0, 0, 0, 0, 0, 0, 0, 1,0.0,0.0,0.0,0.25,0.0,0.0,0.0,0.0,0.0,0.0,0.0,0.0,0.0,787,tez-runtime-library\src\main\java\org\apache\tez\runtime\library\common\sort\impl\dflt\DefaultSorter.java,0,0,0,0
org.apache.tez.runtime.library.common.task.local.output.TezLocalTaskOutputFiles, 0, 0, 0, 0, 0, 0, 0, 0, 0, 0, 0, 0, 0, 0,0.0,0.0,0.0,0.0,0.0,0.0,0.0,0.0,0.0,0.0,0.0,0.0,0.0,92,tez-runtime-library\src\main\java\org\apache\tez\runtime\library\common\task\local\output\TezLocalTaskOutputFiles.java,0,0,0,0
org.apache.tez.runtime.library.common.task.local.output.TezTaskOutput, 0, 0, 0, 0, 0, 0, 0, 0, 0, 0, 0, 0, 0, 0,0.0,0.0,0.0,0.18181818181818182,0.0,0.0,0.0,0.0,0.0,0.0,0.0,0.0,0.0,25,tez-runtime-library\src\main\java\org\apache\tez\runtime\library\common\task\local\output\TezTaskOutput.java,0,0,0,0
org.apache.tez.runtime.library.common.task.local.output.TezTaskOutputFiles, 0, 0, 0, 0, 0, 0, 0, 0, 0, 0, 0, 0, 0, 0,0.0,0.0,0.0,0.25,0.0,0.0,0.0,0.5,0.0,0.0,0.0,0.0,0.0,105,tez-runtime-library\src\main\java\org\apache\tez\runtime\library\common\task\local\output\TezTaskOutputFiles.java,0,0,0,0
org.apache.tez.runtime.library.common.writers.BaseUnorderedPartitionedKVWriter, 0, 0, 0, 0, 0, 0, 0, 0, 0, 0, 0, 0, 0, 0,0.0,0.0,0.0,0.0,0.0,0.0,0.0,0.0,0.0,0.0,0.0,0.0,0.0,80,tez-runtime-library\src\main\java\org\apache\tez\runtime\library\common\writers\BaseUnorderedPartitionedKVWriter.java,0,0,0,0
org.apache.tez.runtime.library.conf.Utils, 0, 0, 0, 0, 0, 0, 0, 0, 0, 0, 0, 0, 0, 0,0.0,0.0,0.0,0.0,0.0,0.0,0.0,0.5,0.0,0.0,0.0,0.0,0.0,13,tez-runtime-library\src\main\java\org\apache\tez\runtime\library\conf\Utils.java,0,0,0,0
org.apache.tez.runtime.library.exceptions.FetcherReadTimeoutException, 0, 0, 0, 0, 0, 0, 0, 0, 0, 0, 0, 0, 0, 0,0.0,0.0,0.0,0.0,0.0,0.0,0.0,0.0,0.0,0.0,0.0,0.0,0.0,14,tez-runtime-library\src\main\java\org\apache\tez\runtime\library\exceptions\FetcherReadTimeoutException.java,0,0,0,0
org.apache.tez.runtime.library.exceptions.InputAlreadyClosedException, 0, 0, 0, 0, 0, 0, 0, 0, 0, 0, 0, 0, 0, 0,0.0,0.0,0.0,0.5,0.0,0.0,0.0,0.0,0.0,0.0,0.0,0.0,0.0,12,tez-runtime-library\src\main\java\org\apache\tez\runtime\library\exceptions\InputAlreadyClosedException.java,0,0,0,0
org.apache.tez.runtime.library.hadoop.compat.NullProgressable, 0, 0, 0, 0, 0, 0, 0, 0, 0, 0, 0, 0, 0, 0,0.0,0.0,0.0,0.0,0.0,0.0,0.0,0.0,0.0,0.0,0.0,0.0,0.0,7,tez-runtime-library\src\main\java\org\apache\tez\runtime\library\hadoop\compat\NullProgressable.java,0,0,0,0
org.apache.tez.runtime.library.input.ConcatenatedMergedKeyValueInput, 0, 0, 0, 0, 0, 0, 0, 0, 0, 0, 0, 0, 0, 0,0.0,0.0,0.0,0.0,0.0,0.0,0.0,0.0,0.0,0.0,0.0,0.0,0.0,45,tez-runtime-library\src\main\java\org\apache\tez\runtime\library\input\ConcatenatedMergedKeyValueInput.java,0,0,0,0
org.apache.tez.runtime.library.input.ConcatenatedMergedKeyValuesInput, 0, 0, 0, 0, 0, 0, 0, 0, 0, 0, 0, 0, 0, 0,0.0,0.0,0.0,0.0,0.0,0.0,0.0,0.0,0.0,0.0,0.0,0.0,0.0,45,tez-runtime-library\src\main\java\org\apache\tez\runtime\library\input\ConcatenatedMergedKeyValuesInput.java,0,0,0,0
org.apache.tez.runtime.library.input.OrderedGroupedInputLegacy, 0, 0, 0, 0, 0, 0, 0, 0, 0, 0, 0, 0, 0, 0,0.0,0.0,0.0,0.0,0.0,0.0,0.0,0.0,0.0,0.0,0.0,0.0,0.0,39,tez-runtime-library\src\main\java\org\apache\tez\runtime\library\input\OrderedGroupedInputLegacy.java,0,0,0,0
org.apache.tez.runtime.library.input.OrderedGroupedKVInput, 0, 0, 0, 0, 0, 0, 0, 0, 0, 0, 0, 0, 0, 0,0.0,0.0,0.0,0.16666666666666666,0.0,0.0,0.0,0.0,0.0,0.0,0.0,0.0,0.0,216,tez-runtime-library\src\main\java\org\apache\tez\runtime\library\input\OrderedGroupedKVInput.java,0,0,0,0
org.apache.tez.runtime.library.input.UnorderedKVInput, 0, 0, 0, 0, 0, 0, 0, 1, 0, 0, 0, 0, 0, 1,0.0,0.0,0.0,0.0,0.0,0.0,0.0,0.2857142857142857,0.0,0.0,0.0,0.0,0.0,171,tez-runtime-library\src\main\java\org\apache\tez\runtime\library\input\UnorderedKVInput.java,0,0,0,0
org.apache.tez.runtime.library.output.UnorderedPartitionedKVOutput, 0, 0, 0, 0, 0, 0, 0, 0, 0, 0, 0, 0, 0, 0,0.0,0.0,0.0,0.0,0.0,0.3333333333333333,0.0,0.0,0.0,0.0,0.0,0.0,0.0,70,tez-runtime-library\src\main\java\org\apache\tez\runtime\library\output\UnorderedPartitionedKVOutput.java,0,9,1,11
org.apache.tez.runtime.library.partitioner.HashPartitioner, 0, 0, 0, 0, 0, 0, 0, 0, 0, 0, 0, 0, 0, 0,0.0,0.0,0.0,0.0,0.0,0.0,0.0,0.0,0.0,0.0,0.0,0.0,0.0,6,tez-runtime-library\src\main\java\org\apache\tez\runtime\library\partitioner\HashPartitioner.java,0,0,0,0
org.apache.tez.runtime.library.processor.PreWarmProcessor, 0, 0, 0, 0, 0, 0, 0, 0, 0, 0, 0, 0, 0, 0,0.0,0.0,0.0,0.0,0.0,0.0,0.0,0.0,0.0,0.0,0.0,0.0,0.0,19,tez-runtime-library\src\main\java\org\apache\tez\runtime\library\processor\PreWarmProcessor.java,0,0,0,0
org.apache.tez.runtime.library.testutils.KVDataGen, 1, 0, 0, 0, 0, 0, 0, 0, 0, 0, 0, 0, 0, 1,0.0,0.0,0.0,1.0,0.0,0.0,0.0,1.0,0.0,0.0,0.0,0.0,0.0,40,tez-runtime-library\src\test\java\org\apache\tez\runtime\library\testutils\KVDataGen.java,0,0,0,0
org.apache.tez.runtime.library.utils.BufferUtils, 0, 0, 0, 0, 0, 0, 0, 0, 0, 0, 0, 0, 0, 0,0.0,0.0,0.0,0.5,0.0,0.0,0.0,1.0,0.0,0.0,0.0,0.0,0.0,46,tez-runtime-library\src\main\java\org\apache\tez\runtime\library\utils\BufferUtils.java,0,0,0,0
org.apache.tez.runtime.library.utils.FastByteComparisons, 0, 0, 0, 0, 0, 0, 0, 1, 0, 0, 0, 0, 0, 1,0.0,0.0,0.0,0.0,0.0,0.0,0.0,0.0,0.0,0.0,0.0,0.0,0.0,134,tez-runtime-library\src\main\java\org\apache\tez\runtime\library\utils\FastByteComparisons.java,0,0,0,0
org.apache.tez.runtime.metrics.FileSystemStatisticUpdater, 0, 0, 0, 0, 0, 0, 0, 0, 0, 0, 0, 0, 0, 0,0.0,0.0,0.0,0.0,0.0,0.0,0.0,0.0,0.0,0.0,0.0,0.0,0.0,46,tez-runtime-internals\src\main\java\org\apache\tez\runtime\metrics\FileSystemStatisticUpdater.java,0,0,0,0
org.apache.tez.runtime.metrics.GcTimeUpdater, 0, 0, 0, 0, 0, 0, 0, 0, 0, 0, 0, 0, 0, 0,0.0,0.0,0.0,0.0,0.0,0.0,0.0,0.0,0.0,0.0,0.0,0.0,0.0,28,tez-runtime-internals\src\main\java\org\apache\tez\runtime\metrics\GcTimeUpdater.java,0,0,0,0
org.apache.tez.runtime.task.ContainerReporter, 0, 0, 0, 0, 0, 0, 0, 0, 0, 0, 0, 0, 0, 0,0.0,0.0,0.0,0.0,0.0,0.0,0.0,0.0,0.0,0.0,0.0,0.0,0.0,45,tez-dag\src\main\java\org\apache\tez\runtime\task\ContainerReporter.java,0,0,0,0
org.apache.tez.runtime.task.ErrorReporter, 0, 0, 0, 0, 0, 0, 0, 0, 0, 0, 0, 0, 0, 0,0.0,0.0,0.0,0.0,0.0,0.0,0.0,0.0,0.0,0.0,0.0,0.0,0.0,45,tez-dag\src\main\java\org\apache\tez\runtime\task\ErrorReporter.java,0,0,0,0
org.apache.tez.runtime.task.TaskReporter, 0, 0, 0, 0, 0, 0, 0, 1, 0, 0, 0, 0, 0, 1,0.0,0.0,0.0,0.0,0.0,0.0,0.0,0.0,0.0,0.0,0.0,0.0,0.0,233,tez-dag\src\main\java\org\apache\tez\runtime\task\TaskReporter.java,0,0,3,6
org.apache.tez.runtime.task.TestTaskReporter, 0, 0, 0, 0, 0, 0, 0, 0, 0, 0, 0, 0, 0, 0,0.0,0.0,0.0,0.0,0.0,0.0,0.0,0.0,0.0,0.0,0.0,0.0,0.0,59,tez-dag\src\test\java\org\apache\tez\runtime\task\TestTaskReporter.java,0,0,0,0
org.apache.tez.state.OnStateChangedCallback, 0, 0, 0, 0, 0, 0, 0, 0, 0, 0, 0, 0, 0, 0,0.0,0.0,0.0,0.0,0.0,0.0,0.0,0.0,0.0,0.0,0.0,0.0,0.0,59,tez-dag\src\main\java\org\apache\tez\state\OnStateChangedCallback.java,0,0,0,0
org.apache.tez.test.FaultToleranceTestRunner, 1, 0, 0, 0, 0, 0, 0, 0, 0, 0, 0, 0, 0, 1,0.0,0.0,0.0,0.0,0.0,0.0,0.0,0.0,0.0,0.0,0.0,0.0,0.0,89,tez-tests\src\test\java\org\apache\tez\test\FaultToleranceTestRunner.java,0,0,0,0
org.apache.tez.test.MiniTezCluster, 0, 0, 0, 0, 0, 0, 0, 0, 0, 0, 0, 0, 0, 0,0.42857142857142855,0.0,0.0,0.14285714285714285,0.0,0.0,0.0,0.0,0.0,0.0,0.0,0.0,0.0,141,tez-tests\src\test\java\org\apache\tez\test\MiniTezCluster.java,0,0,0,0
org.apache.tez.test.SimpleTestDAG, 1, 0, 1, 0, 0, 0, 0, 0, 0, 0, 0, 0, 0, 2,0.42857142857142855,0.0,0.14285714285714285,0.2857142857142857,0.0,0.0,0.0,0.14285714285714285,0.0,0.0,0.0,0.0,0.0,86,tez-tests\src\test\java\org\apache\tez\test\SimpleTestDAG.java,0,0,0,0
org.apache.tez.test.SimpleTestDAG3Vertices, 1, 0, 1, 0, 0, 0, 0, 0, 0, 0, 0, 0, 0, 2,0.4,0.0,0.2,0.4,0.0,0.0,0.0,0.2,0.0,0.0,0.0,0.0,0.0,35,tez-tests\src\test\java\org\apache\tez\test\SimpleTestDAG3Vertices.java,0,0,0,0
org.apache.tez.test.TestDAGRecovery, 0, 0, 0, 0, 0, 0, 0, 0, 0, 0, 0, 0, 0, 0,0.2222222222222222,0.0,0.2222222222222222,0.1111111111111111,0.0,0.0,0.0,0.0,0.0,0.0,0.0,0.0,0.0,170,tez-tests\src\test\java\org\apache\tez\test\TestDAGRecovery.java,0,4,3,10
org.apache.tez.test.TestDAGRecovery2, 0, 0, 0, 0, 0, 0, 0, 0, 0, 0, 0, 0, 0, 0,0.2222222222222222,0.0,0.2222222222222222,0.1111111111111111,0.0,0.0,0.0,0.0,0.0,0.0,0.0,0.0,0.0,138,tez-tests\src\test\java\org\apache\tez\test\TestDAGRecovery2.java,0,0,0,0
org.apache.tez.test.TestDriver, 0, 0, 0, 0, 0, 0, 0, 0, 0, 0, 0, 0, 0, 0,0.0,0.0,0.0,0.0,0.0,0.0,0.0,0.0,0.0,0.0,0.0,0.0,0.0,15,tez-tests\src\test\java\org\apache\tez\test\TestDriver.java,0,0,0,0
org.apache.tez.test.TestFaultTolerance, 1, 0, 0, 1, 0, 0, 0, 0, 0, 0, 0, 0, 0, 2,0.5454545454545454,0.0,0.45454545454545453,0.09090909090909091,0.0,0.0,0.0,0.09090909090909091,0.0,0.0,0.0,0.0,0.0,469,tez-tests\src\test\java\org\apache\tez\test\TestFaultTolerance.java,0,0,0,0
org.apache.tez.test.TestInput, 1, 0, 1, 1, 0, 0, 0, 0, 0, 0, 0, 0, 0, 3,0.42857142857142855,0.0,0.2857142857142857,0.07142857142857142,0.0,0.07142857142857142,0.0,0.0,0.0,0.0,0.0,0.0,0.0,264,tez-tests\src\test\java\org\apache\tez\test\TestInput.java,0,0,0,0
org.apache.tez.test.TestOutput, 0, 0, 0, 0, 0, 0, 0, 0, 0, 0, 0, 0, 0, 0,0.5,0.0,0.3333333333333333,0.08333333333333333,0.0,0.08333333333333333,0.0,0.0,0.0,0.0,0.0,0.0,0.0,44,tez-tests\src\test\java\org\apache\tez\test\TestOutput.java,0,0,0,0
org.apache.tez.test.TestSecureShuffle, 0, 0, 0, 0, 0, 0, 0, 0, 0, 0, 0, 0, 0, 0,0.0,0.0,0.0,0.0,0.0,0.0,0.0,0.0,0.0,0.0,0.0,0.0,0.0,98,tez-tests\src\test\java\org\apache\tez\test\TestSecureShuffle.java,0,0,0,0
org.apache.tez.test.TestTezJobs, 1, 0, 0, 0, 0, 0, 0, 0, 0, 0, 0, 0, 0, 1,0.08333333333333333,0.0,0.08333333333333333,0.0,0.0,0.0,0.0,0.25,0.0,0.0,0.0,0.0,0.0,491,tez-tests\src\test\java\org\apache\tez\test\TestTezJobs.java,0,66,2,70
org.apache.tez.test.dag.SimpleReverseVTestDAG, 1, 0, 1, 0, 0, 0, 0, 0, 0, 0, 0, 0, 0, 2,0.3333333333333333,0.0,0.16666666666666666,0.3333333333333333,0.0,0.0,0.0,0.16666666666666666,0.0,0.0,0.0,0.0,0.0,36,tez-tests\src\test\java\org\apache\tez\test\dag\SimpleReverseVTestDAG.java,0,0,0,0
org.apache.tez.test.dag.SimpleVTestDAG, 1, 0, 1, 0, 0, 0, 0, 0, 0, 0, 0, 0, 0, 2,0.25,0.0,0.125,0.25,0.0,0.0,0.0,0.125,0.0,0.0,0.0,0.0,0.0,36,tez-tests\src\test\java\org\apache\tez\test\dag\SimpleVTestDAG.java,0,0,0,0
org.apache.tez.test.dag.SixLevelsFailingDAG, 1, 0, 0, 0, 0, 0, 0, 0, 0, 0, 0, 0, 0, 1,1.0,0.0,0.0,0.0,0.0,0.0,0.0,0.0,0.0,0.0,0.0,0.0,0.0,38,tez-tests\src\test\java\org\apache\tez\test\dag\SixLevelsFailingDAG.java,0,0,0,0
org.apache.tez.test.dag.ThreeLevelsFailingDAG, 1, 0, 0, 0, 0, 0, 0, 0, 0, 0, 0, 0, 0, 1,1.0,0.0,0.0,0.0,0.0,0.0,0.0,0.0,0.0,0.0,0.0,0.0,0.0,27,tez-tests\src\test\java\org\apache\tez\test\dag\ThreeLevelsFailingDAG.java,0,0,0,0
org.apache.tez.test.dag.TwoLevelsFailingDAG, 1, 0, 0, 0, 0, 0, 0, 0, 0, 0, 0, 0, 0, 1,0.5,0.0,0.125,0.25,0.0,0.0,0.0,0.125,0.0,0.0,0.0,0.0,0.0,45,tez-tests\src\test\java\org\apache\tez\test\dag\TwoLevelsFailingDAG.java,0,0,0,0
org.apache.tez.tests.MiniTezClusterWithTimeline, 0, 0, 0, 0, 0, 0, 0, 1, 0, 0, 0, 0, 0, 1,0.0,0.0,0.0,0.0,0.0,0.0,0.0,0.0,0.0,0.0,0.0,0.0,0.0,145,tez-plugins\tez-yarn-timeline-history\src\test\java\org\apache\tez\tests\MiniTezClusterWithTimeline.java,0,179,0,179
org.apache.tez.tools.TFileLoader, 0, 0, 0, 0, 0, 0, 0, 0, 0, 0, 0, 0, 0, 0,0.0,0.0,0.0,0.0,0.0,0.0,0.0,0.0,0.0,0.0,0.0,0.0,0.0,102,tez-tools\tez-tfile-parser\src\main\java\org\apache\tez\tools\TFileLoader.java,0,0,0,0
org.apache.tez.util.TezMxBeanResourceCalculator, 0, 0, 0, 0, 0, 0, 0, 0, 0, 0, 0, 0, 0, 0,0.0,0.0,0.0,0.0,0.0,0.0,0.0,0.0,0.0,0.0,0.0,0.0,0.0,27,tez-plugins\tez-mbeans-resource-calculator\src\main\java\org\apache\tez\util\TezMxBeanResourceCalculator.java,0,0,0,0
,0.0,0.0,0.0,0.0,0.0,0.0,0.0,0.0,0.0,0.0,0.0,0.0,0.0,27,tez-api\src\main\java\org\apache\tez\client\AMConfiguration.java,0,0,0,0
