ClassName,AntiSingleton,Blob,ClassDataShouldBePrivate,ComplexClass,LargeClass,LazyClass,LongMethod,LongParameterList,MessageChains,RefusedParentBequest,SpaghettiCode,SpeculativeGenerality,SwissArmyKnife,NumOfAPs,AntiSingleton,Blob,ClassDataShouldBePrivate,ComplexClass,LargeClass,LazyClass,LongMethod,LongParameterList,MessageChains,RefusedParentBequest,SpaghettiCode,SpeculativeGenerality,SwissArmyKnife,LOC,name,deleted,added,changed,all
org.apache.helix.AccessOption, 1, 0, 1, 0, 0, 0, 0, 0, 0, 0, 0, 0, 0, 2,0.0,0.0,0.0,0.0,0.0,0.0,0.0,0.0,0.0,0.0,0.0,0.0,0.0,22,helix-core\src\main\java\org\apache\helix\AccessOption.java,0,0,0,0
org.apache.helix.BaseDataAccessor, 0, 0, 0, 0, 0, 0, 0, 0, 0, 0, 0, 0, 0, 0,0.0,0.0,0.0,0.0,0.0,0.0,0.0,0.0,0.0,0.0,0.0,0.0,0.0,22,helix-core\src\main\java\org\apache\helix\BaseDataAccessor.java,0,0,0,0
org.apache.helix.ConfigChangeListener, 0, 0, 0, 0, 0, 0, 0, 0, 0, 0, 0, 0, 0, 0,0.0,0.0,0.0,0.0,0.0,0.0,0.0,0.0,0.0,0.0,0.0,0.0,0.0,22,helix-core\src\main\java\org\apache\helix\ConfigChangeListener.java,0,0,0,0
org.apache.helix.ControllerChangeListener, 0, 0, 0, 0, 0, 0, 0, 0, 0, 0, 0, 0, 0, 0,0.0,0.0,0.0,0.0,0.0,0.0,0.0,0.0,0.0,0.0,0.0,0.0,0.0,22,helix-core\src\main\java\org\apache\helix\ControllerChangeListener.java,0,0,0,0
org.apache.helix.CurrentStateChangeListener, 0, 0, 0, 0, 0, 0, 0, 0, 0, 0, 0, 0, 0, 0,0.0,0.0,0.0,0.0,0.0,0.0,0.0,0.0,0.0,0.0,0.0,0.0,0.0,22,helix-core\src\main\java\org\apache\helix\CurrentStateChangeListener.java,0,0,0,0
org.apache.helix.DummyProcessThread, 0, 0, 0, 0, 0, 0, 0, 0, 0, 0, 0, 0, 0, 0,0.0,0.0,0.0,0.0,0.0,0.0,0.0,0.0,0.0,0.0,0.0,0.0,0.0,31,helix-core\src\test\java\org\apache\helix\DummyProcessThread.java,0,0,0,0
org.apache.helix.ExternalViewChangeListener, 0, 0, 0, 0, 0, 0, 0, 0, 0, 0, 0, 0, 0, 0,0.0,0.0,0.0,0.0,0.0,0.0,0.0,0.0,0.0,0.0,0.0,0.0,0.0,31,helix-core\src\main\java\org\apache\helix\ExternalViewChangeListener.java,0,0,0,0
org.apache.helix.GroupCommit, 0, 0, 0, 0, 0, 0, 0, 0, 0, 0, 0, 0, 0, 0,0.0,0.0,0.0,0.0,0.0,0.0,0.0,0.0,0.0,0.0,0.0,0.0,0.0,90,helix-core\src\main\java\org\apache\helix\GroupCommit.java,0,0,0,0
org.apache.helix.HelixConstants, 0, 0, 0, 0, 0, 0, 0, 0, 0, 0, 0, 0, 0, 0,0.0,0.0,0.0,0.0,0.0,0.0,0.0,0.0,0.0,0.0,0.0,0.0,0.0,90,helix-core\src\main\java\org\apache\helix\HelixConstants.java,0,0,0,0
org.apache.helix.HelixException, 0, 0, 0, 0, 0, 0, 0, 0, 0, 0, 0, 0, 0, 0,0.0,0.0,0.0,0.2222222222222222,0.0,0.0,0.0,0.0,0.0,0.0,0.0,0.0,0.0,9,helix-core\src\main\java\org\apache\helix\HelixException.java,0,0,0,0
org.apache.helix.HelixManager, 0, 0, 0, 0, 0, 0, 0, 0, 0, 0, 0, 0, 0, 0,0.0,0.0,0.0,0.0,0.0,0.0,0.0,0.0,0.0,0.0,0.0,0.0,0.0,9,helix-core\src\main\java\org\apache\helix\HelixManager.java,0,2,0,2
org.apache.helix.HelixManagerFactory, 0, 0, 0, 0, 0, 0, 0, 0, 0, 0, 0, 0, 0, 0,0.058823529411764705,0.0,0.0,0.29411764705882354,0.0,0.0,0.0,0.0,0.0,0.0,0.0,0.0,0.0,7,helix-core\src\main\java\org\apache\helix\HelixManagerFactory.java,0,0,0,0
org.apache.helix.HelixTimerTask, 0, 0, 0, 0, 0, 0, 0, 0, 0, 0, 0, 0, 0, 0,0.0,0.0,0.0,0.5,0.0,0.0,0.0,0.0,0.0,0.0,0.0,0.0,0.0,4,helix-core\src\main\java\org\apache\helix\HelixTimerTask.java,0,0,0,0
org.apache.helix.IdealStateChangeListener, 0, 0, 0, 0, 0, 0, 0, 0, 0, 0, 0, 0, 0, 0,0.0,0.0,0.0,0.0,0.0,0.0,0.0,0.0,0.0,0.0,0.0,0.0,0.0,4,helix-core\src\main\java\org\apache\helix\IdealStateChangeListener.java,0,0,0,0
org.apache.helix.InstanceConfigChangeListener, 0, 0, 0, 0, 0, 0, 0, 0, 0, 0, 0, 0, 0, 0,0.0,0.0,0.0,0.0,0.0,0.0,0.0,0.0,0.0,0.0,0.0,0.0,0.0,4,helix-core\src\main\java\org\apache\helix\InstanceConfigChangeListener.java,0,0,0,0
org.apache.helix.LiveInstanceChangeListener, 0, 0, 0, 0, 0, 0, 0, 0, 0, 0, 0, 0, 0, 0,0.0,0.0,0.0,0.0,0.0,0.0,0.0,0.0,0.0,0.0,0.0,0.0,0.0,4,helix-core\src\main\java\org\apache\helix\LiveInstanceChangeListener.java,0,0,0,0
org.apache.helix.LiveInstanceInfoProvider, 0, 0, 0, 0, 0, 0, 0, 0, 0, 0, 0, 0, 0, 0,0.0,0.0,0.0,0.0,0.0,0.0,0.0,0.0,0.0,0.0,0.0,0.0,0.0,4,helix-core\src\main\java\org\apache\helix\LiveInstanceInfoProvider.java,0,0,0,0
org.apache.helix.MessageListener, 0, 0, 0, 0, 0, 0, 0, 0, 0, 0, 0, 0, 0, 0,0.0,0.0,0.0,0.0,0.0,0.0,0.0,0.0,0.0,0.0,0.0,0.0,0.0,4,helix-core\src\main\java\org\apache\helix\MessageListener.java,0,0,0,0
org.apache.helix.MyClass, 0, 0, 0, 0, 0, 0, 0, 0, 0, 0, 0, 0, 0, 0,0.0,0.0,0.0,0.0,0.0,0.0,0.0,0.0,0.0,0.0,0.0,0.0,0.0,16,helix-core\src\main\java\org\apache\helix\MessageListener.java,0,0,0,0
org.apache.helix.PreConnectCallback, 0, 0, 0, 0, 0, 0, 0, 0, 0, 0, 0, 0, 0, 0,0.0,0.0,0.0,0.0,0.0,0.0,0.0,0.0,0.0,0.0,0.0,0.0,0.0,16,helix-core\src\main\java\org\apache\helix\PreConnectCallback.java,0,0,0,0
org.apache.helix.PropertyKey, 0, 0, 1, 0, 0, 0, 0, 0, 0, 0, 0, 0, 0, 1,0.0,0.0,0.0,0.5833333333333334,0.0,0.0,0.0,0.0,0.0,0.0,0.0,0.0,0.0,223,helix-core\src\main\java\org\apache\helix\PropertyKey.java,1,10,0,11
org.apache.helix.ScopedConfigChangeListener, 0, 0, 0, 0, 0, 0, 0, 0, 0, 0, 0, 0, 0, 0,0.0,0.0,0.0,0.0,0.0,0.0,0.0,0.0,0.0,0.0,0.0,0.0,0.0,223,helix-core\src\main\java\org\apache\helix\ScopedConfigChangeListener.java,0,0,0,0
org.apache.helix.TestConfigAccessor, 0, 0, 0, 0, 0, 0, 0, 0, 0, 0, 0, 0, 0, 0,0.0,0.0,0.0,0.0,0.0,0.0,0.0,0.0,0.0,0.0,0.0,0.0,0.0,119,helix-core\src\test\java\org\apache\helix\TestConfigAccessor.java,1,0,0,1
org.apache.helix.TestGroupCommit, 0, 0, 0, 0, 0, 0, 0, 0, 0, 0, 0, 0, 0, 0,0.0,0.0,0.0,0.0,0.0,0.0,0.0,0.0,0.0,0.0,0.0,0.0,0.0,14,helix-core\src\test\java\org\apache\helix\TestGroupCommit.java,0,0,0,0
org.apache.helix.TestHelixConfigAccessor, 0, 0, 0, 0, 0, 0, 0, 0, 0, 0, 0, 0, 0, 0,0.0,0.0,0.0,0.0,0.0,0.0,0.0,0.0,0.0,0.0,0.0,0.0,0.0,135,helix-core\src\test\java\org\apache\helix\TestHelixConfigAccessor.java,0,0,0,0
org.apache.helix.TestHelixTaskExecutor, 0, 0, 0, 0, 0, 0, 0, 0, 0, 0, 0, 0, 0, 0,0.0,0.0,0.0,0.0,0.0,0.0,0.0,0.0,0.0,0.0,0.0,0.0,0.0,48,helix-core\src\test\java\org\apache\helix\TestHelixTaskExecutor.java,0,0,1,2
org.apache.helix.TestHelixTaskHandler, 0, 0, 0, 0, 0, 0, 0, 0, 0, 0, 0, 0, 0, 0,0.0,0.0,0.0,0.0,0.0,0.0,0.0,0.0,0.0,0.0,0.0,0.0,0.0,80,helix-core\src\test\java\org\apache\helix\TestHelixTaskHandler.java,0,0,1,2
org.apache.helix.TestHierarchicalDataStore, 1, 0, 0, 0, 0, 0, 0, 0, 0, 0, 0, 0, 0, 1,0.0,0.0,0.0,1.0,0.0,0.0,0.0,0.0,0.0,0.0,0.0,0.0,0.0,38,helix-core\src\test\java\org\apache\helix\TestHierarchicalDataStore.java,0,0,0,0
org.apache.helix.TestListenerCallback, 0, 0, 0, 0, 0, 0, 0, 0, 0, 0, 0, 0, 0, 0,0.0,0.0,0.0,0.0,0.0,0.0,0.0,0.0,0.0,0.0,0.0,0.0,0.0,86,helix-core\src\test\java\org\apache\helix\TestListenerCallback.java,0,0,0,0
org.apache.helix.TestPropertyPathConfig, 0, 0, 0, 0, 0, 0, 0, 0, 0, 0, 0, 0, 0, 0,0.0,0.0,0.0,0.0,0.0,0.0,0.0,0.0,0.0,0.0,0.0,0.0,0.0,24,helix-core\src\test\java\org\apache\helix\TestPropertyPathConfig.java,0,0,0,0
org.apache.helix.TestZKCallback, 0, 0, 0, 0, 0, 0, 0, 0, 0, 0, 0, 0, 0, 0,0.0,0.0,0.0,0.3333333333333333,0.0,0.0,0.0,0.0,0.0,0.0,0.0,0.0,0.0,147,helix-core\src\test\java\org\apache\helix\TestZKCallback.java,0,0,0,0
org.apache.helix.TestZNRecordBucketizer, 0, 0, 0, 0, 0, 0, 0, 0, 0, 0, 0, 0, 0, 0,0.0,0.0,0.0,0.0,0.0,0.0,0.0,0.0,0.0,0.0,0.0,0.0,0.0,19,helix-core\src\test\java\org\apache\helix\TestZNRecordBucketizer.java,0,0,0,0
org.apache.helix.TestZkClientWrapper, 0, 0, 0, 0, 0, 0, 0, 0, 0, 0, 0, 0, 0, 0,0.0,0.0,0.0,1.0,0.0,0.0,0.0,0.0,0.0,0.0,0.0,0.0,0.0,63,helix-core\src\test\java\org\apache\helix\TestZkClientWrapper.java,0,0,0,0
org.apache.helix.TestZkConnectionCount, 0, 0, 0, 0, 0, 0, 0, 0, 0, 0, 0, 0, 0, 0,0.0,0.0,0.0,0.0,0.0,0.0,0.0,0.0,0.0,0.0,0.0,0.0,0.0,5,helix-core\src\test\java\org\apache\helix\TestZkConnectionCount.java,0,0,0,0
org.apache.helix.ZNRecordAssembler, 0, 0, 0, 0, 0, 0, 0, 0, 0, 0, 0, 0, 0, 0,0.0,0.0,0.0,0.0,0.0,0.0,0.0,0.0,0.0,0.0,0.0,0.0,0.0,17,helix-core\src\main\java\org\apache\helix\ZNRecordAssembler.java,0,0,0,0
org.apache.helix.ZNRecordDelta, 0, 0, 1, 0, 0, 0, 0, 0, 0, 0, 0, 0, 0, 1,0.0,0.0,0.0,0.0,0.0,0.0,0.0,0.0,0.0,0.0,0.0,0.0,0.0,24,helix-core\src\main\java\org\apache\helix\ZNRecordDelta.java,0,0,0,0
org.apache.helix.ZNRecordUpdater, 0, 0, 0, 0, 0, 0, 0, 0, 0, 0, 0, 0, 0, 0,0.0,0.0,0.0,0.0,0.0,0.0,0.0,0.0,0.0,0.0,0.0,0.0,0.0,14,helix-core\src\main\java\org\apache\helix\ZNRecordUpdater.java,0,0,0,0
org.apache.helix.agent.AgentStateModelFactory, 0, 0, 0, 0, 0, 0, 0, 0, 0, 0, 0, 0, 0, 0,0.0,0.0,0.0,0.0,0.0,0.0,0.0,0.0,0.0,0.0,0.0,0.0,0.0,7,helix-agent\src\main\java\org\apache\helix\agent\AgentStateModelFactory.java,0,0,1,2
org.apache.helix.agent.HelixAgentMain, 0, 0, 0, 0, 0, 0, 0, 0, 0, 0, 0, 0, 0, 0,0.0,0.0,0.0,1.0,0.0,0.0,0.0,0.0,0.0,0.0,0.0,0.0,0.0,88,helix-agent\src\main\java\org\apache\helix\agent\HelixAgentMain.java,0,0,0,0
org.apache.helix.agent.ProcessMonitorThread, 0, 0, 0, 0, 0, 0, 0, 0, 0, 0, 0, 0, 0, 0,0.0,0.0,0.0,0.0,0.0,0.0,0.0,0.0,0.0,0.0,0.0,0.0,0.0,25,helix-agent\src\main\java\org\apache\helix\agent\ProcessMonitorThread.java,0,0,0,0
org.apache.helix.agent.SystemUtil, 0, 0, 0, 0, 0, 0, 0, 0, 0, 0, 0, 0, 0, 0,0.0,0.0,0.0,0.0,0.0,0.0,0.0,0.0,0.0,0.0,0.0,0.0,0.0,63,helix-agent\src\main\java\org\apache\helix\agent\SystemUtil.java,0,0,0,0
org.apache.helix.controller.HelixControllerMain, 0, 0, 0, 0, 0, 0, 0, 0, 0, 0, 0, 0, 0, 0,0.0,0.0,0.0,0.0,0.0,0.0,0.0,0.0,0.0,0.0,0.0,0.0,0.0,135,helix-core\src\main\java\org\apache\helix\controller\HelixControllerMain.java,0,0,0,0
org.apache.helix.controller.pipeline.Pipeline, 0, 0, 0, 0, 0, 0, 0, 0, 0, 0, 0, 0, 0, 0,0.0,0.0,0.0,0.0,0.0,0.0,0.0,0.0,0.0,0.0,0.0,0.0,0.0,27,helix-core\src\main\java\org\apache\helix\controller\pipeline\Pipeline.java,0,0,0,0
org.apache.helix.controller.pipeline.Stage, 0, 0, 0, 0, 0, 0, 0, 0, 0, 0, 0, 0, 0, 0,0.0,0.0,0.0,0.0,0.0,0.0,0.0,0.0,0.0,0.0,0.0,0.0,0.0,27,helix-core\src\main\java\org\apache\helix\controller\pipeline\Stage.java,0,0,0,0
org.apache.helix.controller.pipeline.StageContext, 0, 0, 0, 0, 0, 0, 0, 0, 0, 0, 0, 0, 0, 0,0.0,0.0,0.0,0.0,0.0,0.0,0.0,0.0,0.0,0.0,0.0,0.0,0.0,2,helix-core\src\main\java\org\apache\helix\controller\pipeline\StageContext.java,0,0,0,0
org.apache.helix.controller.pipeline.StageException, 0, 0, 0, 0, 0, 0, 0, 0, 0, 0, 0, 0, 0, 0,0.0,0.0,0.0,0.0,0.0,0.0,0.0,0.0,0.0,0.0,0.0,0.0,0.0,8,helix-core\src\main\java\org\apache\helix\controller\pipeline\StageException.java,0,0,0,0
org.apache.helix.controller.rebalancer.Rebalancer, 0, 0, 0, 0, 0, 0, 0, 0, 0, 0, 0, 0, 0, 0,0.0,0.0,0.0,0.0,0.0,0.0,0.0,0.0,0.0,0.0,0.0,0.0,0.0,8,helix-core\src\main\java\org\apache\helix\controller\rebalancer\Rebalancer.java,0,0,0,0
org.apache.helix.controller.rebalancer.internal.MappingCalculator, 0, 0, 0, 0, 0, 0, 0, 0, 0, 0, 0, 0, 0, 0,0.0,0.0,0.0,0.0,0.0,0.0,0.0,0.0,0.0,0.0,0.0,0.0,0.0,8,helix-core\src\main\java\org\apache\helix\controller\rebalancer\internal\MappingCalculator.java,0,0,0,0
org.apache.helix.controller.stages.DummyClusterManager, 0, 0, 0, 1, 0, 0, 0, 0, 0, 0, 0, 0, 0, 1,0.0,0.0,0.3333333333333333,0.0,0.0,0.0,0.0,0.0,0.0,0.0,0.0,0.0,0.0,125,helix-core\src\test\java\org\apache\helix\controller\stages\DummyClusterManager.java,0,5,0,5
org.apache.helix.controller.stages.TestClusterEvent, 0, 0, 0, 0, 0, 0, 0, 0, 0, 0, 0, 0, 0, 0,0.0,0.0,0.0,0.0,0.0,0.0,0.0,0.0,0.0,0.0,0.0,0.0,0.0,9,helix-core\src\test\java\org\apache\helix\controller\stages\TestClusterEvent.java,0,0,0,0
org.apache.helix.controller.stages.TestClusterEventBlockingQueue, 0, 0, 0, 0, 0, 0, 0, 0, 0, 0, 0, 0, 0, 0,0.0,0.0,0.0,0.0,0.0,0.0,0.0,0.0,0.0,0.0,0.0,0.0,0.0,41,helix-core\src\test\java\org\apache\helix\controller\stages\TestClusterEventBlockingQueue.java,0,0,0,0
org.apache.helix.controller.stages.TestCompatibilityCheckStage, 0, 0, 0, 0, 0, 0, 0, 0, 0, 0, 0, 0, 0, 0,0.0,0.0,0.0,0.0,0.0,0.0,0.0,0.0,0.0,0.0,0.0,0.0,0.0,95,helix-core\src\test\java\org\apache\helix\controller\stages\TestCompatibilityCheckStage.java,0,0,0,0
org.apache.helix.controller.stages.TestRebalancePipeline, 0, 0, 0, 0, 0, 0, 0, 0, 0, 0, 0, 0, 0, 0,0.0,0.0,0.0,0.25,0.0,0.0,0.0,0.0,0.0,0.0,0.0,0.0,0.0,252,helix-core\src\test\java\org\apache\helix\controller\stages\TestRebalancePipeline.java,0,0,0,0
org.apache.helix.examples.BootstrapHandler, 0, 0, 0, 0, 0, 0, 0, 0, 0, 0, 0, 0, 0, 0,0.0,0.0,0.0,0.0,0.0,0.0,0.0,0.0,0.0,0.0,0.0,0.0,0.0,51,helix-core\src\main\java\org\apache\helix\examples\BootstrapHandler.java,0,0,1,2
org.apache.helix.examples.BootstrapProcess, 0, 0, 0, 1, 0, 0, 0, 0, 0, 0, 0, 0, 0, 1,0.0,0.0,0.0,0.0,0.0,0.0,0.0,0.0,0.0,0.0,0.0,0.0,0.0,189,helix-core\src\main\java\org\apache\helix\examples\BootstrapProcess.java,2,0,0,2
org.apache.helix.examples.BootstrapReplyHandler, 0, 0, 0, 0, 0, 0, 0, 0, 0, 0, 0, 0, 0, 0,0.0,0.0,0.0,1.0,0.0,0.0,0.0,0.0,0.0,0.0,0.0,0.0,0.0,23,helix-core\src\main\java\org\apache\helix\examples\BootstrapProcess.java,2,0,0,2
org.apache.helix.examples.DummyParticipant, 0, 0, 0, 0, 0, 0, 0, 0, 0, 0, 0, 0, 0, 0,0.0,0.0,0.0,0.0,0.0,0.0,0.0,0.0,0.0,0.0,0.0,0.0,0.0,80,helix-core\src\main\java\org\apache\helix\examples\DummyParticipant.java,0,0,1,2
org.apache.helix.examples.ExampleHelper, 0, 0, 0, 0, 0, 0, 0, 0, 0, 0, 0, 0, 0, 0,0.0,0.0,0.0,0.0,0.0,0.0,0.0,0.0,0.0,0.0,0.0,0.0,0.0,31,helix-core\src\main\java\org\apache\helix\examples\ExampleHelper.java,0,0,0,0
org.apache.helix.examples.ExampleProcess, 0, 0, 0, 1, 0, 0, 0, 0, 0, 0, 0, 0, 0, 1,0.0,0.0,0.0,0.0,0.0,0.0,0.0,0.0,0.0,0.0,0.0,0.0,0.0,166,helix-core\src\main\java\org\apache\helix\examples\ExampleProcess.java,1,0,0,1
org.apache.helix.examples.IdealStateBuilderExample, 0, 0, 0, 0, 0, 0, 0, 0, 0, 0, 0, 0, 0, 0,0.0,0.0,0.0,0.3333333333333333,0.0,0.0,0.0,0.0,0.0,0.0,0.0,0.0,0.0,91,helix-core\src\main\java\org\apache\helix\examples\IdealStateBuilderExample.java,0,0,0,0
org.apache.helix.examples.IdealStateExample, 0, 0, 0, 0, 0, 0, 0, 0, 0, 0, 0, 0, 0, 0,0.0,0.0,0.0,0.0,0.0,0.0,0.0,0.0,0.0,0.0,0.0,0.0,0.0,69,helix-core\src\main\java\org\apache\helix\examples\IdealStateExample.java,0,0,0,0
org.apache.helix.examples.LeaderStandbyStateModelFactory, 0, 0, 0, 0, 0, 0, 0, 0, 0, 0, 0, 0, 0, 0,0.0,0.0,0.0,0.5,0.0,0.0,0.0,0.0,0.0,0.0,0.0,0.0,0.0,33,helix-core\src\main\java\org\apache\helix\examples\LeaderStandbyStateModelFactory.java,0,0,1,2
org.apache.helix.examples.MasterSlaveStateModelFactory, 0, 0, 0, 0, 0, 0, 0, 0, 0, 0, 0, 0, 0, 0,0.0,0.0,0.0,0.5,0.0,0.0,0.0,0.0,0.0,0.0,0.0,0.0,0.0,70,helix-core\src\main\java\org\apache\helix\examples\MasterSlaveStateModelFactory.java,0,0,1,2
org.apache.helix.examples.OnlineOfflineStateModelFactory, 0, 0, 0, 0, 0, 0, 0, 0, 0, 0, 0, 0, 0, 0,0.0,0.0,0.0,0.5,0.0,0.0,0.0,0.0,0.0,0.0,0.0,0.0,0.0,37,helix-core\src\main\java\org\apache\helix\examples\OnlineOfflineStateModelFactory.java,0,0,1,2
org.apache.helix.filestore.ChangeLog, 0, 0, 0, 0, 0, 0, 0, 0, 0, 0, 0, 0, 0, 0,0.0,0.0,0.0,0.0,0.0,0.0,0.0,0.0,0.0,0.0,0.0,0.0,0.0,6,recipes\rsync-replicated-file-system\src\main\java\org\apache\helix\filestore\ChangeLog.java,0,0,0,0
org.apache.helix.filestore.ChangeLogGenerator, 0, 0, 0, 0, 0, 0, 0, 0, 0, 0, 0, 0, 0, 0,0.0,0.0,0.0,0.0,0.0,0.0,0.0,0.0,0.0,0.0,0.0,0.0,0.0,86,recipes\rsync-replicated-file-system\src\main\java\org\apache\helix\filestore\ChangeLogGenerator.java,0,0,0,0
org.apache.helix.filestore.ChangeLogReader, 0, 0, 0, 0, 0, 0, 0, 0, 0, 0, 0, 0, 0, 0,0.0,0.0,0.0,1.0,0.0,0.0,0.0,0.0,0.0,0.0,0.0,0.0,0.0,89,recipes\rsync-replicated-file-system\src\main\java\org\apache\helix\filestore\ChangeLogReader.java,0,0,0,0
org.apache.helix.filestore.CheckpointFile, 0, 0, 0, 0, 0, 0, 0, 0, 0, 0, 0, 0, 0, 0,0.0,0.0,0.0,0.0,0.0,0.0,0.0,0.0,0.0,0.0,0.0,0.0,0.0,45,recipes\rsync-replicated-file-system\src\main\java\org\apache\helix\filestore\CheckpointFile.java,0,0,0,0
org.apache.helix.filestore.FileChangeWatcher, 0, 0, 0, 0, 0, 0, 0, 0, 0, 0, 0, 0, 0, 0,0.0,0.0,0.0,0.0,0.0,0.0,0.0,0.0,0.0,0.0,0.0,0.0,0.0,45,recipes\rsync-replicated-file-system\src\main\java\org\apache\helix\filestore\FileChangeWatcher.java,0,0,0,0
org.apache.helix.filestore.FileStore, 0, 0, 0, 0, 0, 0, 0, 0, 0, 0, 0, 0, 0, 0,0.0,0.0,0.0,0.3333333333333333,0.0,0.0,0.0,0.0,0.0,0.0,0.0,0.0,0.0,60,recipes\rsync-replicated-file-system\src\main\java\org\apache\helix\filestore\FileStore.java,0,0,0,0
org.apache.helix.filestore.FileStoreStateModel, 0, 0, 0, 0, 0, 0, 0, 0, 0, 0, 0, 0, 0, 0,0.0,0.0,0.0,0.16666666666666666,0.0,0.0,0.0,0.0,0.0,0.0,0.0,0.0,0.0,124,recipes\rsync-replicated-file-system\src\main\java\org\apache\helix\filestore\FileStoreStateModel.java,0,0,0,0
org.apache.helix.filestore.FileStoreStateModelFactory, 0, 0, 0, 0, 0, 0, 0, 0, 0, 0, 0, 0, 0, 0,0.0,0.0,0.0,0.0,0.0,0.0,0.0,0.0,0.0,0.0,0.0,0.0,0.0,12,recipes\rsync-replicated-file-system\src\main\java\org\apache\helix\filestore\FileStoreStateModelFactory.java,0,0,1,2
org.apache.helix.filestore.FileSystemWatchService, 0, 0, 0, 0, 0, 0, 0, 0, 0, 0, 0, 0, 0, 0,0.0,0.0,0.0,0.3333333333333333,0.0,0.0,0.0,0.0,0.0,0.0,0.0,0.0,0.0,119,recipes\rsync-replicated-file-system\src\main\java\org\apache\helix\filestore\FileSystemWatchService.java,0,0,0,0
org.apache.helix.filestore.MyRunnable, 0, 0, 0, 0, 0, 0, 0, 0, 0, 0, 0, 0, 0, 0,0.0,0.0,0.0,0.0,0.0,0.0,0.0,0.0,0.0,0.0,0.0,0.0,0.0,68,recipes\rsync-replicated-file-system\src\main\java\org\apache\helix\filestore\FileSystemWatchService.java,0,0,0,0
org.apache.helix.filestore.Replicator, 0, 0, 0, 1, 0, 0, 0, 0, 0, 0, 0, 0, 0, 1,0.0,0.0,0.0,0.0,0.0,0.0,0.0,0.0,0.0,0.0,0.0,0.0,0.0,109,recipes\rsync-replicated-file-system\src\main\java\org\apache\helix\filestore\Replicator.java,0,0,0,0
org.apache.helix.filestore.RsyncDaemon, 0, 0, 0, 0, 0, 0, 0, 0, 0, 0, 0, 0, 0, 0,0.0,0.0,0.0,0.0,0.0,0.0,0.0,0.0,0.0,0.0,0.0,0.0,0.0,18,recipes\rsync-replicated-file-system\src\main\java\org\apache\helix\filestore\RsyncDaemon.java,0,0,0,0
org.apache.helix.filestore.RsyncInvoker, 0, 0, 0, 0, 0, 0, 0, 0, 0, 0, 0, 0, 0, 0,0.0,0.0,0.0,1.0,0.0,0.0,0.0,0.0,0.0,0.0,0.0,0.0,0.0,83,recipes\rsync-replicated-file-system\src\main\java\org\apache\helix\filestore\RsyncInvoker.java,0,0,0,0
org.apache.helix.filestore.SetupCluster, 0, 0, 0, 0, 0, 0, 0, 0, 0, 0, 0, 0, 0, 0,0.0,0.0,0.0,1.0,0.0,0.0,0.0,0.0,0.0,0.0,0.0,0.0,0.0,44,recipes\rsync-replicated-file-system\src\main\java\org\apache\helix\filestore\SetupCluster.java,0,0,0,0
org.apache.helix.filestore.StartClusterManager, 0, 0, 0, 0, 0, 0, 0, 0, 0, 0, 0, 0, 0, 0,0.0,0.0,0.0,0.0,0.0,0.0,0.0,0.0,0.0,0.0,0.0,0.0,0.0,25,recipes\rsync-replicated-file-system\src\main\java\org\apache\helix\filestore\StartClusterManager.java,0,0,0,0
org.apache.helix.filestore.Test, 0, 0, 0, 0, 0, 0, 0, 0, 0, 0, 0, 0, 0, 0,0.0,0.0,0.0,0.0,0.0,0.0,0.0,0.0,0.0,0.0,0.0,0.0,0.0,15,recipes\rsync-replicated-file-system\src\main\java\org\apache\helix\filestore\Test.java,0,0,0,0
org.apache.helix.integration.IntegrationTest, 0, 0, 0, 0, 0, 0, 0, 0, 0, 0, 0, 0, 0, 0,0.0,0.0,0.0,0.0,0.0,0.0,0.0,0.0,0.0,0.0,0.0,0.0,0.0,7,helix-core\src\test\java\org\apache\helix\integration\IntegrationTest.java,0,0,0,0
org.apache.helix.integration.TestAddClusterV2, 0, 0, 0, 1, 0, 0, 0, 1, 0, 0, 0, 0, 0, 2,0.2,0.0,0.0,0.4,0.0,0.0,0.0,0.0,0.0,0.0,0.0,0.0,0.0,98,helix-core\src\test\java\org\apache\helix\integration\TestAddClusterV2.java,0,0,0,0
org.apache.helix.integration.TestAddStateModelFactoryAfterConnect, 0, 0, 0, 0, 0, 0, 0, 0, 0, 0, 0, 0, 0, 0,0.2,0.0,0.0,0.2,0.0,0.0,0.0,0.0,0.0,0.0,0.0,0.0,0.0,71,helix-core\src\test\java\org\apache\helix\integration\TestAddStateModelFactoryAfterConnect.java,0,0,0,0
org.apache.helix.integration.TestAutoIsWithEmptyMap, 0, 0, 0, 0, 0, 0, 0, 0, 0, 0, 0, 0, 0, 0,0.25,0.0,0.0,0.25,0.0,0.0,0.0,0.0,0.0,0.0,0.0,0.0,0.0,48,helix-core\src\test\java\org\apache\helix\integration\TestAutoIsWithEmptyMap.java,0,0,0,0
org.apache.helix.integration.TestBatchMessageWrapper, 0, 0, 0, 0, 0, 0, 0, 0, 0, 0, 0, 0, 0, 0,0.0,0.0,0.0,0.3333333333333333,0.0,0.0,0.0,0.0,0.0,0.0,0.0,0.0,0.0,78,helix-core\src\test\java\org\apache\helix\integration\TestBatchMessageWrapper.java,0,0,0,0
org.apache.helix.integration.TestBucketizedResource, 0, 0, 0, 0, 0, 0, 0, 0, 0, 0, 0, 0, 0, 0,0.3333333333333333,0.0,0.0,0.0,0.0,0.0,0.0,0.0,0.0,0.0,0.0,0.0,0.0,45,helix-core\src\test\java\org\apache\helix\integration\TestBucketizedResource.java,14,170,9,202
org.apache.helix.integration.TestCMWithFailParticipant, 0, 0, 0, 0, 0, 0, 0, 0, 0, 0, 0, 0, 0, 0,1.0,0.0,0.0,0.0,0.0,0.0,0.0,0.0,0.0,0.0,0.0,0.0,0.0,23,helix-core\src\test\java\org\apache\helix\integration\TestCMWithFailParticipant.java,0,0,0,0
org.apache.helix.integration.TestCarryOverBadCurState, 0, 0, 0, 0, 0, 0, 0, 0, 0, 0, 0, 0, 0, 0,0.25,0.0,0.0,0.25,0.0,0.0,0.0,0.0,0.0,0.0,0.0,0.0,0.0,43,helix-core\src\test\java\org\apache\helix\integration\TestCarryOverBadCurState.java,0,0,0,0
org.apache.helix.integration.TestCleanupExternalView, 0, 0, 0, 0, 0, 0, 0, 0, 0, 0, 0, 0, 0, 0,0.0,0.0,0.0,0.0,0.0,0.0,0.0,0.0,0.0,0.0,0.0,0.0,0.0,61,helix-core\src\test\java\org\apache\helix\integration\TestCleanupExternalView.java,0,0,0,0
org.apache.helix.integration.TestClusterStartsup, 0, 0, 0, 0, 0, 0, 0, 0, 0, 0, 0, 0, 0, 0,0.0,0.0,0.0,0.25,0.0,0.0,0.0,0.0,0.0,0.0,0.0,0.0,0.0,85,helix-core\src\test\java\org\apache\helix\integration\TestClusterStartsup.java,0,0,0,0
org.apache.helix.integration.TestCustomIdealState, 0, 0, 0, 0, 0, 0, 0, 0, 0, 0, 0, 0, 0, 0,1.0,0.0,0.0,0.0,0.0,0.0,0.0,0.0,0.0,0.0,0.0,0.0,0.0,75,helix-core\src\test\java\org\apache\helix\integration\TestCustomIdealState.java,4,0,0,4
org.apache.helix.integration.TestDisableNode, 0, 0, 0, 0, 0, 0, 0, 0, 0, 0, 0, 0, 0, 0,0.0,0.0,0.0,0.0,0.0,0.0,0.0,0.0,0.0,0.0,0.0,0.0,0.0,19,helix-core\src\test\java\org\apache\helix\integration\TestDisableNode.java,0,0,0,0
org.apache.helix.integration.TestDistributedCMMain, 0, 0, 0, 0, 0, 0, 0, 0, 0, 0, 0, 0, 0, 0,0.3333333333333333,0.0,0.0,0.0,0.0,0.0,0.0,0.0,0.0,0.0,0.0,0.0,0.0,106,helix-core\src\test\java\org\apache\helix\integration\TestDistributedCMMain.java,1,0,0,1
org.apache.helix.integration.TestDistributedClusterController, 0, 0, 0, 0, 0, 0, 0, 0, 0, 0, 0, 0, 0, 0,0.3333333333333333,0.0,0.0,0.0,0.0,0.0,0.0,0.0,0.0,0.0,0.0,0.0,0.0,86,helix-core\src\test\java\org\apache\helix\integration\TestDistributedClusterController.java,1,0,0,1
org.apache.helix.integration.TestDropResource, 0, 0, 0, 0, 0, 0, 0, 0, 0, 0, 0, 0, 0, 0,0.0,0.0,0.0,0.0,0.0,0.0,0.0,0.0,0.0,0.0,0.0,0.0,0.0,38,helix-core\src\test\java\org\apache\helix\integration\TestDropResource.java,0,0,0,0
org.apache.helix.integration.TestEnablePartitionDuringDisable, 0, 0, 0, 0, 0, 0, 0, 0, 0, 0, 0, 0, 0, 0,0.3333333333333333,0.0,0.0,0.0,0.0,0.0,0.0,0.0,0.0,0.0,0.0,0.0,0.0,88,helix-core\src\test\java\org\apache\helix\integration\TestEnablePartitionDuringDisable.java,0,0,0,0
org.apache.helix.integration.TestEntropyFreeNodeBounce, 0, 0, 0, 0, 0, 0, 0, 0, 0, 0, 0, 0, 0, 0,0.0,0.0,0.0,0.5,0.0,0.0,0.0,0.0,0.0,0.0,0.0,0.0,0.0,111,helix-core\src\test\java\org\apache\helix\integration\TestEntropyFreeNodeBounce.java,0,0,1,2
org.apache.helix.integration.TestExternalCmd, 0, 0, 0, 0, 0, 0, 0, 0, 0, 0, 0, 0, 0, 0,0.0,0.0,0.0,0.0,0.0,0.0,0.0,0.0,0.0,0.0,0.0,0.0,0.0,14,helix-core\src\test\java\org\apache\helix\integration\TestExternalCmd.java,0,0,0,0
org.apache.helix.integration.TestExternalViewUpdates, 0, 0, 0, 0, 0, 0, 0, 0, 0, 0, 0, 0, 0, 0,0.25,0.0,0.25,0.0,0.0,0.0,0.0,0.0,0.0,0.0,0.0,0.0,0.0,50,helix-core\src\test\java\org\apache\helix\integration\TestExternalViewUpdates.java,0,0,0,0
org.apache.helix.integration.TestFailOverPerf1kp, 0, 0, 0, 0, 0, 0, 0, 0, 0, 0, 0, 0, 0, 0,0.0,0.0,0.0,0.0,0.0,0.0,0.0,0.0,0.0,0.0,0.0,0.0,0.0,25,helix-core\src\test\java\org\apache\helix\integration\TestFailOverPerf1kp.java,0,0,0,0
org.apache.helix.integration.TestHelixCustomCodeRunner, 0, 0, 0, 0, 0, 0, 0, 0, 0, 0, 0, 0, 0, 0,0.2,0.0,0.0,0.2,0.0,0.0,0.0,0.0,0.0,0.0,0.0,0.0,0.0,70,helix-core\src\test\java\org\apache\helix\integration\TestHelixCustomCodeRunner.java,0,0,0,0
org.apache.helix.integration.TestHelixInstanceTag, 0, 0, 0, 0, 0, 0, 0, 0, 0, 0, 0, 0, 0, 0,0.0,0.0,0.0,0.0,0.0,0.0,0.0,0.0,0.0,0.0,0.0,0.0,0.0,59,helix-core\src\test\java\org\apache\helix\integration\TestHelixInstanceTag.java,0,0,0,0
org.apache.helix.integration.TestHelixUsingDifferentParams, 0, 0, 0, 0, 0, 0, 0, 0, 0, 0, 0, 0, 0, 0,1.0,0.0,0.0,0.0,0.0,0.0,0.0,0.0,0.0,0.0,0.0,0.0,0.0,45,helix-core\src\test\java\org\apache\helix\integration\TestHelixUsingDifferentParams.java,0,0,0,0
org.apache.helix.integration.TestInstanceAutoJoin, 0, 0, 0, 0, 0, 0, 0, 0, 0, 0, 0, 0, 0, 0,0.0,0.0,0.0,0.0,0.0,0.0,0.0,0.0,0.0,0.0,0.0,0.0,0.0,33,helix-core\src\test\java\org\apache\helix\integration\TestInstanceAutoJoin.java,0,0,0,0
org.apache.helix.integration.TestMessageThrottle, 0, 0, 0, 0, 0, 0, 0, 0, 0, 0, 0, 0, 0, 0,0.3333333333333333,0.0,0.0,0.0,0.0,0.0,0.0,0.0,0.0,0.0,0.0,0.0,0.0,72,helix-core\src\test\java\org\apache\helix\integration\TestMessageThrottle.java,0,0,0,0
org.apache.helix.integration.TestMessagingService, 0, 0, 0, 0, 0, 0, 0, 0, 0, 0, 0, 0, 0, 0,0.0,0.0,0.0,0.6666666666666666,0.0,0.0,0.0,0.0,0.0,0.0,0.0,0.0,0.0,303,helix-core\src\test\java\org\apache\helix\integration\TestMessagingService.java,0,0,0,0
org.apache.helix.integration.TestNonOfflineInitState, 0, 0, 0, 0, 0, 0, 0, 1, 0, 0, 0, 0, 0, 1,0.2,0.0,0.0,0.4,0.0,0.0,0.0,0.0,0.0,0.0,0.0,0.0,0.0,60,helix-core\src\test\java\org\apache\helix\integration\TestNonOfflineInitState.java,1,0,0,1
org.apache.helix.integration.TestNullReplica, 0, 0, 0, 0, 0, 0, 0, 0, 0, 0, 0, 0, 0, 0,0.25,0.0,0.0,0.25,0.0,0.0,0.0,0.0,0.0,0.0,0.0,0.0,0.0,40,helix-core\src\test\java\org\apache\helix\integration\TestNullReplica.java,0,0,0,0
org.apache.helix.integration.TestParticipantErrorMessage, 0, 0, 0, 0, 0, 0, 0, 0, 0, 0, 0, 0, 0, 0,0.0,0.0,0.0,0.5,0.0,0.0,0.0,0.0,0.0,0.0,0.0,0.0,0.0,55,helix-core\src\test\java\org\apache\helix\integration\TestParticipantErrorMessage.java,0,0,0,0
org.apache.helix.integration.TestParticipantNameCollision, 0, 0, 0, 0, 0, 0, 0, 0, 0, 0, 0, 0, 0, 0,0.0,0.0,0.0,0.0,0.0,0.0,0.0,0.0,0.0,0.0,0.0,0.0,0.0,20,helix-core\src\test\java\org\apache\helix\integration\TestParticipantNameCollision.java,0,0,0,0
org.apache.helix.integration.TestPartitionLevelTransitionConstraint, 0, 0, 0, 0, 0, 0, 0, 0, 0, 0, 0, 0, 0, 0,0.25,0.0,0.0,0.25,0.0,0.0,0.0,0.0,0.0,0.0,0.0,0.0,0.0,134,helix-core\src\test\java\org\apache\helix\integration\TestPartitionLevelTransitionConstraint.java,0,0,1,2
org.apache.helix.integration.TestPauseSignal, 0, 0, 0, 0, 0, 0, 0, 0, 0, 0, 0, 0, 0, 0,0.2,0.0,0.0,0.2,0.0,0.0,0.0,0.0,0.0,0.0,0.0,0.0,0.0,58,helix-core\src\test\java\org\apache\helix\integration\TestPauseSignal.java,0,0,0,0
org.apache.helix.integration.TestPreferenceListAsQueue, 0, 0, 0, 1, 0, 0, 0, 0, 0, 0, 0, 0, 0, 1,0.0,0.0,0.5,0.0,0.0,0.0,0.0,0.0,0.0,0.0,0.0,0.0,0.0,299,helix-core\src\test\java\org\apache\helix\integration\TestPreferenceListAsQueue.java,0,0,1,2
org.apache.helix.integration.TestReelectedPipelineCorrectness, 0, 0, 0, 0, 0, 0, 0, 0, 0, 0, 0, 0, 0, 0,0.0,0.0,0.0,0.3333333333333333,0.0,0.0,0.0,0.0,0.0,0.0,0.0,0.0,0.0,90,helix-core\src\test\java\org\apache\helix\integration\TestReelectedPipelineCorrectness.java,0,0,0,0
org.apache.helix.integration.TestRestartParticipant, 0, 0, 0, 0, 0, 0, 0, 0, 0, 0, 0, 0, 0, 0,0.25,0.0,0.0,0.25,0.0,0.0,0.0,0.0,0.0,0.0,0.0,0.0,0.0,64,helix-core\src\test\java\org\apache\helix\integration\TestRestartParticipant.java,0,0,0,0
org.apache.helix.integration.TestSessionExpiryInTransition, 0, 0, 0, 0, 0, 0, 0, 0, 0, 0, 0, 0, 0, 0,0.3333333333333333,0.0,0.0,0.0,0.0,0.0,0.0,0.0,0.0,0.0,0.0,0.0,0.0,54,helix-core\src\test\java\org\apache\helix\integration\TestSessionExpiryInTransition.java,2,0,0,2
org.apache.helix.integration.TestStandAloneCMMain, 0, 0, 0, 0, 0, 0, 0, 0, 0, 0, 0, 0, 0, 0,0.0,0.0,0.0,0.3333333333333333,0.0,0.0,0.0,0.0,0.0,0.0,0.0,0.0,0.0,34,helix-core\src\test\java\org\apache\helix\integration\TestStandAloneCMMain.java,0,0,0,0
org.apache.helix.integration.TestStandAloneCMSessionExpiry, 0, 0, 0, 0, 0, 0, 0, 0, 0, 0, 0, 0, 0, 0,0.25,0.0,0.0,0.25,0.0,0.0,0.0,0.0,0.0,0.0,0.0,0.0,0.0,60,helix-core\src\test\java\org\apache\helix\integration\TestStandAloneCMSessionExpiry.java,1,0,0,1
org.apache.helix.integration.TestStartMultipleControllersWithSameName, 0, 0, 0, 0, 0, 0, 0, 0, 0, 0, 0, 0, 0, 0,0.5,0.0,0.0,0.0,0.0,0.0,0.0,0.0,0.0,0.0,0.0,0.0,0.0,32,helix-core\src\test\java\org\apache\helix\integration\TestStartMultipleControllersWithSameName.java,0,0,0,0
org.apache.helix.integration.TestSwapInstance, 0, 0, 0, 0, 0, 0, 0, 0, 0, 0, 0, 0, 0, 0,0.0,0.0,0.0,0.0,0.0,0.0,0.0,0.0,0.0,0.0,0.0,0.0,0.0,74,helix-core\src\test\java\org\apache\helix\integration\TestSwapInstance.java,0,0,0,0
org.apache.helix.integration.TestZkReconnect, 0, 0, 0, 0, 0, 0, 0, 0, 0, 0, 0, 0, 0, 0,0.0,0.0,0.0,0.0,0.0,0.0,0.0,0.0,0.0,0.0,0.0,0.0,0.0,84,helix-core\src\test\java\org\apache\helix\integration\TestZkReconnect.java,0,0,1,2
org.apache.helix.integration.TestZkSessionExpiry, 0, 0, 0, 0, 0, 0, 0, 0, 0, 0, 0, 0, 0, 0,0.0,0.0,0.0,0.3333333333333333,0.0,0.0,0.0,0.0,0.0,0.0,0.0,0.0,0.0,104,helix-core\src\test\java\org\apache\helix\integration\TestZkSessionExpiry.java,0,0,0,0
org.apache.helix.integration.ZkIntegrationTestBase, 1, 0, 0, 0, 0, 0, 0, 0, 0, 0, 0, 0, 0, 1,0.0,0.0,0.0,0.06451612903225806,0.0,0.0,0.0,0.06451612903225806,0.0,0.0,0.0,0.0,0.0,45,helix-core\src\test\java\org\apache\helix\integration\ZkIntegrationTestBase.java,0,3,0,3
org.apache.helix.integration.ZkStandAloneCMTestBase, 0, 0, 0, 0, 0, 0, 0, 0, 0, 0, 0, 0, 0, 0,0.05263157894736842,0.0,0.0,0.05263157894736842,0.0,0.0,0.0,0.0,0.0,0.0,0.0,0.0,0.0,53,helix-core\src\test\java\org\apache\helix\integration\ZkStandAloneCMTestBase.java,0,0,0,0
org.apache.helix.integration.manager.ClusterControllerManager, 0, 0, 0, 0, 0, 0, 0, 0, 0, 0, 0, 0, 0, 0,0.0,0.0,0.0,0.058823529411764705,0.0,0.0,0.0,0.029411764705882353,0.0,0.0,0.0,0.0,0.0,50,helix-core\src\test\java\org\apache\helix\integration\manager\ClusterControllerManager.java,0,3,0,3
org.apache.helix.integration.manager.ClusterDistributedController, 0, 0, 0, 0, 0, 0, 0, 0, 0, 0, 0, 0, 0, 0,0.0,0.0,0.0,0.2727272727272727,0.0,0.0,0.0,0.09090909090909091,0.0,0.0,0.0,0.0,0.0,52,helix-core\src\test\java\org\apache\helix\integration\manager\ClusterDistributedController.java,0,0,0,0
org.apache.helix.integration.manager.MockParticipantManager, 0, 0, 0, 0, 0, 0, 0, 0, 0, 0, 0, 0, 0, 0,0.0,0.0,0.0,0.06818181818181818,0.0,0.0,0.0,0.045454545454545456,0.0,0.0,0.0,0.0,0.0,66,helix-core\src\test\java\org\apache\helix\integration\manager\MockParticipantManager.java,0,0,0,0
org.apache.helix.integration.manager.TestConsecutiveZkSessionExpiry, 0, 0, 0, 0, 0, 0, 0, 0, 0, 0, 0, 0, 0, 0,0.0,0.0,0.0,0.2,0.0,0.0,0.0,0.0,0.0,0.0,0.0,0.0,0.0,166,helix-core\src\test\java\org\apache\helix\integration\manager\TestConsecutiveZkSessionExpiry.java,0,0,0,0
org.apache.helix.integration.manager.TestControllerManager, 0, 0, 0, 0, 0, 0, 0, 0, 0, 0, 0, 0, 0, 0,0.0,0.0,0.0,0.3333333333333333,0.0,0.0,0.0,0.0,0.0,0.0,0.0,0.0,0.0,92,helix-core\src\test\java\org\apache\helix\integration\manager\TestControllerManager.java,0,0,0,0
org.apache.helix.integration.manager.TestDistributedControllerManager, 0, 0, 0, 0, 0, 0, 0, 0, 0, 0, 0, 0, 0, 0,0.25,0.0,0.0,0.25,0.0,0.0,0.0,0.0,0.0,0.0,0.0,0.0,0.0,123,helix-core\src\test\java\org\apache\helix\integration\manager\TestDistributedControllerManager.java,0,0,0,0
org.apache.helix.integration.manager.TestParticipantManager, 0, 0, 0, 0, 0, 0, 0, 0, 0, 0, 0, 0, 0, 0,0.16666666666666666,0.0,0.0,0.3333333333333333,0.0,0.0,0.0,0.0,0.0,0.0,0.0,0.0,0.0,155,helix-core\src\test\java\org\apache\helix\integration\manager\TestParticipantManager.java,1,0,0,1
org.apache.helix.integration.manager.ZkTestManager, 0, 0, 0, 0, 0, 0, 0, 0, 0, 0, 0, 0, 0, 0,0.0,0.0,0.0,0.0,0.0,0.0,0.0,0.0,0.0,0.0,0.0,0.0,0.0,155,helix-core\src\test\java\org\apache\helix\integration\manager\ZkTestManager.java,0,0,0,0
org.apache.helix.integration.task.TestUtil, 0, 0, 0, 0, 0, 0, 0, 0, 0, 0, 0, 0, 0, 0,0.0,0.0,0.0,0.0,0.0,0.0,0.0,0.0,0.0,0.0,0.0,0.0,0.0,25,helix-core\src\test\java\org\apache\helix\integration\task\TestUtil.java,0,15,2,19
org.apache.helix.lockmanager.Lock, 0, 0, 0, 0, 0, 0, 0, 0, 0, 0, 0, 0, 0, 0,0.0,0.0,0.0,0.0,0.0,0.0,0.0,0.0,0.0,0.0,0.0,0.0,0.0,14,recipes\distributed-lock-manager\src\main\java\org\apache\helix\lockmanager\Lock.java,0,0,0,0
org.apache.helix.lockmanager.LockFactory, 0, 0, 0, 0, 0, 0, 0, 0, 0, 0, 0, 0, 0, 0,0.0,0.0,0.0,0.0,0.0,0.0,0.0,0.0,0.0,0.0,0.0,0.0,0.0,6,recipes\distributed-lock-manager\src\main\java\org\apache\helix\lockmanager\LockFactory.java,0,0,1,2
org.apache.helix.lockmanager.LockProcess, 0, 0, 0, 0, 0, 0, 0, 0, 0, 0, 0, 0, 0, 0,0.0,0.0,0.0,0.0,0.0,0.0,0.0,0.0,0.0,0.0,0.0,0.0,0.0,68,recipes\distributed-lock-manager\src\main\java\org\apache\helix\lockmanager\LockProcess.java,0,0,0,0
org.apache.helix.manager.MockListener, 0, 0, 1, 1, 0, 0, 0, 0, 0, 0, 0, 0, 0, 2,0.0,0.0,0.0,0.0,0.0,0.0,0.0,0.0,0.0,0.0,0.0,0.0,0.0,53,helix-core\src\test\java\org\apache\helix\manager\MockListener.java,0,0,0,0
org.apache.helix.manager.zk.BasicZkSerializer, 0, 0, 0, 0, 0, 0, 0, 0, 0, 0, 0, 0, 0, 0,0.0,0.0,0.0,1.0,0.0,0.0,0.0,0.0,0.0,0.0,0.0,0.0,0.0,13,helix-core\src\main\java\org\apache\helix\manager\zk\BasicZkSerializer.java,0,0,0,0
org.apache.helix.manager.zk.ByteArraySerializer, 0, 0, 0, 0, 0, 0, 0, 0, 0, 0, 0, 0, 0, 0,0.0,0.0,0.0,0.0,0.0,0.0,0.0,0.0,0.0,0.0,0.0,0.0,0.0,10,helix-core\src\main\java\org\apache\helix\manager\zk\ByteArraySerializer.java,0,0,0,0
org.apache.helix.manager.zk.ChainedPathZkSerializer, 0, 0, 0, 0, 0, 0, 0, 0, 0, 0, 0, 0, 0, 0,0.0,0.0,0.0,1.0,0.0,0.0,0.0,0.0,0.0,0.0,0.0,0.0,0.0,73,helix-core\src\main\java\org\apache\helix\manager\zk\ChainedPathZkSerializer.java,0,0,0,0
org.apache.helix.manager.zk.ControllerManagerHelper, 0, 0, 0, 0, 0, 0, 0, 0, 0, 0, 0, 0, 0, 0,0.0,0.0,0.0,0.0,0.0,0.0,0.0,0.0,0.0,0.0,0.0,0.0,0.0,56,helix-core\src\main\java\org\apache\helix\manager\zk\ControllerManagerHelper.java,0,0,0,0
org.apache.helix.manager.zk.CurStateCarryOverUpdater, 0, 0, 0, 0, 0, 0, 0, 0, 0, 0, 0, 0, 0, 0,0.0,0.0,0.0,1.0,0.0,0.0,0.0,0.0,0.0,0.0,0.0,0.0,0.0,31,helix-core\src\main\java\org\apache\helix\manager\zk\CurStateCarryOverUpdater.java,0,0,0,0
org.apache.helix.manager.zk.DefaultControllerMessageHandlerFactory, 0, 0, 0, 0, 0, 0, 0, 0, 0, 0, 0, 0, 0, 0,0.0,0.0,0.0,0.0,0.0,0.0,0.0,0.0,0.0,0.0,0.0,0.0,0.0,41,helix-core\src\main\java\org\apache\helix\manager\zk\DefaultControllerMessageHandlerFactory.java,0,0,0,0
org.apache.helix.manager.zk.DefaultParticipantErrorMessageHandlerFactory, 0, 0, 0, 0, 0, 0, 0, 0, 0, 0, 0, 0, 0, 0,0.0,0.0,0.0,0.0,0.0,0.0,0.0,0.0,0.0,0.0,0.0,0.0,0.0,68,helix-core\src\main\java\org\apache\helix\manager\zk\DefaultParticipantErrorMessageHandlerFactory.java,0,0,0,0
org.apache.helix.manager.zk.DistributedLeaderElection, 0, 0, 0, 0, 0, 0, 0, 0, 0, 0, 0, 0, 0, 0,0.0,0.0,0.0,0.2,0.0,0.0,0.0,0.0,0.0,0.0,0.0,0.0,0.0,97,helix-core\src\main\java\org\apache\helix\manager\zk\DistributedLeaderElection.java,0,0,0,0
org.apache.helix.manager.zk.HelixGroupCommit, 0, 0, 0, 0, 0, 0, 0, 0, 0, 0, 0, 0, 0, 0,0.0,0.0,0.0,0.0,0.0,0.0,0.0,0.0,0.0,0.0,0.0,0.0,0.0,95,helix-core\src\main\java\org\apache\helix\manager\zk\HelixGroupCommit.java,1,13,3,20
org.apache.helix.manager.zk.HelixManagerShutdownHook, 0, 0, 0, 0, 0, 0, 0, 0, 0, 0, 0, 0, 0, 0,0.0,0.0,0.0,0.5,0.0,0.0,0.0,0.0,0.0,0.0,0.0,0.0,0.0,13,helix-core\src\main\java\org\apache\helix\manager\zk\HelixManagerShutdownHook.java,0,0,0,0
org.apache.helix.manager.zk.ParticipantManagerHelper, 0, 0, 0, 1, 0, 0, 0, 0, 0, 0, 0, 0, 0, 1,0.0,0.0,0.1111111111111111,0.2222222222222222,0.0,0.0,0.0,0.0,0.0,0.0,0.0,0.0,0.0,177,helix-core\src\main\java\org\apache\helix\manager\zk\ParticipantManagerHelper.java,0,29,1,31
org.apache.helix.manager.zk.PathBasedZkSerializer, 0, 0, 0, 0, 0, 0, 0, 0, 0, 0, 0, 0, 0, 0,0.0,0.0,0.0,0.0,0.0,0.0,0.0,0.0,0.0,0.0,0.0,0.0,0.0,177,helix-core\src\main\java\org\apache\helix\manager\zk\PathBasedZkSerializer.java,0,0,0,0
org.apache.helix.manager.zk.TestHandleNewSession, 0, 0, 0, 0, 0, 0, 0, 0, 0, 0, 0, 0, 0, 0,0.3333333333333333,0.0,0.0,0.3333333333333333,0.0,0.0,0.0,0.0,0.0,0.0,0.0,0.0,0.0,33,helix-core\src\test\java\org\apache\helix\manager\zk\TestHandleNewSession.java,0,0,0,0
org.apache.helix.manager.zk.TestLiveInstanceBounce, 0, 0, 0, 0, 0, 0, 0, 0, 0, 0, 0, 0, 0, 0,0.0,0.0,0.0,0.0,0.0,0.0,0.0,0.0,0.0,0.0,0.0,0.0,0.0,30,helix-core\src\test\java\org\apache\helix\manager\zk\TestLiveInstanceBounce.java,0,0,0,0
org.apache.helix.manager.zk.TestWtCacheAsyncOpMultiThread, 0, 0, 0, 0, 0, 0, 0, 0, 0, 0, 0, 0, 0, 0,0.0,0.0,0.0,0.0,0.0,0.0,0.0,0.0,0.0,0.0,0.0,0.0,0.0,155,helix-core\src\test\java\org\apache\helix\manager\zk\TestWtCacheAsyncOpMultiThread.java,0,0,0,0
org.apache.helix.manager.zk.TestWtCacheAsyncOpSingleThread, 0, 0, 0, 0, 0, 0, 0, 0, 0, 0, 0, 0, 0, 0,0.0,0.0,0.0,0.0,0.0,0.0,0.0,0.0,0.0,0.0,0.0,0.0,0.0,134,helix-core\src\test\java\org\apache\helix\manager\zk\TestWtCacheAsyncOpSingleThread.java,0,0,0,0
org.apache.helix.manager.zk.TestWtCacheSyncOpSingleThread, 0, 0, 0, 0, 0, 0, 0, 0, 0, 0, 0, 0, 0, 0,0.0,0.0,0.0,0.0,0.0,0.0,0.0,0.0,0.0,0.0,0.0,0.0,0.0,91,helix-core\src\test\java\org\apache\helix\manager\zk\TestWtCacheSyncOpSingleThread.java,0,0,0,0
org.apache.helix.manager.zk.TestZKUtil, 0, 0, 0, 0, 0, 0, 0, 0, 0, 0, 0, 0, 0, 0,0.0,0.0,0.0,0.5,0.0,0.0,0.0,0.0,0.0,0.0,0.0,0.0,0.0,105,helix-core\src\test\java\org\apache\helix\manager\zk\TestZKUtil.java,0,0,0,0
org.apache.helix.manager.zk.TestZNRecordSizeLimit, 0, 0, 0, 0, 0, 0, 0, 0, 0, 0, 0, 0, 0, 0,0.0,0.0,0.0,0.5,0.0,0.0,0.0,0.0,0.0,0.0,0.0,0.0,0.0,191,helix-core\src\test\java\org\apache\helix\manager\zk\TestZNRecordSizeLimit.java,0,0,0,0
org.apache.helix.manager.zk.TestZkBaseDataAccessor, 0, 0, 0, 0, 0, 0, 0, 0, 0, 0, 0, 0, 0, 0,0.0,0.0,0.0,0.5,0.0,0.0,0.0,0.0,0.0,0.0,0.0,0.0,0.0,370,helix-core\src\test\java\org\apache\helix\manager\zk\TestZkBaseDataAccessor.java,0,0,0,0
org.apache.helix.manager.zk.TestZkCacheAsyncOpSingleThread, 0, 0, 0, 0, 0, 0, 0, 0, 0, 0, 0, 0, 0, 0,0.0,0.0,0.0,0.5,0.0,0.0,0.0,0.0,0.0,0.0,0.0,0.0,0.0,193,helix-core\src\test\java\org\apache\helix\manager\zk\TestZkCacheAsyncOpSingleThread.java,0,0,0,0
org.apache.helix.manager.zk.TestZkFlapping, 0, 0, 0, 0, 0, 0, 0, 0, 0, 0, 0, 0, 0, 0,0.0,0.0,0.0,0.3333333333333333,0.0,0.0,0.0,0.0,0.0,0.0,0.0,0.0,0.0,196,helix-core\src\test\java\org\apache\helix\manager\zk\TestZkFlapping.java,0,0,0,0
org.apache.helix.manager.zk.TestZkManagerFlappingDetection, 0, 0, 0, 0, 0, 0, 0, 0, 0, 0, 0, 0, 0, 0,0.25,0.0,0.0,0.25,0.0,0.0,0.0,0.0,0.0,0.0,0.0,0.0,0.0,73,helix-core\src\test\java\org\apache\helix\manager\zk\TestZkManagerFlappingDetection.java,0,0,0,0
org.apache.helix.manager.zk.TestZkStateChangeListener, 0, 0, 0, 0, 0, 0, 0, 0, 0, 0, 0, 0, 0, 0,0.0,0.0,0.0,0.5,0.0,0.0,0.0,0.0,0.0,0.0,0.0,0.0,0.0,40,helix-core\src\test\java\org\apache\helix\manager\zk\TestZkStateChangeListener.java,0,0,0,0
org.apache.helix.manager.zk.WriteThroughCache, 0, 0, 0, 0, 0, 0, 0, 0, 0, 0, 0, 0, 0, 0,0.0,0.0,0.0,1.0,0.0,0.0,0.0,0.0,0.0,0.0,0.0,0.0,0.0,52,helix-core\src\main\java\org\apache\helix\manager\zk\WriteThroughCache.java,1,0,0,1
org.apache.helix.manager.zk.ZKExceptionHandler, 0, 0, 0, 0, 0, 0, 0, 0, 0, 0, 0, 0, 0, 0,0.0,0.0,0.0,0.0,0.0,0.0,0.0,0.0,0.0,0.0,0.0,0.0,0.0,17,helix-core\src\main\java\org\apache\helix\manager\zk\ZKExceptionHandler.java,0,0,0,0
org.apache.helix.manager.zk.ZKHelixManager, 0, 0, 0, 1, 0, 0, 0, 0, 0, 0, 0, 0, 0, 1,0.0,0.0,0.024390243902439025,0.07317073170731707,0.0,0.0,0.0,0.04878048780487805,0.0,0.0,0.0,0.0,0.0,584,helix-core\src\main\java\org\apache\helix\manager\zk\ZKHelixManager.java,0,49,2,53
org.apache.helix.manager.zk.ZKUtil, 0, 0, 0, 0, 0, 0, 0, 0, 0, 0, 0, 0, 0, 0,0.0,0.0,0.0,0.5,0.0,0.0,0.0,0.0,0.0,0.0,0.0,0.0,0.0,234,helix-core\src\main\java\org\apache\helix\manager\zk\ZKUtil.java,2,5,4,15
org.apache.helix.manager.zk.ZkAsyncCallbacks, 0, 0, 0, 0, 0, 0, 0, 0, 0, 0, 0, 0, 0, 0,0.0,0.0,0.0,0.0,0.0,0.0,0.0,0.0,0.0,0.0,0.0,0.0,0.0,96,helix-core\src\main\java\org\apache\helix\manager\zk\ZkAsyncCallbacks.java,0,0,2,4
org.apache.helix.manager.zk.ZkCacheEventThread, 0, 0, 0, 0, 0, 0, 0, 0, 0, 0, 0, 0, 0, 0,0.0,0.0,0.0,0.0,0.0,0.0,0.0,0.0,0.0,0.0,0.0,0.0,0.0,49,helix-core\src\main\java\org\apache\helix\manager\zk\ZkCacheEventThread.java,0,2,0,2
org.apache.helix.manager.zk.ZkClient, 0, 0, 0, 1, 0, 0, 0, 0, 0, 0, 0, 0, 0, 1,0.08333333333333333,0.0,0.0,0.14583333333333334,0.0,0.0,0.0,0.041666666666666664,0.0,0.0,0.0,0.0,0.0,312,helix-core\src\main\java\org\apache\helix\manager\zk\ZkClient.java,1,0,0,1
org.apache.helix.manager.zk.serializer.JacksonPayloadSerializer, 0, 0, 0, 0, 0, 0, 0, 0, 0, 0, 0, 0, 0, 0,0.0,0.0,0.0,0.0,0.0,0.0,0.0,0.0,0.0,0.0,0.0,0.0,0.0,41,helix-core\src\main\java\org\apache\helix\manager\zk\serializer\JacksonPayloadSerializer.java,0,0,0,0
org.apache.helix.manager.zk.serializer.PayloadSerializer, 0, 0, 0, 0, 0, 0, 0, 0, 0, 0, 0, 0, 0, 0,0.0,0.0,0.0,0.0,0.0,0.0,0.0,0.0,0.0,0.0,0.0,0.0,0.0,41,helix-core\src\main\java\org\apache\helix\manager\zk\serializer\PayloadSerializer.java,0,0,0,0
org.apache.helix.manager.zk.serializer.TestJacksonPayloadSerializer, 0, 0, 0, 0, 0, 0, 0, 0, 0, 0, 0, 0, 0, 0,0.0,0.0,0.0,0.0,0.0,0.0,0.0,0.0,0.0,0.0,0.0,0.0,0.0,117,helix-core\src\test\java\org\apache\helix\manager\zk\serializer\TestJacksonPayloadSerializer.java,0,0,0,0
org.apache.helix.messaging.AsyncCallback, 0, 0, 0, 1, 0, 0, 0, 0, 0, 0, 0, 0, 0, 1,0.0,0.0,0.0,0.0,0.0,0.0,0.0,0.0,0.0,0.0,0.0,0.0,0.0,89,helix-core\src\main\java\org\apache\helix\messaging\AsyncCallback.java,0,0,0,0
org.apache.helix.messaging.TestAsyncCallback, 0, 0, 0, 0, 0, 0, 0, 0, 0, 0, 0, 0, 0, 0,0.0,0.0,0.0,1.0,0.0,0.0,0.0,0.0,0.0,0.0,0.0,0.0,0.0,75,helix-core\src\test\java\org\apache\helix\messaging\TestAsyncCallback.java,0,0,0,0
org.apache.helix.messaging.TestDefaultMessagingService, 0, 0, 0, 0, 0, 0, 0, 0, 0, 0, 0, 0, 0, 0,0.0,0.0,0.0,0.0,0.0,0.0,0.0,0.0,0.0,0.0,0.0,0.0,0.0,154,helix-core\src\test\java\org\apache\helix\messaging\TestDefaultMessagingService.java,0,0,0,0
org.apache.helix.messaging.handling.BatchMessageWrapper, 0, 0, 0, 0, 0, 0, 0, 0, 0, 0, 0, 0, 0, 0,0.0,0.0,0.0,0.0,0.0,0.0,0.0,0.0,0.0,0.0,0.0,0.0,0.0,6,helix-core\src\main\java\org\apache\helix\messaging\handling\BatchMessageWrapper.java,0,0,0,0
org.apache.helix.messaging.handling.CurrentStateUpdate, 0, 0, 0, 0, 0, 0, 0, 0, 0, 0, 0, 0, 0, 0,0.0,0.0,1.0,0.0,0.0,0.0,0.0,0.0,0.0,0.0,0.0,0.0,0.0,11,helix-core\src\main\java\org\apache\helix\messaging\handling\CurrentStateUpdate.java,0,0,0,0
org.apache.helix.messaging.handling.MessageHandler, 0, 0, 0, 0, 0, 0, 0, 0, 0, 0, 0, 0, 0, 0,0.0,0.0,0.0,0.0,0.0,0.0,0.0,0.0,0.0,0.0,0.0,0.0,0.0,21,helix-core\src\main\java\org\apache\helix\messaging\handling\MessageHandler.java,2,0,0,2
org.apache.helix.messaging.handling.MessageHandlerFactory, 0, 0, 0, 0, 0, 0, 0, 0, 0, 0, 0, 0, 0, 0,0.0,0.0,0.0,0.0,0.0,0.0,0.0,0.0,0.0,0.0,0.0,0.0,0.0,21,helix-core\src\main\java\org\apache\helix\messaging\handling\MessageHandlerFactory.java,0,0,0,0
org.apache.helix.messaging.handling.MessageTask, 0, 0, 0, 0, 0, 0, 0, 0, 0, 0, 0, 0, 0, 0,0.0,0.0,0.0,0.0,0.0,0.0,0.0,0.0,0.0,0.0,0.0,0.0,0.0,21,helix-core\src\main\java\org\apache\helix\messaging\handling\MessageTask.java,0,0,0,0
org.apache.helix.messaging.handling.MessageTaskInfo, 0, 0, 0, 0, 0, 0, 0, 0, 0, 0, 0, 0, 0, 0,0.0,0.0,0.0,0.0,0.0,0.0,0.0,0.0,0.0,0.0,0.0,0.0,0.0,13,helix-core\src\main\java\org\apache\helix\messaging\handling\MessageTaskInfo.java,0,0,0,0
org.apache.helix.messaging.handling.MessageTimeoutTask, 0, 0, 0, 0, 0, 0, 0, 0, 0, 0, 0, 0, 0, 0,0.0,0.0,0.0,0.0,0.0,0.0,0.0,0.0,0.0,0.0,0.0,0.0,0.0,17,helix-core\src\main\java\org\apache\helix\messaging\handling\MessageTimeoutTask.java,0,0,0,0
org.apache.helix.messaging.handling.TaskExecutor, 0, 0, 0, 0, 0, 0, 0, 0, 0, 0, 0, 0, 0, 0,0.0,0.0,0.0,0.0,0.0,0.0,0.0,0.0,0.0,0.0,0.0,0.0,0.0,17,helix-core\src\main\java\org\apache\helix\messaging\handling\TaskExecutor.java,0,0,0,0
org.apache.helix.messaging.handling.TestConfigThreadpoolSize, 0, 0, 0, 0, 0, 0, 0, 0, 0, 0, 0, 0, 0, 0,0.0,0.0,0.0,0.5,0.0,0.0,0.0,0.0,0.0,0.0,0.0,0.0,0.0,66,helix-core\src\test\java\org\apache\helix\messaging\handling\TestConfigThreadpoolSize.java,0,0,0,0
org.apache.helix.messaging.handling.TestResourceThreadpoolSize, 0, 0, 0, 0, 0, 0, 0, 0, 0, 0, 0, 0, 0, 0,0.0,0.0,0.0,0.5,0.0,0.0,0.0,0.0,0.0,0.0,0.0,0.0,0.0,29,helix-core\src\test\java\org\apache\helix\messaging\handling\TestResourceThreadpoolSize.java,0,0,0,0
org.apache.helix.mock.controller.MockControllerProcess, 0, 0, 0, 0, 0, 0, 0, 0, 0, 0, 0, 0, 0, 0,0.0,0.0,0.0,0.0,0.0,0.0,0.0,0.0,0.0,0.0,0.0,0.0,0.0,29,helix-core\src\test\java\org\apache\helix\mock\controller\MockControllerProcess.java,0,0,0,0
org.apache.helix.mock.participant.DummyProcess, 0, 0, 0, 1, 0, 0, 0, 0, 0, 0, 0, 0, 0, 1,0.0,0.0,0.0,0.0,0.0,0.0,0.0,0.0,0.0,0.0,0.0,0.0,0.0,284,helix-core\src\test\java\org\apache\helix\mock\participant\DummyProcess.java,0,0,3,6
org.apache.helix.mock.participant.MockBootstrapModelFactory, 0, 0, 0, 0, 0, 0, 0, 0, 0, 0, 0, 0, 0, 0,0.0,0.0,0.0,0.0,0.0,0.0,0.0,0.0,0.0,0.0,0.0,0.0,0.0,7,helix-core\src\test\java\org\apache\helix\mock\participant\MockBootstrapModelFactory.java,0,0,1,2
org.apache.helix.mock.participant.MockBootstrapStateModel, 0, 0, 0, 0, 0, 0, 0, 0, 0, 0, 0, 0, 0, 0,0.0,0.0,0.0,0.0,0.0,0.0,0.0,0.0,0.0,0.0,0.0,0.0,0.0,22,helix-core\src\test\java\org\apache\helix\mock\participant\MockBootstrapStateModel.java,0,0,0,0
org.apache.helix.mock.participant.MockMSModelFactory, 0, 0, 0, 0, 0, 0, 0, 0, 0, 0, 0, 0, 0, 0,0.0,0.0,0.0,0.0,0.0,0.0,0.0,0.0,0.0,0.0,0.0,0.0,0.0,21,helix-core\src\test\java\org\apache\helix\mock\participant\MockMSModelFactory.java,0,2,3,8
org.apache.helix.mock.participant.MockMSStateModel, 0, 0, 0, 0, 0, 0, 0, 0, 0, 0, 0, 0, 0, 0,0.0,0.0,0.0,0.0,0.0,0.0,0.0,0.0,0.0,0.0,0.0,0.0,0.0,73,helix-core\src\test\java\org\apache\helix\mock\participant\MockMSStateModel.java,0,0,0,0
org.apache.helix.mock.participant.MockSchemataModelFactory, 0, 0, 0, 0, 0, 0, 0, 0, 0, 0, 0, 0, 0, 0,0.0,0.0,0.0,0.0,0.0,0.0,0.0,0.0,0.0,0.0,0.0,0.0,0.0,7,helix-core\src\test\java\org\apache\helix\mock\participant\MockSchemataModelFactory.java,0,0,1,2
org.apache.helix.mock.participant.MockSchemataStateModel, 0, 0, 0, 0, 0, 0, 0, 0, 0, 0, 0, 0, 0, 0,0.0,0.0,0.0,0.0,0.0,0.0,0.0,0.0,0.0,0.0,0.0,0.0,0.0,19,helix-core\src\test\java\org\apache\helix\mock\participant\MockSchemataStateModel.java,0,0,0,0
org.apache.helix.mock.participant.MockTransition, 0, 0, 0, 0, 0, 0, 0, 0, 0, 0, 0, 0, 0, 0,0.0,0.0,0.0,0.0,0.0,0.0,0.0,0.0,0.0,0.0,0.0,0.0,0.0,10,helix-core\src\test\java\org\apache\helix\mock\participant\MockTransition.java,0,0,0,0
org.apache.helix.mock.participant.SleepTransition, 0, 0, 0, 0, 0, 0, 0, 0, 0, 0, 0, 0, 0, 0,0.0,0.0,0.0,0.0,0.0,0.0,0.0,0.0,0.0,0.0,0.0,0.0,0.0,11,helix-core\src\test\java\org\apache\helix\mock\participant\SleepTransition.java,0,0,0,0
org.apache.helix.mock.participant.StoreAccessDiffNodeTransition, 0, 0, 0, 0, 0, 0, 0, 0, 0, 0, 0, 0, 0, 0,0.0,0.0,0.0,0.0,0.0,0.0,0.0,0.0,0.0,0.0,0.0,0.0,0.0,33,helix-core\src\test\java\org\apache\helix\mock\participant\StoreAccessDiffNodeTransition.java,0,0,0,0
org.apache.helix.mock.participant.StoreAccessOneNodeTransition, 0, 0, 0, 0, 0, 0, 0, 0, 0, 0, 0, 0, 0, 0,0.0,0.0,0.0,0.0,0.0,0.0,0.0,0.0,0.0,0.0,0.0,0.0,0.0,32,helix-core\src\test\java\org\apache\helix\mock\participant\StoreAccessOneNodeTransition.java,0,0,0,0
org.apache.helix.mock.spectator.MockSpectatorProcess, 1, 0, 0, 0, 0, 0, 0, 0, 0, 0, 0, 0, 0, 1,0.0,0.0,0.0,0.0,0.0,0.0,0.0,0.0,0.0,0.0,0.0,0.0,0.0,77,helix-core\src\test\java\org\apache\helix\mock\spectator\MockSpectatorProcess.java,0,0,0,0
org.apache.helix.model.AlertHistory, 0, 0, 0, 0, 0, 0, 0, 0, 0, 0, 0, 0, 0, 0,0.0,0.0,0.0,0.0,0.0,0.0,0.0,0.0,0.0,0.0,0.0,0.0,0.0,9,helix-core\src\main\java\org\apache\helix\model\AlertHistory.java,0,0,0,0
org.apache.helix.model.Error, 0, 0, 0, 0, 0, 0, 0, 0, 0, 0, 0, 0, 0, 0,0.0,0.0,0.0,0.0,0.0,0.0,0.0,0.0,0.0,0.0,0.0,0.0,0.0,9,helix-core\src\main\java\org\apache\helix\model\Error.java,0,0,0,0
org.apache.helix.model.HelixConfigScope, 0, 0, 0, 0, 0, 0, 0, 0, 0, 0, 0, 0, 0, 0,0.0,0.0,0.0,0.0,0.0,0.0,0.0,0.0,0.0,0.0,0.0,0.0,0.0,81,helix-core\src\main\java\org\apache\helix\model\HelixConfigScope.java,0,0,0,0
org.apache.helix.model.LeaderHistory, 0, 0, 0, 0, 0, 0, 0, 0, 0, 0, 0, 0, 0, 0,0.0,0.0,0.0,0.0,0.0,0.0,0.0,0.0,0.0,0.0,0.0,0.0,0.0,24,helix-core\src\main\java\org\apache\helix\model\LeaderHistory.java,0,0,0,0
org.apache.helix.model.LiveInstance, 0, 0, 0, 0, 0, 0, 0, 0, 0, 0, 0, 0, 0, 0,0.08333333333333333,0.0,0.0,0.25,0.0,0.0,0.0,0.0,0.0,0.0,0.0,0.0,0.0,57,helix-core\src\main\java\org\apache\helix\model\LiveInstance.java,0,0,0,0
org.apache.helix.model.Partition, 0, 0, 0, 0, 0, 0, 0, 0, 0, 0, 0, 0, 0, 0,0.0,0.0,0.0,0.0,0.0,0.0,0.0,0.0,0.0,0.0,0.0,0.0,0.0,25,helix-core\src\main\java\org\apache\helix\model\Partition.java,0,0,0,0
org.apache.helix.model.PauseSignal, 0, 0, 0, 0, 0, 0, 0, 0, 0, 0, 0, 0, 0, 0,0.0,0.0,0.0,0.0,0.0,0.0,0.0,0.0,0.0,0.0,0.0,0.0,0.0,12,helix-core\src\main\java\org\apache\helix\model\PauseSignal.java,0,0,0,0
org.apache.helix.model.StatusUpdate, 0, 0, 0, 0, 0, 0, 0, 0, 0, 0, 0, 0, 0, 0,0.0,0.0,0.0,0.0,0.0,0.0,0.0,0.0,0.0,0.0,0.0,0.0,0.0,9,helix-core\src\main\java\org\apache\helix\model\StatusUpdate.java,0,0,0,0
org.apache.helix.model.TestInstanceConfig, 0, 0, 0, 0, 0, 0, 0, 0, 0, 0, 0, 0, 0, 0,0.0,0.0,0.0,0.0,0.0,0.0,0.0,0.0,0.0,0.0,0.0,0.0,0.0,8,helix-core\src\test\java\org\apache\helix\model\TestInstanceConfig.java,0,0,0,0
org.apache.helix.model.Transition, 0, 0, 0, 0, 0, 0, 0, 0, 0, 0, 0, 0, 0, 0,0.0,0.0,0.0,0.0,0.0,0.0,0.0,0.0,0.0,0.0,0.0,0.0,0.0,29,helix-core\src\main\java\org\apache\helix\model\Transition.java,0,0,0,0
org.apache.helix.model.builder.AutoModeISBuilder, 0, 0, 0, 0, 0, 0, 0, 0, 0, 0, 0, 0, 0, 0,0.0,0.0,0.0,0.3333333333333333,0.0,0.0,0.0,0.0,0.0,0.0,0.0,0.0,0.0,16,helix-core\src\main\java\org\apache\helix\model\builder\AutoModeISBuilder.java,0,0,0,0
org.apache.helix.model.builder.AutoRebalanceModeISBuilder, 0, 0, 0, 0, 0, 0, 0, 0, 0, 0, 0, 0, 0, 0,0.0,0.0,0.0,0.3333333333333333,0.0,0.0,0.0,0.0,0.0,0.0,0.0,0.0,0.0,12,helix-core\src\main\java\org\apache\helix\model\builder\AutoRebalanceModeISBuilder.java,0,0,0,0
org.apache.helix.model.builder.HelixConfigScopeBuilder, 0, 0, 0, 0, 0, 0, 0, 0, 0, 0, 0, 0, 0, 0,0.0,0.0,0.0,0.2,0.0,0.0,0.0,0.0,0.0,0.0,0.0,0.0,0.0,90,helix-core\src\main\java\org\apache\helix\model\builder\HelixConfigScopeBuilder.java,0,0,0,0
org.apache.helix.model.builder.IdealStateBuilder, 0, 0, 0, 1, 0, 0, 0, 0, 0, 0, 0, 0, 0, 1,0.0,0.0,0.0,0.0,0.0,0.0,0.0,0.0,0.0,0.0,0.0,0.0,0.0,56,helix-core\src\main\java\org\apache\helix\model\builder\IdealStateBuilder.java,0,0,0,0
org.apache.helix.model.builder.TestIdealStateBuilder, 0, 0, 0, 0, 0, 0, 0, 0, 0, 0, 0, 0, 0, 0,0.0,0.0,0.0,0.3333333333333333,0.0,0.0,0.0,0.0,0.0,0.0,0.0,0.0,0.0,48,helix-core\src\test\java\org\apache\helix\model\builder\TestIdealStateBuilder.java,0,0,0,0
org.apache.helix.monitoring.SensorNameProvider, 0, 0, 0, 0, 0, 0, 0, 0, 0, 0, 0, 0, 0, 0,0.0,0.0,0.0,0.0,0.0,0.0,0.0,0.0,0.0,0.0,0.0,0.0,0.0,48,helix-core\src\main\java\org\apache\helix\monitoring\SensorNameProvider.java,0,0,0,0
org.apache.helix.monitoring.StatCollector, 0, 0, 0, 0, 0, 0, 0, 0, 0, 0, 0, 0, 0, 0,0.0,0.0,0.0,0.0,0.0,0.0,0.0,0.0,0.0,0.0,0.0,0.0,0.0,47,helix-core\src\main\java\org\apache\helix\monitoring\StatCollector.java,0,0,0,0
org.apache.helix.monitoring.StateTransitionContext, 0, 0, 0, 0, 0, 0, 0, 0, 0, 0, 0, 0, 0, 0,0.0,0.0,0.0,0.0,0.0,0.0,0.0,0.0,0.0,0.0,0.0,0.0,0.0,44,helix-core\src\main\java\org\apache\helix\monitoring\StateTransitionContext.java,0,0,0,0
org.apache.helix.monitoring.StateTransitionDataPoint, 0, 0, 0, 0, 0, 0, 0, 0, 0, 0, 0, 0, 0, 0,0.0,0.0,0.0,0.0,0.0,0.0,0.0,0.0,0.0,0.0,0.0,0.0,0.0,19,helix-core\src\main\java\org\apache\helix\monitoring\StateTransitionDataPoint.java,0,0,0,0
org.apache.helix.monitoring.TestClusterStatusMonitorLifecycle, 0, 0, 0, 0, 0, 0, 0, 0, 0, 0, 0, 0, 0, 0,0.25,0.0,0.0,0.25,0.0,0.0,0.0,0.0,0.0,0.0,0.0,0.0,0.0,156,helix-core\src\test\java\org\apache\helix\monitoring\TestClusterStatusMonitorLifecycle.java,0,0,0,0
org.apache.helix.monitoring.TestStatCollector, 0, 0, 0, 0, 0, 0, 0, 0, 0, 0, 0, 0, 0, 0,0.0,0.0,0.0,0.0,0.0,0.0,0.0,0.0,0.0,0.0,0.0,0.0,0.0,23,helix-core\src\test\java\org\apache\helix\monitoring\TestStatCollector.java,0,0,0,0
org.apache.helix.monitoring.TestZKPathDataDumpTask, 0, 0, 0, 0, 0, 0, 0, 0, 0, 0, 0, 0, 0, 0,0.25,0.0,0.25,0.0,0.0,0.0,0.0,0.0,0.0,0.0,0.0,0.0,0.0,123,helix-core\src\test\java\org\apache\helix\monitoring\TestZKPathDataDumpTask.java,0,0,0,0
org.apache.helix.monitoring.ZKPathDataDumpTask, 1, 0, 0, 0, 0, 0, 0, 0, 0, 0, 0, 0, 0, 1,0.0,0.0,0.0,0.0,0.0,0.0,0.0,0.0,0.0,0.0,0.0,0.0,0.0,92,helix-core\src\main\java\org\apache\helix\monitoring\ZKPathDataDumpTask.java,0,0,0,0
org.apache.helix.monitoring.mbeans.ClusterMBeanObserver, 0, 0, 0, 0, 0, 0, 0, 0, 0, 0, 0, 0, 0, 0,0.0,0.0,0.0,0.0,0.0,0.0,0.0,0.0,0.0,0.0,0.0,0.0,0.0,39,helix-core\src\main\java\org\apache\helix\monitoring\mbeans\ClusterMBeanObserver.java,7,0,0,7
org.apache.helix.monitoring.mbeans.ClusterStatusMonitorMBean, 0, 0, 0, 0, 0, 0, 0, 0, 0, 0, 0, 0, 0, 0,0.0,0.0,0.0,0.0,0.0,0.0,0.0,0.0,0.0,0.0,0.0,0.0,0.0,39,helix-core\src\main\java\org\apache\helix\monitoring\mbeans\ClusterStatusMonitorMBean.java,0,0,0,0
org.apache.helix.monitoring.mbeans.HelixStageLatencyMonitor, 0, 0, 0, 0, 0, 0, 0, 0, 0, 0, 0, 0, 0, 0,0.0,0.0,0.0,0.0,0.0,0.0,0.0,0.0,0.0,0.0,0.0,0.0,0.0,57,helix-core\src\main\java\org\apache\helix\monitoring\mbeans\HelixStageLatencyMonitor.java,0,0,0,0
org.apache.helix.monitoring.mbeans.HelixStageLatencyMonitorMBean, 0, 0, 0, 0, 0, 0, 0, 0, 0, 0, 0, 0, 0, 0,0.0,0.0,0.0,0.0,0.0,0.0,0.0,0.0,0.0,0.0,0.0,0.0,0.0,57,helix-core\src\main\java\org\apache\helix\monitoring\mbeans\HelixStageLatencyMonitorMBean.java,0,0,0,0
org.apache.helix.monitoring.mbeans.InstanceMonitorMBean, 0, 0, 0, 0, 0, 0, 0, 0, 0, 0, 0, 0, 0, 0,0.0,0.0,0.0,0.0,0.0,0.0,0.0,0.0,0.0,0.0,0.0,0.0,0.0,57,helix-core\src\main\java\org\apache\helix\monitoring\mbeans\InstanceMonitorMBean.java,0,0,0,0
org.apache.helix.monitoring.mbeans.MessageQueueMonitor, 0, 0, 0, 1, 0, 0, 0, 0, 0, 0, 0, 0, 0, 1,0.0,0.0,0.0,0.0,0.0,0.0,0.0,0.0,0.0,0.0,0.0,0.0,0.0,73,helix-core\src\main\java\org\apache\helix\monitoring\mbeans\MessageQueueMonitor.java,0,0,0,0
org.apache.helix.monitoring.mbeans.MessageQueueMonitorMBean, 0, 0, 0, 0, 0, 0, 0, 0, 0, 0, 0, 0, 0, 0,0.0,0.0,0.0,0.0,0.0,0.0,0.0,0.0,0.0,0.0,0.0,0.0,0.0,73,helix-core\src\main\java\org\apache\helix\monitoring\mbeans\MessageQueueMonitorMBean.java,0,0,0,0
org.apache.helix.monitoring.mbeans.PerInstanceResourceMonitorMBean, 0, 0, 0, 0, 0, 0, 0, 0, 0, 0, 0, 0, 0, 0,0.0,0.0,0.0,0.0,0.0,0.0,0.0,0.0,0.0,0.0,0.0,0.0,0.0,73,helix-core\src\main\java\org\apache\helix\monitoring\mbeans\PerInstanceResourceMonitorMBean.java,0,0,0,0
org.apache.helix.monitoring.mbeans.ResourceMonitorMBean, 0, 0, 0, 0, 0, 0, 0, 0, 0, 0, 0, 0, 0, 0,0.0,0.0,0.0,0.0,0.0,0.0,0.0,0.0,0.0,0.0,0.0,0.0,0.0,73,helix-core\src\main\java\org\apache\helix\monitoring\mbeans\ResourceMonitorMBean.java,0,0,0,0
org.apache.helix.monitoring.mbeans.StateTransitionStatMonitorMBean, 0, 0, 0, 0, 0, 0, 0, 0, 0, 0, 0, 0, 0, 0,0.0,0.0,0.0,0.0,0.0,0.0,0.0,0.0,0.0,0.0,0.0,0.0,0.0,73,helix-core\src\main\java\org\apache\helix\monitoring\mbeans\StateTransitionStatMonitorMBean.java,0,0,0,0
org.apache.helix.monitoring.mbeans.TestDropResourceMetricsReset, 0, 0, 0, 0, 0, 0, 0, 0, 0, 0, 0, 0, 0, 0,0.0,0.0,0.0,0.0,0.0,0.0,0.0,0.0,0.0,0.0,0.0,0.0,0.0,80,helix-core\src\test\java\org\apache\helix\monitoring\mbeans\TestDropResourceMetricsReset.java,0,0,0,0
org.apache.helix.monitoring.mbeans.TestResetClusterMetrics, 0, 0, 0, 0, 0, 0, 0, 0, 0, 0, 0, 0, 0, 0,0.0,0.0,0.0,0.3333333333333333,0.0,0.0,0.0,0.0,0.0,0.0,0.0,0.0,0.0,51,helix-core\src\test\java\org\apache\helix\monitoring\mbeans\TestResetClusterMetrics.java,0,0,0,0
org.apache.helix.participant.CustomCodeCallbackHandler, 0, 0, 0, 0, 0, 0, 0, 0, 0, 0, 0, 0, 0, 0,0.0,0.0,0.0,0.0,0.0,0.0,0.0,0.0,0.0,0.0,0.0,0.0,0.0,51,helix-core\src\main\java\org\apache\helix\participant\CustomCodeCallbackHandler.java,0,0,0,0
org.apache.helix.participant.CustomCodeInvoker, 0, 0, 0, 0, 0, 0, 0, 0, 0, 0, 0, 0, 0, 0,0.0,0.0,0.0,0.0,0.0,0.0,0.0,0.0,0.0,0.0,0.0,0.0,0.0,51,helix-core\src\main\java\org\apache\helix\participant\CustomCodeInvoker.java,0,0,0,0
org.apache.helix.participant.DistClusterControllerStateModel, 0, 0, 0, 0, 0, 0, 0, 0, 0, 0, 0, 0, 0, 0,0.0,0.0,0.0,0.0,0.0,0.0,0.0,0.0,0.0,0.0,0.0,0.0,0.0,75,helix-core\src\main\java\org\apache\helix\participant\DistClusterControllerStateModel.java,0,0,0,0
org.apache.helix.participant.DistClusterControllerStateModelFactory, 0, 0, 0, 0, 0, 0, 0, 0, 0, 0, 0, 0, 0, 0,0.0,0.0,0.0,0.0,0.0,0.0,0.0,0.0,0.0,0.0,0.0,0.0,0.0,11,helix-core\src\main\java\org\apache\helix\participant\DistClusterControllerStateModelFactory.java,0,0,1,2
org.apache.helix.participant.GenericLeaderStandbyModel, 0, 0, 0, 0, 0, 0, 0, 0, 0, 0, 0, 0, 0, 0,0.0,0.0,0.0,0.0,0.0,0.0,0.0,0.0,0.0,0.0,0.0,0.0,0.0,58,helix-core\src\main\java\org\apache\helix\participant\GenericLeaderStandbyModel.java,0,0,0,0
org.apache.helix.participant.GenericLeaderStandbyStateModelFactory, 0, 0, 0, 0, 0, 0, 0, 0, 0, 0, 0, 0, 0, 0,0.0,0.0,0.0,0.5,0.0,0.0,0.0,0.0,0.0,0.0,0.0,0.0,0.0,17,helix-core\src\main\java\org\apache\helix\participant\GenericLeaderStandbyStateModelFactory.java,0,0,1,2
org.apache.helix.participant.HelixCustomCodeRunner, 0, 0, 0, 1, 0, 0, 0, 0, 0, 0, 0, 0, 0, 1,0.0,0.0,0.0,0.3333333333333333,0.0,0.0,0.0,0.0,0.0,0.0,0.0,0.0,0.0,76,helix-core\src\main\java\org\apache\helix\participant\HelixCustomCodeRunner.java,0,0,0,0
org.apache.helix.participant.MockZKHelixManager, 0, 0, 0, 1, 0, 0, 0, 0, 0, 0, 0, 0, 0, 1,0.0,0.0,0.25,0.25,0.0,0.0,0.0,0.0,0.0,0.0,0.0,0.0,0.0,128,helix-core\src\test\java\org\apache\helix\participant\MockZKHelixManager.java,0,5,0,5
org.apache.helix.participant.StateMachineEngine, 0, 0, 0, 0, 0, 0, 0, 0, 0, 0, 0, 0, 0, 0,0.0,0.0,0.0,0.0,0.0,0.0,0.0,0.0,0.0,0.0,0.0,0.0,0.0,128,helix-core\src\main\java\org\apache\helix\participant\StateMachineEngine.java,0,0,0,0
org.apache.helix.participant.TestDistControllerElection, 0, 0, 0, 0, 0, 0, 0, 0, 0, 0, 0, 0, 0, 0,0.0,0.0,0.0,0.5,0.0,0.0,0.0,0.0,0.0,0.0,0.0,0.0,0.0,103,helix-core\src\test\java\org\apache\helix\participant\TestDistControllerElection.java,0,0,0,0
org.apache.helix.participant.TestDistControllerStateModel, 0, 0, 0, 0, 0, 0, 0, 0, 0, 0, 0, 0, 0, 0,0.0,0.0,0.0,0.5,0.0,0.0,0.0,0.0,0.0,0.0,0.0,0.0,0.0,75,helix-core\src\test\java\org\apache\helix\participant\TestDistControllerStateModel.java,0,0,0,0
org.apache.helix.participant.TestDistControllerStateModelFactory, 0, 0, 0, 0, 0, 0, 0, 0, 0, 0, 0, 0, 0, 0,0.0,0.0,0.0,0.0,0.0,0.0,0.0,0.0,0.0,0.0,0.0,0.0,0.0,12,helix-core\src\test\java\org\apache\helix\participant\TestDistControllerStateModelFactory.java,3,0,2,7
org.apache.helix.participant.statemachine.ScheduledTaskStateModelFactory, 0, 0, 0, 0, 0, 0, 0, 0, 0, 0, 0, 0, 0, 0,0.0,0.0,0.0,1.0,0.0,0.0,0.0,0.0,0.0,0.0,0.0,0.0,0.0,12,helix-core\src\main\java\org\apache\helix\participant\statemachine\ScheduledTaskStateModelFactory.java,0,0,3,6
org.apache.helix.participant.statemachine.StateModel, 0, 0, 0, 0, 0, 0, 0, 0, 0, 0, 0, 0, 0, 0,0.0,0.0,0.0,0.0,0.0,0.0,0.0,0.0,0.0,0.0,0.0,0.0,0.0,29,helix-core\src\main\java\org\apache\helix\participant\statemachine\StateModel.java,0,0,0,0
org.apache.helix.participant.statemachine.StateTransitionError, 0, 0, 0, 0, 0, 0, 0, 0, 0, 0, 0, 0, 0, 0,0.0,0.0,0.0,0.0,0.0,0.0,0.0,0.0,0.0,0.0,0.0,0.0,0.0,16,helix-core\src\main\java\org\apache\helix\participant\statemachine\StateTransitionError.java,0,0,0,0
org.apache.helix.participant.statemachine.TestStateModelParser, 0, 0, 0, 0, 0, 0, 0, 0, 0, 0, 0, 0, 0, 0,0.0,0.0,0.0,0.0,0.0,0.0,0.0,0.0,0.0,0.0,0.0,0.0,0.0,70,helix-core\src\test\java\org\apache\helix\participant\statemachine\TestStateModelParser.java,0,0,0,0
org.apache.helix.recipes.rabbitmq.Consumer, 0, 0, 0, 0, 0, 0, 0, 0, 0, 0, 0, 0, 0, 0,0.0,0.0,0.0,0.3333333333333333,0.0,0.0,0.0,0.0,0.0,0.0,0.0,0.0,0.0,76,recipes\rabbitmq-consumer-group\src\main\java\org\apache\helix\recipes\rabbitmq\Consumer.java,0,0,0,0
org.apache.helix.recipes.rabbitmq.ConsumerStateModel, 0, 0, 0, 0, 0, 0, 0, 0, 0, 0, 0, 0, 0, 0,0.0,0.0,0.0,0.0,0.0,0.0,0.0,0.0,0.0,0.0,0.0,0.0,0.0,57,recipes\rabbitmq-consumer-group\src\main\java\org\apache\helix\recipes\rabbitmq\ConsumerStateModel.java,0,0,0,0
org.apache.helix.recipes.rabbitmq.ConsumerStateModelFactory, 0, 0, 0, 0, 0, 0, 0, 0, 0, 0, 0, 0, 0, 0,0.0,0.0,0.0,0.0,0.0,0.0,0.0,0.0,0.0,0.0,0.0,0.0,0.0,13,recipes\rabbitmq-consumer-group\src\main\java\org\apache\helix\recipes\rabbitmq\ConsumerStateModelFactory.java,0,0,1,2
org.apache.helix.recipes.rabbitmq.ConsumerThread, 0, 0, 0, 0, 0, 0, 0, 0, 0, 0, 0, 0, 0, 0,0.0,0.0,0.0,0.0,0.0,0.0,0.0,0.0,0.0,0.0,0.0,0.0,0.0,48,recipes\rabbitmq-consumer-group\src\main\java\org\apache\helix\recipes\rabbitmq\ConsumerThread.java,0,0,0,0
org.apache.helix.recipes.rabbitmq.Emitter, 0, 0, 0, 0, 0, 0, 0, 0, 0, 0, 0, 0, 0, 0,0.0,0.0,0.0,0.0,0.0,0.0,0.0,0.0,0.0,0.0,0.0,0.0,0.0,33,recipes\rabbitmq-consumer-group\src\main\java\org\apache\helix\recipes\rabbitmq\Emitter.java,0,0,0,0
org.apache.helix.recipes.rabbitmq.SetupConsumerCluster, 0, 0, 0, 0, 0, 0, 0, 0, 0, 0, 0, 0, 0, 0,0.0,0.0,0.0,1.0,0.0,0.0,0.0,0.0,0.0,0.0,0.0,0.0,0.0,32,recipes\rabbitmq-consumer-group\src\main\java\org\apache\helix\recipes\rabbitmq\SetupConsumerCluster.java,0,0,0,0
org.apache.helix.recipes.rabbitmq.StartClusterManager, 0, 0, 0, 0, 0, 0, 0, 0, 0, 0, 0, 0, 0, 0,0.0,0.0,0.0,0.0,0.0,0.0,0.0,0.0,0.0,0.0,0.0,0.0,0.0,25,recipes\rabbitmq-consumer-group\src\main\java\org\apache\helix\recipes\rabbitmq\StartClusterManager.java,0,0,0,0
org.apache.helix.servicediscovery.MyService, 0, 0, 0, 0, 0, 0, 0, 0, 0, 0, 0, 0, 0, 0,0.0,0.0,0.0,0.0,0.0,0.0,0.0,0.0,0.0,0.0,0.0,0.0,0.0,25,recipes\service-discovery\src\main\java\org\apache\helix\servicediscovery\MyService.java,0,0,0,0
org.apache.helix.servicediscovery.ServiceDiscoveryDemo, 0, 0, 0, 0, 0, 0, 0, 0, 0, 0, 0, 0, 0, 0,0.0,0.0,0.0,0.0,0.0,0.0,0.0,0.0,0.0,0.0,0.0,0.0,0.0,74,recipes\service-discovery\src\main\java\org\apache\helix\servicediscovery\ServiceDiscoveryDemo.java,0,0,0,0
org.apache.helix.servicediscovery.ServiceMetadata, 0, 0, 0, 0, 0, 0, 0, 0, 0, 0, 0, 0, 0, 0,0.0,0.0,0.0,0.0,0.0,0.0,0.0,0.0,0.0,0.0,0.0,0.0,0.0,25,recipes\service-discovery\src\main\java\org\apache\helix\servicediscovery\ServiceMetadata.java,0,0,0,0
org.apache.helix.store.HelixPropertyListener, 0, 0, 0, 0, 0, 0, 0, 0, 0, 0, 0, 0, 0, 0,0.0,0.0,0.0,0.0,0.0,0.0,0.0,0.0,0.0,0.0,0.0,0.0,0.0,25,helix-core\src\main\java\org\apache\helix\store\HelixPropertyListener.java,0,0,0,0
org.apache.helix.store.HelixPropertyStore, 0, 0, 0, 0, 0, 0, 0, 0, 0, 0, 0, 0, 0, 0,0.0,0.0,0.0,0.0,0.0,0.0,0.0,0.0,0.0,0.0,0.0,0.0,0.0,25,helix-core\src\main\java\org\apache\helix\store\HelixPropertyStore.java,0,0,0,0
org.apache.helix.store.PropertyChangeListener, 0, 0, 0, 0, 0, 0, 0, 0, 0, 0, 0, 0, 0, 0,0.0,0.0,0.0,0.0,0.0,0.0,0.0,0.0,0.0,0.0,0.0,0.0,0.0,25,helix-core\src\main\java\org\apache\helix\store\PropertyChangeListener.java,0,0,0,0
org.apache.helix.store.PropertyJsonSerializer, 0, 0, 0, 0, 0, 0, 0, 0, 0, 0, 0, 0, 0, 0,0.0,0.0,0.0,0.0,0.0,0.0,0.0,0.0,0.0,0.0,0.0,0.0,0.0,43,helix-core\src\main\java\org\apache\helix\store\PropertyJsonSerializer.java,0,0,0,0
org.apache.helix.store.PropertySerializer, 0, 0, 0, 0, 0, 0, 0, 0, 0, 0, 0, 0, 0, 0,0.0,0.0,0.0,0.0,0.0,0.0,0.0,0.0,0.0,0.0,0.0,0.0,0.0,43,helix-core\src\main\java\org\apache\helix\store\PropertySerializer.java,0,0,0,0
org.apache.helix.store.PropertyStat, 0, 0, 0, 0, 0, 0, 0, 0, 0, 0, 0, 0, 0, 0,0.0,0.0,0.0,0.0,0.0,0.0,0.0,0.0,0.0,0.0,0.0,0.0,0.0,23,helix-core\src\main\java\org\apache\helix\store\PropertyStat.java,0,0,0,0
org.apache.helix.store.PropertyStoreException, 0, 0, 0, 0, 0, 0, 0, 0, 0, 0, 0, 0, 0, 0,0.0,0.0,0.0,0.0,0.0,0.0,0.0,0.0,0.0,0.0,0.0,0.0,0.0,8,helix-core\src\main\java\org\apache\helix\store\PropertyStoreException.java,0,0,0,0
org.apache.helix.store.TestJsonComparator, 0, 0, 0, 0, 0, 0, 0, 0, 0, 0, 0, 0, 0, 0,0.0,0.0,0.0,0.0,0.0,0.0,0.0,0.0,0.0,0.0,0.0,0.0,0.0,15,helix-core\src\test\java\org\apache\helix\store\TestJsonComparator.java,0,0,0,0
org.apache.helix.store.TestPropertyStat, 0, 0, 0, 0, 0, 0, 0, 0, 0, 0, 0, 0, 0, 0,0.0,0.0,0.0,0.0,0.0,0.0,0.0,0.0,0.0,0.0,0.0,0.0,0.0,10,helix-core\src\test\java\org\apache\helix\store\TestPropertyStat.java,0,0,0,0
org.apache.helix.store.TestPropertyStoreException, 0, 0, 0, 0, 0, 0, 0, 0, 0, 0, 0, 0, 0, 0,0.0,0.0,0.0,0.0,0.0,0.0,0.0,0.0,0.0,0.0,0.0,0.0,0.0,11,helix-core\src\test\java\org\apache\helix\store\TestPropertyStoreException.java,0,0,0,0
org.apache.helix.store.ZNRecordJsonSerializer, 0, 0, 0, 0, 0, 0, 0, 0, 0, 0, 0, 0, 0, 0,0.0,0.0,0.0,0.0,0.0,0.0,0.0,0.0,0.0,0.0,0.0,0.0,0.0,12,helix-core\src\main\java\org\apache\helix\store\ZNRecordJsonSerializer.java,0,0,0,0
org.apache.helix.store.zk.PropertyItem, 0, 0, 0, 0, 0, 0, 0, 0, 0, 0, 0, 0, 0, 0,0.0,0.0,0.0,0.0,0.0,0.0,0.0,0.0,0.0,0.0,0.0,0.0,0.0,17,helix-core\src\main\java\org\apache\helix\store\zk\PropertyItem.java,0,0,0,0
org.apache.helix.store.zk.TestAutoFallbackPropertyStore, 0, 0, 0, 0, 0, 0, 0, 0, 0, 0, 0, 0, 0, 0,0.0,0.0,0.0,0.0,0.0,0.0,0.0,0.0,0.0,0.0,0.0,0.0,0.0,474,helix-core\src\test\java\org\apache\helix\store\zk\TestAutoFallbackPropertyStore.java,0,0,0,0
org.apache.helix.store.zk.TestZkManagerWithAutoFallbackStore, 0, 0, 0, 0, 0, 0, 0, 0, 0, 0, 0, 0, 0, 0,0.0,0.0,0.0,0.5,0.0,0.0,0.0,0.0,0.0,0.0,0.0,0.0,0.0,79,helix-core\src\test\java\org\apache\helix\store\zk\TestZkManagerWithAutoFallbackStore.java,0,0,0,0
org.apache.helix.store.zk.ZNode, 0, 0, 0, 1, 0, 0, 0, 0, 0, 0, 0, 0, 0, 1,0.0,0.0,0.0,0.0,0.0,0.0,0.0,0.0,0.0,0.0,0.0,0.0,0.0,63,helix-core\src\main\java\org\apache\helix\store\zk\ZNode.java,0,0,0,0
org.apache.helix.store.zk.ZkHelixPropertyStore, 0, 0, 0, 0, 0, 0, 0, 0, 0, 0, 0, 0, 0, 0,0.0,0.0,0.0,1.0,0.0,0.0,0.0,0.0,0.0,0.0,0.0,0.0,0.0,13,helix-core\src\main\java\org\apache\helix\store\zk\ZkHelixPropertyStore.java,0,0,0,0
org.apache.helix.store.zk.ZkListener, 0, 0, 0, 0, 0, 0, 0, 0, 0, 0, 0, 0, 0, 0,0.0,0.0,0.0,0.0,0.0,0.0,0.0,0.0,0.0,0.0,0.0,0.0,0.0,13,helix-core\src\main\java\org\apache\helix\store\zk\ZkListener.java,0,0,0,0
org.apache.helix.task.ScheduleConfig, 0, 0, 0, 0, 0, 0, 0, 0, 0, 0, 0, 0, 0, 0,0.0,0.0,1.0,0.0,0.0,0.0,0.0,0.0,0.0,0.0,0.0,0.0,0.0,63,helix-core\src\main\java\org\apache\helix\task\ScheduleConfig.java,0,0,0,0
org.apache.helix.task.Task, 0, 0, 0, 0, 0, 0, 0, 0, 0, 0, 0, 0, 0, 0,0.0,0.0,0.0,0.0,0.0,0.0,0.0,0.0,0.0,0.0,0.0,0.0,0.0,63,helix-core\src\main\java\org\apache\helix\task\Task.java,0,0,0,0
org.apache.helix.task.TaskCallbackContext, 0, 0, 0, 0, 0, 0, 0, 0, 0, 0, 0, 0, 0, 0,0.0,0.0,0.0,0.0,0.0,0.0,0.0,0.0,0.0,0.0,0.0,0.0,0.0,23,helix-core\src\main\java\org\apache\helix\task\TaskCallbackContext.java,0,0,0,0
org.apache.helix.task.TaskConstants, 0, 0, 0, 0, 0, 0, 0, 0, 0, 0, 0, 0, 0, 0,0.0,0.0,0.0,0.0,0.0,0.0,0.0,0.0,0.0,0.0,0.0,0.0,0.0,7,helix-core\src\main\java\org\apache\helix\task\TaskConstants.java,0,0,0,0
org.apache.helix.task.TaskFactory, 0, 0, 0, 0, 0, 0, 0, 0, 0, 0, 0, 0, 0, 0,0.0,0.0,0.0,0.0,0.0,0.0,0.0,0.0,0.0,0.0,0.0,0.0,0.0,7,helix-core\src\main\java\org\apache\helix\task\TaskFactory.java,0,0,0,0
org.apache.helix.task.TaskResult, 0, 0, 0, 0, 0, 0, 0, 0, 0, 0, 0, 0, 0, 0,0.0,0.0,0.0,1.0,0.0,0.0,0.0,0.0,0.0,0.0,0.0,0.0,0.0,23,helix-core\src\main\java\org\apache\helix\task\TaskResult.java,0,0,0,0
org.apache.helix.task.TaskRunner, 0, 0, 0, 1, 0, 0, 0, 0, 0, 0, 0, 0, 0, 1,0.0,0.0,0.0,0.0,0.0,0.0,0.0,0.0,0.0,0.0,0.0,0.0,0.0,110,helix-core\src\main\java\org\apache\helix\task\TaskRunner.java,0,2,0,2
org.apache.helix.task.beans.ScheduleBean, 0, 0, 1, 0, 0, 0, 0, 0, 0, 0, 0, 0, 0, 1,0.0,0.0,0.5,0.0,0.0,0.0,0.0,0.0,0.0,0.0,0.0,0.0,0.0,5,helix-core\src\main\java\org\apache\helix\task\beans\ScheduleBean.java,0,0,0,0
org.apache.helix.task.beans.WorkflowBean, 0, 0, 1, 0, 0, 0, 0, 0, 0, 0, 0, 0, 0, 1,0.0,0.0,1.0,0.0,0.0,0.0,0.0,0.0,0.0,0.0,0.0,0.0,0.0,6,helix-core\src\main\java\org\apache\helix\task\beans\WorkflowBean.java,0,0,0,0
org.apache.helix.taskexecution.AnalyticsTaskFactory, 0, 0, 0, 0, 0, 0, 0, 0, 0, 0, 0, 0, 0, 0,0.0,0.0,0.0,0.0,0.0,0.0,0.0,0.0,0.0,0.0,0.0,0.0,0.0,29,recipes\task-execution\src\main\java\org\apache\helix\taskexecution\AnalyticsTaskFactory.java,0,0,0,0
org.apache.helix.taskexecution.FilterTask, 0, 0, 0, 0, 0, 0, 0, 0, 0, 0, 0, 0, 0, 0,0.0,0.0,0.0,0.0,0.0,0.0,0.0,0.0,0.0,0.0,0.0,0.0,0.0,33,recipes\task-execution\src\main\java\org\apache\helix\taskexecution\FilterTask.java,0,0,0,0
org.apache.helix.taskexecution.TaskCluster, 0, 0, 0, 0, 0, 0, 0, 0, 0, 0, 0, 0, 0, 0,0.0,0.0,0.0,0.3333333333333333,0.0,0.0,0.0,0.0,0.0,0.0,0.0,0.0,0.0,40,recipes\task-execution\src\main\java\org\apache\helix\taskexecution\TaskCluster.java,0,0,0,0
org.apache.helix.taskexecution.TaskExecutionDemo, 0, 0, 0, 0, 0, 0, 0, 0, 0, 0, 0, 0, 0, 0,0.0,0.0,0.0,0.0,0.0,0.0,0.0,0.0,0.0,0.0,0.0,0.0,0.0,109,recipes\task-execution\src\main\java\org\apache\helix\taskexecution\TaskExecutionDemo.java,0,0,0,0
org.apache.helix.taskexecution.TaskFactory, 0, 0, 0, 0, 0, 0, 0, 0, 0, 0, 0, 0, 0, 0,0.0,0.0,0.0,0.0,0.0,0.0,0.0,0.0,0.0,0.0,0.0,0.0,0.0,109,recipes\task-execution\src\main\java\org\apache\helix\taskexecution\TaskFactory.java,0,0,0,0
org.apache.helix.taskexecution.TaskStateModel, 0, 0, 0, 0, 0, 0, 0, 0, 0, 0, 0, 0, 0, 0,0.0,0.0,0.0,0.0,0.0,0.0,0.0,0.0,0.0,0.0,0.0,0.0,0.0,52,recipes\task-execution\src\main\java\org\apache\helix\taskexecution\TaskStateModel.java,0,0,0,0
org.apache.helix.taskexecution.TaskStateModelFactory, 0, 0, 0, 0, 0, 0, 0, 0, 0, 0, 0, 0, 0, 0,0.0,0.0,0.0,0.0,0.0,0.0,0.0,0.0,0.0,0.0,0.0,0.0,0.0,16,recipes\task-execution\src\main\java\org\apache\helix\taskexecution\TaskStateModelFactory.java,0,0,1,2
org.apache.helix.taskexecution.Worker, 0, 0, 0, 0, 0, 0, 0, 0, 0, 0, 0, 0, 0, 0,0.0,0.0,0.0,0.25,0.0,0.0,0.0,0.0,0.0,0.0,0.0,0.0,0.0,86,recipes\task-execution\src\main\java\org\apache\helix\taskexecution\Worker.java,0,0,0,0
org.apache.helix.tools.CLMLogFileAppender, 0, 0, 0, 0, 0, 0, 0, 0, 0, 0, 0, 0, 0, 0,0.0,0.0,0.0,0.0,0.0,0.0,0.0,0.0,0.0,0.0,0.0,0.0,0.0,33,helix-core\src\main\java\org\apache\helix\tools\CLMLogFileAppender.java,5,0,0,5
org.apache.helix.tools.ClusterVerifier, 0, 0, 0, 0, 0, 0, 0, 0, 0, 0, 0, 0, 0, 0,0.0,0.0,0.3333333333333333,0.6666666666666666,0.0,0.0,0.0,0.0,0.0,0.0,0.0,0.0,0.0,89,helix-core\src\main\java\org\apache\helix\tools\ClusterVerifier.java,0,0,0,0
org.apache.helix.tools.IntegrationTestUtil, 0, 0, 0, 1, 0, 0, 0, 0, 0, 0, 0, 0, 0, 1,0.0,0.0,0.3333333333333333,0.3333333333333333,0.0,0.0,0.0,0.0,0.0,0.0,0.0,0.0,0.0,132,helix-core\src\main\java\org\apache\helix\tools\IntegrationTestUtil.java,0,0,0,0
org.apache.helix.tools.LocalZKServer, 0, 0, 0, 0, 0, 0, 0, 0, 0, 0, 0, 0, 0, 0,0.0,0.0,0.0,0.0,0.0,0.0,0.0,0.0,0.0,0.0,0.0,0.0,0.0,33,helix-core\src\main\java\org\apache\helix\tools\LocalZKServer.java,0,0,0,0
org.apache.helix.tools.MessagePoster, 0, 0, 0, 0, 0, 0, 0, 0, 0, 0, 0, 0, 0, 0,0.0,0.0,0.0,1.0,0.0,0.0,0.0,0.0,0.0,0.0,0.0,0.0,0.0,62,helix-core\src\main\java\org\apache\helix\tools\MessagePoster.java,0,0,0,0
org.apache.helix.tools.TestClusterSetup, 0, 0, 0, 1, 0, 0, 0, 0, 0, 0, 0, 0, 0, 1,0.0,0.0,0.25,0.25,0.0,0.0,0.0,0.0,0.0,0.0,0.0,0.0,0.0,303,helix-core\src\test\java\org\apache\helix\tools\TestClusterSetup.java,0,0,0,0
org.apache.helix.tools.TestClusterStateVerifier, 0, 0, 0, 0, 0, 0, 0, 0, 0, 0, 0, 0, 0, 0,0.0,0.0,0.0,0.3333333333333333,0.0,0.0,0.0,0.0,0.0,0.0,0.0,0.0,0.0,77,helix-core\src\test\java\org\apache\helix\tools\TestClusterStateVerifier.java,0,0,0,0
org.apache.helix.tools.TestCommand, 0, 0, 1, 0, 0, 0, 0, 0, 0, 0, 0, 0, 0, 1,0.0,0.0,0.0,0.0,0.0,0.0,0.0,0.0,0.0,0.0,0.0,0.0,0.0,50,helix-core\src\main\java\org\apache\helix\tools\TestCommand.java,0,0,0,0
org.apache.helix.tools.TestHelixAdminCli, 0, 0, 0, 0, 0, 0, 0, 0, 0, 0, 0, 0, 0, 0,0.125,0.0,0.125,0.125,0.0,0.0,0.0,0.0,0.0,0.0,0.0,0.0,0.0,509,helix-core\src\test\java\org\apache\helix\tools\TestHelixAdminCli.java,0,0,0,0
org.apache.helix.tools.TestZkCopy, 0, 0, 0, 0, 0, 0, 0, 0, 0, 0, 0, 0, 0, 0,0.0,0.0,0.0,0.3333333333333333,0.0,0.0,0.0,0.0,0.0,0.0,0.0,0.0,0.0,68,helix-core\src\test\java\org\apache\helix\tools\TestZkCopy.java,0,0,0,0
org.apache.helix.tools.ZKDumper, 1, 0, 0, 0, 0, 0, 0, 0, 0, 0, 0, 0, 0, 1,0.0,0.0,0.0,1.0,0.0,0.0,0.0,0.0,0.0,0.0,0.0,0.0,0.0,156,helix-core\src\main\java\org\apache\helix\tools\ZKDumper.java,0,0,0,0
org.apache.helix.tools.ZkCopy, 0, 0, 0, 0, 0, 0, 0, 0, 0, 0, 0, 0, 0, 0,0.0,0.0,0.0,0.5,0.0,0.0,0.0,0.0,0.0,0.0,0.0,0.0,0.0,166,helix-core\src\main\java\org\apache\helix\tools\ZkCopy.java,0,0,0,0
org.apache.helix.util.PathUtils, 0, 0, 0, 0, 0, 0, 0, 0, 0, 0, 0, 0, 0, 0,0.0,0.0,0.0,0.0,0.0,0.0,0.0,0.0,0.0,0.0,0.0,0.0,0.0,54,helix-core\src\main\java\org\apache\helix\util\PathUtils.java,0,0,0,0
org.apache.helix.util.TestZKClientPool, 0, 0, 0, 0, 0, 0, 0, 0, 0, 0, 0, 0, 0, 0,0.0,0.0,0.0,1.0,0.0,0.0,0.0,0.0,0.0,0.0,0.0,0.0,0.0,29,helix-core\src\test\java\org\apache\helix\util\TestZKClientPool.java,0,0,0,0
org.apache.helix.webapp.AdminTestBase, 1, 0, 0, 0, 0, 0, 0, 0, 0, 0, 0, 0, 0, 1,0.0,0.0,0.0,1.0,0.0,0.0,0.0,0.0,0.0,0.0,0.0,0.0,0.0,32,helix-admin-webapp\src\test\java\org\apache\helix\webapp\AdminTestBase.java,0,1,3,7
org.apache.helix.webapp.AdminTestHelper, 0, 0, 0, 0, 0, 0, 0, 0, 0, 0, 0, 0, 0, 0,0.0,0.0,0.0,0.0,0.0,0.0,0.0,0.0,0.0,0.0,0.0,0.0,0.0,36,helix-admin-webapp\src\test\java\org\apache\helix\webapp\AdminTestHelper.java,0,57,0,57
org.apache.helix.webapp.HelixAdminWebApp, 0, 0, 0, 0, 0, 0, 0, 0, 0, 0, 0, 0, 0, 0,0.0,0.0,0.0,1.0,0.0,0.0,0.0,0.0,0.0,0.0,0.0,0.0,0.0,42,helix-admin-webapp\src\main\java\org\apache\helix\webapp\HelixAdminWebApp.java,0,13,7,27
org.apache.helix.webapp.resources.ClusterResource, 0, 0, 0, 0, 0, 0, 0, 0, 0, 0, 0, 0, 0, 0,0.0,0.0,0.0,0.0,0.0,0.0,0.0,0.0,0.0,0.0,0.0,0.0,0.0,101,helix-admin-webapp\src\main\java\org\apache\helix\webapp\resources\ClusterResource.java,4,5,9,27
org.apache.helix.webapp.resources.ClustersResource, 0, 0, 0, 0, 0, 0, 0, 0, 0, 0, 0, 0, 0, 0,0.0,0.0,0.0,0.0,0.0,0.0,0.0,0.0,0.0,0.0,0.0,0.0,0.0,65,helix-admin-webapp\src\main\java\org\apache\helix\webapp\resources\ClustersResource.java,2,1,3,9
org.apache.helix.webapp.resources.ControllerStatusUpdateResource, 0, 0, 0, 0, 0, 0, 0, 0, 0, 0, 0, 0, 0, 0,0.0,0.0,0.0,0.0,0.0,0.0,0.0,0.0,0.0,0.0,0.0,0.0,0.0,40,helix-admin-webapp\src\main\java\org\apache\helix\webapp\resources\ControllerStatusUpdateResource.java,0,0,0,0
org.apache.helix.webapp.resources.CurrentStateResource, 0, 0, 0, 0, 0, 0, 0, 0, 0, 0, 0, 0, 0, 0,0.0,0.0,0.0,0.0,0.0,0.0,0.0,0.0,0.0,0.0,0.0,0.0,0.0,39,helix-admin-webapp\src\main\java\org\apache\helix\webapp\resources\CurrentStateResource.java,0,0,0,0
org.apache.helix.webapp.resources.CurrentStatesResource, 0, 0, 0, 0, 0, 0, 0, 0, 0, 0, 0, 0, 0, 0,0.0,0.0,0.0,0.0,0.0,0.0,0.0,0.0,0.0,0.0,0.0,0.0,0.0,35,helix-admin-webapp\src\main\java\org\apache\helix\webapp\resources\CurrentStatesResource.java,0,0,0,0
org.apache.helix.webapp.resources.ErrorResource, 0, 0, 0, 0, 0, 0, 0, 0, 0, 0, 0, 0, 0, 0,0.0,0.0,0.0,0.0,0.0,0.0,0.0,0.0,0.0,0.0,0.0,0.0,0.0,37,helix-admin-webapp\src\main\java\org\apache\helix\webapp\resources\ErrorResource.java,0,0,0,0
org.apache.helix.webapp.resources.ErrorsResource, 0, 0, 0, 0, 0, 0, 0, 0, 0, 0, 0, 0, 0, 0,0.0,0.0,0.0,0.0,0.0,0.0,0.0,0.0,0.0,0.0,0.0,0.0,0.0,35,helix-admin-webapp\src\main\java\org\apache\helix\webapp\resources\ErrorsResource.java,0,0,0,0
org.apache.helix.webapp.resources.ExternalViewResource, 0, 0, 0, 0, 0, 0, 0, 0, 0, 0, 0, 0, 0, 0,0.0,0.0,0.0,0.0,0.0,0.0,0.0,0.0,0.0,0.0,0.0,0.0,0.0,35,helix-admin-webapp\src\main\java\org\apache\helix\webapp\resources\ExternalViewResource.java,3,3,8,22
org.apache.helix.webapp.resources.InstanceResource, 0, 0, 0, 0, 0, 0, 0, 0, 0, 0, 0, 0, 0, 0,0.0,0.0,0.0,0.0,0.0,0.0,0.0,0.0,0.0,0.0,0.0,0.0,0.0,121,helix-admin-webapp\src\main\java\org\apache\helix\webapp\resources\InstanceResource.java,20,11,16,63
org.apache.helix.webapp.resources.ResourceGroupResource, 0, 0, 0, 0, 0, 0, 0, 0, 0, 0, 0, 0, 0, 0,0.0,0.0,0.0,0.0,0.0,0.0,0.0,0.0,0.0,0.0,0.0,0.0,0.0,84,helix-admin-webapp\src\main\java\org\apache\helix\webapp\resources\ResourceGroupResource.java,7,10,17,51
org.apache.helix.webapp.resources.StateModelResource, 0, 0, 0, 0, 0, 0, 0, 0, 0, 0, 0, 0, 0, 0,0.0,0.0,0.0,0.0,0.0,0.0,0.0,0.0,0.0,0.0,0.0,0.0,0.0,64,helix-admin-webapp\src\main\java\org\apache\helix\webapp\resources\StateModelResource.java,0,0,0,0
org.apache.helix.webapp.resources.StateModelsResource, 0, 0, 0, 0, 0, 0, 0, 0, 0, 0, 0, 0, 0, 0,0.0,0.0,0.0,0.0,0.0,0.0,0.0,0.0,0.0,0.0,0.0,0.0,0.0,64,helix-admin-webapp\src\main\java\org\apache\helix\webapp\resources\StateModelsResource.java,0,0,0,0
org.apache.helix.webapp.resources.StatusUpdateResource, 0, 0, 0, 0, 0, 0, 0, 0, 0, 0, 0, 0, 0, 0,0.0,0.0,0.0,0.0,0.0,0.0,0.0,0.0,0.0,0.0,0.0,0.0,0.0,39,helix-admin-webapp\src\main\java\org\apache\helix\webapp\resources\StatusUpdateResource.java,0,0,0,0
org.apache.helix.webapp.resources.StatusUpdatesResource, 0, 0, 0, 0, 0, 0, 0, 0, 0, 0, 0, 0, 0, 0,0.0,0.0,0.0,0.0,0.0,0.0,0.0,0.0,0.0,0.0,0.0,0.0,0.0,35,helix-admin-webapp\src\main\java\org\apache\helix\webapp\resources\StatusUpdatesResource.java,0,0,0,0
org.apache.helix.webapp.resources.ZkChildResource, 0, 0, 0, 0, 0, 0, 0, 0, 0, 0, 0, 0, 0, 0,0.0,0.0,0.0,1.0,0.0,0.0,0.0,0.0,0.0,0.0,0.0,0.0,0.0,76,helix-admin-webapp\src\main\java\org\apache\helix\webapp\resources\ZkChildResource.java,0,0,0,0
org.apache.helix.webapp.resources.ZkPathResource, 0, 0, 0, 0, 0, 0, 0, 0, 0, 0, 0, 0, 0, 0,0.0,0.0,0.0,0.5,0.0,0.0,0.0,0.0,0.0,0.0,0.0,0.0,0.0,102,helix-admin-webapp\src\main\java\org\apache\helix\webapp\resources\ZkPathResource.java,0,0,0,0
