ClassName,AntiSingleton,Blob,ClassDataShouldBePrivate,ComplexClass,LargeClass,LazyClass,LongMethod,LongParameterList,MessageChains,RefusedParentBequest,SpaghettiCode,SpeculativeGenerality,SwissArmyKnife,NumOfAPs,AntiSingleton,Blob,ClassDataShouldBePrivate,ComplexClass,LargeClass,LazyClass,LongMethod,LongParameterList,MessageChains,RefusedParentBequest,SpaghettiCode,SpeculativeGenerality,SwissArmyKnife,LOC,name,deleted,added,changed,all
org.apache.falcon.Debug, 0, 0, 0, 0, 0, 0, 0, 0, 0, 0, 0, 0, 0, 0,0.0,0.0,0.0,0.0,0.0,0.0,0.0,0.0,0.0,0.0,0.0,0.0,0.0,47,webapp\src\main\java\org\apache\falcon\Debug.java,66,0,0,66
org.apache.falcon.FalconException, 0, 0, 0, 0, 0, 0, 0, 0, 0, 0, 0, 0, 0, 0,0.0,0.0,0.0,0.0625,0.0,0.03125,0.0,0.03125,0.0,0.0,0.0,0.0,0.0,12,common\src\main\java\org\apache\falcon\FalconException.java,0,0,0,0
org.apache.falcon.FalconRuntimException, 0, 0, 0, 0, 0, 0, 0, 0, 0, 0, 0, 0, 0, 0,0.0,0.0,0.0,0.0,0.0,0.0,0.0,0.0,0.0,0.0,0.0,0.0,0.0,12,common\src\main\java\org\apache\falcon\FalconRuntimException.java,0,0,0,0
org.apache.falcon.FalconWebException, 0, 0, 0, 0, 0, 0, 0, 0, 0, 0, 0, 0, 0, 0,0.0,0.0,0.0,0.0,0.0,0.0,0.0,0.0,0.0,0.0,0.0,0.0,0.0,43,prism\src\main\java\org\apache\falcon\FalconWebException.java,0,0,0,0
org.apache.falcon.JobTrackerService, 0, 0, 0, 0, 0, 0, 0, 0, 0, 0, 0, 0, 0, 0,0.0,0.0,0.0,0.0,0.0,0.0,0.0,0.0,0.0,0.0,0.0,0.0,0.0,43,hadoop-webapp\src\main\java\org\apache\falcon\JobTrackerService.java,5,0,0,5
org.apache.falcon.Main, 0, 0, 0, 0, 0, 0, 0, 0, 0, 0, 0, 0, 0, 0,0.0,0.0,0.0,0.0,0.0,0.0,0.0,0.0,0.0,0.0,0.0,0.0,0.0,66,prism\src\main\java\org\apache\falcon\Main.java,0,0,1,2
org.apache.falcon.Pair, 0, 0, 0, 0, 0, 0, 0, 0, 0, 0, 0, 0, 0, 0,0.0,0.0,0.0,0.0,0.0,0.0,0.0,0.3333333333333333,0.0,0.0,0.0,0.0,0.0,38,client\src\main\java\org\apache\falcon\Pair.java,0,0,0,0
org.apache.falcon.aspect.AlertMessage, 0, 0, 0, 0, 0, 0, 0, 0, 0, 0, 0, 0, 0, 0,0.0,0.0,0.0,0.0,0.0,0.0,0.0,0.0,0.0,0.0,0.0,0.0,0.0,27,metrics\src\main\java\org\apache\falcon\aspect\AlertMessage.java,0,0,0,0
org.apache.falcon.aspect.AlertMessageTest, 0, 0, 0, 0, 0, 0, 0, 0, 0, 0, 0, 0, 0, 0,0.0,0.0,0.0,0.0,0.0,0.0,0.0,0.0,0.0,0.0,0.0,0.0,0.0,22,metrics\src\test\java\org\apache\falcon\aspect\AlertMessageTest.java,0,0,0,0
org.apache.falcon.aspect.AuditMessage, 0, 0, 0, 0, 0, 0, 0, 0, 0, 0, 0, 0, 0, 0,0.0,0.0,0.0,0.0,0.0,0.0,0.0,0.0,0.0,0.0,0.0,0.0,0.0,42,metrics\src\main\java\org\apache\falcon\aspect\AuditMessage.java,0,0,0,0
org.apache.falcon.aspect.AuditMessageTest, 0, 0, 0, 0, 0, 0, 0, 0, 0, 0, 0, 0, 0, 0,0.0,0.0,0.0,0.0,0.0,0.0,0.0,0.0,0.0,0.0,0.0,0.0,0.0,25,metrics\src\test\java\org\apache\falcon\aspect\AuditMessageTest.java,0,0,0,0
org.apache.falcon.aspect.GenericAlert, 0, 0, 0, 0, 0, 0, 0, 1, 0, 0, 0, 0, 0, 1,0.0,0.0,0.0,0.0,0.0,0.0,0.0,0.0,0.0,0.0,0.0,0.0,0.0,83,metrics\src\main\java\org\apache\falcon\aspect\GenericAlert.java,0,0,0,0
org.apache.falcon.aspect.GenericAlertTest, 0, 0, 0, 0, 0, 0, 0, 0, 0, 0, 0, 0, 0, 0,0.0,0.0,0.0,0.0,0.0,0.0,0.0,1.0,0.0,0.0,0.0,0.0,0.0,7,prism\src\test\java\org\apache\falcon\aspect\GenericAlertTest.java,0,0,0,0
org.apache.falcon.aspect.LoggingAspectTest, 0, 0, 0, 0, 0, 0, 0, 0, 0, 0, 0, 0, 0, 0,0.0,0.0,0.0,0.0,0.0,0.0,0.0,0.0,0.0,0.0,0.0,0.0,0.0,42,prism\src\test\java\org\apache\falcon\aspect\LoggingAspectTest.java,0,0,0,0
org.apache.falcon.catalog.CatalogPartition, 0, 0, 0, 1, 0, 0, 0, 0, 0, 0, 0, 0, 0, 1,0.0,0.0,0.0,0.0,0.0,0.0,0.0,0.0,0.0,0.0,0.0,0.0,0.0,83,common\src\main\java\org\apache\falcon\catalog\CatalogPartition.java,7,0,0,7
org.apache.falcon.catalog.CatalogServiceFactory, 0, 0, 0, 0, 0, 0, 0, 0, 0, 0, 0, 0, 0, 0,0.0,0.0,0.0,0.0,0.0,0.0,0.0,0.0,0.0,0.0,0.0,0.0,0.0,15,common\src\main\java\org\apache\falcon\catalog\CatalogServiceFactory.java,0,7,1,9
org.apache.falcon.cleanup.AbstractCleanupHandler, 0, 0, 0, 0, 0, 0, 0, 0, 0, 0, 0, 0, 0, 0,0.0,0.0,0.0,0.0,0.0,0.0,0.0,0.0,0.0,0.0,0.0,0.0,0.0,102,common\src\main\java\org\apache\falcon\cleanup\AbstractCleanupHandler.java,1,17,4,26
org.apache.falcon.cleanup.FeedCleanupHandler, 0, 0, 0, 0, 0, 0, 0, 0, 0, 0, 0, 0, 0, 0,0.0,0.0,0.0,0.0,0.0,0.0,0.0,0.0,0.0,0.0,0.0,0.0,0.0,17,common\src\main\java\org\apache\falcon\cleanup\FeedCleanupHandler.java,0,0,0,0
org.apache.falcon.cleanup.LogCleanupServiceTest, 0, 0, 0, 0, 0, 0, 0, 0, 0, 0, 0, 0, 0, 0,0.0,0.0,0.0,0.0,0.0,0.0,0.0,0.0,0.0,0.0,0.0,0.0,0.0,97,common\src\test\java\org\apache\falcon\cleanup\LogCleanupServiceTest.java,0,10,0,10
org.apache.falcon.cleanup.ProcessCleanupHandler, 0, 0, 0, 0, 0, 0, 0, 0, 0, 0, 0, 0, 0, 0,0.0,0.0,0.0,0.0,0.0,0.0,0.0,0.0,0.0,0.0,0.0,0.0,0.0,17,common\src\main\java\org\apache\falcon\cleanup\ProcessCleanupHandler.java,0,0,0,0
org.apache.falcon.cli.TestCLIParser, 0, 0, 0, 0, 0, 0, 0, 0, 0, 0, 0, 0, 0, 0,0.0,0.0,0.0,0.0,0.0,0.0,0.0,0.0,0.0,0.0,0.0,0.0,0.0,36,client\src\test\java\org\apache\falcon\cli\TestCLIParser.java,0,0,0,0
org.apache.falcon.client.FalconCLIException, 0, 0, 0, 0, 0, 0, 0, 0, 0, 0, 0, 0, 0, 0,0.0,0.0,0.0,0.0,0.0,0.0,0.0,0.0,0.0,0.0,0.0,0.0,0.0,40,client\src\main\java\org\apache\falcon\client\FalconCLIException.java,0,0,0,0
org.apache.falcon.cluster.util.EmbeddedCluster, 0, 0, 0, 0, 0, 0, 0, 0, 0, 0, 0, 0, 0, 0,0.0,0.0,0.0,0.2,0.0,0.0,0.0,0.0,0.0,0.0,0.0,0.0,0.0,93,test-util\src\main\java\org\apache\falcon\cluster\util\EmbeddedCluster.java,0,1,2,5
org.apache.falcon.cluster.util.EntityBuilderTestUtil, 0, 0, 0, 0, 0, 0, 0, 0, 0, 0, 0, 0, 0, 0,0.0,0.0,0.0,0.75,0.0,0.0,0.0,0.0,0.0,0.0,0.0,0.0,0.0,118,test-util\src\main\java\org\apache\falcon\cluster\util\EntityBuilderTestUtil.java,0,0,0,0
org.apache.falcon.cluster.util.StandAloneCluster, 0, 0, 0, 0, 0, 0, 0, 0, 0, 0, 0, 0, 0, 0,0.0,0.0,0.0,0.0,0.0,0.0,0.0,0.0,0.0,0.0,0.0,0.0,0.0,21,test-util\src\main\java\org\apache\falcon\cluster\util\StandAloneCluster.java,0,0,0,0
org.apache.falcon.entity.CatalogStorageTest, 0, 0, 0, 0, 0, 0, 0, 0, 0, 0, 0, 0, 0, 0,0.0,0.0,0.0,0.0,0.0,0.0,0.0,0.0,0.0,0.0,0.0,0.0,0.0,158,common\src\test\java\org\apache\falcon\entity\CatalogStorageTest.java,0,0,0,0
org.apache.falcon.entity.ColoClusterRelationTest, 0, 0, 0, 0, 0, 0, 0, 0, 0, 0, 0, 0, 0, 0,0.0,0.0,0.0,0.0,0.0,0.0,0.0,0.0,0.0,0.0,0.0,0.0,0.0,36,common\src\test\java\org\apache\falcon\entity\ColoClusterRelationTest.java,0,0,0,0
org.apache.falcon.entity.EntityNotRegisteredException, 0, 0, 0, 0, 0, 1, 0, 0, 0, 0, 0, 0, 0, 1,0.0,0.0,0.0,0.0,0.0,0.0,0.0,0.0,0.0,0.0,0.0,0.0,0.0,5,common\src\main\java\org\apache\falcon\entity\EntityNotRegisteredException.java,0,0,0,0
org.apache.falcon.entity.EntityTypeTest, 0, 0, 0, 0, 0, 0, 0, 0, 0, 0, 0, 0, 0, 0,0.0,0.0,0.0,0.0,0.0,0.0,0.0,0.0,0.0,0.0,0.0,0.0,0.0,13,common\src\test\java\org\apache\falcon\entity\EntityTypeTest.java,0,13,0,13
org.apache.falcon.entity.EntityUtilTest, 0, 0, 0, 0, 0, 0, 0, 0, 0, 0, 0, 0, 0, 0,0.0,0.0,0.0,0.0,0.0,0.0,0.0,0.0,0.0,0.0,0.0,0.0,0.0,169,common\src\test\java\org\apache\falcon\entity\EntityUtilTest.java,0,33,0,33
org.apache.falcon.entity.FeedHelperTest, 0, 0, 0, 0, 0, 0, 0, 0, 0, 0, 0, 0, 0, 0,0.0,0.0,0.0,0.0,0.0,0.0,0.0,0.0,0.0,0.0,0.0,0.0,0.0,23,common\src\test\java\org\apache\falcon\entity\FeedHelperTest.java,0,45,0,45
org.apache.falcon.entity.FeedInstanceStatus, 0, 0, 0, 0, 0, 0, 0, 0, 0, 0, 0, 0, 0, 0,0.0,0.0,0.0,0.0,0.0,0.0,0.0,0.0,0.0,0.0,0.0,0.0,0.0,83,common\src\main\java\org\apache\falcon\entity\FeedInstanceStatus.java,0,0,0,0
org.apache.falcon.entity.ProcessHelper, 0, 0, 0, 0, 0, 0, 0, 0, 0, 0, 0, 0, 0, 0,0.0,0.0,0.0,0.14285714285714285,0.0,0.0,0.0,0.0,0.0,0.0,0.0,0.0,0.0,74,common\src\main\java\org\apache\falcon\entity\ProcessHelper.java,38,0,1,40
org.apache.falcon.entity.Storage, 0, 0, 0, 0, 0, 0, 0, 0, 0, 0, 0, 0, 0, 0,0.0,0.0,0.0,0.0,0.0,0.0,0.0,0.0,0.0,0.0,0.0,0.0,0.0,74,common\src\main\java\org\apache\falcon\entity\Storage.java,0,0,0,0
org.apache.falcon.entity.StorageFactoryTest, 0, 0, 0, 1, 0, 0, 0, 0, 0, 0, 0, 0, 0, 1,0.0,0.0,0.0,0.0,0.0,0.0,0.0,0.0,0.0,0.0,0.0,0.0,0.0,218,common\src\test\java\org\apache\falcon\entity\StorageFactoryTest.java,0,0,0,0
org.apache.falcon.entity.TestWorkflowNameBuilder, 0, 0, 0, 0, 0, 0, 0, 0, 0, 0, 0, 0, 0, 0,0.0,0.0,0.0,0.0,0.0,0.0,0.0,0.0,0.0,0.0,0.0,0.0,0.0,47,common\src\test\java\org\apache\falcon\entity\TestWorkflowNameBuilder.java,0,0,0,0
org.apache.falcon.entity.parser.ClusterEntityParser, 0, 0, 0, 0, 0, 0, 0, 0, 0, 0, 0, 0, 0, 0,0.0,0.0,0.0,0.09090909090909091,0.0,0.0,0.0,0.0,0.0,0.0,0.0,0.0,0.0,192,common\src\main\java\org\apache\falcon\entity\parser\ClusterEntityParser.java,9,45,21,96
org.apache.falcon.entity.parser.ClusterEntityParserTest, 0, 0, 0, 0, 0, 0, 0, 0, 0, 0, 0, 0, 0, 0,0.0,0.0,0.0,0.0,0.0,0.0,0.0,0.0,0.0,0.0,0.0,0.0,0.0,150,common\src\test\java\org\apache\falcon\entity\parser\ClusterEntityParserTest.java,0,92,24,140
org.apache.falcon.entity.parser.CrossEntityValidations, 0, 0, 0, 0, 0, 0, 0, 0, 0, 0, 0, 0, 0, 0,0.0,0.0,0.0,0.0,0.0,0.0,0.0,0.0,0.0,0.0,0.0,0.0,0.0,97,common\src\main\java\org\apache\falcon\entity\parser\CrossEntityValidations.java,0,0,0,0
org.apache.falcon.entity.parser.EntityParser, 0, 0, 0, 0, 0, 0, 0, 0, 0, 0, 0, 0, 0, 0,0.0,0.0,0.0,0.2727272727272727,0.0,0.0,0.0,0.0,0.0,0.0,0.0,0.0,0.0,70,common\src\main\java\org\apache\falcon\entity\parser\EntityParser.java,0,0,0,0
org.apache.falcon.entity.parser.EntityParserFactory, 0, 0, 0, 0, 0, 0, 0, 0, 0, 0, 0, 0, 0, 0,0.0,0.0,0.0,0.4,0.0,0.0,0.0,0.0,0.0,0.0,0.0,0.0,0.0,16,common\src\main\java\org\apache\falcon\entity\parser\EntityParserFactory.java,0,0,0,0
org.apache.falcon.entity.parser.FeedEntityParserTest, 0, 0, 0, 1, 0, 0, 0, 0, 0, 0, 0, 0, 0, 1,0.0,0.0,0.0,0.0,0.0,0.0,0.0,0.0,0.0,0.0,0.0,0.0,0.0,708,common\src\test\java\org\apache\falcon\entity\parser\FeedEntityParserTest.java,0,0,0,0
org.apache.falcon.entity.parser.FeedUpdateTest, 0, 0, 0, 0, 0, 0, 0, 0, 0, 0, 0, 0, 0, 0,0.0,0.0,0.0,0.0,0.0,0.0,0.0,0.0,0.0,0.0,0.0,0.0,0.0,92,common\src\test\java\org\apache\falcon\entity\parser\FeedUpdateTest.java,0,0,0,0
org.apache.falcon.entity.parser.ProcessEntityParserTest, 0, 0, 0, 1, 0, 0, 0, 0, 0, 0, 0, 0, 0, 1,0.0,0.0,0.0,0.0,0.0,0.0,0.0,0.0,0.0,0.0,0.0,0.0,0.0,372,common\src\test\java\org\apache\falcon\entity\parser\ProcessEntityParserTest.java,0,0,0,0
org.apache.falcon.entity.parser.ValidationException, 0, 0, 0, 0, 0, 0, 0, 0, 0, 0, 0, 0, 0, 0,0.0,0.0,0.0,0.25,0.0,0.0,0.0,0.0,0.0,0.0,0.0,0.0,0.0,12,common\src\main\java\org\apache\falcon\entity\parser\ValidationException.java,0,0,0,0
org.apache.falcon.entity.store.ConfigurationStoreTest, 0, 0, 0, 0, 0, 0, 0, 0, 0, 0, 0, 0, 0, 0,0.0,0.0,0.0,0.0,0.0,0.0,0.0,0.0,0.0,0.0,0.0,0.0,0.0,103,common\src\test\java\org\apache\falcon\entity\store\ConfigurationStoreTest.java,0,0,0,0
org.apache.falcon.entity.store.EntityAlreadyExistsException, 0, 0, 0, 0, 0, 0, 0, 0, 0, 0, 0, 0, 0, 0,0.0,0.0,0.0,0.0,0.0,0.0,0.0,0.0,0.0,0.0,0.0,0.0,0.0,11,common\src\main\java\org\apache\falcon\entity\store\EntityAlreadyExistsException.java,0,0,0,0
org.apache.falcon.entity.store.StoreAccessException, 0, 0, 0, 0, 0, 0, 0, 0, 0, 0, 0, 0, 0, 0,0.0,0.0,0.0,0.0,0.0,0.0,0.0,0.0,0.0,0.0,0.0,0.0,0.0,8,common\src\main\java\org\apache\falcon\entity\store\StoreAccessException.java,0,0,0,0
org.apache.falcon.entity.v0.AccessControlList, 0, 0, 0, 0, 0, 0, 0, 0, 0, 0, 0, 0, 0, 0,0.0,0.0,0.0,0.0,0.0,0.0,0.0,0.0,0.0,0.0,0.0,0.0,0.0,13,client\src\main\java\org\apache\falcon\entity\v0\AccessControlList.java,0,0,0,0
org.apache.falcon.entity.v0.DateValidatorTest, 0, 0, 0, 0, 0, 0, 0, 0, 0, 0, 0, 0, 0, 0,0.0,0.0,0.0,0.0,0.0,0.0,0.0,0.0,0.0,0.0,0.0,0.0,0.0,51,client\src\test\java\org\apache\falcon\entity\v0\DateValidatorTest.java,0,0,0,0
org.apache.falcon.entity.v0.Entity, 0, 0, 0, 0, 0, 0, 0, 0, 0, 0, 0, 0, 0, 0,0.0,0.0,0.0,0.0,0.0,0.0,0.0,0.2,0.0,0.0,0.0,0.0,0.0,57,client\src\main\java\org\apache\falcon\entity\v0\Entity.java,0,0,0,0
org.apache.falcon.entity.v0.EntityGraphTest, 0, 0, 0, 0, 0, 0, 0, 0, 0, 0, 0, 0, 0, 0,0.0,0.0,0.0,0.0,0.0,0.0,0.0,0.0,0.0,0.0,0.0,0.0,0.0,211,common\src\test\java\org\apache\falcon\entity\v0\EntityGraphTest.java,0,0,0,0
org.apache.falcon.entity.v0.EntityIntegrityChecker, 0, 0, 0, 0, 0, 0, 0, 0, 0, 0, 0, 0, 0, 0,0.0,0.0,0.0,0.0,0.0,0.0,0.0,0.0,0.0,0.0,0.0,0.0,0.0,28,common\src\main\java\org\apache\falcon\entity\v0\EntityIntegrityChecker.java,0,0,0,0
org.apache.falcon.entity.v0.SchemaHelper, 0, 0, 0, 0, 0, 0, 0, 0, 0, 0, 0, 0, 0, 0,0.0,0.0,0.0,0.18181818181818182,0.0,0.0,0.0,0.09090909090909091,0.0,0.0,0.0,0.0,0.0,34,client\src\main\java\org\apache\falcon\entity\v0\SchemaHelper.java,0,0,0,0
org.apache.falcon.entity.v0.TestFrequency, 0, 0, 0, 0, 0, 0, 0, 0, 0, 0, 0, 0, 0, 0,0.0,0.0,0.0,0.0,0.0,0.0,0.0,0.0,0.0,0.0,0.0,0.0,0.0,9,client\src\test\java\org\apache\falcon\entity\v0\TestFrequency.java,0,0,0,0
org.apache.falcon.entity.v0.UnschedulableEntityException, 0, 0, 0, 0, 0, 0, 0, 0, 0, 0, 0, 0, 0, 0,0.0,0.0,0.0,0.0,0.0,0.0,0.0,0.5,0.0,0.0,0.0,0.0,0.0,12,common\src\main\java\org\apache\falcon\entity\v0\UnschedulableEntityException.java,0,0,0,0
org.apache.falcon.hadoop.FileSystemExtension, 0, 0, 0, 0, 0, 1, 0, 0, 0, 0, 0, 0, 0, 1,0.0,0.0,0.0,0.0,0.0,0.0,0.0,0.0,0.0,0.0,0.0,0.0,0.0,2,hadoop-dependencies\src\main\java\org\apache\falcon\hadoop\FileSystemExtension.java,0,0,0,0
org.apache.falcon.hadoop.HadoopClientFactory, 0, 0, 0, 0, 0, 0, 0, 0, 0, 0, 0, 0, 0, 0,0.0,0.0,0.0,0.0,0.0,0.0,0.0,0.0,0.0,0.0,0.0,0.0,0.0,138,common\src\main\java\org\apache\falcon\hadoop\HadoopClientFactory.java,0,0,0,0
org.apache.falcon.hadoop.HadoopClientFactoryTest, 0, 0, 0, 0, 0, 0, 0, 0, 0, 0, 0, 0, 0, 0,0.0,0.0,0.0,0.0,0.0,0.0,0.0,0.0,0.0,0.0,0.0,0.0,0.0,57,common\src\test\java\org\apache\falcon\hadoop\HadoopClientFactoryTest.java,0,0,0,0
org.apache.falcon.hadoop.JailedFileSystem, 0, 0, 0, 0, 0, 0, 0, 1, 0, 0, 0, 0, 0, 1,0.0,0.0,0.0,0.0,0.0,0.0,0.0,0.0,0.0,0.0,0.0,0.0,0.0,139,hadoop-dependencies\src\main\java\org\apache\falcon\hadoop\JailedFileSystem.java,0,0,0,0
org.apache.falcon.listener.HadoopStartupListener, 0, 0, 0, 0, 0, 0, 0, 0, 0, 0, 0, 0, 0, 0,0.0,0.0,0.0,0.0,0.0,0.0,0.0,0.0,0.0,0.0,0.0,0.0,0.0,53,hadoop-webapp\src\main\java\org\apache\falcon\listener\HadoopStartupListener.java,60,0,0,60
org.apache.falcon.logging.DefaultTaskLogRetriever, 0, 0, 0, 0, 0, 0, 0, 0, 0, 0, 0, 0, 0, 0,0.0,0.0,0.0,0.0,0.0,0.0,0.0,0.0,0.0,0.0,0.0,0.0,0.0,24,oozie\src\main\java\org\apache\falcon\logging\DefaultTaskLogRetriever.java,0,4,4,12
org.apache.falcon.logging.JobLogMover, 0, 0, 0, 0, 0, 0, 0, 0, 0, 0, 0, 0, 0, 0,0.0,0.0,0.0,0.0,0.0,0.0,0.0,0.0,0.0,0.0,0.0,0.0,0.0,102,oozie\src\main\java\org\apache\falcon\logging\JobLogMover.java,0,9,6,21
org.apache.falcon.logging.TaskLogURLRetriever, 0, 0, 0, 0, 0, 0, 0, 0, 0, 0, 0, 0, 0, 0,0.0,0.0,0.0,0.0,0.0,0.0,0.0,0.0,0.0,0.0,0.0,0.0,0.0,102,oozie\src\main\java\org\apache\falcon\logging\TaskLogURLRetriever.java,0,1,1,3
org.apache.falcon.messaging.FeedProducerTest, 0, 0, 0, 0, 0, 0, 0, 0, 0, 0, 0, 0, 0, 0,0.0,0.0,0.0,0.0,0.0,0.0,0.0,0.0,0.0,0.0,0.0,0.0,0.0,137,messaging\src\test\java\org\apache\falcon\messaging\FeedProducerTest.java,0,0,1,2
org.apache.falcon.messaging.JMSMessageProducerTest, 0, 0, 0, 0, 0, 0, 0, 0, 0, 0, 0, 0, 0, 0,0.0,0.0,0.0,0.0,0.0,0.0,0.0,0.0,0.0,0.0,0.0,0.0,0.0,178,messaging\src\test\java\org\apache\falcon\messaging\JMSMessageProducerTest.java,1,1,3,8
org.apache.falcon.messaging.ProcessProducerTest, 0, 0, 0, 0, 0, 0, 0, 0, 0, 0, 0, 0, 0, 0,0.0,0.0,0.0,0.0,0.0,0.0,0.0,0.0,0.0,0.0,0.0,0.0,0.0,107,messaging\src\test\java\org\apache\falcon\messaging\ProcessProducerTest.java,0,0,1,2
org.apache.falcon.messaging.util.MessagingUtil, 0, 0, 0, 0, 0, 0, 0, 0, 0, 0, 0, 0, 0, 0,0.0,0.0,0.0,0.0,0.0,0.0,0.0,0.0,0.0,0.0,0.0,0.0,0.0,54,messaging\src\main\java\org\apache\falcon\messaging\util\MessagingUtil.java,0,0,0,0
org.apache.falcon.metadata.EntityRelationshipGraphBuilder, 0, 0, 0, 1, 0, 0, 0, 0, 0, 0, 0, 0, 0, 1,0.0,0.0,0.0,0.3333333333333333,0.0,0.0,0.0,0.0,0.0,0.0,0.0,0.0,0.0,318,common\src\main\java\org\apache\falcon\metadata\EntityRelationshipGraphBuilder.java,0,0,1,2
org.apache.falcon.metadata.InstanceRelationshipGraphBuilder, 0, 0, 0, 0, 0, 0, 0, 0, 0, 0, 0, 0, 0, 0,0.0,0.0,0.0,0.3333333333333333,0.0,0.0,0.0,0.0,0.0,0.0,0.0,0.0,0.0,216,common\src\main\java\org\apache\falcon\metadata\InstanceRelationshipGraphBuilder.java,0,0,3,6
org.apache.falcon.metadata.MetadataMappingServiceTest, 0, 0, 0, 1, 0, 0, 0, 0, 0, 0, 0, 0, 0, 1,0.0,0.0,0.0,0.25,0.0,0.0,0.0,0.0,0.0,0.0,0.0,0.0,0.0,773,common\src\test\java\org\apache\falcon\metadata\MetadataMappingServiceTest.java,0,0,0,0
org.apache.falcon.metadata.RelationshipGraphBuilder, 0, 0, 0, 0, 0, 0, 0, 0, 0, 0, 0, 0, 0, 0,0.0,0.0,0.0,0.3333333333333333,0.0,0.0,0.0,0.0,0.0,0.0,0.0,0.0,0.0,135,common\src\main\java\org\apache\falcon\metadata\RelationshipGraphBuilder.java,0,0,4,8
org.apache.falcon.oozie.bundle.BundleUnmarshallingTest, 0, 0, 0, 0, 0, 0, 0, 0, 0, 0, 0, 0, 0, 0,0.0,0.0,0.0,0.0,0.0,0.0,0.0,0.0,0.0,0.0,0.0,0.0,0.0,16,oozie\src\test\java\org\apache\falcon\oozie\bundle\BundleUnmarshallingTest.java,0,0,0,0
org.apache.falcon.oozie.coordinator.CoordinatorUnmarshallingTest, 0, 0, 0, 0, 0, 0, 0, 0, 0, 0, 0, 0, 0, 0,0.0,0.0,0.0,0.0,0.0,0.0,0.0,0.0,0.0,0.0,0.0,0.0,0.0,15,oozie\src\test\java\org\apache\falcon\oozie\coordinator\CoordinatorUnmarshallingTest.java,0,0,0,0
org.apache.falcon.oozie.feed.FSReplicationWorkflowBuilder, 0, 0, 0, 0, 0, 0, 0, 0, 0, 0, 0, 0, 0, 0,0.0,0.0,0.0,0.0,0.0,0.0,0.0,0.0,0.0,0.0,0.0,0.0,0.0,27,oozie\src\main\java\org\apache\falcon\oozie\feed\FSReplicationWorkflowBuilder.java,0,4,0,4
org.apache.falcon.oozie.feed.FeedBundleBuilder, 0, 0, 0, 0, 0, 0, 0, 0, 0, 0, 0, 0, 0, 0,0.0,0.0,0.0,0.0,0.0,0.0,0.0,0.0,0.0,0.0,0.0,0.0,0.0,22,oozie\src\main\java\org\apache\falcon\oozie\feed\FeedBundleBuilder.java,0,4,1,6
org.apache.falcon.oozie.feed.FeedReplicationWorkflowBuilder, 0, 0, 0, 0, 0, 0, 0, 0, 0, 0, 0, 0, 0, 0,0.0,0.0,0.0,0.0,0.0,0.0,0.0,0.0,0.0,0.0,0.0,0.0,0.0,17,oozie\src\main\java\org\apache\falcon\oozie\feed\FeedReplicationWorkflowBuilder.java,0,12,1,14
org.apache.falcon.oozie.feed.HCatReplicationWorkflowBuilder, 0, 0, 0, 0, 0, 0, 0, 0, 0, 0, 0, 0, 0, 0,0.0,0.0,0.0,0.0,0.0,0.0,0.0,0.0,0.0,0.0,0.0,0.0,0.0,81,oozie\src\main\java\org\apache\falcon\oozie\feed\HCatReplicationWorkflowBuilder.java,8,3,1,13
org.apache.falcon.oozie.process.HiveProcessWorkflowBuilder, 0, 0, 0, 0, 0, 0, 0, 0, 0, 0, 0, 0, 0, 0,0.0,0.0,0.0,0.0,0.0,0.0,0.0,0.0,0.0,0.0,0.0,0.0,0.0,49,oozie\src\main\java\org\apache\falcon\oozie\process\HiveProcessWorkflowBuilder.java,1,0,2,5
org.apache.falcon.oozie.process.OozieProcessWorkflowBuilder, 0, 0, 0, 0, 0, 0, 0, 0, 0, 0, 0, 0, 0, 0,0.0,0.0,0.0,0.0,0.0,0.0,0.0,0.0,0.0,0.0,0.0,0.0,0.0,12,oozie\src\main\java\org\apache\falcon\oozie\process\OozieProcessWorkflowBuilder.java,2,0,1,4
org.apache.falcon.oozie.process.PigProcessWorkflowBuilder, 0, 0, 0, 0, 0, 0, 0, 0, 0, 0, 0, 0, 0, 0,0.0,0.0,0.0,0.0,0.0,0.0,0.0,0.0,0.0,0.0,0.0,0.0,0.0,38,oozie\src\main\java\org\apache\falcon\oozie\process\PigProcessWorkflowBuilder.java,1,0,2,5
org.apache.falcon.oozie.workflow.FalconPostProcessingTest, 0, 0, 0, 0, 0, 0, 0, 0, 0, 0, 0, 0, 0, 0,0.0,0.0,0.0,0.0,0.0,0.0,0.0,0.0,0.0,0.0,0.0,0.0,0.0,150,oozie\src\test\java\org\apache\falcon\oozie\workflow\FalconPostProcessingTest.java,0,0,1,2
org.apache.falcon.oozie.workflow.WorkflowUnmarshallingTest, 0, 0, 0, 0, 0, 0, 0, 0, 0, 0, 0, 0, 0, 0,0.0,0.0,0.0,0.0,0.0,0.0,0.0,0.0,0.0,0.0,0.0,0.0,0.0,16,oozie\src\test\java\org\apache\falcon\oozie\workflow\WorkflowUnmarshallingTest.java,0,0,0,0
org.apache.falcon.plugin.AlertingPlugin, 0, 0, 0, 0, 0, 0, 0, 0, 0, 0, 0, 0, 0, 0,0.0,0.0,0.0,0.0,0.0,0.0,0.0,0.0,0.0,0.0,0.0,0.0,0.0,16,metrics\src\main\java\org\apache\falcon\plugin\AlertingPlugin.java,0,0,0,0
org.apache.falcon.plugin.AuditingPlugin, 0, 0, 0, 0, 0, 0, 0, 0, 0, 0, 0, 0, 0, 0,0.0,0.0,0.0,0.0,0.0,0.0,0.0,0.0,0.0,0.0,0.0,0.0,0.0,16,metrics\src\main\java\org\apache\falcon\plugin\AuditingPlugin.java,0,0,0,0
org.apache.falcon.plugin.ChainableMonitoringPlugin, 0, 0, 0, 0, 0, 0, 0, 0, 0, 0, 0, 0, 0, 0,0.0,0.0,0.0,0.0,0.0,0.0,0.0,0.0,0.0,0.0,0.0,0.0,0.0,96,prism\src\main\java\org\apache\falcon\plugin\ChainableMonitoringPlugin.java,0,0,0,0
org.apache.falcon.plugin.ChainableMonitoringPluginTest, 0, 0, 0, 0, 0, 0, 0, 0, 0, 0, 0, 0, 0, 0,0.0,0.0,0.0,0.0,0.0,0.0,0.0,0.2,0.0,0.0,0.0,0.0,0.0,33,prism\src\test\java\org\apache\falcon\plugin\ChainableMonitoringPluginTest.java,0,0,0,0
org.apache.falcon.plugin.DefaultMonitoringPlugin, 0, 0, 0, 0, 0, 0, 0, 0, 0, 0, 0, 0, 0, 0,0.0,0.0,0.0,0.0,0.0,0.0,0.0,0.0,0.0,0.0,0.0,0.0,0.0,17,metrics\src\main\java\org\apache\falcon\plugin\DefaultMonitoringPlugin.java,0,0,0,0
org.apache.falcon.plugin.MonitoringPlugin, 0, 0, 0, 0, 0, 0, 0, 0, 0, 0, 0, 0, 0, 0,0.0,0.0,0.0,0.0,0.0,0.0,0.0,0.0,0.0,0.0,0.0,0.0,0.0,17,metrics\src\main\java\org\apache\falcon\plugin\MonitoringPlugin.java,0,0,0,0
org.apache.falcon.replication.CustomReplicator, 0, 0, 0, 0, 0, 0, 0, 0, 0, 0, 0, 0, 0, 0,0.0,0.0,0.0,0.0,0.0,0.0,0.0,0.0,0.0,0.0,0.0,0.0,0.0,19,replication\src\main\java\org\apache\falcon\replication\CustomReplicator.java,0,0,0,0
org.apache.falcon.replication.FeedReplicatorTest, 0, 0, 0, 0, 0, 0, 0, 0, 0, 0, 0, 0, 0, 0,0.0,0.0,0.0,0.0,0.0,0.0,0.0,0.0,0.0,0.0,0.0,0.0,0.0,22,replication\src\test\java\org\apache\falcon\replication\FeedReplicatorTest.java,0,0,0,0
org.apache.falcon.rerun.AbstractRerunPolicyTest, 0, 0, 0, 0, 0, 0, 0, 0, 0, 0, 0, 0, 0, 0,0.0,0.0,0.0,0.0,0.0,0.0,0.0,0.0,0.0,0.0,0.0,0.0,0.0,51,rerun\src\test\java\org\apache\falcon\rerun\AbstractRerunPolicyTest.java,0,0,0,0
org.apache.falcon.rerun.event.LaterunEvent, 0, 0, 0, 0, 0, 0, 0, 1, 0, 0, 0, 0, 0, 1,0.0,0.0,0.0,0.0,0.0,0.0,0.0,0.5,0.0,0.0,0.0,0.0,0.0,16,rerun\src\main\java\org\apache\falcon\rerun\event\LaterunEvent.java,0,0,0,0
org.apache.falcon.rerun.event.RerunEvent, 0, 0, 0, 0, 0, 0, 0, 1, 0, 0, 0, 0, 0, 1,0.0,0.0,0.0,0.0,0.0,0.0,0.0,0.2857142857142857,0.0,0.0,0.0,0.0,0.0,77,rerun\src\main\java\org\apache\falcon\rerun\event\RerunEvent.java,0,0,0,0
org.apache.falcon.rerun.event.RetryEvent, 0, 0, 0, 0, 0, 0, 0, 1, 0, 0, 0, 0, 0, 1,0.0,0.0,0.0,0.0,0.0,0.0,0.0,0.5,0.0,0.0,0.0,0.0,0.0,30,rerun\src\main\java\org\apache\falcon\rerun\event\RetryEvent.java,0,0,0,0
org.apache.falcon.rerun.handler.AbstractRerunConsumer, 0, 0, 0, 0, 0, 0, 0, 0, 0, 0, 0, 0, 0, 0,0.0,0.0,0.0,0.0,0.0,0.0,0.0,0.5,0.0,0.0,0.0,0.0,0.0,38,rerun\src\main\java\org\apache\falcon\rerun\handler\AbstractRerunConsumer.java,0,0,0,0
org.apache.falcon.rerun.handler.AbstractRerunHandler, 0, 0, 0, 0, 0, 0, 0, 1, 0, 0, 0, 0, 0, 1,0.0,0.0,0.0,0.0,0.0,0.0,0.0,0.0,0.0,0.0,0.0,0.0,0.0,29,rerun\src\main\java\org\apache\falcon\rerun\handler\AbstractRerunHandler.java,0,0,0,0
org.apache.falcon.rerun.handler.RerunHandlerFactory, 0, 0, 0, 0, 0, 0, 0, 0, 0, 0, 0, 0, 0, 0,0.0,0.0,0.0,0.0,0.0,0.0,0.0,0.3333333333333333,0.0,0.0,0.0,0.0,0.0,18,rerun\src\main\java\org\apache\falcon\rerun\handler\RerunHandlerFactory.java,0,0,0,0
org.apache.falcon.rerun.handler.RetryConsumer, 0, 0, 0, 0, 0, 0, 0, 0, 0, 0, 0, 0, 0, 0,0.0,0.0,0.0,0.0,0.0,0.0,0.0,0.6,0.0,0.0,0.0,0.0,0.0,51,rerun\src\main\java\org\apache\falcon\rerun\handler\RetryConsumer.java,1,0,1,3
org.apache.falcon.rerun.handler.TestLateRerunHandler, 0, 0, 0, 0, 0, 0, 0, 0, 0, 0, 0, 0, 0, 0,0.0,0.0,0.0,0.0,0.0,0.0,0.0,0.0,0.0,0.0,0.0,0.0,0.0,22,rerun\src\test\java\org\apache\falcon\rerun\handler\TestLateRerunHandler.java,0,0,0,0
org.apache.falcon.rerun.policy.AbstractRerunPolicy, 0, 0, 0, 0, 0, 0, 0, 0, 0, 0, 0, 0, 0, 0,0.0,0.0,0.0,0.0,0.0,0.0,0.0,0.0,0.0,0.0,0.0,0.0,0.0,12,rerun\src\main\java\org\apache\falcon\rerun\policy\AbstractRerunPolicy.java,0,0,0,0
org.apache.falcon.rerun.policy.ExpBackoffPolicy, 0, 0, 0, 0, 0, 0, 0, 0, 0, 0, 0, 0, 0, 0,0.0,0.0,0.0,0.0,0.0,0.0,0.0,0.0,0.0,0.0,0.0,0.0,0.0,25,rerun\src\main\java\org\apache\falcon\rerun\policy\ExpBackoffPolicy.java,0,0,0,0
org.apache.falcon.rerun.policy.FinalPolicy, 0, 0, 0, 0, 0, 0, 0, 0, 0, 0, 0, 0, 0, 0,0.0,0.0,0.0,0.0,0.0,0.0,0.0,0.0,0.0,0.0,0.0,0.0,0.0,10,rerun\src\main\java\org\apache\falcon\rerun\policy\FinalPolicy.java,0,0,0,0
org.apache.falcon.rerun.policy.PeriodicPolicy, 0, 0, 0, 0, 0, 0, 0, 0, 0, 0, 0, 0, 0, 0,0.0,0.0,0.0,0.0,0.0,0.0,0.0,0.0,0.0,0.0,0.0,0.0,0.0,6,rerun\src\main\java\org\apache\falcon\rerun\policy\PeriodicPolicy.java,0,0,0,0
org.apache.falcon.rerun.policy.RerunPolicyFactory, 0, 0, 0, 0, 0, 0, 0, 0, 0, 0, 0, 0, 0, 0,0.0,0.0,0.0,0.0,0.0,0.0,0.0,0.0,0.0,0.0,0.0,0.0,0.0,16,rerun\src\main\java\org\apache\falcon\rerun\policy\RerunPolicyFactory.java,0,0,0,0
org.apache.falcon.rerun.queue.ActiveMQTest, 0, 0, 0, 0, 0, 0, 0, 0, 0, 0, 0, 0, 0, 0,0.0,0.0,0.0,0.0,0.0,0.0,0.0,0.5,0.0,0.0,0.0,0.0,0.0,32,rerun\src\test\java\org\apache\falcon\rerun\queue\ActiveMQTest.java,0,0,0,0
org.apache.falcon.rerun.queue.ActiveMQueue, 0, 0, 0, 0, 0, 0, 0, 0, 0, 0, 0, 0, 0, 0,0.0,0.0,0.0,0.0,0.0,0.0,0.0,0.16666666666666666,0.0,0.0,0.0,0.0,0.0,88,rerun\src\main\java\org\apache\falcon\rerun\queue\ActiveMQueue.java,0,0,0,0
org.apache.falcon.rerun.queue.DelayedQueue, 0, 0, 0, 0, 0, 0, 0, 0, 0, 0, 0, 0, 0, 0,0.0,0.0,0.0,0.0,0.0,0.0,0.0,0.3333333333333333,0.0,0.0,0.0,0.0,0.0,9,rerun\src\main\java\org\apache\falcon\rerun\queue\DelayedQueue.java,0,0,0,0
org.apache.falcon.rerun.queue.InMemoryQueue, 0, 0, 0, 0, 0, 0, 0, 0, 0, 0, 0, 0, 0, 0,0.0,0.0,0.0,0.0,0.0,0.0,0.0,0.4,0.0,0.0,0.0,0.0,0.0,102,rerun\src\main\java\org\apache\falcon\rerun\queue\InMemoryQueue.java,0,0,0,0
org.apache.falcon.rerun.queue.InMemoryQueueTest, 0, 0, 0, 0, 0, 0, 0, 0, 0, 0, 0, 0, 0, 0,0.0,0.0,0.0,0.0,0.0,0.0,0.0,0.5,0.0,0.0,0.0,0.0,0.0,48,rerun\src\test\java\org\apache\falcon\rerun\queue\InMemoryQueueTest.java,0,0,0,0
org.apache.falcon.rerun.service.LateRunService, 0, 0, 0, 0, 0, 0, 0, 0, 0, 0, 0, 0, 0, 0,0.0,0.0,0.0,0.0,0.0,0.0,0.0,0.2,0.0,0.0,0.0,0.0,0.0,33,rerun\src\main\java\org\apache\falcon\rerun\service\LateRunService.java,0,0,0,0
org.apache.falcon.rerun.service.RetryService, 0, 0, 0, 0, 0, 0, 0, 0, 0, 0, 0, 0, 0, 0,0.0,0.0,0.0,0.0,0.0,0.0,0.0,0.2,0.0,0.0,0.0,0.0,0.0,33,rerun\src\main\java\org\apache\falcon\rerun\service\RetryService.java,0,0,0,0
org.apache.falcon.resource.APIResult, 0, 0, 0, 0, 0, 0, 0, 0, 0, 0, 0, 0, 0, 0,0.0,0.0,0.0,0.0,0.0,0.0,0.0,0.3333333333333333,0.0,0.0,0.0,0.0,0.0,52,client\src\main\java\org\apache\falcon\resource\APIResult.java,0,0,0,0
org.apache.falcon.resource.AbstractSchedulableEntityManager, 0, 0, 0, 0, 0, 0, 0, 1, 0, 0, 0, 0, 0, 1,0.0,0.0,0.0,0.0,0.0,0.0,0.0,0.125,0.0,0.0,0.0,0.0,0.0,159,prism\src\main\java\org\apache\falcon\resource\AbstractSchedulableEntityManager.java,0,35,5,45
org.apache.falcon.resource.ConfigSyncService, 0, 0, 0, 0, 0, 0, 0, 0, 0, 0, 0, 0, 0, 0,0.0,0.0,0.0,0.0,0.0,0.0,0.0,0.0,0.0,0.0,0.0,0.0,0.0,36,webapp\src\main\java\org\apache\falcon\resource\ConfigSyncService.java,1,0,2,5
org.apache.falcon.resource.EntityManagerTest, 0, 0, 0, 0, 0, 0, 0, 0, 0, 0, 0, 0, 0, 0,0.0,0.0,0.0,0.0,0.0,0.0,0.0,0.0,0.0,0.0,0.0,0.0,0.0,168,prism\src\test\java\org\apache\falcon\resource\EntityManagerTest.java,0,77,15,107
org.apache.falcon.resource.FeedInstanceResult, 0, 0, 0, 0, 0, 0, 0, 0, 0, 0, 0, 0, 0, 0,0.0,0.0,0.0,0.0,0.0,0.0,0.0,0.5,0.0,0.0,0.0,0.0,0.0,73,client\src\main\java\org\apache\falcon\resource\FeedInstanceResult.java,0,16,0,16
org.apache.falcon.resource.InstanceManager, 0, 0, 0, 0, 0, 0, 0, 1, 0, 0, 0, 0, 0, 1,0.0,0.0,0.0,0.0,0.0,0.0,0.0,0.0,0.0,0.0,0.0,0.0,0.0,180,webapp\src\main\java\org\apache\falcon\resource\InstanceManager.java,0,1,2,5
org.apache.falcon.resource.ProcessInstanceManagerIT, 0, 0, 0, 0, 0, 0, 0, 0, 0, 0, 0, 0, 0, 0,0.0,0.0,0.0,0.0,0.0,0.0,0.0,0.0,0.0,0.0,0.0,0.0,0.0,173,webapp\src\test\java\org\apache\falcon\resource\ProcessInstanceManagerIT.java,0,0,21,42
org.apache.falcon.resource.SchedulableEntityManager, 0, 0, 0, 0, 0, 0, 0, 1, 0, 0, 0, 0, 0, 1,0.0,0.0,0.0,0.0,0.0,0.0,0.0,0.5,0.0,0.0,0.0,0.0,0.0,100,webapp\src\main\java\org\apache\falcon\resource\SchedulableEntityManager.java,0,29,3,35
org.apache.falcon.resource.channel.Channel, 0, 0, 0, 0, 0, 0, 0, 0, 0, 0, 0, 0, 0, 0,0.0,0.0,0.0,0.0,0.0,0.0,0.0,0.0,0.0,0.0,0.0,0.0,0.0,100,prism\src\main\java\org\apache\falcon\resource\channel\Channel.java,0,0,0,0
org.apache.falcon.resource.channel.IPCChannel, 0, 0, 0, 0, 0, 0, 0, 0, 0, 0, 0, 0, 0, 0,0.0,0.0,0.0,0.0,0.0,0.0,0.0,0.0,0.0,0.0,0.0,0.0,0.0,31,prism\src\main\java\org\apache\falcon\resource\channel\IPCChannel.java,0,0,0,0
org.apache.falcon.resource.channel.MethodKey, 0, 0, 0, 0, 0, 0, 0, 0, 0, 0, 0, 0, 0, 0,0.0,0.0,0.0,0.0,0.0,0.0,0.0,0.0,0.0,0.0,0.0,0.0,0.0,49,prism\src\main\java\org\apache\falcon\resource\channel\MethodKey.java,0,0,0,0
org.apache.falcon.resource.metadata.AbstractMetadataResource, 0, 0, 0, 0, 0, 0, 0, 0, 0, 0, 0, 0, 0, 0,0.0,0.0,0.0,0.0,0.0,0.0,0.0,0.0,0.0,0.0,0.0,0.0,0.0,33,prism\src\main\java\org\apache\falcon\resource\metadata\AbstractMetadataResource.java,0,0,0,0
org.apache.falcon.resource.metadata.MetadataTestContext, 0, 0, 0, 1, 0, 0, 0, 0, 0, 0, 0, 0, 0, 1,0.0,0.0,0.0,0.0,0.0,0.0,0.0,0.0,0.0,0.0,0.0,0.0,0.0,153,prism\src\test\java\org\apache\falcon\resource\metadata\MetadataTestContext.java,0,14,0,14
org.apache.falcon.resource.provider.JAXBContextResolver, 0, 0, 0, 0, 0, 0, 0, 0, 0, 0, 0, 0, 0, 0,0.0,0.0,0.0,0.0,0.0,0.0,0.0,0.0,0.0,0.0,0.0,0.0,0.0,28,prism\src\main\java\org\apache\falcon\resource\provider\JAXBContextResolver.java,0,0,0,0
org.apache.falcon.retention.EvictionHelper, 0, 0, 0, 0, 0, 0, 0, 0, 0, 0, 0, 0, 0, 0,0.0,0.0,0.0,0.0,0.0,0.0,0.0,0.0,0.0,0.0,0.0,0.0,0.0,13,common\src\main\java\org\apache\falcon\retention\EvictionHelper.java,0,0,0,0
org.apache.falcon.retention.FeedEvictor, 0, 0, 0, 0, 0, 0, 0, 0, 0, 0, 0, 0, 0, 0,0.0,0.0,0.0,0.0,0.0,0.0,0.0,0.0,0.0,0.0,0.0,0.0,0.0,64,retention\src\main\java\org\apache\falcon\retention\FeedEvictor.java,0,0,0,0
org.apache.falcon.security.AuthenticationInitializationServiceTest, 0, 0, 0, 0, 0, 0, 0, 0, 0, 0, 0, 0, 0, 0,0.0,0.0,0.0,0.0,0.0,0.0,0.0,0.0,0.0,0.0,0.0,0.0,0.0,89,common\src\test\java\org\apache\falcon\security\AuthenticationInitializationServiceTest.java,0,0,0,0
org.apache.falcon.security.AuthorizationProvider, 0, 0, 0, 0, 0, 0, 0, 0, 0, 0, 0, 0, 0, 0,0.0,0.0,0.0,0.0,0.0,0.0,0.0,0.0,0.0,0.0,0.0,0.0,0.0,89,common\src\main\java\org\apache\falcon\security\AuthorizationProvider.java,0,0,0,0
org.apache.falcon.security.ClientCertificateFilter, 0, 0, 0, 0, 0, 0, 0, 0, 0, 0, 0, 0, 0, 0,0.0,0.0,0.0,0.0,0.0,0.0,0.0,0.0,0.0,0.0,0.0,0.0,0.0,48,prism\src\main\java\org\apache\falcon\security\ClientCertificateFilter.java,0,0,0,0
org.apache.falcon.security.ClientCertificateFilterTest, 0, 0, 0, 0, 0, 0, 0, 0, 0, 0, 0, 0, 0, 0,0.0,0.0,0.0,0.0,0.0,0.0,0.0,0.0,0.0,0.0,0.0,0.0,0.0,73,prism\src\test\java\org\apache\falcon\security\ClientCertificateFilterTest.java,0,0,0,0
org.apache.falcon.security.CurrentUserTest, 0, 0, 0, 0, 0, 0, 0, 0, 0, 0, 0, 0, 0, 0,0.0,0.0,0.0,0.0,0.0,0.0,0.0,0.0,0.0,0.0,0.0,0.0,0.0,71,common\src\test\java\org\apache\falcon\security\CurrentUserTest.java,0,0,0,0
org.apache.falcon.security.DefaultAuthorizationProviderTest, 0, 0, 0, 1, 0, 0, 0, 0, 0, 0, 0, 0, 0, 1,0.0,0.0,0.0,0.0,0.0,0.0,0.0,0.0,0.0,0.0,0.0,0.0,0.0,285,common\src\test\java\org\apache\falcon\security\DefaultAuthorizationProviderTest.java,0,0,0,0
org.apache.falcon.security.FalconAuditFilter, 0, 0, 0, 0, 0, 0, 0, 0, 0, 0, 0, 0, 0, 0,0.0,0.0,0.0,0.0,0.0,0.0,0.0,0.5,0.0,0.0,0.0,0.0,0.0,50,prism\src\main\java\org\apache\falcon\security\FalconAuditFilter.java,0,0,0,0
org.apache.falcon.security.FalconAuditFilterTest, 0, 0, 0, 0, 0, 0, 0, 0, 0, 0, 0, 0, 0, 0,0.0,0.0,0.0,0.0,0.0,0.0,0.0,0.0,0.0,0.0,0.0,0.0,0.0,85,prism\src\test\java\org\apache\falcon\security\FalconAuditFilterTest.java,0,0,0,0
org.apache.falcon.security.FalconAuthorizationFilterTest, 0, 0, 0, 0, 0, 0, 0, 0, 0, 0, 0, 0, 0, 0,0.0,0.0,0.0,0.0,0.0,0.0,0.0,0.0,0.0,0.0,0.0,0.0,0.0,159,prism\src\test\java\org\apache\falcon\security\FalconAuthorizationFilterTest.java,0,22,0,22
org.apache.falcon.security.RemoteUserInHeaderBasedAuthenticationHandler, 0, 0, 0, 0, 0, 0, 0, 0, 0, 0, 0, 0, 0, 0,0.0,0.0,0.0,0.0,0.0,0.0,0.0,0.0,0.0,0.0,0.0,0.0,0.0,12,prism\src\main\java\org\apache\falcon\security\RemoteUserInHeaderBasedAuthenticationHandler.java,0,0,1,2
org.apache.falcon.security.SecurityUtil, 0, 0, 0, 0, 0, 0, 0, 0, 0, 0, 0, 0, 0, 0,0.0,0.0,0.0,0.0,0.0,0.0,0.0,0.0,0.0,0.0,0.0,0.0,0.0,39,common\src\main\java\org\apache\falcon\security\SecurityUtil.java,0,12,0,12
org.apache.falcon.security.SecurityUtilTest, 0, 0, 0, 0, 0, 0, 0, 0, 0, 0, 0, 0, 0, 0,0.0,0.0,0.0,0.0,0.0,0.0,0.0,0.0,0.0,0.0,0.0,0.0,0.0,47,common\src\test\java\org\apache\falcon\security\SecurityUtilTest.java,0,20,0,20
org.apache.falcon.service.ConfigurationChangeListener, 0, 0, 0, 0, 0, 0, 0, 0, 0, 0, 0, 0, 0, 0,0.0,0.0,0.0,0.0,0.0,0.0,0.0,0.0,0.0,0.0,0.0,0.0,0.0,47,common\src\main\java\org\apache\falcon\service\ConfigurationChangeListener.java,0,0,0,0
org.apache.falcon.service.FalconPathFilter, 0, 0, 0, 0, 0, 0, 0, 0, 0, 0, 0, 0, 0, 0,0.0,0.0,0.0,0.0,0.0,0.0,0.0,0.0,0.0,0.0,0.0,0.0,0.0,47,oozie\src\main\java\org\apache\falcon\service\FalconPathFilter.java,0,0,0,0
org.apache.falcon.service.FalconService, 0, 0, 0, 0, 0, 0, 0, 0, 0, 0, 0, 0, 0, 0,0.0,0.0,0.0,0.0,0.0,0.0,0.0,0.0,0.0,0.0,0.0,0.0,0.0,47,common\src\main\java\org\apache\falcon\service\FalconService.java,0,0,0,0
org.apache.falcon.service.LogCleanupService, 0, 0, 0, 0, 0, 0, 0, 0, 0, 0, 0, 0, 0, 0,0.0,0.0,0.0,0.0,0.0,0.0,0.0,0.0,0.0,0.0,0.0,0.0,0.0,45,common\src\main\java\org\apache\falcon\service\LogCleanupService.java,0,0,0,0
org.apache.falcon.service.ProcessSubscriberService, 0, 0, 0, 0, 0, 0, 0, 0, 0, 0, 0, 0, 0, 0,0.0,0.0,0.0,0.0,0.0,0.0,0.0,0.0,0.0,0.0,0.0,0.0,0.0,41,prism\src\main\java\org\apache\falcon\service\ProcessSubscriberService.java,0,0,0,0
org.apache.falcon.service.ServiceInitializer, 0, 0, 0, 0, 0, 0, 0, 0, 0, 0, 0, 0, 0, 0,0.0,0.0,0.0,0.0,0.0,0.0,0.0,0.0,0.0,0.0,0.0,0.0,0.0,36,common\src\main\java\org\apache\falcon\service\ServiceInitializer.java,0,0,0,0
org.apache.falcon.update.UpdateHelperTest, 0, 0, 0, 0, 0, 0, 0, 0, 0, 0, 0, 0, 0, 0,0.0,0.0,0.0,0.0,0.0,0.0,0.0,0.0,0.0,0.0,0.0,0.0,0.0,237,common\src\test\java\org\apache\falcon\update\UpdateHelperTest.java,53,6,0,59
org.apache.falcon.util.ApplicationPropertiesTest, 0, 0, 0, 0, 0, 0, 0, 0, 0, 0, 0, 0, 0, 0,0.0,0.0,0.0,0.0,0.0,0.0,0.0,0.0,0.0,0.0,0.0,0.0,0.0,54,common\src\test\java\org\apache\falcon\util\ApplicationPropertiesTest.java,0,10,0,10
org.apache.falcon.util.BuildProperties, 0, 0, 0, 0, 0, 0, 0, 0, 0, 0, 0, 0, 0, 0,0.0,0.0,0.0,0.0,0.0,0.0,0.0,0.0,0.0,0.0,0.0,0.0,0.0,23,common\src\main\java\org\apache\falcon\util\BuildProperties.java,0,0,0,0
org.apache.falcon.util.DeploymentProperties, 0, 0, 0, 0, 0, 0, 0, 0, 0, 0, 0, 0, 0, 0,0.0,0.0,0.0,0.0,0.0,0.0,0.0,0.0,0.0,0.0,0.0,0.0,0.0,22,common\src\main\java\org\apache\falcon\util\DeploymentProperties.java,0,0,0,0
org.apache.falcon.util.DeploymentUtil, 0, 0, 0, 0, 0, 0, 0, 0, 0, 0, 0, 0, 0, 0,0.0,0.0,0.0,0.0,0.0,0.0,0.0,0.0,0.0,0.0,0.0,0.0,0.0,47,common\src\main\java\org\apache\falcon\util\DeploymentUtil.java,0,0,0,0
org.apache.falcon.util.EmbeddedServer, 0, 0, 0, 0, 0, 0, 0, 0, 0, 0, 0, 0, 0, 0,0.0,0.0,0.0,0.0,0.0,0.0,0.0,0.0,0.0,0.0,0.0,0.0,0.0,34,prism\src\main\java\org\apache\falcon\util\EmbeddedServer.java,0,0,0,0
org.apache.falcon.util.FSUtils, 0, 0, 0, 0, 0, 0, 0, 0, 0, 0, 0, 0, 0, 0,0.0,0.0,0.0,0.0,0.0,0.0,0.0,0.0,0.0,0.0,0.0,0.0,0.0,56,webapp\src\test\java\org\apache\falcon\util\FSUtils.java,0,0,0,0
org.apache.falcon.util.OozieTestUtils, 0, 0, 0, 0, 0, 0, 0, 0, 0, 0, 0, 0, 0, 0,0.0,0.0,0.0,0.0,0.0,0.0,0.0,0.0,0.0,0.0,0.0,0.0,0.0,124,webapp\src\test\java\org\apache\falcon\util\OozieTestUtils.java,0,15,4,23
org.apache.falcon.util.ReflectionUtils, 0, 0, 0, 0, 0, 0, 0, 0, 0, 0, 0, 0, 0, 0,0.0,0.0,0.0,0.0,0.0,0.0,0.0,0.0,0.0,0.0,0.0,0.0,0.0,34,common\src\main\java\org\apache\falcon\util\ReflectionUtils.java,0,0,0,0
org.apache.falcon.util.ReflectionUtilsTest, 0, 0, 0, 0, 0, 0, 0, 0, 0, 0, 0, 0, 0, 0,0.0,0.0,0.0,0.0,0.0,0.0,0.0,0.0,0.0,0.0,0.0,0.0,0.0,13,common\src\test\java\org\apache\falcon\util\ReflectionUtilsTest.java,0,0,0,0
org.apache.falcon.util.ResourcesReflectionUtilTest, 0, 0, 0, 0, 0, 0, 0, 0, 0, 0, 0, 0, 0, 0,0.0,0.0,0.0,0.0,0.0,0.0,0.0,0.0,0.0,0.0,0.0,0.0,0.0,23,webapp\src\test\java\org\apache\falcon\util\ResourcesReflectionUtilTest.java,1,0,3,7
org.apache.falcon.util.RuntimeProperties, 0, 0, 0, 0, 0, 0, 0, 0, 0, 0, 0, 0, 0, 0,0.0,0.0,0.0,0.0,0.0,0.0,0.0,0.0,0.0,0.0,0.0,0.0,0.0,54,common\src\main\java\org\apache\falcon\util\RuntimeProperties.java,0,17,0,17
org.apache.falcon.util.StartupProperties, 0, 0, 0, 0, 0, 0, 0, 0, 0, 0, 0, 0, 0, 0,0.0,0.0,0.0,0.15151515151515152,0.0,0.0,0.0,0.0,0.0,0.0,0.0,0.0,0.0,22,common\src\main\java\org\apache\falcon\util\StartupProperties.java,0,0,0,0
org.apache.falcon.workflow.FalconPostProcessing, 0, 0, 0, 0, 0, 0, 0, 0, 0, 0, 0, 0, 0, 0,0.0,0.0,0.0,0.0,0.0,0.0,0.0,0.0,0.0,0.0,0.0,0.0,0.0,43,oozie\src\main\java\org\apache\falcon\workflow\FalconPostProcessing.java,0,0,0,0
org.apache.falcon.workflow.WorkflowEngineFactory, 0, 0, 0, 0, 0, 0, 0, 0, 0, 0, 0, 0, 0, 0,0.0,0.0,0.0,0.0,0.0,0.0,0.0,0.2,0.0,0.0,0.0,0.0,0.0,8,common\src\main\java\org\apache\falcon\workflow\WorkflowEngineFactory.java,0,0,0,0
org.apache.falcon.workflow.WorkflowExecutionContextTest, 0, 0, 0, 1, 0, 0, 0, 0, 0, 0, 0, 0, 0, 1,0.0,0.0,0.0,0.0,0.0,0.0,0.0,0.0,0.0,0.0,0.0,0.0,0.0,238,common\src\test\java\org\apache\falcon\workflow\WorkflowExecutionContextTest.java,0,0,0,0
org.apache.falcon.workflow.WorkflowExecutionListener, 0, 0, 0, 0, 0, 0, 0, 0, 0, 0, 0, 0, 0, 0,0.0,0.0,0.0,0.0,0.0,0.0,0.0,0.0,0.0,0.0,0.0,0.0,0.0,238,common\src\main\java\org\apache\falcon\workflow\WorkflowExecutionListener.java,0,0,0,0
org.apache.falcon.workflow.WorkflowJobEndNotificationService, 0, 0, 0, 0, 0, 0, 0, 0, 0, 0, 0, 0, 0, 0,0.0,0.0,0.0,0.0,0.0,0.0,0.0,0.125,0.0,0.0,0.0,0.0,0.0,84,common\src\main\java\org\apache\falcon\workflow\WorkflowJobEndNotificationService.java,0,0,1,2
org.apache.falcon.workflow.WorkflowJobEndNotificationServiceTest, 0, 0, 0, 0, 0, 0, 0, 0, 0, 0, 0, 0, 0, 0,0.0,0.0,0.0,0.0,0.0,0.0,0.0,0.0,0.0,0.0,0.0,0.0,0.0,101,common\src\test\java\org\apache\falcon\workflow\WorkflowJobEndNotificationServiceTest.java,0,0,0,0
org.apache.falcon.workflow.engine.AbstractWorkflowEngine, 0, 0, 0, 0, 0, 0, 0, 0, 0, 0, 0, 0, 0, 0,0.0,0.0,0.0,0.0,0.0,0.0,0.0,0.2857142857142857,0.0,0.0,0.0,0.0,0.0,39,common\src\main\java\org\apache\falcon\workflow\engine\AbstractWorkflowEngine.java,0,1,4,9
org.apache.falcon.workflow.engine.NullBundleJob, 0, 0, 0, 0, 0, 0, 0, 0, 0, 0, 0, 0, 0, 0,0.0,0.0,0.0,0.0,0.0,0.0,0.0,0.0,0.0,0.0,0.0,0.0,0.0,82,oozie\src\main\java\org\apache\falcon\workflow\engine\NullBundleJob.java,0,0,0,0
org.apache.falcon.workflow.engine.OozieClientFactory, 0, 0, 0, 0, 0, 0, 0, 0, 0, 0, 0, 0, 0, 0,0.0,0.0,0.0,0.0,0.0,0.0,0.0,0.0,0.0,0.0,0.0,0.0,0.0,34,oozie\src\main\java\org\apache\falcon\workflow\engine\OozieClientFactory.java,0,0,0,0
org.apache.falcon.workflow.engine.OozieHouseKeepingService, 0, 0, 0, 0, 0, 0, 0, 0, 0, 0, 0, 0, 0, 0,0.0,0.0,0.0,0.0,0.0,0.0,0.0,0.0,0.0,0.0,0.0,0.0,0.0,40,oozie\src\main\java\org\apache\falcon\workflow\engine\OozieHouseKeepingService.java,0,0,0,0
org.apache.falcon.workflow.engine.WorkflowEngineActionListener, 0, 0, 0, 0, 0, 0, 0, 0, 0, 0, 0, 0, 0, 0,0.0,0.0,0.0,0.0,0.0,0.0,0.0,0.0,0.0,0.0,0.0,0.0,0.0,40,common\src\main\java\org\apache\falcon\workflow\engine\WorkflowEngineActionListener.java,0,0,0,0
org.apache.hadoop.mapred.ClassicClientProtocolProvider, 0, 0, 0, 0, 0, 0, 0, 0, 0, 0, 0, 0, 0, 0,0.0,0.0,0.0,0.0,0.0,0.0,0.0,0.0,0.0,0.0,0.0,0.0,0.0,20,hadoop-dependencies\src\versioned-src\v2\java\org\apache\hadoop\mapred\ClassicClientProtocolProvider.java,0,15,1,17
org.apache.hadoop.mapred.LocalRunnerTest, 0, 0, 0, 0, 0, 0, 0, 0, 0, 0, 0, 0, 0, 0,0.0,0.0,0.0,0.0,0.0,0.0,0.0,0.0,0.0,0.0,0.0,0.0,0.0,10,hadoop-webapp\src\test\java\org\apache\hadoop\mapred\LocalRunnerTest.java,14,0,0,14
org.apache.hadoop.mapred.LocalRunnerV2, 0, 0, 0, 1, 0, 0, 0, 0, 0, 0, 0, 0, 0, 1,0.0,0.0,0.0,0.0,0.0,0.0,0.0,0.0,0.0,0.0,0.0,0.0,0.0,154,hadoop-webapp\src\versioned-src\v2\java\org\apache\hadoop\mapred\LocalRunnerV2.java,180,0,0,180
org.apache.oozie.extensions.TestOozieELExtensions, 0, 0, 0, 0, 0, 0, 0, 0, 0, 0, 0, 0, 0, 0,0.0,0.0,0.0,0.0,0.0,0.0,0.0,0.0,0.0,0.0,0.0,0.0,0.0,217,oozie-el-extensions\src\test\java\org\apache\oozie\extensions\TestOozieELExtensions.java,0,0,0,0
,0.0,0.0,0.0,0.0,0.0,0.0,0.0,0.0,0.0,0.0,0.0,0.0,0.0,217,addons\designer\actions\src\main\java\org\apache\falcon\designer\action\configuration\EmailActionConfiguration.java,0,41,0,41
