ClassName,AntiSingleton,Blob,ClassDataShouldBePrivate,ComplexClass,LargeClass,LazyClass,LongMethod,LongParameterList,MessageChains,RefusedParentBequest,SpaghettiCode,SpeculativeGenerality,SwissArmyKnife,NumOfAPs,AntiSingleton,Blob,ClassDataShouldBePrivate,ComplexClass,LargeClass,LazyClass,LongMethod,LongParameterList,MessageChains,RefusedParentBequest,SpaghettiCode,SpeculativeGenerality,SwissArmyKnife,LOC,name,deleted,added,changed,all
org.apache.metamodel.AbstractUpdateCallback, 0, 0, 0, 0, 0, 0, 0, 0, 0, 0, 0, 0, 0, 0,0.0,0.0,0.0,0.25,0.0,0.0,0.0,0.125,0.0,0.0,0.0,0.0,0.0,106,core\src\main\java\org\apache\metamodel\AbstractUpdateCallback.java,0,0,0,0
org.apache.metamodel.BatchUpdateScript, 0, 0, 0, 0, 0, 0, 0, 0, 0, 0, 0, 0, 0, 0,0.0,0.0,0.0,0.0,0.0,0.0,0.0,0.0,0.0,0.0,0.0,0.0,0.0,106,core\src\main\java\org\apache\metamodel\BatchUpdateScript.java,0,0,0,0
org.apache.metamodel.CompositeDataContextTest, 0, 0, 0, 0, 0, 0, 0, 0, 0, 0, 0, 0, 0, 0,0.0,0.0,0.0,0.0,0.0,0.0,0.0,0.0,0.0,0.0,0.0,0.0,0.0,67,core\src\test\java\org\apache\metamodel\CompositeDataContextTest.java,0,0,0,0
org.apache.metamodel.CompositeQueryDelegate, 0, 0, 0, 0, 0, 0, 0, 0, 0, 0, 0, 0, 0, 0,0.0,0.0,0.0,0.0,0.0,0.0,0.0,0.0,0.0,0.0,0.0,0.0,0.0,17,core\src\main\java\org\apache\metamodel\CompositeQueryDelegate.java,0,0,0,0
org.apache.metamodel.DataContext, 0, 0, 0, 0, 0, 0, 0, 0, 0, 0, 0, 0, 0, 0,0.0,0.0,0.0,0.0,0.0,0.0,0.0,0.0,0.0,0.0,0.0,0.0,0.0,17,core\src\main\java\org\apache\metamodel\DataContext.java,0,0,0,0
org.apache.metamodel.DataContextFactory, 0, 0, 0, 1, 0, 0, 0, 1, 0, 0, 0, 0, 0, 2,0.0,0.0,0.0,0.14285714285714285,0.0,0.0,0.0,0.14285714285714285,0.0,0.0,0.0,0.0,0.0,168,full\src\main\java\org\apache\metamodel\DataContextFactory.java,0,0,0,0
org.apache.metamodel.DataContextFactoryTest, 0, 0, 0, 0, 0, 0, 0, 0, 0, 0, 0, 0, 0, 0,0.0,0.0,0.0,0.5,0.0,0.0,0.0,0.5,0.0,0.0,0.0,0.0,0.0,14,full\src\test\java\org\apache\metamodel\DataContextFactoryTest.java,0,0,0,0
org.apache.metamodel.DeleteAndInsertBuilder, 0, 0, 0, 0, 0, 0, 0, 0, 0, 0, 0, 0, 0, 0,0.0,0.0,0.0,0.0,0.0,0.0,0.0,0.0,0.0,0.0,0.0,0.0,0.0,49,core\src\main\java\org\apache\metamodel\DeleteAndInsertBuilder.java,0,0,0,0
org.apache.metamodel.InconsistentRowFormatException, 0, 0, 0, 0, 0, 0, 0, 0, 0, 0, 0, 0, 0, 0,0.0,0.0,0.0,0.0,0.0,0.0,0.0,0.0,0.0,0.0,0.0,0.0,0.0,26,core\src\main\java\org\apache\metamodel\InconsistentRowFormatException.java,0,0,0,0
org.apache.metamodel.MetaModelException, 0, 0, 0, 0, 0, 0, 0, 0, 0, 0, 0, 0, 0, 0,0.0,0.0,0.0,0.10526315789473684,0.0,0.0,0.0,0.15789473684210525,0.0,0.0,0.0,0.0,0.0,14,core\src\main\java\org\apache\metamodel\MetaModelException.java,0,0,0,0
org.apache.metamodel.MetaModelHelperTest, 0, 0, 0, 0, 0, 0, 0, 0, 0, 0, 0, 0, 0, 0,0.0,0.0,0.0,0.42857142857142855,0.0,0.0,0.0,0.14285714285714285,0.0,0.0,0.0,0.0,0.0,239,core\src\test\java\org\apache\metamodel\MetaModelHelperTest.java,0,0,0,0
org.apache.metamodel.MetaModelTestCase, 0, 0, 0, 1, 0, 0, 0, 0, 0, 0, 0, 0, 0, 1,0.0,0.0,0.0,0.17647058823529413,0.0,0.0,0.0,0.058823529411764705,0.0,0.0,0.0,0.0,0.0,104,core\src\test\java\org\apache\metamodel\MetaModelTestCase.java,0,0,0,0
org.apache.metamodel.MockDataContext, 0, 0, 0, 0, 0, 0, 0, 0, 0, 0, 0, 0, 0, 0,0.0,0.0,0.0,0.4,0.0,0.0,0.0,0.1,0.0,0.0,0.0,0.0,0.0,52,core\src\test\java\org\apache\metamodel\MockDataContext.java,0,0,0,0
org.apache.metamodel.MockUpdateableDataContext, 0, 0, 0, 0, 0, 0, 0, 0, 0, 0, 0, 0, 0, 0,0.0,0.0,0.0,0.18181818181818182,0.0,0.0,0.0,0.09090909090909091,0.0,0.0,0.0,0.0,0.0,113,core\src\test\java\org\apache\metamodel\MockUpdateableDataContext.java,0,0,0,0
org.apache.metamodel.QueryPostprocessDataContextTest, 0, 0, 0, 1, 0, 0, 0, 0, 0, 0, 0, 0, 0, 1,0.0,0.0,0.0,0.5,0.0,0.0,0.0,0.16666666666666666,0.0,0.0,0.0,0.0,0.0,862,core\src\test\java\org\apache\metamodel\QueryPostprocessDataContextTest.java,0,0,0,0
org.apache.metamodel.QueryPostprocessDelegate, 0, 0, 0, 0, 0, 0, 0, 0, 0, 0, 0, 0, 0, 0,0.0,0.0,0.0,0.0,0.0,0.0,0.0,0.0,0.0,0.0,0.0,0.0,0.0,13,core\src\main\java\org\apache\metamodel\QueryPostprocessDelegate.java,0,0,0,0
org.apache.metamodel.SchemaNameComparator, 0, 0, 0, 0, 0, 0, 0, 0, 0, 0, 0, 0, 0, 0,0.0,0.0,0.0,0.0,0.0,0.0,0.0,0.0,0.0,0.0,0.0,0.0,0.0,25,core\src\main\java\org\apache\metamodel\SchemaNameComparator.java,0,0,0,0
org.apache.metamodel.UpdateCallback, 0, 0, 0, 0, 0, 0, 0, 0, 0, 0, 0, 0, 0, 0,0.0,0.0,0.0,0.0,0.0,0.0,0.0,0.0,0.0,0.0,0.0,0.0,0.0,25,core\src\main\java\org\apache\metamodel\UpdateCallback.java,0,0,0,0
org.apache.metamodel.UpdateScript, 0, 0, 0, 0, 0, 0, 0, 0, 0, 0, 0, 0, 0, 0,0.0,0.0,0.0,0.0,0.0,0.0,0.0,0.0,0.0,0.0,0.0,0.0,0.0,25,core\src\main\java\org\apache\metamodel\UpdateScript.java,0,0,0,0
org.apache.metamodel.UpdateableDataContext, 0, 0, 0, 0, 0, 0, 0, 0, 0, 0, 0, 0, 0, 0,0.0,0.0,0.0,0.0,0.0,0.0,0.0,0.0,0.0,0.0,0.0,0.0,0.0,25,core\src\main\java\org\apache\metamodel\UpdateableDataContext.java,0,0,0,0
org.apache.metamodel.cassandra.CassandraDataContext, 0, 0, 0, 0, 0, 0, 0, 0, 0, 0, 0, 0, 0, 0,0.0,0.0,0.0,0.3333333333333333,0.0,0.0,0.0,0.16666666666666666,0.0,0.0,0.0,0.0,0.0,118,cassandra\src\main\java\org\apache\metamodel\cassandra\CassandraDataContext.java,0,1,0,1
org.apache.metamodel.cassandra.CassandraDataContextTest, 0, 0, 0, 0, 0, 0, 0, 0, 0, 0, 0, 0, 0, 0,0.0,0.0,0.0,0.0,0.0,0.0,0.0,0.0,0.0,0.0,0.0,0.0,0.0,174,cassandra\src\test\java\org\apache\metamodel\cassandra\CassandraDataContextTest.java,37,30,14,95
org.apache.metamodel.cassandra.CassandraDataSet, 0, 0, 0, 0, 0, 0, 0, 0, 0, 0, 0, 0, 0, 0,0.0,0.0,0.0,0.0,0.0,0.0,0.0,0.0,0.0,0.0,0.0,0.0,0.0,22,cassandra\src\main\java\org\apache\metamodel\cassandra\CassandraDataSet.java,0,0,0,0
org.apache.metamodel.cassandra.CassandraSimpleClient, 0, 0, 0, 0, 0, 0, 0, 0, 0, 0, 0, 0, 0, 0,0.0,0.0,0.0,0.0,0.0,0.0,0.0,0.0,0.0,0.0,0.0,0.0,0.0,14,cassandra\src\test\java\org\apache\metamodel\cassandra\CassandraSimpleClient.java,0,0,0,0
org.apache.metamodel.convert.ColumnTypeDetector, 0, 0, 0, 0, 0, 0, 0, 0, 0, 0, 0, 0, 0, 0,0.0,0.0,0.0,0.0,0.0,0.0,0.0,0.0,0.0,0.0,0.0,0.0,0.0,50,core\src\main\java\org\apache\metamodel\convert\ColumnTypeDetector.java,0,0,0,0
org.apache.metamodel.convert.ColumnTypeDetectorTest, 0, 0, 0, 0, 0, 0, 0, 0, 0, 0, 0, 0, 0, 0,0.0,0.0,0.0,0.0,0.0,0.0,0.0,0.0,0.0,0.0,0.0,0.0,0.0,33,core\src\test\java\org\apache\metamodel\convert\ColumnTypeDetectorTest.java,0,0,0,0
org.apache.metamodel.convert.ConvertedDataSet, 0, 0, 0, 0, 0, 0, 0, 0, 0, 0, 0, 0, 0, 0,0.0,0.0,0.0,0.0,0.0,0.0,0.0,0.0,0.0,0.0,0.0,0.0,0.0,35,core\src\main\java\org\apache\metamodel\convert\ConvertedDataSet.java,0,0,0,0
org.apache.metamodel.convert.ConvertedRowInsertionInterceptorTest, 0, 0, 0, 0, 0, 0, 0, 0, 0, 0, 0, 0, 0, 0,0.0,0.0,0.0,0.0,0.0,0.0,0.0,0.0,0.0,0.0,0.0,0.0,0.0,25,core\src\test\java\org\apache\metamodel\convert\ConvertedRowInsertionInterceptorTest.java,0,0,0,0
org.apache.metamodel.convert.HasReadTypeConverters, 0, 0, 0, 0, 0, 0, 0, 0, 0, 0, 0, 0, 0, 0,0.0,0.0,0.0,0.0,0.0,0.0,0.0,0.0,0.0,0.0,0.0,0.0,0.0,25,core\src\main\java\org\apache\metamodel\convert\HasReadTypeConverters.java,0,0,0,0
org.apache.metamodel.convert.StringToBooleanConverter, 0, 0, 0, 0, 0, 0, 0, 0, 0, 0, 0, 0, 0, 0,0.0,0.0,0.0,0.0,0.0,0.0,0.0,0.0,0.0,0.0,0.0,0.0,0.0,16,core\src\main\java\org\apache\metamodel\convert\StringToBooleanConverter.java,0,0,0,0
org.apache.metamodel.convert.StringToBooleanConverterTest, 0, 0, 0, 0, 0, 0, 0, 0, 0, 0, 0, 0, 0, 0,0.0,0.0,0.0,0.0,0.0,0.0,0.0,0.0,0.0,0.0,0.0,0.0,0.0,12,core\src\test\java\org\apache\metamodel\convert\StringToBooleanConverterTest.java,0,0,0,0
org.apache.metamodel.convert.StringToDateConverter, 0, 0, 0, 0, 0, 0, 0, 0, 0, 0, 0, 0, 0, 0,0.0,0.0,0.0,0.0,0.0,0.0,0.0,0.0,0.0,0.0,0.0,0.0,0.0,58,core\src\main\java\org\apache\metamodel\convert\StringToDateConverter.java,0,0,0,0
org.apache.metamodel.convert.StringToDateConverterTest, 0, 0, 0, 0, 0, 0, 0, 0, 0, 0, 0, 0, 0, 0,0.0,0.0,0.0,0.0,0.0,0.0,0.0,0.0,0.0,0.0,0.0,0.0,0.0,32,core\src\test\java\org\apache\metamodel\convert\StringToDateConverterTest.java,0,0,0,0
org.apache.metamodel.convert.StringToDoubleConverter, 0, 0, 0, 0, 0, 0, 0, 0, 0, 0, 0, 0, 0, 0,0.0,0.0,0.0,0.0,0.0,0.0,0.0,0.0,0.0,0.0,0.0,0.0,0.0,16,core\src\main\java\org\apache\metamodel\convert\StringToDoubleConverter.java,0,0,0,0
org.apache.metamodel.convert.StringToDoubleConverterTest, 0, 0, 0, 0, 0, 0, 0, 0, 0, 0, 0, 0, 0, 0,0.0,0.0,0.0,0.0,0.0,0.0,0.0,0.0,0.0,0.0,0.0,0.0,0.0,14,core\src\test\java\org\apache\metamodel\convert\StringToDoubleConverterTest.java,0,0,0,0
org.apache.metamodel.convert.StringToIntegerConverter, 0, 0, 0, 0, 0, 0, 0, 0, 0, 0, 0, 0, 0, 0,0.0,0.0,0.0,0.0,0.0,0.0,0.0,0.0,0.0,0.0,0.0,0.0,0.0,16,core\src\main\java\org\apache\metamodel\convert\StringToIntegerConverter.java,0,0,0,0
org.apache.metamodel.convert.StringToIntegerConverterTest, 0, 0, 0, 0, 0, 0, 0, 0, 0, 0, 0, 0, 0, 0,0.0,0.0,0.0,0.0,0.0,0.0,0.0,0.0,0.0,0.0,0.0,0.0,0.0,12,core\src\test\java\org\apache\metamodel\convert\StringToIntegerConverterTest.java,0,0,0,0
org.apache.metamodel.convert.TypeConverter, 0, 0, 0, 0, 0, 0, 0, 0, 0, 0, 0, 0, 0, 0,0.0,0.0,0.0,0.0,0.0,0.0,0.0,0.0,0.0,0.0,0.0,0.0,0.0,12,core\src\main\java\org\apache\metamodel\convert\TypeConverter.java,0,0,0,0
org.apache.metamodel.couchdb.CouchDbDataContext, 0, 0, 0, 0, 0, 0, 0, 0, 0, 0, 0, 0, 0, 0,0.0,0.0,0.0,0.1111111111111111,0.0,0.0,0.0,0.1111111111111111,0.0,0.0,0.0,0.0,0.0,107,couchdb\src\main\java\org\apache\metamodel\couchdb\CouchDbDataContext.java,0,0,0,0
org.apache.metamodel.couchdb.CouchDbDataSet, 0, 0, 0, 0, 0, 0, 0, 0, 0, 0, 0, 0, 0, 0,0.0,0.0,0.0,0.0,0.0,0.0,0.0,0.0,0.0,0.0,0.0,0.0,0.0,30,couchdb\src\main\java\org\apache\metamodel\couchdb\CouchDbDataSet.java,0,0,0,0
org.apache.metamodel.couchdb.CouchDbDocumentConverter, 0, 0, 0, 0, 0, 0, 0, 0, 0, 0, 0, 0, 0, 0,0.0,0.0,0.0,0.0,0.0,0.0,0.0,0.0,0.0,0.0,0.0,0.0,0.0,10,couchdb\src\main\java\org\apache\metamodel\couchdb\CouchDbDocumentConverter.java,0,0,0,0
org.apache.metamodel.couchdb.CouchDbInferentialSchemaBuilder, 0, 0, 0, 0, 0, 0, 0, 0, 0, 0, 0, 0, 0, 0,0.0,0.0,0.0,0.0,0.0,0.0,0.0,0.0,0.0,0.0,0.0,0.0,0.0,36,couchdb\src\main\java\org\apache\metamodel\couchdb\CouchDbInferentialSchemaBuilder.java,0,0,0,0
org.apache.metamodel.couchdb.CouchDbRowDeletionBuilder, 0, 0, 0, 0, 0, 0, 0, 0, 0, 0, 0, 0, 0, 0,0.0,0.0,0.0,0.0,0.0,0.0,0.0,0.0,0.0,0.0,0.0,0.0,0.0,26,couchdb\src\main\java\org\apache\metamodel\couchdb\CouchDbRowDeletionBuilder.java,0,0,0,0
org.apache.metamodel.couchdb.CouchDbSamplingDocumentSource, 0, 0, 0, 0, 0, 0, 0, 0, 0, 0, 0, 0, 0, 0,0.0,0.0,0.0,0.0,0.0,0.0,0.0,0.0,0.0,0.0,0.0,0.0,0.0,42,couchdb\src\main\java\org\apache\metamodel\couchdb\CouchDbSamplingDocumentSource.java,0,0,0,0
org.apache.metamodel.couchdb.CouchDbSimpleTableDefSchemaBuilder, 0, 0, 0, 0, 0, 0, 0, 0, 0, 0, 0, 0, 0, 0,0.0,0.0,0.0,0.0,0.0,0.0,0.0,0.0,0.0,0.0,0.0,0.0,0.0,21,couchdb\src\main\java\org\apache\metamodel\couchdb\CouchDbSimpleTableDefSchemaBuilder.java,0,0,0,0
org.apache.metamodel.couchdb.CouchDbTableCreationBuilder, 0, 0, 0, 0, 0, 0, 0, 0, 0, 0, 0, 0, 0, 0,0.0,0.0,0.0,0.3333333333333333,0.0,0.0,0.0,0.16666666666666666,0.0,0.0,0.0,0.0,0.0,35,couchdb\src\main\java\org\apache\metamodel\couchdb\CouchDbTableCreationBuilder.java,0,0,0,0
org.apache.metamodel.couchdb.CouchDbTableDropBuilder, 0, 0, 0, 0, 0, 0, 0, 0, 0, 0, 0, 0, 0, 0,0.0,0.0,0.0,0.0,0.0,0.0,0.0,0.0,0.0,0.0,0.0,0.0,0.0,15,couchdb\src\main\java\org\apache\metamodel\couchdb\CouchDbTableDropBuilder.java,0,0,0,0
org.apache.metamodel.create.AbstractColumnBuilder, 0, 0, 0, 0, 0, 0, 0, 0, 0, 0, 0, 0, 0, 0,0.0,0.0,0.0,0.4,0.0,0.0,0.0,0.2,0.0,0.0,0.0,0.0,0.0,47,core\src\main\java\org\apache\metamodel\create\AbstractColumnBuilder.java,0,0,0,0
org.apache.metamodel.create.AbstractCreateTableBuilderTest, 0, 0, 0, 0, 0, 0, 0, 0, 0, 0, 0, 0, 0, 0,0.0,0.0,0.0,0.5,0.0,0.0,0.0,0.25,0.0,0.0,0.0,0.0,0.0,60,core\src\test\java\org\apache\metamodel\create\AbstractCreateTableBuilderTest.java,0,0,0,0
org.apache.metamodel.create.ColumnBuilder, 0, 0, 0, 0, 0, 0, 0, 0, 0, 0, 0, 0, 0, 0,0.0,0.0,0.0,0.0,0.0,0.0,0.0,0.0,0.0,0.0,0.0,0.0,0.0,60,core\src\main\java\org\apache\metamodel\create\ColumnBuilder.java,0,0,0,0
org.apache.metamodel.create.ColumnCreationBuilder, 0, 0, 0, 0, 0, 0, 0, 0, 0, 0, 0, 0, 0, 0,0.0,0.0,0.0,0.0,0.0,0.0,0.0,0.0,0.0,0.0,0.0,0.0,0.0,60,core\src\main\java\org\apache\metamodel\create\ColumnCreationBuilder.java,0,0,0,0
org.apache.metamodel.create.ColumnCreationBuilderImpl, 0, 0, 0, 0, 0, 0, 0, 0, 0, 0, 0, 0, 0, 0,0.0,0.0,0.0,0.5,0.0,0.0,0.0,0.5,0.0,0.0,0.0,0.0,0.0,27,core\src\main\java\org\apache\metamodel\create\ColumnCreationBuilderImpl.java,0,0,0,0
org.apache.metamodel.create.CreateTable, 0, 0, 0, 0, 0, 0, 0, 0, 0, 0, 0, 0, 0, 0,0.0,0.0,0.0,0.5,0.0,0.0,0.0,0.16666666666666666,0.0,0.0,0.0,0.0,0.0,18,core\src\main\java\org\apache\metamodel\create\CreateTable.java,0,0,0,0
org.apache.metamodel.create.CreateTableColumnBuilder, 0, 0, 0, 0, 0, 0, 0, 0, 0, 0, 0, 0, 0, 0,0.0,0.0,0.0,0.25,0.0,0.0,0.0,0.25,0.0,0.0,0.0,0.0,0.0,14,core\src\main\java\org\apache\metamodel\create\CreateTableColumnBuilder.java,0,0,0,0
org.apache.metamodel.create.SyntaxExamplesTest, 0, 0, 0, 0, 0, 0, 0, 0, 0, 0, 0, 0, 0, 0,0.0,0.0,0.0,0.0,0.0,0.0,0.0,0.0,0.0,0.0,0.0,0.0,0.0,13,core\src\test\java\org\apache\metamodel\create\SyntaxExamplesTest.java,0,0,0,0
org.apache.metamodel.create.TableCreatable, 0, 0, 0, 0, 0, 0, 0, 0, 0, 0, 0, 0, 0, 0,0.0,0.0,0.0,0.0,0.0,0.0,0.0,0.0,0.0,0.0,0.0,0.0,0.0,13,core\src\main\java\org\apache\metamodel\create\TableCreatable.java,0,0,0,0
org.apache.metamodel.create.TableCreationBuilder, 0, 0, 0, 0, 0, 0, 0, 0, 0, 0, 0, 0, 0, 0,0.0,0.0,0.0,0.0,0.0,0.0,0.0,0.0,0.0,0.0,0.0,0.0,0.0,13,core\src\main\java\org\apache\metamodel\create\TableCreationBuilder.java,0,0,0,0
org.apache.metamodel.csv.CsvBigFileMemoryTest, 0, 0, 0, 0, 0, 0, 0, 0, 0, 0, 0, 0, 0, 0,0.0,0.0,0.0,0.5,0.0,0.0,0.0,0.5,0.0,0.0,0.0,0.0,0.0,66,csv\src\test\java\org\apache\metamodel\csv\CsvBigFileMemoryTest.java,0,0,0,0
org.apache.metamodel.csv.CsvConfiguration, 0, 0, 0, 1, 0, 0, 0, 1, 0, 0, 0, 0, 0, 2,0.0,0.0,0.0,0.1,0.0,0.0,0.0,0.1,0.0,0.0,0.0,0.0,0.0,81,csv\src\main\java\org\apache\metamodel\csv\CsvConfiguration.java,0,0,0,0
org.apache.metamodel.csv.CsvConfigurationTest, 0, 0, 0, 0, 0, 0, 0, 0, 0, 0, 0, 0, 0, 0,0.0,0.0,0.0,0.5,0.0,0.0,0.0,0.5,0.0,0.0,0.0,0.0,0.0,18,csv\src\test\java\org\apache\metamodel\csv\CsvConfigurationTest.java,0,0,0,0
org.apache.metamodel.csv.CsvCreateTableBuilder, 0, 0, 0, 0, 0, 0, 0, 0, 0, 0, 0, 0, 0, 0,0.0,0.0,0.0,0.3333333333333333,0.0,0.0,0.0,0.16666666666666666,0.0,0.0,0.0,0.0,0.0,22,csv\src\main\java\org\apache\metamodel\csv\CsvCreateTableBuilder.java,0,0,0,0
org.apache.metamodel.csv.CsvDataSet, 0, 0, 0, 0, 0, 0, 0, 1, 0, 0, 0, 0, 0, 1,0.0,0.0,0.0,0.0,0.0,0.0,0.0,0.0,0.0,0.0,0.0,0.0,0.0,79,csv\src\main\java\org\apache\metamodel\csv\CsvDataSet.java,0,0,0,0
org.apache.metamodel.csv.CsvDeleteBuilder, 0, 0, 0, 0, 0, 0, 0, 0, 0, 0, 0, 0, 0, 0,0.0,0.0,0.0,0.0,0.0,0.0,0.0,0.0,0.0,0.0,0.0,0.0,0.0,52,csv\src\main\java\org\apache\metamodel\csv\CsvDeleteBuilder.java,0,0,0,0
org.apache.metamodel.csv.CsvInsertBuilder, 0, 0, 0, 0, 0, 0, 0, 0, 0, 0, 0, 0, 0, 0,0.0,0.0,0.0,0.0,0.0,0.0,0.0,0.0,0.0,0.0,0.0,0.0,0.0,14,csv\src\main\java\org\apache\metamodel\csv\CsvInsertBuilder.java,0,0,0,0
org.apache.metamodel.csv.CsvSchema, 0, 0, 0, 0, 0, 0, 0, 0, 0, 0, 0, 0, 0, 0,0.0,0.0,0.0,0.0,0.0,0.0,0.0,0.0,0.0,0.0,0.0,0.0,0.0,32,csv\src\main\java\org\apache\metamodel\csv\CsvSchema.java,0,0,0,0
org.apache.metamodel.csv.CsvTable, 0, 0, 0, 0, 0, 0, 0, 0, 0, 0, 0, 0, 0, 0,0.0,0.0,0.0,0.5,0.0,0.0,0.0,0.5,0.0,0.0,0.0,0.0,0.0,93,csv\src\main\java\org\apache\metamodel\csv\CsvTable.java,0,0,0,0
org.apache.metamodel.csv.CsvTableDropBuilder, 0, 0, 0, 0, 0, 0, 0, 0, 0, 0, 0, 0, 0, 0,0.0,0.0,0.0,0.0,0.0,0.0,0.0,0.0,0.0,0.0,0.0,0.0,0.0,11,csv\src\main\java\org\apache\metamodel\csv\CsvTableDropBuilder.java,0,0,0,0
org.apache.metamodel.csv.CsvUpdateCallback, 0, 0, 0, 0, 0, 0, 0, 0, 0, 0, 0, 0, 0, 0,0.0,0.0,0.0,0.1111111111111111,0.0,0.0,0.0,0.1111111111111111,0.0,0.0,0.0,0.0,0.0,165,csv\src\main\java\org\apache\metamodel\csv\CsvUpdateCallback.java,0,0,0,0
org.apache.metamodel.csv.DefaultExampleValueGenerator, 0, 0, 0, 0, 0, 0, 0, 0, 0, 0, 0, 0, 0, 0,0.0,0.0,0.0,0.0,0.0,0.0,0.0,0.0,0.0,0.0,0.0,0.0,0.0,6,csv\src\test\java\org\apache\metamodel\csv\DefaultExampleValueGenerator.java,0,0,0,0
org.apache.metamodel.csv.ExampleDataGenerator, 0, 0, 0, 0, 0, 0, 0, 0, 0, 0, 0, 0, 0, 0,0.0,0.0,0.0,0.0,0.0,0.0,0.0,0.0,0.0,0.0,0.0,0.0,0.0,55,csv\src\test\java\org\apache\metamodel\csv\ExampleDataGenerator.java,0,0,0,0
org.apache.metamodel.csv.ExampleValueGenerator, 0, 0, 0, 0, 0, 0, 0, 0, 0, 0, 0, 0, 0, 0,0.0,0.0,0.0,0.0,0.0,0.0,0.0,0.0,0.0,0.0,0.0,0.0,0.0,55,csv\src\test\java\org\apache\metamodel\csv\ExampleValueGenerator.java,0,0,0,0
org.apache.metamodel.csv.InconsistentRowLengthException, 0, 0, 0, 0, 0, 0, 0, 0, 0, 0, 0, 0, 0, 0,0.0,0.0,0.0,0.0,0.0,0.0,0.0,0.6666666666666666,0.0,0.0,0.0,0.0,0.0,27,csv\src\main\java\org\apache\metamodel\csv\InconsistentRowLengthException.java,0,0,0,0
org.apache.metamodel.csv.RandomizedExampleValueGenerator, 0, 0, 0, 0, 0, 0, 0, 0, 0, 0, 0, 0, 0, 0,0.0,0.0,0.0,0.0,0.0,0.0,0.0,0.0,0.0,0.0,0.0,0.0,0.0,59,csv\src\test\java\org\apache\metamodel\csv\RandomizedExampleValueGenerator.java,0,0,0,0
org.apache.metamodel.csv.SingleLineCsvDataSet, 0, 0, 0, 0, 0, 0, 0, 1, 0, 0, 0, 0, 0, 1,0.0,0.0,0.0,0.0,0.0,0.0,0.0,0.3333333333333333,0.0,0.0,0.0,0.0,0.0,74,csv\src\main\java\org\apache\metamodel\csv\SingleLineCsvDataSet.java,0,0,0,0
org.apache.metamodel.csv.SingleLineCsvDataSetTest, 0, 0, 0, 0, 0, 0, 0, 0, 0, 0, 0, 0, 0, 0,0.0,0.0,0.0,1.0,0.0,0.0,0.0,1.0,0.0,0.0,0.0,0.0,0.0,31,csv\src\test\java\org\apache\metamodel\csv\SingleLineCsvDataSetTest.java,0,0,0,0
org.apache.metamodel.csv.SingleLineCsvRow, 0, 0, 0, 0, 0, 0, 0, 1, 0, 0, 0, 0, 0, 1,0.0,0.0,0.0,0.0,0.0,0.0,0.0,0.25,0.0,0.0,0.0,0.0,0.0,73,csv\src\main\java\org\apache\metamodel\csv\SingleLineCsvRow.java,0,0,0,0
org.apache.metamodel.csv.UnicodeWriterTest, 0, 0, 0, 0, 0, 0, 0, 0, 0, 0, 0, 0, 0, 0,0.0,0.0,0.0,0.0,0.0,0.0,0.0,0.0,0.0,0.0,0.0,0.0,0.0,17,csv\src\test\java\org\apache\metamodel\csv\UnicodeWriterTest.java,0,0,0,0
org.apache.metamodel.data.AbstractDataSet, 0, 0, 0, 0, 0, 0, 0, 0, 0, 0, 0, 0, 0, 0,0.0,0.0,0.0,0.0,0.0,0.0,0.0,0.12,0.0,0.0,0.0,0.0,0.0,82,core\src\main\java\org\apache\metamodel\data\AbstractDataSet.java,0,0,0,0
org.apache.metamodel.data.AbstractRow, 0, 0, 0, 0, 0, 0, 0, 0, 0, 0, 0, 0, 0, 0,0.0,0.0,0.0,0.0,0.0,0.0,0.0,0.25,0.0,0.0,0.0,0.0,0.0,128,core\src\main\java\org\apache\metamodel\data\AbstractRow.java,0,0,0,0
org.apache.metamodel.data.AbstractRowBuilder, 0, 0, 0, 0, 0, 0, 0, 0, 0, 0, 0, 0, 0, 0,0.0,0.0,0.0,0.07142857142857142,0.0,0.0,0.0,0.0,0.0,0.0,0.0,0.0,0.0,95,core\src\main\java\org\apache\metamodel\data\AbstractRowBuilder.java,0,0,0,0
org.apache.metamodel.data.ColorImpl, 0, 0, 0, 0, 0, 0, 0, 0, 0, 0, 0, 0, 0, 0,0.0,0.0,0.0,0.0,0.0,0.0,0.0,0.0,0.0,0.0,0.0,0.0,0.0,43,core\src\main\java\org\apache\metamodel\data\ColorImpl.java,0,0,0,0
org.apache.metamodel.data.DataSetHeader, 0, 0, 0, 0, 0, 0, 0, 0, 0, 0, 0, 0, 0, 0,0.0,0.0,0.0,0.0,0.0,0.0,0.0,0.0,0.0,0.0,0.0,0.0,0.0,43,core\src\main\java\org\apache\metamodel\data\DataSetHeader.java,0,0,0,0
org.apache.metamodel.data.DataSetIteratorTest, 0, 0, 0, 0, 0, 0, 0, 0, 0, 0, 0, 0, 0, 0,0.0,0.0,0.0,0.0,0.0,0.0,0.0,0.0,0.0,0.0,0.0,0.0,0.0,37,core\src\test\java\org\apache\metamodel\data\DataSetIteratorTest.java,0,0,0,0
org.apache.metamodel.data.DataSetTableModel, 0, 0, 0, 0, 0, 0, 0, 0, 0, 0, 0, 0, 0, 0,0.0,0.0,0.0,0.25,0.0,0.0,0.0,0.0,0.0,0.0,0.0,0.0,0.0,64,core\src\main\java\org\apache\metamodel\data\DataSetTableModel.java,0,0,0,0
org.apache.metamodel.data.DataSetTableModelTest, 0, 0, 0, 0, 0, 0, 0, 0, 0, 0, 0, 0, 0, 0,0.0,0.0,0.0,0.3333333333333333,0.0,0.0,0.0,0.3333333333333333,0.0,0.0,0.0,0.0,0.0,19,core\src\test\java\org\apache\metamodel\data\DataSetTableModelTest.java,0,0,0,0
org.apache.metamodel.data.DefaultRow, 0, 0, 0, 0, 0, 0, 0, 0, 0, 0, 0, 0, 0, 0,0.0,0.0,0.0,0.047619047619047616,0.0,0.0,0.0,0.09523809523809523,0.0,0.0,0.0,0.0,0.0,102,core\src\main\java\org\apache\metamodel\data\DefaultRow.java,0,0,0,0
org.apache.metamodel.data.DefaultRowTest, 0, 0, 0, 0, 0, 0, 0, 0, 0, 0, 0, 0, 0, 0,0.0,0.0,0.0,0.25,0.0,0.0,0.0,0.25,0.0,0.0,0.0,0.0,0.0,78,core\src\test\java\org\apache\metamodel\data\DefaultRowTest.java,0,0,0,0
org.apache.metamodel.data.DocumentSource, 0, 0, 0, 0, 0, 0, 0, 0, 0, 0, 0, 0, 0, 0,0.0,0.0,0.0,0.0,0.0,0.0,0.0,0.0,0.0,0.0,0.0,0.0,0.0,78,core\src\main\java\org\apache\metamodel\data\DocumentSource.java,0,0,0,0
org.apache.metamodel.data.DocumentSourceDataSet, 0, 0, 0, 0, 0, 0, 0, 0, 0, 0, 0, 0, 0, 0,0.0,0.0,0.0,0.0,0.0,0.0,0.0,0.0,0.0,0.0,0.0,0.0,0.0,36,core\src\main\java\org\apache\metamodel\data\DocumentSourceDataSet.java,0,0,0,0
org.apache.metamodel.data.EmptyDataSet, 0, 0, 0, 0, 0, 0, 0, 0, 0, 0, 0, 0, 0, 0,0.0,0.0,0.0,0.2222222222222222,0.0,0.0,0.0,0.1111111111111111,0.0,0.0,0.0,0.0,0.0,22,core\src\main\java\org\apache\metamodel\data\EmptyDataSet.java,0,0,0,0
org.apache.metamodel.data.FilteredDataSet, 0, 0, 0, 0, 0, 0, 0, 0, 0, 0, 0, 0, 0, 0,0.0,0.0,0.0,0.0,0.0,0.0,0.0,0.0,0.0,0.0,0.0,0.0,0.0,36,core\src\main\java\org\apache\metamodel\data\FilteredDataSet.java,0,0,0,0
org.apache.metamodel.data.FirstRowDataSet, 0, 0, 0, 0, 0, 0, 0, 0, 0, 0, 0, 0, 0, 0,0.0,0.0,0.0,0.0,0.0,0.0,0.0,0.0,0.0,0.0,0.0,0.0,0.0,35,core\src\main\java\org\apache\metamodel\data\FirstRowDataSet.java,0,0,0,0
org.apache.metamodel.data.FirstRowDataSetTest, 0, 0, 0, 0, 0, 0, 0, 0, 0, 0, 0, 0, 0, 0,0.0,0.0,0.0,0.0,0.0,0.0,0.0,0.0,0.0,0.0,0.0,0.0,0.0,46,core\src\test\java\org\apache\metamodel\data\FirstRowDataSetTest.java,0,0,0,0
org.apache.metamodel.data.IRowFilter, 0, 0, 0, 0, 0, 0, 0, 0, 0, 0, 0, 0, 0, 0,0.0,0.0,0.0,0.0,0.0,0.0,0.0,0.0,0.0,0.0,0.0,0.0,0.0,46,core\src\main\java\org\apache\metamodel\data\IRowFilter.java,0,0,0,0
org.apache.metamodel.data.InMemoryDataSet, 0, 0, 0, 0, 0, 0, 0, 0, 0, 0, 0, 0, 0, 0,0.0,0.0,0.0,0.125,0.0,0.0,0.0,0.0,0.0,0.0,0.0,0.0,0.0,51,core\src\main\java\org\apache\metamodel\data\InMemoryDataSet.java,0,0,0,0
org.apache.metamodel.data.MaxRowsDataSet, 0, 0, 0, 0, 0, 0, 0, 0, 0, 0, 0, 0, 0, 0,0.0,0.0,0.0,0.25,0.0,0.0,0.0,0.25,0.0,0.0,0.0,0.0,0.0,27,core\src\main\java\org\apache\metamodel\data\MaxRowsDataSet.java,0,0,0,0
org.apache.metamodel.data.MaxRowsDocumentSource, 0, 0, 0, 0, 0, 0, 0, 0, 0, 0, 0, 0, 0, 0,0.0,0.0,0.0,0.0,0.0,0.0,0.0,0.0,0.0,0.0,0.0,0.0,0.0,21,core\src\main\java\org\apache\metamodel\data\MaxRowsDocumentSource.java,0,0,0,0
org.apache.metamodel.data.Row, 0, 0, 0, 0, 0, 0, 0, 0, 0, 0, 0, 0, 0, 0,0.0,0.0,0.0,0.0,0.0,0.0,0.0,0.0,0.0,0.0,0.0,0.0,0.0,21,core\src\main\java\org\apache\metamodel\data\Row.java,0,0,0,0
org.apache.metamodel.data.RowBuilder, 0, 0, 0, 0, 0, 0, 0, 0, 0, 0, 0, 0, 0, 0,0.0,0.0,0.0,0.0,0.0,0.0,0.0,0.0,0.0,0.0,0.0,0.0,0.0,21,core\src\main\java\org\apache\metamodel\data\RowBuilder.java,0,0,0,0
org.apache.metamodel.data.RowPublisher, 0, 0, 0, 0, 0, 0, 0, 0, 0, 0, 0, 0, 0, 0,0.0,0.0,0.0,0.0,0.0,0.0,0.0,0.0,0.0,0.0,0.0,0.0,0.0,21,core\src\main\java\org\apache\metamodel\data\RowPublisher.java,0,0,0,0
org.apache.metamodel.data.RowPublisherDataSet, 0, 0, 0, 0, 0, 0, 0, 0, 0, 0, 0, 0, 0, 0,0.0,0.0,0.0,0.0,0.0,0.0,0.0,0.0,0.0,0.0,0.0,0.0,0.0,69,core\src\main\java\org\apache\metamodel\data\RowPublisherDataSet.java,0,0,0,0
org.apache.metamodel.data.RowPublisherDataSetTest, 0, 0, 0, 0, 0, 0, 0, 0, 0, 0, 0, 0, 0, 0,0.0,0.0,0.0,0.5,0.0,0.0,0.0,0.5,0.0,0.0,0.0,0.0,0.0,54,core\src\test\java\org\apache\metamodel\data\RowPublisherDataSetTest.java,0,0,0,0
org.apache.metamodel.data.RowPublisherImpl, 0, 0, 0, 0, 0, 0, 0, 0, 0, 0, 0, 0, 0, 0,0.0,0.0,0.0,0.0,0.0,0.0,0.0,0.0,0.0,0.0,0.0,0.0,0.0,78,core\src\main\java\org\apache\metamodel\data\RowPublisherImpl.java,0,0,0,0
org.apache.metamodel.data.RowTest, 0, 0, 0, 0, 0, 0, 0, 0, 0, 0, 0, 0, 0, 0,0.0,0.0,0.0,0.3333333333333333,0.0,0.0,0.0,0.0,0.0,0.0,0.0,0.0,0.0,29,core\src\test\java\org\apache\metamodel\data\RowTest.java,0,0,0,0
org.apache.metamodel.data.SimpleDataSetHeader, 0, 0, 0, 0, 0, 0, 0, 0, 0, 0, 0, 0, 0, 0,0.0,0.0,0.0,0.07142857142857142,0.0,0.0,0.0,0.0,0.0,0.0,0.0,0.0,0.0,83,core\src\main\java\org\apache\metamodel\data\SimpleDataSetHeader.java,0,0,0,0
org.apache.metamodel.data.Style, 0, 0, 0, 0, 0, 0, 0, 0, 0, 0, 0, 0, 0, 0,0.0,0.0,0.0,0.0,0.0,0.0,0.0,0.0,0.0,0.0,0.0,0.0,0.0,83,core\src\main\java\org\apache\metamodel\data\Style.java,0,0,0,0
org.apache.metamodel.data.StyleBuilderTest, 0, 0, 0, 0, 0, 0, 0, 0, 0, 0, 0, 0, 0, 0,0.0,0.0,0.0,0.0,0.0,0.0,0.0,0.0,0.0,0.0,0.0,0.0,0.0,25,core\src\test\java\org\apache\metamodel\data\StyleBuilderTest.java,0,0,0,0
org.apache.metamodel.data.SubSelectionDataSet, 0, 0, 0, 0, 0, 0, 0, 0, 0, 0, 0, 0, 0, 0,0.0,0.0,0.0,0.0,0.0,0.0,0.0,0.0,0.0,0.0,0.0,0.0,0.0,24,core\src\main\java\org\apache\metamodel\data\SubSelectionDataSet.java,0,0,0,0
org.apache.metamodel.data.WhereClauseBuilder, 0, 0, 0, 0, 0, 0, 0, 0, 0, 0, 0, 0, 0, 0,0.0,0.0,0.0,0.0,0.0,0.0,0.0,0.0,0.0,0.0,0.0,0.0,0.0,24,core\src\main\java\org\apache\metamodel\data\WhereClauseBuilder.java,0,0,0,0
org.apache.metamodel.dbmains.PostgresqlMain, 0, 0, 0, 0, 0, 0, 0, 0, 0, 0, 0, 0, 0, 0,0.0,0.0,0.0,0.5,0.0,0.0,0.0,0.5,0.0,0.0,0.0,0.0,0.0,47,jdbc\src\test\java\org\apache\metamodel\dbmains\PostgresqlMain.java,0,0,0,0
org.apache.metamodel.delete.AbstractRowDeletionBuilder, 0, 0, 0, 0, 0, 0, 0, 0, 0, 0, 0, 0, 0, 0,0.0,0.0,0.0,0.0,0.0,0.0,0.0,0.0,0.0,0.0,0.0,0.0,0.0,71,core\src\main\java\org\apache\metamodel\delete\AbstractRowDeletionBuilder.java,0,0,0,0
org.apache.metamodel.delete.AbstractRowDeletionCallbackTest, 0, 0, 0, 0, 0, 0, 0, 0, 0, 0, 0, 0, 0, 0,0.0,0.0,0.0,0.0,0.0,0.0,0.0,0.0,0.0,0.0,0.0,0.0,0.0,42,core\src\test\java\org\apache\metamodel\delete\AbstractRowDeletionCallbackTest.java,0,0,0,0
org.apache.metamodel.delete.DeleteFrom, 0, 0, 0, 0, 0, 0, 0, 0, 0, 0, 0, 0, 0, 0,0.0,0.0,0.0,0.5,0.0,0.0,0.0,0.0,0.0,0.0,0.0,0.0,0.0,44,core\src\main\java\org\apache\metamodel\delete\DeleteFrom.java,0,0,0,0
org.apache.metamodel.delete.RowDeletable, 0, 0, 0, 0, 0, 0, 0, 0, 0, 0, 0, 0, 0, 0,0.0,0.0,0.0,0.0,0.0,0.0,0.0,0.0,0.0,0.0,0.0,0.0,0.0,44,core\src\main\java\org\apache\metamodel\delete\RowDeletable.java,0,0,0,0
org.apache.metamodel.delete.RowDeletionBuilder, 0, 0, 0, 0, 0, 0, 0, 0, 0, 0, 0, 0, 0, 0,0.0,0.0,0.0,0.0,0.0,0.0,0.0,0.0,0.0,0.0,0.0,0.0,0.0,44,core\src\main\java\org\apache\metamodel\delete\RowDeletionBuilder.java,0,0,0,0
org.apache.metamodel.dialects.AbstractQueryRewriterTest, 0, 0, 0, 0, 0, 0, 0, 0, 0, 0, 0, 0, 0, 0,0.0,0.0,0.0,1.0,0.0,0.0,0.0,0.5,0.0,0.0,0.0,0.0,0.0,25,jdbc\src\test\java\org\apache\metamodel\dialects\AbstractQueryRewriterTest.java,0,0,0,0
org.apache.metamodel.dialects.DB2QueryRewriterTest, 0, 0, 0, 0, 0, 0, 0, 0, 0, 0, 0, 0, 0, 0,0.0,0.0,0.0,0.6666666666666666,0.0,0.0,0.0,0.3333333333333333,0.0,0.0,0.0,0.0,0.0,125,jdbc\src\test\java\org\apache\metamodel\dialects\DB2QueryRewriterTest.java,0,0,0,0
org.apache.metamodel.dialects.MysqlQueryRewriterTest, 0, 0, 0, 0, 0, 0, 0, 0, 0, 0, 0, 0, 0, 0,0.0,0.0,0.0,0.5,0.0,0.0,0.0,0.25,0.0,0.0,0.0,0.0,0.0,23,jdbc\src\test\java\org\apache\metamodel\dialects\MysqlQueryRewriterTest.java,0,0,0,0
org.apache.metamodel.dialects.PostgresqlQueryRewriterTest, 0, 0, 0, 0, 0, 0, 0, 0, 0, 0, 0, 0, 0, 0,0.0,0.0,0.0,0.4,0.0,0.0,0.0,0.2,0.0,0.0,0.0,0.0,0.0,21,jdbc\src\test\java\org\apache\metamodel\dialects\PostgresqlQueryRewriterTest.java,0,0,0,0
org.apache.metamodel.dialects.SQLServerQueryRewriterTest, 0, 0, 0, 0, 0, 0, 0, 0, 0, 0, 0, 0, 0, 0,0.0,0.0,0.0,0.6666666666666666,0.0,0.0,0.0,0.3333333333333333,0.0,0.0,0.0,0.0,0.0,50,jdbc\src\test\java\org\apache\metamodel\dialects\SQLServerQueryRewriterTest.java,0,0,0,0
org.apache.metamodel.drop.AbstractTableDropBuilder, 0, 0, 0, 0, 0, 0, 0, 0, 0, 0, 0, 0, 0, 0,0.0,0.0,0.0,0.0,0.0,0.0,0.0,0.0,0.0,0.0,0.0,0.0,0.0,21,core\src\main\java\org\apache\metamodel\drop\AbstractTableDropBuilder.java,0,0,0,0
org.apache.metamodel.drop.DropTable, 0, 0, 0, 0, 0, 0, 0, 0, 0, 0, 0, 0, 0, 0,0.0,0.0,0.0,0.5,0.0,0.0,0.0,0.0,0.0,0.0,0.0,0.0,0.0,27,core\src\main\java\org\apache\metamodel\drop\DropTable.java,0,0,0,0
org.apache.metamodel.drop.TableDropBuilder, 0, 0, 0, 0, 0, 0, 0, 0, 0, 0, 0, 0, 0, 0,0.0,0.0,0.0,0.0,0.0,0.0,0.0,0.0,0.0,0.0,0.0,0.0,0.0,27,core\src\main\java\org\apache\metamodel\drop\TableDropBuilder.java,0,0,0,0
org.apache.metamodel.drop.TableDroppable, 0, 0, 0, 0, 0, 0, 0, 0, 0, 0, 0, 0, 0, 0,0.0,0.0,0.0,0.0,0.0,0.0,0.0,0.0,0.0,0.0,0.0,0.0,0.0,27,core\src\main\java\org\apache\metamodel\drop\TableDroppable.java,0,0,0,0
org.apache.metamodel.elasticsearch.ElasticSearchCreateTableBuilder, 0, 0, 0, 0, 0, 0, 0, 0, 0, 0, 0, 0, 0, 0,0.0,0.0,0.0,0.5,0.0,0.0,0.0,0.25,0.0,0.0,0.0,0.0,0.0,74,elasticsearch\src\main\java\org\apache\metamodel\elasticsearch\ElasticSearchCreateTableBuilder.java,0,0,0,0
org.apache.metamodel.elasticsearch.ElasticSearchDeleteBuilder, 0, 0, 0, 0, 0, 0, 0, 0, 0, 0, 0, 0, 0, 0,0.0,0.0,0.0,0.0,0.0,0.0,0.0,0.0,0.0,0.0,0.0,0.0,0.0,29,elasticsearch\src\main\java\org\apache\metamodel\elasticsearch\ElasticSearchDeleteBuilder.java,0,0,0,0
org.apache.metamodel.elasticsearch.ElasticSearchDropTableBuilder, 0, 0, 0, 0, 0, 0, 0, 0, 0, 0, 0, 0, 0, 0,0.0,0.0,0.0,0.0,0.0,0.0,0.0,0.0,0.0,0.0,0.0,0.0,0.0,49,elasticsearch\src\main\java\org\apache\metamodel\elasticsearch\ElasticSearchDropTableBuilder.java,0,0,0,0
org.apache.metamodel.elasticsearch.ElasticSearchMetaData, 0, 0, 0, 0, 0, 0, 0, 0, 0, 0, 0, 0, 0, 0,0.0,0.0,0.0,0.0,0.0,0.0,0.0,0.0,0.0,0.0,0.0,0.0,0.0,14,elasticsearch\src\main\java\org\apache\metamodel\elasticsearch\ElasticSearchMetaData.java,0,0,0,0
org.apache.metamodel.elasticsearch.ElasticSearchMetaDataParser, 0, 0, 0, 0, 0, 0, 0, 0, 0, 0, 0, 0, 0, 0,0.0,0.0,0.0,0.0,0.0,0.0,0.0,0.0,0.0,0.0,0.0,0.0,0.0,57,elasticsearch\src\main\java\org\apache\metamodel\elasticsearch\ElasticSearchMetaDataParser.java,0,0,0,0
org.apache.metamodel.elasticsearch.ElasticSearchMetaDataParserTest, 0, 0, 0, 0, 0, 0, 0, 0, 0, 0, 0, 0, 0, 0,0.0,0.0,0.0,0.0,0.0,0.0,0.0,0.0,0.0,0.0,0.0,0.0,0.0,29,elasticsearch\src\test\java\org\apache\metamodel\elasticsearch\ElasticSearchMetaDataParserTest.java,0,0,0,0
org.apache.metamodel.elasticsearch.ElasticSearchUpdateCallback, 0, 0, 0, 0, 0, 0, 0, 0, 0, 0, 0, 0, 0, 0,0.0,0.0,0.0,0.0,0.0,0.0,0.0,0.0,0.0,0.0,0.0,0.0,0.0,43,elasticsearch\src\main\java\org\apache\metamodel\elasticsearch\ElasticSearchUpdateCallback.java,0,0,0,0
org.apache.metamodel.elasticsearch.utils.EmbeddedElasticsearchServer, 0, 0, 0, 0, 0, 0, 0, 0, 0, 0, 0, 0, 0, 0,0.0,0.0,0.0,0.0,0.0,0.0,0.0,0.0,0.0,0.0,0.0,0.0,0.0,31,elasticsearch\src\test\java\org\apache\metamodel\elasticsearch\utils\EmbeddedElasticsearchServer.java,0,0,0,0
org.apache.metamodel.excel.DefaultSpreadsheetReaderDelegate, 0, 0, 0, 0, 0, 0, 0, 0, 0, 0, 0, 0, 0, 0,0.0,0.0,0.0,0.2222222222222222,0.0,0.0,0.0,0.1111111111111111,0.0,0.0,0.0,0.0,0.0,108,excel\src\main\java\org\apache\metamodel\excel\DefaultSpreadsheetReaderDelegate.java,0,0,0,0
org.apache.metamodel.excel.DefaultSpreadsheetReaderDelegateTest, 0, 0, 0, 0, 0, 0, 0, 0, 0, 0, 0, 0, 0, 0,0.0,0.0,0.0,0.0,0.0,0.0,0.0,0.0,0.0,0.0,0.0,0.0,0.0,173,excel\src\test\java\org\apache\metamodel\excel\DefaultSpreadsheetReaderDelegateTest.java,0,0,0,0
org.apache.metamodel.excel.ExcelConfiguration, 0, 0, 0, 0, 0, 0, 0, 0, 0, 0, 0, 0, 0, 0,0.0,0.0,0.0,0.23076923076923078,0.0,0.0,0.0,0.07692307692307693,0.0,0.0,0.0,0.0,0.0,39,excel\src\main\java\org\apache\metamodel\excel\ExcelConfiguration.java,0,0,0,0
org.apache.metamodel.excel.ExcelConfigurationTest, 0, 0, 0, 0, 0, 0, 0, 0, 0, 0, 0, 0, 0, 0,0.0,0.0,0.0,0.0,0.0,0.0,0.0,0.0,0.0,0.0,0.0,0.0,0.0,15,excel\src\test\java\org\apache\metamodel\excel\ExcelConfigurationTest.java,0,0,0,0
org.apache.metamodel.excel.ExcelDataContext, 0, 0, 0, 0, 0, 0, 0, 0, 0, 0, 0, 0, 0, 0,0.0,0.0,0.0,0.23076923076923078,0.0,0.0,0.0,0.07692307692307693,0.0,0.0,0.0,0.0,0.0,154,excel\src\main\java\org\apache\metamodel\excel\ExcelDataContext.java,0,6,1,8
org.apache.metamodel.excel.ExcelDataContextTest, 0, 0, 0, 1, 0, 0, 0, 0, 0, 0, 0, 0, 0, 1,0.0,0.0,0.0,0.0,0.0,0.0,0.0,0.0,0.0,0.0,0.0,0.0,0.0,583,excel\src\test\java\org\apache\metamodel\excel\ExcelDataContextTest.java,0,2,2,6
org.apache.metamodel.excel.ExcelDeleteBuilder, 0, 0, 0, 0, 0, 0, 0, 0, 0, 0, 0, 0, 0, 0,0.0,0.0,0.0,0.25,0.0,0.0,0.0,0.0,0.0,0.0,0.0,0.0,0.0,30,excel\src\main\java\org\apache\metamodel\excel\ExcelDeleteBuilder.java,0,0,0,0
org.apache.metamodel.excel.ExcelDropTableBuilder, 0, 0, 0, 0, 0, 0, 0, 0, 0, 0, 0, 0, 0, 0,0.0,0.0,0.0,0.3333333333333333,0.0,0.0,0.0,0.0,0.0,0.0,0.0,0.0,0.0,14,excel\src\main\java\org\apache\metamodel\excel\ExcelDropTableBuilder.java,0,0,0,0
org.apache.metamodel.excel.ExcelInsertBuilder, 0, 0, 0, 0, 0, 0, 0, 0, 0, 0, 0, 0, 0, 0,0.0,0.0,0.0,0.3333333333333333,0.0,0.0,0.0,0.0,0.0,0.0,0.0,0.0,0.0,118,excel\src\main\java\org\apache\metamodel\excel\ExcelInsertBuilder.java,0,0,0,0
org.apache.metamodel.excel.ExcelTableCreationBuilder, 0, 0, 0, 0, 0, 0, 0, 0, 0, 0, 0, 0, 0, 0,0.0,0.0,0.0,0.5,0.0,0.0,0.0,0.0,0.0,0.0,0.0,0.0,0.0,25,excel\src\main\java\org\apache\metamodel\excel\ExcelTableCreationBuilder.java,0,0,0,0
org.apache.metamodel.excel.ExcelUpdateCallback, 0, 0, 0, 1, 0, 0, 0, 0, 0, 0, 0, 0, 0, 1,0.0,0.0,0.0,0.0,0.0,0.0,0.0,0.0,0.0,0.0,0.0,0.0,0.0,152,excel\src\main\java\org\apache\metamodel\excel\ExcelUpdateCallback.java,0,0,0,0
org.apache.metamodel.excel.ExcelUtils, 0, 0, 0, 0, 0, 0, 0, 0, 0, 0, 0, 0, 0, 0,0.0,0.0,0.0,0.09090909090909091,0.0,0.0,0.0,0.0,0.0,0.0,0.0,0.0,0.0,268,excel\src\main\java\org\apache\metamodel\excel\ExcelUtils.java,0,0,0,0
org.apache.metamodel.excel.SpreadsheetReaderDelegate, 0, 0, 0, 0, 0, 0, 0, 0, 0, 0, 0, 0, 0, 0,0.0,0.0,0.0,0.0,0.0,0.0,0.0,0.0,0.0,0.0,0.0,0.0,0.0,268,excel\src\main\java\org\apache\metamodel\excel\SpreadsheetReaderDelegate.java,0,0,0,0
org.apache.metamodel.excel.XlsDataSet, 0, 0, 0, 0, 0, 0, 0, 0, 0, 0, 0, 0, 0, 0,0.0,0.0,0.0,0.0,0.0,0.0,0.0,0.0,0.0,0.0,0.0,0.0,0.0,31,excel\src\main\java\org\apache\metamodel\excel\XlsDataSet.java,0,0,0,0
org.apache.metamodel.excel.XlsxRowCallback, 0, 0, 0, 0, 0, 0, 0, 0, 0, 0, 0, 0, 0, 0,0.0,0.0,0.0,0.0,0.0,0.0,0.0,0.0,0.0,0.0,0.0,0.0,0.0,31,excel\src\main\java\org\apache\metamodel\excel\XlsxRowCallback.java,0,0,0,0
org.apache.metamodel.excel.XlsxRowPublisherAction, 0, 0, 0, 0, 0, 0, 0, 0, 0, 0, 0, 0, 0, 0,0.0,0.0,0.0,0.0,0.0,0.0,0.0,0.0,0.0,0.0,0.0,0.0,0.0,59,excel\src\main\java\org\apache\metamodel\excel\XlsxRowPublisherAction.java,0,0,0,0
org.apache.metamodel.excel.XlsxStopParsingException, 0, 0, 0, 0, 0, 0, 0, 0, 0, 0, 0, 0, 0, 0,0.0,0.0,0.0,0.0,0.0,0.0,0.0,0.0,0.0,0.0,0.0,0.0,0.0,3,excel\src\main\java\org\apache\metamodel\excel\XlsxStopParsingException.java,0,0,0,0
org.apache.metamodel.excel.ZeroBasedRowIteratorTest, 0, 0, 0, 0, 0, 0, 0, 0, 0, 0, 0, 0, 0, 0,0.0,0.0,0.0,0.0,0.0,0.0,0.0,0.0,0.0,0.0,0.0,0.0,0.0,31,excel\src\test\java\org\apache\metamodel\excel\ZeroBasedRowIteratorTest.java,0,0,0,0
org.apache.metamodel.fixedwidth.FixedWidthConfiguration, 0, 0, 0, 0, 0, 0, 0, 0, 0, 0, 0, 0, 0, 0,0.0,0.0,0.0,0.2,0.0,0.0,0.0,0.2,0.0,0.0,0.0,0.0,0.0,79,fixedwidth\src\main\java\org\apache\metamodel\fixedwidth\FixedWidthConfiguration.java,0,0,0,0
org.apache.metamodel.fixedwidth.FixedWidthConfigurationTest, 0, 0, 0, 0, 0, 0, 0, 0, 0, 0, 0, 0, 0, 0,0.0,0.0,0.0,0.0,0.0,0.0,0.0,0.0,0.0,0.0,0.0,0.0,0.0,17,fixedwidth\src\test\java\org\apache\metamodel\fixedwidth\FixedWidthConfigurationTest.java,0,0,0,0
org.apache.metamodel.fixedwidth.FixedWidthDataContext, 0, 0, 0, 0, 0, 0, 0, 0, 0, 0, 0, 0, 0, 0,0.0,0.0,0.0,0.3333333333333333,0.0,0.0,0.0,0.2222222222222222,0.0,0.0,0.0,0.0,0.0,104,fixedwidth\src\main\java\org\apache\metamodel\fixedwidth\FixedWidthDataContext.java,0,0,0,0
org.apache.metamodel.fixedwidth.FixedWidthDataContextTest, 0, 0, 0, 0, 0, 0, 0, 0, 0, 0, 0, 0, 0, 0,0.0,0.0,0.0,0.0,0.0,0.0,0.0,0.0,0.0,0.0,0.0,0.0,0.0,155,fixedwidth\src\test\java\org\apache\metamodel\fixedwidth\FixedWidthDataContextTest.java,0,0,0,0
org.apache.metamodel.fixedwidth.FixedWidthDataSet, 0, 0, 0, 0, 0, 0, 0, 0, 0, 0, 0, 0, 0, 0,0.0,0.0,0.0,0.0,0.0,0.0,0.0,0.0,0.0,0.0,0.0,0.0,0.0,70,fixedwidth\src\main\java\org\apache\metamodel\fixedwidth\FixedWidthDataSet.java,0,0,0,0
org.apache.metamodel.fixedwidth.InconsistentValueWidthException, 0, 0, 0, 0, 0, 0, 0, 0, 0, 0, 0, 0, 0, 0,0.0,0.0,0.0,0.0,0.0,0.0,0.0,0.0,0.0,0.0,0.0,0.0,0.0,24,fixedwidth\src\main\java\org\apache\metamodel\fixedwidth\InconsistentValueWidthException.java,0,0,0,0
org.apache.metamodel.hbase.ByteUtils, 0, 0, 0, 0, 0, 0, 0, 0, 0, 0, 0, 0, 0, 0,0.0,0.0,0.0,0.0,0.0,0.0,0.0,0.0,0.0,0.0,0.0,0.0,0.0,73,hbase\src\main\java\org\apache\metamodel\hbase\ByteUtils.java,0,0,0,0
org.apache.metamodel.hbase.HBaseConfiguration, 0, 0, 0, 0, 0, 0, 0, 1, 0, 0, 0, 0, 0, 1,0.0,0.0,0.0,0.0,0.0,0.0,0.0,0.0,0.0,0.0,0.0,0.0,0.0,51,hbase\src\main\java\org\apache\metamodel\hbase\HBaseConfiguration.java,0,0,0,0
org.apache.metamodel.hbase.HBaseDataContext, 0, 0, 0, 0, 0, 0, 0, 0, 0, 0, 0, 0, 0, 0,0.0,0.0,0.0,0.0,0.0,0.0,0.0,0.1111111111111111,0.0,0.0,0.0,0.0,0.0,141,hbase\src\main\java\org\apache\metamodel\hbase\HBaseDataContext.java,0,1,0,1
org.apache.metamodel.hbase.HBaseDataContextTest, 0, 0, 0, 0, 0, 0, 0, 0, 0, 0, 0, 0, 0, 0,0.0,0.0,0.0,0.0,0.0,0.0,0.0,0.3333333333333333,0.0,0.0,0.0,0.0,0.0,117,hbase\src\test\java\org\apache\metamodel\hbase\HBaseDataContextTest.java,0,0,0,0
org.apache.metamodel.hbase.HBaseDataSet, 0, 0, 0, 0, 0, 0, 0, 0, 0, 0, 0, 0, 0, 0,0.0,0.0,0.0,0.0,0.0,0.0,0.0,0.0,0.0,0.0,0.0,0.0,0.0,38,hbase\src\main\java\org\apache\metamodel\hbase\HBaseDataSet.java,0,0,0,0
org.apache.metamodel.hbase.HBaseTable, 0, 0, 0, 0, 0, 0, 0, 0, 0, 0, 0, 0, 0, 0,0.0,0.0,0.0,0.3333333333333333,0.0,0.0,0.0,0.16666666666666666,0.0,0.0,0.0,0.0,0.0,74,hbase\src\main\java\org\apache\metamodel\hbase\HBaseTable.java,0,0,0,0
org.apache.metamodel.insert.AbstractInsertBuilderTest, 0, 0, 0, 0, 0, 0, 0, 0, 0, 0, 0, 0, 0, 0,0.0,0.0,0.0,0.6666666666666666,0.0,0.0,0.0,0.3333333333333333,0.0,0.0,0.0,0.0,0.0,51,core\src\test\java\org\apache\metamodel\insert\AbstractInsertBuilderTest.java,0,0,0,0
org.apache.metamodel.insert.InsertInto, 0, 0, 0, 0, 0, 0, 0, 0, 0, 0, 0, 0, 0, 0,0.0,0.0,0.0,0.5,0.0,0.0,0.0,0.0,0.0,0.0,0.0,0.0,0.0,32,core\src\main\java\org\apache\metamodel\insert\InsertInto.java,0,0,0,0
org.apache.metamodel.insert.RowInsertable, 0, 0, 0, 0, 0, 0, 0, 0, 0, 0, 0, 0, 0, 0,0.0,0.0,0.0,0.0,0.0,0.0,0.0,0.0,0.0,0.0,0.0,0.0,0.0,32,core\src\main\java\org\apache\metamodel\insert\RowInsertable.java,0,0,0,0
org.apache.metamodel.insert.RowInsertionBuilder, 0, 0, 0, 0, 0, 0, 0, 0, 0, 0, 0, 0, 0, 0,0.0,0.0,0.0,0.0,0.0,0.0,0.0,0.0,0.0,0.0,0.0,0.0,0.0,32,core\src\main\java\org\apache\metamodel\insert\RowInsertionBuilder.java,0,0,0,0
org.apache.metamodel.insert.SyntaxExamplesTest, 0, 0, 0, 0, 0, 0, 0, 0, 0, 0, 0, 0, 0, 0,0.0,0.0,0.0,0.0,0.0,0.0,0.0,0.0,0.0,0.0,0.0,0.0,0.0,13,core\src\test\java\org\apache\metamodel\insert\SyntaxExamplesTest.java,0,0,0,0
org.apache.metamodel.intercept.DataSetInterceptor, 0, 0, 0, 0, 0, 0, 0, 0, 0, 0, 0, 0, 0, 0,0.0,0.0,0.0,0.0,0.0,0.0,0.0,0.0,0.0,0.0,0.0,0.0,0.0,13,core\src\main\java\org\apache\metamodel\intercept\DataSetInterceptor.java,0,0,0,0
org.apache.metamodel.intercept.InterceptableColumnCreationBuilder, 0, 0, 0, 0, 0, 0, 0, 0, 0, 0, 0, 0, 0, 0,0.0,0.0,0.0,0.0,0.0,0.0,0.0,0.0,0.0,0.0,0.0,0.0,0.0,61,core\src\main\java\org\apache\metamodel\intercept\InterceptableColumnCreationBuilder.java,0,0,0,0
org.apache.metamodel.intercept.InterceptableDataContext, 0, 0, 0, 1, 0, 0, 0, 0, 0, 0, 0, 0, 0, 1,0.0,0.0,0.0,0.0,0.0,0.0,0.0,0.2222222222222222,0.0,0.0,0.0,0.0,0.0,202,core\src\main\java\org\apache\metamodel\intercept\InterceptableDataContext.java,0,0,0,0
org.apache.metamodel.intercept.InterceptableDataContextTest, 0, 0, 0, 0, 0, 0, 0, 0, 0, 0, 0, 0, 0, 0,0.0,0.0,0.0,0.5,0.0,0.0,0.0,0.0,0.0,0.0,0.0,0.0,0.0,65,core\src\test\java\org\apache\metamodel\intercept\InterceptableDataContextTest.java,0,0,0,0
org.apache.metamodel.intercept.InterceptableRowDeletionBuilder, 0, 0, 0, 0, 0, 0, 0, 0, 0, 0, 0, 0, 0, 0,0.0,0.0,0.0,0.0,0.0,0.0,0.0,0.5,0.0,0.0,0.0,0.0,0.0,48,core\src\main\java\org\apache\metamodel\intercept\InterceptableRowDeletionBuilder.java,0,0,0,0
org.apache.metamodel.intercept.InterceptableRowInsertionBuilder, 0, 0, 0, 0, 0, 0, 0, 0, 0, 0, 0, 0, 0, 0,0.0,0.0,0.0,0.0,0.0,0.0,0.0,0.5,0.0,0.0,0.0,0.0,0.0,69,core\src\main\java\org\apache\metamodel\intercept\InterceptableRowInsertionBuilder.java,0,0,0,0
org.apache.metamodel.intercept.InterceptableRowUpdationBuilder, 0, 0, 0, 0, 0, 0, 0, 0, 0, 0, 0, 0, 0, 0,0.0,0.0,0.0,0.0,0.0,0.0,0.0,0.5,0.0,0.0,0.0,0.0,0.0,87,core\src\main\java\org\apache\metamodel\intercept\InterceptableRowUpdationBuilder.java,0,0,0,0
org.apache.metamodel.intercept.InterceptableTableCreationBuilder, 0, 0, 0, 0, 0, 0, 0, 0, 0, 0, 0, 0, 0, 0,0.0,0.0,0.0,0.0,0.0,0.0,0.0,0.3333333333333333,0.0,0.0,0.0,0.0,0.0,37,core\src\main\java\org\apache\metamodel\intercept\InterceptableTableCreationBuilder.java,0,0,0,0
org.apache.metamodel.intercept.InterceptableTableDropBuilder, 0, 0, 0, 0, 0, 0, 0, 0, 0, 0, 0, 0, 0, 0,0.0,0.0,0.0,0.0,0.0,0.0,0.0,0.5,0.0,0.0,0.0,0.0,0.0,23,core\src\main\java\org\apache\metamodel\intercept\InterceptableTableDropBuilder.java,0,0,0,0
org.apache.metamodel.intercept.InterceptableUpdateCallback, 0, 0, 0, 0, 0, 0, 0, 1, 0, 0, 0, 0, 0, 1,0.0,0.0,0.0,0.1111111111111111,0.0,0.0,0.0,0.1111111111111111,0.0,0.0,0.0,0.0,0.0,83,core\src\main\java\org\apache\metamodel\intercept\InterceptableUpdateCallback.java,0,0,0,0
org.apache.metamodel.intercept.InterceptableUpdateScript, 0, 0, 0, 0, 0, 0, 0, 1, 0, 0, 0, 0, 0, 1,0.0,0.0,0.0,0.3333333333333333,0.0,0.0,0.0,0.3333333333333333,0.0,0.0,0.0,0.0,0.0,30,core\src\main\java\org\apache\metamodel\intercept\InterceptableUpdateScript.java,0,0,0,0
org.apache.metamodel.intercept.InterceptionCsvIntegrationTest, 0, 0, 0, 0, 0, 0, 0, 0, 0, 0, 0, 0, 0, 0,0.0,0.0,0.0,0.5,0.0,0.0,0.0,0.0,0.0,0.0,0.0,0.0,0.0,44,csv\src\test\java\org\apache\metamodel\intercept\InterceptionCsvIntegrationTest.java,0,0,0,0
org.apache.metamodel.intercept.Interceptor, 0, 0, 0, 0, 0, 0, 0, 0, 0, 0, 0, 0, 0, 0,0.0,0.0,0.0,0.0,0.0,0.0,0.0,0.0,0.0,0.0,0.0,0.0,0.0,44,core\src\main\java\org\apache\metamodel\intercept\Interceptor.java,0,0,0,0
org.apache.metamodel.intercept.InterceptorList, 0, 0, 0, 0, 0, 0, 0, 0, 0, 0, 0, 0, 0, 0,0.0,0.0,0.0,0.1111111111111111,0.0,0.0,0.0,0.2222222222222222,0.0,0.0,0.0,0.0,0.0,29,core\src\main\java\org\apache\metamodel\intercept\InterceptorList.java,0,0,0,0
org.apache.metamodel.intercept.InterceptorListTest, 0, 0, 0, 0, 0, 0, 0, 0, 0, 0, 0, 0, 0, 0,0.0,0.0,0.0,0.25,0.0,0.0,0.0,0.0,0.0,0.0,0.0,0.0,0.0,26,core\src\test\java\org\apache\metamodel\intercept\InterceptorListTest.java,0,0,0,0
org.apache.metamodel.intercept.Interceptors, 0, 0, 0, 0, 0, 0, 0, 0, 0, 0, 0, 0, 0, 0,0.0,0.0,0.0,0.25,0.0,0.0,0.0,0.0,0.0,0.0,0.0,0.0,0.0,10,core\src\main\java\org\apache\metamodel\intercept\Interceptors.java,0,0,0,0
org.apache.metamodel.intercept.InterceptorsTest, 0, 0, 0, 0, 0, 0, 0, 0, 0, 0, 0, 0, 0, 0,0.0,0.0,0.0,0.0,0.0,0.0,0.0,0.0,0.0,0.0,0.0,0.0,0.0,8,core\src\test\java\org\apache\metamodel\intercept\InterceptorsTest.java,0,0,0,0
org.apache.metamodel.intercept.QueryInterceptor, 0, 0, 0, 0, 0, 0, 0, 0, 0, 0, 0, 0, 0, 0,0.0,0.0,0.0,0.0,0.0,0.0,0.0,0.0,0.0,0.0,0.0,0.0,0.0,8,core\src\main\java\org\apache\metamodel\intercept\QueryInterceptor.java,0,0,0,0
org.apache.metamodel.intercept.RowDeletionInterceptor, 0, 0, 0, 0, 0, 0, 0, 0, 0, 0, 0, 0, 0, 0,0.0,0.0,0.0,0.0,0.0,0.0,0.0,0.0,0.0,0.0,0.0,0.0,0.0,8,core\src\main\java\org\apache\metamodel\intercept\RowDeletionInterceptor.java,0,0,0,0
org.apache.metamodel.intercept.RowInsertionInterceptor, 0, 0, 0, 0, 0, 0, 0, 0, 0, 0, 0, 0, 0, 0,0.0,0.0,0.0,0.0,0.0,0.0,0.0,0.0,0.0,0.0,0.0,0.0,0.0,8,core\src\main\java\org\apache\metamodel\intercept\RowInsertionInterceptor.java,0,0,0,0
org.apache.metamodel.intercept.RowUpdationInterceptor, 0, 0, 0, 0, 0, 0, 0, 0, 0, 0, 0, 0, 0, 0,0.0,0.0,0.0,0.0,0.0,0.0,0.0,0.0,0.0,0.0,0.0,0.0,0.0,8,core\src\main\java\org\apache\metamodel\intercept\RowUpdationInterceptor.java,0,0,0,0
org.apache.metamodel.intercept.SchemaInterceptor, 0, 0, 0, 0, 0, 0, 0, 0, 0, 0, 0, 0, 0, 0,0.0,0.0,0.0,0.0,0.0,0.0,0.0,0.0,0.0,0.0,0.0,0.0,0.0,8,core\src\main\java\org\apache\metamodel\intercept\SchemaInterceptor.java,0,0,0,0
org.apache.metamodel.intercept.TableCreationInterceptor, 0, 0, 0, 0, 0, 0, 0, 0, 0, 0, 0, 0, 0, 0,0.0,0.0,0.0,0.0,0.0,0.0,0.0,0.0,0.0,0.0,0.0,0.0,0.0,8,core\src\main\java\org\apache\metamodel\intercept\TableCreationInterceptor.java,0,0,0,0
org.apache.metamodel.intercept.TableDropInterceptor, 0, 0, 0, 0, 0, 0, 0, 0, 0, 0, 0, 0, 0, 0,0.0,0.0,0.0,0.0,0.0,0.0,0.0,0.0,0.0,0.0,0.0,0.0,0.0,8,core\src\main\java\org\apache\metamodel\intercept\TableDropInterceptor.java,0,0,0,0
org.apache.metamodel.jdbc.DerbyTest, 0, 0, 0, 0, 0, 0, 0, 0, 0, 0, 0, 0, 0, 0,0.0,0.0,0.0,0.3333333333333333,0.0,0.0,0.0,0.3333333333333333,0.0,0.0,0.0,0.0,0.0,282,jdbc\src\test\java\org\apache\metamodel\jdbc\DerbyTest.java,0,0,0,0
org.apache.metamodel.jdbc.FetchSizeCalculator, 0, 0, 0, 0, 0, 0, 0, 0, 0, 0, 0, 0, 0, 0,0.0,0.0,0.0,0.5,0.0,0.0,0.0,0.16666666666666666,0.0,0.0,0.0,0.0,0.0,131,jdbc\src\main\java\org\apache\metamodel\jdbc\FetchSizeCalculator.java,0,0,0,0
org.apache.metamodel.jdbc.FetchSizeCalculatorTest, 0, 0, 0, 0, 0, 0, 0, 0, 0, 0, 0, 0, 0, 0,0.0,0.0,0.0,0.6666666666666666,0.0,0.0,0.0,0.3333333333333333,0.0,0.0,0.0,0.0,0.0,80,jdbc\src\test\java\org\apache\metamodel\jdbc\FetchSizeCalculatorTest.java,0,0,0,0
org.apache.metamodel.jdbc.FilteredDataSetTest, 0, 0, 0, 0, 0, 0, 0, 0, 0, 0, 0, 0, 0, 0,0.0,0.0,0.0,0.3333333333333333,0.0,0.0,0.0,0.3333333333333333,0.0,0.0,0.0,0.0,0.0,35,jdbc\src\test\java\org\apache\metamodel\jdbc\FilteredDataSetTest.java,0,0,0,0
org.apache.metamodel.jdbc.H2databaseTest, 0, 0, 0, 1, 0, 0, 0, 0, 0, 0, 0, 0, 0, 1,0.0,0.0,0.0,0.1,0.0,0.0,0.0,0.1,0.0,0.0,0.0,0.0,0.0,371,jdbc\src\test\java\org\apache\metamodel\jdbc\H2databaseTest.java,0,0,0,0
org.apache.metamodel.jdbc.HsqldbTest, 0, 0, 0, 1, 0, 0, 0, 0, 0, 0, 0, 0, 0, 1,0.0,0.0,0.0,0.3333333333333333,0.0,0.0,0.0,0.3333333333333333,0.0,0.0,0.0,0.0,0.0,279,jdbc\src\test\java\org\apache\metamodel\jdbc\HsqldbTest.java,0,0,0,0
org.apache.metamodel.jdbc.JdbcBatchUpdateCallback, 0, 0, 0, 0, 0, 0, 0, 0, 0, 0, 0, 0, 0, 0,0.0,0.0,0.0,1.0,0.0,0.0,0.0,0.5,0.0,0.0,0.0,0.0,0.0,37,jdbc\src\main\java\org\apache\metamodel\jdbc\JdbcBatchUpdateCallback.java,0,0,0,0
org.apache.metamodel.jdbc.JdbcColumn, 0, 0, 0, 0, 0, 0, 0, 1, 0, 0, 0, 0, 0, 1,0.0,0.0,0.0,0.5,0.0,0.0,0.0,0.5,0.0,0.0,0.0,0.0,0.0,21,jdbc\src\main\java\org\apache\metamodel\jdbc\JdbcColumn.java,0,0,0,0
org.apache.metamodel.jdbc.JdbcColumnTest, 0, 0, 0, 0, 0, 0, 0, 0, 0, 0, 0, 0, 0, 0,0.0,0.0,0.0,0.25,0.0,0.0,0.0,0.25,0.0,0.0,0.0,0.0,0.0,25,jdbc\src\test\java\org\apache\metamodel\jdbc\JdbcColumnTest.java,0,0,0,0
org.apache.metamodel.jdbc.JdbcCompiledQuery, 0, 0, 0, 0, 0, 0, 0, 0, 0, 0, 0, 0, 0, 0,0.0,0.0,0.0,0.14285714285714285,0.0,0.0,0.0,0.2857142857142857,0.0,0.0,0.0,0.0,0.0,99,jdbc\src\main\java\org\apache\metamodel\jdbc\JdbcCompiledQuery.java,0,0,0,0
org.apache.metamodel.jdbc.JdbcCompiledQueryLease, 0, 0, 0, 0, 0, 0, 0, 0, 0, 0, 0, 0, 0, 0,0.0,0.0,0.0,0.25,0.0,0.0,0.0,0.5,0.0,0.0,0.0,0.0,0.0,14,jdbc\src\main\java\org\apache\metamodel\jdbc\JdbcCompiledQueryLease.java,0,0,0,0
org.apache.metamodel.jdbc.JdbcCompiledQueryLeaseFactory, 0, 0, 0, 0, 0, 0, 0, 0, 0, 0, 0, 0, 0, 0,0.0,0.0,0.0,0.3333333333333333,0.0,0.0,0.0,0.3333333333333333,0.0,0.0,0.0,0.0,0.0,34,jdbc\src\main\java\org\apache\metamodel\jdbc\JdbcCompiledQueryLeaseFactory.java,0,0,0,0
org.apache.metamodel.jdbc.JdbcDataContext, 0, 0, 0, 1, 0, 0, 0, 1, 0, 0, 0, 0, 0, 2,0.0,0.0,0.0,0.11363636363636363,0.0,0.022727272727272728,0.0,0.06818181818181818,0.0,0.0,0.0,0.0,0.0,533,jdbc\src\main\java\org\apache\metamodel\jdbc\JdbcDataContext.java,0,0,0,0
org.apache.metamodel.jdbc.JdbcDataContextTest, 0, 0, 0, 0, 0, 0, 0, 0, 0, 0, 0, 0, 0, 0,0.0,0.0,0.0,0.2,0.0,0.0,0.0,0.2,0.0,0.0,0.0,0.0,0.0,473,jdbc\src\test\java\org\apache\metamodel\jdbc\JdbcDataContextTest.java,0,0,0,0
org.apache.metamodel.jdbc.JdbcDataSet, 0, 0, 0, 0, 0, 0, 0, 1, 0, 0, 0, 0, 0, 1,0.0,0.0,0.0,0.2,0.0,0.0,0.0,0.2,0.0,0.0,0.0,0.0,0.0,131,jdbc\src\main\java\org\apache\metamodel\jdbc\JdbcDataSet.java,0,0,0,0
org.apache.metamodel.jdbc.JdbcDeleteBuilderTest, 0, 0, 0, 0, 0, 0, 0, 0, 0, 0, 0, 0, 0, 0,0.0,0.0,0.0,0.2,0.0,0.0,0.0,0.2,0.0,0.0,0.0,0.0,0.0,52,jdbc\src\test\java\org\apache\metamodel\jdbc\JdbcDeleteBuilderTest.java,0,0,0,0
org.apache.metamodel.jdbc.JdbcDropTableBuilder, 0, 0, 0, 0, 0, 0, 0, 0, 0, 0, 0, 0, 0, 0,0.0,0.0,0.0,0.3333333333333333,0.0,0.0,0.0,0.0,0.0,0.0,0.0,0.0,0.0,29,jdbc\src\main\java\org\apache\metamodel\jdbc\JdbcDropTableBuilder.java,0,0,0,0
org.apache.metamodel.jdbc.JdbcInsertBuilderTest, 0, 0, 0, 0, 0, 0, 0, 0, 0, 0, 0, 0, 0, 0,0.0,0.0,0.0,0.2,0.0,0.0,0.0,0.2,0.0,0.0,0.0,0.0,0.0,47,jdbc\src\test\java\org\apache\metamodel\jdbc\JdbcInsertBuilderTest.java,0,0,0,0
org.apache.metamodel.jdbc.JdbcSchema, 0, 0, 0, 0, 0, 0, 0, 0, 0, 0, 0, 0, 0, 0,0.0,0.0,0.0,0.3333333333333333,0.0,0.0,0.0,0.16666666666666666,0.0,0.0,0.0,0.0,0.0,37,jdbc\src\main\java\org\apache\metamodel\jdbc\JdbcSchema.java,0,0,0,0
org.apache.metamodel.jdbc.JdbcSchemaTest, 0, 0, 0, 0, 0, 0, 0, 0, 0, 0, 0, 0, 0, 0,0.0,0.0,0.0,0.3333333333333333,0.0,0.0,0.0,0.3333333333333333,0.0,0.0,0.0,0.0,0.0,50,jdbc\src\test\java\org\apache\metamodel\jdbc\JdbcSchemaTest.java,0,0,0,0
org.apache.metamodel.jdbc.JdbcSimpleUpdateCallback, 0, 0, 0, 0, 0, 0, 0, 0, 0, 0, 0, 0, 0, 0,0.0,0.0,0.0,0.4,0.0,0.0,0.0,0.2,0.0,0.0,0.0,0.0,0.0,13,jdbc\src\main\java\org\apache\metamodel\jdbc\JdbcSimpleUpdateCallback.java,0,0,0,0
org.apache.metamodel.jdbc.JdbcTable, 0, 0, 0, 0, 0, 0, 0, 0, 0, 0, 0, 0, 0, 0,0.0,0.0,0.0,0.3333333333333333,0.0,0.0,0.0,0.3333333333333333,0.0,0.0,0.0,0.0,0.0,38,jdbc\src\main\java\org\apache\metamodel\jdbc\JdbcTable.java,0,0,0,0
org.apache.metamodel.jdbc.JdbcTestCase, 0, 0, 0, 0, 0, 0, 0, 0, 0, 0, 0, 0, 0, 0,0.0,0.0,0.0,0.0,0.0,0.0,0.0,0.0,0.0,0.0,0.0,0.0,0.0,22,jdbc\src\test\java\org\apache\metamodel\jdbc\JdbcTestCase.java,0,0,0,0
org.apache.metamodel.jdbc.JdbcUpdateBuilderTest, 0, 0, 0, 0, 0, 0, 0, 0, 0, 0, 0, 0, 0, 0,0.0,0.0,0.0,0.2,0.0,0.0,0.0,0.2,0.0,0.0,0.0,0.0,0.0,65,jdbc\src\test\java\org\apache\metamodel\jdbc\JdbcUpdateBuilderTest.java,0,0,0,0
org.apache.metamodel.jdbc.JdbcUpdateCallback, 0, 0, 0, 1, 0, 0, 0, 0, 0, 0, 0, 0, 0, 1,0.0,0.0,0.0,0.16666666666666666,0.0,0.0,0.0,0.16666666666666666,0.0,0.0,0.0,0.0,0.0,156,jdbc\src\main\java\org\apache\metamodel\jdbc\JdbcUpdateCallback.java,0,0,0,0
org.apache.metamodel.jdbc.JdbcUtilsTest, 0, 0, 0, 0, 0, 0, 0, 0, 0, 0, 0, 0, 0, 0,0.0,0.0,0.0,0.0,0.0,0.0,0.0,0.0,0.0,0.0,0.0,0.0,0.0,17,jdbc\src\test\java\org\apache\metamodel\jdbc\JdbcUtilsTest.java,0,0,0,0
org.apache.metamodel.jdbc.MetadataLoader, 0, 0, 0, 0, 0, 0, 0, 0, 0, 0, 0, 0, 0, 0,0.0,0.0,0.0,0.0,0.0,0.0,0.0,0.0,0.0,0.0,0.0,0.0,0.0,17,jdbc\src\main\java\org\apache\metamodel\jdbc\MetadataLoader.java,0,0,0,0
org.apache.metamodel.jdbc.QuerySplitter, 0, 0, 0, 1, 0, 0, 0, 0, 0, 0, 0, 0, 0, 1,0.0,0.0,0.0,0.2,0.0,0.0,0.0,0.0,0.0,0.0,0.0,0.0,0.0,230,jdbc\src\main\java\org\apache\metamodel\jdbc\QuerySplitter.java,0,0,0,0
org.apache.metamodel.jdbc.QuerySplitterTest, 0, 0, 0, 0, 0, 0, 0, 0, 0, 0, 0, 0, 0, 0,0.0,0.0,0.0,0.6666666666666666,0.0,0.0,0.0,0.3333333333333333,0.0,0.0,0.0,0.0,0.0,163,jdbc\src\test\java\org\apache\metamodel\jdbc\QuerySplitterTest.java,0,0,0,0
org.apache.metamodel.jdbc.SplitQueriesDataSet, 0, 0, 0, 0, 0, 0, 0, 0, 0, 0, 0, 0, 0, 0,0.0,0.0,0.0,0.5,0.0,0.0,0.0,0.0,0.0,0.0,0.0,0.0,0.0,59,jdbc\src\main\java\org\apache\metamodel\jdbc\SplitQueriesDataSet.java,0,0,0,0
org.apache.metamodel.jdbc.SqlKeywords, 0, 0, 0, 0, 0, 0, 0, 0, 0, 0, 0, 0, 0, 0,0.0,0.0,0.0,1.0,0.0,0.0,0.0,0.0,0.0,0.0,0.0,0.0,0.0,25,jdbc\src\main\java\org\apache\metamodel\jdbc\SqlKeywords.java,0,0,0,0
org.apache.metamodel.jdbc.SqliteTest, 0, 0, 0, 0, 0, 0, 0, 0, 0, 0, 0, 0, 0, 0,0.0,0.0,0.0,0.5,0.0,0.0,0.0,0.5,0.0,0.0,0.0,0.0,0.0,169,jdbc\src\test\java\org\apache\metamodel\jdbc\SqliteTest.java,0,0,0,0
org.apache.metamodel.jdbc.dialects.DefaultQueryRewriter, 0, 0, 0, 0, 0, 0, 0, 0, 0, 0, 0, 0, 0, 0,0.0,0.0,0.0,0.1,0.0,0.0,0.0,0.1,0.0,0.0,0.0,0.0,0.0,106,jdbc\src\main\java\org\apache\metamodel\jdbc\dialects\DefaultQueryRewriter.java,0,0,0,0
org.apache.metamodel.jdbc.dialects.H2QueryRewriter, 0, 0, 0, 0, 0, 1, 0, 0, 0, 0, 0, 0, 0, 1,0.0,0.0,0.0,0.5,0.0,0.0,0.0,0.5,0.0,0.0,0.0,0.0,0.0,5,jdbc\src\main\java\org\apache\metamodel\jdbc\dialects\H2QueryRewriter.java,0,0,0,0
org.apache.metamodel.jdbc.dialects.HsqldbQueryRewriter, 0, 0, 0, 0, 0, 0, 0, 0, 0, 0, 0, 0, 0, 0,0.0,0.0,0.0,0.5,0.0,0.0,0.0,0.5,0.0,0.0,0.0,0.0,0.0,60,jdbc\src\main\java\org\apache\metamodel\jdbc\dialects\HsqldbQueryRewriter.java,0,0,0,0
org.apache.metamodel.jdbc.dialects.IQueryRewriter, 0, 0, 0, 0, 0, 0, 0, 0, 0, 0, 0, 0, 0, 0,0.0,0.0,0.0,0.0,0.0,0.0,0.0,0.0,0.0,0.0,0.0,0.0,0.0,60,jdbc\src\main\java\org\apache\metamodel\jdbc\dialects\IQueryRewriter.java,0,0,0,0
org.apache.metamodel.jdbc.dialects.LimitOffsetQueryRewriter, 0, 0, 0, 0, 0, 0, 0, 0, 0, 0, 0, 0, 0, 0,0.0,0.0,0.0,0.14285714285714285,0.0,0.14285714285714285,0.0,0.14285714285714285,0.0,0.0,0.0,0.0,0.0,30,jdbc\src\main\java\org\apache\metamodel\jdbc\dialects\LimitOffsetQueryRewriter.java,0,0,0,0
org.apache.metamodel.jdbc.dialects.MysqlQueryRewriter, 0, 0, 0, 0, 0, 0, 0, 0, 0, 0, 0, 0, 0, 0,0.0,0.0,0.0,0.25,0.0,0.0,0.0,0.25,0.0,0.0,0.0,0.0,0.0,21,jdbc\src\main\java\org\apache\metamodel\jdbc\dialects\MysqlQueryRewriter.java,0,0,0,0
org.apache.metamodel.jdbc.dialects.OracleQueryRewriter, 0, 0, 0, 0, 0, 0, 0, 0, 0, 0, 0, 0, 0, 0,0.0,0.0,0.0,0.5,0.0,0.0,0.0,0.5,0.0,0.0,0.0,0.0,0.0,39,jdbc\src\main\java\org\apache\metamodel\jdbc\dialects\OracleQueryRewriter.java,0,0,0,0
org.apache.metamodel.jdbc.dialects.PostgresqlQueryRewriter, 0, 0, 0, 0, 0, 0, 0, 0, 0, 0, 0, 0, 0, 0,0.0,0.0,0.0,0.25,0.0,0.0,0.0,0.25,0.0,0.0,0.0,0.0,0.0,36,jdbc\src\main\java\org\apache\metamodel\jdbc\dialects\PostgresqlQueryRewriter.java,0,3,0,3
org.apache.metamodel.jdbc.integrationtests.DB2Test, 0, 0, 0, 0, 0, 0, 0, 0, 0, 0, 0, 0, 0, 0,0.0,0.0,0.0,1.0,0.0,0.0,0.0,1.0,0.0,0.0,0.0,0.0,0.0,84,jdbc\src\test\java\org\apache\metamodel\jdbc\integrationtests\DB2Test.java,0,0,0,0
org.apache.metamodel.jdbc.integrationtests.FirebirdTest, 0, 0, 0, 0, 0, 0, 0, 0, 0, 0, 0, 0, 0, 0,0.0,0.0,0.0,0.5,0.0,0.0,0.0,0.5,0.0,0.0,0.0,0.0,0.0,66,jdbc\src\test\java\org\apache\metamodel\jdbc\integrationtests\FirebirdTest.java,0,0,0,0
org.apache.metamodel.jdbc.integrationtests.MysqlTest, 0, 0, 0, 0, 0, 0, 0, 0, 0, 0, 0, 0, 0, 0,0.0,0.0,0.0,0.6666666666666666,0.0,0.0,0.0,0.3333333333333333,0.0,0.0,0.0,0.0,0.0,305,jdbc\src\test\java\org\apache\metamodel\jdbc\integrationtests\MysqlTest.java,0,0,0,0
org.apache.metamodel.jdbc.integrationtests.OracleTest, 0, 0, 0, 0, 0, 0, 0, 0, 0, 0, 0, 0, 0, 0,0.0,0.0,0.0,0.5,0.0,0.0,0.0,0.5,0.0,0.0,0.0,0.0,0.0,149,jdbc\src\test\java\org\apache\metamodel\jdbc\integrationtests\OracleTest.java,0,0,0,0
org.apache.metamodel.jdbc.integrationtests.PostgresqlTest, 0, 0, 0, 1, 0, 0, 0, 0, 0, 0, 0, 0, 0, 1,0.0,0.0,0.0,0.6666666666666666,0.0,0.0,0.0,0.3333333333333333,0.0,0.0,0.0,0.0,0.0,711,jdbc\src\test\java\org\apache\metamodel\jdbc\integrationtests\PostgresqlTest.java,0,48,0,48
org.apache.metamodel.jdbc.integrationtests.SQLServerJtdsDriverTest, 0, 0, 0, 0, 0, 0, 0, 0, 0, 0, 0, 0, 0, 0,0.0,0.0,0.0,0.5,0.0,0.0,0.0,0.5,0.0,0.0,0.0,0.0,0.0,182,jdbc\src\test\java\org\apache\metamodel\jdbc\integrationtests\SQLServerJtdsDriverTest.java,0,0,0,0
org.apache.metamodel.jdbc.integrationtests.SQLServerMicrosoftDriverTest, 0, 0, 0, 0, 0, 0, 0, 0, 0, 0, 0, 0, 0, 0,0.0,0.0,0.0,1.0,0.0,0.0,0.0,1.0,0.0,0.0,0.0,0.0,0.0,93,jdbc\src\test\java\org\apache\metamodel\jdbc\integrationtests\SQLServerMicrosoftDriverTest.java,0,0,0,0
org.apache.metamodel.json.JsonDataContext, 0, 0, 0, 0, 0, 0, 0, 0, 0, 0, 0, 0, 0, 0,0.0,0.0,0.0,0.125,0.0,0.0,0.0,0.125,0.0,0.0,0.0,0.0,0.0,56,json\src\main\java\org\apache\metamodel\json\JsonDataContext.java,0,0,0,0
org.apache.metamodel.json.JsonDataContextTest, 0, 0, 0, 0, 0, 0, 0, 0, 0, 0, 0, 0, 0, 0,0.0,0.0,0.0,0.0,0.0,0.0,0.0,0.0,0.0,0.0,0.0,0.0,0.0,54,json\src\test\java\org\apache\metamodel\json\JsonDataContextTest.java,0,0,0,0
org.apache.metamodel.mongodb.DefaultWriteConcernAdvisor, 0, 0, 0, 0, 0, 1, 0, 0, 0, 0, 0, 0, 0, 1,0.0,0.0,0.0,0.0,0.0,0.0,0.0,0.0,0.0,0.0,0.0,0.0,0.0,5,mongodb\src\main\java\org\apache\metamodel\mongodb\DefaultWriteConcernAdvisor.java,0,0,0,0
org.apache.metamodel.mongodb.MongoDbDataCopyer, 0, 0, 0, 0, 0, 0, 0, 1, 0, 0, 0, 0, 0, 1,0.0,0.0,0.0,1.0,0.0,0.0,0.0,1.0,0.0,0.0,0.0,0.0,0.0,67,mongodb\src\test\java\org\apache\metamodel\mongodb\MongoDbDataCopyer.java,0,0,0,0
org.apache.metamodel.mongodb.MongoDbDataSet, 0, 0, 0, 0, 0, 0, 0, 0, 0, 0, 0, 0, 0, 0,0.0,0.0,0.0,0.0,0.0,0.0,0.0,0.0,0.0,0.0,0.0,0.0,0.0,44,mongodb\src\main\java\org\apache\metamodel\mongodb\MongoDbDataSet.java,0,0,0,0
org.apache.metamodel.mongodb.MongoDbDeleteBuilder, 0, 0, 0, 0, 0, 0, 0, 0, 0, 0, 0, 0, 0, 0,0.0,0.0,0.0,0.0,0.0,0.0,0.0,0.0,0.0,0.0,0.0,0.0,0.0,17,mongodb\src\main\java\org\apache\metamodel\mongodb\MongoDbDeleteBuilder.java,0,0,0,0
org.apache.metamodel.mongodb.MongoDbDropTableBuilder, 0, 0, 0, 0, 0, 0, 0, 0, 0, 0, 0, 0, 0, 0,0.0,0.0,0.0,0.0,0.0,0.0,0.0,0.0,0.0,0.0,0.0,0.0,0.0,14,mongodb\src\main\java\org\apache\metamodel\mongodb\MongoDbDropTableBuilder.java,0,0,0,0
org.apache.metamodel.mongodb.MongoDbInsertionBuilder, 0, 0, 0, 0, 0, 0, 0, 0, 0, 0, 0, 0, 0, 0,0.0,0.0,0.0,0.0,0.0,0.0,0.0,0.0,0.0,0.0,0.0,0.0,0.0,23,mongodb\src\main\java\org\apache\metamodel\mongodb\MongoDbInsertionBuilder.java,0,0,0,0
org.apache.metamodel.mongodb.MongoDbTableCreationBuilder, 0, 0, 0, 0, 0, 0, 0, 0, 0, 0, 0, 0, 0, 0,0.0,0.0,0.0,1.0,0.0,0.0,0.0,0.5,0.0,0.0,0.0,0.0,0.0,25,mongodb\src\main\java\org\apache\metamodel\mongodb\MongoDbTableCreationBuilder.java,0,0,0,0
org.apache.metamodel.mongodb.MongoDbTableDef, 0, 0, 0, 0, 0, 0, 0, 0, 0, 0, 0, 0, 0, 0,0.0,0.0,0.0,0.0,0.0,0.0,0.0,0.0,0.0,0.0,0.0,0.0,0.0,9,mongodb\src\main\java\org\apache\metamodel\mongodb\MongoDbTableDef.java,0,0,0,0
org.apache.metamodel.mongodb.SimpleWriteConcernAdvisor, 0, 0, 0, 0, 0, 0, 0, 0, 0, 0, 0, 0, 0, 0,0.0,0.0,0.0,0.0,0.0,1.0,0.0,0.0,0.0,0.0,0.0,0.0,0.0,17,mongodb\src\main\java\org\apache\metamodel\mongodb\SimpleWriteConcernAdvisor.java,0,0,0,0
org.apache.metamodel.mongodb.WriteConcernAdvisor, 0, 0, 0, 0, 0, 0, 0, 0, 0, 0, 0, 0, 0, 0,0.0,0.0,0.0,0.0,0.0,0.0,0.0,0.0,0.0,0.0,0.0,0.0,0.0,17,mongodb\src\main\java\org\apache\metamodel\mongodb\WriteConcernAdvisor.java,0,0,0,0
org.apache.metamodel.openoffice.OpenOfficeDataContext, 0, 0, 0, 0, 0, 0, 0, 0, 0, 0, 0, 0, 0, 0,0.0,0.0,0.0,0.5,0.0,0.0,0.0,0.5,0.0,0.0,0.0,0.0,0.0,75,openoffice\src\main\java\org\apache\metamodel\openoffice\OpenOfficeDataContext.java,0,0,0,0
org.apache.metamodel.openoffice.OpenOfficeDataContextTest, 0, 0, 0, 0, 0, 0, 0, 0, 0, 0, 0, 0, 0, 0,0.0,0.0,0.0,0.0,0.0,0.0,0.0,0.0,0.0,0.0,0.0,0.0,0.0,58,openoffice\src\test\java\org\apache\metamodel\openoffice\OpenOfficeDataContextTest.java,0,0,0,0
org.apache.metamodel.pojo.FoobarBean, 0, 0, 0, 0, 0, 0, 0, 0, 0, 0, 0, 0, 0, 0,0.0,0.0,0.0,0.0,0.0,0.0,0.0,0.0,0.0,0.0,0.0,0.0,0.0,31,pojo\src\test\java\org\apache\metamodel\pojo\FoobarBean.java,0,0,0,0
org.apache.metamodel.pojo.MapTableDataProvider, 0, 0, 0, 0, 0, 0, 0, 0, 0, 0, 0, 0, 0, 0,0.0,0.0,0.0,0.0,0.0,0.0,0.0,0.0,0.0,0.0,0.0,0.0,0.0,29,pojo\src\main\java\org\apache\metamodel\pojo\MapTableDataProvider.java,0,0,0,0
org.apache.metamodel.pojo.ObjectTableDataProviderTest, 0, 0, 0, 0, 0, 0, 0, 0, 0, 0, 0, 0, 0, 0,0.0,0.0,0.0,0.0,0.0,0.0,0.0,0.0,0.0,0.0,0.0,0.0,0.0,10,pojo\src\test\java\org\apache\metamodel\pojo\ObjectTableDataProviderTest.java,0,0,0,0
org.apache.metamodel.pojo.Person, 0, 0, 0, 0, 0, 0, 0, 0, 0, 0, 0, 0, 0, 0,0.0,0.0,0.0,0.0,0.0,0.0,0.0,0.0,0.0,0.0,0.0,0.0,0.0,23,pojo\src\test\java\org\apache\metamodel\pojo\Person.java,0,0,0,0
org.apache.metamodel.pojo.PojoDataSet, 0, 0, 0, 0, 0, 0, 0, 0, 0, 0, 0, 0, 0, 0,0.0,0.0,0.0,0.0,0.0,0.0,0.0,0.0,0.0,0.0,0.0,0.0,0.0,34,pojo\src\main\java\org\apache\metamodel\pojo\PojoDataSet.java,0,0,0,0
org.apache.metamodel.query.AverageAggregateBuilder, 0, 0, 1, 0, 0, 0, 0, 0, 0, 0, 0, 0, 0, 1,0.0,0.0,0.0,0.0,0.0,0.0,0.0,0.0,0.0,0.0,0.0,0.0,0.0,14,core\src\main\java\org\apache\metamodel\query\AverageAggregateBuilder.java,0,0,0,0
org.apache.metamodel.query.CompiledQuery, 0, 0, 0, 0, 0, 0, 0, 0, 0, 0, 0, 0, 0, 0,0.0,0.0,0.0,0.0,0.0,0.0,0.0,0.0,0.0,0.0,0.0,0.0,0.0,14,core\src\main\java\org\apache\metamodel\query\CompiledQuery.java,0,0,0,0
org.apache.metamodel.query.CountAggregateBuilder, 0, 0, 0, 0, 0, 0, 0, 0, 0, 0, 0, 0, 0, 0,0.0,0.0,0.0,0.0,0.0,0.0,0.0,0.0,0.0,0.0,0.0,0.0,0.0,13,core\src\main\java\org\apache\metamodel\query\CountAggregateBuilder.java,0,0,0,0
org.apache.metamodel.query.DefaultCompiledQuery, 0, 0, 0, 0, 0, 0, 0, 0, 0, 0, 0, 0, 0, 0,0.0,0.0,0.0,0.3333333333333333,0.0,0.0,0.0,0.3333333333333333,0.0,0.0,0.0,0.0,0.0,117,core\src\main\java\org\apache\metamodel\query\DefaultCompiledQuery.java,0,0,0,0
org.apache.metamodel.query.DefaultCompiledQueryTest, 0, 0, 0, 0, 0, 0, 0, 0, 0, 0, 0, 0, 0, 0,0.0,0.0,0.0,0.6666666666666666,0.0,0.0,0.0,0.3333333333333333,0.0,0.0,0.0,0.0,0.0,48,core\src\test\java\org\apache\metamodel\query\DefaultCompiledQueryTest.java,0,0,0,0
org.apache.metamodel.query.FilterClause, 0, 0, 0, 0, 0, 0, 0, 0, 0, 0, 0, 0, 0, 0,0.0,0.0,0.0,0.0,0.0,0.0,0.0,0.0,0.0,0.0,0.0,0.0,0.0,17,core\src\main\java\org\apache\metamodel\query\FilterClause.java,0,0,0,0
org.apache.metamodel.query.FilterItemTest, 0, 0, 0, 0, 0, 0, 0, 0, 0, 0, 0, 0, 0, 0,0.0,0.0,0.0,0.3333333333333333,0.0,0.0,0.0,0.16666666666666666,0.0,0.0,0.0,0.0,0.0,303,core\src\test\java\org\apache\metamodel\query\FilterItemTest.java,0,0,0,0
org.apache.metamodel.query.FromClause, 0, 0, 0, 0, 0, 0, 0, 0, 0, 0, 0, 0, 0, 0,0.0,0.0,0.0,0.0,0.0,0.0,0.0,0.0,0.0,0.0,0.0,0.0,0.0,50,core\src\main\java\org\apache\metamodel\query\FromClause.java,0,0,0,0
org.apache.metamodel.query.FromClauseTest, 0, 0, 0, 0, 0, 0, 0, 0, 0, 0, 0, 0, 0, 0,0.0,0.0,0.0,0.5,0.0,0.0,0.0,0.0,0.0,0.0,0.0,0.0,0.0,17,core\src\test\java\org\apache\metamodel\query\FromClauseTest.java,0,0,0,0
org.apache.metamodel.query.FromItemTest, 0, 0, 0, 0, 0, 0, 0, 0, 0, 0, 0, 0, 0, 0,0.0,0.0,0.0,1.0,0.0,0.0,0.0,0.0,0.0,0.0,0.0,0.0,0.0,79,core\src\test\java\org\apache\metamodel\query\FromItemTest.java,0,0,0,0
org.apache.metamodel.query.FunctionTypeTest, 0, 0, 0, 0, 0, 0, 0, 0, 0, 0, 0, 0, 0, 0,0.0,0.0,0.0,0.0,0.0,0.0,0.0,0.0,0.0,0.0,0.0,0.0,0.0,17,core\src\test\java\org\apache\metamodel\query\FunctionTypeTest.java,0,0,0,0
org.apache.metamodel.query.GroupByClause, 0, 0, 0, 0, 0, 0, 0, 0, 0, 0, 0, 0, 0, 0,0.0,0.0,0.0,0.0,0.0,0.0,0.0,0.0,0.0,0.0,0.0,0.0,0.0,14,core\src\main\java\org\apache\metamodel\query\GroupByClause.java,0,0,0,0
org.apache.metamodel.query.GroupByItem, 0, 0, 0, 0, 0, 0, 0, 0, 0, 0, 0, 0, 0, 0,0.0,0.0,0.0,0.42857142857142855,0.0,0.0,0.0,0.0,0.0,0.0,0.0,0.0,0.0,45,core\src\main\java\org\apache\metamodel\query\GroupByItem.java,0,0,0,0
org.apache.metamodel.query.GroupByItemTest, 0, 0, 0, 0, 0, 0, 0, 0, 0, 0, 0, 0, 0, 0,0.0,0.0,0.0,0.0,0.0,0.0,0.0,0.0,0.0,0.0,0.0,0.0,0.0,16,core\src\test\java\org\apache\metamodel\query\GroupByItemTest.java,0,0,0,0
org.apache.metamodel.query.MaxAggregateBuilder, 0, 0, 0, 0, 0, 0, 0, 0, 0, 0, 0, 0, 0, 0,0.0,0.0,0.0,0.0,0.0,0.0,0.0,0.0,0.0,0.0,0.0,0.0,0.0,21,core\src\main\java\org\apache\metamodel\query\MaxAggregateBuilder.java,0,0,0,0
org.apache.metamodel.query.MinAggregateBuilder, 0, 0, 0, 0, 0, 0, 0, 0, 0, 0, 0, 0, 0, 0,0.0,0.0,0.0,0.0,0.0,0.0,0.0,0.0,0.0,0.0,0.0,0.0,0.0,21,core\src\main\java\org\apache\metamodel\query\MinAggregateBuilder.java,0,0,0,0
org.apache.metamodel.query.OperatorTypeTest, 0, 0, 0, 0, 0, 0, 0, 0, 0, 0, 0, 0, 0, 0,0.0,0.0,0.0,0.0,0.0,0.0,0.0,0.0,0.0,0.0,0.0,0.0,0.0,11,core\src\test\java\org\apache\metamodel\query\OperatorTypeTest.java,0,0,0,0
org.apache.metamodel.query.OrderByClause, 0, 0, 0, 0, 0, 0, 0, 0, 0, 0, 0, 0, 0, 0,0.0,0.0,0.0,0.0,0.0,0.0,0.0,0.0,0.0,0.0,0.0,0.0,0.0,14,core\src\main\java\org\apache\metamodel\query\OrderByClause.java,0,0,0,0
org.apache.metamodel.query.OrderByItemTest, 0, 0, 0, 0, 0, 0, 0, 0, 0, 0, 0, 0, 0, 0,0.0,0.0,0.0,0.0,0.0,0.0,0.0,0.0,0.0,0.0,0.0,0.0,0.0,8,core\src\test\java\org\apache\metamodel\query\OrderByItemTest.java,0,0,0,0
org.apache.metamodel.query.QueryClause, 0, 0, 0, 0, 0, 0, 0, 0, 0, 0, 0, 0, 0, 0,0.0,0.0,0.0,0.0,0.0,0.0,0.0,0.0,0.0,0.0,0.0,0.0,0.0,8,core\src\main\java\org\apache\metamodel\query\QueryClause.java,0,0,0,0
org.apache.metamodel.query.QueryItem, 0, 0, 0, 0, 0, 0, 0, 0, 0, 0, 0, 0, 0, 0,0.0,0.0,0.0,0.0,0.0,0.0,0.0,0.0,0.0,0.0,0.0,0.0,0.0,8,core\src\main\java\org\apache\metamodel\query\QueryItem.java,0,0,0,0
org.apache.metamodel.query.QueryParameter, 0, 0, 0, 0, 0, 0, 0, 0, 0, 0, 0, 0, 0, 0,0.0,0.0,0.0,0.0,0.0,0.0,0.0,1.0,0.0,0.0,0.0,0.0,0.0,6,core\src\main\java\org\apache\metamodel\query\QueryParameter.java,0,0,0,0
org.apache.metamodel.query.QueryTest, 0, 0, 0, 0, 0, 0, 0, 0, 0, 0, 0, 0, 0, 0,0.0,0.0,0.0,0.42857142857142855,0.0,0.0,0.0,0.14285714285714285,0.0,0.0,0.0,0.0,0.0,176,core\src\test\java\org\apache\metamodel\query\QueryTest.java,0,0,0,0
org.apache.metamodel.query.SelectClauseTest, 0, 0, 0, 0, 0, 0, 0, 0, 0, 0, 0, 0, 0, 0,0.0,0.0,0.0,1.0,0.0,0.0,0.0,0.5,0.0,0.0,0.0,0.0,0.0,11,core\src\test\java\org\apache\metamodel\query\SelectClauseTest.java,0,0,0,0
org.apache.metamodel.query.SelectItemTest, 0, 0, 0, 0, 0, 0, 0, 0, 0, 0, 0, 0, 0, 0,0.0,0.0,0.0,1.0,0.0,0.0,0.0,0.5,0.0,0.0,0.0,0.0,0.0,57,core\src\test\java\org\apache\metamodel\query\SelectItemTest.java,0,0,0,0
org.apache.metamodel.query.SumAggregateBuilder, 0, 0, 0, 0, 0, 0, 0, 0, 0, 0, 0, 0, 0, 0,0.0,0.0,0.0,0.0,0.0,0.0,0.0,0.0,0.0,0.0,0.0,0.0,0.0,11,core\src\main\java\org\apache\metamodel\query\SumAggregateBuilder.java,0,0,0,0
org.apache.metamodel.query.builder.AbstractFilterBuilder, 0, 0, 0, 1, 0, 0, 0, 0, 0, 0, 0, 0, 0, 1,0.0,0.0,0.0,0.5,0.0,0.0,0.0,0.5,0.0,0.0,0.0,0.0,0.0,474,core\src\main\java\org\apache\metamodel\query\builder\AbstractFilterBuilder.java,0,0,0,0
org.apache.metamodel.query.builder.AbstractQueryFilterBuilder, 0, 0, 0, 1, 0, 0, 0, 0, 0, 0, 0, 0, 0, 1,0.0,0.0,0.0,0.5,0.0,0.0,0.0,0.5,0.0,0.0,0.0,0.0,0.0,333,core\src\main\java\org\apache\metamodel\query\builder\AbstractQueryFilterBuilder.java,0,0,0,0
org.apache.metamodel.query.builder.ColumnSelectBuilder, 0, 0, 0, 0, 0, 0, 0, 0, 0, 0, 0, 0, 0, 0,0.0,0.0,0.0,0.0,0.0,0.0,0.0,0.0,0.0,0.0,0.0,0.0,0.0,333,core\src\main\java\org\apache\metamodel\query\builder\ColumnSelectBuilder.java,0,0,0,0
org.apache.metamodel.query.builder.ColumnSelectBuilderImpl, 0, 0, 0, 0, 0, 0, 0, 0, 0, 0, 0, 0, 0, 0,0.0,0.0,0.0,0.5,0.0,0.0,0.0,0.0,0.0,0.0,0.0,0.0,0.0,22,core\src\main\java\org\apache\metamodel\query\builder\ColumnSelectBuilderImpl.java,0,0,0,0
org.apache.metamodel.query.builder.CountSelectBuilder, 0, 0, 0, 0, 0, 0, 0, 0, 0, 0, 0, 0, 0, 0,0.0,0.0,0.0,0.0,0.0,0.0,0.0,0.0,0.0,0.0,0.0,0.0,0.0,22,core\src\main\java\org\apache\metamodel\query\builder\CountSelectBuilder.java,0,0,0,0
org.apache.metamodel.query.builder.CountSelectBuilderImpl, 0, 0, 0, 0, 0, 0, 0, 0, 0, 0, 0, 0, 0, 0,0.0,0.0,0.0,0.5,0.0,0.0,0.0,0.0,0.0,0.0,0.0,0.0,0.0,21,core\src\main\java\org\apache\metamodel\query\builder\CountSelectBuilderImpl.java,0,0,0,0
org.apache.metamodel.query.builder.FilterBuilder, 0, 0, 0, 0, 0, 0, 0, 0, 0, 0, 0, 0, 0, 0,0.0,0.0,0.0,0.0,0.0,0.0,0.0,0.0,0.0,0.0,0.0,0.0,0.0,21,core\src\main\java\org\apache\metamodel\query\builder\FilterBuilder.java,0,0,0,0
org.apache.metamodel.query.builder.FunctionSelectBuilder, 0, 0, 0, 0, 0, 0, 0, 0, 0, 0, 0, 0, 0, 0,0.0,0.0,0.0,0.0,0.0,0.0,0.0,0.0,0.0,0.0,0.0,0.0,0.0,21,core\src\main\java\org\apache\metamodel\query\builder\FunctionSelectBuilder.java,0,0,0,0
org.apache.metamodel.query.builder.FunctionSelectBuilderImpl, 0, 0, 0, 0, 0, 0, 0, 0, 0, 0, 0, 0, 0, 0,0.0,0.0,0.0,0.5,0.0,0.0,0.0,0.0,0.0,0.0,0.0,0.0,0.0,22,core\src\main\java\org\apache\metamodel\query\builder\FunctionSelectBuilderImpl.java,0,0,0,0
org.apache.metamodel.query.builder.GroupedQueryBuilder, 0, 0, 0, 0, 0, 0, 0, 0, 0, 0, 0, 0, 0, 0,0.0,0.0,0.0,0.0,0.0,0.0,0.0,0.0,0.0,0.0,0.0,0.0,0.0,22,core\src\main\java\org\apache\metamodel\query\builder\GroupedQueryBuilder.java,0,0,0,0
org.apache.metamodel.query.builder.GroupedQueryBuilderCallback, 0, 0, 0, 1, 0, 0, 0, 0, 0, 0, 0, 0, 0, 1,0.0,0.0,0.0,0.1111111111111111,0.0,0.0,0.0,0.2222222222222222,0.0,0.0,0.0,0.0,0.0,109,core\src\main\java\org\apache\metamodel\query\builder\GroupedQueryBuilderCallback.java,0,0,0,0
org.apache.metamodel.query.builder.GroupedQueryBuilderImpl, 0, 0, 0, 1, 0, 0, 0, 0, 0, 0, 0, 0, 0, 1,0.0,0.0,0.0,0.0,0.0,0.0,0.0,0.18181818181818182,0.0,0.0,0.0,0.0,0.0,247,core\src\main\java\org\apache\metamodel\query\builder\GroupedQueryBuilderImpl.java,0,0,0,0
org.apache.metamodel.query.builder.GroupedQueryBuilderImplTest, 0, 0, 0, 0, 0, 0, 0, 0, 0, 0, 0, 0, 0, 0,0.0,0.0,0.0,1.0,0.0,0.0,0.0,0.3333333333333333,0.0,0.0,0.0,0.0,0.0,56,core\src\test\java\org\apache\metamodel\query\builder\GroupedQueryBuilderImplTest.java,0,0,0,0
org.apache.metamodel.query.builder.HavingBuilder, 0, 0, 0, 0, 0, 0, 0, 0, 0, 0, 0, 0, 0, 0,0.0,0.0,0.0,0.0,0.0,0.0,0.0,0.0,0.0,0.0,0.0,0.0,0.0,56,core\src\main\java\org\apache\metamodel\query\builder\HavingBuilder.java,0,0,0,0
org.apache.metamodel.query.builder.HavingBuilderImpl, 0, 0, 0, 0, 0, 0, 0, 1, 0, 0, 0, 0, 0, 1,0.0,0.0,0.0,1.0,0.0,0.0,0.0,0.0,0.0,0.0,0.0,0.0,0.0,51,core\src\main\java\org\apache\metamodel\query\builder\HavingBuilderImpl.java,0,0,0,0
org.apache.metamodel.query.builder.InitFromBuilder, 0, 0, 0, 0, 0, 0, 0, 0, 0, 0, 0, 0, 0, 0,0.0,0.0,0.0,0.0,0.0,0.0,0.0,0.0,0.0,0.0,0.0,0.0,0.0,51,core\src\main\java\org\apache\metamodel\query\builder\InitFromBuilder.java,0,0,0,0
org.apache.metamodel.query.builder.InitFromBuilderImpl, 0, 0, 0, 0, 0, 0, 0, 0, 0, 0, 0, 0, 0, 0,0.0,0.0,0.0,0.25,0.0,0.0,0.0,0.0,0.0,0.0,0.0,0.0,0.0,52,core\src\main\java\org\apache\metamodel\query\builder\InitFromBuilderImpl.java,0,0,0,0
org.apache.metamodel.query.builder.JoinFromBuilder, 0, 0, 0, 0, 0, 0, 0, 0, 0, 0, 0, 0, 0, 0,0.0,0.0,0.0,0.0,0.0,0.0,0.0,0.0,0.0,0.0,0.0,0.0,0.0,52,core\src\main\java\org\apache\metamodel\query\builder\JoinFromBuilder.java,0,0,0,0
org.apache.metamodel.query.builder.JoinFromBuilderImpl, 0, 0, 0, 0, 0, 0, 0, 1, 0, 0, 0, 0, 0, 1,0.0,0.0,0.0,0.0,0.0,0.0,0.0,0.0,0.0,0.0,0.0,0.0,0.0,47,core\src\main\java\org\apache\metamodel\query\builder\JoinFromBuilderImpl.java,0,0,0,0
org.apache.metamodel.query.builder.SatisfiedFromBuilder, 0, 0, 0, 0, 0, 0, 0, 0, 0, 0, 0, 0, 0, 0,0.0,0.0,0.0,0.0,0.0,0.0,0.0,0.0,0.0,0.0,0.0,0.0,0.0,47,core\src\main\java\org\apache\metamodel\query\builder\SatisfiedFromBuilder.java,0,0,0,0
org.apache.metamodel.query.builder.SatisfiedFromBuilderCallback, 0, 0, 0, 0, 0, 0, 0, 0, 0, 0, 0, 0, 0, 0,0.0,0.0,0.0,0.125,0.0,0.0,0.0,0.125,0.0,0.0,0.0,0.0,0.0,114,core\src\main\java\org\apache\metamodel\query\builder\SatisfiedFromBuilderCallback.java,0,0,0,0
org.apache.metamodel.query.builder.SatisfiedHavingBuilder, 0, 0, 0, 0, 0, 0, 0, 0, 0, 0, 0, 0, 0, 0,0.0,0.0,0.0,0.0,0.0,0.0,0.0,0.0,0.0,0.0,0.0,0.0,0.0,114,core\src\main\java\org\apache\metamodel\query\builder\SatisfiedHavingBuilder.java,0,0,0,0
org.apache.metamodel.query.builder.SatisfiedOrderByBuilder, 0, 0, 0, 0, 0, 0, 0, 0, 0, 0, 0, 0, 0, 0,0.0,0.0,0.0,0.0,0.0,0.0,0.0,0.0,0.0,0.0,0.0,0.0,0.0,114,core\src\main\java\org\apache\metamodel\query\builder\SatisfiedOrderByBuilder.java,0,0,0,0
org.apache.metamodel.query.builder.SatisfiedOrderByBuilderImpl, 0, 0, 0, 0, 0, 0, 0, 0, 0, 0, 0, 0, 0, 0,0.0,0.0,0.0,1.0,0.0,0.0,0.0,0.0,0.0,0.0,0.0,0.0,0.0,29,core\src\main\java\org\apache\metamodel\query\builder\SatisfiedOrderByBuilderImpl.java,0,0,0,0
org.apache.metamodel.query.builder.SatisfiedQueryBuilder, 0, 0, 0, 0, 0, 0, 0, 0, 0, 0, 0, 0, 0, 0,0.0,0.0,0.0,0.0,0.0,0.0,0.0,0.0,0.0,0.0,0.0,0.0,0.0,29,core\src\main\java\org\apache\metamodel\query\builder\SatisfiedQueryBuilder.java,0,0,0,0
org.apache.metamodel.query.builder.SatisfiedSelectBuilder, 0, 0, 0, 0, 0, 0, 0, 0, 0, 0, 0, 0, 0, 0,0.0,0.0,0.0,0.0,0.0,0.0,0.0,0.0,0.0,0.0,0.0,0.0,0.0,29,core\src\main\java\org\apache\metamodel\query\builder\SatisfiedSelectBuilder.java,0,0,0,0
org.apache.metamodel.query.builder.SatisfiedSelectBuilderImpl, 0, 0, 0, 0, 0, 0, 0, 0, 0, 0, 0, 0, 0, 0,0.0,0.0,0.0,0.3333333333333333,0.0,0.0,0.0,0.0,0.0,0.0,0.0,0.0,0.0,37,core\src\main\java\org\apache\metamodel\query\builder\SatisfiedSelectBuilderImpl.java,0,0,0,0
org.apache.metamodel.query.builder.SatisfiedWhereBuilder, 0, 0, 0, 0, 0, 0, 0, 0, 0, 0, 0, 0, 0, 0,0.0,0.0,0.0,0.0,0.0,0.0,0.0,0.0,0.0,0.0,0.0,0.0,0.0,37,core\src\main\java\org\apache\metamodel\query\builder\SatisfiedWhereBuilder.java,0,0,0,0
org.apache.metamodel.query.builder.SyntaxExamplesTest, 0, 0, 0, 0, 0, 0, 0, 0, 0, 0, 0, 0, 0, 0,0.0,0.0,0.0,0.25,0.0,0.0,0.0,0.0,0.0,0.0,0.0,0.0,0.0,40,core\src\test\java\org\apache\metamodel\query\builder\SyntaxExamplesTest.java,0,0,0,0
org.apache.metamodel.query.builder.TableFromBuilder, 0, 0, 0, 0, 0, 0, 0, 0, 0, 0, 0, 0, 0, 0,0.0,0.0,0.0,0.0,0.0,0.0,0.0,0.0,0.0,0.0,0.0,0.0,0.0,40,core\src\main\java\org\apache\metamodel\query\builder\TableFromBuilder.java,0,0,0,0
org.apache.metamodel.query.builder.TableFromBuilderImpl, 0, 0, 0, 0, 0, 0, 0, 0, 0, 0, 0, 0, 0, 0,0.0,0.0,0.0,0.0,0.0,0.0,0.0,0.3333333333333333,0.0,0.0,0.0,0.0,0.0,63,core\src\main\java\org\apache\metamodel\query\builder\TableFromBuilderImpl.java,0,0,0,0
org.apache.metamodel.query.builder.WhereBuilder, 0, 0, 0, 0, 0, 0, 0, 0, 0, 0, 0, 0, 0, 0,0.0,0.0,0.0,0.0,0.0,0.0,0.0,0.0,0.0,0.0,0.0,0.0,0.0,63,core\src\main\java\org\apache\metamodel\query\builder\WhereBuilder.java,0,0,0,0
org.apache.metamodel.query.builder.WhereBuilderImpl, 0, 0, 0, 0, 0, 0, 0, 1, 0, 0, 0, 0, 0, 1,0.0,0.0,0.0,0.6666666666666666,0.0,0.0,0.0,0.0,0.0,0.0,0.0,0.0,0.0,102,core\src\main\java\org\apache\metamodel\query\builder\WhereBuilderImpl.java,0,0,0,0
org.apache.metamodel.query.builder.WhereBuilderImplTest, 0, 0, 0, 0, 0, 0, 0, 0, 0, 0, 0, 0, 0, 0,0.0,0.0,0.0,0.6666666666666666,0.0,0.0,0.0,0.6666666666666666,0.0,0.0,0.0,0.0,0.0,40,core\src\test\java\org\apache\metamodel\query\builder\WhereBuilderImplTest.java,0,0,0,0
org.apache.metamodel.query.parser.FromItemParser, 0, 0, 0, 0, 0, 0, 0, 0, 0, 0, 0, 0, 0, 0,0.0,0.0,0.0,0.0,0.0,0.0,0.0,0.0,0.0,0.0,0.0,0.0,0.0,122,core\src\main\java\org\apache\metamodel\query\parser\FromItemParser.java,0,0,0,0
org.apache.metamodel.query.parser.GroupByItemParser, 0, 0, 0, 0, 0, 0, 0, 0, 0, 0, 0, 0, 0, 0,0.0,0.0,0.0,0.0,0.0,0.0,0.0,0.0,0.0,0.0,0.0,0.0,0.0,10,core\src\main\java\org\apache\metamodel\query\parser\GroupByItemParser.java,0,0,0,0
org.apache.metamodel.query.parser.HavingItemParser, 0, 0, 0, 0, 0, 0, 0, 0, 0, 0, 0, 0, 0, 0,0.0,0.0,0.0,0.0,0.0,0.0,0.0,0.0,0.0,0.0,0.0,0.0,0.0,10,core\src\main\java\org\apache\metamodel\query\parser\HavingItemParser.java,0,0,0,0
org.apache.metamodel.query.parser.OrderByItemParser, 0, 0, 0, 0, 0, 0, 0, 0, 0, 0, 0, 0, 0, 0,0.0,0.0,0.0,0.0,0.0,0.0,0.0,0.0,0.0,0.0,0.0,0.0,0.0,10,core\src\main\java\org\apache\metamodel\query\parser\OrderByItemParser.java,0,0,0,0
org.apache.metamodel.query.parser.QueryParser, 0, 0, 0, 0, 0, 0, 0, 0, 0, 0, 0, 0, 0, 0,0.0,0.0,0.0,0.1111111111111111,0.0,0.0,0.0,0.0,0.0,0.0,0.0,0.0,0.0,185,core\src\main\java\org\apache\metamodel\query\parser\QueryParser.java,0,0,0,0
org.apache.metamodel.query.parser.QueryParserException, 0, 0, 0, 0, 0, 0, 0, 0, 0, 0, 0, 0, 0, 0,0.0,0.0,0.0,0.0,0.0,0.0,0.0,0.0,0.0,0.0,0.0,0.0,0.0,15,core\src\main\java\org\apache\metamodel\query\parser\QueryParserException.java,0,0,0,0
org.apache.metamodel.query.parser.QueryParserTest, 0, 0, 0, 1, 0, 0, 0, 0, 0, 0, 0, 0, 0, 1,0.0,0.0,0.0,0.2,0.0,0.0,0.0,0.2,0.0,0.0,0.0,0.0,0.0,268,core\src\test\java\org\apache\metamodel\query\parser\QueryParserTest.java,0,0,0,0
org.apache.metamodel.query.parser.QueryPartCollectionProcessor, 0, 0, 0, 0, 0, 0, 0, 0, 0, 0, 0, 0, 0, 0,0.0,0.0,0.0,0.0,0.0,0.0,0.0,0.0,0.0,0.0,0.0,0.0,0.0,19,core\src\main\java\org\apache\metamodel\query\parser\QueryPartCollectionProcessor.java,0,0,0,0
org.apache.metamodel.query.parser.QueryPartParser, 0, 0, 0, 0, 0, 0, 0, 0, 0, 0, 0, 0, 0, 0,0.0,0.0,0.0,0.0,0.0,0.0,0.0,0.0,0.0,0.0,0.0,0.0,0.0,88,core\src\main\java\org\apache\metamodel\query\parser\QueryPartParser.java,0,0,0,0
org.apache.metamodel.query.parser.QueryPartParserTest, 0, 0, 0, 0, 0, 0, 0, 0, 0, 0, 0, 0, 0, 0,0.0,0.0,0.0,0.0,0.0,0.0,0.0,0.0,0.0,0.0,0.0,0.0,0.0,62,core\src\test\java\org\apache\metamodel\query\parser\QueryPartParserTest.java,0,0,0,0
org.apache.metamodel.query.parser.QueryPartProcessor, 0, 0, 0, 0, 0, 0, 0, 0, 0, 0, 0, 0, 0, 0,0.0,0.0,0.0,0.0,0.0,0.0,0.0,0.0,0.0,0.0,0.0,0.0,0.0,62,core\src\main\java\org\apache\metamodel\query\parser\QueryPartProcessor.java,0,0,0,0
org.apache.metamodel.query.parser.SelectItemParser, 0, 0, 0, 0, 0, 0, 0, 0, 0, 0, 0, 0, 0, 0,0.0,0.0,0.0,0.0,0.0,0.0,0.0,0.0,0.0,0.0,0.0,0.0,0.0,115,core\src\main\java\org\apache\metamodel\query\parser\SelectItemParser.java,0,0,0,0
org.apache.metamodel.query.parser.WhereItemParser, 0, 0, 0, 0, 0, 0, 0, 0, 0, 0, 0, 0, 0, 0,0.0,0.0,0.0,0.0,0.0,0.0,0.0,0.0,0.0,0.0,0.0,0.0,0.0,10,core\src\main\java\org\apache\metamodel\query\parser\WhereItemParser.java,0,0,0,0
org.apache.metamodel.salesforce.SalesforceDataContextTest, 0, 0, 0, 0, 0, 0, 0, 0, 0, 0, 0, 0, 0, 0,0.0,0.0,0.0,0.3333333333333333,0.0,0.0,0.0,0.3333333333333333,0.0,0.0,0.0,0.0,0.0,256,salesforce\src\test\java\org\apache\metamodel\salesforce\SalesforceDataContextTest.java,0,0,0,0
org.apache.metamodel.salesforce.SalesforceDataSet, 0, 0, 0, 0, 0, 0, 0, 0, 0, 0, 0, 0, 0, 0,0.0,0.0,0.0,0.0,0.0,0.0,0.0,0.0,0.0,0.0,0.0,0.0,0.0,80,salesforce\src\main\java\org\apache\metamodel\salesforce\SalesforceDataSet.java,0,0,0,0
org.apache.metamodel.salesforce.SalesforceDataSetTest, 0, 0, 0, 0, 0, 0, 0, 0, 0, 0, 0, 0, 0, 0,0.0,0.0,0.0,0.3333333333333333,0.0,0.0,0.0,0.3333333333333333,0.0,0.0,0.0,0.0,0.0,18,salesforce\src\test\java\org\apache\metamodel\salesforce\SalesforceDataSetTest.java,0,0,0,0
org.apache.metamodel.salesforce.SalesforceDeleteBuilder, 0, 0, 0, 0, 0, 0, 0, 0, 0, 0, 0, 0, 0, 0,0.0,0.0,0.0,0.0,0.0,0.0,0.0,0.0,0.0,0.0,0.0,0.0,0.0,20,salesforce\src\main\java\org\apache\metamodel\salesforce\SalesforceDeleteBuilder.java,0,0,0,0
org.apache.metamodel.salesforce.SalesforceInsertBuilder, 0, 0, 0, 0, 0, 0, 0, 0, 0, 0, 0, 0, 0, 0,0.0,0.0,0.0,0.0,0.0,0.0,0.0,0.0,0.0,0.0,0.0,0.0,0.0,28,salesforce\src\main\java\org\apache\metamodel\salesforce\SalesforceInsertBuilder.java,0,0,0,0
org.apache.metamodel.salesforce.SalesforceSchema, 0, 0, 0, 0, 0, 0, 0, 0, 0, 0, 0, 0, 0, 0,0.0,0.0,0.0,0.0,0.0,0.0,0.0,0.0,0.0,0.0,0.0,0.0,0.0,45,salesforce\src\main\java\org\apache\metamodel\salesforce\SalesforceSchema.java,0,0,0,0
org.apache.metamodel.salesforce.SalesforceTable, 0, 0, 0, 0, 0, 0, 0, 0, 0, 0, 0, 0, 0, 0,0.0,0.0,0.0,0.0,0.0,0.0,0.0,0.0,0.0,0.0,0.0,0.0,0.0,111,salesforce\src\main\java\org\apache\metamodel\salesforce\SalesforceTable.java,0,0,0,0
org.apache.metamodel.salesforce.SalesforceUpdateBuilder, 0, 0, 0, 0, 0, 0, 0, 0, 0, 0, 0, 0, 0, 0,0.0,0.0,0.0,0.0,0.0,0.0,0.0,0.0,0.0,0.0,0.0,0.0,0.0,43,salesforce\src\main\java\org\apache\metamodel\salesforce\SalesforceUpdateBuilder.java,0,0,0,0
org.apache.metamodel.salesforce.SalesforceUpdateCallback, 0, 0, 0, 0, 0, 0, 0, 0, 0, 0, 0, 0, 0, 0,0.0,0.0,0.0,0.0,0.0,0.0,0.0,0.0,0.0,0.0,0.0,0.0,0.0,185,salesforce\src\main\java\org\apache\metamodel\salesforce\SalesforceUpdateCallback.java,0,0,0,0
org.apache.metamodel.salesforce.SalesforceUtils, 0, 0, 0, 0, 0, 0, 0, 0, 0, 0, 0, 0, 0, 0,0.0,0.0,0.0,0.0,0.0,0.0,0.0,0.0,0.0,0.0,0.0,0.0,0.0,18,salesforce\src\main\java\org\apache\metamodel\salesforce\SalesforceUtils.java,0,0,0,0
org.apache.metamodel.schema.AbstractSchema, 0, 0, 0, 0, 0, 0, 0, 0, 0, 0, 0, 0, 0, 0,0.0,0.0,0.0,0.0,0.0,0.0,0.0,0.0,0.0,0.0,0.0,0.0,0.0,133,core\src\main\java\org\apache\metamodel\schema\AbstractSchema.java,0,0,0,0
org.apache.metamodel.schema.Column, 0, 0, 0, 0, 0, 0, 0, 0, 0, 0, 0, 0, 0, 0,0.0,0.0,0.0,0.0,0.0,0.0,0.0,0.0,0.0,0.0,0.0,0.0,0.0,133,core\src\main\java\org\apache\metamodel\schema\Column.java,0,0,0,0
org.apache.metamodel.schema.CompositeSchema, 0, 0, 0, 0, 0, 0, 0, 0, 0, 0, 0, 0, 0, 0,0.0,0.0,0.0,0.0,0.0,0.0,0.0,0.0,0.0,0.0,0.0,0.0,0.0,48,core\src\main\java\org\apache\metamodel\schema\CompositeSchema.java,0,0,0,0
org.apache.metamodel.schema.DataTypeTest, 0, 0, 0, 0, 0, 0, 0, 0, 0, 0, 0, 0, 0, 0,0.0,0.0,0.0,0.0,0.0,0.0,0.0,0.0,0.0,0.0,0.0,0.0,0.0,4,core\src\test\java\org\apache\metamodel\schema\DataTypeTest.java,0,0,0,0
org.apache.metamodel.schema.ImmutableColumn, 0, 0, 0, 1, 0, 0, 0, 1, 0, 0, 0, 0, 0, 2,0.0,0.0,0.0,0.0,0.0,0.0,0.0,0.5,0.0,0.0,0.0,0.0,0.0,90,core\src\main\java\org\apache\metamodel\schema\ImmutableColumn.java,0,0,0,0
org.apache.metamodel.schema.ImmutableRelationship, 0, 0, 0, 0, 0, 0, 0, 0, 0, 0, 0, 0, 0, 0,0.0,0.0,0.0,0.0,0.0,0.0,0.0,0.3333333333333333,0.0,0.0,0.0,0.0,0.0,50,core\src\main\java\org\apache\metamodel\schema\ImmutableRelationship.java,0,0,0,0
org.apache.metamodel.schema.ImmutableSchema, 0, 0, 0, 0, 0, 0, 0, 0, 0, 0, 0, 0, 0, 0,0.0,0.0,0.0,0.0,0.0,0.0,0.0,0.25,0.0,0.0,0.0,0.0,0.0,35,core\src\main\java\org\apache\metamodel\schema\ImmutableSchema.java,0,0,0,0
org.apache.metamodel.schema.ImmutableSchemaTest, 0, 0, 0, 0, 0, 0, 0, 0, 0, 0, 0, 0, 0, 0,0.0,0.0,0.0,0.3333333333333333,0.0,0.0,0.0,0.0,0.0,0.0,0.0,0.0,0.0,8,core\src\test\java\org\apache\metamodel\schema\ImmutableSchemaTest.java,0,0,0,0
org.apache.metamodel.schema.ImmutableTable, 0, 0, 0, 0, 0, 0, 0, 1, 0, 0, 0, 0, 0, 1,0.0,0.0,0.0,0.3333333333333333,0.0,0.0,0.0,0.3333333333333333,0.0,0.0,0.0,0.0,0.0,59,core\src\main\java\org\apache\metamodel\schema\ImmutableTable.java,0,0,0,0
org.apache.metamodel.schema.Java5Types, 0, 0, 0, 1, 0, 0, 0, 0, 0, 0, 0, 0, 0, 1,0.0,0.0,0.0,0.0,0.0,0.0,0.0,0.0,0.0,0.0,0.0,0.0,0.0,31,core\src\test\java\org\apache\metamodel\schema\Java5Types.java,0,0,0,0
org.apache.metamodel.schema.Java6Types, 0, 0, 0, 1, 0, 0, 0, 0, 0, 0, 0, 0, 0, 1,0.0,0.0,0.0,0.0,0.0,0.0,0.0,0.0,0.0,0.0,0.0,0.0,0.0,37,core\src\test\java\org\apache\metamodel\schema\Java6Types.java,0,0,0,0
org.apache.metamodel.schema.JavaTypesTest, 0, 0, 0, 0, 0, 0, 0, 0, 0, 0, 0, 0, 0, 0,0.0,0.0,0.0,0.0,0.0,0.0,0.0,0.0,0.0,0.0,0.0,0.0,0.0,19,core\src\test\java\org\apache\metamodel\schema\JavaTypesTest.java,0,0,0,0
org.apache.metamodel.schema.JdbcTypes, 0, 0, 0, 1, 0, 0, 0, 0, 0, 0, 0, 0, 0, 1,0.0,0.0,0.0,0.0,0.0,0.0,0.0,0.0,0.0,0.0,0.0,0.0,0.0,39,core\src\main\java\org\apache\metamodel\schema\JdbcTypes.java,0,0,0,0
org.apache.metamodel.schema.MutableColumn, 0, 0, 0, 1, 0, 0, 0, 1, 0, 0, 0, 0, 0, 2,0.0,0.0,0.0,0.07317073170731707,0.0,0.0,0.0,0.024390243902439025,0.0,0.0,0.0,0.0,0.0,131,core\src\main\java\org\apache\metamodel\schema\MutableColumn.java,0,0,0,0
org.apache.metamodel.schema.MutableColumnTest, 0, 0, 0, 0, 0, 0, 0, 0, 0, 0, 0, 0, 0, 0,0.0,0.0,0.0,0.6666666666666666,0.0,0.0,0.0,0.3333333333333333,0.0,0.0,0.0,0.0,0.0,28,core\src\test\java\org\apache\metamodel\schema\MutableColumnTest.java,0,0,0,0
org.apache.metamodel.schema.MutableRelationship, 0, 0, 0, 0, 0, 0, 0, 0, 0, 0, 0, 0, 0, 0,0.0,0.0,0.0,0.6666666666666666,0.0,0.0,0.0,0.0,0.0,0.0,0.0,0.0,0.0,66,core\src\main\java\org\apache\metamodel\schema\MutableRelationship.java,0,0,0,0
org.apache.metamodel.schema.MutableSchema, 0, 0, 0, 0, 0, 0, 0, 0, 0, 0, 0, 0, 0, 0,0.0,0.0,0.0,0.06451612903225806,0.0,0.0,0.0,0.0,0.0,0.0,0.0,0.0,0.0,60,core\src\main\java\org\apache\metamodel\schema\MutableSchema.java,0,0,0,0
org.apache.metamodel.schema.MutableSchemaTest, 0, 0, 0, 0, 0, 0, 0, 0, 0, 0, 0, 0, 0, 0,0.0,0.0,0.0,0.3333333333333333,0.0,0.0,0.0,0.0,0.0,0.0,0.0,0.0,0.0,23,core\src\test\java\org\apache\metamodel\schema\MutableSchemaTest.java,0,0,0,0
org.apache.metamodel.schema.MutableTable, 0, 0, 0, 1, 0, 0, 0, 0, 0, 0, 0, 0, 0, 1,0.0,0.0,0.0,0.05263157894736842,0.0,0.0,0.0,0.0,0.0,0.0,0.0,0.0,0.0,128,core\src\main\java\org\apache\metamodel\schema\MutableTable.java,0,0,0,0
org.apache.metamodel.schema.MutableTableTest, 0, 0, 0, 0, 0, 0, 0, 0, 0, 0, 0, 0, 0, 0,0.0,0.0,0.0,1.0,0.0,0.0,0.0,0.5,0.0,0.0,0.0,0.0,0.0,51,core\src\test\java\org\apache\metamodel\schema\MutableTableTest.java,0,0,0,0
org.apache.metamodel.schema.NamedStructure, 0, 0, 0, 0, 0, 0, 0, 0, 0, 0, 0, 0, 0, 0,0.0,0.0,0.0,0.0,0.0,0.0,0.0,0.0,0.0,0.0,0.0,0.0,0.0,51,core\src\main\java\org\apache\metamodel\schema\NamedStructure.java,0,0,0,0
org.apache.metamodel.schema.Relationship, 0, 0, 0, 0, 0, 0, 0, 0, 0, 0, 0, 0, 0, 0,0.0,0.0,0.0,0.0,0.0,0.0,0.0,0.0,0.0,0.0,0.0,0.0,0.0,51,core\src\main\java\org\apache\metamodel\schema\Relationship.java,0,0,0,0
org.apache.metamodel.schema.Schema, 0, 0, 0, 0, 0, 0, 0, 0, 0, 0, 0, 0, 0, 0,0.0,0.0,0.0,0.0,0.0,0.0,0.0,0.0,0.0,0.0,0.0,0.0,0.0,51,core\src\main\java\org\apache\metamodel\schema\Schema.java,0,0,0,0
org.apache.metamodel.schema.SchemaModelTest, 0, 0, 0, 0, 0, 0, 0, 0, 0, 0, 0, 0, 0, 0,0.0,0.0,0.0,0.5,0.0,0.0,0.0,0.0,0.0,0.0,0.0,0.0,0.0,61,core\src\test\java\org\apache\metamodel\schema\SchemaModelTest.java,0,0,0,0
org.apache.metamodel.schema.Table, 0, 0, 0, 0, 0, 0, 0, 0, 0, 0, 0, 0, 0, 0,0.0,0.0,0.0,0.0,0.0,0.0,0.0,0.0,0.0,0.0,0.0,0.0,0.0,61,core\src\main\java\org\apache\metamodel\schema\Table.java,0,0,0,0
org.apache.metamodel.schema.TableTypeTest, 0, 0, 0, 0, 0, 0, 0, 0, 0, 0, 0, 0, 0, 0,0.0,0.0,0.0,0.0,0.0,0.0,0.0,0.0,0.0,0.0,0.0,0.0,0.0,14,core\src\test\java\org\apache\metamodel\schema\TableTypeTest.java,0,0,0,0
org.apache.metamodel.schema.builder.ColumnBuilder, 0, 0, 0, 0, 0, 0, 0, 0, 0, 0, 0, 0, 0, 0,0.0,0.0,0.0,0.0,0.0,0.0,0.0,0.0,0.0,0.0,0.0,0.0,0.0,14,core\src\main\java\org\apache\metamodel\schema\builder\ColumnBuilder.java,0,0,0,0
org.apache.metamodel.schema.builder.DocumentSourceProvider, 0, 0, 0, 0, 0, 0, 0, 0, 0, 0, 0, 0, 0, 0,0.0,0.0,0.0,0.0,0.0,0.0,0.0,0.0,0.0,0.0,0.0,0.0,0.0,14,core\src\main\java\org\apache\metamodel\schema\builder\DocumentSourceProvider.java,0,0,0,0
org.apache.metamodel.schema.builder.InferentialColumnBuilder, 0, 0, 0, 0, 0, 0, 0, 0, 0, 0, 0, 0, 0, 0,0.0,0.0,0.0,1.0,0.0,0.0,0.0,1.0,0.0,0.0,0.0,0.0,0.0,68,core\src\main\java\org\apache\metamodel\schema\builder\InferentialColumnBuilder.java,0,0,0,0
org.apache.metamodel.schema.builder.LazyDocumentSource, 0, 0, 0, 0, 0, 0, 0, 0, 0, 0, 0, 0, 0, 0,0.0,0.0,0.0,0.0,0.0,0.0,0.0,0.0,0.0,0.0,0.0,0.0,0.0,16,core\src\main\java\org\apache\metamodel\schema\builder\LazyDocumentSource.java,0,0,0,0
org.apache.metamodel.schema.builder.MultiTableInferentialSchemaBuilder, 0, 0, 0, 0, 0, 0, 0, 0, 0, 0, 0, 0, 0, 0,0.0,0.0,0.0,0.0,0.0,0.0,0.0,0.0,0.0,0.0,0.0,0.0,0.0,38,core\src\main\java\org\apache\metamodel\schema\builder\MultiTableInferentialSchemaBuilder.java,0,0,0,0
org.apache.metamodel.schema.builder.SchemaBuilder, 0, 0, 0, 0, 0, 0, 0, 0, 0, 0, 0, 0, 0, 0,0.0,0.0,0.0,0.0,0.0,0.0,0.0,0.0,0.0,0.0,0.0,0.0,0.0,38,core\src\main\java\org\apache\metamodel\schema\builder\SchemaBuilder.java,0,0,0,0
org.apache.metamodel.schema.builder.SimpleTableDefSchemaBuilder, 0, 0, 0, 0, 0, 0, 0, 0, 0, 0, 0, 0, 0, 0,0.0,0.0,0.0,0.2,0.0,0.0,0.0,0.0,0.0,0.0,0.0,0.0,0.0,29,core\src\main\java\org\apache\metamodel\schema\builder\SimpleTableDefSchemaBuilder.java,0,0,0,0
org.apache.metamodel.schema.builder.SingleTableInferentialSchemaBuilder, 0, 0, 0, 0, 0, 0, 0, 0, 0, 0, 0, 0, 0, 0,0.0,0.0,0.0,0.0,0.0,0.0,0.0,0.0,0.0,0.0,0.0,0.0,0.0,23,core\src\main\java\org\apache\metamodel\schema\builder\SingleTableInferentialSchemaBuilder.java,0,0,0,0
org.apache.metamodel.schema.builder.TableBuilder, 0, 0, 0, 0, 0, 0, 0, 0, 0, 0, 0, 0, 0, 0,0.0,0.0,0.0,0.0,0.0,0.0,0.0,0.0,0.0,0.0,0.0,0.0,0.0,23,core\src\main\java\org\apache\metamodel\schema\builder\TableBuilder.java,0,0,0,0
org.apache.metamodel.spring.AbstractDataContextFactoryBeanDelegate, 0, 0, 0, 0, 0, 0, 0, 0, 0, 0, 0, 0, 0, 0,0.0,0.0,0.0,0.0,0.0,0.0,0.0,0.0,0.0,0.0,0.0,0.0,0.0,57,spring\src\main\java\org\apache\metamodel\spring\AbstractDataContextFactoryBeanDelegate.java,0,0,0,0
org.apache.metamodel.spring.CouchDbDataContextFactoryBeanDelegate, 0, 0, 0, 0, 0, 0, 0, 0, 0, 0, 0, 0, 0, 0,0.0,0.0,0.0,0.5,0.0,0.0,0.0,0.5,0.0,0.0,0.0,0.0,0.0,11,spring\src\main\java\org\apache\metamodel\spring\CouchDbDataContextFactoryBeanDelegate.java,0,0,0,0
org.apache.metamodel.spring.CsvDataContextFactoryBeanDelegate, 0, 0, 0, 0, 0, 0, 0, 0, 0, 0, 0, 0, 0, 0,0.0,0.0,0.0,0.5,0.0,0.0,0.0,0.5,0.0,0.0,0.0,0.0,0.0,16,spring\src\main\java\org\apache\metamodel\spring\CsvDataContextFactoryBeanDelegate.java,0,0,0,0
org.apache.metamodel.spring.CsvDefaultConfigurationFromResourceTest, 0, 0, 0, 0, 0, 0, 0, 0, 0, 0, 0, 0, 0, 0,0.0,0.0,0.0,0.0,0.0,0.0,0.0,0.0,0.0,0.0,0.0,0.0,0.0,15,spring\src\test\java\org\apache\metamodel\spring\CsvDefaultConfigurationFromResourceTest.java,0,0,0,0
org.apache.metamodel.spring.CsvSpecifiedConfigurationFromFilenameTest, 0, 0, 0, 0, 0, 0, 0, 0, 0, 0, 0, 0, 0, 0,0.0,0.0,0.0,1.0,0.0,0.0,0.0,1.0,0.0,0.0,0.0,0.0,0.0,14,spring\src\test\java\org\apache\metamodel\spring\CsvSpecifiedConfigurationFromFilenameTest.java,0,0,0,0
org.apache.metamodel.spring.DataContextFactoryBean, 0, 0, 0, 1, 0, 0, 0, 0, 0, 0, 0, 0, 0, 1,0.0,0.0,0.0,0.0,0.0,0.0,0.0,0.0,0.0,0.0,0.0,0.0,0.0,253,spring\src\main\java\org\apache\metamodel\spring\DataContextFactoryBean.java,0,0,0,0
org.apache.metamodel.spring.DataContextFactoryBeanDelegate, 0, 0, 0, 0, 0, 0, 0, 0, 0, 0, 0, 0, 0, 0,0.0,0.0,0.0,0.0,0.0,0.0,0.0,0.0,0.0,0.0,0.0,0.0,0.0,253,spring\src\main\java\org\apache\metamodel\spring\DataContextFactoryBeanDelegate.java,0,0,0,0
org.apache.metamodel.spring.DataContextFactoryBeanTest, 0, 0, 0, 0, 0, 0, 0, 0, 0, 0, 0, 0, 0, 0,0.0,0.0,0.0,1.0,0.0,0.0,0.0,0.0,0.0,0.0,0.0,0.0,0.0,9,spring\src\test\java\org\apache\metamodel\spring\DataContextFactoryBeanTest.java,0,0,0,0
org.apache.metamodel.spring.DataContextFactoryParameters, 0, 0, 0, 0, 0, 0, 0, 0, 0, 0, 0, 0, 0, 0,0.0,0.0,0.0,0.0,0.0,0.0,0.0,0.0,0.0,0.0,0.0,0.0,0.0,9,spring\src\main\java\org\apache\metamodel\spring\DataContextFactoryParameters.java,0,0,0,0
org.apache.metamodel.spring.ExcelDataContextFactoryBeanDelegate, 0, 0, 0, 0, 0, 0, 0, 0, 0, 0, 0, 0, 0, 0,0.0,0.0,0.0,0.0,0.0,0.0,0.0,0.0,0.0,0.0,0.0,0.0,0.0,13,spring\src\main\java\org\apache\metamodel\spring\ExcelDataContextFactoryBeanDelegate.java,0,0,0,0
org.apache.metamodel.spring.ExcelSpecifiedConfigurationFromFilenameTest, 0, 0, 0, 0, 0, 0, 0, 0, 0, 0, 0, 0, 0, 0,0.0,0.0,0.0,0.0,0.0,0.0,0.0,0.0,0.0,0.0,0.0,0.0,0.0,15,spring\src\test\java\org\apache\metamodel\spring\ExcelSpecifiedConfigurationFromFilenameTest.java,0,0,0,0
org.apache.metamodel.spring.JdbcDataContextFactoryBeanDelegate, 0, 0, 0, 0, 0, 0, 0, 0, 0, 0, 0, 0, 0, 0,0.0,0.0,0.0,0.5,0.0,0.0,0.0,0.5,0.0,0.0,0.0,0.0,0.0,34,spring\src\main\java\org\apache\metamodel\spring\JdbcDataContextFactoryBeanDelegate.java,0,0,0,0
org.apache.metamodel.spring.MockDataContextFactoryBeanDelegate, 0, 0, 0, 0, 0, 0, 0, 0, 0, 0, 0, 0, 0, 0,0.0,0.0,0.0,0.0,0.0,0.0,0.0,0.0,0.0,0.0,0.0,0.0,0.0,7,spring\src\test\java\org\apache\metamodel\spring\MockDataContextFactoryBeanDelegate.java,0,0,0,0
org.apache.metamodel.spring.MockDataContextTypeTest, 0, 0, 0, 0, 0, 0, 0, 0, 0, 0, 0, 0, 0, 0,0.0,0.0,0.0,0.0,0.0,0.0,0.0,0.0,0.0,0.0,0.0,0.0,0.0,9,spring\src\test\java\org\apache\metamodel\spring\MockDataContextTypeTest.java,0,0,0,0
org.apache.metamodel.spring.MongoDbDataContextFactoryBeanDelegate, 0, 0, 0, 0, 0, 0, 0, 0, 0, 0, 0, 0, 0, 0,0.0,0.0,0.0,0.5,0.0,0.0,0.0,0.5,0.0,0.0,0.0,0.0,0.0,12,spring\src\main\java\org\apache\metamodel\spring\MongoDbDataContextFactoryBeanDelegate.java,0,0,0,0
org.apache.metamodel.spring.PojoDataContextFactoryBeanDelegate, 0, 0, 0, 0, 0, 0, 0, 0, 0, 0, 0, 0, 0, 0,0.0,0.0,0.0,0.0,0.0,0.0,0.0,0.0,0.0,0.0,0.0,0.0,0.0,19,spring\src\main\java\org\apache\metamodel\spring\PojoDataContextFactoryBeanDelegate.java,0,0,0,0
org.apache.metamodel.spring.PojoDataContextFactoryBeanDelegateTest, 0, 0, 0, 0, 0, 0, 0, 0, 0, 0, 0, 0, 0, 0,0.0,0.0,0.0,1.0,0.0,0.0,0.0,0.0,0.0,0.0,0.0,0.0,0.0,20,spring\src\test\java\org\apache\metamodel\spring\PojoDataContextFactoryBeanDelegateTest.java,0,0,0,0
org.apache.metamodel.spring.SpringResource, 0, 0, 0, 0, 0, 0, 0, 0, 0, 0, 0, 0, 0, 0,0.0,0.0,0.0,0.0,0.0,0.0,0.0,0.0,0.0,0.0,0.0,0.0,0.0,85,spring\src\main\java\org\apache\metamodel\spring\SpringResource.java,0,0,0,0
org.apache.metamodel.sugarcrm.LoggingMessageHandler, 0, 0, 0, 0, 0, 0, 0, 0, 0, 0, 0, 0, 0, 0,0.0,0.0,0.0,0.0,0.0,0.0,0.0,0.0,0.0,0.0,0.0,0.0,0.0,36,sugarcrm\src\main\java\org\apache\metamodel\sugarcrm\LoggingMessageHandler.java,0,0,0,0
org.apache.metamodel.sugarcrm.SugarCrmDataContextTest, 0, 0, 0, 0, 0, 0, 0, 0, 0, 0, 0, 0, 0, 0,0.0,0.0,0.0,0.0,0.0,0.0,0.0,0.0,0.0,0.0,0.0,0.0,0.0,176,sugarcrm\src\test\java\org\apache\metamodel\sugarcrm\SugarCrmDataContextTest.java,0,0,0,0
org.apache.metamodel.sugarcrm.SugarCrmSchema, 0, 0, 0, 0, 0, 0, 0, 0, 0, 0, 0, 0, 0, 0,0.0,0.0,0.0,0.0,0.0,0.0,0.0,0.0,0.0,0.0,0.0,0.0,0.0,34,sugarcrm\src\main\java\org\apache\metamodel\sugarcrm\SugarCrmSchema.java,0,0,0,0
org.apache.metamodel.sugarcrm.SugarCrmXmlHelper, 0, 0, 0, 0, 0, 0, 0, 0, 0, 0, 0, 0, 0, 0,0.0,0.0,0.0,0.0,0.0,0.0,0.0,0.0,0.0,0.0,0.0,0.0,0.0,61,sugarcrm\src\main\java\org\apache\metamodel\sugarcrm\SugarCrmXmlHelper.java,0,0,0,0
org.apache.metamodel.update.RowUpdateable, 0, 0, 0, 0, 0, 0, 0, 0, 0, 0, 0, 0, 0, 0,0.0,0.0,0.0,0.0,0.0,0.0,0.0,0.0,0.0,0.0,0.0,0.0,0.0,61,core\src\main\java\org\apache\metamodel\update\RowUpdateable.java,0,0,0,0
org.apache.metamodel.update.RowUpdationBuilder, 0, 0, 0, 0, 0, 0, 0, 0, 0, 0, 0, 0, 0, 0,0.0,0.0,0.0,0.0,0.0,0.0,0.0,0.0,0.0,0.0,0.0,0.0,0.0,61,core\src\main\java\org\apache\metamodel\update\RowUpdationBuilder.java,0,0,0,0
org.apache.metamodel.update.SyntaxExamplesTest, 0, 0, 0, 0, 0, 0, 0, 0, 0, 0, 0, 0, 0, 0,0.0,0.0,0.0,0.0,0.0,0.0,0.0,0.0,0.0,0.0,0.0,0.0,0.0,7,core\src\test\java\org\apache\metamodel\update\SyntaxExamplesTest.java,0,0,0,0
org.apache.metamodel.update.Update, 0, 0, 0, 0, 0, 0, 0, 0, 0, 0, 0, 0, 0, 0,0.0,0.0,0.0,0.3333333333333333,0.0,0.0,0.0,0.0,0.0,0.0,0.0,0.0,0.0,69,core\src\main\java\org\apache\metamodel\update\Update.java,0,0,0,0
org.apache.metamodel.util.AbstractNumberAggregateBuilder, 0, 0, 0, 0, 0, 0, 0, 0, 0, 0, 0, 0, 0, 0,0.0,0.0,0.5,0.0,0.0,0.0,0.0,0.0,0.0,0.0,0.0,0.0,0.0,19,core\src\main\java\org\apache\metamodel\util\AbstractNumberAggregateBuilder.java,0,0,0,0
org.apache.metamodel.util.Action, 0, 0, 0, 0, 0, 0, 0, 0, 0, 0, 0, 0, 0, 0,0.0,0.0,0.0,0.0,0.0,0.0,0.0,0.0,0.0,0.0,0.0,0.0,0.0,19,core\src\main\java\org\apache\metamodel\util\Action.java,0,0,0,0
org.apache.metamodel.util.AggregateBuilder, 0, 0, 0, 0, 0, 0, 0, 0, 0, 0, 0, 0, 0, 0,0.0,0.0,0.0,0.0,0.0,0.0,0.0,0.0,0.0,0.0,0.0,0.0,0.0,19,core\src\main\java\org\apache\metamodel\util\AggregateBuilder.java,0,0,0,0
org.apache.metamodel.util.AlphabeticSequenceTest, 0, 0, 0, 0, 0, 0, 0, 0, 0, 0, 0, 0, 0, 0,0.0,0.0,0.0,0.0,0.0,0.0,0.0,0.0,0.0,0.0,0.0,0.0,0.0,42,core\src\test\java\org\apache\metamodel\util\AlphabeticSequenceTest.java,0,0,0,0
org.apache.metamodel.util.BaseObject, 0, 0, 0, 0, 0, 0, 0, 0, 0, 0, 0, 0, 0, 0,0.0,0.0,0.0,0.15789473684210525,0.0,0.0,0.0,0.10526315789473684,0.0,0.0,0.0,0.0,0.0,87,core\src\main\java\org\apache\metamodel\util\BaseObject.java,0,0,0,0
org.apache.metamodel.util.BaseObjectTest, 0, 0, 0, 0, 0, 0, 0, 0, 0, 0, 0, 0, 0, 0,0.0,0.0,0.0,0.0,0.0,0.0,0.0,0.0,0.0,0.0,0.0,0.0,0.0,21,core\src\test\java\org\apache\metamodel\util\BaseObjectTest.java,0,0,0,0
org.apache.metamodel.util.ClasspathResource, 0, 0, 0, 0, 0, 0, 0, 0, 0, 0, 0, 0, 0, 0,0.0,0.0,0.0,0.0,0.0,0.0,0.0,0.0,0.0,0.0,0.0,0.0,0.0,97,core\src\main\java\org\apache\metamodel\util\ClasspathResource.java,0,0,0,0
org.apache.metamodel.util.ClasspathResourceTest, 0, 0, 0, 0, 0, 0, 0, 0, 0, 0, 0, 0, 0, 0,0.0,0.0,0.0,0.0,0.0,0.0,0.0,0.0,0.0,0.0,0.0,0.0,0.0,19,core\src\test\java\org\apache\metamodel\util\ClasspathResourceTest.java,0,0,0,0
org.apache.metamodel.util.ConstantFunc, 0, 0, 0, 0, 0, 0, 0, 0, 0, 0, 0, 0, 0, 0,0.0,0.0,0.0,0.0,0.0,0.0,0.0,0.0,0.0,0.0,0.0,0.0,0.0,34,core\src\main\java\org\apache\metamodel\util\ConstantFunc.java,0,0,0,0
org.apache.metamodel.util.DateUtils, 0, 0, 0, 0, 0, 0, 0, 0, 0, 0, 0, 0, 0, 0,0.0,0.0,0.0,0.0,0.0,0.0,0.0,0.0,0.0,0.0,0.0,0.0,0.0,70,core\src\main\java\org\apache\metamodel\util\DateUtils.java,0,0,0,0
org.apache.metamodel.util.DateUtilsTest, 0, 0, 0, 0, 0, 0, 0, 0, 0, 0, 0, 0, 0, 0,0.0,0.0,0.0,0.0,0.0,0.0,0.0,0.0,0.0,0.0,0.0,0.0,0.0,12,core\src\test\java\org\apache\metamodel\util\DateUtilsTest.java,0,0,0,0
org.apache.metamodel.util.EqualsBuilder, 0, 0, 0, 0, 0, 0, 0, 0, 0, 0, 0, 0, 0, 0,0.0,0.0,0.0,0.0,0.0,0.0,0.0,0.0,0.0,0.0,0.0,0.0,0.0,60,core\src\main\java\org\apache\metamodel\util\EqualsBuilder.java,0,0,0,0
org.apache.metamodel.util.EqualsBuilderTest, 0, 0, 0, 0, 0, 0, 0, 0, 0, 0, 0, 0, 0, 0,0.0,0.0,0.0,0.0,0.0,0.0,0.0,0.0,0.0,0.0,0.0,0.0,0.0,27,core\src\test\java\org\apache\metamodel\util\EqualsBuilderTest.java,0,0,0,0
org.apache.metamodel.util.ExclusionPredicate, 0, 0, 0, 0, 0, 0, 0, 0, 0, 0, 0, 0, 0, 0,0.0,0.0,0.0,0.0,0.0,0.0,0.0,0.0,0.0,0.0,0.0,0.0,0.0,16,core\src\main\java\org\apache\metamodel\util\ExclusionPredicate.java,0,0,0,0
org.apache.metamodel.util.ExclusionPredicateTest, 0, 0, 0, 0, 0, 0, 0, 0, 0, 0, 0, 0, 0, 0,0.0,0.0,0.0,0.0,0.0,0.0,0.0,0.0,0.0,0.0,0.0,0.0,0.0,9,core\src\test\java\org\apache\metamodel\util\ExclusionPredicateTest.java,0,0,0,0
org.apache.metamodel.util.FalsePredicate, 0, 0, 0, 0, 0, 0, 0, 0, 0, 0, 0, 0, 0, 0,0.0,0.0,0.0,0.0,0.0,0.0,0.0,0.0,0.0,0.0,0.0,0.0,0.0,15,core\src\main\java\org\apache\metamodel\util\FalsePredicate.java,0,0,0,0
org.apache.metamodel.util.FileHelperTest, 0, 0, 0, 0, 0, 0, 0, 0, 0, 0, 0, 0, 0, 0,0.0,0.0,0.0,0.0,0.0,0.0,0.0,0.0,0.0,0.0,0.0,0.0,0.0,45,core\src\test\java\org\apache\metamodel\util\FileHelperTest.java,0,0,0,0
org.apache.metamodel.util.FileResource, 0, 0, 0, 0, 0, 0, 0, 0, 0, 0, 0, 0, 0, 0,0.0,0.0,0.0,0.0,0.0,0.0,0.0,0.0,0.0,0.0,0.0,0.0,0.0,103,core\src\main\java\org\apache\metamodel\util\FileResource.java,0,0,0,0
org.apache.metamodel.util.FormatHelperTest, 0, 0, 0, 0, 0, 0, 0, 0, 0, 0, 0, 0, 0, 0,0.0,0.0,0.0,0.0,0.0,0.0,0.0,0.0,0.0,0.0,0.0,0.0,0.0,33,core\src\test\java\org\apache\metamodel\util\FormatHelperTest.java,0,0,0,0
org.apache.metamodel.util.Func, 0, 0, 0, 0, 0, 0, 0, 0, 0, 0, 0, 0, 0, 0,0.0,0.0,0.0,0.0,0.0,0.0,0.0,0.0,0.0,0.0,0.0,0.0,0.0,33,core\src\main\java\org\apache\metamodel\util\Func.java,0,0,0,0
org.apache.metamodel.util.HasName, 0, 0, 0, 0, 0, 0, 0, 0, 0, 0, 0, 0, 0, 0,0.0,0.0,0.0,0.0,0.0,0.0,0.0,0.0,0.0,0.0,0.0,0.0,0.0,33,core\src\main\java\org\apache\metamodel\util\HasName.java,0,0,0,0
org.apache.metamodel.util.HasNameMapper, 0, 0, 0, 0, 0, 0, 0, 0, 0, 0, 0, 0, 0, 0,0.0,0.0,0.0,1.0,0.0,0.0,0.0,0.0,0.0,0.0,0.0,0.0,0.0,7,core\src\main\java\org\apache\metamodel\util\HasNameMapper.java,0,0,0,0
org.apache.metamodel.util.ImmutableDate, 0, 0, 0, 0, 0, 0, 0, 0, 0, 0, 0, 0, 0, 0,0.0,0.0,0.0,0.0,0.0,0.0,0.0,0.0,0.0,0.0,0.0,0.0,0.0,18,core\src\main\java\org\apache\metamodel\util\ImmutableDate.java,0,0,0,0
org.apache.metamodel.util.ImmutableRef, 0, 0, 0, 0, 0, 0, 0, 0, 0, 0, 0, 0, 0, 0,0.0,0.0,0.0,0.0,0.0,0.0,0.0,0.0,0.0,0.0,0.0,0.0,0.0,13,core\src\main\java\org\apache\metamodel\util\ImmutableRef.java,0,0,0,0
org.apache.metamodel.util.InMemoryResource, 0, 0, 0, 0, 0, 0, 0, 0, 0, 0, 0, 0, 0, 0,0.0,0.0,0.0,0.0,0.0,0.0,0.0,0.0,0.0,0.0,0.0,0.0,0.0,100,core\src\main\java\org\apache\metamodel\util\InMemoryResource.java,0,0,0,0
org.apache.metamodel.util.InMemoryResourceTest, 0, 0, 0, 0, 0, 0, 0, 0, 0, 0, 0, 0, 0, 0,0.0,0.0,0.0,0.0,0.0,0.0,0.0,0.0,0.0,0.0,0.0,0.0,0.0,48,core\src\test\java\org\apache\metamodel\util\InMemoryResourceTest.java,0,0,0,0
org.apache.metamodel.util.InclusionPredicate, 0, 0, 0, 0, 0, 0, 0, 0, 0, 0, 0, 0, 0, 0,0.0,0.0,0.0,0.0,0.0,0.0,0.0,0.0,0.0,0.0,0.0,0.0,0.0,16,core\src\main\java\org\apache\metamodel\util\InclusionPredicate.java,0,0,0,0
org.apache.metamodel.util.InclusionPredicateTest, 0, 0, 0, 0, 0, 0, 0, 0, 0, 0, 0, 0, 0, 0,0.0,0.0,0.0,0.0,0.0,0.0,0.0,0.0,0.0,0.0,0.0,0.0,0.0,9,core\src\test\java\org\apache\metamodel\util\InclusionPredicateTest.java,0,0,0,0
org.apache.metamodel.util.LazyRef, 0, 0, 0, 0, 0, 0, 0, 0, 0, 0, 0, 0, 0, 0,0.0,0.0,0.0,0.0,0.0,0.0,0.0,0.0,0.0,0.0,0.0,0.0,0.0,58,core\src\main\java\org\apache\metamodel\util\LazyRef.java,0,0,0,0
org.apache.metamodel.util.LazyRefTest, 0, 0, 0, 0, 0, 0, 0, 0, 0, 0, 0, 0, 0, 0,0.0,0.0,0.0,0.0,0.0,0.0,0.0,0.0,0.0,0.0,0.0,0.0,0.0,54,core\src\test\java\org\apache\metamodel\util\LazyRefTest.java,0,0,0,0
org.apache.metamodel.util.LegacyDeserializationObjectInputStreamTest, 0, 0, 0, 0, 0, 0, 0, 0, 0, 0, 0, 0, 0, 0,0.0,0.0,0.0,0.0,0.0,0.0,0.0,0.0,0.0,0.0,0.0,0.0,0.0,25,core\src\test\java\org\apache\metamodel\util\LegacyDeserializationObjectInputStreamTest.java,0,0,0,0
org.apache.metamodel.util.MonthTest, 0, 0, 0, 0, 0, 0, 0, 0, 0, 0, 0, 0, 0, 0,0.0,0.0,0.0,0.0,0.0,0.0,0.0,0.0,0.0,0.0,0.0,0.0,0.0,13,core\src\test\java\org\apache\metamodel\util\MonthTest.java,0,0,0,0
org.apache.metamodel.util.MutableRef, 0, 0, 0, 0, 0, 0, 0, 0, 0, 0, 0, 0, 0, 0,0.0,0.0,0.0,0.25,0.0,0.0,0.0,0.0,0.0,0.0,0.0,0.0,0.0,15,core\src\main\java\org\apache\metamodel\util\MutableRef.java,0,0,0,0
org.apache.metamodel.util.Predicate, 0, 0, 0, 0, 0, 0, 0, 0, 0, 0, 0, 0, 0, 0,0.0,0.0,0.0,0.0,0.0,0.0,0.0,0.0,0.0,0.0,0.0,0.0,0.0,15,core\src\main\java\org\apache\metamodel\util\Predicate.java,0,0,0,0
org.apache.metamodel.util.Ref, 0, 0, 0, 0, 0, 0, 0, 0, 0, 0, 0, 0, 0, 0,0.0,0.0,0.0,0.0,0.0,0.0,0.0,0.0,0.0,0.0,0.0,0.0,0.0,15,core\src\main\java\org\apache\metamodel\util\Ref.java,0,0,0,0
org.apache.metamodel.util.Resource, 0, 0, 0, 0, 0, 0, 0, 0, 0, 0, 0, 0, 0, 0,0.0,0.0,0.0,0.0,0.0,0.0,0.0,0.0,0.0,0.0,0.0,0.0,0.0,15,core\src\main\java\org\apache\metamodel\util\Resource.java,0,0,0,0
org.apache.metamodel.util.ResourceException, 0, 0, 0, 0, 0, 0, 0, 0, 0, 0, 0, 0, 0, 0,0.0,0.0,0.0,0.0,0.0,0.0,0.0,0.0,0.0,0.0,0.0,0.0,0.0,19,core\src\main\java\org\apache\metamodel\util\ResourceException.java,0,0,0,0
org.apache.metamodel.util.ResourceUtils, 0, 0, 0, 0, 0, 0, 0, 0, 0, 0, 0, 0, 0, 0,0.0,0.0,0.0,0.0,0.0,0.0,0.0,0.0,0.0,0.0,0.0,0.0,0.0,24,core\src\main\java\org\apache\metamodel\util\ResourceUtils.java,0,0,0,0
org.apache.metamodel.util.ResourceUtilsTest, 0, 0, 0, 0, 0, 0, 0, 0, 0, 0, 0, 0, 0, 0,0.0,0.0,0.0,0.0,0.0,0.0,0.0,0.0,0.0,0.0,0.0,0.0,0.0,20,core\src\test\java\org\apache\metamodel\util\ResourceUtilsTest.java,0,0,0,0
org.apache.metamodel.util.SerializableRef, 0, 0, 0, 0, 0, 0, 0, 0, 0, 0, 0, 0, 0, 0,0.0,0.0,0.0,0.0,0.0,0.0,0.0,0.0,0.0,0.0,0.0,0.0,0.0,53,core\src\main\java\org\apache\metamodel\util\SerializableRef.java,0,0,0,0
org.apache.metamodel.util.SerializableRefTest, 0, 0, 0, 0, 0, 0, 0, 0, 0, 0, 0, 0, 0, 0,0.0,0.0,0.0,0.0,0.0,0.0,0.0,0.0,0.0,0.0,0.0,0.0,0.0,27,core\src\test\java\org\apache\metamodel\util\SerializableRefTest.java,0,0,0,0
org.apache.metamodel.util.SharedExecutorService, 0, 0, 0, 0, 0, 0, 0, 0, 0, 0, 0, 0, 0, 0,0.0,0.0,0.0,0.0,0.0,0.0,0.0,0.0,0.0,0.0,0.0,0.0,0.0,27,core\src\main\java\org\apache\metamodel\util\SharedExecutorService.java,0,0,0,0
org.apache.metamodel.util.SimpleRefTest, 0, 0, 0, 0, 0, 0, 0, 0, 0, 0, 0, 0, 0, 0,0.0,0.0,0.0,0.0,0.0,0.0,0.0,0.0,0.0,0.0,0.0,0.0,0.0,9,core\src\test\java\org\apache\metamodel\util\SimpleRefTest.java,0,0,0,0
org.apache.metamodel.util.SimpleTableDef, 0, 0, 0, 0, 0, 0, 0, 0, 0, 0, 0, 0, 0, 0,0.0,0.0,0.0,0.2222222222222222,0.0,0.0,0.0,0.16666666666666666,0.0,0.0,0.0,0.0,0.0,100,core\src\main\java\org\apache\metamodel\util\SimpleTableDef.java,0,0,0,0
org.apache.metamodel.util.SimpleTableDefParser, 0, 0, 0, 0, 0, 0, 0, 0, 0, 0, 0, 0, 0, 0,0.0,0.0,0.0,0.3333333333333333,0.0,0.0,0.0,0.0,0.0,0.0,0.0,0.0,0.0,58,core\src\main\java\org\apache\metamodel\util\SimpleTableDefParser.java,0,0,0,0
org.apache.metamodel.util.SimpleTableDefParserTest, 0, 0, 0, 0, 0, 0, 0, 0, 0, 0, 0, 0, 0, 0,0.0,0.0,0.0,0.0,0.0,0.0,0.0,0.0,0.0,0.0,0.0,0.0,0.0,53,core\src\test\java\org\apache\metamodel\util\SimpleTableDefParserTest.java,0,0,0,0
org.apache.metamodel.util.TruePredicate, 0, 0, 0, 0, 0, 0, 0, 0, 0, 0, 0, 0, 0, 0,0.0,0.0,0.0,0.0,0.0,0.0,0.0,0.0,0.0,0.0,0.0,0.0,0.0,15,core\src\main\java\org\apache\metamodel\util\TruePredicate.java,0,0,0,0
org.apache.metamodel.util.UrlResource, 0, 0, 0, 0, 0, 0, 0, 0, 0, 0, 0, 0, 0, 0,0.0,0.0,0.0,0.0,0.0,0.0,0.0,0.0,0.0,0.0,0.0,0.0,0.0,101,core\src\main\java\org\apache\metamodel\util\UrlResource.java,0,0,0,0
org.apache.metamodel.util.UrlResourceTest, 0, 0, 0, 0, 0, 0, 0, 0, 0, 0, 0, 0, 0, 0,0.0,0.0,0.0,0.0,0.0,0.0,0.0,0.0,0.0,0.0,0.0,0.0,0.0,8,core\src\test\java\org\apache\metamodel\util\UrlResourceTest.java,0,0,0,0
org.apache.metamodel.util.WeekdayTest, 0, 0, 0, 0, 0, 0, 0, 0, 0, 0, 0, 0, 0, 0,0.0,0.0,0.0,0.0,0.0,0.0,0.0,0.0,0.0,0.0,0.0,0.0,0.0,13,core\src\test\java\org\apache\metamodel\util\WeekdayTest.java,0,0,0,0
org.apache.metamodel.util.WildcardPattern, 0, 0, 0, 0, 0, 0, 0, 0, 0, 0, 0, 0, 0, 0,0.0,0.0,0.0,0.0,0.0,0.0,0.0,0.0,0.0,0.0,0.0,0.0,0.0,32,core\src\main\java\org\apache\metamodel\util\WildcardPattern.java,0,0,0,0
org.apache.metamodel.util.WildcardPatternTest, 0, 0, 0, 0, 0, 0, 0, 0, 0, 0, 0, 0, 0, 0,0.0,0.0,0.0,0.0,0.0,0.0,0.0,0.0,0.0,0.0,0.0,0.0,0.0,18,core\src\test\java\org\apache\metamodel\util\WildcardPatternTest.java,0,0,0,0
org.apache.metamodel.xml.XmlDataContext, 0, 0, 0, 0, 0, 0, 0, 0, 0, 0, 0, 0, 0, 0,0.0,0.0,0.0,0.0,0.0,0.0,0.0,0.0,0.0,0.0,0.0,0.0,0.0,21,xml\src\main\java\org\apache\metamodel\xml\XmlDataContext.java,0,0,0,0
org.apache.metamodel.xml.XmlDomDataContextTest, 0, 0, 0, 0, 0, 0, 0, 0, 0, 0, 0, 0, 0, 0,0.0,0.0,0.0,0.0,0.0,0.0,0.0,0.0,0.0,0.0,0.0,0.0,0.0,239,xml\src\test\java\org\apache\metamodel\xml\XmlDomDataContextTest.java,0,0,0,0
org.apache.metamodel.xml.XmlSaxContentHandlerTest, 0, 0, 0, 0, 0, 0, 0, 0, 0, 0, 0, 0, 0, 0,0.0,0.0,0.0,0.0,0.0,0.0,0.0,0.0,0.0,0.0,0.0,0.0,0.0,35,xml\src\test\java\org\apache\metamodel\xml\XmlSaxContentHandlerTest.java,0,0,0,0
org.apache.metamodel.xml.XmlSaxDataContextTest, 0, 0, 0, 0, 0, 0, 0, 0, 0, 0, 0, 0, 0, 0,0.0,0.0,0.0,0.0,0.0,0.0,0.0,0.0,0.0,0.0,0.0,0.0,0.0,185,xml\src\test\java\org\apache\metamodel\xml\XmlSaxDataContextTest.java,0,0,0,0
org.apache.metamodel.xml.XmlSaxTableDef, 0, 0, 0, 0, 0, 0, 0, 0, 0, 0, 0, 0, 0, 0,0.0,0.0,0.0,0.0,0.0,0.0,0.0,0.0,0.0,0.0,0.0,0.0,0.0,42,xml\src\main\java\org\apache\metamodel\xml\XmlSaxTableDef.java,0,0,0,0
org.apache.metamodel.xml.XmlStopParsingException, 0, 0, 0, 0, 0, 0, 0, 0, 0, 0, 0, 0, 0, 0,0.0,0.0,0.0,0.0,0.0,0.0,0.0,0.0,0.0,0.0,0.0,0.0,0.0,3,xml\src\main\java\org\apache\metamodel\xml\XmlStopParsingException.java,0,0,0,0
