ClassName,AntiSingleton,Blob,ClassDataShouldBePrivate,ComplexClass,LargeClass,LazyClass,LongMethod,LongParameterList,MessageChains,RefusedParentBequest,SpaghettiCode,SpeculativeGenerality,SwissArmyKnife,NumOfAPs,AntiSingleton,Blob,ClassDataShouldBePrivate,ComplexClass,LargeClass,LazyClass,LongMethod,LongParameterList,MessageChains,RefusedParentBequest,SpaghettiCode,SpeculativeGenerality,SwissArmyKnife,LOC,name,deleted,added,changed,all
org.apache.commons.cli.avalon.AbstractParserControl, 0, 0, 0, 0, 0, 0, 0, 0, 0, 0, 0, 0, 0, 0,0.0,0.0,0.0,0.0,0.0,0.0,0.0,0.0,0.0,0.0,0.0,0.0,0.0,6,src\jorphan\org\apache\commons\cli\avalon\AbstractParserControl.java,0,0,0,0
org.apache.commons.cli.avalon.ParserControl, 0, 0, 0, 0, 0, 0, 0, 0, 0, 0, 0, 0, 0, 0,0.0,0.0,0.0,0.0,0.0,0.0,0.0,0.0,0.0,0.0,0.0,0.0,0.0,6,src\jorphan\org\apache\commons\cli\avalon\ParserControl.java,0,0,0,0
org.apache.commons.jexl.bsf.JexlEngine, 0, 0, 0, 0, 0, 0, 0, 1, 0, 0, 0, 0, 0, 1,0.0,0.0,0.0,0.0,0.0,0.0,0.0,0.0,0.0,0.0,0.0,0.0,0.0,90,src\jorphan\org\apache\commons\jexl\bsf\JexlEngine.java,0,0,0,0
org.apache.jmeter.DynamicClassLoader, 0, 0, 0, 0, 0, 0, 0, 1, 0, 0, 0, 0, 0, 1,0.0,0.0,0.0,0.0,0.0,0.0,0.0,0.0,0.0,0.0,0.0,0.0,0.0,23,src\core\org\apache\jmeter\DynamicClassLoader.java,0,0,0,0
org.apache.jmeter.ProxyAuthenticator, 0, 0, 0, 0, 0, 0, 0, 0, 0, 0, 0, 0, 0, 0,0.0,0.0,0.0,0.0,0.0,0.0,0.0,0.0,0.0,0.0,0.0,0.0,0.0,20,src\core\org\apache\jmeter\ProxyAuthenticator.java,0,0,0,0
org.apache.jmeter.assertions.Assertion, 0, 0, 0, 0, 0, 0, 0, 0, 0, 0, 0, 0, 0, 0,0.0,0.0,0.0,0.0,0.0,0.0,0.0,0.0,0.0,0.0,0.0,0.0,0.0,20,src\core\org\apache\jmeter\assertions\Assertion.java,0,0,0,0
org.apache.jmeter.assertions.AssertionResult, 0, 0, 0, 0, 0, 0, 0, 0, 0, 0, 0, 0, 0, 0,0.0,0.0,0.0,0.35714285714285715,0.0,0.0,0.0,0.07142857142857142,0.0,0.0,0.0,0.0,0.0,52,src\core\org\apache\jmeter\assertions\AssertionResult.java,0,0,0,0
org.apache.jmeter.assertions.BSFAssertion, 0, 0, 0, 0, 0, 0, 0, 0, 0, 0, 0, 0, 0, 0,0.0,0.0,0.0,0.0,0.0,0.0,0.0,0.0,0.0,0.0,0.0,0.0,0.0,27,src\components\org\apache\jmeter\assertions\BSFAssertion.java,0,0,0,0
org.apache.jmeter.assertions.BSFAssertionBeanInfo, 0, 0, 0, 0, 0, 1, 0, 0, 0, 0, 0, 0, 0, 1,0.0,0.0,0.0,0.0,0.0,0.0,0.0,0.0,0.0,0.0,0.0,0.0,0.0,5,src\components\org\apache\jmeter\assertions\BSFAssertionBeanInfo.java,0,0,0,0
org.apache.jmeter.assertions.BeanShellAssertion, 0, 0, 0, 0, 0, 0, 0, 0, 0, 0, 0, 0, 0, 0,0.0,0.0,0.0,0.0,0.0,0.0,0.0,0.5,0.0,0.0,0.0,0.0,0.0,71,src\components\org\apache\jmeter\assertions\BeanShellAssertion.java,0,0,0,0
org.apache.jmeter.assertions.CompareAssertionBeanInfo, 0, 0, 0, 0, 0, 0, 0, 0, 0, 0, 0, 0, 0, 0,0.0,0.0,0.0,1.0,0.0,0.0,0.0,0.0,0.0,0.0,0.0,0.0,0.0,26,src\components\org\apache\jmeter\assertions\CompareAssertionBeanInfo.java,0,0,0,0
org.apache.jmeter.assertions.CompareAssertionResult, 0, 0, 0, 0, 0, 0, 0, 0, 0, 0, 0, 0, 0, 0,0.0,0.0,0.0,0.0,0.0,0.0,0.0,0.0,0.0,0.0,0.0,0.0,0.0,57,src\core\org\apache\jmeter\assertions\CompareAssertionResult.java,0,0,0,0
org.apache.jmeter.assertions.DurationAssertion, 0, 0, 0, 0, 0, 0, 0, 0, 0, 0, 0, 0, 0, 0,0.0,0.0,0.0,0.0,0.0,0.0,0.0,0.0,0.0,0.0,0.0,0.0,0.0,25,src\components\org\apache\jmeter\assertions\DurationAssertion.java,0,0,0,0
org.apache.jmeter.assertions.HTMLAssertion, 0, 0, 0, 1, 0, 0, 0, 0, 0, 0, 0, 0, 0, 1,0.0,0.0,0.0,0.0,0.0,0.0,0.0,0.0,0.0,0.0,0.0,0.0,0.0,180,src\components\org\apache\jmeter\assertions\HTMLAssertion.java,0,0,0,0
org.apache.jmeter.assertions.JSR223AssertionBeanInfo, 0, 0, 0, 0, 0, 1, 0, 0, 0, 0, 0, 0, 0, 1,0.0,0.0,0.0,0.0,0.0,0.0,0.0,0.0,0.0,0.0,0.0,0.0,0.0,5,src\components\org\apache\jmeter\assertions\JSR223AssertionBeanInfo.java,0,0,0,0
org.apache.jmeter.assertions.MD5HexAssertion, 0, 0, 0, 0, 0, 0, 0, 0, 0, 0, 0, 0, 0, 0,0.0,0.0,0.0,0.0,0.0,0.0,0.0,0.0,0.0,0.0,0.0,0.0,0.0,48,src\components\org\apache\jmeter\assertions\MD5HexAssertion.java,0,0,0,0
org.apache.jmeter.assertions.MD5HexAssertionTest, 0, 0, 0, 0, 0, 0, 0, 0, 0, 0, 0, 0, 0, 0,0.0,0.0,0.0,0.0,0.0,0.0,0.0,0.0,0.0,0.0,0.0,0.0,0.0,11,test\src\org\apache\jmeter\assertions\MD5HexAssertionTest.java,0,0,0,0
org.apache.jmeter.assertions.ResponseAssertionTest, 0, 0, 0, 0, 0, 0, 0, 0, 0, 0, 0, 0, 0, 0,0.0,0.0,0.0,0.0,0.0,0.0,0.0,0.0,0.0,0.0,0.0,0.0,0.0,176,test\src\org\apache\jmeter\assertions\ResponseAssertionTest.java,0,0,0,0
org.apache.jmeter.assertions.SMIMEAssertionTestElement, 0, 0, 0, 1, 0, 0, 0, 0, 0, 0, 0, 0, 0, 1,0.0,0.0,0.0,0.0,0.0,0.0,0.0,0.0,0.0,0.0,0.0,0.0,0.0,99,src\components\org\apache\jmeter\assertions\SMIMEAssertionTestElement.java,0,0,0,0
org.apache.jmeter.assertions.SizeAssertion, 0, 0, 0, 1, 0, 0, 0, 0, 0, 0, 0, 0, 0, 1,0.0,0.0,0.0,0.0,0.0,0.0,0.0,0.0,0.0,0.0,0.0,0.0,0.0,140,src\components\org\apache\jmeter\assertions\SizeAssertion.java,0,0,0,0
org.apache.jmeter.assertions.SizeAssertionTest, 0, 0, 0, 0, 0, 0, 0, 0, 0, 0, 0, 0, 0, 0,0.0,0.0,0.0,0.25,0.0,0.0,0.0,0.25,0.0,0.0,0.0,0.0,0.0,108,test\src\org\apache\jmeter\assertions\SizeAssertionTest.java,0,0,0,0
org.apache.jmeter.assertions.SubstitutionElement, 0, 0, 0, 0, 0, 0, 0, 0, 0, 0, 0, 0, 0, 0,0.0,0.0,0.0,0.0,0.0,0.0,0.0,0.0,0.0,0.0,0.0,0.0,0.0,24,src\components\org\apache\jmeter\assertions\SubstitutionElement.java,0,0,0,0
org.apache.jmeter.assertions.XMLAssertion, 0, 0, 0, 0, 0, 0, 0, 0, 0, 0, 0, 0, 0, 0,0.0,0.0,0.0,0.0,0.0,0.0,0.0,0.0,0.0,0.0,0.0,0.0,0.0,39,src\components\org\apache\jmeter\assertions\XMLAssertion.java,0,0,0,0
org.apache.jmeter.assertions.XMLSchemaAssertionTest, 0, 0, 0, 0, 0, 0, 0, 0, 0, 0, 0, 0, 0, 0,0.0,0.0,0.0,0.0,0.0,0.0,0.0,0.3333333333333333,0.0,0.0,0.0,0.0,0.0,123,test\src\org\apache\jmeter\assertions\XMLSchemaAssertionTest.java,0,0,0,0
org.apache.jmeter.assertions.XPathAssertionTest, 0, 0, 0, 1, 0, 0, 0, 0, 0, 0, 0, 0, 0, 1,0.0,0.0,0.0,0.0,0.0,0.0,0.0,0.3333333333333333,0.0,0.0,0.0,0.0,0.0,253,test\src\org\apache\jmeter\assertions\XPathAssertionTest.java,0,0,0,0
org.apache.jmeter.assertions.gui.AbstractAssertionGui, 0, 0, 0, 0, 0, 0, 0, 0, 0, 0, 0, 0, 0, 0,0.0,0.0,0.0,0.0,0.0,0.0,0.0,0.5,0.0,0.0,0.0,0.0,0.0,7,src\core\org\apache\jmeter\assertions\gui\AbstractAssertionGui.java,0,0,0,0
org.apache.jmeter.assertions.gui.XMLAssertionGui, 0, 0, 0, 0, 0, 0, 0, 0, 0, 0, 0, 0, 0, 0,0.0,0.0,0.0,0.0,0.0,0.0,0.0,0.6666666666666666,0.0,0.0,0.0,0.0,0.0,25,src\components\org\apache\jmeter\assertions\gui\XMLAssertionGui.java,0,0,0,0
org.apache.jmeter.config.Argument, 0, 0, 0, 0, 0, 0, 0, 1, 0, 0, 0, 0, 0, 1,0.0,0.0,0.0,0.0625,0.0,0.0,0.0,0.125,0.0,0.0,0.0,0.0,0.0,70,src\core\org\apache\jmeter\config\Argument.java,0,0,0,0
org.apache.jmeter.config.CSVDataSetBeanInfo, 0, 0, 0, 0, 0, 0, 0, 0, 0, 0, 0, 0, 0, 0,0.0,0.0,0.0,0.5,0.0,0.0,0.0,0.0,0.0,0.0,0.0,0.0,0.0,67,src\components\org\apache\jmeter\config\CSVDataSetBeanInfo.java,0,0,0,0
org.apache.jmeter.config.ConfigElement, 0, 0, 0, 0, 0, 0, 0, 0, 0, 0, 0, 0, 0, 0,0.0,0.0,0.0,0.0,0.0,0.0,0.0,0.0,0.0,0.0,0.0,0.0,0.0,67,src\core\org\apache\jmeter\config\ConfigElement.java,0,0,0,0
org.apache.jmeter.config.ConfigTestElement, 0, 0, 0, 0, 0, 0, 0, 0, 0, 0, 0, 0, 0, 0,0.0,0.0,0.0,0.2,0.0,0.0,0.0,0.13333333333333333,0.0,0.0,0.0,0.0,0.0,21,src\core\org\apache\jmeter\config\ConfigTestElement.java,0,0,0,0
org.apache.jmeter.config.KeystoreConfig, 0, 0, 0, 0, 0, 0, 0, 0, 0, 0, 0, 0, 0, 0,0.0,0.0,0.0,0.0,0.0,0.0,0.0,0.0,0.0,0.0,0.0,0.0,0.0,83,src\components\org\apache\jmeter\config\KeystoreConfig.java,0,0,0,0
org.apache.jmeter.config.KeystoreConfigBeanInfo, 0, 0, 0, 0, 0, 0, 0, 0, 0, 0, 0, 0, 0, 0,0.0,0.0,0.0,1.0,0.0,0.0,0.0,0.0,0.0,0.0,0.0,0.0,0.0,27,src\components\org\apache\jmeter\config\KeystoreConfigBeanInfo.java,0,0,0,0
org.apache.jmeter.config.LoginConfig, 0, 0, 0, 0, 0, 0, 0, 0, 0, 0, 0, 0, 0, 0,0.0,0.0,0.0,0.0,0.0,0.0,0.0,0.0,0.0,0.0,0.0,0.0,0.0,22,src\core\org\apache\jmeter\config\LoginConfig.java,0,0,0,0
org.apache.jmeter.config.RandomVariableConfig, 0, 0, 0, 1, 0, 0, 0, 0, 0, 0, 0, 0, 0, 1,0.0,0.0,0.0,0.0,0.0,0.0,0.0,0.0,0.0,0.0,0.0,0.0,0.0,130,src\components\org\apache\jmeter\config\RandomVariableConfig.java,0,0,0,0
org.apache.jmeter.config.RandomVariableConfigBeanInfo, 0, 0, 0, 0, 0, 0, 0, 0, 0, 0, 0, 0, 0, 0,0.0,0.0,0.0,1.0,0.0,0.0,0.0,0.0,0.0,0.0,0.0,0.0,0.0,39,src\components\org\apache\jmeter\config\RandomVariableConfigBeanInfo.java,0,0,0,0
org.apache.jmeter.config.TestCVSDataSet, 0, 0, 0, 0, 0, 0, 0, 0, 0, 0, 0, 0, 0, 0,0.0,0.0,0.0,0.0,0.0,0.0,0.0,0.25,0.0,0.0,0.0,0.0,0.0,173,test\src\org\apache\jmeter\config\TestCVSDataSet.java,0,0,0,0
org.apache.jmeter.config.gui.AbstractConfigGui, 0, 0, 0, 0, 0, 0, 0, 0, 0, 0, 0, 0, 0, 0,0.0,0.0,0.0,0.0,0.0,0.0,0.0,1.0,0.0,0.0,0.0,0.0,0.0,11,src\core\org\apache\jmeter\config\gui\AbstractConfigGui.java,0,0,0,0
org.apache.jmeter.config.gui.TestArgumentsPanel, 0, 0, 0, 0, 0, 0, 0, 0, 0, 0, 0, 0, 0, 0,0.0,0.0,0.0,0.3333333333333333,0.0,0.0,0.0,0.6666666666666666,0.0,0.0,0.0,0.0,0.0,14,test\src\org\apache\jmeter\config\gui\TestArgumentsPanel.java,0,0,0,0
org.apache.jmeter.control.Controller, 0, 0, 0, 0, 0, 0, 0, 0, 0, 0, 0, 0, 0, 0,0.0,0.0,0.0,0.0,0.0,0.0,0.0,0.0,0.0,0.0,0.0,0.0,0.0,14,src\core\org\apache\jmeter\control\Controller.java,0,0,0,0
org.apache.jmeter.control.IfController, 0, 0, 0, 0, 0, 0, 0, 0, 0, 0, 0, 0, 0, 0,0.0,0.0,0.0,0.0,0.0,0.0,0.0,0.0,0.0,0.0,0.0,0.0,0.0,88,src\core\org\apache\jmeter\control\IfController.java,0,0,0,0
org.apache.jmeter.control.IncludeController, 0, 0, 0, 0, 0, 0, 0, 0, 0, 0, 0, 0, 0, 0,0.0,0.0,0.0,0.0,0.0,0.0,0.0,0.0,0.0,0.0,0.0,0.0,0.0,125,src\components\org\apache\jmeter\control\IncludeController.java,8,0,2,12
org.apache.jmeter.control.InterleaveControl, 0, 0, 0, 0, 0, 0, 0, 0, 0, 0, 0, 0, 0, 0,0.0,0.0,0.0,0.0,0.0,0.0,0.0,0.0,0.0,0.0,0.0,0.0,0.0,94,src\components\org\apache\jmeter\control\InterleaveControl.java,0,0,0,0
org.apache.jmeter.control.LoopController, 0, 0, 0, 0, 0, 0, 0, 0, 0, 0, 0, 0, 0, 0,0.0,0.0,0.0,0.0,0.0,0.0,0.0,0.0,0.0,0.0,0.0,0.0,0.0,101,src\core\org\apache\jmeter\control\LoopController.java,0,0,0,0
org.apache.jmeter.control.ModuleController, 0, 0, 0, 0, 0, 0, 0, 1, 0, 0, 0, 0, 0, 1,0.0,0.0,0.0,0.0,0.0,0.0,0.0,0.0,0.0,0.0,0.0,0.0,0.0,113,src\components\org\apache\jmeter\control\ModuleController.java,0,0,0,0
org.apache.jmeter.control.NextIsNullException, 0, 0, 0, 0, 0, 0, 0, 0, 0, 0, 0, 0, 0, 0,0.0,0.0,0.0,0.0,0.0,0.0,0.0,0.0,0.0,0.0,0.0,0.0,0.0,15,src\core\org\apache\jmeter\control\NextIsNullException.java,0,0,0,0
org.apache.jmeter.control.OnceOnlyController, 0, 0, 0, 0, 0, 0, 0, 0, 0, 0, 0, 0, 0, 0,0.0,0.0,0.0,0.0,0.0,0.0,0.0,0.0,0.0,0.0,0.0,0.0,0.0,19,src\components\org\apache\jmeter\control\OnceOnlyController.java,0,0,0,0
org.apache.jmeter.control.RandomController, 0, 0, 0, 0, 0, 0, 0, 0, 0, 0, 0, 0, 0, 0,0.0,0.0,0.0,0.0,0.0,0.0,0.0,0.0,0.0,0.0,0.0,0.0,0.0,18,src\components\org\apache\jmeter\control\RandomController.java,0,0,0,0
org.apache.jmeter.control.RandomOrderController, 0, 0, 0, 0, 0, 0, 0, 0, 0, 0, 0, 0, 0, 0,0.0,0.0,0.0,0.0,0.0,0.0,0.0,0.0,0.0,0.0,0.0,0.0,0.0,36,src\components\org\apache\jmeter\control\RandomOrderController.java,0,0,0,0
org.apache.jmeter.control.ReplaceableController, 0, 0, 0, 0, 0, 0, 0, 0, 0, 0, 0, 0, 0, 0,0.0,0.0,0.0,0.0,0.0,0.0,0.0,0.0,0.0,0.0,0.0,0.0,0.0,36,src\core\org\apache\jmeter\control\ReplaceableController.java,0,0,0,0
org.apache.jmeter.control.RunTime, 0, 0, 0, 0, 0, 0, 0, 0, 0, 0, 0, 0, 0, 0,0.0,0.0,0.0,0.0,0.0,0.0,0.0,0.0,0.0,0.0,0.0,0.0,0.0,78,src\core\org\apache\jmeter\control\RunTime.java,0,0,0,0
org.apache.jmeter.control.SwitchController, 0, 0, 0, 0, 0, 0, 0, 0, 0, 0, 0, 0, 0, 0,0.0,0.0,0.0,0.0,0.0,0.0,0.0,0.0,0.0,0.0,0.0,0.0,0.0,57,src\components\org\apache\jmeter\control\SwitchController.java,0,0,0,0
org.apache.jmeter.control.TestFragmentController, 0, 0, 0, 0, 0, 0, 0, 0, 0, 0, 0, 0, 0, 0,0.0,0.0,0.0,0.0,0.0,0.0,0.0,0.0,0.0,0.0,0.0,0.0,0.0,3,src\core\org\apache\jmeter\control\TestFragmentController.java,0,0,0,0
org.apache.jmeter.control.TestGenericController, 0, 0, 0, 0, 0, 0, 0, 0, 0, 0, 0, 0, 0, 0,0.0,0.0,0.0,0.0,0.0,0.0,0.0,0.5,0.0,0.0,0.0,0.0,0.0,33,test\src\org\apache\jmeter\control\TestGenericController.java,0,0,0,0
org.apache.jmeter.control.TestIfController, 0, 0, 0, 0, 0, 0, 0, 0, 0, 0, 0, 0, 0, 0,0.0,0.0,0.0,0.14285714285714285,0.0,0.0,0.0,0.14285714285714285,0.0,0.0,0.0,0.0,0.0,174,test\src\org\apache\jmeter\control\TestIfController.java,0,0,0,0
org.apache.jmeter.control.TestInterleaveControl, 0, 0, 0, 0, 0, 0, 0, 0, 0, 0, 0, 0, 0, 0,0.0,0.0,0.0,0.0,0.0,0.0,0.0,0.25,0.0,0.0,0.0,0.0,0.0,197,test\src\org\apache\jmeter\control\TestInterleaveControl.java,0,0,0,0
org.apache.jmeter.control.TestOnceOnlyController, 0, 0, 0, 0, 0, 0, 0, 0, 0, 0, 0, 0, 0, 0,0.0,0.0,0.0,0.0,0.0,0.0,0.0,0.2,0.0,0.0,0.0,0.0,0.0,239,test\src\org\apache\jmeter\control\TestOnceOnlyController.java,0,0,0,0
org.apache.jmeter.control.TestRandomOrderController, 0, 0, 0, 0, 0, 0, 0, 0, 0, 0, 0, 0, 0, 0,0.0,0.0,0.0,0.0,0.0,0.0,0.0,0.3333333333333333,0.0,0.0,0.0,0.0,0.0,44,test\src\org\apache\jmeter\control\TestRandomOrderController.java,0,0,0,0
org.apache.jmeter.control.TestRunTime, 0, 0, 0, 0, 0, 0, 0, 0, 0, 0, 0, 0, 0, 0,0.0,0.0,0.0,0.0,0.0,0.0,0.0,0.25,0.0,0.0,0.0,0.0,0.0,39,test\src\org\apache\jmeter\control\TestRunTime.java,0,0,0,0
org.apache.jmeter.control.TestThroughputController, 0, 0, 0, 0, 0, 0, 0, 0, 0, 0, 0, 0, 0, 0,0.0,0.0,0.0,0.25,0.0,0.0,0.0,0.25,0.0,0.0,0.0,0.0,0.0,160,test\src\org\apache\jmeter\control\TestThroughputController.java,0,0,0,0
org.apache.jmeter.control.TestWhileController, 0, 0, 0, 0, 0, 0, 0, 0, 0, 0, 0, 0, 0, 0,0.0,0.0,0.0,0.0,0.0,0.0,0.0,0.2,0.0,0.0,0.0,0.0,0.0,275,test\src\org\apache\jmeter\control\TestWhileController.java,0,0,0,0
org.apache.jmeter.control.ThroughputController, 0, 0, 0, 1, 0, 0, 0, 0, 0, 0, 0, 0, 0, 1,0.0,0.0,0.0,0.0,0.0,0.0,0.0,0.0,0.0,0.0,0.0,0.0,0.0,178,src\components\org\apache\jmeter\control\ThroughputController.java,0,0,0,0
org.apache.jmeter.control.TransactionController, 0, 0, 0, 1, 0, 0, 0, 0, 0, 0, 0, 0, 0, 1,0.0,0.0,0.0,0.0,0.0,0.0,0.0,0.3333333333333333,0.0,0.0,0.0,0.0,0.0,176,src\core\org\apache\jmeter\control\TransactionController.java,0,1,0,1
org.apache.jmeter.control.TransactionSampler, 0, 0, 0, 0, 0, 0, 0, 0, 0, 0, 0, 0, 0, 0,0.0,0.0,0.0,0.6666666666666666,0.0,0.0,0.0,0.3333333333333333,0.0,0.0,0.0,0.0,0.0,75,src\core\org\apache\jmeter\control\TransactionSampler.java,0,0,0,0
org.apache.jmeter.control.WhileController, 0, 0, 0, 0, 0, 0, 0, 0, 0, 0, 0, 0, 0, 0,0.0,0.0,0.0,0.0,0.0,0.0,0.0,0.0,0.0,0.0,0.0,0.0,0.0,57,src\core\org\apache\jmeter\control\WhileController.java,0,0,0,0
org.apache.jmeter.control.gui.AbstractControllerGui, 0, 0, 0, 0, 0, 0, 0, 0, 0, 0, 0, 0, 0, 0,0.0,0.0,0.0,0.0,0.0,0.0,0.0,0.25,0.0,0.0,0.0,0.0,0.0,11,src\core\org\apache\jmeter\control\gui\AbstractControllerGui.java,0,0,0,0
org.apache.jmeter.control.gui.LogicControllerGui, 0, 0, 0, 0, 0, 0, 0, 0, 0, 0, 0, 0, 0, 0,0.0,0.0,0.0,0.0,0.0,0.0,0.0,0.25,0.0,0.0,0.0,0.0,0.0,25,src\core\org\apache\jmeter\control\gui\LogicControllerGui.java,0,0,0,0
org.apache.jmeter.control.gui.OnceOnlyControllerGui, 0, 0, 0, 0, 0, 0, 0, 0, 0, 0, 0, 0, 0, 0,0.0,0.0,0.0,0.0,0.0,0.0,0.0,0.5,0.0,0.0,0.0,0.0,0.0,25,src\components\org\apache\jmeter\control\gui\OnceOnlyControllerGui.java,0,0,0,0
org.apache.jmeter.control.gui.RandomOrderControllerGui, 0, 0, 0, 0, 0, 0, 0, 0, 0, 0, 0, 0, 0, 0,0.0,0.0,0.0,0.0,0.0,0.0,0.0,0.3333333333333333,0.0,0.0,0.0,0.0,0.0,17,src\components\org\apache\jmeter\control\gui\RandomOrderControllerGui.java,0,0,0,0
org.apache.jmeter.control.gui.TestFragmentControllerGui, 0, 0, 0, 0, 0, 0, 0, 0, 0, 0, 0, 0, 0, 0,0.0,0.0,0.0,0.0,0.0,0.0,0.0,0.5,0.0,0.0,0.0,0.0,0.0,29,src\core\org\apache\jmeter\control\gui\TestFragmentControllerGui.java,0,1,0,1
org.apache.jmeter.control.gui.TreeNodeWrapper, 0, 0, 0, 0, 0, 0, 0, 0, 0, 0, 0, 0, 0, 0,0.0,0.0,0.0,0.0,0.0,0.0,0.0,0.0,0.0,0.0,0.0,0.0,0.0,15,src\components\org\apache\jmeter\control\gui\TreeNodeWrapper.java,0,3,0,3
org.apache.jmeter.engine.ConvertListeners, 0, 0, 0, 0, 0, 0, 0, 0, 0, 0, 0, 0, 0, 0,0.0,0.0,0.0,0.0,0.0,0.0,0.0,0.0,0.0,0.0,0.0,0.0,0.0,50,src\core\org\apache\jmeter\engine\ConvertListeners.java,0,0,0,0
org.apache.jmeter.engine.JMeterEngine, 0, 0, 0, 0, 0, 0, 0, 0, 0, 0, 0, 0, 0, 0,0.0,0.0,0.0,0.0,0.0,0.0,0.0,0.0,0.0,0.0,0.0,0.0,0.0,50,src\core\org\apache\jmeter\engine\JMeterEngine.java,0,0,0,0
org.apache.jmeter.engine.JMeterEngineException, 0, 0, 0, 0, 0, 0, 0, 0, 0, 0, 0, 0, 0, 0,0.0,0.0,0.0,0.0,0.0,0.0,0.0,0.0,0.0,0.0,0.0,0.0,0.0,15,src\core\org\apache\jmeter\engine\JMeterEngineException.java,0,0,0,0
org.apache.jmeter.engine.RemoteJMeterEngine, 0, 0, 0, 0, 0, 0, 0, 0, 0, 0, 0, 0, 0, 0,0.0,0.0,0.0,0.0,0.0,0.0,0.0,0.0,0.0,0.0,0.0,0.0,0.0,15,src\core\org\apache\jmeter\engine\RemoteJMeterEngine.java,0,0,0,0
org.apache.jmeter.engine.StandardJMeterEngine, 0, 0, 0, 1, 0, 0, 0, 1, 0, 0, 0, 0, 0, 2,0.0,0.0,0.0,0.2,0.0,0.0,0.0,0.4,0.0,0.0,0.0,0.0,0.0,392,src\core\org\apache\jmeter\engine\StandardJMeterEngine.java,0,0,0,0
org.apache.jmeter.engine.TestTreeCloner, 0, 0, 0, 0, 0, 0, 0, 0, 0, 0, 0, 0, 0, 0,0.0,0.0,0.0,0.0,0.0,0.0,0.0,0.25,0.0,0.0,0.0,0.0,0.0,50,test\src\org\apache\jmeter\engine\TestTreeCloner.java,0,0,0,0
org.apache.jmeter.engine.TreeCloner, 0, 0, 0, 0, 0, 0, 0, 0, 0, 0, 0, 0, 0, 0,0.0,0.0,0.0,0.0,0.0,0.0,0.0,0.0,0.0,0.0,0.0,0.0,0.0,41,src\core\org\apache\jmeter\engine\TreeCloner.java,0,0,0,0
org.apache.jmeter.engine.TreeClonerNoTimer, 0, 0, 0, 0, 0, 0, 0, 0, 0, 0, 0, 0, 0, 0,0.0,0.0,0.0,0.0,0.0,0.0,0.0,0.0,0.0,0.0,0.0,0.0,0.0,20,src\core\org\apache\jmeter\engine\TreeClonerNoTimer.java,0,0,0,0
org.apache.jmeter.engine.TurnElementsOn, 0, 0, 0, 0, 0, 0, 0, 0, 0, 0, 0, 0, 0, 0,0.0,0.0,0.0,0.0,0.0,0.0,0.0,0.0,0.0,0.0,0.0,0.0,0.0,14,src\core\org\apache\jmeter\engine\TurnElementsOn.java,0,0,0,0
org.apache.jmeter.engine.event.LoopIterationEvent, 0, 0, 0, 0, 0, 0, 0, 0, 0, 0, 0, 0, 0, 0,0.0,0.0,0.0,0.625,0.0,0.0,0.0,0.25,0.0,0.0,0.0,0.0,0.0,14,src\core\org\apache\jmeter\engine\event\LoopIterationEvent.java,0,0,0,0
org.apache.jmeter.engine.event.LoopIterationListener, 0, 0, 0, 0, 0, 0, 0, 0, 0, 0, 0, 0, 0, 0,0.0,0.0,0.0,0.0,0.0,0.0,0.0,0.0,0.0,0.0,0.0,0.0,0.0,14,src\core\org\apache\jmeter\engine\event\LoopIterationListener.java,0,0,0,0
org.apache.jmeter.engine.util.ConfigMergabilityIndicator, 0, 0, 0, 0, 0, 0, 0, 0, 0, 0, 0, 0, 0, 0,0.0,0.0,0.0,0.0,0.0,0.0,0.0,0.0,0.0,0.0,0.0,0.0,0.0,14,src\core\org\apache\jmeter\engine\util\ConfigMergabilityIndicator.java,0,0,0,0
org.apache.jmeter.engine.util.NoConfigMerge, 0, 0, 0, 0, 0, 0, 0, 0, 0, 0, 0, 0, 0, 0,0.0,0.0,0.0,0.0,0.0,0.0,0.0,0.0,0.0,0.0,0.0,0.0,0.0,14,src\core\org\apache\jmeter\engine\util\NoConfigMerge.java,0,0,0,0
org.apache.jmeter.engine.util.NoThreadClone, 0, 0, 0, 0, 0, 0, 0, 0, 0, 0, 0, 0, 0, 0,0.0,0.0,0.0,0.0,0.0,0.0,0.0,0.0,0.0,0.0,0.0,0.0,0.0,14,src\core\org\apache\jmeter\engine\util\NoThreadClone.java,0,0,0,0
org.apache.jmeter.engine.util.SimpleVariable, 0, 0, 0, 0, 0, 0, 0, 0, 0, 0, 0, 0, 0, 0,0.0,0.0,0.0,0.0,0.0,0.0,0.0,0.0,0.0,0.0,0.0,0.0,0.0,31,src\core\org\apache\jmeter\engine\util\SimpleVariable.java,0,0,0,0
org.apache.jmeter.engine.util.TestValueReplacer, 0, 0, 0, 0, 0, 0, 0, 0, 0, 0, 0, 0, 0, 0,0.0,0.0,0.0,0.0,0.0,0.0,0.0,0.2,0.0,0.0,0.0,0.0,0.0,98,test\src\org\apache\jmeter\engine\util\TestValueReplacer.java,0,0,0,0
org.apache.jmeter.examples.sampler.ExampleSampler, 0, 0, 0, 0, 0, 0, 0, 0, 0, 0, 0, 0, 0, 0,0.0,0.0,0.0,0.0,0.0,0.0,0.0,0.0,0.0,0.0,0.0,0.0,0.0,48,src\examples\org\apache\jmeter\examples\sampler\ExampleSampler.java,0,0,0,0
org.apache.jmeter.examples.testbeans.example1.Example1, 0, 0, 0, 0, 0, 0, 0, 0, 0, 0, 0, 0, 0, 0,0.0,0.0,0.0,0.0,0.0,0.0,0.0,0.0,0.0,0.0,0.0,0.0,0.0,22,src\examples\org\apache\jmeter\examples\testbeans\example1\Example1.java,0,0,0,0
org.apache.jmeter.examples.testbeans.example2.Example2, 0, 0, 0, 0, 0, 0, 0, 0, 0, 0, 0, 0, 0, 0,0.0,0.0,0.0,0.0,0.0,0.0,0.0,0.0,0.0,0.0,0.0,0.0,0.0,22,src\examples\org\apache\jmeter\examples\testbeans\example2\Example2.java,0,0,0,0
org.apache.jmeter.examples.testbeans.example2.Example2BeanInfo, 0, 0, 0, 0, 0, 1, 0, 0, 0, 0, 0, 0, 0, 1,0.0,0.0,0.0,1.0,0.0,0.0,0.0,0.0,0.0,0.0,0.0,0.0,0.0,6,src\examples\org\apache\jmeter\examples\testbeans\example2\Example2BeanInfo.java,0,0,0,0
org.apache.jmeter.examples.testbeans.example3.Example3BeanInfo, 0, 0, 0, 0, 0, 0, 0, 0, 0, 0, 0, 0, 0, 0,0.0,0.0,0.0,1.0,0.0,0.0,0.0,0.0,0.0,0.0,0.0,0.0,0.0,29,src\examples\org\apache\jmeter\examples\testbeans\example3\Example3BeanInfo.java,0,0,0,0
org.apache.jmeter.exceptions.IllegalUserActionException, 0, 0, 0, 0, 0, 0, 0, 0, 0, 0, 0, 0, 0, 0,0.0,0.0,0.0,0.0,0.0,0.0,0.0,0.4,0.0,0.0,0.0,0.0,0.0,13,src\core\org\apache\jmeter\exceptions\IllegalUserActionException.java,0,0,0,0
org.apache.jmeter.extractor.BSFPostProcessor, 0, 0, 0, 0, 0, 0, 0, 0, 0, 0, 0, 0, 0, 0,0.0,0.0,0.0,0.0,0.0,0.0,0.0,0.0,0.0,0.0,0.0,0.0,0.0,19,src\components\org\apache\jmeter\extractor\BSFPostProcessor.java,0,0,0,0
org.apache.jmeter.extractor.BSFPostProcessorBeanInfo, 0, 0, 0, 0, 0, 1, 0, 0, 0, 0, 0, 0, 0, 1,0.0,0.0,0.0,0.0,0.0,0.0,0.0,0.0,0.0,0.0,0.0,0.0,0.0,5,src\components\org\apache\jmeter\extractor\BSFPostProcessorBeanInfo.java,0,0,0,0
org.apache.jmeter.extractor.BeanShellPostProcessor, 0, 0, 0, 0, 0, 0, 0, 0, 0, 0, 0, 0, 0, 0,0.0,0.0,0.0,0.0,0.0,0.0,0.0,0.3333333333333333,0.0,0.0,0.0,0.0,0.0,30,src\components\org\apache\jmeter\extractor\BeanShellPostProcessor.java,0,0,0,0
org.apache.jmeter.extractor.BeanShellPostProcessorBeanInfo, 0, 0, 0, 0, 0, 1, 0, 0, 0, 0, 0, 0, 0, 1,0.0,0.0,0.0,0.0,0.0,0.0,0.0,0.0,0.0,0.0,0.0,0.0,0.0,5,src\components\org\apache\jmeter\extractor\BeanShellPostProcessorBeanInfo.java,0,0,0,0
org.apache.jmeter.extractor.DebugPostProcessorBeanInfo, 0, 0, 0, 0, 0, 0, 0, 0, 0, 0, 0, 0, 0, 0,0.0,0.0,0.0,1.0,0.0,0.0,0.0,0.0,0.0,0.0,0.0,0.0,0.0,26,src\components\org\apache\jmeter\extractor\DebugPostProcessorBeanInfo.java,0,0,0,0
org.apache.jmeter.extractor.Extractor, 0, 0, 0, 0, 0, 0, 0, 0, 0, 0, 0, 0, 0, 0,0.0,0.0,0.0,0.0,0.0,0.0,0.0,0.0,0.0,0.0,0.0,0.0,0.0,26,src\components\org\apache\jmeter\extractor\Extractor.java,0,0,0,0
org.apache.jmeter.extractor.JSR223PostProcessor, 0, 0, 0, 0, 0, 0, 0, 0, 0, 0, 0, 0, 0, 0,0.0,0.0,0.0,0.0,0.0,0.0,0.0,0.0,0.0,0.0,0.0,0.0,0.0,16,src\components\org\apache\jmeter\extractor\JSR223PostProcessor.java,0,0,0,0
org.apache.jmeter.extractor.JSR223PostProcessorBeanInfo, 0, 0, 0, 0, 0, 1, 0, 0, 0, 0, 0, 0, 0, 1,0.0,0.0,0.0,0.0,0.0,0.0,0.0,0.0,0.0,0.0,0.0,0.0,0.0,5,src\components\org\apache\jmeter\extractor\JSR223PostProcessorBeanInfo.java,0,0,0,0
org.apache.jmeter.extractor.JSoupExtractor, 0, 0, 0, 0, 0, 0, 0, 1, 0, 0, 0, 0, 0, 1,0.0,0.0,0.0,0.0,0.0,0.0,0.0,0.0,0.0,0.0,0.0,0.0,0.0,42,src\components\org\apache\jmeter\extractor\JSoupExtractor.java,0,0,0,0
org.apache.jmeter.extractor.JoddExtractor, 0, 0, 0, 0, 0, 0, 0, 1, 0, 0, 0, 0, 0, 1,0.0,0.0,0.0,0.0,0.0,0.0,0.0,0.0,0.0,0.0,0.0,0.0,0.0,49,src\components\org\apache\jmeter\extractor\JoddExtractor.java,0,0,0,0
org.apache.jmeter.extractor.TestRegexExtractor, 0, 0, 0, 1, 0, 0, 0, 0, 0, 0, 0, 0, 0, 1,0.0,0.0,0.0,0.0,0.0,0.0,0.0,0.0,0.0,0.0,0.0,0.0,0.0,341,test\src\org\apache\jmeter\extractor\TestRegexExtractor.java,0,0,0,0
org.apache.jmeter.extractor.TestXPathExtractor, 0, 0, 0, 0, 0, 0, 0, 0, 0, 0, 0, 0, 0, 0,0.0,0.0,0.0,0.0,0.0,0.0,0.0,0.0,0.0,0.0,0.0,0.0,0.0,153,test\src\org\apache\jmeter\extractor\TestXPathExtractor.java,0,0,0,0
org.apache.jmeter.functions.AbstractFunction, 0, 0, 0, 0, 0, 0, 0, 1, 0, 0, 0, 0, 0, 1,0.0,0.0,0.0,0.029411764705882353,0.0,0.0,0.0,0.058823529411764705,0.0,0.0,0.0,0.0,0.0,55,src\core\org\apache\jmeter\functions\AbstractFunction.java,0,0,0,0
org.apache.jmeter.functions.AbstractHostIPName, 0, 0, 0, 0, 0, 0, 0, 0, 0, 0, 0, 0, 0, 0,0.0,0.0,0.0,0.0,0.0,0.0,0.0,0.3333333333333333,0.0,0.0,0.0,0.0,0.0,34,src\functions\org\apache\jmeter\functions\AbstractHostIPName.java,0,0,0,0
org.apache.jmeter.functions.BeanShell, 0, 0, 0, 0, 0, 0, 0, 0, 0, 0, 0, 0, 0, 0,0.0,0.0,0.0,0.2,0.0,0.0,0.0,0.6,0.0,0.0,0.0,0.0,0.0,76,src\functions\org\apache\jmeter\functions\BeanShell.java,0,0,0,0
org.apache.jmeter.functions.CSVRead, 0, 0, 0, 0, 0, 0, 0, 0, 0, 0, 0, 0, 0, 0,0.0,0.0,0.0,0.5,0.0,0.0,0.0,1.0,0.0,0.0,0.0,0.0,0.0,64,src\functions\org\apache\jmeter\functions\CSVRead.java,0,0,0,0
org.apache.jmeter.functions.EscapeHtml, 0, 0, 0, 0, 0, 0, 0, 0, 0, 0, 0, 0, 0, 0,0.0,0.0,0.0,0.0,0.0,0.0,0.0,1.0,0.0,0.0,0.0,0.0,0.0,29,src\functions\org\apache\jmeter\functions\EscapeHtml.java,0,0,0,0
org.apache.jmeter.functions.EscapeOroRegexpChars, 0, 0, 0, 0, 0, 0, 0, 0, 0, 0, 0, 0, 0, 0,0.0,0.0,0.0,0.0,0.0,0.0,0.0,1.0,0.0,0.0,0.0,0.0,0.0,51,src\functions\org\apache\jmeter\functions\EscapeOroRegexpChars.java,0,0,0,0
org.apache.jmeter.functions.EvalFunction, 0, 0, 0, 0, 0, 0, 0, 0, 0, 0, 0, 0, 0, 0,0.0,0.0,0.0,0.5,0.0,0.0,0.0,1.0,0.0,0.0,0.0,0.0,0.0,32,src\functions\org\apache\jmeter\functions\EvalFunction.java,0,0,0,0
org.apache.jmeter.functions.EvalVarFunction, 0, 0, 0, 0, 0, 0, 0, 0, 0, 0, 0, 0, 0, 0,0.0,0.0,0.0,0.5,0.0,0.0,0.0,1.0,0.0,0.0,0.0,0.0,0.0,39,src\functions\org\apache\jmeter\functions\EvalVarFunction.java,0,0,0,0
org.apache.jmeter.functions.FileRowColContainer, 0, 0, 0, 0, 0, 0, 0, 0, 0, 0, 0, 0, 0, 0,0.0,0.0,0.0,0.0,0.0,0.0,0.0,0.0,0.0,0.0,0.0,0.0,0.0,97,src\functions\org\apache\jmeter\functions\FileRowColContainer.java,0,0,0,0
org.apache.jmeter.functions.FileToString, 0, 0, 0, 0, 0, 0, 0, 0, 0, 0, 0, 0, 0, 0,0.0,0.0,0.0,0.0,0.0,0.0,0.0,0.5,0.0,0.0,0.0,0.0,0.0,66,src\functions\org\apache\jmeter\functions\FileToString.java,0,0,0,0
org.apache.jmeter.functions.Function, 0, 0, 0, 0, 0, 0, 0, 0, 0, 0, 0, 0, 0, 0,0.0,0.0,0.0,0.0,0.0,0.0,0.0,0.0,0.0,0.0,0.0,0.0,0.0,66,src\core\org\apache\jmeter\functions\Function.java,0,0,0,0
org.apache.jmeter.functions.IntSum, 0, 0, 0, 0, 0, 0, 0, 0, 0, 0, 0, 0, 0, 0,0.0,0.0,0.0,0.5,0.0,0.0,0.0,1.0,0.0,0.0,0.0,0.0,0.0,45,src\functions\org\apache\jmeter\functions\IntSum.java,0,0,0,0
org.apache.jmeter.functions.InvalidVariableException, 0, 0, 0, 0, 0, 0, 0, 0, 0, 0, 0, 0, 0, 0,0.0,0.0,0.0,0.16666666666666666,0.0,0.0,0.0,0.5,0.0,0.0,0.0,0.0,0.0,14,src\core\org\apache\jmeter\functions\InvalidVariableException.java,0,0,0,0
org.apache.jmeter.functions.IterationCounter, 0, 0, 0, 0, 0, 0, 0, 0, 0, 0, 0, 0, 0, 0,0.0,0.0,0.0,0.0,0.0,0.0,0.0,1.0,0.0,0.0,0.0,0.0,0.0,64,src\functions\org\apache\jmeter\functions\IterationCounter.java,0,0,0,0
org.apache.jmeter.functions.JavaScript, 0, 0, 0, 0, 0, 0, 0, 0, 0, 0, 0, 0, 0, 0,0.0,0.0,0.0,0.0,0.0,0.0,0.0,0.3333333333333333,0.0,0.0,0.0,0.0,0.0,56,src\functions\org\apache\jmeter\functions\JavaScript.java,0,0,0,0
org.apache.jmeter.functions.Jexl2Function, 0, 0, 0, 0, 0, 0, 0, 0, 0, 0, 0, 0, 0, 0,0.0,0.0,0.0,0.0,0.0,0.0,0.0,0.5,0.0,0.0,0.0,0.0,0.0,91,src\functions\org\apache\jmeter\functions\Jexl2Function.java,0,0,0,0
org.apache.jmeter.functions.LogFunction2, 0, 0, 0, 0, 0, 0, 0, 0, 0, 0, 0, 0, 0, 0,0.0,0.0,0.0,0.0,0.0,0.0,0.0,1.0,0.0,0.0,0.0,0.0,0.0,49,src\functions\org\apache\jmeter\functions\LogFunction2.java,0,0,0,0
org.apache.jmeter.functions.LongSum, 0, 0, 0, 0, 0, 0, 0, 0, 0, 0, 0, 0, 0, 0,0.0,0.0,0.0,0.5,0.0,0.0,0.0,1.0,0.0,0.0,0.0,0.0,0.0,45,src\functions\org\apache\jmeter\functions\LongSum.java,0,0,0,0
org.apache.jmeter.functions.MachineIP, 0, 0, 0, 0, 0, 0, 0, 0, 0, 0, 0, 0, 0, 0,0.0,0.0,0.0,0.0,0.0,0.0,0.0,0.0,0.0,0.0,0.0,0.0,0.0,13,src\functions\org\apache\jmeter\functions\MachineIP.java,0,0,0,0
org.apache.jmeter.functions.MachineName, 0, 0, 0, 0, 0, 0, 0, 0, 0, 0, 0, 0, 0, 0,0.0,0.0,0.0,0.0,0.0,0.0,0.0,0.0,0.0,0.0,0.0,0.0,0.0,13,src\functions\org\apache\jmeter\functions\MachineName.java,0,0,0,0
org.apache.jmeter.functions.PackageTest, 0, 0, 0, 1, 0, 0, 0, 1, 0, 0, 0, 0, 0, 2,0.0,0.0,0.0,0.0,0.0,0.0,0.0,0.1875,0.0,0.0,0.0,0.0,0.0,726,test\src\org\apache\jmeter\functions\PackageTest.java,0,0,0,0
org.apache.jmeter.functions.Property, 0, 0, 0, 0, 0, 0, 0, 0, 0, 0, 0, 0, 0, 0,0.0,0.0,0.0,0.0,0.0,0.0,0.0,1.0,0.0,0.0,0.0,0.0,0.0,47,src\functions\org\apache\jmeter\functions\Property.java,0,0,0,0
org.apache.jmeter.functions.Property2, 0, 0, 0, 0, 0, 0, 0, 0, 0, 0, 0, 0, 0, 0,0.0,0.0,0.0,0.0,0.0,0.0,0.0,1.0,0.0,0.0,0.0,0.0,0.0,37,src\functions\org\apache\jmeter\functions\Property2.java,0,0,0,0
org.apache.jmeter.functions.Random, 0, 0, 0, 0, 0, 0, 0, 0, 0, 0, 0, 0, 0, 0,0.0,0.0,0.0,0.5,0.0,0.0,0.0,1.0,0.0,0.0,0.0,0.0,0.0,48,src\functions\org\apache\jmeter\functions\Random.java,0,1,1,3
org.apache.jmeter.functions.RandomString, 0, 0, 0, 0, 0, 0, 0, 0, 0, 0, 0, 0, 0, 0,0.0,0.0,0.0,0.0,0.0,0.0,0.0,1.0,0.0,0.0,0.0,0.0,0.0,65,src\functions\org\apache\jmeter\functions\RandomString.java,0,0,0,0
org.apache.jmeter.functions.SamplerName, 0, 0, 0, 0, 0, 0, 0, 0, 0, 0, 0, 0, 0, 0,0.0,0.0,0.0,0.0,0.0,0.0,0.0,1.0,0.0,0.0,0.0,0.0,0.0,40,src\functions\org\apache\jmeter\functions\SamplerName.java,0,0,0,0
org.apache.jmeter.functions.SetProperty, 0, 0, 0, 0, 0, 0, 0, 0, 0, 0, 0, 0, 0, 0,0.0,0.0,0.0,0.0,0.0,0.0,0.0,1.0,0.0,0.0,0.0,0.0,0.0,43,src\functions\org\apache\jmeter\functions\SetProperty.java,0,0,0,0
org.apache.jmeter.functions.SplitFunction, 0, 0, 0, 0, 0, 0, 0, 0, 0, 0, 0, 0, 0, 0,0.0,0.0,0.0,0.5,0.0,0.0,0.0,1.0,0.0,0.0,0.0,0.0,0.0,53,src\functions\org\apache\jmeter\functions\SplitFunction.java,0,0,0,0
org.apache.jmeter.functions.TestFileRowColContainer, 0, 0, 0, 0, 0, 0, 0, 0, 0, 0, 0, 0, 0, 0,0.0,0.0,0.0,0.0,0.0,0.0,0.0,0.5,0.0,0.0,0.0,0.0,0.0,95,test\src\org\apache\jmeter\functions\TestFileRowColContainer.java,0,0,0,0
org.apache.jmeter.functions.TestJexlFunction, 0, 0, 0, 0, 0, 0, 0, 0, 0, 0, 0, 0, 0, 0,0.0,0.0,0.0,0.0,0.0,0.0,0.0,0.5,0.0,0.0,0.0,0.0,0.0,55,test\src\org\apache\jmeter\functions\TestJexlFunction.java,0,0,0,0
org.apache.jmeter.functions.TestPlanName, 0, 0, 0, 0, 0, 0, 0, 0, 0, 0, 0, 0, 0, 0,0.0,0.0,0.0,0.0,0.0,0.0,0.0,1.0,0.0,0.0,0.0,0.0,0.0,24,src\functions\org\apache\jmeter\functions\TestPlanName.java,0,0,0,0
org.apache.jmeter.functions.TestRegexFunction, 0, 0, 0, 1, 0, 0, 0, 0, 0, 0, 0, 0, 0, 1,0.0,0.0,0.0,0.0,0.0,0.0,0.0,0.5,0.0,0.0,0.0,0.0,0.0,299,test\src\org\apache\jmeter\functions\TestRegexFunction.java,0,0,0,0
org.apache.jmeter.functions.TestTimeFunction, 0, 0, 0, 0, 0, 0, 0, 0, 0, 0, 0, 0, 0, 0,0.0,0.0,0.0,0.0,0.0,0.0,0.0,0.3333333333333333,0.0,0.0,0.0,0.0,0.0,134,test\src\org\apache\jmeter\functions\TestTimeFunction.java,0,0,0,0
org.apache.jmeter.functions.ThreadNumber, 0, 0, 0, 0, 0, 0, 0, 0, 0, 0, 0, 0, 0, 0,0.0,0.0,0.0,0.0,0.0,0.0,0.0,1.0,0.0,0.0,0.0,0.0,0.0,21,src\functions\org\apache\jmeter\functions\ThreadNumber.java,0,0,0,0
org.apache.jmeter.functions.UnEscape, 0, 0, 0, 0, 0, 0, 0, 0, 0, 0, 0, 0, 0, 0,0.0,0.0,0.0,0.0,0.0,0.0,0.0,1.0,0.0,0.0,0.0,0.0,0.0,29,src\functions\org\apache\jmeter\functions\UnEscape.java,0,0,0,0
org.apache.jmeter.functions.UnEscapeHtml, 0, 0, 0, 0, 0, 0, 0, 0, 0, 0, 0, 0, 0, 0,0.0,0.0,0.0,0.0,0.0,0.0,0.0,1.0,0.0,0.0,0.0,0.0,0.0,29,src\functions\org\apache\jmeter\functions\UnEscapeHtml.java,0,0,0,0
org.apache.jmeter.functions.UrlDecode, 0, 0, 0, 0, 0, 0, 0, 0, 0, 0, 0, 0, 0, 0,0.0,0.0,0.0,0.0,0.0,0.0,0.0,1.0,0.0,0.0,0.0,0.0,0.0,36,src\functions\org\apache\jmeter\functions\UrlDecode.java,0,0,0,0
org.apache.jmeter.functions.UrlEncode, 0, 0, 0, 0, 0, 0, 0, 0, 0, 0, 0, 0, 0, 0,0.0,0.0,0.0,0.0,0.0,0.0,0.0,1.0,0.0,0.0,0.0,0.0,0.0,36,src\functions\org\apache\jmeter\functions\UrlEncode.java,0,0,0,0
org.apache.jmeter.functions.Uuid, 0, 0, 0, 0, 0, 0, 0, 0, 0, 0, 0, 0, 0, 0,0.0,0.0,0.0,0.0,0.0,0.0,0.0,1.0,0.0,0.0,0.0,0.0,0.0,22,src\functions\org\apache\jmeter\functions\Uuid.java,0,0,0,0
org.apache.jmeter.functions.Variable, 0, 0, 0, 0, 0, 0, 0, 0, 0, 0, 0, 0, 0, 0,0.0,0.0,0.0,0.5,0.0,0.0,0.0,1.0,0.0,0.0,0.0,0.0,0.0,32,src\functions\org\apache\jmeter\functions\Variable.java,0,0,0,0
org.apache.jmeter.functions.XPath, 0, 0, 0, 0, 0, 0, 0, 0, 0, 0, 0, 0, 0, 0,0.0,0.0,0.0,0.5,0.0,0.0,0.0,1.0,0.0,0.0,0.0,0.0,0.0,47,src\functions\org\apache\jmeter\functions\XPath.java,0,0,0,0
org.apache.jmeter.functions.util.ArgumentDecoder, 0, 0, 0, 0, 0, 0, 0, 0, 0, 0, 0, 0, 0, 0,0.0,0.0,0.0,0.0,0.0,0.0,0.0,0.0,0.0,0.0,0.0,0.0,0.0,9,src\core\org\apache\jmeter\functions\util\ArgumentDecoder.java,0,0,0,0
org.apache.jmeter.functions.util.ArgumentEncoder, 0, 0, 0, 0, 0, 0, 0, 0, 0, 0, 0, 0, 0, 0,0.0,0.0,0.0,0.0,0.0,0.0,0.0,0.0,0.0,0.0,0.0,0.0,0.0,9,src\core\org\apache\jmeter\functions\util\ArgumentEncoder.java,0,0,0,0
org.apache.jmeter.gui.AbstractJMeterGuiComponent, 0, 0, 0, 0, 0, 0, 0, 1, 0, 0, 0, 0, 0, 1,0.0,0.0,0.0,0.0,0.0,0.0,0.0,0.045454545454545456,0.0,0.0,0.0,0.0,0.0,112,src\core\org\apache\jmeter\gui\AbstractJMeterGuiComponent.java,0,0,0,0
org.apache.jmeter.gui.AbstractScopedJMeterGuiComponent, 0, 0, 0, 0, 0, 0, 0, 1, 0, 0, 0, 0, 0, 1,0.0,0.0,0.0,0.0,0.0,0.0,0.0,0.25,0.0,0.0,0.0,0.0,0.0,56,src\core\org\apache\jmeter\gui\AbstractScopedJMeterGuiComponent.java,0,0,0,0
org.apache.jmeter.gui.ClearGui, 0, 0, 0, 0, 0, 0, 0, 0, 0, 0, 0, 0, 0, 0,0.0,0.0,0.0,0.0,0.0,0.0,0.0,0.0,0.0,0.0,0.0,0.0,0.0,56,src\core\org\apache\jmeter\gui\ClearGui.java,0,0,0,0
org.apache.jmeter.gui.JMeterFileFilter, 0, 0, 0, 0, 0, 0, 0, 0, 0, 0, 0, 0, 0, 0,0.0,0.0,0.0,0.0,0.0,0.0,0.0,0.0,0.0,0.0,0.0,0.0,0.0,30,src\core\org\apache\jmeter\gui\JMeterFileFilter.java,0,0,0,0
org.apache.jmeter.gui.JMeterGUIComponent, 0, 0, 0, 0, 0, 0, 0, 0, 0, 0, 0, 0, 0, 0,0.0,0.0,0.0,0.0,0.0,0.0,0.0,0.0,0.0,0.0,0.0,0.0,0.0,30,src\core\org\apache\jmeter\gui\JMeterGUIComponent.java,0,0,0,0
org.apache.jmeter.gui.LoggerPanel, 0, 0, 0, 0, 0, 0, 0, 0, 0, 0, 0, 0, 0, 0,0.0,0.0,0.0,0.0,0.0,0.0,0.0,0.0,0.0,0.0,0.0,0.0,0.0,58,src\core\org\apache\jmeter\gui\LoggerPanel.java,10,9,19,57
org.apache.jmeter.gui.Searchable, 0, 0, 0, 0, 0, 0, 0, 0, 0, 0, 0, 0, 0, 0,0.0,0.0,0.0,0.0,0.0,0.0,0.0,0.0,0.0,0.0,0.0,0.0,0.0,58,src\core\org\apache\jmeter\gui\Searchable.java,0,0,0,0
org.apache.jmeter.gui.Stoppable, 0, 0, 0, 0, 0, 0, 0, 0, 0, 0, 0, 0, 0, 0,0.0,0.0,0.0,0.0,0.0,0.0,0.0,0.0,0.0,0.0,0.0,0.0,0.0,58,src\core\org\apache\jmeter\gui\Stoppable.java,0,0,0,0
org.apache.jmeter.gui.UndoHistoryItem, 0, 0, 0, 0, 0, 0, 0, 0, 0, 0, 0, 0, 0, 0,0.0,0.0,0.0,0.0,0.0,0.0,0.0,0.0,0.0,0.0,0.0,0.0,0.0,20,src\core\org\apache\jmeter\gui\UndoHistoryItem.java,0,0,0,0
org.apache.jmeter.gui.UnsharedComponent, 0, 0, 0, 0, 0, 0, 0, 0, 0, 0, 0, 0, 0, 0,0.0,0.0,0.0,0.0,0.0,0.0,0.0,0.0,0.0,0.0,0.0,0.0,0.0,20,src\core\org\apache\jmeter\gui\UnsharedComponent.java,0,0,0,0
org.apache.jmeter.gui.action.ActionNames, 0, 0, 0, 1, 0, 0, 0, 0, 0, 0, 0, 0, 0, 1,0.0,0.0,0.0,0.0,0.0,0.0,0.0,0.0,0.0,0.0,0.0,0.0,0.0,74,src\core\org\apache\jmeter\gui\action\ActionNames.java,0,0,0,0
org.apache.jmeter.gui.action.AddParent, 0, 0, 0, 0, 0, 0, 0, 1, 0, 0, 0, 0, 0, 1,0.0,0.0,0.0,0.0,0.0,0.0,0.0,0.5,0.0,0.0,0.0,0.0,0.0,41,src\core\org\apache\jmeter\gui\action\AddParent.java,0,0,0,0
org.apache.jmeter.gui.action.AddToTree, 0, 0, 0, 0, 0, 0, 0, 0, 0, 0, 0, 0, 0, 0,0.0,0.0,0.0,0.0,0.0,0.0,0.0,0.5,0.0,0.0,0.0,0.0,0.0,42,src\core\org\apache\jmeter\gui\action\AddToTree.java,0,0,0,0
org.apache.jmeter.gui.action.Analyze, 0, 0, 0, 0, 0, 0, 0, 0, 0, 0, 0, 0, 0, 0,0.0,0.0,0.0,0.0,0.0,0.0,0.0,0.0,0.0,0.0,0.0,0.0,0.0,24,src\core\org\apache\jmeter\gui\action\Analyze.java,0,0,0,0
org.apache.jmeter.gui.action.ChangeLanguage, 0, 0, 0, 0, 0, 0, 0, 0, 0, 0, 0, 0, 0, 0,0.0,0.0,0.0,0.0,0.0,0.0,0.0,0.0,0.0,0.0,0.0,0.0,0.0,28,src\core\org\apache\jmeter\gui\action\ChangeLanguage.java,0,0,0,0
org.apache.jmeter.gui.action.ChangeParent, 0, 0, 0, 0, 0, 0, 0, 1, 0, 0, 0, 0, 0, 1,0.0,0.0,0.0,0.0,0.0,0.0,0.0,0.5,0.0,0.0,0.0,0.0,0.0,45,src\core\org\apache\jmeter\gui\action\ChangeParent.java,0,0,0,0
org.apache.jmeter.gui.action.Clear, 0, 0, 0, 0, 0, 0, 0, 0, 0, 0, 0, 0, 0, 0,0.0,0.0,0.0,0.0,0.0,0.0,0.0,0.5,0.0,0.0,0.0,0.0,0.0,42,src\core\org\apache\jmeter\gui\action\Clear.java,0,0,0,0
org.apache.jmeter.gui.action.CollapseExpand, 0, 0, 0, 0, 0, 0, 0, 0, 0, 0, 0, 0, 0, 0,0.0,0.0,0.0,0.0,0.0,0.0,0.0,0.0,0.0,0.0,0.0,0.0,0.0,28,src\core\org\apache\jmeter\gui\action\CollapseExpand.java,0,0,0,0
org.apache.jmeter.gui.action.Command, 0, 0, 0, 0, 0, 0, 0, 0, 0, 0, 0, 0, 0, 0,0.0,0.0,0.0,0.0,0.0,0.0,0.0,0.0,0.0,0.0,0.0,0.0,0.0,28,src\core\org\apache\jmeter\gui\action\Command.java,0,0,0,0
org.apache.jmeter.gui.action.CreateFunctionDialog, 0, 0, 0, 0, 0, 0, 0, 0, 0, 0, 0, 0, 0, 0,0.0,0.0,0.0,0.0,0.0,0.0,0.0,0.0,0.0,0.0,0.0,0.0,0.0,19,src\core\org\apache\jmeter\gui\action\CreateFunctionDialog.java,0,0,0,0
org.apache.jmeter.gui.action.Cut, 0, 0, 0, 0, 0, 0, 0, 0, 0, 0, 0, 0, 0, 0,0.0,0.0,0.0,0.0,0.0,0.0,0.0,1.0,0.0,0.0,0.0,0.0,0.0,21,src\core\org\apache\jmeter\gui\action\Cut.java,0,0,0,0
org.apache.jmeter.gui.action.Duplicate, 0, 0, 0, 0, 0, 0, 0, 0, 0, 0, 0, 0, 0, 0,0.0,0.0,0.0,0.0,0.0,0.0,0.0,0.0,0.0,0.0,0.0,0.0,0.0,24,src\core\org\apache\jmeter\gui\action\Duplicate.java,0,0,0,0
org.apache.jmeter.gui.action.EditCommand, 0, 0, 0, 0, 0, 0, 0, 0, 0, 0, 0, 0, 0, 0,0.0,0.0,0.0,0.0,0.0,0.0,0.0,0.0,0.0,0.0,0.0,0.0,0.0,26,src\core\org\apache\jmeter\gui\action\EditCommand.java,0,0,0,0
org.apache.jmeter.gui.action.EnableComponent, 0, 0, 0, 0, 0, 0, 0, 0, 0, 0, 0, 0, 0, 0,0.0,0.0,0.0,0.0,0.0,0.0,0.0,0.0,0.0,0.0,0.0,0.0,0.0,42,src\core\org\apache\jmeter\gui\action\EnableComponent.java,0,0,0,0
org.apache.jmeter.gui.action.KeyStrokes, 0, 0, 0, 1, 0, 0, 0, 0, 0, 0, 0, 0, 0, 1,0.0,0.0,0.0,0.0,0.0,0.0,0.0,0.0,0.0,0.0,0.0,0.0,0.0,45,src\core\org\apache\jmeter\gui\action\KeyStrokes.java,0,0,0,0
org.apache.jmeter.gui.action.LoadDraggedFile, 0, 0, 0, 0, 0, 0, 0, 0, 0, 0, 0, 0, 0, 0,0.0,0.0,0.0,0.0,0.0,0.0,0.0,0.0,0.0,0.0,0.0,0.0,0.0,8,src\core\org\apache\jmeter\gui\action\LoadDraggedFile.java,0,0,0,0
org.apache.jmeter.gui.action.LoggerPanelEnableDisable, 0, 0, 0, 0, 0, 0, 0, 0, 0, 0, 0, 0, 0, 0,0.0,0.0,0.0,0.0,0.0,0.0,0.0,0.0,0.0,0.0,0.0,0.0,0.0,30,src\core\org\apache\jmeter\gui\action\LoggerPanelEnableDisable.java,0,0,0,0
org.apache.jmeter.gui.action.PackageTest, 0, 0, 0, 0, 0, 0, 0, 0, 0, 0, 0, 0, 0, 0,0.0,0.0,0.0,0.0,0.0,0.0,0.0,0.0,0.0,0.0,0.0,0.0,0.0,9,test\src\org\apache\jmeter\gui\action\PackageTest.java,0,0,0,0
org.apache.jmeter.gui.action.Paste, 0, 0, 0, 0, 0, 0, 0, 0, 0, 0, 0, 0, 0, 0,0.0,0.0,0.0,0.0,0.0,0.0,0.0,0.3333333333333333,0.0,0.0,0.0,0.0,0.0,43,src\core\org\apache\jmeter\gui\action\Paste.java,0,0,0,0
org.apache.jmeter.gui.action.RawTextSearcher, 0, 0, 0, 0, 0, 0, 0, 0, 0, 0, 0, 0, 0, 0,0.0,0.0,0.0,0.0,0.0,0.0,0.0,0.0,0.0,0.0,0.0,0.0,0.0,36,src\core\org\apache\jmeter\gui\action\RawTextSearcher.java,0,0,0,0
org.apache.jmeter.gui.action.ResetSearchCommand, 0, 0, 0, 0, 0, 0, 0, 0, 0, 0, 0, 0, 0, 0,0.0,0.0,0.0,0.0,0.0,0.0,0.0,0.5,0.0,0.0,0.0,0.0,0.0,24,src\core\org\apache\jmeter\gui\action\ResetSearchCommand.java,0,0,0,0
org.apache.jmeter.gui.action.SearchTreeCommand, 0, 0, 0, 0, 0, 0, 0, 0, 0, 0, 0, 0, 0, 0,0.0,0.0,0.0,0.0,0.0,0.0,0.0,0.0,0.0,0.0,0.0,0.0,0.0,15,src\core\org\apache\jmeter\gui\action\SearchTreeCommand.java,0,0,0,0
org.apache.jmeter.gui.action.Searcher, 0, 0, 0, 0, 0, 0, 0, 0, 0, 0, 0, 0, 0, 0,0.0,0.0,0.0,0.0,0.0,0.0,0.0,0.0,0.0,0.0,0.0,0.0,0.0,15,src\core\org\apache\jmeter\gui\action\Searcher.java,0,0,0,0
org.apache.jmeter.gui.action.StopStoppables, 0, 0, 0, 0, 0, 0, 0, 0, 0, 0, 0, 0, 0, 0,0.0,0.0,0.0,0.0,0.0,0.0,0.0,0.0,0.0,0.0,0.0,0.0,0.0,25,src\core\org\apache\jmeter\gui\action\StopStoppables.java,0,0,0,0
org.apache.jmeter.gui.action.TemplatesCommand, 0, 0, 0, 0, 0, 0, 0, 0, 0, 0, 0, 0, 0, 0,0.0,0.0,0.0,0.0,0.0,0.0,0.0,0.0,0.0,0.0,0.0,0.0,0.0,17,src\core\org\apache\jmeter\gui\action\TemplatesCommand.java,0,0,0,0
org.apache.jmeter.gui.action.TestLoad, 0, 0, 0, 0, 0, 0, 0, 1, 0, 0, 0, 0, 0, 1,0.0,0.0,0.0,0.0,0.0,0.0,0.0,1.0,0.0,0.0,0.0,0.0,0.0,69,test\src\org\apache\jmeter\gui\action\TestLoad.java,7,0,1,9
org.apache.jmeter.gui.action.TestSave, 0, 0, 0, 0, 0, 0, 0, 0, 0, 0, 0, 0, 0, 0,0.0,0.0,0.0,0.0,0.0,0.0,0.0,0.0,0.0,0.0,0.0,0.0,0.0,22,test\src\org\apache\jmeter\gui\action\TestSave.java,0,0,0,0
org.apache.jmeter.gui.action.ToolBar, 0, 0, 0, 0, 0, 0, 0, 0, 0, 0, 0, 0, 0, 0,0.0,0.0,0.0,0.0,0.0,0.0,0.0,0.0,0.0,0.0,0.0,0.0,0.0,20,src\core\org\apache\jmeter\gui\action\ToolBar.java,0,0,0,0
org.apache.jmeter.gui.action.UndoCommand, 0, 0, 0, 0, 0, 0, 0, 0, 0, 0, 0, 0, 0, 0,0.0,0.0,0.0,0.0,0.0,0.0,0.0,0.0,0.0,0.0,0.0,0.0,0.0,30,src\core\org\apache\jmeter\gui\action\UndoCommand.java,0,0,0,0
org.apache.jmeter.gui.action.template.Template, 0, 0, 0, 0, 0, 0, 0, 0, 0, 0, 0, 0, 0, 0,0.0,0.0,0.0,0.0,0.0,0.0,0.0,0.0,0.0,0.0,0.0,0.0,0.0,37,src\core\org\apache\jmeter\gui\action\template\Template.java,0,0,0,0
org.apache.jmeter.gui.plugin.MenuCreator, 0, 0, 0, 0, 0, 0, 0, 0, 0, 0, 0, 0, 0, 0,0.0,0.0,0.0,0.0,0.0,0.0,0.0,0.0,0.0,0.0,0.0,0.0,0.0,37,src\core\org\apache\jmeter\gui\plugin\MenuCreator.java,0,0,0,0
org.apache.jmeter.gui.tree.JMeterCellRenderer, 0, 0, 0, 0, 0, 0, 0, 1, 0, 0, 0, 0, 0, 1,0.0,0.0,0.0,0.0,0.0,0.0,0.0,0.0,0.0,0.0,0.0,0.0,0.0,37,src\core\org\apache\jmeter\gui\tree\JMeterCellRenderer.java,0,0,0,0
org.apache.jmeter.gui.tree.JMeterTreeModel, 0, 0, 0, 0, 0, 0, 0, 1, 0, 0, 0, 0, 0, 1,0.0,0.0,0.0,0.0,0.0,0.0,0.0,0.18181818181818182,0.0,0.0,0.0,0.0,0.0,130,src\core\org\apache\jmeter\gui\tree\JMeterTreeModel.java,0,0,0,0
org.apache.jmeter.gui.tree.JMeterTreeNode, 0, 0, 0, 0, 0, 0, 0, 0, 0, 0, 0, 0, 0, 0,0.0,0.0,0.0,0.0,0.0,0.0,0.0,0.35714285714285715,0.0,0.0,0.0,0.0,0.0,120,src\core\org\apache\jmeter\gui\tree\JMeterTreeNode.java,0,0,0,0
org.apache.jmeter.gui.tree.NamedTreeNode, 0, 0, 0, 0, 0, 0, 0, 0, 0, 0, 0, 0, 0, 0,0.0,0.0,0.0,0.0,0.0,0.0,0.0,0.0,0.0,0.0,0.0,0.0,0.0,120,src\core\org\apache\jmeter\gui\tree\NamedTreeNode.java,0,0,0,0
org.apache.jmeter.gui.util.FocusRequester, 0, 0, 0, 0, 0, 0, 0, 0, 0, 0, 0, 0, 0, 0,0.0,0.0,0.0,0.0,0.0,0.0,0.0,0.0,0.0,0.0,0.0,0.0,0.0,10,src\core\org\apache\jmeter\gui\util\FocusRequester.java,0,0,0,0
org.apache.jmeter.gui.util.HorizontalPanel, 0, 0, 0, 0, 0, 0, 0, 0, 0, 0, 0, 0, 0, 0,0.0,0.0,0.0,0.0,0.0,0.0,0.0,0.0,0.0,0.0,0.0,0.0,0.0,30,src\core\org\apache\jmeter\gui\util\HorizontalPanel.java,0,0,0,0
org.apache.jmeter.gui.util.IconToolbarBean, 0, 0, 0, 0, 0, 0, 0, 0, 0, 0, 0, 0, 0, 0,0.0,0.0,0.0,0.0,0.0,0.0,0.0,0.0,0.0,0.0,0.0,0.0,0.0,44,src\core\org\apache\jmeter\gui\util\IconToolbarBean.java,0,0,3,6
org.apache.jmeter.gui.util.JDateField, 0, 0, 0, 0, 0, 0, 0, 0, 0, 0, 0, 0, 0, 0,0.0,0.0,0.0,0.0,0.0,0.0,0.0,0.0,0.0,0.0,0.0,0.0,0.0,106,src\core\org\apache\jmeter\gui\util\JDateField.java,0,0,0,0
org.apache.jmeter.gui.util.JTextScrollPane, 0, 0, 0, 0, 0, 0, 0, 0, 0, 0, 0, 0, 0, 0,0.0,0.0,0.0,0.0,0.0,0.0,0.0,0.0,0.0,0.0,0.0,0.0,0.0,13,src\core\org\apache\jmeter\gui\util\JTextScrollPane.java,0,0,0,0
org.apache.jmeter.gui.util.MenuInfo, 0, 0, 0, 0, 0, 0, 0, 0, 0, 0, 0, 0, 0, 0,0.0,0.0,0.0,0.0,0.0,0.0,0.0,0.0,0.0,0.0,0.0,0.0,0.0,24,src\core\org\apache\jmeter\gui\util\MenuInfo.java,0,0,0,0
org.apache.jmeter.gui.util.PowerTableModel, 0, 0, 0, 0, 0, 0, 0, 1, 0, 0, 0, 0, 0, 1,0.0,0.0,0.0,0.0,0.0,0.0,0.0,0.0,0.0,0.0,0.0,0.0,0.0,202,src\core\org\apache\jmeter\gui\util\PowerTableModel.java,0,0,0,0
org.apache.jmeter.gui.util.TestMenuFactory, 0, 0, 0, 0, 0, 0, 0, 0, 0, 0, 0, 0, 0, 0,0.0,0.0,0.0,0.0,0.0,0.0,0.0,1.0,0.0,0.0,0.0,0.0,0.0,24,test\src\org\apache\jmeter\gui\util\TestMenuFactory.java,0,0,0,0
org.apache.jmeter.gui.util.VerticalPanel, 0, 0, 0, 0, 0, 0, 0, 0, 0, 0, 0, 0, 0, 0,0.0,0.0,0.0,0.0,0.0,0.0,0.0,1.0,0.0,0.0,0.0,0.0,0.0,30,src\core\org\apache\jmeter\gui\util\VerticalPanel.java,0,0,0,0
org.apache.jmeter.junit.JMeterTestCase, 0, 0, 0, 0, 0, 0, 0, 1, 0, 0, 0, 0, 0, 1,0.0,0.0,0.0,0.11904761904761904,0.0,0.0,0.0,0.16666666666666666,0.0,0.0,0.0,0.0,0.0,109,test\src\org\apache\jmeter\junit\JMeterTestCase.java,0,0,0,0
org.apache.jmeter.junit.stubs.TestSampler, 0, 0, 0, 0, 0, 0, 0, 0, 0, 0, 0, 0, 0, 0,0.0,0.0,0.0,0.0,0.0,0.0,0.0,0.0,0.0,0.0,0.0,0.0,0.0,32,test\src\org\apache\jmeter\junit\stubs\TestSampler.java,0,0,0,0
org.apache.jmeter.modifiers.BSFPreProcessor, 0, 0, 0, 0, 0, 0, 0, 0, 0, 0, 0, 0, 0, 0,0.0,0.0,0.0,0.0,0.0,0.0,0.0,0.0,0.0,0.0,0.0,0.0,0.0,20,src\components\org\apache\jmeter\modifiers\BSFPreProcessor.java,0,0,0,0
org.apache.jmeter.modifiers.BSFPreProcessorBeanInfo, 0, 0, 0, 0, 0, 1, 0, 0, 0, 0, 0, 0, 0, 1,0.0,0.0,0.0,0.0,0.0,0.0,0.0,0.0,0.0,0.0,0.0,0.0,0.0,5,src\components\org\apache\jmeter\modifiers\BSFPreProcessorBeanInfo.java,0,0,0,0
org.apache.jmeter.modifiers.BeanShellPreProcessor, 0, 0, 0, 0, 0, 0, 0, 0, 0, 0, 0, 0, 0, 0,0.0,0.0,0.0,0.0,0.0,0.0,0.0,0.3333333333333333,0.0,0.0,0.0,0.0,0.0,27,src\components\org\apache\jmeter\modifiers\BeanShellPreProcessor.java,0,0,0,0
org.apache.jmeter.modifiers.BeanShellPreProcessorBeanInfo, 0, 0, 0, 0, 0, 1, 0, 0, 0, 0, 0, 0, 0, 1,0.0,0.0,0.0,0.0,0.0,0.0,0.0,0.0,0.0,0.0,0.0,0.0,0.0,5,src\components\org\apache\jmeter\modifiers\BeanShellPreProcessorBeanInfo.java,0,0,0,0
org.apache.jmeter.modifiers.CounterConfig, 0, 0, 0, 1, 0, 0, 0, 0, 0, 0, 0, 0, 0, 1,0.0,0.0,0.0,0.0,0.0,0.0,0.0,0.0,0.0,0.0,0.0,0.0,0.0,148,src\components\org\apache\jmeter\modifiers\CounterConfig.java,0,0,0,0
org.apache.jmeter.modifiers.JSR223PreProcessor, 0, 0, 0, 0, 0, 0, 0, 0, 0, 0, 0, 0, 0, 0,0.0,0.0,0.0,0.0,0.0,0.0,0.0,0.0,0.0,0.0,0.0,0.0,0.0,16,src\components\org\apache\jmeter\modifiers\JSR223PreProcessor.java,0,0,0,0
org.apache.jmeter.modifiers.JSR223PreProcessorBeanInfo, 0, 0, 0, 0, 0, 1, 0, 0, 0, 0, 0, 0, 0, 1,0.0,0.0,0.0,0.0,0.0,0.0,0.0,0.0,0.0,0.0,0.0,0.0,0.0,5,src\components\org\apache\jmeter\modifiers\JSR223PreProcessorBeanInfo.java,0,0,0,0
org.apache.jmeter.modifiers.UserParameters, 0, 0, 0, 0, 0, 0, 0, 0, 0, 0, 0, 0, 0, 0,0.0,0.0,0.0,0.0,0.0,0.0,0.0,0.0,0.0,0.0,0.0,0.0,0.0,88,src\components\org\apache\jmeter\modifiers\UserParameters.java,0,0,0,0
org.apache.jmeter.monitor.model.Connector, 0, 0, 0, 0, 0, 0, 0, 0, 0, 0, 0, 0, 0, 0,0.0,0.0,0.0,0.0,0.0,0.0,0.0,0.0,0.0,0.0,0.0,0.0,0.0,88,src\monitor\model\org\apache\jmeter\monitor\model\Connector.java,0,0,0,0
org.apache.jmeter.monitor.model.ConnectorImpl, 0, 0, 0, 0, 0, 0, 0, 0, 0, 0, 0, 0, 0, 0,0.0,0.0,0.0,0.0,0.0,0.0,0.0,0.0,0.0,0.0,0.0,0.0,0.0,41,src\monitor\model\org\apache\jmeter\monitor\model\ConnectorImpl.java,0,0,0,0
org.apache.jmeter.monitor.model.Jvm, 0, 0, 0, 0, 0, 0, 0, 0, 0, 0, 0, 0, 0, 0,0.0,0.0,0.0,0.0,0.0,0.0,0.0,0.0,0.0,0.0,0.0,0.0,0.0,41,src\monitor\model\org\apache\jmeter\monitor\model\Jvm.java,0,0,0,0
org.apache.jmeter.monitor.model.JvmImpl, 0, 0, 0, 0, 0, 0, 0, 0, 0, 0, 0, 0, 0, 0,0.0,0.0,0.0,0.0,0.0,0.0,0.0,0.0,0.0,0.0,0.0,0.0,0.0,14,src\monitor\model\org\apache\jmeter\monitor\model\JvmImpl.java,0,0,0,0
org.apache.jmeter.monitor.model.Memory, 0, 0, 0, 0, 0, 0, 0, 0, 0, 0, 0, 0, 0, 0,0.0,0.0,0.0,0.0,0.0,0.0,0.0,0.0,0.0,0.0,0.0,0.0,0.0,14,src\monitor\model\org\apache\jmeter\monitor\model\Memory.java,0,0,0,0
org.apache.jmeter.monitor.model.MemoryImpl, 0, 0, 0, 0, 0, 0, 0, 0, 0, 0, 0, 0, 0, 0,0.0,0.0,0.0,0.0,0.0,0.0,0.0,0.0,0.0,0.0,0.0,0.0,0.0,32,src\monitor\model\org\apache\jmeter\monitor\model\MemoryImpl.java,0,0,0,0
org.apache.jmeter.monitor.model.ObjectFactory, 0, 0, 0, 0, 0, 0, 0, 0, 0, 0, 0, 0, 0, 0,0.0,0.0,0.0,0.08333333333333333,0.0,0.0,0.0,0.08333333333333333,0.0,0.0,0.0,0.0,0.0,51,src\monitor\model\org\apache\jmeter\monitor\model\ObjectFactory.java,0,0,0,0
org.apache.jmeter.monitor.model.RequestInfo, 0, 0, 0, 0, 0, 0, 0, 0, 0, 0, 0, 0, 0, 0,0.0,0.0,0.0,0.0,0.0,0.0,0.0,0.0,0.0,0.0,0.0,0.0,0.0,51,src\monitor\model\org\apache\jmeter\monitor\model\RequestInfo.java,0,0,0,0
org.apache.jmeter.monitor.model.RequestInfoImpl, 0, 0, 0, 0, 0, 0, 0, 0, 0, 0, 0, 0, 0, 0,0.0,0.0,0.0,0.0,0.0,0.0,0.0,0.0,0.0,0.0,0.0,0.0,0.0,59,src\monitor\model\org\apache\jmeter\monitor\model\RequestInfoImpl.java,0,0,0,0
org.apache.jmeter.monitor.model.Status, 0, 0, 0, 0, 0, 0, 0, 0, 0, 0, 0, 0, 0, 0,0.0,0.0,0.0,0.0,0.0,0.0,0.0,0.0,0.0,0.0,0.0,0.0,0.0,59,src\monitor\model\org\apache\jmeter\monitor\model\Status.java,0,0,0,0
org.apache.jmeter.monitor.model.StatusImpl, 0, 0, 0, 0, 0, 0, 0, 0, 0, 0, 0, 0, 0, 0,0.0,0.0,0.0,0.0,0.0,0.0,0.0,0.0,0.0,0.0,0.0,0.0,0.0,33,src\monitor\model\org\apache\jmeter\monitor\model\StatusImpl.java,0,0,0,0
org.apache.jmeter.monitor.model.TestObjectFactory, 0, 0, 0, 0, 0, 0, 0, 0, 0, 0, 0, 0, 0, 0,0.0,0.0,0.0,0.0,0.0,0.0,0.0,0.5,0.0,0.0,0.0,0.0,0.0,41,test\src\org\apache\jmeter\monitor\model\TestObjectFactory.java,0,0,0,0
org.apache.jmeter.monitor.model.ThreadInfo, 0, 0, 0, 0, 0, 0, 0, 0, 0, 0, 0, 0, 0, 0,0.0,0.0,0.0,0.0,0.0,0.0,0.0,0.0,0.0,0.0,0.0,0.0,0.0,41,src\monitor\model\org\apache\jmeter\monitor\model\ThreadInfo.java,0,0,0,0
org.apache.jmeter.monitor.model.ThreadInfoImpl, 0, 0, 0, 0, 0, 0, 0, 0, 0, 0, 0, 0, 0, 0,0.0,0.0,0.0,0.0,0.0,0.0,0.0,0.0,0.0,0.0,0.0,0.0,0.0,50,src\monitor\model\org\apache\jmeter\monitor\model\ThreadInfoImpl.java,0,0,0,0
org.apache.jmeter.monitor.model.Worker, 0, 0, 0, 0, 0, 0, 0, 0, 0, 0, 0, 0, 0, 0,0.0,0.0,0.0,0.0,0.0,0.0,0.0,0.0,0.0,0.0,0.0,0.0,0.0,50,src\monitor\model\org\apache\jmeter\monitor\model\Worker.java,0,0,0,0
org.apache.jmeter.monitor.model.WorkerImpl, 0, 0, 0, 1, 0, 0, 0, 0, 0, 0, 0, 0, 0, 1,0.0,0.0,0.0,0.0,0.0,0.0,0.0,0.0,0.0,0.0,0.0,0.0,0.0,95,src\monitor\model\org\apache\jmeter\monitor\model\WorkerImpl.java,0,0,0,0
org.apache.jmeter.monitor.model.Workers, 0, 0, 0, 0, 0, 0, 0, 0, 0, 0, 0, 0, 0, 0,0.0,0.0,0.0,0.0,0.0,0.0,0.0,0.0,0.0,0.0,0.0,0.0,0.0,95,src\monitor\model\org\apache\jmeter\monitor\model\Workers.java,0,0,0,0
org.apache.jmeter.monitor.model.WorkersImpl, 0, 0, 0, 0, 0, 0, 0, 0, 0, 0, 0, 0, 0, 0,0.0,0.0,0.0,0.0,0.0,0.0,0.0,0.5,0.0,0.0,0.0,0.0,0.0,14,src\monitor\model\org\apache\jmeter\monitor\model\WorkersImpl.java,0,0,0,0
org.apache.jmeter.monitor.parser.Constants, 0, 0, 0, 1, 0, 0, 0, 0, 0, 0, 0, 0, 0, 1,0.0,0.0,0.0,0.0,0.0,0.0,0.0,0.0,0.0,0.0,0.0,0.0,0.0,35,src\monitor\model\org\apache\jmeter\monitor\parser\Constants.java,0,0,0,0
org.apache.jmeter.monitor.parser.MonitorHandler, 0, 0, 0, 0, 0, 0, 0, 1, 0, 0, 0, 0, 0, 1,0.0,0.0,0.0,0.0,0.0,0.0,0.0,0.0,0.0,0.0,0.0,0.0,0.0,224,src\monitor\model\org\apache\jmeter\monitor\parser\MonitorHandler.java,0,0,0,0
org.apache.jmeter.monitor.parser.Parser, 0, 0, 0, 0, 0, 0, 0, 0, 0, 0, 0, 0, 0, 0,0.0,0.0,0.0,0.0,0.0,0.0,0.0,0.0,0.0,0.0,0.0,0.0,0.0,224,src\monitor\model\org\apache\jmeter\monitor\parser\Parser.java,0,0,0,0
org.apache.jmeter.monitor.parser.ParserImpl, 0, 0, 0, 0, 0, 0, 0, 0, 0, 0, 0, 0, 0, 0,0.0,0.0,0.0,0.0,0.0,0.0,0.0,0.5,0.0,0.0,0.0,0.0,0.0,57,src\monitor\model\org\apache\jmeter\monitor\parser\ParserImpl.java,0,0,0,0
org.apache.jmeter.monitor.util.MemoryBenchmark, 0, 0, 0, 0, 0, 0, 0, 0, 0, 0, 0, 0, 0, 0,0.0,0.0,0.0,0.25,0.0,0.0,0.0,0.25,0.0,0.0,0.0,0.0,0.0,84,src\monitor\components\org\apache\jmeter\monitor\util\MemoryBenchmark.java,0,0,0,0
org.apache.jmeter.monitor.util.Stats, 0, 0, 0, 0, 0, 0, 0, 0, 0, 0, 0, 0, 0, 0,0.0,0.0,0.0,0.0,0.0,0.0,0.0,0.0,0.0,0.0,0.0,0.0,0.0,84,src\monitor\components\org\apache\jmeter\monitor\util\Stats.java,0,0,0,0
org.apache.jmeter.plugin.JMeterPlugin, 0, 0, 0, 0, 0, 0, 0, 0, 0, 0, 0, 0, 0, 0,0.0,0.0,0.0,0.0,0.0,0.0,0.0,0.0,0.0,0.0,0.0,0.0,0.0,84,src\core\org\apache\jmeter\plugin\JMeterPlugin.java,0,0,0,0
org.apache.jmeter.plugin.PluginManager, 0, 0, 0, 0, 0, 0, 0, 0, 0, 0, 0, 0, 0, 0,0.0,0.0,0.0,0.0,0.0,0.0,0.0,0.0,0.0,0.0,0.0,0.0,0.0,31,src\core\org\apache\jmeter\plugin\PluginManager.java,0,0,0,0
org.apache.jmeter.processor.PostProcessor, 0, 0, 0, 0, 0, 0, 0, 0, 0, 0, 0, 0, 0, 0,0.0,0.0,0.0,0.0,0.0,0.0,0.0,0.0,0.0,0.0,0.0,0.0,0.0,31,src\core\org\apache\jmeter\processor\PostProcessor.java,0,0,0,0
org.apache.jmeter.processor.PreProcessor, 0, 0, 0, 0, 0, 0, 0, 0, 0, 0, 0, 0, 0, 0,0.0,0.0,0.0,0.0,0.0,0.0,0.0,0.0,0.0,0.0,0.0,0.0,0.0,31,src\core\org\apache\jmeter\processor\PreProcessor.java,0,0,0,0
org.apache.jmeter.processor.gui.AbstractPostProcessorGui, 0, 0, 0, 0, 0, 0, 0, 0, 0, 0, 0, 0, 0, 0,0.0,0.0,0.0,0.0,0.0,0.0,0.0,1.0,0.0,0.0,0.0,0.0,0.0,7,src\core\org\apache\jmeter\processor\gui\AbstractPostProcessorGui.java,0,0,0,0
org.apache.jmeter.processor.gui.AbstractPreProcessorGui, 0, 0, 0, 0, 0, 0, 0, 0, 0, 0, 0, 0, 0, 0,0.0,0.0,0.0,0.0,0.0,0.0,0.0,0.5,0.0,0.0,0.0,0.0,0.0,11,src\core\org\apache\jmeter\processor\gui\AbstractPreProcessorGui.java,0,0,0,0
org.apache.jmeter.protocol.http.config.MultipartUrlConfig, 0, 0, 0, 0, 0, 0, 0, 1, 0, 0, 0, 0, 0, 1,0.0,0.0,0.0,0.0,0.0,0.0,0.0,0.5,0.0,0.0,0.0,0.0,0.0,84,src\protocol\http\org\apache\jmeter\protocol\http\config\MultipartUrlConfig.java,0,0,0,0
org.apache.jmeter.protocol.http.config.MultipartUrlConfigTest, 0, 0, 0, 0, 0, 0, 0, 0, 0, 0, 0, 0, 0, 0,0.0,0.0,0.0,0.0,0.0,0.0,0.0,1.0,0.0,0.0,0.0,0.0,0.0,109,test\src\org\apache\jmeter\protocol\http\config\MultipartUrlConfigTest.java,0,0,0,0
org.apache.jmeter.protocol.http.config.UrlConfigTest, 0, 0, 0, 0, 0, 0, 0, 0, 0, 0, 0, 0, 0, 0,0.0,0.0,0.0,0.0,0.0,0.0,0.0,0.3333333333333333,0.0,0.0,0.0,0.0,0.0,40,test\src\org\apache\jmeter\protocol\http\config\UrlConfigTest.java,0,0,0,0
org.apache.jmeter.protocol.http.control.AuthManager, 0, 0, 0, 1, 0, 0, 0, 1, 0, 0, 0, 0, 0, 2,0.0,0.0,0.0,0.14285714285714285,0.0,0.0,0.0,0.2857142857142857,0.0,0.0,0.0,0.0,0.0,269,src\protocol\http\org\apache\jmeter\protocol\http\control\AuthManager.java,0,24,2,28
org.apache.jmeter.protocol.http.control.Authorization, 0, 0, 0, 0, 0, 0, 0, 1, 0, 0, 0, 0, 0, 1,0.0,0.0,0.0,0.5,0.0,0.0,0.0,0.5,0.0,0.0,0.0,0.0,0.0,69,src\protocol\http\org\apache\jmeter\protocol\http\control\Authorization.java,0,0,0,0
org.apache.jmeter.protocol.http.control.CookieHandler, 0, 0, 0, 0, 0, 0, 0, 0, 0, 0, 0, 0, 0, 0,0.0,0.0,0.0,0.0,0.0,0.0,0.0,0.0,0.0,0.0,0.0,0.0,0.0,69,src\protocol\http\org\apache\jmeter\protocol\http\control\CookieHandler.java,0,0,0,0
org.apache.jmeter.protocol.http.control.HC3CookieHandler, 0, 0, 0, 0, 0, 0, 0, 1, 0, 0, 0, 0, 0, 1,0.0,0.0,0.0,0.5,0.0,0.0,0.0,0.0,0.0,0.0,0.0,0.0,0.0,128,src\protocol\http\org\apache\jmeter\protocol\http\control\HC3CookieHandler.java,0,0,0,0
org.apache.jmeter.protocol.http.control.Header, 0, 0, 0, 0, 0, 0, 0, 0, 0, 0, 0, 0, 0, 0,0.0,0.0,0.0,0.0,0.0,0.0,0.0,0.0,0.0,0.0,0.0,0.0,0.0,35,src\protocol\http\org\apache\jmeter\protocol\http\control\Header.java,0,0,0,0
org.apache.jmeter.protocol.http.control.HeaderManager, 0, 0, 0, 0, 0, 0, 0, 0, 0, 0, 0, 0, 0, 0,0.0,0.0,0.0,0.2,0.0,0.0,0.0,0.2,0.0,0.0,0.0,0.0,0.0,147,src\protocol\http\org\apache\jmeter\protocol\http\control\HeaderManager.java,0,0,0,0
org.apache.jmeter.protocol.http.control.HttpMirrorControl, 0, 0, 0, 1, 0, 0, 0, 0, 0, 0, 0, 0, 0, 1,0.0,0.0,0.0,0.0,0.0,0.0,0.0,0.0,0.0,0.0,0.0,0.0,0.0,83,src\protocol\http\org\apache\jmeter\protocol\http\control\HttpMirrorControl.java,0,0,0,0
org.apache.jmeter.protocol.http.control.RecordingController, 0, 0, 0, 0, 0, 0, 0, 0, 0, 0, 0, 0, 0, 0,0.0,0.0,0.0,0.0,0.0,0.0,0.0,0.0,0.0,0.0,0.0,0.0,0.0,3,src\protocol\http\org\apache\jmeter\protocol\http\control\RecordingController.java,0,0,0,0
org.apache.jmeter.protocol.http.control.TestAuthManager, 0, 0, 0, 0, 0, 0, 0, 0, 0, 0, 0, 0, 0, 0,0.0,0.0,0.0,0.25,0.0,0.0,0.0,0.75,0.0,0.0,0.0,0.0,0.0,52,test\src\org\apache\jmeter\protocol\http\control\TestAuthManager.java,0,0,0,0
org.apache.jmeter.protocol.http.control.TestCookieManager, 0, 0, 0, 1, 0, 0, 0, 0, 0, 0, 0, 0, 0, 1,0.0,0.0,0.0,0.0,0.0,0.0,0.0,0.6666666666666666,0.0,0.0,0.0,0.0,0.0,317,test\src\org\apache\jmeter\protocol\http\control\TestCookieManager.java,0,0,0,0
org.apache.jmeter.protocol.http.control.gui.AjpSamplerGui, 0, 0, 0, 0, 0, 0, 0, 0, 0, 0, 0, 0, 0, 0,0.0,0.0,0.0,0.0,0.0,0.0,0.0,1.0,0.0,0.0,0.0,0.0,0.0,20,src\protocol\http\org\apache\jmeter\protocol\http\control\gui\AjpSamplerGui.java,0,0,0,0
org.apache.jmeter.protocol.http.control.gui.RecordController, 0, 0, 0, 0, 0, 0, 0, 0, 0, 0, 0, 0, 0, 0,0.0,0.0,0.0,0.0,0.0,0.0,0.0,0.5,0.0,0.0,0.0,0.0,0.0,13,src\protocol\http\org\apache\jmeter\protocol\http\control\gui\RecordController.java,0,0,0,0
org.apache.jmeter.protocol.http.control.gui.TestHttpTestSampleGui, 0, 0, 0, 0, 0, 0, 0, 0, 0, 0, 0, 0, 0, 0,0.0,0.0,0.0,0.0,0.0,0.0,0.0,1.0,0.0,0.0,0.0,0.0,0.0,30,test\src\org\apache\jmeter\protocol\http\control\gui\TestHttpTestSampleGui.java,0,0,0,0
org.apache.jmeter.protocol.http.gui.HTTPArgumentsPanel, 0, 0, 0, 0, 0, 0, 0, 0, 0, 0, 0, 0, 0, 0,0.0,0.0,0.0,0.16666666666666666,0.0,0.0,0.0,0.6666666666666666,0.0,0.0,0.0,0.0,0.0,81,src\protocol\http\org\apache\jmeter\protocol\http\gui\HTTPArgumentsPanel.java,0,0,0,0
org.apache.jmeter.protocol.http.modifier.AnchorModifier, 0, 0, 0, 0, 0, 0, 0, 1, 0, 0, 0, 0, 0, 1,0.0,0.0,0.0,0.0,0.0,0.0,0.0,0.3333333333333333,0.0,0.0,0.0,0.0,0.0,173,src\protocol\http\org\apache\jmeter\protocol\http\modifier\AnchorModifier.java,0,0,0,0
org.apache.jmeter.protocol.http.modifier.ParamModifier, 0, 0, 0, 0, 0, 0, 0, 0, 0, 0, 0, 0, 0, 0,0.0,0.0,0.0,0.0,0.0,0.0,0.0,0.5,0.0,0.0,0.0,0.0,0.0,52,src\protocol\http\org\apache\jmeter\protocol\http\modifier\ParamModifier.java,0,0,0,0
org.apache.jmeter.protocol.http.modifier.TestAnchorModifier, 0, 0, 0, 0, 0, 0, 0, 0, 0, 0, 0, 0, 0, 0,0.0,0.0,0.0,0.0,0.0,0.0,0.0,0.6666666666666666,0.0,0.0,0.0,0.0,0.0,284,test\src\org\apache\jmeter\protocol\http\modifier\TestAnchorModifier.java,2,2,3,10
org.apache.jmeter.protocol.http.modifier.TestURLRewritingModifier, 0, 0, 0, 0, 0, 0, 0, 0, 0, 0, 0, 0, 0, 0,0.0,0.0,0.0,0.2,0.0,0.0,0.0,0.4,0.0,0.0,0.0,0.0,0.0,248,test\src\org\apache\jmeter\protocol\http\modifier\TestURLRewritingModifier.java,0,0,0,0
org.apache.jmeter.protocol.http.modifier.URLRewritingModifier, 0, 0, 0, 1, 0, 0, 0, 0, 0, 0, 0, 0, 0, 1,0.0,0.0,0.0,0.0,0.0,0.0,0.0,0.3333333333333333,0.0,0.0,0.0,0.0,0.0,153,src\protocol\http\org\apache\jmeter\protocol\http\modifier\URLRewritingModifier.java,0,0,0,0
org.apache.jmeter.protocol.http.modifier.UserParameterXMLErrorHandler, 0, 0, 0, 0, 0, 0, 0, 0, 0, 0, 0, 0, 0, 0,0.0,0.0,0.0,0.0,0.0,0.0,0.0,0.0,0.0,0.0,0.0,0.0,0.0,21,src\protocol\http\org\apache\jmeter\protocol\http\modifier\UserParameterXMLErrorHandler.java,0,0,0,0
org.apache.jmeter.protocol.http.modifier.gui.AnchorModifierGui, 0, 0, 0, 0, 0, 0, 0, 0, 0, 0, 0, 0, 0, 0,0.0,0.0,0.0,0.0,0.0,0.0,0.0,0.6666666666666666,0.0,0.0,0.0,0.0,0.0,25,src\protocol\http\org\apache\jmeter\protocol\http\modifier\gui\AnchorModifierGui.java,0,0,0,0
org.apache.jmeter.protocol.http.parser.HTMLParseError, 0, 0, 0, 0, 0, 0, 0, 0, 0, 0, 0, 0, 0, 0,0.0,0.0,0.0,0.0,0.0,0.0,0.0,0.0,0.0,0.0,0.0,0.0,0.0,15,src\protocol\http\org\apache\jmeter\protocol\http\parser\HTMLParseError.java,0,0,0,0
org.apache.jmeter.protocol.http.parser.HTMLParseException, 0, 0, 0, 0, 0, 0, 0, 0, 0, 0, 0, 0, 0, 0,0.0,0.0,0.0,0.0,0.0,0.0,0.0,1.0,0.0,0.0,0.0,0.0,0.0,15,src\protocol\http\org\apache\jmeter\protocol\http\parser\HTMLParseException.java,0,0,0,0
org.apache.jmeter.protocol.http.parser.HtmlParserHTMLParser, 0, 0, 0, 0, 0, 0, 0, 1, 0, 0, 0, 0, 0, 1,0.0,0.0,0.0,0.0,0.0,0.0,0.0,0.0,0.0,0.0,0.0,0.0,0.0,112,src\protocol\http\org\apache\jmeter\protocol\http\parser\HtmlParserHTMLParser.java,0,0,0,0
org.apache.jmeter.protocol.http.parser.JTidyHTMLParser, 0, 0, 0, 0, 0, 0, 0, 1, 0, 0, 0, 0, 0, 1,0.0,0.0,0.0,0.0,0.0,0.0,0.0,0.0,0.0,0.0,0.0,0.0,0.0,142,src\protocol\http\org\apache\jmeter\protocol\http\parser\JTidyHTMLParser.java,0,0,0,0
org.apache.jmeter.protocol.http.parser.JsoupBasedHtmlParser, 0, 0, 0, 0, 0, 0, 0, 1, 0, 0, 0, 0, 0, 1,0.0,0.0,0.0,0.0,0.0,0.0,0.0,0.0,0.0,0.0,0.0,0.0,0.0,94,src\protocol\http\org\apache\jmeter\protocol\http\parser\JsoupBasedHtmlParser.java,0,0,0,0
org.apache.jmeter.protocol.http.parser.RegexpHTMLParser, 0, 0, 0, 0, 0, 0, 0, 1, 0, 0, 0, 0, 0, 1,0.0,0.0,0.0,0.0,0.0,0.0,0.0,0.0,0.0,0.0,0.0,0.0,0.0,85,src\protocol\http\org\apache\jmeter\protocol\http\parser\RegexpHTMLParser.java,0,0,0,0
org.apache.jmeter.protocol.http.parser.TestHtmlParsingUtils, 0, 0, 0, 0, 0, 0, 0, 0, 0, 0, 0, 0, 0, 0,0.0,0.0,0.0,0.0,0.0,0.0,0.0,1.0,0.0,0.0,0.0,0.0,0.0,61,test\src\org\apache\jmeter\protocol\http\parser\TestHtmlParsingUtils.java,0,0,0,0
org.apache.jmeter.protocol.http.parser.URLString, 0, 0, 0, 0, 0, 0, 0, 0, 0, 0, 0, 0, 0, 0,0.0,0.0,0.0,0.0,0.0,0.0,0.0,0.0,0.0,0.0,0.0,0.0,0.0,29,src\protocol\http\org\apache\jmeter\protocol\http\parser\URLString.java,0,0,0,0
org.apache.jmeter.protocol.http.proxy.ServerAliasKeyManager, 0, 0, 0, 0, 0, 0, 0, 1, 0, 0, 0, 0, 0, 1,0.0,0.0,0.0,0.0,0.0,0.0,0.0,0.0,0.0,0.0,0.0,0.0,0.0,32,src\protocol\http\org\apache\jmeter\protocol\http\proxy\ServerAliasKeyManager.java,0,0,0,0
org.apache.jmeter.protocol.http.proxy.TestProxyControl, 0, 0, 0, 0, 0, 0, 0, 0, 0, 0, 0, 0, 0, 0,0.0,0.0,0.0,0.0,0.0,0.0,0.0,0.0,0.0,0.0,0.0,0.0,0.0,99,test\src\org\apache\jmeter\protocol\http\proxy\TestProxyControl.java,0,0,0,0
org.apache.jmeter.protocol.http.sampler.AccessLogSampler, 0, 0, 0, 1, 0, 0, 0, 0, 0, 0, 0, 0, 0, 1,0.0,0.0,0.0,0.25,0.0,0.0,0.0,0.5,0.0,0.0,0.0,0.0,0.0,171,src\protocol\http\org\apache\jmeter\protocol\http\sampler\AccessLogSampler.java,0,2,13,28
org.apache.jmeter.protocol.http.sampler.AccessLogSamplerBeanInfo, 0, 0, 0, 0, 0, 0, 0, 0, 0, 0, 0, 0, 0, 0,0.0,0.0,0.0,1.0,0.0,0.0,0.0,0.0,0.0,0.0,0.0,0.0,0.0,51,src\protocol\http\org\apache\jmeter\protocol\http\sampler\AccessLogSamplerBeanInfo.java,0,0,0,0
org.apache.jmeter.protocol.http.sampler.HTTPAbstractImpl, 0, 0, 0, 1, 0, 0, 0, 1, 0, 0, 0, 0, 0, 2,0.0,0.0,0.0,0.16666666666666666,0.0,0.0,0.0,0.5,0.0,0.0,0.0,0.0,0.0,169,src\protocol\http\org\apache\jmeter\protocol\http\sampler\HTTPAbstractImpl.java,0,0,0,0
org.apache.jmeter.protocol.http.sampler.HTTPHCAbstractImpl, 0, 0, 0, 0, 0, 0, 0, 0, 0, 0, 0, 0, 0, 0,0.0,0.0,0.0,1.0,0.0,0.0,0.0,1.0,0.0,0.0,0.0,0.0,0.0,75,src\protocol\http\org\apache\jmeter\protocol\http\sampler\HTTPHCAbstractImpl.java,0,5,0,5
org.apache.jmeter.protocol.http.sampler.HTTPNullSampler, 0, 0, 0, 0, 0, 0, 0, 1, 0, 0, 0, 0, 0, 1,0.0,0.0,0.0,0.0,0.0,0.0,0.0,0.0,0.0,0.0,0.0,0.0,0.0,11,test\src\org\apache\jmeter\protocol\http\sampler\HTTPNullSampler.java,0,0,0,0
org.apache.jmeter.protocol.http.sampler.HTTPSampler, 0, 0, 0, 0, 0, 0, 0, 1, 0, 0, 0, 0, 0, 1,0.0,0.0,0.0,0.6666666666666666,0.0,0.0,0.0,0.3333333333333333,0.0,0.0,0.0,0.0,0.0,16,src\protocol\http\org\apache\jmeter\protocol\http\sampler\HTTPSampler.java,0,0,0,0
org.apache.jmeter.protocol.http.sampler.HTTPSampler2, 0, 0, 0, 0, 0, 0, 0, 1, 0, 0, 0, 0, 0, 1,0.0,0.0,0.0,1.0,0.0,0.0,0.0,1.0,0.0,0.0,0.0,0.0,0.0,37,src\protocol\http\org\apache\jmeter\protocol\http\sampler\HTTPSampler2.java,0,0,0,0
org.apache.jmeter.protocol.http.sampler.HTTPSampler3, 0, 0, 0, 0, 0, 0, 0, 1, 0, 0, 0, 0, 0, 1,0.0,0.0,0.0,1.0,0.0,0.0,0.0,1.0,0.0,0.0,0.0,0.0,0.0,20,test\src\org\apache\jmeter\protocol\http\sampler\HTTPSampler3.java,0,0,0,0
org.apache.jmeter.protocol.http.sampler.HTTPSamplerBaseBeanInfo, 0, 0, 0, 0, 0, 1, 0, 0, 0, 0, 0, 0, 0, 1,0.0,0.0,0.0,0.0,0.0,0.0,0.0,0.0,0.0,0.0,0.0,0.0,0.0,2,src\protocol\http\org\apache\jmeter\protocol\http\sampler\HTTPSamplerBaseBeanInfo.java,0,0,0,0
org.apache.jmeter.protocol.http.sampler.HTTPSamplerBaseConverter, 0, 0, 0, 0, 0, 0, 0, 0, 0, 0, 0, 0, 0, 0,0.0,0.0,0.0,0.0,0.0,0.0,0.0,1.0,0.0,0.0,0.0,0.0,0.0,25,src\protocol\http\org\apache\jmeter\protocol\http\sampler\HTTPSamplerBaseConverter.java,0,0,1,2
org.apache.jmeter.protocol.http.sampler.HTTPSamplerFactory, 0, 0, 0, 0, 0, 0, 0, 0, 0, 0, 0, 0, 0, 0,0.0,0.0,0.0,0.3333333333333333,0.0,0.0,0.0,0.6666666666666666,0.0,0.0,0.0,0.0,0.0,49,src\protocol\http\org\apache\jmeter\protocol\http\sampler\HTTPSamplerFactory.java,0,0,0,0
org.apache.jmeter.protocol.http.sampler.HTTPSamplerProxy, 0, 0, 0, 0, 0, 0, 0, 1, 0, 0, 0, 0, 0, 1,0.0,0.0,0.0,0.5,0.0,0.0,0.0,0.5,0.0,0.0,0.0,0.0,0.0,44,src\protocol\http\org\apache\jmeter\protocol\http\sampler\HTTPSamplerProxy.java,0,0,0,0
org.apache.jmeter.protocol.http.sampler.HttpWebdav, 0, 0, 0, 0, 0, 0, 0, 0, 0, 0, 0, 0, 0, 0,0.0,0.0,0.0,0.0,0.0,0.0,0.0,0.0,0.0,0.0,0.0,0.0,0.0,24,src\protocol\http\org\apache\jmeter\protocol\http\sampler\HttpWebdav.java,0,2,1,4
org.apache.jmeter.protocol.http.sampler.PackageTest, 0, 0, 0, 0, 0, 0, 0, 0, 0, 0, 0, 0, 0, 0,0.0,0.0,0.0,0.0,0.0,0.0,0.0,1.0,0.0,0.0,0.0,0.0,0.0,31,test\src\org\apache\jmeter\protocol\http\sampler\PackageTest.java,0,0,0,0
org.apache.jmeter.protocol.http.sampler.PutWriterTest, 0, 0, 0, 0, 0, 0, 0, 0, 0, 0, 0, 0, 0, 0,0.0,0.0,0.0,0.0,0.0,0.0,0.0,1.0,0.0,0.0,0.0,0.0,0.0,17,test\src\org\apache\jmeter\protocol\http\sampler\PutWriterTest.java,0,0,0,0
org.apache.jmeter.protocol.http.sampler.TestHTTPSamplers, 0, 0, 0, 0, 0, 0, 0, 0, 0, 0, 0, 0, 0, 0,0.0,0.0,0.0,0.0,0.0,0.0,0.0,1.0,0.0,0.0,0.0,0.0,0.0,270,test\src\org\apache\jmeter\protocol\http\sampler\TestHTTPSamplers.java,0,0,0,0
org.apache.jmeter.protocol.http.sampler.TestHTTPSamplersAgainstHttpMirrorServer, 0, 0, 0, 1, 0, 0, 0, 1, 0, 0, 0, 0, 0, 2,0.0,0.0,0.0,0.0,0.0,0.0,0.0,0.8571428571428571,0.0,0.0,0.0,0.0,0.0,1089,test\src\org\apache\jmeter\protocol\http\sampler\TestHTTPSamplersAgainstHttpMirrorServer.java,0,0,0,0
org.apache.jmeter.protocol.http.util.EncoderCache, 0, 0, 0, 0, 0, 0, 0, 0, 0, 0, 0, 0, 0, 0,0.0,0.0,0.0,0.0,0.0,0.0,0.0,1.0,0.0,0.0,0.0,0.0,0.0,24,src\protocol\http\org\apache\jmeter\protocol\http\util\EncoderCache.java,0,0,0,0
org.apache.jmeter.protocol.http.util.HC4TrustAllSSLSocketFactory, 0, 0, 0, 0, 0, 0, 0, 1, 0, 0, 0, 0, 0, 1,0.0,0.0,0.0,0.0,0.0,1.0,0.0,0.0,0.0,0.0,0.0,0.0,0.0,36,src\protocol\http\org\apache\jmeter\protocol\http\util\HC4TrustAllSSLSocketFactory.java,0,0,0,0
org.apache.jmeter.protocol.http.util.HTTPArgument, 0, 0, 0, 0, 0, 0, 0, 1, 0, 0, 0, 0, 0, 1,0.0,0.0,0.0,0.2,0.0,0.0,0.0,0.3,0.0,0.0,0.0,0.0,0.0,113,src\protocol\http\org\apache\jmeter\protocol\http\util\HTTPArgument.java,0,0,0,0
org.apache.jmeter.protocol.http.util.HTTPConstants, 0, 0, 0, 0, 0, 1, 0, 0, 0, 0, 0, 0, 0, 1,0.0,0.0,0.0,0.0,0.0,0.0,0.0,0.0,0.0,0.0,0.0,0.0,0.0,2,src\protocol\http\org\apache\jmeter\protocol\http\util\HTTPConstants.java,0,0,0,0
org.apache.jmeter.protocol.http.util.HTTPConstantsInterface, 0, 0, 0, 0, 0, 0, 0, 0, 0, 0, 0, 0, 0, 0,0.0,0.0,0.0,0.0,0.0,0.0,0.0,0.0,0.0,0.0,0.0,0.0,0.0,2,src\protocol\http\org\apache\jmeter\protocol\http\util\HTTPConstantsInterface.java,0,2,0,2
org.apache.jmeter.protocol.http.util.HTTPFileArg, 0, 0, 0, 0, 0, 0, 0, 1, 0, 0, 0, 0, 0, 1,0.0,0.0,0.0,0.25,0.0,0.0,0.0,0.25,0.0,0.0,0.0,0.0,0.0,71,src\protocol\http\org\apache\jmeter\protocol\http\util\HTTPFileArg.java,0,0,0,0
org.apache.jmeter.protocol.http.util.HTTPResultConverter, 0, 0, 0, 0, 0, 0, 0, 1, 0, 0, 0, 0, 0, 1,0.0,0.0,0.0,1.0,0.0,0.0,0.0,1.0,0.0,0.0,0.0,0.0,0.0,72,src\protocol\http\org\apache\jmeter\protocol\http\util\HTTPResultConverter.java,0,0,1,2
org.apache.jmeter.protocol.http.util.LoopbackHTTPSocket, 0, 0, 0, 0, 0, 0, 0, 1, 0, 0, 0, 0, 0, 1,0.0,0.0,0.0,0.0,0.0,0.0,0.0,1.0,0.0,0.0,0.0,0.0,0.0,48,src\protocol\http\org\apache\jmeter\protocol\http\util\LoopbackHTTPSocket.java,0,0,0,0
org.apache.jmeter.protocol.http.util.LoopbackHttpClientSocketFactory, 0, 0, 0, 0, 0, 0, 0, 1, 0, 0, 0, 0, 0, 1,0.0,0.0,0.0,0.0,0.0,0.0,0.0,1.0,0.0,0.0,0.0,0.0,0.0,45,src\protocol\http\org\apache\jmeter\protocol\http\util\LoopbackHttpClientSocketFactory.java,0,0,0,0
org.apache.jmeter.protocol.http.util.SlowHC4SSLSocketFactory, 0, 0, 0, 0, 0, 1, 0, 0, 0, 0, 0, 0, 0, 1,0.0,0.0,0.0,0.0,0.0,0.0,0.0,1.0,0.0,0.0,0.0,0.0,0.0,5,src\protocol\http\org\apache\jmeter\protocol\http\util\SlowHC4SSLSocketFactory.java,0,0,0,0
org.apache.jmeter.protocol.http.util.SlowHC4SocketFactory, 0, 0, 0, 0, 0, 0, 0, 0, 0, 0, 0, 0, 0, 0,0.0,0.0,0.0,0.0,0.0,0.0,0.0,1.0,0.0,0.0,0.0,0.0,0.0,15,src\protocol\http\org\apache\jmeter\protocol\http\util\SlowHC4SocketFactory.java,0,0,0,0
org.apache.jmeter.protocol.http.util.SlowHttpClientSocketFactory, 0, 0, 0, 0, 0, 0, 0, 1, 0, 0, 0, 0, 0, 1,0.0,0.0,0.0,0.0,0.0,0.0,0.0,1.0,0.0,0.0,0.0,0.0,0.0,28,src\protocol\http\org\apache\jmeter\protocol\http\util\SlowHttpClientSocketFactory.java,0,0,0,0
org.apache.jmeter.protocol.http.util.TestHTTPArgument, 0, 0, 0, 0, 0, 0, 0, 0, 0, 0, 0, 0, 0, 0,0.0,0.0,0.0,0.0,0.0,0.0,0.0,0.6666666666666666,0.0,0.0,0.0,0.0,0.0,61,test\src\org\apache\jmeter\protocol\http\util\TestHTTPArgument.java,0,0,0,0
org.apache.jmeter.protocol.http.util.TestHTTPFileArg, 0, 0, 0, 0, 0, 0, 0, 0, 0, 0, 0, 0, 0, 0,0.0,0.0,0.0,0.0,0.0,0.0,0.0,1.0,0.0,0.0,0.0,0.0,0.0,41,test\src\org\apache\jmeter\protocol\http\util\TestHTTPFileArg.java,0,0,0,0
org.apache.jmeter.protocol.http.util.TestHTTPFileArgs, 0, 0, 0, 0, 0, 0, 0, 0, 0, 0, 0, 0, 0, 0,0.0,0.0,0.0,0.0,0.0,0.0,0.0,1.0,0.0,0.0,0.0,0.0,0.0,90,test\src\org\apache\jmeter\protocol\http\util\TestHTTPFileArgs.java,0,0,0,0
org.apache.jmeter.protocol.http.util.TestHTTPUtils, 0, 0, 0, 0, 0, 0, 0, 0, 0, 0, 0, 0, 0, 0,0.0,0.0,0.0,0.0,0.0,0.0,0.0,0.0,0.0,0.0,0.0,0.0,0.0,81,test\src\org\apache\jmeter\protocol\http\util\TestHTTPUtils.java,0,0,0,0
org.apache.jmeter.protocol.http.util.WSDLException, 0, 0, 0, 0, 0, 0, 0, 0, 0, 0, 0, 0, 0, 0,0.0,0.0,0.0,0.0,0.0,0.0,0.0,0.0,0.0,0.0,0.0,0.0,0.0,12,src\protocol\http\org\apache\jmeter\protocol\http\util\WSDLException.java,0,0,0,0
org.apache.jmeter.protocol.http.util.accesslog.Filter, 0, 0, 0, 0, 0, 0, 0, 0, 0, 0, 0, 0, 0, 0,0.0,0.0,0.0,0.0,0.0,0.0,0.0,0.0,0.0,0.0,0.0,0.0,0.0,12,src\protocol\http\org\apache\jmeter\protocol\http\util\accesslog\Filter.java,0,0,0,0
org.apache.jmeter.protocol.http.util.accesslog.Generator, 0, 0, 0, 0, 0, 0, 0, 0, 0, 0, 0, 0, 0, 0,0.0,0.0,0.0,0.0,0.0,0.0,0.0,0.0,0.0,0.0,0.0,0.0,0.0,12,src\protocol\http\org\apache\jmeter\protocol\http\util\accesslog\Generator.java,0,0,0,0
org.apache.jmeter.protocol.http.util.accesslog.LogFilter, 0, 0, 0, 1, 0, 0, 0, 0, 0, 0, 0, 0, 0, 1,0.0,0.0,0.0,0.0,0.0,0.0,0.0,0.0,0.0,0.0,0.0,0.0,0.0,177,src\protocol\http\org\apache\jmeter\protocol\http\util\accesslog\LogFilter.java,5,1,1,8
org.apache.jmeter.protocol.http.util.accesslog.LogParser, 0, 0, 0, 0, 0, 0, 0, 0, 0, 0, 0, 0, 0, 0,0.0,0.0,0.0,0.0,0.0,0.0,0.0,0.0,0.0,0.0,0.0,0.0,0.0,177,src\protocol\http\org\apache\jmeter\protocol\http\util\accesslog\LogParser.java,0,0,0,0
org.apache.jmeter.protocol.http.util.accesslog.NVPair, 0, 0, 0, 0, 0, 0, 0, 0, 0, 0, 0, 0, 0, 0,0.0,0.0,0.0,0.5,0.0,0.0,0.0,0.5,0.0,0.0,0.0,0.0,0.0,22,src\protocol\http\org\apache\jmeter\protocol\http\util\accesslog\NVPair.java,0,0,0,0
org.apache.jmeter.protocol.http.util.accesslog.OrderPreservingLogParser, 0, 0, 0, 0, 0, 0, 0, 0, 0, 0, 0, 0, 0, 0,0.0,0.0,0.0,0.0,0.0,0.0,0.0,1.0,0.0,0.0,0.0,0.0,0.0,12,src\protocol\http\org\apache\jmeter\protocol\http\util\accesslog\OrderPreservingLogParser.java,0,0,0,0
org.apache.jmeter.protocol.http.util.accesslog.SharedTCLogParser, 0, 0, 0, 0, 0, 0, 0, 1, 0, 0, 0, 0, 0, 1,0.0,0.0,0.0,0.5,0.0,0.0,0.0,0.5,0.0,0.0,0.0,0.0,0.0,55,src\protocol\http\org\apache\jmeter\protocol\http\util\accesslog\SharedTCLogParser.java,0,0,0,0
org.apache.jmeter.protocol.http.util.accesslog.StandardGenerator, 0, 0, 0, 0, 0, 0, 0, 0, 0, 0, 0, 0, 0, 0,0.0,0.0,0.0,0.0,0.0,0.0,0.0,0.0,0.0,0.0,0.0,0.0,0.0,80,src\protocol\http\org\apache\jmeter\protocol\http\util\accesslog\StandardGenerator.java,0,0,0,0
org.apache.jmeter.protocol.http.util.accesslog.TCLogParser, 0, 0, 0, 1, 0, 0, 0, 1, 0, 0, 0, 0, 0, 2,0.0,0.0,0.0,0.0,0.0,0.0,0.0,0.3333333333333333,0.0,0.0,0.0,0.0,0.0,245,src\protocol\http\org\apache\jmeter\protocol\http\util\accesslog\TCLogParser.java,0,0,0,0
org.apache.jmeter.protocol.http.util.accesslog.TestLogFilter, 0, 0, 0, 0, 0, 0, 0, 0, 0, 0, 0, 0, 0, 0,0.0,0.0,0.0,0.5,0.0,0.0,0.0,0.5,0.0,0.0,0.0,0.0,0.0,111,test\src\org\apache\jmeter\protocol\http\util\accesslog\TestLogFilter.java,0,0,0,0
org.apache.jmeter.protocol.http.util.accesslog.TestTCLogParser, 0, 0, 0, 0, 0, 0, 0, 0, 0, 0, 0, 0, 0, 0,0.0,0.0,0.0,0.5,0.0,0.0,0.0,1.0,0.0,0.0,0.0,0.0,0.0,28,test\src\org\apache\jmeter\protocol\http\util\accesslog\TestTCLogParser.java,0,0,0,0
org.apache.jmeter.protocol.java.config.JavaConfig, 0, 0, 0, 0, 0, 0, 0, 0, 0, 0, 0, 0, 0, 0,0.0,0.0,0.0,0.0,0.0,0.0,0.0,0.0,0.0,0.0,0.0,0.0,0.0,25,src\protocol\java\org\apache\jmeter\protocol\java\config\JavaConfig.java,0,0,0,0
org.apache.jmeter.protocol.java.control.gui.ClassFilter, 0, 0, 0, 0, 0, 0, 0, 0, 0, 0, 0, 0, 0, 0,0.0,0.0,0.0,0.0,0.0,0.0,0.0,0.0,0.0,0.0,0.0,0.0,0.0,36,src\junit\org\apache\jmeter\protocol\java\control\gui\ClassFilter.java,0,0,0,0
org.apache.jmeter.protocol.java.control.gui.JavaTestSamplerGui, 0, 0, 0, 0, 0, 0, 0, 0, 0, 0, 0, 0, 0, 0,0.0,0.0,0.0,0.0,0.0,0.0,0.0,0.5,0.0,0.0,0.0,0.0,0.0,42,src\protocol\java\org\apache\jmeter\protocol\java\control\gui\JavaTestSamplerGui.java,0,0,0,0
org.apache.jmeter.protocol.java.sampler.AbstractJavaSamplerClient, 0, 0, 0, 0, 0, 0, 0, 0, 0, 0, 0, 0, 0, 0,0.0,0.0,0.0,0.0,0.0,0.0,0.0,0.0,0.0,0.0,0.0,0.0,0.0,18,src\protocol\java\org\apache\jmeter\protocol\java\sampler\AbstractJavaSamplerClient.java,0,0,0,0
org.apache.jmeter.protocol.java.sampler.BSFSampler, 0, 0, 0, 0, 0, 0, 0, 0, 0, 0, 0, 0, 0, 0,0.0,0.0,0.0,0.0,0.0,0.0,0.0,0.0,0.0,0.0,0.0,0.0,0.0,65,src\protocol\java\org\apache\jmeter\protocol\java\sampler\BSFSampler.java,0,0,0,0
org.apache.jmeter.protocol.java.sampler.BSFSamplerBeanInfo, 0, 0, 0, 0, 0, 1, 0, 0, 0, 0, 0, 0, 0, 1,0.0,0.0,0.0,0.0,0.0,0.0,0.0,0.0,0.0,0.0,0.0,0.0,0.0,5,src\protocol\java\org\apache\jmeter\protocol\java\sampler\BSFSamplerBeanInfo.java,0,0,0,0
org.apache.jmeter.protocol.java.sampler.BeanShellSampler, 0, 0, 0, 0, 0, 0, 0, 0, 0, 0, 0, 0, 0, 0,0.0,0.0,0.0,0.0,0.0,0.0,0.0,0.3333333333333333,0.0,0.0,0.0,0.0,0.0,108,src\protocol\java\org\apache\jmeter\protocol\java\sampler\BeanShellSampler.java,0,0,0,0
org.apache.jmeter.protocol.java.sampler.JSR223SamplerBeanInfo, 0, 0, 0, 0, 0, 1, 0, 0, 0, 0, 0, 0, 0, 1,0.0,0.0,0.0,0.0,0.0,0.0,0.0,0.0,0.0,0.0,0.0,0.0,0.0,5,src\protocol\java\org\apache\jmeter\protocol\java\sampler\JSR223SamplerBeanInfo.java,0,0,0,0
org.apache.jmeter.protocol.java.sampler.JavaSamplerClient, 0, 0, 0, 0, 0, 0, 0, 0, 0, 0, 0, 0, 0, 0,0.0,0.0,0.0,0.0,0.0,0.0,0.0,0.0,0.0,0.0,0.0,0.0,0.0,5,src\protocol\java\org\apache\jmeter\protocol\java\sampler\JavaSamplerClient.java,0,0,0,0
org.apache.jmeter.protocol.jdbc.JDBCTestElementBeanInfoSupport, 0, 0, 0, 0, 0, 0, 0, 0, 0, 0, 0, 0, 0, 0,0.0,0.0,0.0,0.25,0.0,0.75,0.0,0.0,0.0,0.0,0.0,0.0,0.0,54,src\protocol\jdbc\org\apache\jmeter\protocol\jdbc\JDBCTestElementBeanInfoSupport.java,0,10,1,12
org.apache.jmeter.protocol.jdbc.processor.AbstractJDBCProcessor, 0, 0, 0, 0, 0, 0, 0, 0, 0, 0, 0, 0, 0, 0,0.0,0.0,0.0,0.0,0.0,0.0,0.0,0.0,0.0,0.0,0.0,0.0,0.0,22,src\protocol\jdbc\org\apache\jmeter\protocol\jdbc\processor\AbstractJDBCProcessor.java,0,0,0,0
org.apache.jmeter.protocol.jdbc.processor.JDBCPostProcessor, 0, 0, 0, 0, 0, 0, 0, 0, 0, 0, 0, 0, 0, 0,0.0,0.0,0.0,0.0,0.0,0.0,0.0,0.0,0.0,0.0,0.0,0.0,0.0,7,src\protocol\jdbc\org\apache\jmeter\protocol\jdbc\processor\JDBCPostProcessor.java,0,0,0,0
org.apache.jmeter.protocol.jdbc.processor.JDBCPostProcessorBeanInfo, 0, 0, 0, 0, 0, 1, 0, 0, 0, 0, 0, 0, 0, 1,0.0,0.0,0.0,0.0,0.0,0.0,0.0,0.0,0.0,0.0,0.0,0.0,0.0,5,src\protocol\jdbc\org\apache\jmeter\protocol\jdbc\processor\JDBCPostProcessorBeanInfo.java,0,0,0,0
org.apache.jmeter.protocol.jdbc.processor.JDBCPreProcessor, 0, 0, 0, 0, 0, 0, 0, 0, 0, 0, 0, 0, 0, 0,0.0,0.0,0.0,0.0,0.0,0.0,0.0,0.0,0.0,0.0,0.0,0.0,0.0,7,src\protocol\jdbc\org\apache\jmeter\protocol\jdbc\processor\JDBCPreProcessor.java,0,0,0,0
org.apache.jmeter.protocol.jdbc.processor.JDBCPreProcessorBeanInfo, 0, 0, 0, 0, 0, 1, 0, 0, 0, 0, 0, 0, 0, 1,0.0,0.0,0.0,0.0,0.0,0.0,0.0,0.0,0.0,0.0,0.0,0.0,0.0,5,src\protocol\jdbc\org\apache\jmeter\protocol\jdbc\processor\JDBCPreProcessorBeanInfo.java,0,0,0,0
org.apache.jmeter.protocol.jdbc.sampler.JDBCSampler, 0, 0, 0, 0, 0, 0, 0, 0, 0, 0, 0, 0, 0, 0,0.0,0.0,0.0,0.0,0.0,0.0,0.0,0.0,0.0,0.0,0.0,0.0,0.0,56,src\protocol\jdbc\org\apache\jmeter\protocol\jdbc\sampler\JDBCSampler.java,0,0,0,0
org.apache.jmeter.protocol.jdbc.sampler.JDBCSamplerBeanInfo, 0, 0, 0, 0, 0, 1, 0, 0, 0, 0, 0, 0, 0, 1,0.0,0.0,0.0,0.0,0.0,0.0,0.0,0.0,0.0,0.0,0.0,0.0,0.0,5,src\protocol\jdbc\org\apache\jmeter\protocol\jdbc\sampler\JDBCSamplerBeanInfo.java,0,0,0,0
org.apache.jmeter.protocol.jms.client.ReceiveSubscriber, 0, 0, 0, 0, 0, 0, 0, 1, 0, 0, 0, 0, 0, 1,0.0,0.0,0.0,0.0,0.0,0.0,0.0,0.0,0.0,0.0,0.0,0.0,0.0,131,src\protocol\jms\org\apache\jmeter\protocol\jms\client\ReceiveSubscriber.java,0,0,0,0
org.apache.jmeter.protocol.jms.sampler.FixedQueueExecutor, 0, 0, 0, 0, 0, 0, 0, 1, 0, 0, 0, 0, 0, 1,0.0,0.0,0.0,0.0,0.0,0.0,0.0,0.0,0.0,0.0,0.0,0.0,0.0,51,src\protocol\jms\org\apache\jmeter\protocol\jms\sampler\FixedQueueExecutor.java,0,0,0,0
org.apache.jmeter.protocol.jms.sampler.JMSProperty, 0, 0, 0, 0, 0, 0, 0, 1, 0, 0, 0, 0, 0, 1,0.0,0.0,0.0,0.0,0.0,0.0,0.0,0.0,0.0,0.0,0.0,0.0,0.0,64,src\protocol\jms\org\apache\jmeter\protocol\jms\sampler\JMSProperty.java,0,0,0,0
org.apache.jmeter.protocol.jms.sampler.QueueExecutor, 0, 0, 0, 0, 0, 0, 0, 0, 0, 0, 0, 0, 0, 0,0.0,0.0,0.0,0.0,0.0,0.0,0.0,0.0,0.0,0.0,0.0,0.0,0.0,64,src\protocol\jms\org\apache\jmeter\protocol\jms\sampler\QueueExecutor.java,0,0,0,0
org.apache.jmeter.protocol.jms.sampler.Receiver, 0, 0, 0, 0, 0, 0, 0, 1, 0, 0, 0, 0, 0, 1,0.0,0.0,0.0,0.0,0.0,0.0,0.0,0.0,0.0,0.0,0.0,0.0,0.0,74,src\protocol\jms\org\apache\jmeter\protocol\jms\sampler\Receiver.java,0,0,0,0
org.apache.jmeter.protocol.jms.sampler.TemporaryQueueExecutor, 0, 0, 0, 0, 0, 0, 0, 1, 0, 0, 0, 0, 0, 1,0.0,0.0,0.0,0.0,0.0,0.0,0.0,0.0,0.0,0.0,0.0,0.0,0.0,13,src\protocol\jms\org\apache\jmeter\protocol\jms\sampler\TemporaryQueueExecutor.java,0,0,0,0
org.apache.jmeter.protocol.ldap.config.gui.LDAPArgument, 0, 0, 0, 0, 0, 0, 0, 1, 0, 0, 0, 0, 0, 1,0.0,0.0,0.0,0.0,0.0,0.0,0.0,0.0,0.0,0.0,0.0,0.0,0.0,46,src\protocol\ldap\org\apache\jmeter\protocol\ldap\config\gui\LDAPArgument.java,0,0,0,0
org.apache.jmeter.protocol.ldap.config.gui.PackageTest, 0, 0, 0, 0, 0, 0, 0, 0, 0, 0, 0, 0, 0, 0,0.0,0.0,0.0,0.3333333333333333,0.0,0.0,0.0,0.6666666666666666,0.0,0.0,0.0,0.0,0.0,14,test\src\org\apache\jmeter\protocol\ldap\config\gui\PackageTest.java,0,0,0,0
org.apache.jmeter.protocol.ldap.sampler.LDAPSampler, 0, 0, 0, 1, 0, 0, 0, 0, 0, 0, 0, 0, 0, 1,0.0,0.0,0.0,0.0,0.0,0.0,0.0,0.16666666666666666,0.0,0.0,0.0,0.0,0.0,232,src\protocol\ldap\org\apache\jmeter\protocol\ldap\sampler\LDAPSampler.java,0,0,0,0
org.apache.jmeter.protocol.mail.sampler.MailFileFolder, 0, 0, 0, 1, 0, 0, 0, 0, 0, 0, 0, 0, 0, 1,0.0,0.0,0.0,0.0,0.0,1.0,0.0,1.0,0.0,0.0,0.0,0.0,0.0,131,src\protocol\mail\org\apache\jmeter\protocol\mail\sampler\MailFileFolder.java,0,0,0,0
org.apache.jmeter.protocol.mail.sampler.MailFileMessage, 0, 0, 0, 0, 0, 1, 0, 1, 0, 0, 0, 0, 0, 2,0.0,0.0,0.0,1.0,0.0,0.0,0.0,0.0,0.0,0.0,0.0,0.0,0.0,6,src\protocol\mail\org\apache\jmeter\protocol\mail\sampler\MailFileMessage.java,0,0,0,0
org.apache.jmeter.protocol.mail.sampler.MailFileStore, 0, 0, 0, 0, 0, 0, 0, 1, 0, 0, 0, 0, 0, 1,0.0,0.0,0.0,0.0,0.0,0.0,0.0,0.0,0.0,0.0,0.0,0.0,0.0,26,src\protocol\mail\org\apache\jmeter\protocol\mail\sampler\MailFileStore.java,0,0,0,0
org.apache.jmeter.protocol.mongodb.config.MongoDBHolder, 0, 0, 0, 0, 0, 0, 0, 1, 0, 0, 0, 0, 0, 1,0.0,0.0,0.0,0.0,0.0,0.0,0.0,0.5,0.0,0.0,0.0,0.0,0.0,9,src\protocol\mongodb\org\apache\jmeter\protocol\mongodb\config\MongoDBHolder.java,0,0,0,0
org.apache.jmeter.protocol.mongodb.config.MongoSourceElement, 0, 0, 0, 1, 0, 0, 0, 0, 0, 0, 0, 0, 0, 1,0.0,0.0,0.0,0.0,0.0,0.0,0.0,0.2,0.0,0.0,0.0,0.0,0.0,204,src\protocol\mongodb\org\apache\jmeter\protocol\mongodb\config\MongoSourceElement.java,0,0,0,0
org.apache.jmeter.protocol.mongodb.config.MongoSourceElementBeanInfo, 0, 0, 0, 0, 0, 0, 0, 0, 0, 0, 0, 0, 0, 0,0.0,0.0,0.0,1.0,0.0,0.0,0.0,0.0,0.0,0.0,0.0,0.0,0.0,80,src\protocol\mongodb\org\apache\jmeter\protocol\mongodb\config\MongoSourceElementBeanInfo.java,0,0,0,0
org.apache.jmeter.protocol.mongodb.mongo.EvalResultHandler, 0, 0, 0, 0, 0, 0, 0, 0, 0, 0, 0, 0, 0, 0,0.0,0.0,0.0,0.0,0.0,0.0,0.0,0.0,0.0,0.0,0.0,0.0,0.0,34,src\protocol\mongodb\org\apache\jmeter\protocol\mongodb\mongo\EvalResultHandler.java,0,0,0,0
org.apache.jmeter.protocol.mongodb.mongo.MongoDB, 0, 0, 0, 0, 0, 0, 0, 1, 0, 0, 0, 0, 0, 1,0.0,0.0,0.0,0.3333333333333333,0.0,0.0,0.0,0.3333333333333333,0.0,0.0,0.0,0.0,0.0,32,src\protocol\mongodb\org\apache\jmeter\protocol\mongodb\mongo\MongoDB.java,0,0,0,0
org.apache.jmeter.protocol.mongodb.mongo.MongoUtils, 0, 0, 0, 0, 0, 0, 0, 0, 0, 0, 0, 0, 0, 0,0.0,0.0,0.0,1.0,0.0,0.0,0.0,0.0,0.0,0.0,0.0,0.0,0.0,15,src\protocol\mongodb\org\apache\jmeter\protocol\mongodb\mongo\MongoUtils.java,0,0,0,0
org.apache.jmeter.protocol.mongodb.sampler.MongoScriptRunner, 0, 0, 0, 0, 0, 0, 0, 0, 0, 0, 0, 0, 0, 0,0.0,0.0,0.0,0.0,0.0,0.0,0.0,0.0,0.0,0.0,0.0,0.0,0.0,23,src\protocol\mongodb\org\apache\jmeter\protocol\mongodb\sampler\MongoScriptRunner.java,0,0,0,0
org.apache.jmeter.protocol.mongodb.sampler.MongoScriptSampler, 0, 0, 0, 0, 0, 0, 0, 0, 0, 0, 0, 0, 0, 0,0.0,0.0,0.0,0.2,0.0,0.0,0.0,0.2,0.0,0.0,0.0,0.0,0.0,85,src\protocol\mongodb\org\apache\jmeter\protocol\mongodb\sampler\MongoScriptSampler.java,0,0,0,0
org.apache.jmeter.protocol.mongodb.sampler.MongoScriptSamplerBeanInfo, 0, 0, 0, 0, 0, 0, 0, 0, 0, 0, 0, 0, 0, 0,0.0,0.0,0.0,1.0,0.0,0.0,0.0,0.0,0.0,0.0,0.0,0.0,0.0,37,src\protocol\mongodb\org\apache\jmeter\protocol\mongodb\sampler\MongoScriptSamplerBeanInfo.java,0,0,0,0
org.apache.jmeter.protocol.smtp.sampler.gui.SmtpSamplerGui, 0, 0, 0, 0, 0, 0, 0, 0, 0, 0, 0, 0, 0, 0,0.0,0.0,0.0,0.0,0.0,0.0,0.0,0.3333333333333333,0.0,0.0,0.0,0.0,0.0,102,src\protocol\mail\org\apache\jmeter\protocol\smtp\sampler\gui\SmtpSamplerGui.java,0,0,0,0
org.apache.jmeter.protocol.smtp.sampler.protocol.LocalTrustStoreSSLSocketFactory, 0, 0, 0, 0, 0, 0, 0, 1, 0, 0, 0, 0, 0, 1,0.0,0.0,0.0,0.0,0.0,0.0,0.0,0.0,0.0,0.0,0.0,0.0,0.0,61,src\protocol\mail\org\apache\jmeter\protocol\smtp\sampler\protocol\LocalTrustStoreSSLSocketFactory.java,0,0,0,0
org.apache.jmeter.protocol.smtp.sampler.protocol.SynchronousTransportListener, 0, 0, 0, 0, 0, 0, 0, 0, 0, 0, 0, 0, 0, 0,0.0,0.0,0.0,0.0,0.0,0.0,0.0,0.0,0.0,0.0,0.0,0.0,0.0,35,src\protocol\mail\org\apache\jmeter\protocol\smtp\sampler\protocol\SynchronousTransportListener.java,0,0,0,0
org.apache.jmeter.protocol.smtp.sampler.protocol.TrustAllSSLSocketFactory, 0, 0, 0, 0, 0, 0, 0, 1, 0, 0, 0, 0, 0, 1,0.0,0.0,0.0,0.0,0.0,0.0,0.0,0.0,0.0,0.0,0.0,0.0,0.0,70,src\protocol\mail\org\apache\jmeter\protocol\smtp\sampler\protocol\TrustAllSSLSocketFactory.java,0,0,0,0
org.apache.jmeter.protocol.smtp.sampler.tools.CounterOutputStream, 0, 0, 0, 0, 0, 0, 0, 1, 0, 0, 0, 0, 0, 1,0.0,0.0,0.0,0.0,0.0,0.0,0.0,0.0,0.0,0.0,0.0,0.0,0.0,18,src\protocol\mail\org\apache\jmeter\protocol\smtp\sampler\tools\CounterOutputStream.java,0,0,0,0
org.apache.jmeter.protocol.tcp.sampler.AbstractTCPClient, 0, 0, 0, 0, 0, 0, 0, 0, 0, 0, 0, 0, 0, 0,0.0,0.0,0.0,0.0,0.0,0.0,0.0,0.0,0.0,0.0,0.0,0.0,0.0,31,src\protocol\tcp\org\apache\jmeter\protocol\tcp\sampler\AbstractTCPClient.java,0,0,0,0
org.apache.jmeter.protocol.tcp.sampler.BinaryTCPClientImpl, 0, 0, 0, 0, 0, 0, 0, 0, 0, 0, 0, 0, 0, 0,0.0,0.0,0.0,0.0,0.0,0.0,0.0,0.25,0.0,0.0,0.0,0.0,0.0,65,src\protocol\tcp\org\apache\jmeter\protocol\tcp\sampler\BinaryTCPClientImpl.java,0,0,0,0
org.apache.jmeter.protocol.tcp.sampler.BinaryTCPClientImplTest, 0, 0, 0, 0, 0, 0, 0, 0, 0, 0, 0, 0, 0, 0,0.0,0.0,0.0,0.0,0.0,0.0,0.0,0.0,0.0,0.0,0.0,0.0,0.0,46,test\src\org\apache\jmeter\protocol\tcp\sampler\BinaryTCPClientImplTest.java,0,0,0,0
org.apache.jmeter.protocol.tcp.sampler.LengthPrefixedBinaryTCPClientImpl, 0, 0, 0, 0, 0, 0, 0, 0, 0, 0, 0, 0, 0, 0,0.0,0.0,0.0,0.0,0.0,0.0,0.0,0.25,0.0,0.0,0.0,0.0,0.0,52,src\protocol\tcp\org\apache\jmeter\protocol\tcp\sampler\LengthPrefixedBinaryTCPClientImpl.java,0,0,0,0
org.apache.jmeter.protocol.tcp.sampler.LengthPrefixedBinaryTCPClientImplTest, 0, 0, 0, 0, 0, 0, 0, 0, 0, 0, 0, 0, 0, 0,0.0,0.0,0.0,0.0,0.0,0.0,0.0,0.0,0.0,0.0,0.0,0.0,0.0,23,test\src\org\apache\jmeter\protocol\tcp\sampler\LengthPrefixedBinaryTCPClientImplTest.java,0,0,0,0
org.apache.jmeter.protocol.tcp.sampler.ReadException, 0, 0, 0, 0, 0, 0, 0, 1, 0, 0, 0, 0, 0, 1,0.0,0.0,0.0,0.0,0.0,0.0,0.0,0.0,0.0,0.0,0.0,0.0,0.0,15,src\protocol\tcp\org\apache\jmeter\protocol\tcp\sampler\ReadException.java,0,0,0,0
org.apache.jmeter.protocol.tcp.sampler.TCPClient, 0, 0, 0, 0, 0, 0, 0, 0, 0, 0, 0, 0, 0, 0,0.0,0.0,0.0,0.0,0.0,0.0,0.0,0.0,0.0,0.0,0.0,0.0,0.0,15,src\protocol\tcp\org\apache\jmeter\protocol\tcp\sampler\TCPClient.java,0,0,0,0
org.apache.jmeter.protocol.tcp.sampler.TCPClientDecorator, 0, 0, 0, 0, 0, 0, 0, 0, 0, 0, 0, 0, 0, 0,0.0,0.0,0.0,0.0,0.0,0.0,0.0,0.0,0.0,0.0,0.0,0.0,0.0,36,src\protocol\tcp\org\apache\jmeter\protocol\tcp\sampler\TCPClientDecorator.java,0,0,0,0
org.apache.jmeter.protocol.tcp.sampler.TCPClientDecoratorTest, 0, 0, 0, 0, 0, 0, 0, 0, 0, 0, 0, 0, 0, 0,0.0,0.0,0.0,0.0,0.0,0.0,0.0,0.0,0.0,0.0,0.0,0.0,0.0,173,test\src\org\apache\jmeter\protocol\tcp\sampler\TCPClientDecoratorTest.java,0,0,0,0
org.apache.jmeter.report.DataSet, 0, 0, 0, 0, 0, 0, 0, 0, 0, 0, 0, 0, 0, 0,0.0,0.0,0.0,0.0,0.0,0.0,0.0,0.0,0.0,0.0,0.0,0.0,0.0,173,src\reports\org\apache\jmeter\report\DataSet.java,24,0,0,24
org.apache.jmeter.report.ReportChart, 0, 0, 0, 0, 0, 0, 0, 0, 0, 0, 0, 0, 0, 0,0.0,0.0,0.0,0.0,0.0,0.0,0.0,0.0,0.0,0.0,0.0,0.0,0.0,173,src\reports\org\apache\jmeter\report\ReportChart.java,6,0,0,6
org.apache.jmeter.report.ReportTable, 0, 0, 0, 0, 0, 0, 0, 0, 0, 0, 0, 0, 0, 0,0.0,0.0,0.0,0.0,0.0,0.0,0.0,0.0,0.0,0.0,0.0,0.0,0.0,173,src\reports\org\apache\jmeter\report\ReportTable.java,6,0,0,6
org.apache.jmeter.report.engine.ReportEngine, 0, 0, 0, 0, 0, 0, 0, 0, 0, 0, 0, 0, 0, 0,0.0,0.0,0.0,0.0,0.0,0.0,0.0,0.0,0.0,0.0,0.0,0.0,0.0,173,src\reports\org\apache\jmeter\report\engine\ReportEngine.java,10,0,0,10
org.apache.jmeter.report.engine.StandardReportEngine, 0, 0, 0, 0, 0, 0, 0, 0, 0, 0, 0, 0, 0, 0,0.0,0.0,0.0,0.0,0.0,0.0,0.0,0.0,0.0,0.0,0.0,0.0,0.0,25,src\reports\org\apache\jmeter\report\engine\StandardReportEngine.java,29,0,0,29
org.apache.jmeter.report.gui.action.ReportAddParent, 0, 0, 0, 0, 0, 0, 0, 1, 0, 0, 0, 0, 0, 1,0.0,0.0,0.0,0.0,0.0,0.0,0.0,0.5,0.0,0.0,0.0,0.0,0.0,45,src\reports\org\apache\jmeter\report\gui\action\ReportAddParent.java,56,0,0,56
org.apache.jmeter.report.gui.action.ReportCopy, 0, 0, 0, 0, 0, 0, 0, 0, 0, 0, 0, 0, 0, 0,0.0,0.0,0.0,0.0,0.0,0.0,0.0,0.0,0.0,0.0,0.0,0.0,0.0,68,src\reports\org\apache\jmeter\report\gui\action\ReportCopy.java,78,0,0,78
org.apache.jmeter.report.gui.action.ReportCut, 0, 0, 0, 0, 0, 0, 0, 0, 0, 0, 0, 0, 0, 0,0.0,0.0,0.0,0.0,0.0,0.0,0.0,0.5,0.0,0.0,0.0,0.0,0.0,21,src\reports\org\apache\jmeter\report\gui\action\ReportCut.java,28,0,0,28
org.apache.jmeter.report.gui.action.ReportDragNDrop, 0, 0, 0, 0, 0, 0, 0, 0, 0, 0, 0, 0, 0, 0,0.0,0.0,0.0,0.0,0.0,0.0,0.0,0.3333333333333333,0.0,0.0,0.0,0.0,0.0,74,src\reports\org\apache\jmeter\report\gui\action\ReportDragNDrop.java,87,0,0,87
org.apache.jmeter.report.gui.action.ReportEditCommand, 0, 0, 0, 0, 0, 0, 0, 0, 0, 0, 0, 0, 0, 0,0.0,0.0,0.0,0.0,0.0,0.0,0.0,0.0,0.0,0.0,0.0,0.0,0.0,25,src\reports\org\apache\jmeter\report\gui\action\ReportEditCommand.java,32,0,0,32
org.apache.jmeter.report.gui.action.ReportEnableComponent, 0, 0, 0, 0, 0, 0, 0, 0, 0, 0, 0, 0, 0, 0,0.0,0.0,0.0,0.0,0.0,0.0,0.0,0.0,0.0,0.0,0.0,0.0,0.0,32,src\reports\org\apache\jmeter\report\gui\action\ReportEnableComponent.java,41,0,0,41
org.apache.jmeter.report.gui.action.ReportLoad, 0, 0, 0, 0, 0, 0, 0, 0, 0, 0, 0, 0, 0, 0,0.0,0.0,0.0,0.0,0.0,0.0,0.0,0.0,0.0,0.0,0.0,0.0,0.0,85,src\reports\org\apache\jmeter\report\gui\action\ReportLoad.java,107,0,0,107
org.apache.jmeter.report.gui.action.ReportLookAndFeelCommand, 0, 0, 0, 0, 0, 1, 0, 0, 0, 0, 0, 0, 0, 1,0.0,0.0,0.0,0.0,0.0,0.0,0.0,0.0,0.0,0.0,0.0,0.0,0.0,2,src\reports\org\apache\jmeter\report\gui\action\ReportLookAndFeelCommand.java,4,0,0,4
org.apache.jmeter.report.gui.action.ReportPaste, 0, 0, 0, 0, 0, 0, 0, 0, 0, 0, 0, 0, 0, 0,0.0,0.0,0.0,0.0,0.0,0.0,0.0,0.0,0.0,0.0,0.0,0.0,0.0,26,src\reports\org\apache\jmeter\report\gui\action\ReportPaste.java,34,0,0,34
org.apache.jmeter.report.gui.action.ReportSave, 0, 0, 0, 0, 0, 0, 0, 0, 0, 0, 0, 0, 0, 0,0.0,0.0,0.0,0.0,0.0,0.0,0.0,0.3333333333333333,0.0,0.0,0.0,0.0,0.0,69,src\reports\org\apache\jmeter\report\gui\action\ReportSave.java,89,0,0,89
org.apache.jmeter.report.gui.action.ReportStart, 0, 0, 0, 0, 0, 0, 0, 0, 0, 0, 0, 0, 0, 0,0.0,0.0,0.0,0.0,0.0,0.0,0.0,0.0,0.0,0.0,0.0,0.0,0.0,23,src\reports\org\apache\jmeter\report\gui\action\ReportStart.java,28,0,0,28
org.apache.jmeter.report.gui.tree.ReportCellRenderer, 0, 0, 0, 0, 0, 0, 0, 1, 0, 0, 0, 0, 0, 1,0.0,0.0,0.0,0.0,0.0,0.0,0.0,0.0,0.0,0.0,0.0,0.0,0.0,30,src\reports\org\apache\jmeter\report\gui\tree\ReportCellRenderer.java,35,0,0,35
org.apache.jmeter.report.gui.tree.ReportTreeModel, 0, 0, 0, 0, 0, 0, 0, 1, 0, 0, 0, 0, 0, 1,0.0,0.0,0.0,0.0,0.0,0.0,0.0,0.14285714285714285,0.0,0.0,0.0,0.0,0.0,109,src\reports\org\apache\jmeter\report\gui\tree\ReportTreeModel.java,125,0,0,125
org.apache.jmeter.report.gui.tree.ReportTreeNode, 0, 0, 0, 0, 0, 0, 0, 0, 0, 0, 0, 0, 0, 0,0.0,0.0,0.0,0.0,0.0,0.0,0.0,0.375,0.0,0.0,0.0,0.0,0.0,98,src\reports\org\apache\jmeter\report\gui\tree\ReportTreeNode.java,114,0,0,114
org.apache.jmeter.report.writers.AbstractReportWriter, 0, 0, 0, 0, 0, 0, 0, 0, 0, 0, 0, 0, 0, 0,0.0,0.0,0.0,0.0,0.0,0.0,0.0,0.0,0.0,0.0,0.0,0.0,0.0,39,src\reports\org\apache\jmeter\report\writers\AbstractReportWriter.java,44,0,0,44
org.apache.jmeter.report.writers.DefaultPageSummary, 0, 0, 0, 0, 0, 0, 0, 0, 0, 0, 0, 0, 0, 0,0.0,0.0,0.0,0.0,0.0,0.0,0.0,0.0,0.0,0.0,0.0,0.0,0.0,54,src\reports\org\apache\jmeter\report\writers\DefaultPageSummary.java,55,0,0,55
org.apache.jmeter.report.writers.DefaultReportSummary, 0, 0, 0, 0, 0, 0, 0, 0, 0, 0, 0, 0, 0, 0,0.0,0.0,0.0,0.0,0.0,0.0,0.0,0.0,0.0,0.0,0.0,0.0,0.0,28,src\reports\org\apache\jmeter\report\writers\DefaultReportSummary.java,31,0,0,31
org.apache.jmeter.report.writers.HTMLReportWriter, 0, 0, 0, 0, 0, 0, 0, 0, 0, 0, 0, 0, 0, 0,0.0,0.0,0.0,0.0,0.0,0.0,0.0,0.0,0.0,0.0,0.0,0.0,0.0,10,src\reports\org\apache\jmeter\report\writers\HTMLReportWriter.java,12,0,0,12
org.apache.jmeter.report.writers.PageSummary, 0, 0, 0, 0, 0, 0, 0, 0, 0, 0, 0, 0, 0, 0,0.0,0.0,0.0,0.0,0.0,0.0,0.0,0.0,0.0,0.0,0.0,0.0,0.0,10,src\reports\org\apache\jmeter\report\writers\PageSummary.java,14,0,0,14
org.apache.jmeter.report.writers.ReportSummary, 0, 0, 0, 0, 0, 0, 0, 0, 0, 0, 0, 0, 0, 0,0.0,0.0,0.0,0.0,0.0,0.0,0.0,0.0,0.0,0.0,0.0,0.0,0.0,10,src\reports\org\apache\jmeter\report\writers\ReportSummary.java,7,0,0,7
org.apache.jmeter.report.writers.ReportWriter, 0, 0, 0, 0, 0, 0, 0, 0, 0, 0, 0, 0, 0, 0,0.0,0.0,0.0,0.0,0.0,0.0,0.0,0.0,0.0,0.0,0.0,0.0,0.0,10,src\reports\org\apache\jmeter\report\writers\ReportWriter.java,7,0,0,7
org.apache.jmeter.reporters.AbstractListenerElement, 0, 0, 0, 0, 0, 0, 0, 0, 0, 0, 0, 0, 0, 0,0.0,0.0,0.0,0.0,0.0,0.0,0.0,0.0,0.0,0.0,0.0,0.0,0.0,21,src\core\org\apache\jmeter\reporters\AbstractListenerElement.java,0,0,0,0
org.apache.jmeter.reporters.MailerResultCollector, 0, 0, 0, 0, 0, 0, 0, 0, 0, 0, 0, 0, 0, 0,0.0,0.0,0.0,0.0,0.0,0.0,0.0,0.5,0.0,0.0,0.0,0.0,0.0,21,src\components\org\apache\jmeter\reporters\MailerResultCollector.java,0,0,0,0
org.apache.jmeter.reporters.ResultAction, 0, 0, 0, 0, 0, 0, 0, 0, 0, 0, 0, 0, 0, 0,0.0,0.0,0.0,0.0,0.0,0.0,0.0,0.5,0.0,0.0,0.0,0.0,0.0,32,src\core\org\apache\jmeter\reporters\ResultAction.java,0,0,0,0
org.apache.jmeter.reporters.ResultCollectorHelper, 0, 0, 0, 0, 0, 0, 0, 0, 0, 0, 0, 0, 0, 0,0.0,0.0,0.0,0.0,0.0,0.0,0.0,1.0,0.0,0.0,0.0,0.0,0.0,15,src\core\org\apache\jmeter\reporters\ResultCollectorHelper.java,0,0,0,0
org.apache.jmeter.reporters.gui.SummariserGui, 0, 0, 0, 0, 0, 0, 0, 0, 0, 0, 0, 0, 0, 0,0.0,0.0,0.0,0.0,0.0,0.0,0.0,0.5,0.0,0.0,0.0,0.0,0.0,30,src\core\org\apache\jmeter\reporters\gui\SummariserGui.java,0,0,0,0
org.apache.jmeter.sampler.DebugSamplerBeanInfo, 0, 0, 0, 0, 0, 0, 0, 0, 0, 0, 0, 0, 0, 0,0.0,0.0,0.0,1.0,0.0,0.0,0.0,0.0,0.0,0.0,0.0,0.0,0.0,21,src\components\org\apache\jmeter\sampler\DebugSamplerBeanInfo.java,0,0,0,0
org.apache.jmeter.sampler.TestAction, 0, 0, 0, 0, 0, 0, 0, 0, 0, 0, 0, 0, 0, 0,0.0,0.0,0.0,0.3333333333333333,0.0,0.0,0.0,0.3333333333333333,0.0,0.0,0.0,0.0,0.0,100,src\components\org\apache\jmeter\sampler\TestAction.java,0,0,2,4
org.apache.jmeter.samplers.AbstractSampleSender, 0, 0, 0, 0, 0, 0, 0, 0, 0, 0, 0, 0, 0, 0,0.0,0.0,0.0,0.0,0.0,0.0,0.0,0.0,0.0,0.0,0.0,0.0,0.0,12,src\core\org\apache\jmeter\samplers\AbstractSampleSender.java,0,0,0,0
org.apache.jmeter.samplers.AbstractSampler, 0, 0, 0, 0, 0, 0, 0, 0, 0, 0, 0, 0, 0, 0,0.0,0.0,0.0,0.1,0.0,0.0,0.0,0.0,0.0,0.0,0.0,0.0,0.0,7,src\core\org\apache\jmeter\samplers\AbstractSampler.java,0,0,0,0
org.apache.jmeter.samplers.AsynchSampleSender, 0, 0, 0, 0, 0, 0, 0, 0, 0, 0, 0, 0, 0, 0,0.0,0.0,0.0,0.0,0.0,0.0,0.0,0.3333333333333333,0.0,0.0,0.0,0.0,0.0,96,src\core\org\apache\jmeter\samplers\AsynchSampleSender.java,0,0,0,0
org.apache.jmeter.samplers.BatchSampleSender, 0, 0, 0, 0, 0, 0, 0, 0, 0, 0, 0, 0, 0, 0,0.0,0.0,0.0,0.0,0.0,0.0,0.0,0.3333333333333333,0.0,0.0,0.0,0.0,0.0,108,src\core\org\apache\jmeter\samplers\BatchSampleSender.java,0,0,0,0
org.apache.jmeter.samplers.Clearable, 0, 0, 0, 0, 0, 0, 0, 0, 0, 0, 0, 0, 0, 0,0.0,0.0,0.0,0.0,0.0,0.0,0.0,0.0,0.0,0.0,0.0,0.0,0.0,108,src\core\org\apache\jmeter\samplers\Clearable.java,0,0,0,0
org.apache.jmeter.samplers.DataStrippingSampleSender, 0, 0, 0, 0, 0, 0, 0, 0, 0, 0, 0, 0, 0, 0,0.0,0.0,0.0,0.0,0.0,0.0,0.0,0.3333333333333333,0.0,0.0,0.0,0.0,0.0,52,src\core\org\apache\jmeter\samplers\DataStrippingSampleSender.java,0,6,2,10
org.apache.jmeter.samplers.DiskStoreSampleSender, 0, 0, 0, 0, 0, 0, 0, 0, 0, 0, 0, 0, 0, 0,0.0,0.0,0.0,0.0,0.0,0.0,0.0,0.25,0.0,0.0,0.0,0.0,0.0,108,src\core\org\apache\jmeter\samplers\DiskStoreSampleSender.java,0,0,0,0
org.apache.jmeter.samplers.HoldSampleSender, 0, 0, 0, 0, 0, 0, 0, 0, 0, 0, 0, 0, 0, 0,0.0,0.0,0.0,0.0,0.0,0.0,0.0,0.3333333333333333,0.0,0.0,0.0,0.0,0.0,44,src\core\org\apache\jmeter\samplers\HoldSampleSender.java,0,0,0,0
org.apache.jmeter.samplers.Interruptible, 0, 0, 0, 0, 0, 0, 0, 0, 0, 0, 0, 0, 0, 0,0.0,0.0,0.0,0.0,0.0,0.0,0.0,0.0,0.0,0.0,0.0,0.0,0.0,44,src\core\org\apache\jmeter\samplers\Interruptible.java,0,0,0,0
org.apache.jmeter.samplers.NullSampler, 0, 0, 0, 0, 0, 0, 0, 0, 0, 0, 0, 0, 0, 0,0.0,0.0,0.0,0.0,0.0,0.0,0.0,0.0,0.0,0.0,0.0,0.0,0.0,7,test\src\org\apache\jmeter\samplers\NullSampler.java,0,0,0,0
org.apache.jmeter.samplers.RemoteListenerWrapper, 0, 0, 0, 0, 0, 0, 0, 0, 0, 0, 0, 0, 0, 0,0.0,0.0,0.0,0.0,0.0,0.0,0.0,0.3333333333333333,0.0,0.0,0.0,0.0,0.0,76,src\core\org\apache\jmeter\samplers\RemoteListenerWrapper.java,0,0,0,0
org.apache.jmeter.samplers.RemoteSampleListener, 0, 0, 0, 0, 0, 0, 0, 0, 0, 0, 0, 0, 0, 0,0.0,0.0,0.0,0.0,0.0,0.0,0.0,0.0,0.0,0.0,0.0,0.0,0.0,76,src\core\org\apache\jmeter\samplers\RemoteSampleListener.java,0,0,0,0
org.apache.jmeter.samplers.RemoteSampleListenerImpl, 0, 0, 0, 0, 0, 0, 0, 0, 0, 0, 0, 0, 0, 0,0.0,0.0,0.0,0.0,0.0,0.0,0.0,0.5,0.0,0.0,0.0,0.0,0.0,71,src\core\org\apache\jmeter\samplers\RemoteSampleListenerImpl.java,0,0,0,0
org.apache.jmeter.samplers.RemoteSampleListenerWrapper, 0, 0, 0, 0, 0, 0, 0, 0, 0, 0, 0, 0, 0, 0,0.0,0.0,0.0,0.0,0.0,0.0,0.0,0.5,0.0,0.0,0.0,0.0,0.0,35,src\core\org\apache\jmeter\samplers\RemoteSampleListenerWrapper.java,0,0,0,0
org.apache.jmeter.samplers.RemoteTestListenerWrapper, 0, 0, 0, 0, 0, 0, 0, 0, 0, 0, 0, 0, 0, 0,0.0,0.0,0.0,0.0,0.0,0.0,0.0,0.0,0.0,0.0,0.0,0.0,0.0,44,src\core\org\apache\jmeter\samplers\RemoteTestListenerWrapper.java,0,0,0,0
org.apache.jmeter.samplers.Remoteable, 0, 0, 0, 0, 0, 0, 0, 0, 0, 0, 0, 0, 0, 0,0.0,0.0,0.0,0.0,0.0,0.0,0.0,0.0,0.0,0.0,0.0,0.0,0.0,44,src\core\org\apache\jmeter\samplers\Remoteable.java,0,0,0,0
org.apache.jmeter.samplers.SampleEvent, 0, 0, 0, 0, 0, 0, 0, 1, 0, 0, 0, 0, 0, 1,0.0,0.0,0.0,0.2,0.0,0.0,0.0,0.2,0.0,0.0,0.0,0.0,0.0,74,src\core\org\apache\jmeter\samplers\SampleEvent.java,0,0,0,0
org.apache.jmeter.samplers.SampleListener, 0, 0, 0, 0, 0, 0, 0, 0, 0, 0, 0, 0, 0, 0,0.0,0.0,0.0,0.0,0.0,0.0,0.0,0.0,0.0,0.0,0.0,0.0,0.0,74,src\core\org\apache\jmeter\samplers\SampleListener.java,0,0,0,0
org.apache.jmeter.samplers.SampleSender, 0, 0, 0, 0, 0, 0, 0, 0, 0, 0, 0, 0, 0, 0,0.0,0.0,0.0,0.0,0.0,0.0,0.0,0.0,0.0,0.0,0.0,0.0,0.0,74,src\core\org\apache\jmeter\samplers\SampleSender.java,0,0,0,0
org.apache.jmeter.samplers.SampleSenderFactory, 0, 0, 0, 0, 0, 0, 0, 0, 0, 0, 0, 0, 0, 0,0.0,0.0,0.0,0.0,0.0,0.0,0.0,0.0,0.0,0.0,0.0,0.0,0.0,57,src\core\org\apache\jmeter\samplers\SampleSenderFactory.java,0,0,0,0
org.apache.jmeter.samplers.Sampler, 0, 0, 0, 0, 0, 0, 0, 0, 0, 0, 0, 0, 0, 0,0.0,0.0,0.0,0.0,0.0,0.0,0.0,0.0,0.0,0.0,0.0,0.0,0.0,57,src\core\org\apache\jmeter\samplers\Sampler.java,0,0,0,0
org.apache.jmeter.samplers.StandardSampleSender, 0, 0, 0, 0, 0, 0, 0, 0, 0, 0, 0, 0, 0, 0,0.0,0.0,0.0,0.0,0.0,0.0,0.0,0.25,0.0,0.0,0.0,0.0,0.0,38,src\core\org\apache\jmeter\samplers\StandardSampleSender.java,0,0,0,0
org.apache.jmeter.samplers.TestSampleResult, 0, 0, 0, 0, 0, 0, 0, 1, 0, 0, 0, 0, 0, 1,0.0,0.0,0.0,1.0,0.0,0.0,0.0,0.0,0.0,0.0,0.0,0.0,0.0,214,test\src\org\apache\jmeter\samplers\TestSampleResult.java,0,0,0,0
org.apache.jmeter.samplers.TestSampleSaveConfiguration, 0, 0, 0, 0, 0, 0, 0, 0, 0, 0, 0, 0, 0, 0,0.0,0.0,0.0,0.0,0.0,0.0,0.0,1.0,0.0,0.0,0.0,0.0,0.0,97,test\src\org\apache\jmeter\samplers\TestSampleSaveConfiguration.java,0,0,0,0
org.apache.jmeter.samplers.gui.AbstractSamplerGui, 0, 0, 0, 0, 0, 0, 0, 0, 0, 0, 0, 0, 0, 0,0.0,0.0,0.0,0.0,0.0,0.0,0.0,0.3333333333333333,0.0,0.0,0.0,0.0,0.0,11,src\core\org\apache\jmeter\samplers\gui\AbstractSamplerGui.java,0,0,0,0
org.apache.jmeter.save.ListenerResultWrapper, 0, 0, 0, 0, 0, 0, 0, 0, 0, 0, 0, 0, 0, 0,0.0,0.0,0.0,0.0,0.0,0.0,0.0,0.0,0.0,0.0,0.0,0.0,0.0,23,src\core\org\apache\jmeter\save\ListenerResultWrapper.java,0,0,0,0
org.apache.jmeter.save.SaveGraphicsService, 0, 0, 0, 0, 0, 0, 0, 1, 0, 0, 0, 0, 0, 1,0.0,0.0,0.0,0.0,0.0,0.0,0.0,0.0,0.0,0.0,0.0,0.0,0.0,68,src\core\org\apache\jmeter\save\SaveGraphicsService.java,0,0,0,0
org.apache.jmeter.save.ScriptWrapper, 0, 0, 0, 0, 0, 0, 0, 0, 0, 0, 0, 0, 0, 0,0.0,0.0,0.0,0.0,0.0,0.0,0.0,0.0,0.0,0.0,0.0,0.0,0.0,4,src\core\org\apache\jmeter\save\ScriptWrapper.java,0,0,0,0
org.apache.jmeter.save.ScriptWrapperConverter, 0, 0, 0, 0, 0, 0, 0, 1, 0, 0, 0, 0, 0, 1,0.0,0.0,0.0,0.0,0.0,0.0,0.0,0.0,0.0,0.0,0.0,0.0,0.0,67,src\core\org\apache\jmeter\save\ScriptWrapperConverter.java,0,0,1,2
org.apache.jmeter.save.TestCSVSaveService, 0, 0, 0, 0, 0, 0, 0, 1, 0, 0, 0, 0, 0, 1,0.0,0.0,0.0,0.0,0.0,0.0,0.0,1.0,0.0,0.0,0.0,0.0,0.0,93,test\src\org\apache\jmeter\save\TestCSVSaveService.java,0,0,0,0
org.apache.jmeter.save.TestResultWrapper, 0, 0, 0, 0, 0, 0, 0, 0, 0, 0, 0, 0, 0, 0,0.0,0.0,0.0,0.0,0.0,0.0,0.0,1.0,0.0,0.0,0.0,0.0,0.0,23,src\core\org\apache\jmeter\save\TestResultWrapper.java,0,0,0,0
org.apache.jmeter.save.TestSaveService, 0, 0, 0, 0, 0, 0, 0, 1, 0, 0, 0, 0, 0, 1,0.0,0.0,0.0,0.0,0.0,0.0,0.0,1.0,0.0,0.0,0.0,0.0,0.0,142,test\src\org\apache\jmeter\save\TestSaveService.java,14,0,5,24
org.apache.jmeter.save.converters.BooleanPropertyConverter, 0, 0, 0, 0, 0, 0, 0, 1, 0, 0, 0, 0, 0, 1,0.0,0.0,0.0,0.0,0.0,0.0,0.0,0.0,0.0,0.0,0.0,0.0,0.0,24,src\core\org\apache\jmeter\save\converters\BooleanPropertyConverter.java,0,0,2,4
org.apache.jmeter.save.converters.HashTreeConverter, 0, 0, 0, 0, 0, 0, 0, 1, 0, 0, 0, 0, 0, 1,0.0,0.0,0.0,0.0,0.0,0.0,0.0,0.0,0.0,0.0,0.0,0.0,0.0,40,src\core\org\apache\jmeter\save\converters\HashTreeConverter.java,0,0,1,2
org.apache.jmeter.save.converters.IntegerPropertyConverter, 0, 0, 0, 0, 0, 0, 0, 1, 0, 0, 0, 0, 0, 1,0.0,0.0,0.0,0.0,0.0,0.0,0.0,0.0,0.0,0.0,0.0,0.0,0.0,24,src\core\org\apache\jmeter\save\converters\IntegerPropertyConverter.java,0,0,2,4
org.apache.jmeter.save.converters.LongPropertyConverter, 0, 0, 0, 0, 0, 0, 0, 1, 0, 0, 0, 0, 0, 1,0.0,0.0,0.0,0.0,0.0,0.0,0.0,0.0,0.0,0.0,0.0,0.0,0.0,24,src\core\org\apache\jmeter\save\converters\LongPropertyConverter.java,0,0,2,4
org.apache.jmeter.save.converters.MultiPropertyConverter, 0, 0, 0, 0, 0, 0, 0, 1, 0, 0, 0, 0, 0, 1,0.0,0.0,0.0,0.0,0.0,0.0,0.0,0.0,0.0,0.0,0.0,0.0,0.0,35,src\core\org\apache\jmeter\save\converters\MultiPropertyConverter.java,0,0,2,4
org.apache.jmeter.save.converters.SampleEventConverter, 0, 0, 0, 0, 0, 0, 0, 1, 0, 0, 0, 0, 0, 1,0.0,0.0,0.0,0.0,0.0,0.0,0.0,1.0,0.0,0.0,0.0,0.0,0.0,22,src\core\org\apache\jmeter\save\converters\SampleEventConverter.java,0,0,1,2
org.apache.jmeter.save.converters.SampleResultConverter, 0, 0, 0, 1, 0, 0, 0, 1, 0, 0, 0, 0, 0, 2,0.0,0.0,0.0,0.0,0.0,0.0,0.0,1.0,0.0,0.0,0.0,0.0,0.0,275,src\core\org\apache\jmeter\save\converters\SampleResultConverter.java,0,5,1,7
org.apache.jmeter.save.converters.SampleSaveConfigurationConverter, 0, 0, 0, 0, 0, 0, 0, 1, 0, 0, 0, 0, 0, 1,0.0,0.0,0.0,0.0,0.0,0.0,0.0,0.0,0.0,0.0,0.0,0.0,0.0,97,src\core\org\apache\jmeter\save\converters\SampleSaveConfigurationConverter.java,0,3,2,7
org.apache.jmeter.save.converters.StringPropertyConverter, 0, 0, 0, 0, 0, 0, 0, 1, 0, 0, 0, 0, 0, 1,0.0,0.0,0.0,0.0,0.0,0.0,0.0,0.0,0.0,0.0,0.0,0.0,0.0,25,src\core\org\apache\jmeter\save\converters\StringPropertyConverter.java,0,0,1,2
org.apache.jmeter.save.converters.TestElementConverter, 0, 0, 0, 0, 0, 0, 0, 1, 0, 0, 0, 0, 0, 1,0.0,0.0,0.0,0.0,0.0,0.0,0.0,0.0,0.0,0.0,0.0,0.0,0.0,72,src\core\org\apache\jmeter\save\converters\TestElementConverter.java,0,0,1,2
org.apache.jmeter.save.converters.TestElementPropertyConverter, 0, 0, 0, 0, 0, 0, 0, 1, 0, 0, 0, 0, 0, 1,0.0,0.0,0.0,0.0,0.0,0.0,0.0,0.0,0.0,0.0,0.0,0.0,0.0,72,src\core\org\apache\jmeter\save\converters\TestElementPropertyConverter.java,0,0,2,4
org.apache.jmeter.save.converters.TestResultWrapperConverter, 0, 0, 0, 0, 0, 0, 0, 1, 0, 0, 0, 0, 0, 1,0.0,0.0,0.0,0.0,0.0,0.0,0.0,0.0,0.0,0.0,0.0,0.0,0.0,39,src\core\org\apache\jmeter\save\converters\TestResultWrapperConverter.java,0,0,2,4
org.apache.jmeter.services.TestFileServer, 0, 0, 0, 0, 0, 0, 0, 0, 0, 0, 0, 0, 0, 0,0.0,0.0,0.0,0.0,0.0,0.0,0.0,1.0,0.0,0.0,0.0,0.0,0.0,83,test\src\org\apache\jmeter\services\TestFileServer.java,0,34,0,34
org.apache.jmeter.swing.HtmlPane, 0, 0, 0, 0, 0, 0, 0, 0, 0, 0, 0, 0, 0, 0,0.0,0.0,0.0,0.0,0.0,0.0,0.0,0.0,0.0,0.0,0.0,0.0,0.0,22,src\core\org\apache\jmeter\swing\HtmlPane.java,0,0,0,0
org.apache.jmeter.testbeans.BeanInfoSupport, 0, 0, 0, 1, 0, 0, 0, 0, 0, 0, 0, 0, 0, 1,0.0,0.0,0.0,0.0,0.0,0.1875,0.0,0.0625,0.0,0.0,0.0,0.0,0.0,127,src\core\org\apache\jmeter\testbeans\BeanInfoSupport.java,0,0,0,0
org.apache.jmeter.testbeans.TestBean, 0, 0, 0, 0, 0, 0, 0, 0, 0, 0, 0, 0, 0, 0,0.0,0.0,0.0,0.0,0.0,0.0,0.0,0.0,0.0,0.0,0.0,0.0,0.0,127,src\core\org\apache\jmeter\testbeans\TestBean.java,0,0,0,0
org.apache.jmeter.testbeans.TestBeanBeanInfo, 0, 0, 0, 0, 0, 0, 0, 0, 0, 0, 0, 0, 0, 0,0.0,0.0,0.0,0.0,0.0,0.0,0.0,0.0,0.0,0.0,0.0,0.0,0.0,34,src\core\org\apache\jmeter\testbeans\TestBeanBeanInfo.java,0,0,0,0
org.apache.jmeter.testbeans.gui.BooleanPropertyEditor, 0, 0, 0, 0, 0, 0, 0, 0, 0, 0, 0, 0, 0, 0,0.0,0.0,0.0,0.0,0.0,0.0,0.0,0.0,0.0,0.0,0.0,0.0,0.0,31,src\core\org\apache\jmeter\testbeans\gui\BooleanPropertyEditor.java,0,0,0,0
org.apache.jmeter.testbeans.gui.IntegerPropertyEditor, 0, 0, 0, 0, 0, 0, 0, 0, 0, 0, 0, 0, 0, 0,0.0,0.0,0.0,0.0,0.0,0.0,0.0,0.0,0.0,0.0,0.0,0.0,0.0,16,src\core\org\apache\jmeter\testbeans\gui\IntegerPropertyEditor.java,0,0,0,0
org.apache.jmeter.testbeans.gui.LongPropertyEditor, 0, 0, 0, 0, 0, 0, 0, 0, 0, 0, 0, 0, 0, 0,0.0,0.0,0.0,0.0,0.0,0.0,0.0,0.0,0.0,0.0,0.0,0.0,0.0,16,src\core\org\apache\jmeter\testbeans\gui\LongPropertyEditor.java,0,0,0,0
org.apache.jmeter.testbeans.gui.PackageTest, 0, 0, 0, 0, 0, 0, 0, 1, 0, 0, 0, 0, 0, 1,0.0,0.0,0.0,0.0,0.0,0.0,0.0,1.0,0.0,0.0,0.0,0.0,0.0,128,test\src\org\apache\jmeter\testbeans\gui\PackageTest.java,0,0,0,0
org.apache.jmeter.testbeans.gui.SharedCustomizer, 0, 0, 0, 0, 0, 0, 0, 0, 0, 0, 0, 0, 0, 0,0.0,0.0,0.0,0.0,0.0,0.0,0.0,0.0,0.0,0.0,0.0,0.0,0.0,128,src\core\org\apache\jmeter\testbeans\gui\SharedCustomizer.java,0,0,0,0
org.apache.jmeter.testbeans.gui.TestBeanPropertyEditor, 0, 0, 0, 0, 0, 0, 0, 0, 0, 0, 0, 0, 0, 0,0.0,0.0,0.0,0.0,0.0,0.0,0.0,0.0,0.0,0.0,0.0,0.0,0.0,128,src\core\org\apache\jmeter\testbeans\gui\TestBeanPropertyEditor.java,0,0,0,0
org.apache.jmeter.testbeans.gui.TestBooleanPropertyEditor, 0, 0, 0, 0, 0, 0, 0, 0, 0, 0, 0, 0, 0, 0,0.0,0.0,0.0,0.0,0.0,0.0,0.0,0.0,0.0,0.0,0.0,0.0,0.0,42,test\src\org\apache\jmeter\testbeans\gui\TestBooleanPropertyEditor.java,0,0,0,0
org.apache.jmeter.testbeans.gui.TestComboStringEditor, 0, 0, 0, 0, 0, 0, 0, 0, 0, 0, 0, 0, 0, 0,0.0,0.0,0.0,0.0,0.0,0.0,0.0,0.0,0.0,0.0,0.0,0.0,0.0,31,test\src\org\apache\jmeter\testbeans\gui\TestComboStringEditor.java,0,0,0,0
org.apache.jmeter.testbeans.gui.TestFieldStringEditor, 0, 0, 0, 0, 0, 0, 0, 0, 0, 0, 0, 0, 0, 0,0.0,0.0,0.0,0.0,0.0,0.0,0.0,0.0,0.0,0.0,0.0,0.0,0.0,27,test\src\org\apache\jmeter\testbeans\gui\TestFieldStringEditor.java,0,0,0,0
org.apache.jmeter.testbeans.gui.TextAreaEditor, 0, 0, 0, 0, 0, 0, 0, 0, 0, 0, 0, 0, 0, 0,0.0,0.0,0.0,0.0,0.0,0.0,0.0,0.0,0.0,0.0,0.0,0.0,0.0,73,src\core\org\apache\jmeter\testbeans\gui\TextAreaEditor.java,0,0,0,0
org.apache.jmeter.testelement.AbstractChart, 0, 0, 0, 1, 0, 0, 0, 0, 0, 0, 0, 0, 0, 1,0.0,0.0,0.0,0.0,0.0,0.0,0.0,0.0,0.0,0.0,0.0,0.0,0.0,117,src\reports\org\apache\jmeter\testelement\AbstractChart.java,125,0,0,125
org.apache.jmeter.testelement.AbstractScopedAssertion, 0, 0, 0, 0, 0, 0, 0, 0, 0, 0, 0, 0, 0, 0,0.0,0.0,0.0,0.3333333333333333,0.0,0.0,0.0,0.0,0.0,0.0,0.0,0.0,0.0,8,src\core\org\apache\jmeter\testelement\AbstractScopedAssertion.java,0,0,0,0
org.apache.jmeter.testelement.AbstractScopedTestElement, 0, 0, 0, 0, 0, 0, 0, 0, 0, 0, 0, 0, 0, 0,0.0,0.0,0.0,0.5,0.0,0.0,0.0,0.3333333333333333,0.0,0.0,0.0,0.0,0.0,59,src\core\org\apache\jmeter\testelement\AbstractScopedTestElement.java,0,0,0,0
org.apache.jmeter.testelement.AbstractTable, 0, 0, 0, 1, 0, 0, 0, 0, 0, 0, 0, 0, 0, 1,0.0,0.0,0.0,0.0,0.0,0.0,0.0,0.0,0.0,0.0,0.0,0.0,0.0,90,src\reports\org\apache\jmeter\testelement\AbstractTable.java,95,0,0,95
org.apache.jmeter.testelement.AbstractTestElementBeanInfo, 0, 0, 0, 0, 0, 0, 0, 0, 0, 0, 0, 0, 0, 0,0.0,0.0,0.0,0.0,0.0,1.0,0.0,0.0,0.0,0.0,0.0,0.0,0.0,34,src\core\org\apache\jmeter\testelement\AbstractTestElementBeanInfo.java,0,0,0,0
org.apache.jmeter.testelement.BarChart, 0, 0, 0, 0, 0, 0, 0, 0, 0, 0, 0, 0, 0, 0,0.0,0.0,0.0,0.6666666666666666,0.0,0.0,0.0,0.3333333333333333,0.0,0.0,0.0,0.0,0.0,59,src\reports\org\apache\jmeter\testelement\BarChart.java,69,0,0,69
org.apache.jmeter.testelement.BarChartTest, 0, 0, 0, 0, 0, 0, 0, 0, 0, 0, 0, 0, 0, 0,0.0,0.0,0.0,0.25,0.0,0.0,0.0,0.5,0.0,0.0,0.0,0.0,0.0,48,test\src\org\apache\jmeter\testelement\BarChartTest.java,58,0,0,58
org.apache.jmeter.testelement.LineChart, 0, 0, 0, 0, 0, 0, 0, 0, 0, 0, 0, 0, 0, 0,0.0,0.0,0.0,0.6666666666666666,0.0,0.0,0.0,0.3333333333333333,0.0,0.0,0.0,0.0,0.0,90,src\reports\org\apache\jmeter\testelement\LineChart.java,104,0,0,104
org.apache.jmeter.testelement.LineGraphTest, 0, 0, 0, 0, 0, 0, 0, 0, 0, 0, 0, 0, 0, 0,0.0,0.0,0.0,0.25,0.0,0.0,0.0,0.5,0.0,0.0,0.0,0.0,0.0,48,test\src\org\apache\jmeter\testelement\LineGraphTest.java,58,0,0,58
org.apache.jmeter.testelement.OnErrorTestElement, 0, 0, 0, 0, 0, 0, 0, 0, 0, 0, 0, 0, 0, 0,0.0,0.0,0.0,0.0,0.0,0.0,0.0,0.0,0.0,0.0,0.0,0.0,0.0,33,src\core\org\apache\jmeter\testelement\OnErrorTestElement.java,0,0,0,0
org.apache.jmeter.testelement.PackageTest, 0, 0, 0, 0, 0, 0, 0, 0, 0, 0, 0, 0, 0, 0,0.0,0.0,0.0,0.0,0.0,0.0,0.0,0.1111111111111111,0.0,0.0,0.0,0.0,0.0,64,test\src\org\apache\jmeter\testelement\PackageTest.java,0,0,0,0
org.apache.jmeter.testelement.ReportPage, 0, 0, 0, 0, 0, 0, 0, 0, 0, 0, 0, 0, 0, 0,0.0,0.0,0.0,0.0,0.0,0.0,0.0,0.0,0.0,0.0,0.0,0.0,0.0,51,src\reports\org\apache\jmeter\testelement\ReportPage.java,54,0,0,54
org.apache.jmeter.testelement.Table, 0, 0, 0, 0, 0, 0, 0, 0, 0, 0, 0, 0, 0, 0,0.0,0.0,0.0,1.0,0.0,0.0,0.0,0.0,0.0,0.0,0.0,0.0,0.0,11,src\reports\org\apache\jmeter\testelement\Table.java,13,0,0,13
org.apache.jmeter.testelement.TestCloneable, 0, 0, 0, 0, 0, 0, 0, 0, 0, 0, 0, 0, 0, 0,0.0,0.0,0.0,0.0,0.0,0.0,0.0,0.0,0.0,0.0,0.0,0.0,0.0,11,src\core\org\apache\jmeter\testelement\TestCloneable.java,0,0,0,0
org.apache.jmeter.testelement.TestElement, 0, 0, 0, 0, 0, 0, 0, 0, 0, 0, 0, 0, 0, 0,0.0,0.0,0.0,0.0,0.0,0.0,0.0,0.0,0.0,0.0,0.0,0.0,0.0,11,src\core\org\apache\jmeter\testelement\TestElement.java,0,1,0,1
org.apache.jmeter.testelement.TestElementTraverser, 0, 0, 0, 0, 0, 0, 0, 0, 0, 0, 0, 0, 0, 0,0.0,0.0,0.0,0.0,0.0,0.0,0.0,0.0,0.0,0.0,0.0,0.0,0.0,11,src\core\org\apache\jmeter\testelement\TestElementTraverser.java,0,0,0,0
org.apache.jmeter.testelement.TestIterationListener, 0, 0, 0, 0, 0, 0, 0, 0, 0, 0, 0, 0, 0, 0,0.0,0.0,0.0,0.0,0.0,0.0,0.0,0.0,0.0,0.0,0.0,0.0,0.0,11,src\core\org\apache\jmeter\testelement\TestIterationListener.java,0,0,0,0
org.apache.jmeter.testelement.TestListener, 0, 0, 0, 0, 0, 0, 0, 0, 0, 0, 0, 0, 0, 0,0.0,0.0,0.0,0.0,0.0,0.0,0.0,0.0,0.0,0.0,0.0,0.0,0.0,11,src\core\org\apache\jmeter\testelement\TestListener.java,0,0,0,0
org.apache.jmeter.testelement.TestStateListener, 0, 0, 0, 0, 0, 0, 0, 0, 0, 0, 0, 0, 0, 0,0.0,0.0,0.0,0.0,0.0,0.0,0.0,0.0,0.0,0.0,0.0,0.0,0.0,11,src\core\org\apache\jmeter\testelement\TestStateListener.java,0,0,0,0
org.apache.jmeter.testelement.ThreadListener, 0, 0, 0, 0, 0, 0, 0, 0, 0, 0, 0, 0, 0, 0,0.0,0.0,0.0,0.0,0.0,0.0,0.0,0.0,0.0,0.0,0.0,0.0,0.0,11,src\core\org\apache\jmeter\testelement\ThreadListener.java,0,0,0,0
org.apache.jmeter.testelement.WorkBench, 0, 0, 0, 0, 0, 0, 0, 0, 0, 0, 0, 0, 0, 0,0.0,0.0,0.0,0.0,0.0,0.0,0.0,1.0,0.0,0.0,0.0,0.0,0.0,16,src\core\org\apache\jmeter\testelement\WorkBench.java,3,0,0,3
org.apache.jmeter.testelement.property.BooleanProperty, 0, 0, 0, 0, 0, 0, 0, 0, 0, 0, 0, 0, 0, 0,0.0,0.0,0.0,0.5454545454545454,0.0,0.0,0.0,0.18181818181818182,0.0,0.0,0.0,0.0,0.0,47,src\core\org\apache\jmeter\testelement\property\BooleanProperty.java,0,0,0,0
org.apache.jmeter.testelement.property.CollectionProperty, 0, 0, 0, 0, 0, 0, 0, 0, 0, 0, 0, 0, 0, 0,0.0,0.0,0.0,0.1,0.0,0.0,0.0,0.2,0.0,0.0,0.0,0.0,0.0,133,src\core\org\apache\jmeter\testelement\property\CollectionProperty.java,0,0,0,0
org.apache.jmeter.testelement.property.DoubleProperty, 0, 0, 0, 0, 0, 0, 0, 0, 0, 0, 0, 0, 0, 0,0.0,0.0,0.0,0.0,0.0,0.0,0.0,0.0,0.0,0.0,0.0,0.0,0.0,65,src\core\org\apache\jmeter\testelement\property\DoubleProperty.java,0,0,0,0
org.apache.jmeter.testelement.property.FloatProperty, 0, 0, 0, 0, 0, 0, 0, 0, 0, 0, 0, 0, 0, 0,0.0,0.0,0.0,0.3333333333333333,0.0,0.0,0.0,0.0,0.0,0.0,0.0,0.0,0.0,65,src\core\org\apache\jmeter\testelement\property\FloatProperty.java,0,0,0,0
org.apache.jmeter.testelement.property.FunctionProperty, 0, 0, 0, 0, 0, 0, 0, 0, 0, 0, 0, 0, 0, 0,0.0,0.0,0.0,0.0,0.0,0.0,0.0,0.0,0.0,0.0,0.0,0.0,0.0,75,src\core\org\apache\jmeter\testelement\property\FunctionProperty.java,0,0,0,0
org.apache.jmeter.testelement.property.IntegerProperty, 0, 0, 0, 0, 0, 0, 0, 0, 0, 0, 0, 0, 0, 0,0.0,0.0,0.0,0.3,0.0,0.0,0.0,0.1,0.0,0.0,0.0,0.0,0.0,69,src\core\org\apache\jmeter\testelement\property\IntegerProperty.java,0,0,0,0
org.apache.jmeter.testelement.property.JMeterProperty, 0, 0, 0, 0, 0, 0, 0, 0, 0, 0, 0, 0, 0, 0,0.0,0.0,0.0,0.0,0.0,0.0,0.0,0.0,0.0,0.0,0.0,0.0,0.0,69,src\core\org\apache\jmeter\testelement\property\JMeterProperty.java,0,0,0,0
org.apache.jmeter.testelement.property.LongProperty, 0, 0, 0, 0, 0, 0, 0, 0, 0, 0, 0, 0, 0, 0,0.0,0.0,0.0,0.3333333333333333,0.0,0.0,0.0,0.16666666666666666,0.0,0.0,0.0,0.0,0.0,66,src\core\org\apache\jmeter\testelement\property\LongProperty.java,0,0,0,0
org.apache.jmeter.testelement.property.MultiProperty, 0, 0, 0, 0, 0, 0, 0, 0, 0, 0, 0, 0, 0, 0,0.0,0.0,0.0,0.0,0.0,0.0,0.0,0.3333333333333333,0.0,0.0,0.0,0.0,0.0,47,src\core\org\apache\jmeter\testelement\property\MultiProperty.java,0,0,0,0
org.apache.jmeter.testelement.property.NullProperty, 0, 0, 0, 0, 0, 0, 0, 0, 0, 0, 0, 0, 0, 0,0.0,0.0,0.0,0.0,0.0,0.0,0.0,0.0,0.0,0.0,0.0,0.0,0.0,63,src\core\org\apache\jmeter\testelement\property\NullProperty.java,3,0,0,3
org.apache.jmeter.testelement.property.NumberProperty, 0, 0, 0, 0, 0, 0, 0, 0, 0, 0, 0, 0, 0, 0,0.0,0.0,0.0,0.0,0.0,0.0,0.0,0.0,0.0,0.0,0.0,0.0,0.0,33,src\core\org\apache\jmeter\testelement\property\NumberProperty.java,0,0,0,0
org.apache.jmeter.testelement.property.ObjectProperty, 0, 0, 0, 0, 0, 0, 0, 0, 0, 0, 0, 0, 0, 0,0.0,0.0,0.0,0.0,0.0,0.0,0.0,0.0,0.0,0.0,0.0,0.0,0.0,48,src\core\org\apache\jmeter\testelement\property\ObjectProperty.java,0,0,0,0
org.apache.jmeter.testelement.property.PackageTest, 0, 0, 0, 0, 0, 0, 0, 0, 0, 0, 0, 0, 0, 0,0.0,0.0,0.0,0.0,0.0,0.0,0.0,0.0,0.0,0.0,0.0,0.0,0.0,270,test\src\org\apache\jmeter\testelement\property\PackageTest.java,0,0,0,0
org.apache.jmeter.testelement.property.PropertyIterator, 0, 0, 0, 0, 0, 0, 0, 0, 0, 0, 0, 0, 0, 0,0.0,0.0,0.0,0.0,0.0,0.0,0.0,0.0,0.0,0.0,0.0,0.0,0.0,270,src\core\org\apache\jmeter\testelement\property\PropertyIterator.java,0,0,0,0
org.apache.jmeter.testelement.property.PropertyIteratorImpl, 0, 0, 0, 0, 0, 0, 0, 0, 0, 0, 0, 0, 0, 0,0.0,0.0,0.0,0.0,0.0,0.0,0.0,0.0,0.0,0.0,0.0,0.0,0.0,18,src\core\org\apache\jmeter\testelement\property\PropertyIteratorImpl.java,0,0,0,0
org.apache.jmeter.testelement.property.StringProperty, 0, 0, 0, 0, 0, 0, 0, 0, 0, 0, 0, 0, 0, 0,0.0,0.0,0.0,0.13636363636363635,0.0,0.0,0.0,0.2727272727272727,0.0,0.0,0.0,0.0,0.0,48,src\core\org\apache\jmeter\testelement\property\StringProperty.java,0,0,0,0
org.apache.jmeter.testelement.property.TestElementProperty, 0, 0, 0, 0, 0, 0, 0, 0, 0, 0, 0, 0, 0, 0,0.0,0.0,0.0,0.2,0.0,0.0,0.0,0.2,0.0,0.0,0.0,0.0,0.0,89,src\core\org\apache\jmeter\testelement\property\TestElementProperty.java,0,0,0,0
org.apache.jmeter.threads.FindTestElementsUpToRootTraverser, 0, 0, 0, 0, 0, 0, 0, 0, 0, 0, 0, 0, 0, 0,0.0,0.0,0.0,1.0,0.0,0.0,0.0,1.0,0.0,0.0,0.0,0.0,0.0,44,src\core\org\apache\jmeter\threads\FindTestElementsUpToRootTraverser.java,0,0,0,0
org.apache.jmeter.threads.JMeterContextService, 0, 0, 0, 0, 0, 0, 0, 0, 0, 0, 0, 0, 0, 0,0.0,0.0,0.0,0.30952380952380953,0.0,0.0,0.0,0.19047619047619047,0.0,0.0,0.0,0.0,0.0,73,src\core\org\apache\jmeter\threads\JMeterContextService.java,0,0,0,0
org.apache.jmeter.threads.JMeterThread, 0, 0, 0, 1, 0, 0, 0, 1, 0, 0, 0, 0, 0, 2,0.0,0.0,0.0,0.13333333333333333,0.0,0.0,0.0,0.2,0.0,0.0,0.0,0.0,0.0,591,src\core\org\apache\jmeter\threads\JMeterThread.java,0,8,0,8
org.apache.jmeter.threads.JMeterThreadMonitor, 0, 0, 0, 0, 0, 0, 0, 0, 0, 0, 0, 0, 0, 0,0.0,0.0,0.0,0.0,0.0,0.0,0.0,0.0,0.0,0.0,0.0,0.0,0.0,591,src\core\org\apache\jmeter\threads\JMeterThreadMonitor.java,0,0,0,0
org.apache.jmeter.threads.ListenerNotifier, 0, 0, 0, 0, 0, 0, 0, 0, 0, 0, 0, 0, 0, 0,0.0,0.0,0.0,0.75,0.0,0.0,0.0,0.75,0.0,0.0,0.0,0.0,0.0,15,src\core\org\apache\jmeter\threads\ListenerNotifier.java,0,0,0,0
org.apache.jmeter.threads.PostThreadGroup, 0, 0, 0, 0, 0, 0, 0, 0, 0, 0, 0, 0, 0, 0,0.0,0.0,0.0,0.0,0.0,0.0,0.0,0.0,0.0,0.0,0.0,0.0,0.0,3,src\core\org\apache\jmeter\threads\PostThreadGroup.java,0,0,0,0
org.apache.jmeter.threads.RemoteThreadsLifeCycleListener, 0, 0, 0, 0, 0, 0, 0, 0, 0, 0, 0, 0, 0, 0,0.0,0.0,0.0,0.0,0.0,0.0,0.0,0.0,0.0,0.0,0.0,0.0,0.0,3,src\core\org\apache\jmeter\threads\RemoteThreadsLifeCycleListener.java,0,0,0,0
org.apache.jmeter.threads.RemoteThreadsListener, 0, 0, 0, 0, 0, 0, 0, 0, 0, 0, 0, 0, 0, 0,0.0,0.0,0.0,0.0,0.0,0.0,0.0,0.0,0.0,0.0,0.0,0.0,0.0,3,src\core\org\apache\jmeter\threads\RemoteThreadsListener.java,0,0,0,0
org.apache.jmeter.threads.RemoteThreadsListenerImpl, 0, 0, 0, 0, 0, 0, 0, 0, 0, 0, 0, 0, 0, 0,0.0,0.0,0.0,0.0,0.0,0.0,0.0,0.0,0.0,0.0,0.0,0.0,0.0,57,src\core\org\apache\jmeter\threads\RemoteThreadsListenerImpl.java,0,0,0,0
org.apache.jmeter.threads.RemoteThreadsListenerTestElement, 0, 0, 0, 0, 0, 0, 0, 0, 0, 0, 0, 0, 0, 0,0.0,0.0,0.0,0.0,0.0,0.0,0.0,0.0,0.0,0.0,0.0,0.0,0.0,8,src\core\org\apache\jmeter\threads\RemoteThreadsListenerTestElement.java,0,0,0,0
org.apache.jmeter.threads.RemoteThreadsListenerWrapper, 0, 0, 0, 0, 0, 0, 0, 0, 0, 0, 0, 0, 0, 0,0.0,0.0,0.0,0.0,0.0,0.0,0.0,0.0,0.0,0.0,0.0,0.0,0.0,27,src\core\org\apache\jmeter\threads\RemoteThreadsListenerWrapper.java,0,0,0,0
org.apache.jmeter.threads.SamplePackage, 0, 0, 0, 0, 0, 0, 0, 1, 0, 0, 0, 0, 0, 1,0.0,0.0,0.0,0.6666666666666666,0.0,0.0,0.0,0.3333333333333333,0.0,0.0,0.0,0.0,0.0,99,src\core\org\apache\jmeter\threads\SamplePackage.java,0,0,0,0
org.apache.jmeter.threads.SetupThreadGroup, 0, 0, 0, 0, 0, 0, 0, 0, 0, 0, 0, 0, 0, 0,0.0,0.0,0.0,0.0,0.0,0.0,0.0,0.0,0.0,0.0,0.0,0.0,0.0,6,src\core\org\apache\jmeter\threads\SetupThreadGroup.java,0,0,0,0
org.apache.jmeter.threads.TestCompilerHelper, 0, 0, 0, 0, 0, 0, 0, 0, 0, 0, 0, 0, 0, 0,0.0,0.0,0.0,0.0,0.0,0.0,0.0,0.0,0.0,0.0,0.0,0.0,0.0,6,src\core\org\apache\jmeter\threads\TestCompilerHelper.java,0,0,0,0
org.apache.jmeter.threads.TestJMeterContextService, 0, 0, 0, 0, 0, 0, 0, 0, 0, 0, 0, 0, 0, 0,0.0,0.0,0.0,0.0,0.0,0.0,0.0,0.0,0.0,0.0,0.0,0.0,0.0,25,test\src\org\apache\jmeter\threads\TestJMeterContextService.java,0,0,0,0
org.apache.jmeter.threads.TestTestCompiler, 0, 0, 0, 0, 0, 0, 0, 0, 0, 0, 0, 0, 0, 0,0.0,0.0,0.0,0.0,0.0,0.0,0.0,0.3333333333333333,0.0,0.0,0.0,0.0,0.0,32,test\src\org\apache\jmeter\threads\TestTestCompiler.java,0,0,0,0
org.apache.jmeter.threads.gui.PostThreadGroupGui, 0, 0, 0, 0, 0, 0, 0, 0, 0, 0, 0, 0, 0, 0,0.0,0.0,0.0,0.0,0.0,0.0,0.0,0.0,0.0,0.0,0.0,0.0,0.0,16,src\core\org\apache\jmeter\threads\gui\PostThreadGroupGui.java,0,0,0,0
org.apache.jmeter.threads.gui.SetupThreadGroupGui, 0, 0, 0, 0, 0, 0, 0, 0, 0, 0, 0, 0, 0, 0,0.0,0.0,0.0,0.0,0.0,0.0,0.0,0.0,0.0,0.0,0.0,0.0,0.0,16,src\core\org\apache\jmeter\threads\gui\SetupThreadGroupGui.java,0,0,0,0
org.apache.jmeter.timers.BSFTimer, 0, 0, 0, 0, 0, 0, 0, 0, 0, 0, 0, 0, 0, 0,0.0,0.0,0.0,0.0,0.0,0.0,0.0,0.0,0.0,0.0,0.0,0.0,0.0,27,src\components\org\apache\jmeter\timers\BSFTimer.java,0,0,0,0
org.apache.jmeter.timers.BSFTimerBeanInfo, 0, 0, 0, 0, 0, 1, 0, 0, 0, 0, 0, 0, 0, 1,0.0,0.0,0.0,0.0,0.0,0.0,0.0,0.0,0.0,0.0,0.0,0.0,0.0,5,src\components\org\apache\jmeter\timers\BSFTimerBeanInfo.java,0,0,0,0
org.apache.jmeter.timers.BeanShellTimer, 0, 0, 0, 0, 0, 0, 0, 0, 0, 0, 0, 0, 0, 0,0.0,0.0,0.0,0.0,0.0,0.0,0.0,0.0,0.0,0.0,0.0,0.0,0.0,30,src\components\org\apache\jmeter\timers\BeanShellTimer.java,0,0,0,0
org.apache.jmeter.timers.BeanShellTimerBeanInfo, 0, 0, 0, 0, 0, 1, 0, 0, 0, 0, 0, 0, 0, 1,0.0,0.0,0.0,0.0,0.0,0.0,0.0,0.0,0.0,0.0,0.0,0.0,0.0,5,src\components\org\apache\jmeter\timers\BeanShellTimerBeanInfo.java,0,0,0,0
org.apache.jmeter.timers.ConstantThroughputTimerBeanInfo, 0, 0, 0, 0, 0, 1, 0, 0, 0, 0, 0, 0, 0, 1,0.0,0.0,0.0,1.0,0.0,0.0,0.0,0.0,0.0,0.0,0.0,0.0,0.0,14,src\components\org\apache\jmeter\timers\ConstantThroughputTimerBeanInfo.java,0,0,0,0
org.apache.jmeter.timers.ConstantTimer, 0, 0, 0, 0, 0, 0, 0, 0, 0, 0, 0, 0, 0, 0,0.0,0.0,0.0,0.0,0.0,0.0,0.0,0.0,0.0,0.0,0.0,0.0,0.0,30,src\components\org\apache\jmeter\timers\ConstantTimer.java,0,0,0,0
org.apache.jmeter.timers.GaussianRandomTimer, 0, 0, 0, 0, 0, 0, 0, 0, 0, 0, 0, 0, 0, 0,0.0,0.0,0.0,0.0,0.0,0.0,0.0,0.0,0.0,0.0,0.0,0.0,0.0,11,src\components\org\apache\jmeter\timers\GaussianRandomTimer.java,0,0,0,0
org.apache.jmeter.timers.JSR223Timer, 0, 0, 0, 0, 0, 0, 0, 0, 0, 0, 0, 0, 0, 0,0.0,0.0,0.0,0.0,0.0,0.0,0.0,0.0,0.0,0.0,0.0,0.0,0.0,24,src\components\org\apache\jmeter\timers\JSR223Timer.java,0,0,0,0
org.apache.jmeter.timers.JSR223TimerBeanInfo, 0, 0, 0, 0, 0, 1, 0, 0, 0, 0, 0, 0, 0, 1,0.0,0.0,0.0,0.0,0.0,0.0,0.0,0.0,0.0,0.0,0.0,0.0,0.0,5,src\components\org\apache\jmeter\timers\JSR223TimerBeanInfo.java,0,0,0,0
org.apache.jmeter.timers.PackageTest, 0, 0, 0, 0, 0, 0, 0, 0, 0, 0, 0, 0, 0, 0,0.0,0.0,0.0,0.0,0.0,0.0,0.0,0.4,0.0,0.0,0.0,0.0,0.0,60,test\src\org\apache\jmeter\timers\PackageTest.java,0,0,0,0
org.apache.jmeter.timers.PoissonRandomTimer, 0, 0, 0, 0, 0, 0, 0, 0, 0, 0, 0, 0, 0, 0,0.0,0.0,0.0,0.0,0.0,0.0,0.0,0.0,0.0,0.0,0.0,0.0,0.0,321,src\components\org\apache\jmeter\timers\PoissonRandomTimer.java,0,0,0,0
org.apache.jmeter.timers.RandomTimer, 0, 0, 0, 0, 0, 0, 0, 0, 0, 0, 0, 0, 0, 0,0.0,0.0,0.0,0.0,0.0,0.0,0.0,0.0,0.0,0.0,0.0,0.0,0.0,19,src\components\org\apache\jmeter\timers\RandomTimer.java,0,0,0,0
org.apache.jmeter.timers.SyncTimer, 0, 0, 0, 0, 0, 0, 0, 0, 0, 0, 0, 0, 0, 0,0.0,0.0,0.0,0.0,0.0,0.0,0.0,0.0,0.0,0.0,0.0,0.0,0.0,122,src\components\org\apache\jmeter\timers\SyncTimer.java,0,0,0,0
org.apache.jmeter.timers.SyncTimerBeanInfo, 0, 0, 0, 0, 0, 1, 0, 0, 0, 0, 0, 0, 0, 1,0.0,0.0,0.0,1.0,0.0,0.0,0.0,0.0,0.0,0.0,0.0,0.0,0.0,12,src\components\org\apache\jmeter\timers\SyncTimerBeanInfo.java,0,0,0,0
org.apache.jmeter.timers.Timer, 0, 0, 0, 0, 0, 0, 0, 0, 0, 0, 0, 0, 0, 0,0.0,0.0,0.0,0.0,0.0,0.0,0.0,0.0,0.0,0.0,0.0,0.0,0.0,12,src\core\org\apache\jmeter\timers\Timer.java,0,0,0,0
org.apache.jmeter.timers.UniformRandomTimer, 0, 0, 0, 0, 0, 0, 0, 0, 0, 0, 0, 0, 0, 0,0.0,0.0,0.0,0.0,0.0,0.0,0.0,0.0,0.0,0.0,0.0,0.0,0.0,11,src\components\org\apache\jmeter\timers\UniformRandomTimer.java,0,0,0,0
org.apache.jmeter.timers.gui.AbstractTimerGui, 0, 0, 0, 0, 0, 0, 0, 0, 0, 0, 0, 0, 0, 0,0.0,0.0,0.0,0.0,0.0,0.0,0.0,1.0,0.0,0.0,0.0,0.0,0.0,11,src\core\org\apache\jmeter\timers\gui\AbstractTimerGui.java,0,0,0,0
org.apache.jmeter.timers.gui.GaussianRandomTimerGui, 0, 0, 0, 0, 0, 0, 0, 0, 0, 0, 0, 0, 0, 0,0.0,0.0,0.0,0.0,0.0,0.0,0.0,0.0,0.0,0.0,0.0,0.0,0.0,32,src\components\org\apache\jmeter\timers\gui\GaussianRandomTimerGui.java,0,0,0,0
org.apache.jmeter.timers.gui.PoissonRandomTimerGui, 0, 0, 0, 0, 0, 0, 0, 0, 0, 0, 0, 0, 0, 0,0.0,0.0,0.0,0.0,0.0,0.0,0.0,0.0,0.0,0.0,0.0,0.0,0.0,32,src\components\org\apache\jmeter\timers\gui\PoissonRandomTimerGui.java,0,0,0,0
org.apache.jmeter.timers.gui.UniformRandomTimerGui, 0, 0, 0, 0, 0, 0, 0, 0, 0, 0, 0, 0, 0, 0,0.0,0.0,0.0,0.0,0.0,0.0,0.0,0.0,0.0,0.0,0.0,0.0,0.0,32,src\components\org\apache\jmeter\timers\gui\UniformRandomTimerGui.java,0,0,0,0
org.apache.jmeter.util.BSFJavaScriptEngine, 0, 0, 0, 0, 0, 0, 0, 1, 0, 0, 0, 0, 0, 1,0.0,0.0,0.0,0.0,0.0,0.0,0.0,0.0,0.0,0.0,0.0,0.0,0.0,134,src\core\org\apache\jmeter\util\BSFJavaScriptEngine.java,0,0,0,0
org.apache.jmeter.util.BeanShellBeanInfoSupport, 0, 0, 0, 0, 0, 0, 0, 0, 0, 0, 0, 0, 0, 0,0.0,0.0,0.0,0.2,0.0,0.8,0.0,0.0,0.0,0.0,0.0,0.0,0.0,25,src\core\org\apache\jmeter\util\BeanShellBeanInfoSupport.java,0,0,0,0
org.apache.jmeter.util.BeanShellClient, 0, 0, 0, 0, 0, 0, 0, 0, 0, 0, 0, 0, 0, 0,0.0,0.0,0.0,0.0,0.0,0.0,0.0,0.0,0.0,0.0,0.0,0.0,0.0,67,src\core\org\apache\jmeter\util\BeanShellClient.java,0,0,0,0
org.apache.jmeter.util.BeanShellInterpreter, 0, 0, 0, 0, 0, 0, 0, 1, 0, 0, 0, 0, 0, 1,0.0,0.0,0.0,0.1,0.0,0.0,0.0,0.1,0.0,0.0,0.0,0.0,0.0,142,src\core\org\apache\jmeter\util\BeanShellInterpreter.java,0,0,0,0
org.apache.jmeter.util.BeanShellServer, 0, 0, 0, 0, 0, 0, 0, 0, 0, 0, 0, 0, 0, 0,0.0,0.0,0.0,0.0,0.0,0.0,0.0,0.0,0.0,0.0,0.0,0.0,0.0,52,src\core\org\apache\jmeter\util\BeanShellServer.java,0,0,0,0
org.apache.jmeter.util.CPSPauser, 0, 0, 0, 0, 0, 0, 0, 0, 0, 0, 0, 0, 0, 0,0.0,0.0,0.0,0.0,0.0,0.0,0.0,1.0,0.0,0.0,0.0,0.0,0.0,20,src\core\org\apache\jmeter\util\CPSPauser.java,0,2,0,2
org.apache.jmeter.util.Calculator, 0, 0, 0, 1, 0, 0, 0, 0, 0, 0, 0, 0, 0, 1,0.0,0.0,0.0,0.0,0.0,0.0,0.0,1.0,0.0,0.0,0.0,0.0,0.0,116,src\core\org\apache\jmeter\util\Calculator.java,0,0,0,0
org.apache.jmeter.util.ColorHelper, 0, 0, 0, 0, 0, 0, 0, 0, 0, 0, 0, 0, 0, 0,0.0,0.0,0.0,0.0,0.0,0.0,0.0,0.0,0.0,0.0,0.0,0.0,0.0,22,src\core\org\apache\jmeter\util\ColorHelper.java,0,0,0,0
org.apache.jmeter.util.CustomX509TrustManager, 0, 0, 0, 0, 0, 0, 0, 0, 0, 0, 0, 0, 0, 0,0.0,0.0,0.0,0.0,0.0,0.0,0.0,0.0,0.0,0.0,0.0,0.0,0.0,44,src\core\org\apache\jmeter\util\CustomX509TrustManager.java,0,0,0,0
org.apache.jmeter.util.JMeterTreeNodeTransferable, 0, 0, 0, 0, 0, 0, 0, 0, 0, 0, 0, 0, 0, 0,0.0,0.0,0.0,0.0,0.0,0.0,0.0,0.0,0.0,0.0,0.0,0.0,0.0,53,src\core\org\apache\jmeter\util\JMeterTreeNodeTransferable.java,0,0,0,0
org.apache.jmeter.util.LocaleChangeEvent, 0, 0, 0, 0, 0, 0, 0, 0, 0, 0, 0, 0, 0, 0,0.0,0.0,0.0,0.0,0.0,0.0,0.0,0.0,0.0,0.0,0.0,0.0,0.0,14,src\core\org\apache\jmeter\util\LocaleChangeEvent.java,0,0,0,0
org.apache.jmeter.util.LocaleChangeListener, 0, 0, 0, 0, 0, 0, 0, 0, 0, 0, 0, 0, 0, 0,0.0,0.0,0.0,0.0,0.0,0.0,0.0,0.0,0.0,0.0,0.0,0.0,0.0,14,src\core\org\apache\jmeter\util\LocaleChangeListener.java,0,0,0,0
org.apache.jmeter.util.NamedObject, 0, 0, 0, 0, 0, 0, 0, 0, 0, 0, 0, 0, 0, 0,0.0,0.0,0.0,0.0,0.0,0.0,0.0,0.0,0.0,0.0,0.0,0.0,0.0,14,src\core\org\apache\jmeter\util\NamedObject.java,0,0,0,0
org.apache.jmeter.util.PackageTest, 0, 0, 0, 0, 0, 0, 0, 0, 0, 0, 0, 0, 0, 0,0.0,0.0,0.0,0.0,0.0,0.0,0.0,0.0,0.0,0.0,0.0,0.0,0.0,36,test\src\org\apache\jmeter\util\PackageTest.java,0,0,0,0
org.apache.jmeter.util.ScriptingBeanInfoSupport, 0, 0, 0, 0, 0, 0, 0, 1, 0, 0, 0, 0, 0, 1,0.0,0.0,0.0,1.0,0.0,0.0,0.0,0.0,0.0,0.0,0.0,0.0,0.0,42,src\core\org\apache\jmeter\util\ScriptingBeanInfoSupport.java,0,0,0,0
org.apache.jmeter.util.ScriptingTestElement, 0, 0, 0, 0, 0, 0, 0, 0, 0, 0, 0, 0, 0, 0,0.0,0.0,0.0,0.0,0.0,0.0,0.0,0.0,0.0,0.0,0.0,0.0,0.0,28,src\core\org\apache\jmeter\util\ScriptingTestElement.java,0,0,0,0
org.apache.jmeter.util.ShutdownClient, 0, 0, 0, 0, 0, 0, 0, 0, 0, 0, 0, 0, 0, 0,0.0,0.0,0.0,0.0,0.0,0.0,0.0,0.0,0.0,0.0,0.0,0.0,0.0,18,src\core\org\apache\jmeter\util\ShutdownClient.java,0,0,0,0
org.apache.jmeter.util.SlowInputStream, 0, 0, 0, 0, 0, 0, 0, 1, 0, 0, 0, 0, 0, 1,0.0,0.0,0.0,0.3333333333333333,0.0,0.0,0.0,0.3333333333333333,0.0,0.0,0.0,0.0,0.0,17,src\core\org\apache\jmeter\util\SlowInputStream.java,0,0,0,0
org.apache.jmeter.util.SlowOutputStream, 0, 0, 0, 0, 0, 0, 0, 1, 0, 0, 0, 0, 0, 1,0.0,0.0,0.0,0.3333333333333333,0.0,0.0,0.0,0.3333333333333333,0.0,0.0,0.0,0.0,0.0,17,src\core\org\apache\jmeter\util\SlowOutputStream.java,0,0,0,0
org.apache.jmeter.util.SlowSSLSocket, 0, 0, 0, 1, 0, 0, 0, 0, 0, 0, 0, 0, 0, 1,0.0,0.0,0.0,0.0,0.0,0.0,0.0,1.0,0.0,0.0,0.0,0.0,0.0,243,src\core\org\apache\jmeter\util\SlowSSLSocket.java,0,0,0,0
org.apache.jmeter.util.SlowSocket, 0, 0, 0, 0, 0, 0, 0, 1, 0, 0, 0, 0, 0, 1,0.0,0.0,0.0,0.0,0.0,0.0,0.0,0.75,0.0,0.0,0.0,0.0,0.0,40,src\core\org\apache\jmeter\util\SlowSocket.java,0,0,0,0
org.apache.jmeter.util.TestJMeterUtils, 0, 0, 0, 0, 0, 0, 0, 0, 0, 0, 0, 0, 0, 0,0.0,0.0,0.0,0.0,0.0,0.0,0.0,0.0,0.0,0.0,0.0,0.0,0.0,10,test\src\org\apache\jmeter\util\TestJMeterUtils.java,0,0,0,0
org.apache.jmeter.util.ThreadLocalRandom, 0, 0, 0, 0, 0, 0, 0, 0, 0, 0, 0, 0, 0, 0,0.0,0.0,0.0,0.0,0.0,0.0,0.0,0.0,0.0,0.0,0.0,0.0,0.0,68,src\core\org\apache\jmeter\util\ThreadLocalRandom.java,0,1,0,1
org.apache.jmeter.util.TidyException, 0, 0, 0, 0, 0, 0, 0, 0, 0, 0, 0, 0, 0, 0,0.0,0.0,0.0,0.0,0.0,0.0,0.0,0.0,0.0,0.0,0.0,0.0,0.0,9,src\core\org\apache\jmeter\util\TidyException.java,0,0,0,0
org.apache.jmeter.visualizers.AccumListener, 0, 0, 0, 0, 0, 0, 0, 0, 0, 0, 0, 0, 0, 0,0.0,0.0,0.0,0.0,0.0,0.0,0.0,0.0,0.0,0.0,0.0,0.0,0.0,9,src\components\org\apache\jmeter\visualizers\AccumListener.java,0,0,0,0
org.apache.jmeter.visualizers.AxisGraph, 0, 0, 0, 1, 0, 0, 0, 1, 0, 0, 0, 0, 0, 2,0.0,0.0,0.0,0.0,0.0,0.0,0.0,0.0,0.0,0.0,0.0,0.0,0.0,230,src\components\org\apache\jmeter\visualizers\AxisGraph.java,0,0,0,0
org.apache.jmeter.visualizers.BSFListener, 0, 0, 0, 0, 0, 0, 0, 0, 0, 0, 0, 0, 0, 0,0.0,0.0,0.0,0.0,0.0,0.0,0.0,1.0,0.0,0.0,0.0,0.0,0.0,39,src\components\org\apache\jmeter\visualizers\BSFListener.java,0,0,0,0
org.apache.jmeter.visualizers.BSFListenerBeanInfo, 0, 0, 0, 0, 0, 1, 0, 0, 0, 0, 0, 0, 0, 1,0.0,0.0,0.0,0.0,0.0,0.0,0.0,0.0,0.0,0.0,0.0,0.0,0.0,5,src\components\org\apache\jmeter\visualizers\BSFListenerBeanInfo.java,0,0,0,0
org.apache.jmeter.visualizers.BarGraph, 0, 0, 0, 0, 0, 0, 0, 1, 0, 0, 0, 0, 0, 1,0.0,0.0,0.0,0.0,0.0,0.0,0.0,0.0,0.0,0.0,0.0,0.0,0.0,29,src\components\org\apache\jmeter\visualizers\BarGraph.java,1,0,2,5
org.apache.jmeter.visualizers.BeanShellListener, 0, 0, 0, 0, 0, 0, 0, 0, 0, 0, 0, 0, 0, 0,0.0,0.0,0.0,0.0,0.0,0.0,0.0,0.6666666666666666,0.0,0.0,0.0,0.0,0.0,39,src\components\org\apache\jmeter\visualizers\BeanShellListener.java,0,0,0,0
org.apache.jmeter.visualizers.BeanShellListenerBeanInfo, 0, 0, 0, 0, 0, 1, 0, 0, 0, 0, 0, 0, 0, 1,0.0,0.0,0.0,0.0,0.0,0.0,0.0,0.0,0.0,0.0,0.0,0.0,0.0,5,src\components\org\apache\jmeter\visualizers\BeanShellListenerBeanInfo.java,0,0,0,0
org.apache.jmeter.visualizers.CachingStatCalculator, 0, 0, 0, 0, 0, 0, 0, 0, 0, 0, 0, 0, 0, 0,0.0,0.0,0.0,0.5,0.0,0.0,0.0,0.5,0.0,0.0,0.0,0.0,0.0,28,src\core\org\apache\jmeter\visualizers\CachingStatCalculator.java,0,0,0,0
org.apache.jmeter.visualizers.GraphListener, 0, 0, 0, 0, 0, 0, 0, 0, 0, 0, 0, 0, 0, 0,0.0,0.0,0.0,0.0,0.0,0.0,0.0,0.0,0.0,0.0,0.0,0.0,0.0,28,src\components\org\apache\jmeter\visualizers\GraphListener.java,0,0,0,0
org.apache.jmeter.visualizers.ImageVisualizer, 0, 0, 0, 0, 0, 0, 0, 0, 0, 0, 0, 0, 0, 0,0.0,0.0,0.0,0.0,0.0,0.0,0.0,0.0,0.0,0.0,0.0,0.0,0.0,28,src\core\org\apache\jmeter\visualizers\ImageVisualizer.java,0,0,0,0
org.apache.jmeter.visualizers.JSR223ListenerBeanInfo, 0, 0, 0, 0, 0, 1, 0, 0, 0, 0, 0, 0, 0, 1,0.0,0.0,0.0,0.0,0.0,0.0,0.0,0.0,0.0,0.0,0.0,0.0,0.0,5,src\components\org\apache\jmeter\visualizers\JSR223ListenerBeanInfo.java,0,0,0,0
org.apache.jmeter.visualizers.LineGraph, 0, 0, 0, 1, 0, 0, 0, 1, 0, 0, 0, 0, 0, 2,0.0,0.0,0.0,0.0,0.0,0.0,0.0,0.0,0.0,0.0,0.0,0.0,0.0,136,src\components\org\apache\jmeter\visualizers\LineGraph.java,0,0,0,0
org.apache.jmeter.visualizers.ModelListener, 0, 0, 0, 0, 0, 0, 0, 0, 0, 0, 0, 0, 0, 0,0.0,0.0,0.0,0.0,0.0,0.0,0.0,0.0,0.0,0.0,0.0,0.0,0.0,136,src\components\org\apache\jmeter\visualizers\ModelListener.java,5,0,0,5
org.apache.jmeter.visualizers.MonitorGraph, 0, 0, 0, 0, 0, 0, 0, 1, 0, 0, 0, 0, 0, 1,0.0,0.0,0.0,0.0,0.0,0.0,0.0,0.0,0.0,0.0,0.0,0.0,0.0,122,src\monitor\components\org\apache\jmeter\visualizers\MonitorGraph.java,0,0,0,0
org.apache.jmeter.visualizers.MonitorGuiListener, 0, 0, 0, 0, 0, 0, 0, 0, 0, 0, 0, 0, 0, 0,0.0,0.0,0.0,0.0,0.0,0.0,0.0,0.0,0.0,0.0,0.0,0.0,0.0,122,src\monitor\components\org\apache\jmeter\visualizers\MonitorGuiListener.java,0,0,0,0
org.apache.jmeter.visualizers.MonitorHealthVisualizer, 0, 0, 0, 0, 0, 0, 0, 0, 0, 0, 0, 0, 0, 0,0.0,0.0,0.0,0.2,0.0,0.0,0.0,0.4,0.0,0.0,0.0,0.0,0.0,96,src\monitor\components\org\apache\jmeter\visualizers\MonitorHealthVisualizer.java,0,0,0,0
org.apache.jmeter.visualizers.MonitorListener, 0, 0, 0, 0, 0, 0, 0, 0, 0, 0, 0, 0, 0, 0,0.0,0.0,0.0,0.0,0.0,0.0,0.0,0.0,0.0,0.0,0.0,0.0,0.0,96,src\monitor\components\org\apache\jmeter\visualizers\MonitorListener.java,0,0,0,0
org.apache.jmeter.visualizers.MonitorModel, 0, 0, 0, 0, 0, 0, 0, 0, 0, 0, 0, 0, 0, 0,0.0,0.0,0.0,0.25,0.0,0.0,0.0,0.5,0.0,0.0,0.0,0.0,0.0,62,src\monitor\components\org\apache\jmeter\visualizers\MonitorModel.java,0,0,0,0
org.apache.jmeter.visualizers.MonitorStats, 0, 0, 0, 1, 0, 0, 0, 1, 0, 0, 0, 0, 0, 2,0.0,0.0,0.0,0.0,0.0,0.0,0.0,0.0,0.0,0.0,0.0,0.0,0.0,84,src\monitor\components\org\apache\jmeter\visualizers\MonitorStats.java,0,1,0,1
org.apache.jmeter.visualizers.MonitorTabPane, 0, 0, 0, 0, 0, 0, 0, 0, 0, 0, 0, 0, 0, 0,0.0,0.0,0.0,0.0,0.0,0.0,0.0,0.0,0.0,0.0,0.0,0.0,0.0,6,src\monitor\components\org\apache\jmeter\visualizers\MonitorTabPane.java,0,0,0,0
org.apache.jmeter.visualizers.Printable, 0, 0, 0, 0, 0, 0, 0, 0, 0, 0, 0, 0, 0, 0,0.0,0.0,0.0,0.0,0.0,0.0,0.0,0.0,0.0,0.0,0.0,0.0,0.0,6,src\core\org\apache\jmeter\visualizers\Printable.java,0,0,0,0
org.apache.jmeter.visualizers.RenderAsDocument, 0, 0, 0, 0, 0, 0, 0, 0, 0, 0, 0, 0, 0, 0,0.0,0.0,0.0,0.0,0.0,0.0,0.0,0.0,0.0,0.0,0.0,0.0,0.0,23,src\components\org\apache\jmeter\visualizers\RenderAsDocument.java,0,0,0,0
org.apache.jmeter.visualizers.RenderAsHTMLWithEmbedded, 0, 0, 0, 0, 0, 0, 0, 0, 0, 0, 0, 0, 0, 0,0.0,0.0,0.0,0.0,0.0,0.0,0.0,0.0,0.0,0.0,0.0,0.0,0.0,11,src\components\org\apache\jmeter\visualizers\RenderAsHTMLWithEmbedded.java,0,0,0,0
org.apache.jmeter.visualizers.RenderAsText, 0, 0, 0, 0, 0, 0, 0, 0, 0, 0, 0, 0, 0, 0,0.0,0.0,0.0,0.0,0.0,0.0,0.0,0.0,0.0,0.0,0.0,0.0,0.0,19,src\components\org\apache\jmeter\visualizers\RenderAsText.java,0,0,0,0
org.apache.jmeter.visualizers.RequestView, 0, 0, 0, 0, 0, 0, 0, 0, 0, 0, 0, 0, 0, 0,0.0,0.0,0.0,0.0,0.0,0.0,0.0,0.0,0.0,0.0,0.0,0.0,0.0,19,src\components\org\apache\jmeter\visualizers\RequestView.java,0,0,0,0
org.apache.jmeter.visualizers.RespTimeGraphDataBean, 0, 0, 0, 0, 0, 0, 0, 1, 0, 0, 0, 0, 0, 1,0.0,0.0,0.0,0.0,0.0,0.0,0.0,0.0,0.0,0.0,0.0,0.0,0.0,29,src\components\org\apache\jmeter\visualizers\RespTimeGraphDataBean.java,0,0,0,0
org.apache.jmeter.visualizers.RespTimeGraphLineBean, 0, 0, 0, 0, 0, 0, 0, 0, 0, 0, 0, 0, 0, 0,0.0,0.0,0.0,0.0,0.0,0.0,0.0,0.0,0.0,0.0,0.0,0.0,0.0,21,src\components\org\apache\jmeter\visualizers\RespTimeGraphLineBean.java,0,0,0,0
org.apache.jmeter.visualizers.ResultRenderer, 0, 0, 0, 0, 0, 0, 0, 0, 0, 0, 0, 0, 0, 0,0.0,0.0,0.0,0.0,0.0,0.0,0.0,0.0,0.0,0.0,0.0,0.0,0.0,21,src\components\org\apache\jmeter\visualizers\ResultRenderer.java,0,0,0,0
org.apache.jmeter.visualizers.Sample, 0, 0, 0, 1, 0, 0, 0, 1, 0, 0, 0, 0, 0, 2,0.0,0.0,0.0,0.0,0.0,0.0,0.0,0.0,0.0,0.0,0.0,0.0,0.0,112,src\components\org\apache\jmeter\visualizers\SamplerResultTab.java,0,1,0,1
org.apache.jmeter.visualizers.SimpleDataWriter, 0, 0, 0, 0, 0, 0, 0, 0, 0, 0, 0, 0, 0, 0,0.0,0.0,0.0,0.0,0.0,0.0,0.0,1.0,0.0,0.0,0.0,0.0,0.0,22,src\components\org\apache\jmeter\visualizers\SimpleDataWriter.java,0,0,0,0
org.apache.jmeter.visualizers.Spline3, 0, 0, 0, 1, 0, 0, 0, 0, 0, 0, 0, 0, 0, 1,0.0,0.0,0.0,0.0,0.0,0.0,0.0,0.0,0.0,0.0,0.0,0.0,0.0,225,src\components\org\apache\jmeter\visualizers\Spline3.java,0,0,0,0
org.apache.jmeter.visualizers.SplineModel, 0, 0, 0, 0, 0, 0, 0, 0, 0, 0, 0, 0, 0, 0,0.0,0.0,0.0,0.6666666666666666,0.0,0.0,0.0,0.3333333333333333,0.0,0.0,0.0,0.0,0.0,77,src\components\org\apache\jmeter\visualizers\SplineModel.java,0,0,0,0
org.apache.jmeter.visualizers.TestSamplingStatCalculator, 0, 0, 0, 0, 0, 0, 0, 0, 0, 0, 0, 0, 0, 0,0.0,0.0,0.0,0.0,0.0,0.0,0.0,0.0,0.0,0.0,0.0,0.0,0.0,23,test\src\org\apache\jmeter\visualizers\TestSamplingStatCalculator.java,0,0,0,0
org.apache.jmeter.visualizers.TreeNodeRenderer, 0, 0, 0, 0, 0, 0, 0, 1, 0, 0, 0, 0, 0, 1,0.0,0.0,0.0,0.0,0.0,0.0,0.0,0.0,0.0,0.0,0.0,0.0,0.0,28,src\components\org\apache\jmeter\visualizers\TreeNodeRenderer.java,0,0,0,0
org.apache.jmeter.visualizers.Visualizer, 0, 0, 0, 0, 0, 0, 0, 0, 0, 0, 0, 0, 0, 0,0.0,0.0,0.0,0.0,0.0,0.0,0.0,0.0,0.0,0.0,0.0,0.0,0.0,28,src\core\org\apache\jmeter\visualizers\Visualizer.java,0,0,0,0
org.apache.jmeter.visualizers.XMLDefaultMutableTreeNode, 0, 0, 0, 0, 0, 0, 0, 0, 0, 0, 0, 0, 0, 0,0.0,0.0,0.0,0.0,0.0,0.0,0.0,0.0,0.0,0.0,0.0,0.0,0.0,89,src\components\org\apache\jmeter\visualizers\XMLDefaultMutableTreeNode.java,0,0,0,0
org.apache.jmeter.visualizers.gui.AbstractListenerGui, 0, 0, 0, 0, 0, 0, 0, 0, 0, 0, 0, 0, 0, 0,0.0,0.0,0.0,0.0,0.0,0.0,0.0,0.5,0.0,0.0,0.0,0.0,0.0,11,src\core\org\apache\jmeter\visualizers\gui\AbstractListenerGui.java,0,0,0,0
org.apache.jorphan.TestFunctorUsers, 0, 0, 0, 0, 0, 0, 0, 0, 0, 0, 0, 0, 0, 0,0.0,0.0,0.0,0.0,0.0,0.0,0.0,0.5,0.0,0.0,0.0,0.0,0.0,28,test\src\org\apache\jorphan\TestFunctorUsers.java,0,0,0,0
org.apache.jorphan.TestXMLBuffer, 0, 0, 0, 0, 0, 0, 0, 0, 0, 0, 0, 0, 0, 0,0.0,0.0,0.0,0.0,0.0,0.0,0.0,1.0,0.0,0.0,0.0,0.0,0.0,30,test\src\org\apache\jorphan\TestXMLBuffer.java,0,0,0,0
org.apache.jorphan.collections.HashTreeTraverser, 0, 0, 0, 0, 0, 0, 0, 0, 0, 0, 0, 0, 0, 0,0.0,0.0,0.0,0.0,0.0,0.0,0.0,0.0,0.0,0.0,0.0,0.0,0.0,30,src\jorphan\org\apache\jorphan\collections\HashTreeTraverser.java,0,0,0,0
org.apache.jorphan.collections.ListedHashTree, 0, 0, 0, 0, 0, 0, 0, 0, 0, 0, 0, 0, 0, 0,0.0,0.0,0.0,0.0,0.0,0.0,0.0,0.3333333333333333,0.0,0.0,0.0,0.0,0.0,140,src\jorphan\org\apache\jorphan\collections\ListedHashTree.java,0,0,0,0
org.apache.jorphan.collections.PackageTest, 0, 0, 0, 0, 0, 0, 0, 0, 0, 0, 0, 0, 0, 0,0.0,0.0,0.0,0.0,0.0,0.0,0.0,0.0,0.0,0.0,0.0,0.0,0.0,120,test\src\org\apache\jorphan\collections\PackageTest.java,0,0,0,0
org.apache.jorphan.exec.StreamCopier, 0, 0, 0, 0, 0, 0, 0, 0, 0, 0, 0, 0, 0, 0,0.0,0.0,0.0,0.0,0.0,0.0,0.0,0.0,0.0,0.0,0.0,0.0,0.0,27,src\jorphan\org\apache\jorphan\exec\StreamCopier.java,0,0,0,0
org.apache.jorphan.exec.TestKeyToolUtils, 0, 0, 0, 0, 0, 0, 0, 0, 0, 0, 0, 0, 0, 0,0.0,0.0,0.0,0.0,0.0,0.0,0.0,0.0,0.0,0.0,0.0,0.0,0.0,20,test\src\org\apache\jorphan\exec\TestKeyToolUtils.java,0,0,0,0
org.apache.jorphan.gui.AbstractTreeTableModel, 0, 0, 0, 1, 0, 0, 0, 1, 0, 0, 0, 0, 0, 2,0.0,0.0,0.0,0.0,0.0,0.0,0.0,1.0,0.0,0.0,0.0,0.0,0.0,102,src\jorphan\org\apache\jorphan\gui\AbstractTreeTableModel.java,0,0,0,0
org.apache.jorphan.gui.ComponentUtil, 0, 0, 0, 0, 0, 0, 0, 0, 0, 0, 0, 0, 0, 0,0.0,0.0,0.0,0.0,0.0,0.0,0.0,0.0,0.0,0.0,0.0,0.0,0.0,31,src\jorphan\org\apache\jorphan\gui\ComponentUtil.java,0,0,0,0
org.apache.jorphan.gui.DefaultTreeTableModel, 0, 0, 0, 0, 0, 0, 0, 1, 0, 0, 0, 0, 0, 1,0.0,0.0,0.0,0.5,0.0,0.0,0.0,0.5,0.0,0.0,0.0,0.0,0.0,13,src\jorphan\org\apache\jorphan\gui\DefaultTreeTableModel.java,0,0,0,0
org.apache.jorphan.gui.JLabeledChoice, 0, 0, 0, 1, 0, 0, 0, 1, 0, 0, 0, 0, 0, 2,0.0,0.0,0.0,0.0,0.0,0.0,0.0,0.0,0.0,0.0,0.0,0.0,0.0,151,src\jorphan\org\apache\jorphan\gui\JLabeledChoice.java,0,0,0,0
org.apache.jorphan.gui.JLabeledField, 0, 0, 0, 0, 0, 0, 0, 0, 0, 0, 0, 0, 0, 0,0.0,0.0,0.0,0.0,0.0,0.0,0.0,0.0,0.0,0.0,0.0,0.0,0.0,151,src\jorphan\org\apache\jorphan\gui\JLabeledField.java,0,0,0,0
org.apache.jorphan.gui.JLabeledPasswordField, 0, 0, 0, 0, 0, 0, 0, 0, 0, 0, 0, 0, 0, 0,0.0,0.0,0.0,0.0,0.0,0.0,0.0,0.0,0.0,0.0,0.0,0.0,0.0,13,src\jorphan\org\apache\jorphan\gui\JLabeledPasswordField.java,0,0,0,0
org.apache.jorphan.gui.JLabeledTextArea, 0, 0, 0, 0, 0, 0, 0, 0, 0, 0, 0, 0, 0, 0,0.0,0.0,0.0,0.0,0.0,0.0,0.0,0.0,0.0,0.0,0.0,0.0,0.0,109,src\jorphan\org\apache\jorphan\gui\JLabeledTextArea.java,0,0,0,0
org.apache.jorphan.gui.JLabeledTextField, 0, 0, 0, 0, 0, 0, 0, 0, 0, 0, 0, 0, 0, 0,0.0,0.0,0.0,0.0,0.0,0.0,0.0,0.0,0.0,0.0,0.0,0.0,0.0,100,src\jorphan\org\apache\jorphan\gui\JLabeledTextField.java,0,0,0,0
org.apache.jorphan.gui.JTreeTable, 0, 0, 0, 0, 0, 0, 0, 0, 0, 0, 0, 0, 0, 0,0.0,0.0,0.0,0.0,0.0,0.0,0.0,1.0,0.0,0.0,0.0,0.0,0.0,18,src\jorphan\org\apache\jorphan\gui\JTreeTable.java,0,0,0,0
org.apache.jorphan.gui.MenuScroller, 0, 0, 0, 1, 0, 0, 0, 1, 0, 0, 0, 0, 0, 2,0.0,0.0,0.0,0.0,0.0,0.0,0.0,0.0,0.0,0.0,0.0,0.0,0.0,290,src\jorphan\org\apache\jorphan\gui\MenuScroller.java,0,0,0,0
org.apache.jorphan.gui.ObjectTableModel, 0, 0, 0, 1, 0, 0, 0, 1, 0, 0, 0, 0, 0, 2,0.0,0.0,0.0,0.0,0.0,0.0,0.0,0.0,0.0,0.0,0.0,0.0,0.0,184,src\jorphan\org\apache\jorphan\gui\ObjectTableModel.java,0,0,0,0
org.apache.jorphan.gui.RateRenderer, 0, 0, 0, 0, 0, 0, 0, 0, 0, 0, 0, 0, 0, 0,0.0,0.0,0.0,0.0,0.0,0.0,0.0,0.0,0.0,0.0,0.0,0.0,0.0,28,src\jorphan\org\apache\jorphan\gui\RateRenderer.java,0,0,0,0
org.apache.jorphan.gui.TreeTableModel, 0, 0, 0, 0, 0, 0, 0, 0, 0, 0, 0, 0, 0, 0,0.0,0.0,0.0,0.0,0.0,0.0,0.0,0.0,0.0,0.0,0.0,0.0,0.0,28,src\jorphan\org\apache\jorphan\gui\TreeTableModel.java,0,0,0,0
org.apache.jorphan.gui.layout.VerticalLayout, 0, 0, 0, 0, 0, 0, 0, 1, 0, 0, 0, 0, 0, 1,0.0,0.0,0.0,0.0,0.0,0.0,0.0,0.0,0.0,0.0,0.0,0.0,0.0,103,src\jorphan\org\apache\jorphan\gui\layout\VerticalLayout.java,0,0,0,0
org.apache.jorphan.math.NumberComparator, 0, 0, 0, 0, 0, 0, 0, 0, 0, 0, 0, 0, 0, 0,0.0,0.0,0.0,0.0,0.0,0.0,0.0,0.0,0.0,0.0,0.0,0.0,0.0,16,src\jorphan\org\apache\jorphan\math\NumberComparator.java,0,0,0,0
org.apache.jorphan.math.StatCalculatorInteger, 0, 0, 0, 0, 0, 0, 0, 0, 0, 0, 0, 0, 0, 0,0.0,0.0,0.0,0.0,0.0,0.0,0.0,0.0,0.0,0.0,0.0,0.0,0.0,19,src\jorphan\org\apache\jorphan\math\StatCalculatorInteger.java,0,0,0,0
org.apache.jorphan.math.StatCalculatorLong, 0, 0, 0, 0, 0, 0, 0, 0, 0, 0, 0, 0, 0, 0,0.0,0.0,0.0,0.0,0.0,0.0,0.0,0.0,0.0,0.0,0.0,0.0,0.0,19,src\jorphan\org\apache\jorphan\math\StatCalculatorLong.java,0,0,0,0
org.apache.jorphan.reflect.ClassTools, 0, 0, 0, 0, 0, 0, 0, 0, 0, 0, 0, 0, 0, 0,0.0,0.0,0.0,0.0,0.0,0.0,0.0,0.0,0.0,0.0,0.0,0.0,0.0,72,src\jorphan\org\apache\jorphan\reflect\ClassTools.java,0,4,2,8
org.apache.jorphan.test.UnitTestManager, 0, 0, 0, 0, 0, 0, 0, 0, 0, 0, 0, 0, 0, 0,0.0,0.0,0.0,0.0,0.0,0.0,0.0,0.0,0.0,0.0,0.0,0.0,0.0,72,src\jorphan\org\apache\jorphan\test\UnitTestManager.java,0,0,0,0
org.apache.jorphan.util.HeapDumper, 0, 0, 0, 0, 0, 0, 0, 0, 0, 0, 0, 0, 0, 0,0.0,0.0,0.0,0.0,0.0,0.0,0.0,0.0,0.0,0.0,0.0,0.0,0.0,79,src\jorphan\org\apache\jorphan\util\HeapDumper.java,0,0,0,0
org.apache.jorphan.util.JMeterError, 0, 0, 0, 0, 0, 0, 0, 0, 0, 0, 0, 0, 0, 0,0.0,0.0,0.0,0.0,0.0,0.0,0.0,0.3333333333333333,0.0,0.0,0.0,0.0,0.0,15,src\jorphan\org\apache\jorphan\util\JMeterError.java,0,0,0,0
org.apache.jorphan.util.JMeterException, 0, 0, 0, 0, 0, 0, 0, 0, 0, 0, 0, 0, 0, 0,0.0,0.0,0.0,0.14285714285714285,0.0,0.0,0.0,0.14285714285714285,0.0,0.0,0.0,0.0,0.0,15,src\jorphan\org\apache\jorphan\util\JMeterException.java,0,0,0,0
org.apache.jorphan.util.JMeterStopTestException, 0, 0, 0, 0, 0, 0, 0, 0, 0, 0, 0, 0, 0, 0,0.0,0.0,0.0,0.5,0.0,0.0,0.0,0.5,0.0,0.0,0.0,0.0,0.0,9,src\jorphan\org\apache\jorphan\util\JMeterStopTestException.java,0,0,0,0
org.apache.jorphan.util.JMeterStopTestNowException, 0, 0, 0, 0, 0, 0, 0, 0, 0, 0, 0, 0, 0, 0,0.0,0.0,0.0,1.0,0.0,0.0,0.0,1.0,0.0,0.0,0.0,0.0,0.0,9,src\jorphan\org\apache\jorphan\util\JMeterStopTestNowException.java,0,0,0,0
org.apache.jorphan.util.JMeterStopThreadException, 0, 0, 0, 0, 0, 0, 0, 0, 0, 0, 0, 0, 0, 0,0.0,0.0,0.0,0.5,0.0,0.0,0.0,0.5,0.0,0.0,0.0,0.0,0.0,15,src\jorphan\org\apache\jorphan\util\JMeterStopThreadException.java,0,0,0,0
org.apache.jorphan.util.TestJorphanUtils, 0, 0, 0, 1, 0, 0, 0, 0, 0, 0, 0, 0, 0, 1,0.0,0.0,0.0,0.0,0.0,0.0,0.0,0.0,0.0,0.0,0.0,0.0,0.0,256,test\src\org\apache\jorphan\util\TestJorphanUtils.java,0,0,0,0
test.AfterAnnotatedTest, 0, 0, 0, 0, 0, 0, 0, 0, 0, 0, 0, 0, 0, 0,0.0,0.0,0.0,0.0,0.0,0.0,0.0,0.0,0.0,0.0,0.0,0.0,0.0,9,src\junit\test\AfterAnnotatedTest.java,0,0,0,0
test.BeforeAnnotatedTest, 0, 0, 0, 0, 0, 0, 0, 0, 0, 0, 0, 0, 0, 0,0.0,0.0,0.0,0.0,0.0,0.0,0.0,0.0,0.0,0.0,0.0,0.0,0.0,9,src\junit\test\BeforeAnnotatedTest.java,0,0,0,0
test.DummyAnnotatedTest, 0, 0, 1, 0, 0, 0, 0, 0, 0, 0, 0, 0, 0, 1,0.0,0.0,0.0,0.0,0.0,0.0,0.0,0.0,0.0,0.0,0.0,0.0,0.0,59,src\junit\test\DummyAnnotatedTest.java,0,0,0,0
test.Junit4AnnotationsTest, 0, 0, 0, 0, 0, 0, 0, 0, 0, 0, 0, 0, 0, 0,0.0,0.0,0.0,0.0,0.0,0.0,0.0,0.0,0.0,0.0,0.0,0.0,0.0,22,src\junit\test\Junit4AnnotationsTest.java,0,0,0,0
test.RerunTest, 0, 0, 0, 0, 0, 0, 0, 0, 0, 0, 0, 0, 0, 0,0.0,0.0,0.0,0.0,0.0,0.0,0.0,0.0,0.0,0.0,0.0,0.0,0.0,8,src\junit\test\RerunTest.java,0,0,0,0
test.SetupTestError, 0, 0, 0, 0, 0, 0, 0, 0, 0, 0, 0, 0, 0, 0,0.0,0.0,0.0,0.0,0.0,0.0,0.0,0.0,0.0,0.0,0.0,0.0,0.0,10,src\junit\test\SetupTestError.java,0,0,0,0
test.SetupTestFail, 0, 0, 0, 0, 0, 0, 0, 0, 0, 0, 0, 0, 0, 0,0.0,0.0,0.0,0.0,0.0,0.0,0.0,0.0,0.0,0.0,0.0,0.0,0.0,10,src\junit\test\SetupTestFail.java,0,0,0,0
test.TearDownTestFail, 0, 0, 0, 0, 0, 0, 0, 0, 0, 0, 0, 0, 0, 0,0.0,0.0,0.0,0.0,0.0,0.0,0.0,0.0,0.0,0.0,0.0,0.0,0.0,8,src\junit\test\TearDownTestFail.java,0,0,0,0
woolfel.DummyTestCase, 0, 0, 0, 0, 0, 0, 0, 0, 0, 0, 0, 0, 0, 0,0.0,0.0,0.0,0.0,0.0,0.0,0.0,0.0,0.0,0.0,0.0,0.0,0.0,63,src\junit\woolfel\DummyTestCase.java,0,0,0,0
woolfel.SubDummyTest, 0, 0, 0, 0, 0, 0, 0, 0, 0, 0, 0, 0, 0, 0,0.0,0.0,0.0,0.0,0.0,0.0,0.0,0.0,0.0,0.0,0.0,0.0,0.0,16,src\junit\woolfel\SubDummyTest.java,0,0,0,0
woolfel.SubDummyTest2, 0, 0, 0, 0, 0, 0, 0, 0, 0, 0, 0, 0, 0, 0,0.0,0.0,0.0,0.0,0.0,0.0,0.0,0.0,0.0,0.0,0.0,0.0,0.0,17,src\junit\woolfel\SubDummyTest2.java,0,0,0,0
,0.0,0.0,0.0,0.0,0.0,0.0,0.0,0.0,0.0,0.0,0.0,0.0,0.0,17,src\components\org\apache\jmeter\assertions\gui\AssertionGui.java,0,0,0,0
