ClassName,AntiSingleton,Blob,ClassDataShouldBePrivate,ComplexClass,LargeClass,LazyClass,LongMethod,LongParameterList,MessageChains,RefusedParentBequest,SpaghettiCode,SpeculativeGenerality,SwissArmyKnife,NumOfAPs,AntiSingleton,Blob,ClassDataShouldBePrivate,ComplexClass,LargeClass,LazyClass,LongMethod,LongParameterList,MessageChains,RefusedParentBequest,SpaghettiCode,SpeculativeGenerality,SwissArmyKnife,LOC,name,deleted,added,changed,all
org.apache.log4j.BasicConfigurationFactory, 0, 0, 0, 0, 0, 0, 0, 0, 0, 0, 0, 0, 0, 0,0.0,0.0,0.0,0.0,0.0,0.0,0.0,0.0,0.0,0.0,0.0,0.0,0.0,30,log4j-1.2-api\src\test\java\org\apache\log4j\BasicConfigurationFactory.java,0,0,0,0
org.apache.log4j.BasicConfigurator, 0, 0, 0, 0, 0, 0, 0, 0, 0, 0, 0, 0, 0, 0,0.0,0.0,0.0,0.0,0.0,0.0,0.0,0.0,0.0,0.0,0.0,0.0,0.0,11,log4j-1.2-api\src\main\java\org\apache\log4j\BasicConfigurator.java,0,0,0,0
org.apache.log4j.CallerInformationTest, 0, 0, 0, 0, 0, 0, 0, 0, 0, 0, 0, 0, 0, 0,0.0,0.0,0.0,0.0,0.0,0.0,0.0,0.5,0.0,0.0,0.0,0.0,0.0,33,log4j-1.2-api\src\test\java\org\apache\log4j\CallerInformationTest.java,0,0,0,0
org.apache.log4j.CategoryTest, 1, 0, 0, 0, 0, 0, 0, 0, 0, 0, 0, 0, 0, 1,0.0,0.0,0.0,0.0,0.0,0.0,0.0,0.25,0.0,0.0,0.0,0.0,0.0,113,log4j-1.2-api\src\test\java\org\apache\log4j\CategoryTest.java,1,4,1,7
org.apache.log4j.Layout, 0, 0, 0, 0, 0, 0, 0, 0, 0, 0, 0, 0, 0, 0,0.0,0.0,0.0,0.0,0.0,0.0,0.0,0.0,0.0,0.0,0.0,0.0,0.0,14,log4j-1.2-api\src\main\java\org\apache\log4j\Layout.java,0,0,0,0
org.apache.log4j.Level, 0, 0, 0, 0, 0, 0, 0, 0, 0, 0, 0, 0, 0, 0,0.0,0.0,0.0,1.0,0.0,0.0,0.0,0.0,0.0,0.0,0.0,0.0,0.0,98,log4j-1.2-api\src\main\java\org\apache\log4j\Level.java,0,0,0,0
org.apache.log4j.LevelTest, 0, 0, 0, 1, 0, 0, 0, 0, 0, 0, 0, 0, 0, 1,0.0,0.0,0.0,0.3333333333333333,0.0,0.0,0.0,0.0,0.0,0.0,0.0,0.0,0.0,133,log4j-1.2-api\src\test\java\org\apache\log4j\LevelTest.java,0,0,0,0
org.apache.log4j.LogManager, 0, 0, 0, 0, 0, 0, 0, 0, 0, 0, 0, 0, 0, 0,0.2,0.0,0.0,0.0,0.0,0.0,0.0,0.0,0.0,0.0,0.0,0.0,0.0,117,log4j-1.2-api\src\main\java\org\apache\log4j\LogManager.java,0,0,0,0
org.apache.log4j.Logger, 0, 0, 0, 0, 0, 0, 0, 0, 0, 0, 0, 0, 0, 0,0.16666666666666666,0.0,0.0,0.16666666666666666,0.0,0.0,0.0,0.0,0.0,0.0,0.0,0.0,0.0,29,log4j-1.2-api\src\main\java\org\apache\log4j\Logger.java,0,0,0,0
org.apache.log4j.LoggingTest, 0, 0, 0, 0, 0, 0, 0, 0, 0, 0, 0, 0, 0, 0,0.0,0.0,0.0,0.0,0.0,0.0,0.0,0.0,0.0,0.0,0.0,0.0,0.0,12,log4j-1.2-api\src\test\java\org\apache\log4j\LoggingTest.java,0,0,0,0
org.apache.log4j.NDC, 0, 0, 0, 0, 0, 0, 0, 0, 0, 0, 0, 0, 0, 0,0.0,0.0,0.0,0.0,0.0,0.0,0.0,0.0,0.0,0.0,0.0,0.0,0.0,39,log4j-1.2-api\src\main\java\org\apache\log4j\NDC.java,0,0,0,0
org.apache.log4j.PatternLayout, 0, 0, 0, 0, 0, 0, 0, 0, 0, 0, 0, 0, 0, 0,0.0,0.0,0.0,0.0,0.0,0.0,0.0,0.0,0.0,0.0,0.0,0.0,0.0,12,log4j-1.2-api\src\main\java\org\apache\log4j\PatternLayout.java,0,0,0,0
org.apache.log4j.Priority, 0, 0, 0, 1, 0, 0, 0, 0, 0, 0, 0, 0, 0, 1,0.0,0.0,0.0,0.6666666666666666,0.0,0.0,0.0,0.0,0.0,0.0,0.0,0.0,0.0,79,log4j-1.2-api\src\main\java\org\apache\log4j\Priority.java,0,0,0,0
org.apache.log4j.PriorityTest, 0, 0, 0, 1, 0, 0, 0, 0, 0, 0, 0, 0, 0, 1,0.0,0.0,0.0,1.0,0.0,0.0,0.0,0.0,0.0,0.0,0.0,0.0,0.0,107,log4j-1.2-api\src\test\java\org\apache\log4j\PriorityTest.java,0,0,0,0
org.apache.log4j.PropertyConfigurator, 0, 0, 0, 0, 0, 0, 0, 0, 0, 0, 0, 0, 0, 0,0.0,0.0,0.0,0.0,0.0,0.0,0.0,0.0,0.0,0.0,0.0,0.0,0.0,22,log4j-1.2-api\src\main\java\org\apache\log4j\PropertyConfigurator.java,0,0,0,0
org.apache.log4j.VelocityTest, 0, 0, 0, 0, 0, 0, 0, 0, 0, 0, 0, 0, 0, 0,0.0,0.0,0.0,0.0,0.0,0.0,0.0,0.0,0.0,0.0,0.0,0.0,0.0,21,log4j-1.2-api\src\test\java\org\apache\log4j\VelocityTest.java,0,0,0,0
org.apache.log4j.config.PropertySetter, 0, 0, 0, 0, 0, 0, 0, 0, 0, 0, 0, 0, 0, 0,0.0,0.0,0.0,0.0,0.0,0.0,0.0,0.0,0.0,0.0,0.0,0.0,0.0,13,log4j-1.2-api\src\main\java\org\apache\log4j\config\PropertySetter.java,0,0,0,0
org.apache.log4j.config.PropertySetterException, 0, 0, 0, 0, 0, 0, 0, 0, 0, 0, 0, 0, 0, 0,0.0,0.0,0.0,0.0,0.0,0.0,0.0,0.0,0.0,0.0,0.0,0.0,0.0,19,log4j-1.2-api\src\main\java\org\apache\log4j\config\PropertySetterException.java,0,0,0,0
org.apache.log4j.helpers.NullEnumeration, 0, 0, 0, 0, 0, 0, 0, 0, 0, 0, 0, 0, 0, 0,0.0,0.0,0.0,0.0,0.0,0.0,0.0,0.0,0.0,0.0,0.0,0.0,0.0,16,log4j-1.2-api\src\main\java\org\apache\log4j\helpers\NullEnumeration.java,0,0,0,0
org.apache.log4j.osgi.equinox.EquinoxLoadApi12BundleTest, 0, 0, 0, 0, 0, 0, 0, 0, 0, 0, 0, 0, 0, 0,0.0,0.0,0.0,0.0,0.0,0.0,0.0,0.0,0.0,0.0,0.0,0.0,0.0,2,log4j-1.2-api\src\test\java\org\apache\log4j\osgi\equinox\EquinoxLoadApi12BundleTest.java,0,0,0,0
org.apache.log4j.osgi.felix.FelixLoadApi12BundleTest, 0, 0, 0, 0, 0, 0, 0, 0, 0, 0, 0, 0, 0, 0,0.0,0.0,0.0,0.0,0.0,0.0,0.0,0.0,0.0,0.0,0.0,0.0,0.0,2,log4j-1.2-api\src\test\java\org\apache\log4j\osgi\felix\FelixLoadApi12BundleTest.java,0,0,0,0
org.apache.log4j.spi.ErrorHandler, 0, 0, 0, 0, 0, 0, 0, 0, 0, 0, 0, 0, 0, 0,0.0,0.0,0.0,0.0,0.0,0.0,0.0,0.0,0.0,0.0,0.0,0.0,0.0,2,log4j-1.2-api\src\main\java\org\apache\log4j\spi\ErrorHandler.java,0,0,0,0
org.apache.log4j.spi.Filter, 0, 0, 1, 0, 0, 0, 0, 0, 0, 0, 0, 0, 0, 1,0.0,0.0,0.0,0.0,0.0,0.0,0.0,0.0,0.0,0.0,0.0,0.0,0.0,16,log4j-1.2-api\src\main\java\org\apache\log4j\spi\Filter.java,0,0,0,0
org.apache.log4j.spi.HierarchyEventListener, 0, 0, 0, 0, 0, 0, 0, 0, 0, 0, 0, 0, 0, 0,0.0,0.0,0.0,0.0,0.0,0.0,0.0,0.0,0.0,0.0,0.0,0.0,0.0,16,log4j-1.2-api\src\main\java\org\apache\log4j\spi\HierarchyEventListener.java,0,0,0,0
org.apache.log4j.spi.LoggerFactory, 0, 0, 0, 0, 0, 0, 0, 0, 0, 0, 0, 0, 0, 0,0.0,0.0,0.0,0.0,0.0,0.0,0.0,0.0,0.0,0.0,0.0,0.0,0.0,16,log4j-1.2-api\src\main\java\org\apache\log4j\spi\LoggerFactory.java,0,0,0,0
org.apache.log4j.spi.LoggerRepository, 0, 0, 0, 0, 0, 0, 0, 0, 0, 0, 0, 0, 0, 0,0.0,0.0,0.0,0.0,0.0,0.0,0.0,0.0,0.0,0.0,0.0,0.0,0.0,16,log4j-1.2-api\src\main\java\org\apache\log4j\spi\LoggerRepository.java,0,0,0,0
org.apache.log4j.spi.LoggingEvent, 0, 0, 0, 0, 0, 0, 0, 0, 0, 0, 0, 0, 0, 0,0.0,0.0,0.5,0.0,0.0,0.0,0.0,0.0,0.0,0.0,0.0,0.0,0.0,2,log4j-1.2-api\src\main\java\org\apache\log4j\spi\LoggingEvent.java,0,0,0,0
org.apache.log4j.spi.RepositorySelector, 0, 0, 0, 0, 0, 0, 0, 0, 0, 0, 0, 0, 0, 0,0.0,0.0,0.0,0.0,0.0,0.0,0.0,0.0,0.0,0.0,0.0,0.0,0.0,2,log4j-1.2-api\src\main\java\org\apache\log4j\spi\RepositorySelector.java,0,0,0,0
org.apache.log4j.util.SerialUtil, 0, 0, 0, 0, 0, 0, 0, 0, 0, 0, 0, 0, 0, 0,0.0,0.0,0.0,0.0,0.0,0.0,0.0,0.0,0.0,0.0,0.0,0.0,0.0,24,log4j-api\src\test\java\org\apache\log4j\util\SerialUtil.java,0,0,0,0
org.apache.log4j.util.SerializationTestHelper, 0, 0, 0, 0, 0, 0, 0, 0, 0, 0, 0, 0, 0, 0,0.0,0.0,0.0,1.0,0.0,0.0,0.0,0.0,0.0,0.0,0.0,0.0,0.0,66,log4j-1.2-api\src\test\java\org\apache\log4j\util\SerializationTestHelper.java,0,0,0,0
org.apache.log4j.util.StringsTest, 0, 0, 0, 0, 0, 0, 0, 0, 0, 0, 0, 0, 0, 0,0.0,0.0,0.0,0.0,0.0,0.0,0.0,0.0,0.0,0.0,0.0,0.0,0.0,7,log4j-api\src\test\java\org\apache\log4j\util\StringsTest.java,0,0,0,0
org.apache.log4j.xml.DOMConfigurator, 0, 0, 0, 0, 0, 0, 0, 0, 0, 0, 0, 0, 0, 0,0.0,0.0,0.0,0.0,0.0,0.0,0.0,0.0,0.0,0.0,0.0,0.0,0.0,34,log4j-1.2-api\src\main\java\org\apache\log4j\xml\DOMConfigurator.java,0,0,0,0
org.apache.logging.dumbster.smtp.SimpleSmtpServer, 0, 0, 0, 0, 0, 0, 0, 0, 0, 0, 0, 0, 0, 0,0.0,0.0,0.0,0.0,0.0,0.0,0.0,0.0,0.0,0.0,0.0,0.0,0.0,119,log4j-core\src\test\java\org\apache\logging\dumbster\smtp\SimpleSmtpServer.java,0,0,0,0
org.apache.logging.dumbster.smtp.SmtpActionType, 0, 0, 0, 1, 0, 0, 0, 0, 0, 0, 0, 0, 0, 1,0.0,0.0,0.0,0.0,0.0,0.0,0.0,0.0,0.0,0.0,0.0,0.0,0.0,72,log4j-core\src\test\java\org\apache\logging\dumbster\smtp\SmtpActionType.java,0,0,0,0
org.apache.logging.dumbster.smtp.SmtpRequest, 0, 0, 0, 0, 0, 0, 0, 0, 0, 0, 0, 0, 0, 0,0.0,0.0,0.0,0.25,0.0,0.0,0.0,0.0,0.0,0.0,0.0,0.0,0.0,148,log4j-core\src\test\java\org\apache\logging\dumbster\smtp\SmtpRequest.java,0,0,0,0
org.apache.logging.dumbster.smtp.SmtpResponse, 0, 0, 0, 0, 0, 0, 0, 0, 0, 0, 0, 0, 0, 0,0.0,0.0,0.0,0.0,0.0,0.0,0.0,0.0,0.0,0.0,0.0,0.0,0.0,19,log4j-core\src\test\java\org\apache\logging\dumbster\smtp\SmtpResponse.java,0,0,0,0
org.apache.logging.dumbster.smtp.SmtpState, 0, 0, 0, 0, 0, 0, 0, 0, 0, 0, 0, 0, 0, 0,0.0,0.0,0.0,0.0,0.0,0.0,0.0,0.0,0.0,0.0,0.0,0.0,0.0,41,log4j-core\src\test\java\org\apache\logging\dumbster\smtp\SmtpState.java,0,0,0,0
org.apache.logging.log4j.AbstractLoggerTest, 0, 0, 0, 1, 0, 0, 0, 1, 0, 0, 0, 0, 0, 2,0.0,0.0,0.0,0.0,0.0,0.0,0.0,0.0,0.0,0.0,0.0,0.0,0.0,628,log4j-api\src\test\java\org\apache\logging\log4j\AbstractLoggerTest.java,0,0,0,0
org.apache.logging.log4j.AbstractSerializationTest, 0, 0, 0, 0, 0, 0, 0, 0, 0, 0, 0, 0, 0, 0,0.0,0.0,0.0,0.0,0.0,0.0,0.0,0.0,0.0,0.0,0.0,0.0,0.0,15,log4j-api\src\test\java\org\apache\logging\log4j\AbstractSerializationTest.java,0,0,0,0
org.apache.logging.log4j.EventLogger, 0, 0, 0, 0, 0, 0, 0, 0, 0, 0, 0, 0, 0, 0,0.16666666666666666,0.0,0.5,0.0,0.0,0.0,0.0,0.0,0.0,0.0,0.0,0.0,0.0,14,log4j-api\src\main\java\org\apache\logging\log4j\EventLogger.java,0,0,0,0
org.apache.logging.log4j.EventLoggerTest, 0, 0, 0, 0, 0, 0, 0, 0, 0, 0, 0, 0, 0, 0,0.0,0.0,0.0,0.0,0.0,0.0,0.0,0.0,0.0,0.0,0.0,0.0,0.0,23,log4j-api\src\test\java\org\apache\logging\log4j\EventLoggerTest.java,0,0,0,0
org.apache.logging.log4j.FilterPerformanceComparison, 0, 0, 0, 0, 0, 0, 0, 0, 0, 0, 0, 0, 0, 0,0.0,0.0,0.0,0.0,0.0,0.0,0.0,0.0,0.0,0.0,0.0,0.0,0.0,103,log4j-core\src\test\java\org\apache\logging\log4j\FilterPerformanceComparison.java,0,0,2,4
org.apache.logging.log4j.FormatterLoggerManualExample, 1, 0, 1, 0, 0, 0, 0, 0, 0, 0, 0, 0, 0, 2,0.0,0.0,0.0,0.0,0.0,0.0,0.0,0.0,0.0,0.0,0.0,0.0,0.0,24,log4j-core\src\test\java\org\apache\logging\log4j\FormatterLoggerManualExample.java,0,0,0,0
org.apache.logging.log4j.LevelTest, 0, 0, 0, 0, 0, 0, 0, 0, 0, 0, 0, 0, 0, 0,0.0,0.0,0.0,0.0,0.0,0.0,0.0,0.0,0.0,0.0,0.0,0.0,0.0,156,log4j-api\src\test\java\org\apache\logging\log4j\LevelTest.java,0,0,0,0
org.apache.logging.log4j.LogManagerTest, 0, 0, 0, 0, 0, 0, 0, 0, 0, 0, 0, 0, 0, 0,0.0,0.0,0.0,0.0,0.0,0.0,0.0,0.0,0.0,0.0,0.0,0.0,0.0,29,log4j-api\src\test\java\org\apache\logging\log4j\LogManagerTest.java,0,0,0,0
org.apache.logging.log4j.LogRolloverTest, 0, 0, 0, 0, 0, 0, 0, 0, 0, 0, 0, 0, 0, 0,0.0,0.0,0.0,0.0,0.0,0.0,0.0,0.0,0.0,0.0,0.0,0.0,0.0,12,log4j-core\src\test\java\org\apache\logging\log4j\LogRolloverTest.java,0,0,0,0
org.apache.logging.log4j.LogbackSubstitution, 0, 0, 0, 0, 0, 0, 0, 0, 0, 0, 0, 0, 0, 0,0.0,0.0,0.0,0.0,0.0,0.0,0.0,0.0,0.0,0.0,0.0,0.0,0.0,18,log4j-core\src\test\java\org\apache\logging\log4j\LogbackSubstitution.java,0,0,0,0
org.apache.logging.log4j.Logger, 0, 0, 0, 0, 0, 0, 0, 0, 0, 0, 0, 0, 0, 0,0.0,0.0,0.0,0.0,0.0,0.0,0.0,0.0,0.0,0.0,0.0,0.0,0.0,18,log4j-api\src\main\java\org\apache\logging\log4j\Logger.java,0,0,0,0
org.apache.logging.log4j.LoggerTest, 0, 0, 0, 1, 0, 0, 0, 0, 0, 0, 0, 0, 0, 1,0.0,0.0,0.0,0.0,0.0,0.0,0.0,0.0,0.0,0.0,0.0,0.0,0.0,276,log4j-api\src\test\java\org\apache\logging\log4j\LoggerTest.java,0,0,1,2
org.apache.logging.log4j.LoggingException, 0, 0, 0, 0, 0, 0, 0, 0, 0, 0, 0, 0, 0, 0,0.0,0.0,0.0,0.0,0.0,0.0,0.0,0.0,0.0,0.0,0.0,0.0,0.0,12,log4j-api\src\main\java\org\apache\logging\log4j\LoggingException.java,0,0,0,0
org.apache.logging.log4j.Marker, 0, 0, 0, 0, 0, 0, 0, 0, 0, 0, 0, 0, 0, 0,0.0,0.0,0.0,0.0,0.0,0.0,0.0,0.0,0.0,0.0,0.0,0.0,0.0,12,log4j-api\src\main\java\org\apache\logging\log4j\Marker.java,0,0,0,0
org.apache.logging.log4j.MarkerTest, 0, 0, 0, 0, 0, 0, 0, 0, 0, 0, 0, 0, 0, 0,0.0,0.0,0.0,0.0,0.0,0.0,0.0,0.0,0.0,0.0,0.0,0.0,0.0,71,log4j-api\src\test\java\org\apache\logging\log4j\MarkerTest.java,0,0,0,0
org.apache.logging.log4j.NoopThreadContextTest, 0, 0, 0, 0, 0, 0, 0, 0, 0, 0, 0, 0, 0, 0,0.0,0.0,0.0,0.0,0.0,0.0,0.0,0.0,0.0,0.0,0.0,0.0,0.0,23,log4j-api\src\test\java\org\apache\logging\log4j\NoopThreadContextTest.java,0,0,0,0
org.apache.logging.log4j.PerformanceComparison, 0, 0, 0, 1, 0, 0, 0, 0, 0, 0, 0, 0, 0, 1,0.0,0.0,0.0,0.0,0.0,0.0,0.0,0.0,0.0,0.0,0.0,0.0,0.0,130,log4j-core\src\test\java\org\apache\logging\log4j\PerformanceComparison.java,0,0,6,12
org.apache.logging.log4j.PerformanceRun, 1, 0, 1, 0, 0, 0, 0, 0, 0, 0, 0, 0, 0, 2,0.0,0.0,0.0,0.0,0.0,0.0,0.0,0.0,0.0,0.0,0.0,0.0,0.0,81,log4j-core\src\test\java\org\apache\logging\log4j\PerformanceRun.java,0,0,3,6
org.apache.logging.log4j.SerializableMatchers, 0, 0, 0, 0, 0, 0, 0, 0, 0, 0, 0, 0, 0, 0,0.0,0.0,0.0,0.0,0.0,0.0,0.0,0.0,0.0,0.0,0.0,0.0,0.0,21,log4j-api\src\test\java\org\apache\logging\log4j\SerializableMatchers.java,0,0,0,0
org.apache.logging.log4j.TestLoggerContextFactory, 0, 0, 0, 0, 0, 0, 0, 1, 0, 0, 0, 0, 0, 1,0.0,0.0,0.0,0.0,0.0,0.0,0.0,0.0,0.0,0.0,0.0,0.0,0.0,16,log4j-api\src\test\java\org\apache\logging\log4j\TestLoggerContextFactory.java,0,0,0,0
org.apache.logging.log4j.categories.PerformanceTests, 0, 0, 0, 0, 0, 0, 0, 0, 0, 0, 0, 0, 0, 0,0.0,0.0,0.0,0.0,0.0,0.0,0.0,0.0,0.0,0.0,0.0,0.0,0.0,16,log4j-core\src\test\java\org\apache\logging\log4j\categories\PerformanceTests.java,0,0,0,0
org.apache.logging.log4j.core.AbstractLifeCycle, 0, 0, 0, 0, 0, 0, 0, 0, 0, 0, 0, 0, 0, 0,0.0,0.0,0.0,0.0,0.0,0.0,0.0,0.23076923076923078,0.0,0.0,0.0,0.0,0.0,71,log4j-core\src\main\java\org\apache\logging\log4j\core\AbstractLifeCycle.java,0,0,0,0
org.apache.logging.log4j.core.Appender, 0, 0, 0, 0, 0, 0, 0, 0, 0, 0, 0, 0, 0, 0,0.0,0.0,0.0,0.0,0.0,0.0,0.0,0.0,0.0,0.0,0.0,0.0,0.0,71,log4j-core\src\main\java\org\apache\logging\log4j\core\Appender.java,0,0,0,0
org.apache.logging.log4j.core.AppenderRefLevelJsonTest, 1, 0, 1, 0, 0, 0, 0, 0, 0, 0, 0, 0, 0, 2,0.0,0.0,0.0,0.0,0.0,0.0,0.0,1.0,0.0,0.0,0.0,0.0,0.0,48,log4j-core\src\test\java\org\apache\logging\log4j\core\AppenderRefLevelJsonTest.java,0,0,0,0
org.apache.logging.log4j.core.AppenderRefLevelTest, 1, 0, 1, 0, 0, 0, 0, 0, 0, 0, 0, 0, 0, 2,0.0,0.0,0.0,0.0,0.0,0.0,0.0,1.0,0.0,0.0,0.0,0.0,0.0,53,log4j-core\src\test\java\org\apache\logging\log4j\core\AppenderRefLevelTest.java,0,0,0,0
org.apache.logging.log4j.core.BasicConfigurationFactory, 0, 0, 0, 0, 0, 0, 0, 0, 0, 0, 0, 0, 0, 0,0.0,0.0,0.0,0.0,0.0,0.0,0.0,0.0,0.0,0.0,0.0,0.0,0.0,25,log4j-core\src\test\java\org\apache\logging\log4j\core\BasicConfigurationFactory.java,0,0,0,0
org.apache.logging.log4j.core.BasicLoggingTest, 0, 0, 0, 0, 0, 0, 0, 0, 0, 0, 0, 0, 0, 0,0.0,0.0,0.0,0.0,0.0,0.0,0.0,0.0,0.0,0.0,0.0,0.0,0.0,8,log4j-core\src\test\java\org\apache\logging\log4j\core\BasicLoggingTest.java,0,0,0,0
org.apache.logging.log4j.core.ErrorHandler, 0, 0, 0, 0, 0, 0, 0, 0, 0, 0, 0, 0, 0, 0,0.0,0.0,0.0,0.0,0.0,0.0,0.0,0.0,0.0,0.0,0.0,0.0,0.0,8,log4j-core\src\main\java\org\apache\logging\log4j\core\ErrorHandler.java,0,0,0,0
org.apache.logging.log4j.core.ExtendedLevelTest, 1, 0, 1, 0, 0, 0, 0, 0, 0, 0, 0, 0, 0, 2,0.0,0.0,0.0,0.0,0.0,0.0,0.0,1.0,0.0,0.0,0.0,0.0,0.0,31,log4j-core\src\test\java\org\apache\logging\log4j\core\ExtendedLevelTest.java,0,0,0,0
org.apache.logging.log4j.core.FileConfigTest, 1, 0, 1, 0, 0, 0, 0, 0, 0, 0, 0, 0, 0, 2,0.0,0.0,0.0,0.0,0.0,0.0,0.0,1.0,0.0,0.0,0.0,0.0,0.0,27,log4j-core\src\test\java\org\apache\logging\log4j\core\FileConfigTest.java,0,0,0,0
org.apache.logging.log4j.core.Filter, 0, 0, 0, 0, 0, 0, 0, 0, 0, 0, 0, 0, 0, 0,0.0,0.0,0.0,0.0,0.0,0.0,0.0,0.0,0.0,0.0,0.0,0.0,0.0,27,log4j-core\src\main\java\org\apache\logging\log4j\core\Filter.java,0,0,0,0
org.apache.logging.log4j.core.HostNameTest, 1, 0, 1, 0, 0, 0, 0, 0, 0, 0, 0, 0, 0, 2,0.0,0.0,0.0,0.0,0.0,0.0,0.0,0.5,0.0,0.0,0.0,0.0,0.0,31,log4j-core\src\test\java\org\apache\logging\log4j\core\HostNameTest.java,0,0,0,0
org.apache.logging.log4j.core.LateConfigTest, 0, 0, 0, 0, 0, 0, 0, 0, 0, 0, 0, 0, 0, 0,0.0,0.0,0.0,0.0,0.0,0.0,0.0,0.0,0.0,0.0,0.0,0.0,0.0,28,log4j-core\src\test\java\org\apache\logging\log4j\core\LateConfigTest.java,0,0,0,0
org.apache.logging.log4j.core.LevelTest, 1, 0, 1, 0, 0, 0, 0, 0, 0, 0, 0, 0, 0, 2,0.0,0.0,0.0,0.0,0.0,0.0,0.0,1.0,0.0,0.0,0.0,0.0,0.0,83,log4j-core\src\test\java\org\apache\logging\log4j\core\LevelTest.java,0,0,0,0
org.apache.logging.log4j.core.LifeCycle, 0, 0, 0, 0, 0, 0, 0, 0, 0, 0, 0, 0, 0, 0,0.0,0.0,0.0,0.0,0.0,0.0,0.0,0.0,0.0,0.0,0.0,0.0,0.0,83,log4j-core\src\main\java\org\apache\logging\log4j\core\LifeCycle.java,0,0,0,0
org.apache.logging.log4j.core.LogEventFactoryTest, 1, 0, 1, 0, 0, 0, 0, 0, 0, 0, 0, 0, 0, 2,0.0,0.0,0.0,0.0,0.0,0.0,0.0,1.0,0.0,0.0,0.0,0.0,0.0,51,log4j-core\src\test\java\org\apache\logging\log4j\core\LogEventFactoryTest.java,0,0,0,0
org.apache.logging.log4j.core.LogEventListener, 0, 0, 0, 0, 0, 0, 0, 0, 0, 0, 0, 0, 0, 0,0.0,0.0,0.0,0.0,0.0,0.0,0.0,0.0,0.0,0.0,0.0,0.0,0.0,15,log4j-core\src\main\java\org\apache\logging\log4j\core\LogEventListener.java,0,0,0,0
org.apache.logging.log4j.core.LogEventTest, 0, 0, 0, 0, 0, 0, 0, 0, 0, 0, 0, 0, 0, 0,0.0,0.0,0.0,0.0,0.0,0.0,0.0,0.0,0.0,0.0,0.0,0.0,0.0,38,log4j-core\src\test\java\org\apache\logging\log4j\core\LogEventTest.java,0,0,0,0
org.apache.logging.log4j.core.LoggerSerializationTest, 0, 0, 0, 0, 0, 0, 0, 0, 0, 0, 0, 0, 0, 0,0.0,0.0,0.0,0.0,0.0,0.0,0.0,0.0,0.0,0.0,0.0,0.0,0.0,13,log4j-core\src\test\java\org\apache\logging\log4j\core\LoggerSerializationTest.java,0,0,0,0
org.apache.logging.log4j.core.LoggerUpdateTest, 1, 0, 1, 0, 0, 0, 0, 0, 0, 0, 0, 0, 0, 2,0.0,0.0,0.0,0.0,0.0,0.0,0.0,1.0,0.0,0.0,0.0,0.0,0.0,26,log4j-core\src\test\java\org\apache\logging\log4j\core\LoggerUpdateTest.java,0,0,0,0
org.apache.logging.log4j.core.ShutdownDisabledTest, 1, 0, 1, 0, 0, 0, 0, 0, 0, 0, 0, 0, 0, 2,0.0,0.0,0.0,0.0,0.0,0.0,0.0,0.0,0.0,0.0,0.0,0.0,0.0,11,log4j-core\src\test\java\org\apache\logging\log4j\core\ShutdownDisabledTest.java,0,0,0,0
org.apache.logging.log4j.core.SimplePerfTest, 0, 0, 0, 0, 0, 0, 0, 0, 0, 0, 0, 0, 0, 0,0.0,0.0,0.0,0.0,0.0,0.0,0.0,0.0,0.0,0.0,0.0,0.0,0.0,99,log4j-core\src\test\java\org\apache\logging\log4j\core\SimplePerfTest.java,0,0,0,0
org.apache.logging.log4j.core.StrictXmlConfigTest, 1, 0, 1, 0, 0, 0, 0, 0, 0, 0, 0, 0, 0, 2,0.0,0.0,0.0,0.0,0.0,0.0,0.0,1.0,0.0,0.0,0.0,0.0,0.0,82,log4j-core\src\test\java\org\apache\logging\log4j\core\StrictXmlConfigTest.java,0,0,0,0
org.apache.logging.log4j.core.ThreadedPerfTest, 0, 0, 0, 0, 0, 0, 0, 0, 0, 0, 0, 0, 0, 0,0.0,0.0,0.0,0.0,0.0,0.0,0.0,0.0,0.0,0.0,0.0,0.0,0.0,48,log4j-core\src\test\java\org\apache\logging\log4j\core\ThreadedPerfTest.java,0,0,0,0
org.apache.logging.log4j.core.ThreadedTest, 1, 0, 1, 0, 0, 0, 0, 0, 0, 0, 0, 0, 0, 2,0.0,0.0,0.0,0.0,0.0,0.0,0.0,0.0,0.0,0.0,0.0,0.0,0.0,86,log4j-core\src\test\java\org\apache\logging\log4j\core\ThreadedTest.java,0,0,0,0
org.apache.logging.log4j.core.TimestampMessageTest, 1, 0, 1, 0, 0, 0, 0, 0, 0, 0, 0, 0, 0, 2,0.0,0.0,0.0,0.0,0.0,0.0,0.0,0.5,0.0,0.0,0.0,0.0,0.0,49,log4j-core\src\test\java\org\apache\logging\log4j\core\TimestampMessageTest.java,0,0,0,0
org.apache.logging.log4j.core.XmlEvents, 1, 0, 1, 0, 0, 0, 0, 0, 0, 0, 0, 0, 0, 2,0.0,0.0,0.0,0.0,0.0,0.0,0.0,0.0,0.0,0.0,0.0,0.0,0.0,28,log4j-core\src\test\java\org\apache\logging\log4j\core\XmlEvents.java,0,0,0,0
org.apache.logging.log4j.core.appender.AbstractAppender, 0, 0, 0, 0, 0, 0, 0, 0, 0, 0, 0, 0, 0, 0,0.0,0.0,0.0,0.0,0.0,0.0,0.0,0.5263157894736842,0.0,0.0,0.0,0.0,0.0,66,log4j-core\src\main\java\org\apache\logging\log4j\core\appender\AbstractAppender.java,0,0,0,0
org.apache.logging.log4j.core.appender.AbstractOutputStreamAppender, 0, 0, 0, 0, 0, 0, 0, 1, 0, 0, 0, 0, 0, 1,0.0,0.0,0.0,0.0,0.0,0.0,0.0,0.09090909090909091,0.0,0.0,0.0,0.0,0.0,50,log4j-core\src\main\java\org\apache\logging\log4j\core\appender\AbstractOutputStreamAppender.java,0,0,0,0
org.apache.logging.log4j.core.appender.AppenderLoggingException, 0, 0, 0, 0, 0, 0, 0, 0, 0, 0, 0, 0, 0, 0,0.21428571428571427,0.0,0.21428571428571427,0.0,0.0,0.0,0.0,0.21428571428571427,0.0,0.0,0.0,0.0,0.0,12,log4j-core\src\main\java\org\apache\logging\log4j\core\appender\AppenderLoggingException.java,0,0,0,0
org.apache.logging.log4j.core.appender.AsyncAppenderNoLocationTest, 0, 0, 1, 0, 0, 0, 0, 0, 0, 0, 0, 0, 0, 1,0.0,0.0,0.0,0.0,0.0,0.0,0.0,1.0,0.0,0.0,0.0,0.0,0.0,31,log4j-core\src\test\java\org\apache\logging\log4j\core\appender\AsyncAppenderNoLocationTest.java,0,0,0,0
org.apache.logging.log4j.core.appender.ConsoleAppender, 0, 0, 0, 0, 0, 0, 0, 1, 0, 0, 0, 0, 0, 1,0.0,0.0,0.0,0.0,0.0,0.0,0.0,0.16666666666666666,0.0,0.0,0.0,0.0,0.0,183,log4j-core\src\main\java\org\apache\logging\log4j\core\appender\ConsoleAppender.java,0,28,10,48
org.apache.logging.log4j.core.appender.ConsoleAppenderAnsiMessagesMain, 0, 0, 0, 0, 0, 0, 0, 0, 0, 0, 0, 0, 0, 0,0.0,0.0,0.0,0.0,0.0,0.0,0.0,0.0,0.0,0.0,0.0,0.0,0.0,18,log4j-core\src\test\java\org\apache\logging\log4j\core\appender\ConsoleAppenderAnsiMessagesMain.java,0,0,0,0
org.apache.logging.log4j.core.appender.ConsoleAppenderAnsiStyleJira180Main, 0, 0, 0, 0, 0, 0, 0, 0, 0, 0, 0, 0, 0, 0,0.0,0.0,0.0,0.0,0.0,0.0,0.0,0.0,0.0,0.0,0.0,0.0,0.0,23,log4j-core\src\test\java\org\apache\logging\log4j\core\appender\ConsoleAppenderAnsiStyleJira180Main.java,0,0,0,0
org.apache.logging.log4j.core.appender.ConsoleAppenderAnsiStyleJira272Main, 0, 0, 0, 0, 0, 0, 0, 0, 0, 0, 0, 0, 0, 0,0.0,0.0,0.0,0.0,0.0,0.0,0.0,0.0,0.0,0.0,0.0,0.0,0.0,25,log4j-core\src\test\java\org\apache\logging\log4j\core\appender\ConsoleAppenderAnsiStyleJira272Main.java,0,0,0,0
org.apache.logging.log4j.core.appender.ConsoleAppenderAnsiStyleJira319Main, 0, 0, 0, 0, 0, 0, 0, 0, 0, 0, 0, 0, 0, 0,0.0,0.0,0.0,0.0,0.0,0.0,0.0,0.0,0.0,0.0,0.0,0.0,0.0,25,log4j-core\src\test\java\org\apache\logging\log4j\core\appender\ConsoleAppenderAnsiStyleJira319Main.java,0,0,0,0
org.apache.logging.log4j.core.appender.ConsoleAppenderAnsiStyleLayoutMain, 0, 0, 0, 0, 0, 0, 0, 0, 0, 0, 0, 0, 0, 0,0.0,0.0,0.0,0.0,0.0,0.0,0.0,0.0,0.0,0.0,0.0,0.0,0.0,18,log4j-core\src\test\java\org\apache\logging\log4j\core\appender\ConsoleAppenderAnsiStyleLayoutMain.java,0,0,0,0
org.apache.logging.log4j.core.appender.ConsoleAppenderAnsiStyleNameLayoutMain, 0, 0, 0, 0, 0, 0, 0, 0, 0, 0, 0, 0, 0, 0,0.0,0.0,0.0,0.0,0.0,0.0,0.0,0.0,0.0,0.0,0.0,0.0,0.0,18,log4j-core\src\test\java\org\apache\logging\log4j\core\appender\ConsoleAppenderAnsiStyleNameLayoutMain.java,0,0,0,0
org.apache.logging.log4j.core.appender.ConsoleAppenderHighlightLayoutDefaultMain, 0, 0, 0, 0, 0, 0, 0, 0, 0, 0, 0, 0, 0, 0,0.0,0.0,0.0,0.0,0.0,0.0,0.0,0.0,0.0,0.0,0.0,0.0,0.0,18,log4j-core\src\test\java\org\apache\logging\log4j\core\appender\ConsoleAppenderHighlightLayoutDefaultMain.java,0,0,0,0
org.apache.logging.log4j.core.appender.ConsoleAppenderHighlightLayoutLogbackMain, 0, 0, 0, 0, 0, 0, 0, 0, 0, 0, 0, 0, 0, 0,0.0,0.0,0.0,0.0,0.0,0.0,0.0,0.0,0.0,0.0,0.0,0.0,0.0,18,log4j-core\src\test\java\org\apache\logging\log4j\core\appender\ConsoleAppenderHighlightLayoutLogbackMain.java,0,0,0,0
org.apache.logging.log4j.core.appender.ConsoleAppenderHighlightLayoutMain, 0, 0, 0, 0, 0, 0, 0, 0, 0, 0, 0, 0, 0, 0,0.0,0.0,0.0,0.0,0.0,0.0,0.0,0.0,0.0,0.0,0.0,0.0,0.0,18,log4j-core\src\test\java\org\apache\logging\log4j\core\appender\ConsoleAppenderHighlightLayoutMain.java,0,0,0,0
org.apache.logging.log4j.core.appender.ConsoleAppenderNoAnsiStyleLayoutMain, 0, 0, 0, 0, 0, 0, 0, 0, 0, 0, 0, 0, 0, 0,0.0,0.0,0.0,0.0,0.0,0.0,0.0,0.0,0.0,0.0,0.0,0.0,0.0,19,log4j-core\src\test\java\org\apache\logging\log4j\core\appender\ConsoleAppenderNoAnsiStyleLayoutMain.java,0,6,1,8
org.apache.logging.log4j.core.appender.ConsoleAppenderTest, 0, 0, 0, 0, 0, 0, 0, 0, 0, 0, 0, 0, 0, 0,0.0,0.0,0.0,0.0,0.0,0.0,0.0,0.5,0.0,0.0,0.0,0.0,0.0,54,log4j-core\src\test\java\org\apache\logging\log4j\core\appender\ConsoleAppenderTest.java,2,50,26,104
org.apache.logging.log4j.core.appender.DefaultErrorHandler, 0, 0, 0, 0, 0, 0, 0, 0, 0, 0, 0, 0, 0, 0,0.0,0.0,0.0,0.0,0.0,0.0,0.0,0.0,0.0,0.0,0.0,0.0,0.0,42,log4j-core\src\main\java\org\apache\logging\log4j\core\appender\DefaultErrorHandler.java,0,0,0,0
org.apache.logging.log4j.core.appender.FailoverAppenderTest, 0, 0, 1, 0, 0, 0, 0, 0, 0, 0, 0, 0, 0, 1,0.0,0.0,0.0,0.0,0.0,0.0,0.0,0.5,0.0,0.0,0.0,0.0,0.0,49,log4j-core\src\test\java\org\apache\logging\log4j\core\appender\FailoverAppenderTest.java,0,0,0,0
org.apache.logging.log4j.core.appender.FailoversPlugin, 0, 0, 0, 0, 0, 0, 0, 0, 0, 0, 0, 0, 0, 0,0.0,0.0,0.0,0.0,0.0,0.0,0.0,0.0,0.0,0.0,0.0,0.0,0.0,17,log4j-core\src\main\java\org\apache\logging\log4j\core\appender\FailoversPlugin.java,0,0,0,0
org.apache.logging.log4j.core.appender.Jira739Test, 0, 0, 0, 0, 0, 0, 0, 0, 0, 0, 0, 0, 0, 0,0.0,0.0,0.0,0.0,0.0,0.0,0.0,0.0,0.0,0.0,0.0,0.0,0.0,16,log4j-core\src\test\java\org\apache\logging\log4j\core\appender\Jira739Test.java,0,0,0,0
org.apache.logging.log4j.core.appender.ManagerFactory, 0, 0, 0, 0, 0, 0, 0, 0, 0, 0, 0, 0, 0, 0,0.0,0.0,0.0,0.0,0.0,0.0,0.0,0.0,0.0,0.0,0.0,0.0,0.0,16,log4j-core\src\main\java\org\apache\logging\log4j\core\appender\ManagerFactory.java,0,0,0,0
org.apache.logging.log4j.core.appender.MemoryMappedFileAppenderLocationTest, 0, 0, 0, 0, 0, 0, 0, 0, 0, 0, 0, 0, 0, 0,0.0,0.0,0.0,0.0,0.0,0.0,0.0,0.0,0.0,0.0,0.0,0.0,0.0,48,log4j-core\src\test\java\org\apache\logging\log4j\core\appender\MemoryMappedFileAppenderLocationTest.java,0,0,0,0
org.apache.logging.log4j.core.appender.MemoryMappedFileAppenderRemapTest, 0, 0, 0, 0, 0, 0, 0, 0, 0, 0, 0, 0, 0, 0,0.0,0.0,0.0,0.0,0.0,0.0,0.0,0.0,0.0,0.0,0.0,0.0,0.0,48,log4j-core\src\test\java\org\apache\logging\log4j\core\appender\MemoryMappedFileAppenderRemapTest.java,0,0,0,0
org.apache.logging.log4j.core.appender.MemoryMappedFileAppenderSimpleTest, 0, 0, 0, 0, 0, 0, 0, 0, 0, 0, 0, 0, 0, 0,0.0,0.0,0.0,0.0,0.0,0.0,0.0,0.0,0.0,0.0,0.0,0.0,0.0,41,log4j-core\src\test\java\org\apache\logging\log4j\core\appender\MemoryMappedFileAppenderSimpleTest.java,0,0,0,0
org.apache.logging.log4j.core.appender.OutputStreamAppenderTest, 0, 0, 0, 0, 0, 0, 0, 0, 0, 0, 0, 0, 0, 0,0.0,0.0,0.0,0.0,0.0,0.0,0.0,0.25,0.0,0.0,0.0,0.0,0.0,17,log4j-core\src\test\java\org\apache\logging\log4j\core\appender\OutputStreamAppenderTest.java,0,0,0,0
org.apache.logging.log4j.core.appender.OutputStreamManager, 0, 0, 0, 0, 0, 0, 0, 0, 0, 0, 0, 0, 0, 0,0.0,0.0,0.0,0.0,0.0,0.0,0.0,0.7142857142857143,0.0,0.0,0.0,0.0,0.0,86,log4j-core\src\main\java\org\apache\logging\log4j\core\appender\OutputStreamManager.java,0,0,0,0
org.apache.logging.log4j.core.appender.ProgressConsoleTest, 0, 0, 0, 0, 0, 0, 0, 0, 0, 0, 0, 0, 0, 0,0.0,0.0,0.0,0.0,0.0,0.0,0.0,0.0,0.0,0.0,0.0,0.0,0.0,32,log4j-core\src\test\java\org\apache\logging\log4j\core\appender\ProgressConsoleTest.java,0,0,0,0
org.apache.logging.log4j.core.appender.RandomAccessFileAppenderTests, 0, 0, 0, 0, 0, 0, 0, 0, 0, 0, 0, 0, 0, 0,0.0,0.0,0.0,0.0,0.0,0.0,0.0,0.0,0.0,0.0,0.0,0.0,0.0,46,log4j-core\src\test\java\org\apache\logging\log4j\core\appender\RandomAccessFileAppenderTests.java,0,0,0,0
org.apache.logging.log4j.core.appender.RandomAccessFileManagerTest, 0, 0, 0, 0, 0, 0, 0, 0, 0, 0, 0, 0, 0, 0,0.0,0.0,0.0,0.0,0.0,0.0,0.0,0.0,0.0,0.0,0.0,0.0,0.0,80,log4j-core\src\test\java\org\apache\logging\log4j\core\appender\RandomAccessFileManagerTest.java,0,1,4,9
org.apache.logging.log4j.core.appender.SmtpAppender, 0, 0, 0, 0, 0, 0, 0, 1, 0, 0, 0, 0, 0, 1,0.0,0.0,0.0,0.0,0.0,0.0,0.0,0.25,0.0,0.0,0.0,0.0,0.0,62,log4j-core\src\main\java\org\apache\logging\log4j\core\appender\SmtpAppender.java,0,0,0,0
org.apache.logging.log4j.core.appender.SyslogAppender, 0, 0, 0, 0, 0, 0, 0, 1, 0, 0, 0, 0, 0, 1,0.0,0.0,0.0,0.25,0.0,0.0,0.0,0.0,0.0,0.0,0.0,0.0,0.0,58,log4j-core\src\main\java\org\apache\logging\log4j\core\appender\SyslogAppender.java,0,0,0,0
org.apache.logging.log4j.core.appender.SyslogAppenderTest, 0, 0, 0, 0, 0, 0, 0, 0, 0, 0, 0, 0, 0, 0,0.0,0.0,0.0,0.0,0.0,0.0,0.0,0.4,0.0,0.0,0.0,0.0,0.0,67,log4j-core\src\test\java\org\apache\logging\log4j\core\appender\SyslogAppenderTest.java,0,0,0,0
org.apache.logging.log4j.core.appender.TlsSyslogAppenderTest, 0, 0, 0, 0, 0, 0, 0, 0, 0, 0, 0, 0, 0, 0,0.0,0.0,0.0,0.14285714285714285,0.0,0.0,0.0,0.2857142857142857,0.0,0.0,0.0,0.0,0.0,65,log4j-core\src\test\java\org\apache\logging\log4j\core\appender\TlsSyslogAppenderTest.java,0,0,0,0
org.apache.logging.log4j.core.appender.TlsSyslogFrame, 0, 0, 0, 0, 0, 0, 0, 0, 0, 0, 0, 0, 0, 0,0.0,0.0,0.0,0.0,0.0,0.0,0.0,0.0,0.0,0.0,0.0,0.0,0.0,40,log4j-core\src\main\java\org\apache\logging\log4j\core\appender\TlsSyslogFrame.java,5,1,1,8
org.apache.logging.log4j.core.appender.TlsSyslogFrameTest, 0, 0, 0, 0, 0, 0, 0, 0, 0, 0, 0, 0, 0, 0,0.0,0.0,0.0,0.0,0.0,0.0,0.0,0.0,0.0,0.0,0.0,0.0,0.0,41,log4j-core\src\test\java\org\apache\logging\log4j\core\appender\TlsSyslogFrameTest.java,0,1,1,3
org.apache.logging.log4j.core.appender.XmlCompactFileAppenderValidationTest, 0, 0, 0, 0, 0, 0, 0, 0, 0, 0, 0, 0, 0, 0,0.0,0.0,0.0,0.0,0.0,0.0,0.0,0.0,0.0,0.0,0.0,0.0,0.0,51,log4j-core\src\test\java\org\apache\logging\log4j\core\appender\XmlCompactFileAppenderValidationTest.java,0,0,0,0
org.apache.logging.log4j.core.appender.XmlCompactFileAsyncAppenderValidationTest, 0, 0, 0, 0, 0, 0, 0, 0, 0, 0, 0, 0, 0, 0,0.0,0.0,0.0,0.0,0.0,0.0,0.0,0.0,0.0,0.0,0.0,0.0,0.0,33,log4j-core\src\test\java\org\apache\logging\log4j\core\appender\XmlCompactFileAsyncAppenderValidationTest.java,0,1,2,5
org.apache.logging.log4j.core.appender.db.AbstractDatabaseAppender, 0, 0, 0, 0, 0, 0, 0, 0, 0, 0, 0, 0, 0, 0,0.0,0.0,0.0,0.09090909090909091,0.0,0.0,0.0,0.18181818181818182,0.0,0.0,0.0,0.0,0.0,66,log4j-core\src\main\java\org\apache\logging\log4j\core\appender\db\AbstractDatabaseAppender.java,0,0,0,0
org.apache.logging.log4j.core.appender.db.AbstractDatabaseAppenderTest, 0, 0, 0, 0, 0, 0, 0, 0, 0, 0, 0, 0, 0, 0,0.0,0.0,0.0,0.0,0.0,0.0,0.0,0.0,0.0,0.0,0.0,0.0,0.0,109,log4j-core\src\test\java\org\apache\logging\log4j\core\appender\db\AbstractDatabaseAppenderTest.java,0,0,0,0
org.apache.logging.log4j.core.appender.db.AbstractDatabaseManager, 0, 0, 0, 0, 0, 0, 0, 0, 0, 0, 0, 0, 0, 0,0.0,0.0,0.0,0.0,0.0,0.0,0.0,0.25,0.0,0.0,0.0,0.0,0.0,93,log4j-core\src\main\java\org\apache\logging\log4j\core\appender\db\AbstractDatabaseManager.java,0,0,0,0
org.apache.logging.log4j.core.appender.db.AbstractDatabaseManagerTest, 0, 0, 0, 0, 0, 0, 0, 0, 0, 0, 0, 0, 0, 0,0.0,0.0,0.0,0.0,0.0,0.0,0.0,0.0,0.0,0.0,0.0,0.0,0.0,198,log4j-core\src\test\java\org\apache\logging\log4j\core\appender\db\AbstractDatabaseManagerTest.java,0,0,0,0
org.apache.logging.log4j.core.appender.db.jdbc.ColumnConfig, 0, 0, 0, 0, 0, 0, 0, 1, 0, 0, 0, 0, 0, 1,0.0,0.0,0.0,0.0,0.0,0.0,0.0,0.0,0.0,0.0,0.0,0.0,0.0,81,log4j-core\src\main\java\org\apache\logging\log4j\core\appender\db\jdbc\ColumnConfig.java,0,0,0,0
org.apache.logging.log4j.core.appender.db.jdbc.ColumnConfigTest, 0, 0, 0, 0, 0, 0, 0, 0, 0, 0, 0, 0, 0, 0,0.0,0.0,0.0,0.0,0.0,0.0,0.0,1.0,0.0,0.0,0.0,0.0,0.0,139,log4j-core\src\test\java\org\apache\logging\log4j\core\appender\db\jdbc\ColumnConfigTest.java,0,0,0,0
org.apache.logging.log4j.core.appender.db.jdbc.ConnectionSource, 0, 0, 0, 0, 0, 0, 0, 0, 0, 0, 0, 0, 0, 0,0.0,0.0,0.0,0.0,0.0,0.0,0.0,0.0,0.0,0.0,0.0,0.0,0.0,139,log4j-core\src\main\java\org\apache\logging\log4j\core\appender\db\jdbc\ConnectionSource.java,0,0,0,0
org.apache.logging.log4j.core.appender.db.jdbc.FactoryMethodConnectionSource, 0, 0, 0, 0, 0, 0, 0, 0, 0, 0, 0, 0, 0, 0,0.0,0.0,0.0,0.0,0.0,0.0,0.0,0.0,0.0,0.0,0.0,0.0,0.0,95,log4j-core\src\main\java\org\apache\logging\log4j\core\appender\db\jdbc\FactoryMethodConnectionSource.java,0,0,0,0
org.apache.logging.log4j.core.appender.db.jdbc.FactoryMethodConnectionSourceTest, 0, 0, 0, 0, 0, 0, 0, 0, 0, 0, 0, 0, 0, 0,0.0,0.0,0.0,0.0,0.0,0.0,0.0,0.0,0.0,0.0,0.0,0.0,0.0,107,log4j-core\src\test\java\org\apache\logging\log4j\core\appender\db\jdbc\FactoryMethodConnectionSourceTest.java,0,0,0,0
org.apache.logging.log4j.core.appender.db.jdbc.JdbcH2AppenderTest, 0, 0, 0, 0, 0, 0, 0, 0, 0, 0, 0, 0, 0, 0,0.0,0.0,0.0,0.0,0.0,0.0,0.0,0.0,0.0,0.0,0.0,0.0,0.0,21,log4j-core\src\test\java\org\apache\logging\log4j\core\appender\db\jdbc\JdbcH2AppenderTest.java,0,0,0,0
org.apache.logging.log4j.core.appender.db.jdbc.JdbcHyperSqlAppenderTest, 0, 0, 0, 0, 0, 0, 0, 0, 0, 0, 0, 0, 0, 0,0.0,0.0,0.0,0.0,0.0,0.0,0.0,0.0,0.0,0.0,0.0,0.0,0.0,22,log4j-core\src\test\java\org\apache\logging\log4j\core\appender\db\jdbc\JdbcHyperSqlAppenderTest.java,0,0,0,0
org.apache.logging.log4j.core.appender.db.jpa.JpaAppender, 0, 0, 0, 0, 0, 0, 0, 1, 0, 0, 0, 0, 0, 1,0.0,0.0,0.0,0.0,0.0,0.0,0.0,0.16666666666666666,0.0,0.0,0.0,0.0,0.0,62,log4j-core\src\main\java\org\apache\logging\log4j\core\appender\db\jpa\JpaAppender.java,0,0,0,0
org.apache.logging.log4j.core.appender.db.jpa.JpaDatabaseManager, 0, 0, 0, 0, 0, 0, 0, 1, 0, 0, 0, 0, 0, 1,0.0,0.0,0.0,0.0,0.0,0.0,0.0,0.3333333333333333,0.0,0.0,0.0,0.0,0.0,121,log4j-core\src\main\java\org\apache\logging\log4j\core\appender\db\jpa\JpaDatabaseManager.java,0,0,0,0
org.apache.logging.log4j.core.appender.db.jpa.JpaH2AppenderTest, 0, 0, 0, 0, 0, 0, 0, 0, 0, 0, 0, 0, 0, 0,0.0,0.0,0.0,0.0,0.0,0.0,0.0,0.0,0.0,0.0,0.0,0.0,0.0,26,log4j-core\src\test\java\org\apache\logging\log4j\core\appender\db\jpa\JpaH2AppenderTest.java,0,0,0,0
org.apache.logging.log4j.core.appender.db.jpa.JpaHyperSqlAppenderTest, 0, 0, 0, 0, 0, 0, 0, 0, 0, 0, 0, 0, 0, 0,0.0,0.0,0.0,0.0,0.0,0.0,0.0,1.0,0.0,0.0,0.0,0.0,0.0,78,log4j-core\src\test\java\org\apache\logging\log4j\core\appender\db\jpa\JpaHyperSqlAppenderTest.java,0,0,0,0
org.apache.logging.log4j.core.appender.db.jpa.converter.ContextMapAttributeConverter, 0, 0, 0, 0, 0, 0, 0, 0, 0, 0, 0, 0, 0, 0,0.0,0.0,0.0,0.0,0.0,0.0,0.0,0.0,0.0,0.0,0.0,0.0,0.0,13,log4j-core\src\main\java\org\apache\logging\log4j\core\appender\db\jpa\converter\ContextMapAttributeConverter.java,0,0,0,0
org.apache.logging.log4j.core.appender.db.jpa.converter.ContextMapJsonAttributeConverter, 0, 0, 0, 0, 0, 0, 0, 0, 0, 0, 0, 0, 0, 0,0.0,0.0,0.0,0.0,0.0,0.0,0.0,0.0,0.0,0.0,0.0,0.0,0.0,25,log4j-core\src\main\java\org\apache\logging\log4j\core\appender\db\jpa\converter\ContextMapJsonAttributeConverter.java,0,0,0,0
org.apache.logging.log4j.core.appender.db.jpa.converter.ContextStackAttributeConverterTest, 0, 0, 0, 0, 0, 0, 0, 0, 0, 0, 0, 0, 0, 0,0.0,0.0,0.0,0.0,0.0,0.0,0.0,0.0,0.0,0.0,0.0,0.0,0.0,33,log4j-core\src\test\java\org\apache\logging\log4j\core\appender\db\jpa\converter\ContextStackAttributeConverterTest.java,0,0,0,0
org.apache.logging.log4j.core.appender.db.jpa.converter.ContextStackJsonAttributeConverter, 0, 0, 0, 0, 0, 0, 0, 0, 0, 0, 0, 0, 0, 0,0.0,0.0,0.0,0.5,0.0,0.0,0.0,0.0,0.0,0.0,0.0,0.0,0.0,28,log4j-core\src\main\java\org\apache\logging\log4j\core\appender\db\jpa\converter\ContextStackJsonAttributeConverter.java,0,0,0,0
org.apache.logging.log4j.core.appender.db.jpa.converter.ContextStackJsonAttributeConverterTest, 0, 0, 0, 0, 0, 0, 0, 0, 0, 0, 0, 0, 0, 0,0.0,0.0,0.0,0.0,0.0,0.0,0.0,0.0,0.0,0.0,0.0,0.0,0.0,45,log4j-core\src\test\java\org\apache\logging\log4j\core\appender\db\jpa\converter\ContextStackJsonAttributeConverterTest.java,0,0,0,0
org.apache.logging.log4j.core.appender.db.jpa.converter.LevelAttributeConverter, 0, 0, 0, 0, 0, 0, 0, 0, 0, 0, 0, 0, 0, 0,0.0,0.0,0.0,0.0,0.0,0.0,0.0,0.0,0.0,0.0,0.0,0.0,0.0,16,log4j-core\src\main\java\org\apache\logging\log4j\core\appender\db\jpa\converter\LevelAttributeConverter.java,0,0,0,0
org.apache.logging.log4j.core.appender.db.jpa.converter.MarkerAttributeConverter, 0, 0, 0, 0, 0, 0, 0, 0, 0, 0, 0, 0, 0, 0,0.0,0.0,0.0,0.0,0.0,0.0,0.0,0.0,0.0,0.0,0.0,0.0,0.0,17,log4j-core\src\main\java\org\apache\logging\log4j\core\appender\db\jpa\converter\MarkerAttributeConverter.java,0,0,0,0
org.apache.logging.log4j.core.appender.db.jpa.converter.MarkerAttributeConverterTest, 0, 0, 0, 0, 0, 0, 0, 0, 0, 0, 0, 0, 0, 0,0.0,0.0,0.0,0.0,0.0,0.0,0.0,0.0,0.0,0.0,0.0,0.0,0.0,48,log4j-core\src\test\java\org\apache\logging\log4j\core\appender\db\jpa\converter\MarkerAttributeConverterTest.java,0,0,0,0
org.apache.logging.log4j.core.appender.db.jpa.converter.MessageAttributeConverter, 0, 0, 0, 0, 0, 0, 0, 0, 0, 0, 0, 0, 0, 0,0.0,0.0,0.0,0.0,0.0,0.0,0.0,0.0,0.0,0.0,0.0,0.0,0.0,17,log4j-core\src\main\java\org\apache\logging\log4j\core\appender\db\jpa\converter\MessageAttributeConverter.java,0,0,0,0
org.apache.logging.log4j.core.appender.db.jpa.converter.MessageAttributeConverterTest, 0, 0, 0, 0, 0, 0, 0, 0, 0, 0, 0, 0, 0, 0,0.0,0.0,0.0,0.0,0.0,0.0,0.0,0.0,0.0,0.0,0.0,0.0,0.0,30,log4j-core\src\test\java\org\apache\logging\log4j\core\appender\db\jpa\converter\MessageAttributeConverterTest.java,0,0,0,0
org.apache.logging.log4j.core.appender.db.jpa.converter.StackTraceElementAttributeConverter, 0, 0, 0, 0, 0, 0, 0, 0, 0, 0, 0, 0, 0, 0,0.0,0.0,0.0,0.0,0.0,0.0,0.0,0.0,0.0,0.0,0.0,0.0,0.0,42,log4j-core\src\main\java\org\apache\logging\log4j\core\appender\db\jpa\converter\StackTraceElementAttributeConverter.java,0,0,0,0
org.apache.logging.log4j.core.appender.db.jpa.converter.StackTraceElementAttributeConverterTest, 0, 0, 0, 0, 0, 0, 0, 0, 0, 0, 0, 0, 0, 0,0.0,0.0,0.0,0.0,0.0,0.0,0.0,0.0,0.0,0.0,0.0,0.0,0.0,86,log4j-core\src\test\java\org\apache\logging\log4j\core\appender\db\jpa\converter\StackTraceElementAttributeConverterTest.java,0,0,0,0
org.apache.logging.log4j.core.appender.db.jpa.converter.ThrowableAttributeConverterTest, 0, 0, 0, 0, 0, 0, 0, 0, 0, 0, 0, 0, 0, 0,0.0,0.0,0.0,0.0,0.0,0.0,0.0,0.0,0.0,0.0,0.0,0.0,0.0,53,log4j-core\src\test\java\org\apache\logging\log4j\core\appender\db\jpa\converter\ThrowableAttributeConverterTest.java,0,0,0,0
org.apache.logging.log4j.core.appender.mom.JmsAppender, 0, 0, 0, 0, 0, 0, 0, 1, 0, 0, 0, 0, 0, 1,0.0,0.0,0.0,0.0,0.0,0.0,0.0,0.0,0.0,0.0,0.0,0.0,0.0,125,log4j-core\src\main\java\org\apache\logging\log4j\core\appender\mom\JmsAppender.java,0,0,0,0
org.apache.logging.log4j.core.appender.rewrite.RewritePolicy, 0, 0, 0, 0, 0, 0, 0, 0, 0, 0, 0, 0, 0, 0,0.0,0.0,0.0,0.0,0.0,0.0,0.0,0.0,0.0,0.0,0.0,0.0,0.0,125,log4j-core\src\main\java\org\apache\logging\log4j\core\appender\rewrite\RewritePolicy.java,0,0,0,0
org.apache.logging.log4j.core.appender.rewrite.TestRewritePolicy, 0, 0, 0, 0, 0, 0, 0, 0, 0, 0, 0, 0, 0, 0,0.0,0.0,0.0,0.0,0.0,0.0,0.0,0.0,0.0,0.0,0.0,0.0,0.0,12,log4j-core\src\test\java\org\apache\logging\log4j\core\appender\rewrite\TestRewritePolicy.java,0,0,0,0
org.apache.logging.log4j.core.appender.rolling.AbstractRolloverStrategy, 0, 0, 0, 0, 0, 0, 0, 0, 0, 0, 0, 0, 0, 0,0.0,0.0,0.0,0.0,0.0,0.0,0.0,0.0,0.0,0.0,0.0,0.0,0.0,3,log4j-core\src\main\java\org\apache\logging\log4j\core\appender\rolling\AbstractRolloverStrategy.java,0,0,0,0
org.apache.logging.log4j.core.appender.rolling.DefaultRolloverStrategy, 0, 0, 0, 1, 0, 0, 0, 1, 0, 0, 0, 0, 0, 2,0.0,0.0,0.0,0.0,0.0,0.0,0.0,0.16666666666666666,0.0,0.0,0.0,0.0,0.0,237,log4j-core\src\main\java\org\apache\logging\log4j\core\appender\rolling\DefaultRolloverStrategy.java,0,0,0,0
org.apache.logging.log4j.core.appender.rolling.OnStartupTriggeringPolicy, 0, 0, 0, 0, 0, 0, 0, 0, 0, 0, 0, 0, 0, 0,0.0,0.0,0.0,0.0,0.0,0.0,0.0,0.25,0.0,0.0,0.0,0.0,0.0,43,log4j-core\src\main\java\org\apache\logging\log4j\core\appender\rolling\OnStartupTriggeringPolicy.java,0,0,0,0
org.apache.logging.log4j.core.appender.rolling.OnStartupTriggeringPolicyTest, 0, 0, 0, 0, 0, 0, 0, 0, 0, 0, 0, 0, 0, 0,0.0,0.0,0.0,0.0,0.0,0.0,0.0,0.0,0.0,0.0,0.0,0.0,0.0,29,log4j-core\src\test\java\org\apache\logging\log4j\core\appender\rolling\OnStartupTriggeringPolicyTest.java,0,0,0,0
org.apache.logging.log4j.core.appender.rolling.PatternProcessorTest, 0, 0, 0, 0, 0, 0, 0, 0, 0, 0, 0, 0, 0, 0,0.0,0.0,0.0,0.0,0.0,0.0,0.0,0.0,0.0,0.0,0.0,0.0,0.0,145,log4j-core\src\test\java\org\apache\logging\log4j\core\appender\rolling\PatternProcessorTest.java,0,0,0,0
org.apache.logging.log4j.core.appender.rolling.RollingAppenderSizeTest, 0, 0, 1, 0, 0, 0, 0, 0, 0, 0, 0, 0, 0, 1,0.0,0.0,0.0,0.0,0.0,0.0,0.0,0.0,0.0,0.0,0.0,0.0,0.0,49,log4j-core\src\test\java\org\apache\logging\log4j\core\appender\rolling\RollingAppenderSizeTest.java,0,0,0,0
org.apache.logging.log4j.core.appender.rolling.RollingAppenderTimeAndSizeTest, 0, 0, 1, 0, 0, 0, 0, 0, 0, 0, 0, 0, 0, 1,0.0,0.0,0.0,0.0,0.0,0.0,0.0,0.0,0.0,0.0,0.0,0.0,0.0,37,log4j-core\src\test\java\org\apache\logging\log4j\core\appender\rolling\RollingAppenderTimeAndSizeTest.java,0,0,0,0
org.apache.logging.log4j.core.appender.rolling.RollingAppenderTimeTest, 0, 0, 1, 0, 0, 0, 0, 0, 0, 0, 0, 0, 0, 1,0.0,0.0,0.0,0.0,0.0,0.0,0.0,0.0,0.0,0.0,0.0,0.0,0.0,44,log4j-core\src\test\java\org\apache\logging\log4j\core\appender\rolling\RollingAppenderTimeTest.java,0,0,0,0
org.apache.logging.log4j.core.appender.rolling.RollingAppenderUncompressedTest, 0, 0, 0, 0, 0, 0, 0, 0, 0, 0, 0, 0, 0, 0,0.0,0.0,0.0,0.0,0.0,0.0,0.0,0.0,0.0,0.0,0.0,0.0,0.0,48,log4j-core\src\test\java\org\apache\logging\log4j\core\appender\rolling\RollingAppenderUncompressedTest.java,0,0,0,0
org.apache.logging.log4j.core.appender.rolling.RollingFileAppenderAccessTest, 0, 0, 0, 0, 0, 0, 0, 0, 0, 0, 0, 0, 0, 0,0.0,0.0,0.0,0.0,0.0,0.0,0.0,0.6666666666666666,0.0,0.0,0.0,0.0,0.0,15,log4j-core\src\test\java\org\apache\logging\log4j\core\appender\rolling\RollingFileAppenderAccessTest.java,0,0,0,0
org.apache.logging.log4j.core.appender.rolling.RollingFileManager, 0, 0, 0, 0, 0, 0, 0, 1, 0, 0, 0, 0, 0, 1,0.0,0.0,0.0,0.14285714285714285,0.0,0.0,0.0,0.2857142857142857,0.0,0.0,0.0,0.0,0.0,181,log4j-core\src\main\java\org\apache\logging\log4j\core\appender\rolling\RollingFileManager.java,0,0,0,0
org.apache.logging.log4j.core.appender.rolling.RollingRandomAccessFileManager, 0, 0, 0, 0, 0, 0, 0, 1, 0, 0, 0, 0, 0, 1,0.0,0.0,0.0,0.0,0.0,0.0,0.0,0.25,0.0,0.0,0.0,0.0,0.0,167,log4j-core\src\main\java\org\apache\logging\log4j\core\appender\rolling\RollingRandomAccessFileManager.java,8,1,3,15
org.apache.logging.log4j.core.appender.rolling.RollingRandomAccessFileManagerHeaderFooterTest, 0, 0, 1, 0, 0, 0, 0, 0, 0, 0, 0, 0, 0, 1,0.0,0.0,0.0,0.0,0.0,0.0,0.0,0.0,0.0,0.0,0.0,0.0,0.0,74,log4j-core\src\test\java\org\apache\logging\log4j\core\appender\rolling\RollingRandomAccessFileManagerHeaderFooterTest.java,0,0,0,0
org.apache.logging.log4j.core.appender.rolling.RollingRandomAccessFileManagerTest, 0, 0, 0, 0, 0, 0, 0, 0, 0, 0, 0, 0, 0, 0,0.0,0.0,0.0,0.0,0.0,0.0,0.0,0.6666666666666666,0.0,0.0,0.0,0.0,0.0,125,log4j-core\src\test\java\org\apache\logging\log4j\core\appender\rolling\RollingRandomAccessFileManagerTest.java,0,1,3,7
org.apache.logging.log4j.core.appender.rolling.RolloverDescription, 0, 0, 0, 0, 0, 0, 0, 0, 0, 0, 0, 0, 0, 0,0.0,0.0,0.0,0.0,0.0,0.0,0.0,0.0,0.0,0.0,0.0,0.0,0.0,125,log4j-core\src\main\java\org\apache\logging\log4j\core\appender\rolling\RolloverDescription.java,0,0,0,0
org.apache.logging.log4j.core.appender.rolling.RolloverDescriptionImpl, 0, 0, 0, 0, 0, 0, 0, 0, 0, 0, 0, 0, 0, 0,0.0,0.0,0.0,1.0,0.0,0.0,0.0,1.0,0.0,0.0,0.0,0.0,0.0,32,log4j-core\src\main\java\org\apache\logging\log4j\core\appender\rolling\RolloverDescriptionImpl.java,0,0,0,0
org.apache.logging.log4j.core.appender.rolling.RolloverStrategy, 0, 0, 0, 0, 0, 0, 0, 0, 0, 0, 0, 0, 0, 0,0.0,0.0,0.0,0.0,0.0,0.0,0.0,0.0,0.0,0.0,0.0,0.0,0.0,32,log4j-core\src\main\java\org\apache\logging\log4j\core\appender\rolling\RolloverStrategy.java,0,0,0,0
org.apache.logging.log4j.core.appender.rolling.TimeBasedTriggeringPolicy, 0, 0, 0, 0, 0, 0, 0, 0, 0, 0, 0, 0, 0, 0,0.0,0.0,0.0,0.0,0.0,0.0,0.0,0.5,0.0,0.0,0.0,0.0,0.0,40,log4j-core\src\main\java\org\apache\logging\log4j\core\appender\rolling\TimeBasedTriggeringPolicy.java,0,0,0,0
org.apache.logging.log4j.core.appender.rolling.TriggeringPolicy, 0, 0, 0, 0, 0, 0, 0, 0, 0, 0, 0, 0, 0, 0,0.0,0.0,0.0,0.0,0.0,0.0,0.0,0.0,0.0,0.0,0.0,0.0,0.0,40,log4j-core\src\main\java\org\apache\logging\log4j\core\appender\rolling\TriggeringPolicy.java,0,0,0,0
org.apache.logging.log4j.core.appender.rolling.action.AbstractAction, 0, 0, 0, 0, 0, 0, 0, 0, 0, 0, 0, 0, 0, 0,0.0,0.0,0.0,0.0,0.0,0.0,0.0,0.0,0.0,0.0,0.0,0.0,0.0,31,log4j-core\src\main\java\org\apache\logging\log4j\core\appender\rolling\action\AbstractAction.java,0,0,0,0
org.apache.logging.log4j.core.appender.rolling.action.Action, 0, 0, 0, 0, 0, 0, 0, 0, 0, 0, 0, 0, 0, 0,0.0,0.0,0.0,0.0,0.0,0.0,0.0,0.0,0.0,0.0,0.0,0.0,0.0,31,log4j-core\src\main\java\org\apache\logging\log4j\core\appender\rolling\action\Action.java,0,0,0,0
org.apache.logging.log4j.core.appender.rolling.action.CompositeAction, 0, 0, 0, 0, 0, 0, 0, 0, 0, 0, 0, 0, 0, 0,0.0,0.0,0.0,0.0,0.0,0.0,0.0,0.0,0.0,0.0,0.0,0.0,0.0,49,log4j-core\src\main\java\org\apache\logging\log4j\core\appender\rolling\action\CompositeAction.java,0,0,0,0
org.apache.logging.log4j.core.appender.rolling.action.FileRenameAction, 0, 0, 0, 0, 0, 0, 0, 0, 0, 0, 0, 0, 0, 0,0.0,0.0,0.0,0.3333333333333333,0.0,0.0,0.0,0.3333333333333333,0.0,0.0,0.0,0.0,0.0,87,log4j-core\src\main\java\org\apache\logging\log4j\core\appender\rolling\action\FileRenameAction.java,0,0,0,0
org.apache.logging.log4j.core.appender.rolling.action.FileRenameActionTest, 0, 0, 0, 0, 0, 0, 0, 0, 0, 0, 0, 0, 0, 0,0.0,0.0,0.0,0.0,0.0,0.0,0.0,0.0,0.0,0.0,0.0,0.0,0.0,83,log4j-core\src\test\java\org\apache\logging\log4j\core\appender\rolling\action\FileRenameActionTest.java,0,0,0,0
org.apache.logging.log4j.core.appender.rolling.action.GzCompressAction, 0, 0, 0, 0, 0, 0, 0, 0, 0, 0, 0, 0, 0, 0,0.0,0.0,0.0,0.5,0.0,0.0,0.0,0.5,0.0,0.0,0.0,0.0,0.0,51,log4j-core\src\main\java\org\apache\logging\log4j\core\appender\rolling\action\GzCompressAction.java,0,0,0,0
org.apache.logging.log4j.core.appender.rolling.action.ZipCompressAction, 0, 0, 0, 0, 0, 0, 0, 0, 0, 0, 0, 0, 0, 0,0.0,0.0,0.0,0.5,0.0,0.0,0.0,0.5,0.0,0.0,0.0,0.0,0.0,55,log4j-core\src\main\java\org\apache\logging\log4j\core\appender\rolling\action\ZipCompressAction.java,0,0,0,0
org.apache.logging.log4j.core.appender.routing.JsonRoutingAppender2Test, 0, 0, 0, 0, 0, 0, 0, 0, 0, 0, 0, 0, 0, 0,0.0,0.0,0.0,0.0,0.0,0.0,0.0,0.5,0.0,0.0,0.0,0.0,0.0,35,log4j-core\src\test\java\org\apache\logging\log4j\core\appender\routing\JsonRoutingAppender2Test.java,0,0,0,0
org.apache.logging.log4j.core.appender.routing.JsonRoutingAppenderTest, 0, 0, 0, 0, 0, 0, 0, 0, 0, 0, 0, 0, 0, 0,0.0,0.0,0.0,0.0,0.0,0.0,0.0,0.5,0.0,0.0,0.0,0.0,0.0,35,log4j-core\src\test\java\org\apache\logging\log4j\core\appender\routing\JsonRoutingAppenderTest.java,0,0,0,0
org.apache.logging.log4j.core.appender.routing.RoutingAppenderTest, 0, 0, 1, 0, 0, 0, 0, 0, 0, 0, 0, 0, 0, 1,0.0,0.0,0.0,0.0,0.0,0.0,0.0,0.3333333333333333,0.0,0.0,0.0,0.0,0.0,35,log4j-core\src\test\java\org\apache\logging\log4j\core\appender\routing\RoutingAppenderTest.java,0,0,0,0
org.apache.logging.log4j.core.appender.routing.RoutingDefaultAppenderTest, 0, 0, 1, 0, 0, 0, 0, 0, 0, 0, 0, 0, 0, 1,0.0,0.0,0.0,0.0,0.0,0.0,0.0,0.3333333333333333,0.0,0.0,0.0,0.0,0.0,30,log4j-core\src\test\java\org\apache\logging\log4j\core\appender\routing\RoutingDefaultAppenderTest.java,0,0,0,0
org.apache.logging.log4j.core.async.AsyncLoggerConfig, 0, 0, 0, 0, 0, 0, 0, 1, 0, 0, 0, 0, 0, 1,0.0,0.0,0.0,0.14285714285714285,0.0,0.0,0.0,0.0,0.0,0.0,0.0,0.0,0.0,114,log4j-core\src\main\java\org\apache\logging\log4j\core\async\AsyncLoggerConfig.java,0,0,1,2
org.apache.logging.log4j.core.async.AsyncLoggerConfigHelper, 0, 0, 0, 1, 0, 0, 0, 0, 0, 0, 0, 0, 0, 1,0.0,0.0,0.0,0.0,0.0,0.0,0.0,0.3333333333333333,0.0,0.0,0.0,0.0,0.0,201,log4j-core\src\main\java\org\apache\logging\log4j\core\async\AsyncLoggerConfigHelper.java,4,1,7,19
org.apache.logging.log4j.core.async.AsyncLoggerConfigUseAfterShutdownTest, 0, 0, 0, 0, 0, 0, 0, 0, 0, 0, 0, 0, 0, 0,0.0,0.0,0.0,0.0,0.0,0.0,0.0,0.0,0.0,0.0,0.0,0.0,0.0,13,log4j-core\src\test\java\org\apache\logging\log4j\core\async\AsyncLoggerConfigUseAfterShutdownTest.java,0,1,1,3
org.apache.logging.log4j.core.async.AsyncLoggerContext, 0, 0, 0, 0, 0, 0, 0, 0, 0, 0, 0, 0, 0, 0,0.0,0.0,0.0,0.0,0.0,0.0,0.0,0.0,0.0,0.0,0.0,0.0,0.0,27,log4j-core\src\main\java\org\apache\logging\log4j\core\async\AsyncLoggerContext.java,0,0,0,0
org.apache.logging.log4j.core.async.AsyncLoggerContextSelector, 0, 0, 0, 0, 0, 0, 0, 0, 0, 0, 0, 0, 0, 0,0.0,0.0,0.0,0.0,0.0,0.0,0.0,0.0,0.0,0.0,0.0,0.0,0.0,22,log4j-core\src\main\java\org\apache\logging\log4j\core\async\AsyncLoggerContextSelector.java,0,0,0,0
org.apache.logging.log4j.core.async.AsyncLoggerContextSelectorTest, 0, 0, 0, 0, 0, 0, 0, 0, 0, 0, 0, 0, 0, 0,0.0,0.0,0.0,0.0,0.0,0.0,0.0,0.0,0.0,0.0,0.0,0.0,0.0,28,log4j-core\src\test\java\org\apache\logging\log4j\core\async\AsyncLoggerContextSelectorTest.java,0,0,0,0
org.apache.logging.log4j.core.async.AsyncLoggerContextTest, 0, 0, 0, 0, 0, 0, 0, 0, 0, 0, 0, 0, 0, 0,0.0,0.0,0.0,0.0,0.0,0.0,0.0,0.0,0.0,0.0,0.0,0.0,0.0,9,log4j-core\src\test\java\org\apache\logging\log4j\core\async\AsyncLoggerContextTest.java,0,1,1,3
org.apache.logging.log4j.core.async.AsyncLoggerTestCachedThreadName, 0, 0, 0, 0, 0, 0, 0, 0, 0, 0, 0, 0, 0, 0,0.0,0.0,0.0,0.0,0.0,0.0,0.0,0.0,0.0,0.0,0.0,0.0,0.0,33,log4j-core\src\test\java\org\apache\logging\log4j\core\async\AsyncLoggerTestCachedThreadName.java,0,1,5,11
org.apache.logging.log4j.core.async.AsyncLoggerTestUncachedThreadName, 0, 0, 0, 0, 0, 0, 0, 0, 0, 0, 0, 0, 0, 0,0.0,0.0,0.0,0.0,0.0,0.0,0.0,0.0,0.0,0.0,0.0,0.0,0.0,34,log4j-core\src\test\java\org\apache\logging\log4j\core\async\AsyncLoggerTestUncachedThreadName.java,0,1,5,11
org.apache.logging.log4j.core.async.AsyncLoggerThreadNameStrategyTest, 0, 0, 0, 0, 0, 0, 0, 0, 0, 0, 0, 0, 0, 0,0.0,0.0,0.0,0.0,0.0,0.0,0.0,0.0,0.0,0.0,0.0,0.0,0.0,39,log4j-core\src\test\java\org\apache\logging\log4j\core\async\AsyncLoggerThreadNameStrategyTest.java,0,0,0,0
org.apache.logging.log4j.core.async.AsyncLoggerTimestampMessageTest, 0, 0, 0, 0, 0, 0, 0, 0, 0, 0, 0, 0, 0, 0,0.0,0.0,0.0,0.0,0.0,0.0,0.0,0.0,0.0,0.0,0.0,0.0,0.0,48,log4j-core\src\test\java\org\apache\logging\log4j\core\async\AsyncLoggerTimestampMessageTest.java,0,1,5,11
org.apache.logging.log4j.core.async.AsyncLoggerUseAfterShutdownTest, 0, 0, 0, 0, 0, 0, 0, 0, 0, 0, 0, 0, 0, 0,0.0,0.0,0.0,0.0,0.0,0.0,0.0,0.0,0.0,0.0,0.0,0.0,0.0,21,log4j-core\src\test\java\org\apache\logging\log4j\core\async\AsyncLoggerUseAfterShutdownTest.java,0,1,1,3
org.apache.logging.log4j.core.async.AsyncLoggersWithAsyncAppenderTest, 0, 0, 0, 0, 0, 0, 0, 0, 0, 0, 0, 0, 0, 0,0.0,0.0,0.0,0.0,0.0,0.0,0.0,1.0,0.0,0.0,0.0,0.0,0.0,37,log4j-core\src\test\java\org\apache\logging\log4j\core\async\AsyncLoggersWithAsyncAppenderTest.java,0,0,0,0
org.apache.logging.log4j.core.async.AsyncLoggersWithAsyncLoggerConfigTest, 0, 0, 0, 0, 0, 0, 0, 0, 0, 0, 0, 0, 0, 0,0.0,0.0,0.0,0.0,0.0,0.0,0.0,1.0,0.0,0.0,0.0,0.0,0.0,37,log4j-core\src\test\java\org\apache\logging\log4j\core\async\AsyncLoggersWithAsyncLoggerConfigTest.java,0,0,0,0
org.apache.logging.log4j.core.async.AsyncRootReloadTest, 0, 0, 1, 0, 0, 0, 0, 0, 0, 0, 0, 0, 0, 1,0.0,0.0,0.0,0.0,0.0,0.0,0.0,0.0,0.0,0.0,0.0,0.0,0.0,20,log4j-core\src\test\java\org\apache\logging\log4j\core\async\AsyncRootReloadTest.java,0,0,0,0
org.apache.logging.log4j.core.async.DaemonThreadFactory, 0, 0, 0, 0, 0, 0, 0, 0, 0, 0, 0, 0, 0, 0,0.0,0.0,0.0,0.0,0.0,0.0,0.0,0.0,0.0,0.0,0.0,0.0,0.0,23,log4j-core\src\main\java\org\apache\logging\log4j\core\async\DaemonThreadFactory.java,0,0,0,0
org.apache.logging.log4j.core.async.RingBufferLogEventHandler, 0, 0, 0, 0, 0, 0, 0, 0, 0, 0, 0, 0, 0, 0,0.0,0.0,0.0,0.0,0.0,0.0,0.0,0.0,0.0,0.0,0.0,0.0,0.0,20,log4j-core\src\main\java\org\apache\logging\log4j\core\async\RingBufferLogEventHandler.java,0,0,0,0
org.apache.logging.log4j.core.async.perftest.IPerfTestRunner, 0, 0, 0, 0, 0, 0, 0, 0, 0, 0, 0, 0, 0, 0,0.0,0.0,0.0,0.0,0.0,0.0,0.0,0.0,0.0,0.0,0.0,0.0,0.0,20,log4j-core\src\test\java\org\apache\logging\log4j\core\async\perftest\IPerfTestRunner.java,0,0,0,0
org.apache.logging.log4j.core.async.perftest.MtPerfTest, 0, 0, 0, 0, 0, 0, 0, 0, 0, 0, 0, 0, 0, 0,1.0,0.0,0.0,0.0,0.0,0.0,0.0,1.0,0.0,0.0,0.0,0.0,0.0,74,log4j-core\src\test\java\org\apache\logging\log4j\core\async\perftest\MtPerfTest.java,0,0,0,0
org.apache.logging.log4j.core.async.perftest.PerfTest, 1, 0, 0, 0, 0, 0, 0, 1, 0, 0, 0, 0, 0, 2,0.0,0.0,0.0,0.0,0.0,0.0,0.0,0.0,0.0,0.0,0.0,0.0,0.0,146,log4j-core\src\test\java\org\apache\logging\log4j\core\async\perftest\PerfTest.java,0,0,0,0
org.apache.logging.log4j.core.async.perftest.RunLog4j1, 0, 0, 0, 0, 0, 0, 0, 0, 0, 0, 0, 0, 0, 0,0.0,0.0,0.0,0.0,0.0,0.0,0.0,0.0,0.0,0.0,0.0,0.0,0.0,40,log4j-core\src\test\java\org\apache\logging\log4j\core\async\perftest\RunLog4j1.java,0,0,0,0
org.apache.logging.log4j.core.async.perftest.RunLog4j2, 0, 0, 0, 0, 0, 0, 0, 0, 0, 0, 0, 0, 0, 0,0.0,0.0,0.0,0.0,0.0,0.0,0.0,0.0,0.0,0.0,0.0,0.0,0.0,40,log4j-core\src\test\java\org\apache\logging\log4j\core\async\perftest\RunLog4j2.java,0,1,1,3
org.apache.logging.log4j.core.async.perftest.RunLogback, 0, 0, 0, 0, 0, 0, 0, 0, 0, 0, 0, 0, 0, 0,0.0,0.0,0.0,0.0,0.0,0.0,0.0,0.0,0.0,0.0,0.0,0.0,0.0,40,log4j-core\src\test\java\org\apache\logging\log4j\core\async\perftest\RunLogback.java,0,0,0,0
org.apache.logging.log4j.core.config.AppenderControl, 0, 0, 0, 0, 0, 0, 0, 0, 0, 0, 0, 0, 0, 0,0.0,0.0,0.0,0.0,0.0,0.0,0.0,0.0,0.0,0.0,0.0,0.0,0.0,60,log4j-core\src\main\java\org\apache\logging\log4j\core\config\AppenderControl.java,0,0,0,0
org.apache.logging.log4j.core.config.AppenderRef, 0, 0, 0, 0, 0, 0, 0, 0, 0, 0, 0, 0, 0, 0,0.0,0.0,0.3333333333333333,0.0,0.0,0.0,0.0,0.3333333333333333,0.0,0.0,0.0,0.0,0.0,35,log4j-core\src\main\java\org\apache\logging\log4j\core\config\AppenderRef.java,0,0,0,0
org.apache.logging.log4j.core.config.ConfigurationException, 0, 0, 0, 0, 0, 0, 0, 0, 0, 0, 0, 0, 0, 0,0.0,0.0,0.0,0.0,0.0,0.0,0.0,0.0,0.0,0.0,0.0,0.0,0.0,9,log4j-core\src\main\java\org\apache\logging\log4j\core\config\ConfigurationException.java,0,0,0,0
org.apache.logging.log4j.core.config.ConfigurationListener, 0, 0, 0, 0, 0, 0, 0, 0, 0, 0, 0, 0, 0, 0,0.0,0.0,0.0,0.0,0.0,0.0,0.0,0.0,0.0,0.0,0.0,0.0,0.0,9,log4j-core\src\main\java\org\apache\logging\log4j\core\config\ConfigurationListener.java,0,0,0,0
org.apache.logging.log4j.core.config.ConfigurationMonitor, 0, 0, 0, 0, 0, 0, 0, 0, 0, 0, 0, 0, 0, 0,0.0,0.0,0.0,0.0,0.0,0.0,0.0,0.0,0.0,0.0,0.0,0.0,0.0,9,log4j-core\src\main\java\org\apache\logging\log4j\core\config\ConfigurationMonitor.java,0,0,0,0
org.apache.logging.log4j.core.config.ConfigurationSource, 0, 0, 0, 0, 0, 0, 0, 0, 0, 0, 0, 0, 0, 0,0.0,0.0,0.0,0.0,0.0,0.0,0.0,0.2,0.0,0.0,0.0,0.0,0.0,74,log4j-core\src\main\java\org\apache\logging\log4j\core\config\ConfigurationSource.java,0,0,0,0
org.apache.logging.log4j.core.config.Configurator, 0, 0, 0, 0, 0, 0, 0, 0, 0, 0, 0, 0, 0, 0,0.045454545454545456,0.0,0.045454545454545456,0.0,0.0,0.0,0.0,0.045454545454545456,0.0,0.0,0.0,0.0,0.0,72,log4j-core\src\main\java\org\apache\logging\log4j\core\config\Configurator.java,0,0,0,0
org.apache.logging.log4j.core.config.CustomConfigurationTest, 0, 0, 1, 0, 0, 0, 0, 0, 0, 0, 0, 0, 0, 1,0.0,0.0,0.0,0.0,0.0,0.0,0.0,0.0,0.0,0.0,0.0,0.0,0.0,47,log4j-core\src\test\java\org\apache\logging\log4j\core\config\CustomConfigurationTest.java,0,0,0,0
org.apache.logging.log4j.core.config.CustomLevelConfig, 0, 0, 0, 0, 0, 0, 0, 0, 0, 0, 0, 0, 0, 0,0.0,0.0,0.0,0.0,0.0,0.0,0.0,0.0,0.0,0.0,0.0,0.0,0.0,41,log4j-core\src\main\java\org\apache\logging\log4j\core\config\CustomLevelConfig.java,0,0,0,0
org.apache.logging.log4j.core.config.CustomLevels, 0, 0, 0, 0, 0, 0, 0, 0, 0, 0, 0, 0, 0, 0,0.0,0.0,0.0,0.0,0.0,0.0,0.0,0.0,0.0,0.0,0.0,0.0,0.0,14,log4j-core\src\main\java\org\apache\logging\log4j\core\config\CustomLevels.java,0,0,0,0
org.apache.logging.log4j.core.config.DefaultConfiguration, 0, 0, 0, 0, 0, 0, 0, 0, 0, 0, 0, 0, 0, 0,0.0,0.0,0.0,0.0,0.0,0.0,0.0,0.25,0.0,0.0,0.0,0.0,0.0,26,log4j-core\src\main\java\org\apache\logging\log4j\core\config\DefaultConfiguration.java,0,0,0,0
org.apache.logging.log4j.core.config.DefaultConfigurationMonitor, 0, 0, 0, 0, 0, 0, 0, 0, 0, 0, 0, 0, 0, 0,0.0,0.0,0.0,0.0,0.0,0.0,0.0,0.0,0.0,0.0,0.0,0.0,0.0,5,log4j-core\src\main\java\org\apache\logging\log4j\core\config\DefaultConfigurationMonitor.java,0,0,0,0
org.apache.logging.log4j.core.config.FileConfigurationMonitor, 0, 0, 0, 0, 0, 0, 0, 0, 0, 0, 0, 0, 0, 0,0.0,0.0,0.0,0.0,0.0,0.0,0.0,0.0,0.0,0.0,0.0,0.0,0.0,55,log4j-core\src\main\java\org\apache\logging\log4j\core\config\FileConfigurationMonitor.java,0,0,5,10
org.apache.logging.log4j.core.config.FileOutputTest, 0, 0, 1, 0, 0, 0, 0, 0, 0, 0, 0, 0, 0, 1,0.0,0.0,0.0,0.0,0.0,0.0,0.0,0.0,0.0,0.0,0.0,0.0,0.0,12,log4j-core\src\test\java\org\apache\logging\log4j\core\config\FileOutputTest.java,0,0,0,0
org.apache.logging.log4j.core.config.Loggers, 0, 0, 0, 0, 0, 0, 0, 0, 0, 0, 0, 0, 0, 0,0.0,0.0,0.0,0.0,0.0,0.0,0.0,0.0,0.0,0.0,0.0,0.0,0.0,14,log4j-core\src\main\java\org\apache\logging\log4j\core\config\Loggers.java,0,0,0,0
org.apache.logging.log4j.core.config.NullConfiguration, 0, 0, 0, 0, 0, 0, 0, 0, 0, 0, 0, 0, 0, 0,0.0,0.0,0.0,0.0,0.0,0.0,0.0,0.0,0.0,0.0,0.0,0.0,0.0,10,log4j-core\src\main\java\org\apache\logging\log4j\core\config\NullConfiguration.java,0,0,0,0
org.apache.logging.log4j.core.config.Property, 0, 0, 0, 0, 0, 0, 0, 0, 0, 0, 0, 0, 0, 0,0.0,0.0,0.0,0.0,0.0,0.0,0.0,1.0,0.0,0.0,0.0,0.0,0.0,28,log4j-core\src\main\java\org\apache\logging\log4j\core\config\Property.java,0,0,0,0
org.apache.logging.log4j.core.config.Reconfigurable, 0, 0, 0, 0, 0, 0, 0, 0, 0, 0, 0, 0, 0, 0,0.0,0.0,0.0,0.0,0.0,0.0,0.0,0.0,0.0,0.0,0.0,0.0,0.0,28,log4j-core\src\main\java\org\apache\logging\log4j\core\config\Reconfigurable.java,0,0,0,0
org.apache.logging.log4j.core.config.ReconfigurationDeadlockTest, 0, 0, 1, 0, 0, 0, 0, 0, 0, 0, 0, 0, 0, 1,0.0,0.0,0.0,0.0,0.0,0.0,0.0,0.0,0.0,0.0,0.0,0.0,0.0,82,log4j-core\src\test\java\org\apache\logging\log4j\core\config\ReconfigurationDeadlockTest.java,0,0,0,0
org.apache.logging.log4j.core.config.TestConfiguratorError, 0, 0, 0, 0, 0, 0, 0, 0, 0, 0, 0, 0, 0, 0,0.0,0.0,0.0,0.0,0.0,0.0,0.0,0.0,0.0,0.0,0.0,0.0,0.0,17,log4j-core\src\test\java\org\apache\logging\log4j\core\config\TestConfiguratorError.java,0,0,0,0
org.apache.logging.log4j.core.config.json.JsonConfigurationFactory, 0, 0, 0, 0, 0, 0, 0, 0, 0, 0, 0, 0, 0, 0,0.0,0.0,0.0,0.0,0.0,0.0,0.0,0.0,0.0,0.0,0.0,0.0,0.0,34,log4j-core\src\main\java\org\apache\logging\log4j\core\config\json\JsonConfigurationFactory.java,0,0,0,0
org.apache.logging.log4j.core.config.plugins.convert.EnumConverter, 0, 0, 0, 0, 0, 0, 0, 0, 0, 0, 0, 0, 0, 0,0.0,0.0,0.0,0.0,0.0,0.0,0.0,0.0,0.0,0.0,0.0,0.0,0.0,10,log4j-core\src\main\java\org\apache\logging\log4j\core\config\plugins\convert\EnumConverter.java,0,0,0,0
org.apache.logging.log4j.core.config.plugins.convert.TypeConverter, 0, 0, 0, 0, 0, 0, 0, 0, 0, 0, 0, 0, 0, 0,0.0,0.0,0.0,0.0,0.0,0.0,0.0,0.0,0.0,0.0,0.0,0.0,0.0,10,log4j-core\src\main\java\org\apache\logging\log4j\core\config\plugins\convert\TypeConverter.java,0,0,0,0
org.apache.logging.log4j.core.config.plugins.convert.TypeConverters, 0, 0, 0, 0, 0, 0, 0, 0, 0, 0, 0, 0, 0, 0,0.0,0.0,0.0,0.0,0.0,0.0,0.0,0.0,0.0,0.0,0.0,0.0,0.0,195,log4j-core\src\main\java\org\apache\logging\log4j\core\config\plugins\convert\TypeConverters.java,0,0,0,0
org.apache.logging.log4j.core.config.plugins.processor.FakePlugin, 0, 0, 0, 0, 0, 0, 0, 0, 0, 0, 0, 0, 0, 0,0.0,0.0,0.0,0.0,0.0,0.0,0.0,0.0,0.0,0.0,0.0,0.0,0.0,5,log4j-core\src\test\java\org\apache\logging\log4j\core\config\plugins\processor\FakePlugin.java,0,0,0,0
org.apache.logging.log4j.core.config.plugins.processor.PluginEntry, 0, 0, 0, 1, 0, 0, 0, 0, 0, 0, 0, 0, 0, 1,0.0,0.0,0.0,0.0,0.0,0.0,0.0,0.0,0.0,0.0,0.0,0.0,0.0,45,log4j-core\src\main\java\org\apache\logging\log4j\core\config\plugins\processor\PluginEntry.java,0,0,0,0
org.apache.logging.log4j.core.config.plugins.util.PluginManagerPackagesTest, 0, 0, 0, 0, 0, 0, 0, 0, 0, 0, 0, 0, 0, 0,0.0,0.0,0.0,0.0,0.0,0.0,0.0,0.5,0.0,0.0,0.0,0.0,0.0,47,log4j-core\src\test\java\org\apache\logging\log4j\core\config\plugins\util\PluginManagerPackagesTest.java,0,0,0,0
org.apache.logging.log4j.core.config.plugins.util.PluginType, 0, 0, 0, 0, 0, 0, 0, 0, 0, 0, 0, 0, 0, 0,0.0,0.0,0.0,0.5,0.0,0.0,0.0,0.0,0.0,0.0,0.0,0.0,0.0,38,log4j-core\src\main\java\org\apache\logging\log4j\core\config\plugins\util\PluginType.java,0,0,0,0
org.apache.logging.log4j.core.config.plugins.util.ResolverUtilTest, 0, 0, 0, 0, 0, 0, 0, 0, 0, 0, 0, 0, 0, 0,0.0,0.0,0.0,0.0,0.0,0.0,0.0,0.0,0.0,0.0,0.0,0.0,0.0,104,log4j-core\src\test\java\org\apache\logging\log4j\core\config\plugins\util\ResolverUtilTest.java,1,13,1,16
org.apache.logging.log4j.core.config.plugins.validation.ConstraintValidator, 0, 0, 0, 0, 0, 0, 0, 0, 0, 0, 0, 0, 0, 0,0.0,0.0,0.0,0.0,0.0,0.0,0.0,0.0,0.0,0.0,0.0,0.0,0.0,104,log4j-core\src\main\java\org\apache\logging\log4j\core\config\plugins\validation\ConstraintValidator.java,0,0,0,0
org.apache.logging.log4j.core.config.plugins.validation.ValidatingPlugin, 0, 0, 0, 0, 0, 0, 0, 0, 0, 0, 0, 0, 0, 0,0.0,0.0,0.0,0.0,0.0,0.0,0.0,0.0,0.0,0.0,0.0,0.0,0.0,31,log4j-core\src\test\java\org\apache\logging\log4j\core\config\plugins\validation\ValidatingPlugin.java,0,0,0,0
org.apache.logging.log4j.core.config.plugins.validation.validators.RequiredValidatorTest, 0, 0, 0, 0, 0, 0, 0, 0, 0, 0, 0, 0, 0, 0,0.0,0.0,0.0,0.0,0.0,0.0,0.0,0.0,0.0,0.0,0.0,0.0,0.0,30,log4j-core\src\test\java\org\apache\logging\log4j\core\config\plugins\validation\validators\RequiredValidatorTest.java,0,0,0,0
org.apache.logging.log4j.core.config.plugins.visitors.PluginVisitor, 0, 0, 0, 0, 0, 0, 0, 0, 0, 0, 0, 0, 0, 0,0.0,0.0,0.0,0.0,0.0,0.0,0.0,0.0,0.0,0.0,0.0,0.0,0.0,30,log4j-core\src\main\java\org\apache\logging\log4j\core\config\plugins\visitors\PluginVisitor.java,0,0,0,0
org.apache.logging.log4j.core.config.status.StatusConfiguration, 0, 0, 0, 1, 0, 0, 0, 0, 0, 0, 0, 0, 0, 1,0.0,0.0,0.0,0.0,0.0,0.0,0.0,0.0,0.0,0.0,0.0,0.0,0.0,113,log4j-core\src\main\java\org\apache\logging\log4j\core\config\status\StatusConfiguration.java,0,0,0,0
org.apache.logging.log4j.core.config.xml.XmlConfigurationFactory, 0, 0, 0, 0, 0, 0, 0, 0, 0, 0, 0, 0, 0, 0,0.0,0.0,0.0,0.0,0.0,0.0,0.0,0.0,0.0,0.0,0.0,0.0,0.0,11,log4j-core\src\main\java\org\apache\logging\log4j\core\config\xml\XmlConfigurationFactory.java,0,0,0,0
org.apache.logging.log4j.core.config.xml.XmlConfigurationPropsTest, 0, 0, 0, 0, 0, 0, 0, 0, 0, 0, 0, 0, 0, 0,0.0,0.0,0.0,0.0,0.0,0.0,0.0,0.0,0.0,0.0,0.0,0.0,0.0,60,log4j-core\src\test\java\org\apache\logging\log4j\core\config\xml\XmlConfigurationPropsTest.java,0,0,0,0
org.apache.logging.log4j.core.config.xml.XmlLoggerPropsTest, 0, 0, 0, 0, 0, 0, 0, 0, 0, 0, 0, 0, 0, 0,0.0,0.0,0.0,0.0,0.0,0.0,0.0,1.0,0.0,0.0,0.0,0.0,0.0,40,log4j-core\src\test\java\org\apache\logging\log4j\core\config\xml\XmlLoggerPropsTest.java,0,0,0,0
org.apache.logging.log4j.core.config.yaml.YamlConfiguration, 0, 0, 0, 0, 0, 0, 0, 0, 0, 0, 0, 0, 0, 0,0.0,0.0,0.0,0.0,0.0,0.0,0.0,0.0,0.0,0.0,0.0,0.0,0.0,10,log4j-core\src\main\java\org\apache\logging\log4j\core\config\yaml\YamlConfiguration.java,0,15,0,15
org.apache.logging.log4j.core.config.yaml.YamlConfigurationFactory, 0, 0, 0, 0, 0, 0, 0, 0, 0, 0, 0, 0, 0, 0,0.0,0.0,0.0,0.0,0.0,0.0,0.0,0.0,0.0,0.0,0.0,0.0,0.0,35,log4j-core\src\main\java\org\apache\logging\log4j\core\config\yaml\YamlConfigurationFactory.java,0,0,0,0
org.apache.logging.log4j.core.filter.AbstractFilter, 0, 0, 0, 0, 0, 0, 0, 1, 0, 0, 0, 0, 0, 1,0.0,0.0,0.0,0.0,0.0,0.0,0.0,0.75,0.0,0.0,0.0,0.0,0.0,71,log4j-core\src\main\java\org\apache\logging\log4j\core\filter\AbstractFilter.java,2,0,4,10
org.apache.logging.log4j.core.filter.AbstractFilterable, 0, 0, 0, 0, 0, 0, 0, 0, 0, 0, 0, 0, 0, 0,0.26666666666666666,0.0,0.06666666666666667,0.06666666666666667,0.0,0.0,0.0,0.3333333333333333,0.0,0.0,0.0,0.0,0.0,65,log4j-core\src\main\java\org\apache\logging\log4j\core\filter\AbstractFilterable.java,0,0,0,0
org.apache.logging.log4j.core.filter.BurstFilter, 0, 0, 0, 0, 0, 0, 0, 1, 0, 0, 0, 0, 0, 1,0.5,0.0,0.5,0.0,0.0,0.0,0.0,0.5,0.0,0.0,0.0,0.0,0.0,156,log4j-core\src\main\java\org\apache\logging\log4j\core\filter\BurstFilter.java,5,4,6,21
org.apache.logging.log4j.core.filter.BurstFilterTest, 1, 0, 1, 0, 0, 0, 0, 0, 0, 0, 0, 0, 0, 2,0.0,0.0,0.0,0.0,0.0,0.0,0.0,0.6666666666666666,0.0,0.0,0.0,0.0,0.0,75,log4j-core\src\test\java\org\apache\logging\log4j\core\filter\BurstFilterTest.java,0,0,0,0
org.apache.logging.log4j.core.filter.DynamicThresholdFilterSerializationTest, 0, 0, 0, 0, 0, 0, 0, 0, 0, 0, 0, 0, 0, 0,0.0,0.0,0.0,0.0,0.0,0.0,0.0,0.0,0.0,0.0,0.0,0.0,0.0,16,log4j-core\src\test\java\org\apache\logging\log4j\core\filter\DynamicThresholdFilterSerializationTest.java,0,0,0,0
org.apache.logging.log4j.core.filter.Filterable, 0, 0, 0, 0, 0, 0, 0, 0, 0, 0, 0, 0, 0, 0,0.0,0.0,0.0,0.0,0.0,0.0,0.0,0.0,0.0,0.0,0.0,0.0,0.0,16,log4j-core\src\main\java\org\apache\logging\log4j\core\filter\Filterable.java,0,0,0,0
org.apache.logging.log4j.core.filter.MarkerFilter, 0, 0, 0, 0, 0, 0, 0, 1, 0, 0, 0, 0, 0, 1,0.0,0.0,0.0,0.0,0.0,0.0,0.0,0.5,0.0,0.0,0.0,0.0,0.0,45,log4j-core\src\main\java\org\apache\logging\log4j\core\filter\MarkerFilter.java,0,0,0,0
org.apache.logging.log4j.core.filter.MarkerFilterTest, 0, 0, 0, 0, 0, 0, 0, 0, 0, 0, 0, 0, 0, 0,0.0,0.0,0.0,0.0,0.0,0.0,0.0,0.3333333333333333,0.0,0.0,0.0,0.0,0.0,25,log4j-core\src\test\java\org\apache\logging\log4j\core\filter\MarkerFilterTest.java,0,0,0,0
org.apache.logging.log4j.core.filter.RegexFilterTest, 0, 0, 0, 0, 0, 0, 0, 0, 0, 0, 0, 0, 0, 0,0.0,0.0,0.0,0.0,0.0,0.0,0.0,0.0,0.0,0.0,0.0,0.0,0.0,42,log4j-core\src\test\java\org\apache\logging\log4j\core\filter\RegexFilterTest.java,0,0,0,0
org.apache.logging.log4j.core.filter.ThreadContextMapFilterTest, 0, 0, 0, 0, 0, 0, 0, 0, 0, 0, 0, 0, 0, 0,0.0,0.0,0.0,0.0,0.0,0.0,0.0,0.0,0.0,0.0,0.0,0.0,0.0,36,log4j-core\src\test\java\org\apache\logging\log4j\core\filter\ThreadContextMapFilterTest.java,0,0,0,0
org.apache.logging.log4j.core.filter.ThresholdFilter, 0, 0, 0, 0, 0, 0, 0, 1, 0, 0, 0, 0, 0, 1,0.0,0.0,0.0,0.0,0.0,0.0,0.0,0.6666666666666666,0.0,0.0,0.0,0.0,0.0,44,log4j-core\src\main\java\org\apache\logging\log4j\core\filter\ThresholdFilter.java,0,0,0,0
org.apache.logging.log4j.core.filter.ThresholdFilterTest, 0, 0, 0, 0, 0, 0, 0, 0, 0, 0, 0, 0, 0, 0,0.0,0.0,0.0,0.0,0.0,0.0,0.0,0.3333333333333333,0.0,0.0,0.0,0.0,0.0,14,log4j-core\src\test\java\org\apache\logging\log4j\core\filter\ThresholdFilterTest.java,0,0,0,0
org.apache.logging.log4j.core.filter.TimeFilterTest, 0, 0, 0, 0, 0, 0, 0, 0, 0, 0, 0, 0, 0, 0,0.0,0.0,0.0,0.0,0.0,0.0,0.0,0.0,0.0,0.0,0.0,0.0,0.0,22,log4j-core\src\test\java\org\apache\logging\log4j\core\filter\TimeFilterTest.java,0,0,0,0
org.apache.logging.log4j.core.impl.ContextAnchor, 0, 0, 0, 0, 0, 0, 0, 0, 0, 0, 0, 0, 0, 0,0.0,0.0,0.0,0.0,0.0,0.0,0.0,0.0,0.0,0.0,0.0,0.0,0.0,5,log4j-core\src\main\java\org\apache\logging\log4j\core\impl\ContextAnchor.java,0,0,0,0
org.apache.logging.log4j.core.impl.DefaultLogEventFactory, 0, 0, 0, 0, 0, 0, 0, 1, 0, 0, 0, 0, 0, 1,0.0,0.0,0.0,0.0,0.0,0.0,0.0,0.0,0.0,0.0,0.0,0.0,0.0,8,log4j-core\src\main\java\org\apache\logging\log4j\core\impl\DefaultLogEventFactory.java,0,0,0,0
org.apache.logging.log4j.core.impl.Log4jContextFactory, 0, 0, 0, 0, 0, 0, 0, 1, 0, 0, 0, 0, 0, 1,0.0,0.0,0.0,0.0,0.0,0.0,0.0,0.0,0.0,0.0,0.0,0.0,0.0,122,log4j-core\src\main\java\org\apache\logging\log4j\core\impl\Log4jContextFactory.java,0,0,0,0
org.apache.logging.log4j.core.impl.Log4jLogEventTest, 0, 0, 0, 0, 0, 0, 0, 0, 0, 0, 0, 0, 0, 0,0.0,0.0,0.0,0.0,0.0,0.0,0.0,0.0,0.0,0.0,0.0,0.0,0.0,112,log4j-core\src\test\java\org\apache\logging\log4j\core\impl\Log4jLogEventTest.java,0,0,0,0
org.apache.logging.log4j.core.impl.LogEventFactory, 0, 0, 0, 0, 0, 0, 0, 0, 0, 0, 0, 0, 0, 0,0.0,0.0,0.0,0.0,0.0,0.0,0.0,0.0,0.0,0.0,0.0,0.0,0.0,112,log4j-core\src\main\java\org\apache\logging\log4j\core\impl\LogEventFactory.java,0,0,0,0
org.apache.logging.log4j.core.impl.ThrowableFormatOptionsTest, 0, 0, 0, 1, 0, 0, 0, 0, 0, 0, 0, 0, 0, 1,0.0,0.0,0.0,0.0,0.0,0.0,0.0,0.0,0.0,0.0,0.0,0.0,0.0,154,log4j-core\src\test\java\org\apache\logging\log4j\core\impl\ThrowableFormatOptionsTest.java,0,0,0,0
org.apache.logging.log4j.core.jackson.ExtendedStackTraceElementMixIn, 0, 0, 0, 0, 0, 0, 0, 1, 0, 0, 0, 0, 0, 1,0.0,0.0,0.0,0.0,0.0,0.0,0.0,0.0,0.0,0.0,0.0,0.0,0.0,41,log4j-core\src\main\java\org\apache\logging\log4j\core\jackson\ExtendedStackTraceElementMixIn.java,0,0,0,0
org.apache.logging.log4j.core.jackson.Initializers, 0, 0, 0, 0, 0, 0, 0, 0, 0, 0, 0, 0, 0, 0,0.0,0.0,0.0,0.0,0.0,0.0,0.0,0.0,0.0,0.0,0.0,0.0,0.0,18,log4j-core\src\main\java\org\apache\logging\log4j\core\jackson\Initializers.java,0,0,0,0
org.apache.logging.log4j.core.jackson.JsonConstants, 0, 0, 0, 0, 0, 0, 0, 0, 0, 0, 0, 0, 0, 0,0.0,0.0,0.0,0.0,0.0,0.0,0.0,0.0,0.0,0.0,0.0,0.0,0.0,12,log4j-core\src\main\java\org\apache\logging\log4j\core\jackson\JsonConstants.java,0,0,0,0
org.apache.logging.log4j.core.jackson.LevelMixIn, 0, 0, 0, 0, 0, 0, 0, 0, 0, 0, 0, 0, 0, 0,0.0,0.0,0.0,0.0,0.0,0.0,0.0,0.0,0.0,0.0,0.0,0.0,0.0,8,log4j-core\src\main\java\org\apache\logging\log4j\core\jackson\LevelMixIn.java,0,0,0,0
org.apache.logging.log4j.core.jackson.ListOfMapEntryDeserializer, 0, 0, 0, 0, 0, 0, 0, 0, 0, 0, 0, 0, 0, 0,0.0,0.0,0.0,0.0,0.0,0.0,0.0,0.0,0.0,0.0,0.0,0.0,0.0,17,log4j-core\src\main\java\org\apache\logging\log4j\core\jackson\ListOfMapEntryDeserializer.java,0,0,0,0
org.apache.logging.log4j.core.jackson.ListOfMapEntrySerializer, 0, 0, 0, 0, 0, 0, 0, 0, 0, 0, 0, 0, 0, 0,0.0,0.0,0.0,0.0,0.0,0.0,0.0,0.0,0.0,0.0,0.0,0.0,0.0,16,log4j-core\src\main\java\org\apache\logging\log4j\core\jackson\ListOfMapEntrySerializer.java,0,0,0,0
org.apache.logging.log4j.core.jackson.Log4jJsonModule, 0, 0, 0, 0, 0, 0, 0, 0, 0, 0, 0, 0, 0, 0,0.0,0.0,0.0,0.0,0.0,0.0,0.0,0.0,0.0,0.0,0.0,0.0,0.0,12,log4j-core\src\main\java\org\apache\logging\log4j\core\jackson\Log4jJsonModule.java,0,0,0,0
org.apache.logging.log4j.core.jackson.Log4jJsonObjectMapper, 0, 0, 0, 0, 0, 0, 0, 0, 0, 0, 0, 0, 0, 0,0.0,0.0,0.0,0.0,0.0,0.0,0.0,0.0,0.0,0.0,0.0,0.0,0.0,7,log4j-core\src\main\java\org\apache\logging\log4j\core\jackson\Log4jJsonObjectMapper.java,0,0,0,0
org.apache.logging.log4j.core.jackson.Log4jStackTraceElementDeserializer, 0, 0, 0, 0, 0, 0, 0, 0, 0, 0, 0, 0, 0, 0,0.0,0.0,0.0,0.0,0.0,0.0,0.0,0.0,0.0,0.0,0.0,0.0,0.0,39,log4j-core\src\main\java\org\apache\logging\log4j\core\jackson\Log4jStackTraceElementDeserializer.java,0,0,1,2
org.apache.logging.log4j.core.jackson.Log4jXmlModule, 0, 0, 0, 0, 0, 0, 0, 0, 0, 0, 0, 0, 0, 0,0.0,0.0,0.0,0.0,0.0,0.0,0.0,0.0,0.0,0.0,0.0,0.0,0.0,12,log4j-core\src\main\java\org\apache\logging\log4j\core\jackson\Log4jXmlModule.java,0,0,0,0
org.apache.logging.log4j.core.jackson.Log4jXmlObjectMapper, 0, 0, 0, 0, 0, 0, 0, 0, 0, 0, 0, 0, 0, 0,0.0,0.0,0.0,0.0,0.0,0.0,0.0,0.0,0.0,0.0,0.0,0.0,0.0,7,log4j-core\src\main\java\org\apache\logging\log4j\core\jackson\Log4jXmlObjectMapper.java,0,0,0,0
org.apache.logging.log4j.core.jackson.MapEntry, 0, 0, 0, 0, 0, 0, 0, 0, 0, 0, 0, 0, 0, 0,0.0,0.0,0.0,0.0,0.0,0.0,0.0,0.0,0.0,0.0,0.0,0.0,0.0,64,log4j-core\src\main\java\org\apache\logging\log4j\core\jackson\MapEntry.java,0,0,0,0
org.apache.logging.log4j.core.jackson.MarkerMixIn, 0, 0, 0, 0, 0, 0, 0, 0, 0, 0, 0, 0, 0, 0,0.0,0.0,0.0,0.0,0.0,0.0,0.0,0.0,0.0,0.0,0.0,0.0,0.0,15,log4j-core\src\main\java\org\apache\logging\log4j\core\jackson\MarkerMixIn.java,0,0,0,0
org.apache.logging.log4j.core.jackson.MessageSerializer, 0, 0, 0, 0, 0, 0, 0, 0, 0, 0, 0, 0, 0, 0,0.0,0.0,0.0,0.0,0.0,0.0,0.0,0.0,0.0,0.0,0.0,0.0,0.0,10,log4j-core\src\main\java\org\apache\logging\log4j\core\jackson\MessageSerializer.java,0,0,0,0
org.apache.logging.log4j.core.jackson.MutableThreadContextStackDeserializer, 0, 0, 0, 0, 0, 0, 0, 0, 0, 0, 0, 0, 0, 0,0.0,0.0,0.0,1.0,0.0,0.0,0.0,0.0,0.0,0.0,0.0,0.0,0.0,13,log4j-core\src\main\java\org\apache\logging\log4j\core\jackson\MutableThreadContextStackDeserializer.java,0,0,0,0
org.apache.logging.log4j.core.jackson.SimpleMessageDeserializer, 0, 0, 0, 0, 0, 0, 0, 0, 0, 0, 0, 0, 0, 0,0.0,0.0,0.0,0.0,0.0,0.0,0.0,0.0,0.0,0.0,0.0,0.0,0.0,11,log4j-core\src\main\java\org\apache\logging\log4j\core\jackson\SimpleMessageDeserializer.java,0,0,0,0
org.apache.logging.log4j.core.jackson.StackTraceElementMixIn, 0, 0, 0, 0, 0, 0, 0, 0, 0, 0, 0, 0, 0, 0,0.0,0.0,0.0,0.0,0.0,0.0,0.0,0.0,0.0,0.0,0.0,0.0,0.0,22,log4j-core\src\main\java\org\apache\logging\log4j\core\jackson\StackTraceElementMixIn.java,0,0,0,0
org.apache.logging.log4j.core.jackson.ThrowableProxyMixIn, 0, 0, 0, 0, 0, 0, 0, 0, 0, 0, 0, 0, 0, 0,0.0,0.0,0.0,0.0,0.0,0.0,0.0,0.0,0.0,0.0,0.0,0.0,0.0,37,log4j-core\src\main\java\org\apache\logging\log4j\core\jackson\ThrowableProxyMixIn.java,0,0,0,0
org.apache.logging.log4j.core.jackson.XmlConstants, 0, 0, 0, 0, 0, 0, 0, 0, 0, 0, 0, 0, 0, 0,0.0,0.0,0.0,0.0,0.0,0.0,0.0,0.0,0.0,0.0,0.0,0.0,0.0,17,log4j-core\src\main\java\org\apache\logging\log4j\core\jackson\XmlConstants.java,0,0,0,0
org.apache.logging.log4j.core.jmx.AppenderAdmin, 0, 0, 0, 0, 0, 0, 0, 0, 0, 0, 0, 0, 0, 0,0.0,0.0,0.0,0.0,0.0,0.0,0.0,0.0,0.0,0.0,0.0,0.0,0.0,43,log4j-core\src\main\java\org\apache\logging\log4j\core\jmx\AppenderAdmin.java,0,0,0,0
org.apache.logging.log4j.core.jmx.AppenderAdminMBean, 0, 0, 0, 0, 0, 0, 0, 0, 0, 0, 0, 0, 0, 0,0.0,0.0,0.0,0.0,0.0,0.0,0.0,0.0,0.0,0.0,0.0,0.0,0.0,43,log4j-core\src\main\java\org\apache\logging\log4j\core\jmx\AppenderAdminMBean.java,0,0,0,0
org.apache.logging.log4j.core.jmx.AsyncAppenderAdmin, 0, 0, 0, 0, 0, 0, 0, 0, 0, 0, 0, 0, 0, 0,0.0,0.0,0.0,0.0,0.0,0.0,0.0,0.0,0.0,0.0,0.0,0.0,0.0,64,log4j-core\src\main\java\org\apache\logging\log4j\core\jmx\AsyncAppenderAdmin.java,0,0,0,0
org.apache.logging.log4j.core.jmx.AsyncAppenderAdminMBean, 0, 0, 0, 0, 0, 0, 0, 0, 0, 0, 0, 0, 0, 0,0.0,0.0,0.0,0.0,0.0,0.0,0.0,0.0,0.0,0.0,0.0,0.0,0.0,64,log4j-core\src\main\java\org\apache\logging\log4j\core\jmx\AsyncAppenderAdminMBean.java,0,0,0,0
org.apache.logging.log4j.core.jmx.ContextSelectorAdmin, 0, 0, 0, 0, 0, 0, 0, 0, 0, 0, 0, 0, 0, 0,0.0,0.0,0.0,0.0,0.0,0.0,0.0,0.0,0.0,0.0,0.0,0.0,0.0,21,log4j-core\src\main\java\org\apache\logging\log4j\core\jmx\ContextSelectorAdmin.java,0,0,0,0
org.apache.logging.log4j.core.jmx.ContextSelectorAdminMBean, 0, 0, 0, 0, 0, 0, 0, 0, 0, 0, 0, 0, 0, 0,0.0,0.0,0.0,0.0,0.0,0.0,0.0,0.0,0.0,0.0,0.0,0.0,0.0,21,log4j-core\src\main\java\org\apache\logging\log4j\core\jmx\ContextSelectorAdminMBean.java,0,0,0,0
org.apache.logging.log4j.core.jmx.LoggerConfigAdmin, 0, 0, 0, 0, 0, 0, 0, 0, 0, 0, 0, 0, 0, 0,0.0,0.0,0.0,0.0,0.0,0.0,0.0,0.0,0.0,0.0,0.0,0.0,0.0,59,log4j-core\src\main\java\org\apache\logging\log4j\core\jmx\LoggerConfigAdmin.java,0,0,0,0
org.apache.logging.log4j.core.jmx.LoggerConfigAdminMBean, 0, 0, 0, 0, 0, 0, 0, 0, 0, 0, 0, 0, 0, 0,0.0,0.0,0.0,0.0,0.0,0.0,0.0,0.0,0.0,0.0,0.0,0.0,0.0,59,log4j-core\src\main\java\org\apache\logging\log4j\core\jmx\LoggerConfigAdminMBean.java,0,0,0,0
org.apache.logging.log4j.core.jmx.RingBufferAdmin, 0, 0, 0, 0, 0, 0, 0, 0, 0, 0, 0, 0, 0, 0,0.0,0.0,0.0,0.3333333333333333,0.0,0.0,0.0,0.3333333333333333,0.0,0.0,0.0,0.0,0.0,35,log4j-core\src\main\java\org\apache\logging\log4j\core\jmx\RingBufferAdmin.java,0,0,0,0
org.apache.logging.log4j.core.jmx.RingBufferAdminMBean, 0, 0, 0, 0, 0, 0, 0, 0, 0, 0, 0, 0, 0, 0,0.0,0.0,0.0,0.0,0.0,0.0,0.0,0.0,0.0,0.0,0.0,0.0,0.0,35,log4j-core\src\main\java\org\apache\logging\log4j\core\jmx\RingBufferAdminMBean.java,0,0,0,0
org.apache.logging.log4j.core.jmx.ServerTest, 0, 0, 0, 0, 0, 0, 0, 0, 0, 0, 0, 0, 0, 0,0.0,0.0,0.0,0.0,0.0,0.0,0.0,0.0,0.0,0.0,0.0,0.0,0.0,72,log4j-core\src\test\java\org\apache\logging\log4j\core\jmx\ServerTest.java,0,0,0,0
org.apache.logging.log4j.core.jmx.StatusLoggerAdmin, 0, 0, 0, 0, 0, 0, 0, 0, 0, 0, 0, 0, 0, 0,0.0,0.0,0.0,0.0,0.0,0.0,0.0,0.0,0.0,0.0,0.0,0.0,0.0,75,log4j-core\src\main\java\org\apache\logging\log4j\core\jmx\StatusLoggerAdmin.java,0,14,4,22
org.apache.logging.log4j.core.jmx.StatusLoggerAdminMBean, 0, 0, 0, 0, 0, 0, 0, 0, 0, 0, 0, 0, 0, 0,0.0,0.0,0.0,0.0,0.0,0.0,0.0,0.0,0.0,0.0,0.0,0.0,0.0,75,log4j-core\src\main\java\org\apache\logging\log4j\core\jmx\StatusLoggerAdminMBean.java,0,0,0,0
org.apache.logging.log4j.core.layout.AbstractJacksonLayout, 0, 0, 0, 0, 0, 0, 0, 1, 0, 0, 0, 0, 0, 1,0.0,0.0,0.0,0.0,0.0,0.0,0.0,0.0,0.0,0.0,0.0,0.0,0.0,25,log4j-core\src\main\java\org\apache\logging\log4j\core\layout\AbstractJacksonLayout.java,0,0,0,0
org.apache.logging.log4j.core.layout.AbstractStringLayout, 0, 0, 0, 0, 0, 0, 0, 0, 0, 0, 0, 0, 0, 0,0.25,0.0,0.0,0.25,0.0,0.0,0.0,0.5,0.0,0.0,0.0,0.0,0.0,25,log4j-core\src\main\java\org\apache\logging\log4j\core\layout\AbstractStringLayout.java,0,0,2,4
org.apache.logging.log4j.core.layout.GelfLayoutTest, 1, 0, 0, 1, 0, 0, 0, 0, 0, 0, 0, 0, 0, 2,0.0,0.0,0.0,0.0,0.0,0.0,0.0,0.25,0.0,0.0,0.0,0.0,0.0,132,log4j-core\src\test\java\org\apache\logging\log4j\core\layout\GelfLayoutTest.java,0,0,0,0
org.apache.logging.log4j.core.layout.JacksonFactory, 0, 0, 0, 0, 0, 0, 0, 0, 0, 0, 0, 0, 0, 0,0.0,0.0,0.0,0.0,0.0,0.0,0.0,0.0,0.0,0.0,0.0,0.0,0.0,64,log4j-core\src\main\java\org\apache\logging\log4j\core\layout\JacksonFactory.java,0,0,0,0
org.apache.logging.log4j.core.layout.SerializedLayout, 0, 0, 0, 0, 0, 0, 0, 0, 0, 0, 0, 0, 0, 0,0.0,0.0,0.0,0.0,0.0,0.0,0.0,0.0,0.0,0.0,0.0,0.0,0.0,57,log4j-core\src\main\java\org\apache\logging\log4j\core\layout\SerializedLayout.java,0,0,0,0
org.apache.logging.log4j.core.layout.SyslogLayoutTest, 1, 0, 0, 0, 0, 0, 0, 0, 0, 0, 0, 0, 0, 1,0.0,0.0,0.0,0.0,0.0,0.0,0.0,0.5,0.0,0.0,0.0,0.0,0.0,53,log4j-core\src\test\java\org\apache\logging\log4j\core\layout\SyslogLayoutTest.java,0,0,0,0
org.apache.logging.log4j.core.lookup.AbstractLookup, 0, 0, 0, 0, 0, 0, 0, 0, 0, 0, 0, 0, 0, 0,0.0,0.0,0.0,0.0,0.0,0.0,0.0,0.0,0.0,0.0,0.0,0.0,0.0,6,log4j-core\src\main\java\org\apache\logging\log4j\core\lookup\AbstractLookup.java,0,0,0,0
org.apache.logging.log4j.core.lookup.ContextMapLookup, 0, 0, 0, 0, 0, 0, 0, 0, 0, 0, 0, 0, 0, 0,0.0,0.0,0.0,0.0,0.0,0.0,0.0,0.0,0.0,0.0,0.0,0.0,0.0,10,log4j-core\src\main\java\org\apache\logging\log4j\core\lookup\ContextMapLookup.java,0,0,0,0
org.apache.logging.log4j.core.lookup.ContextMapLookupTest, 0, 0, 1, 0, 0, 0, 0, 0, 0, 0, 0, 0, 0, 1,0.0,0.0,0.0,0.0,0.0,0.0,0.0,0.0,0.0,0.0,0.0,0.0,0.0,45,log4j-core\src\test\java\org\apache\logging\log4j\core\lookup\ContextMapLookupTest.java,0,0,0,0
org.apache.logging.log4j.core.lookup.DateLookup, 0, 0, 0, 0, 0, 0, 0, 0, 0, 0, 0, 0, 0, 0,0.0,0.0,0.0,0.0,0.0,0.0,0.0,0.0,0.0,0.0,0.0,0.0,0.0,26,log4j-core\src\main\java\org\apache\logging\log4j\core\lookup\DateLookup.java,0,0,0,0
org.apache.logging.log4j.core.lookup.DateLookupTest, 0, 0, 0, 0, 0, 0, 0, 0, 0, 0, 0, 0, 0, 0,0.0,0.0,0.0,0.0,0.0,0.0,0.0,0.0,0.0,0.0,0.0,0.0,0.0,19,log4j-core\src\test\java\org\apache\logging\log4j\core\lookup\DateLookupTest.java,0,0,0,0
org.apache.logging.log4j.core.lookup.EnvironmentLookupTest, 0, 0, 0, 0, 0, 0, 0, 0, 0, 0, 0, 0, 0, 0,0.0,0.0,0.0,0.0,0.0,0.0,0.0,0.0,0.0,0.0,0.0,0.0,0.0,10,log4j-core\src\test\java\org\apache\logging\log4j\core\lookup\EnvironmentLookupTest.java,0,0,0,0
org.apache.logging.log4j.core.lookup.JavaLookup, 0, 0, 0, 0, 0, 0, 0, 0, 0, 0, 0, 0, 0, 0,0.0,0.0,0.0,0.0,0.0,0.0,0.0,0.0,0.0,0.0,0.0,0.0,0.0,51,log4j-core\src\main\java\org\apache\logging\log4j\core\lookup\JavaLookup.java,0,0,0,0
org.apache.logging.log4j.core.lookup.JndiLookup, 0, 0, 0, 0, 0, 0, 0, 0, 0, 0, 0, 0, 0, 0,0.0,0.0,0.0,0.0,0.0,0.0,0.0,0.0,0.0,0.0,0.0,0.0,0.0,27,log4j-core\src\main\java\org\apache\logging\log4j\core\lookup\JndiLookup.java,0,0,0,0
org.apache.logging.log4j.core.lookup.MainInputArgumentsJmxLookupTest, 0, 0, 0, 0, 0, 0, 0, 0, 0, 0, 0, 0, 0, 0,0.0,0.0,0.0,0.0,0.0,0.0,0.0,0.0,0.0,0.0,0.0,0.0,0.0,17,log4j-core\src\test\java\org\apache\logging\log4j\core\lookup\MainInputArgumentsJmxLookupTest.java,0,0,0,0
org.apache.logging.log4j.core.lookup.ResourceBundleLookup, 0, 0, 0, 0, 0, 0, 0, 0, 0, 0, 0, 0, 0, 0,0.0,0.0,0.0,0.0,0.0,0.0,0.0,0.0,0.0,0.0,0.0,0.0,0.0,24,log4j-core\src\main\java\org\apache\logging\log4j\core\lookup\ResourceBundleLookup.java,0,0,0,0
org.apache.logging.log4j.core.lookup.ResourceBundleLookupTest, 0, 0, 0, 0, 0, 0, 0, 0, 0, 0, 0, 0, 0, 0,0.0,0.0,0.0,0.0,0.0,0.0,0.0,0.0,0.0,0.0,0.0,0.0,0.0,23,log4j-core\src\test\java\org\apache\logging\log4j\core\lookup\ResourceBundleLookupTest.java,0,0,0,0
org.apache.logging.log4j.core.lookup.StrLookup, 0, 0, 0, 0, 0, 0, 0, 0, 0, 0, 0, 0, 0, 0,0.0,0.0,0.0,0.0,0.0,0.0,0.0,0.0,0.0,0.0,0.0,0.0,0.0,23,log4j-core\src\main\java\org\apache\logging\log4j\core\lookup\StrLookup.java,0,0,0,0
org.apache.logging.log4j.core.lookup.StrMatcher, 0, 0, 0, 1, 0, 0, 0, 0, 0, 0, 0, 0, 0, 1,0.0,0.0,0.0,0.0,0.0,0.0,0.0,0.0,0.0,0.0,0.0,0.0,0.0,132,log4j-core\src\main\java\org\apache\logging\log4j\core\lookup\StrMatcher.java,0,1,4,9
org.apache.logging.log4j.core.lookup.StructuredDataLookup, 0, 0, 0, 0, 0, 0, 0, 0, 0, 0, 0, 0, 0, 0,0.0,0.0,0.0,0.0,0.0,0.0,0.0,0.0,0.0,0.0,0.0,0.0,0.0,19,log4j-core\src\main\java\org\apache\logging\log4j\core\lookup\StructuredDataLookup.java,0,0,0,0
org.apache.logging.log4j.core.lookup.StructuredDataLookupTest, 0, 0, 0, 0, 0, 0, 0, 0, 0, 0, 0, 0, 0, 0,0.0,0.0,0.0,0.0,0.0,0.0,0.0,0.0,0.0,0.0,0.0,0.0,0.0,14,log4j-core\src\test\java\org\apache\logging\log4j\core\lookup\StructuredDataLookupTest.java,0,0,0,0
org.apache.logging.log4j.core.lookup.SystemPropertiesLookup, 0, 0, 0, 0, 0, 0, 0, 0, 0, 0, 0, 0, 0, 0,0.0,0.0,0.0,0.0,0.0,0.0,0.0,0.0,0.0,0.0,0.0,0.0,0.0,13,log4j-core\src\main\java\org\apache\logging\log4j\core\lookup\SystemPropertiesLookup.java,0,0,0,0
org.apache.logging.log4j.core.lookup.SystemPropertiesLookupTest, 0, 0, 0, 0, 0, 0, 0, 0, 0, 0, 0, 0, 0, 0,0.0,0.0,0.0,0.0,0.0,0.0,0.0,0.0,0.0,0.0,0.0,0.0,0.0,20,log4j-core\src\test\java\org\apache\logging\log4j\core\lookup\SystemPropertiesLookupTest.java,0,0,0,0
org.apache.logging.log4j.core.net.DatagramOutputStream, 0, 0, 0, 0, 0, 0, 0, 0, 0, 0, 0, 0, 0, 0,0.0,0.0,0.0,0.0,0.0,0.0,0.0,0.0,0.0,0.0,0.0,0.0,0.0,79,log4j-core\src\main\java\org\apache\logging\log4j\core\net\DatagramOutputStream.java,0,0,0,0
org.apache.logging.log4j.core.net.MimeMessageBuilder, 0, 0, 0, 0, 0, 0, 0, 0, 0, 0, 0, 0, 0, 0,0.0,0.0,0.0,0.0,0.0,0.0,0.0,0.0,0.0,0.0,0.0,0.0,0.0,49,log4j-core\src\main\java\org\apache\logging\log4j\core\net\MimeMessageBuilder.java,0,0,2,4
org.apache.logging.log4j.core.net.Priority, 0, 0, 0, 0, 0, 0, 0, 0, 0, 0, 0, 0, 0, 0,0.0,0.0,0.0,0.0,0.0,0.0,0.0,0.0,0.0,0.0,0.0,0.0,0.0,24,log4j-core\src\main\java\org\apache\logging\log4j\core\net\Priority.java,0,3,2,7
org.apache.logging.log4j.core.net.PriorityTest, 0, 0, 0, 0, 0, 0, 0, 0, 0, 0, 0, 0, 0, 0,0.0,0.0,0.0,0.0,0.0,0.0,0.0,0.0,0.0,0.0,0.0,0.0,0.0,7,log4j-core\src\test\java\org\apache\logging\log4j\core\net\PriorityTest.java,0,0,0,0
org.apache.logging.log4j.core.net.SocketMessageLossTest, 1, 0, 1, 0, 0, 0, 0, 0, 0, 0, 0, 0, 0, 2,0.0,0.0,0.0,0.0,0.0,0.0,0.0,0.0,0.0,0.0,0.0,0.0,0.0,83,log4j-core\src\test\java\org\apache\logging\log4j\core\net\SocketMessageLossTest.java,0,0,0,0
org.apache.logging.log4j.core.net.SocketReconnectTest, 1, 0, 1, 0, 0, 0, 0, 0, 0, 0, 0, 0, 0, 2,0.0,0.0,0.0,0.0,0.0,0.0,0.0,0.0,0.0,0.0,0.0,0.0,0.0,114,log4j-core\src\test\java\org\apache\logging\log4j\core\net\SocketReconnectTest.java,0,0,0,0
org.apache.logging.log4j.core.net.SocketTest, 1, 0, 1, 0, 0, 0, 0, 0, 0, 0, 0, 0, 0, 2,0.0,0.0,0.0,0.0,0.0,0.0,0.0,0.0,0.0,0.0,0.0,0.0,0.0,52,log4j-core\src\test\java\org\apache\logging\log4j\core\net\SocketTest.java,0,0,0,0
org.apache.logging.log4j.core.net.SslSocketManager, 0, 0, 0, 0, 0, 0, 0, 1, 0, 0, 0, 0, 0, 1,0.0,0.0,0.0,0.5,0.0,0.0,0.0,0.0,0.0,0.0,0.0,0.0,0.0,113,log4j-core\src\main\java\org\apache\logging\log4j\core\net\SslSocketManager.java,0,0,0,0
org.apache.logging.log4j.core.net.mock.MockSyslogServer, 0, 0, 0, 0, 0, 0, 0, 0, 0, 0, 0, 0, 0, 0,0.0,0.0,0.0,0.0,0.0,0.0,0.0,0.0,0.0,0.0,0.0,0.0,0.0,21,log4j-core\src\test\java\org\apache\logging\log4j\core\net\mock\MockSyslogServer.java,0,0,0,0
org.apache.logging.log4j.core.net.mock.MockSyslogServerFactory, 0, 0, 0, 0, 0, 0, 0, 0, 0, 0, 0, 0, 0, 0,0.0,0.0,0.0,0.0,0.0,0.0,0.0,0.0,0.0,0.0,0.0,0.0,0.0,11,log4j-core\src\test\java\org\apache\logging\log4j\core\net\mock\MockSyslogServerFactory.java,0,0,0,0
org.apache.logging.log4j.core.net.mock.MockTcpSyslogServer, 0, 0, 0, 0, 0, 0, 0, 0, 0, 0, 0, 0, 0, 0,0.0,0.0,0.0,0.0,0.0,0.0,0.0,0.0,0.0,0.0,0.0,0.0,0.0,50,log4j-core\src\test\java\org\apache\logging\log4j\core\net\mock\MockTcpSyslogServer.java,0,0,0,0
org.apache.logging.log4j.core.net.mock.MockTlsSyslogServer, 0, 0, 0, 0, 0, 0, 0, 0, 0, 0, 0, 0, 0, 0,0.0,0.0,0.0,0.0,0.0,0.0,0.0,0.0,0.0,0.0,0.0,0.0,0.0,93,log4j-core\src\test\java\org\apache\logging\log4j\core\net\mock\MockTlsSyslogServer.java,0,0,0,0
org.apache.logging.log4j.core.net.mock.MockUdpSyslogServer, 0, 0, 0, 0, 0, 0, 0, 0, 0, 0, 0, 0, 0, 0,0.0,0.0,0.0,0.0,0.0,0.0,0.0,0.0,0.0,0.0,0.0,0.0,0.0,31,log4j-core\src\test\java\org\apache\logging\log4j\core\net\mock\MockUdpSyslogServer.java,0,0,0,0
org.apache.logging.log4j.core.net.mom.jms.JmsQueueReceiver, 0, 0, 0, 0, 0, 0, 0, 0, 0, 0, 0, 0, 0, 0,0.0,0.0,0.0,0.0,0.0,0.0,0.0,0.0,0.0,0.0,0.0,0.0,0.0,31,log4j-core\src\main\java\org\apache\logging\log4j\core\net\mom\jms\JmsQueueReceiver.java,0,0,0,0
org.apache.logging.log4j.core.net.mom.jms.JmsTopicReceiver, 0, 0, 0, 0, 0, 0, 0, 0, 0, 0, 0, 0, 0, 0,0.0,0.0,0.0,0.0,0.0,0.0,0.0,0.0,0.0,0.0,0.0,0.0,0.0,31,log4j-core\src\main\java\org\apache\logging\log4j\core\net\mom\jms\JmsTopicReceiver.java,0,0,0,0
org.apache.logging.log4j.core.net.server.AbstractLogEventBridge, 0, 0, 0, 0, 0, 0, 0, 0, 0, 0, 0, 0, 0, 0,0.0,0.0,0.0,0.0,0.0,0.0,0.0,0.0,0.0,0.0,0.0,0.0,0.0,9,log4j-core\src\main\java\org\apache\logging\log4j\core\net\server\AbstractLogEventBridge.java,0,0,0,0
org.apache.logging.log4j.core.net.server.AbstractSocketServer, 0, 0, 0, 0, 0, 0, 0, 0, 0, 0, 0, 0, 0, 0,0.0,0.0,0.0,0.0,0.0,0.0,0.0,0.0,0.0,0.0,0.0,0.0,0.0,56,log4j-core\src\main\java\org\apache\logging\log4j\core\net\server\AbstractSocketServer.java,0,0,0,0
org.apache.logging.log4j.core.net.server.InputStreamLogEventBridge, 0, 0, 0, 0, 0, 0, 0, 0, 0, 0, 0, 0, 0, 0,0.0,0.0,0.0,0.0,0.0,0.0,0.0,0.0,0.0,0.0,0.0,0.0,0.0,53,log4j-core\src\main\java\org\apache\logging\log4j\core\net\server\InputStreamLogEventBridge.java,0,0,0,0
org.apache.logging.log4j.core.net.server.JmsServer, 0, 0, 0, 0, 0, 0, 0, 0, 0, 0, 0, 0, 0, 0,0.0,0.0,0.0,0.0,0.0,0.0,0.0,0.0,0.0,0.0,0.0,0.0,0.0,64,log4j-core\src\main\java\org\apache\logging\log4j\core\net\server\JmsServer.java,0,0,0,0
org.apache.logging.log4j.core.net.server.JsonInputStreamLogEventBridge, 0, 0, 0, 0, 0, 0, 0, 0, 0, 0, 0, 0, 0, 0,0.0,0.0,0.0,0.0,0.0,0.0,0.0,0.0,0.0,0.0,0.0,0.0,0.0,52,log4j-core\src\main\java\org\apache\logging\log4j\core\net\server\JsonInputStreamLogEventBridge.java,0,1,1,3
org.apache.logging.log4j.core.net.server.LogEventBridge, 0, 0, 0, 0, 0, 0, 0, 0, 0, 0, 0, 0, 0, 0,0.0,0.0,0.0,0.0,0.0,0.0,0.0,0.0,0.0,0.0,0.0,0.0,0.0,52,log4j-core\src\main\java\org\apache\logging\log4j\core\net\server\LogEventBridge.java,0,0,0,0
org.apache.logging.log4j.core.net.server.ObjectInputStreamLogEventBridge, 0, 0, 0, 0, 0, 0, 0, 0, 0, 0, 0, 0, 0, 0,0.0,0.0,0.0,0.0,0.0,0.0,0.0,0.0,0.0,0.0,0.0,0.0,0.0,15,log4j-core\src\main\java\org\apache\logging\log4j\core\net\server\ObjectInputStreamLogEventBridge.java,0,0,0,0
org.apache.logging.log4j.core.net.server.SecureTcpSocketServer, 0, 0, 0, 0, 0, 0, 0, 0, 0, 0, 0, 0, 0, 0,0.0,0.0,0.0,0.5,0.0,0.0,0.0,0.0,0.0,0.0,0.0,0.0,0.0,6,log4j-core\src\main\java\org\apache\logging\log4j\core\net\server\SecureTcpSocketServer.java,0,0,0,0
org.apache.logging.log4j.core.net.server.SslXmlSocketServerTest, 0, 0, 0, 0, 0, 0, 0, 0, 0, 0, 0, 0, 0, 0,0.0,0.0,0.0,0.16666666666666666,0.0,0.0,0.0,0.0,0.0,0.0,0.0,0.0,0.0,44,log4j-core\src\test\java\org\apache\logging\log4j\core\net\server\SslXmlSocketServerTest.java,0,0,0,0
org.apache.logging.log4j.core.net.server.TcpJsonSocketServerTest, 0, 0, 0, 0, 0, 0, 0, 0, 0, 0, 0, 0, 0, 0,0.0,0.0,0.0,0.0,0.0,0.0,0.0,0.0,0.0,0.0,0.0,0.0,0.0,28,log4j-core\src\test\java\org\apache\logging\log4j\core\net\server\TcpJsonSocketServerTest.java,0,0,0,0
org.apache.logging.log4j.core.net.server.TcpSerializedSocketServerTest, 0, 0, 0, 0, 0, 0, 0, 0, 0, 0, 0, 0, 0, 0,0.0,0.0,0.0,0.0,0.0,0.0,0.0,0.0,0.0,0.0,0.0,0.0,0.0,28,log4j-core\src\test\java\org\apache\logging\log4j\core\net\server\TcpSerializedSocketServerTest.java,0,0,0,0
org.apache.logging.log4j.core.net.server.TcpXmlSocketServerTest, 0, 0, 0, 0, 0, 0, 0, 0, 0, 0, 0, 0, 0, 0,0.0,0.0,0.0,0.0,0.0,0.0,0.0,0.0,0.0,0.0,0.0,0.0,0.0,29,log4j-core\src\test\java\org\apache\logging\log4j\core\net\server\TcpXmlSocketServerTest.java,0,0,0,0
org.apache.logging.log4j.core.net.server.UdpJsonSocketServerTest, 0, 0, 0, 0, 0, 0, 0, 0, 0, 0, 0, 0, 0, 0,0.0,0.0,0.0,0.0,0.0,0.0,0.0,0.0,0.0,0.0,0.0,0.0,0.0,24,log4j-core\src\test\java\org\apache\logging\log4j\core\net\server\UdpJsonSocketServerTest.java,0,0,0,0
org.apache.logging.log4j.core.net.server.UdpSerializedSocketServerTest, 0, 0, 0, 0, 0, 0, 0, 0, 0, 0, 0, 0, 0, 0,0.0,0.0,0.0,0.0,0.0,0.0,0.0,0.0,0.0,0.0,0.0,0.0,0.0,24,log4j-core\src\test\java\org\apache\logging\log4j\core\net\server\UdpSerializedSocketServerTest.java,0,0,0,0
org.apache.logging.log4j.core.net.server.UdpSocketServer, 0, 0, 0, 0, 0, 0, 0, 0, 0, 0, 0, 0, 0, 0,0.0,0.0,0.0,0.0,0.0,0.0,0.0,0.0,0.0,0.0,0.0,0.0,0.0,84,log4j-core\src\main\java\org\apache\logging\log4j\core\net\server\UdpSocketServer.java,0,0,0,0
org.apache.logging.log4j.core.net.server.UdpXmlSocketServerTest, 0, 0, 0, 0, 0, 0, 0, 0, 0, 0, 0, 0, 0, 0,0.0,0.0,0.0,0.0,0.0,0.0,0.0,0.0,0.0,0.0,0.0,0.0,0.0,25,log4j-core\src\test\java\org\apache\logging\log4j\core\net\server\UdpXmlSocketServerTest.java,0,0,0,0
org.apache.logging.log4j.core.net.server.XmlInputStreamLogEventBridge, 0, 0, 0, 0, 0, 0, 0, 0, 0, 0, 0, 0, 0, 0,0.0,0.0,0.0,0.0,0.0,0.0,0.0,0.0,0.0,0.0,0.0,0.0,0.0,22,log4j-core\src\main\java\org\apache\logging\log4j\core\net\server\XmlInputStreamLogEventBridge.java,0,0,0,0
org.apache.logging.log4j.core.net.ssl.AbstractKeyStoreConfiguration, 0, 0, 0, 0, 0, 0, 0, 0, 0, 0, 0, 0, 0, 0,0.0,0.0,0.0,0.0,0.0,0.0,0.0,0.0,0.0,0.0,0.0,0.0,0.0,51,log4j-core\src\main\java\org\apache\logging\log4j\core\net\ssl\AbstractKeyStoreConfiguration.java,0,0,0,0
org.apache.logging.log4j.core.net.ssl.KeyStoreConfiguration, 0, 0, 0, 0, 0, 0, 0, 0, 0, 0, 0, 0, 0, 0,0.0,0.0,0.0,0.14285714285714285,0.0,0.0,0.0,0.0,0.0,0.0,0.0,0.0,0.0,23,log4j-core\src\main\java\org\apache\logging\log4j\core\net\ssl\KeyStoreConfiguration.java,0,0,1,2
org.apache.logging.log4j.core.net.ssl.KeyStoreConfigurationException, 0, 0, 0, 0, 0, 0, 0, 0, 0, 0, 0, 0, 0, 0,0.0,0.0,0.0,0.5,0.0,0.0,0.0,0.0,0.0,0.0,0.0,0.0,0.0,6,log4j-core\src\main\java\org\apache\logging\log4j\core\net\ssl\KeyStoreConfigurationException.java,0,0,0,0
org.apache.logging.log4j.core.net.ssl.KeyStoreConfigurationTest, 0, 0, 0, 0, 0, 0, 0, 0, 0, 0, 0, 0, 0, 0,0.0,0.0,0.0,0.0,0.0,0.0,0.0,0.0,0.0,0.0,0.0,0.0,0.0,28,log4j-core\src\test\java\org\apache\logging\log4j\core\net\ssl\KeyStoreConfigurationTest.java,0,0,0,0
org.apache.logging.log4j.core.net.ssl.LegacyBsdTlsSyslogInputStreamReader, 0, 0, 0, 0, 0, 0, 0, 0, 0, 0, 0, 0, 0, 0,0.0,0.0,0.0,0.0,0.0,0.0,0.0,0.0,0.0,0.0,0.0,0.0,0.0,34,log4j-core\src\test\java\org\apache\logging\log4j\core\net\ssl\LegacyBsdTlsSyslogInputStreamReader.java,0,0,0,0
org.apache.logging.log4j.core.net.ssl.SslConfiguration, 0, 0, 0, 1, 0, 0, 0, 0, 0, 0, 0, 0, 0, 1,0.0,0.0,0.0,0.0,0.0,0.0,0.0,0.18181818181818182,0.0,0.0,0.0,0.0,0.0,170,log4j-core\src\main\java\org\apache\logging\log4j\core\net\ssl\SslConfiguration.java,0,0,0,0
org.apache.logging.log4j.core.net.ssl.SslConfigurationDefaults, 0, 0, 0, 0, 0, 0, 0, 0, 0, 0, 0, 0, 0, 0,0.0,0.0,0.0,0.0,0.0,0.0,0.0,0.0,0.0,0.0,0.0,0.0,0.0,4,log4j-core\src\main\java\org\apache\logging\log4j\core\net\ssl\SslConfigurationDefaults.java,0,0,0,0
org.apache.logging.log4j.core.net.ssl.SslConfigurationException, 0, 0, 0, 0, 0, 0, 0, 0, 0, 0, 0, 0, 0, 0,0.0,0.0,0.0,0.0,0.0,0.0,0.0,0.0,0.0,0.0,0.0,0.0,0.0,6,log4j-core\src\main\java\org\apache\logging\log4j\core\net\ssl\SslConfigurationException.java,0,0,0,0
org.apache.logging.log4j.core.net.ssl.SslConfigurationTest, 0, 0, 0, 0, 0, 0, 0, 0, 0, 0, 0, 0, 0, 0,0.0,0.0,0.0,0.3333333333333333,0.0,0.0,0.0,0.0,0.0,0.0,0.0,0.0,0.0,34,log4j-core\src\test\java\org\apache\logging\log4j\core\net\ssl\SslConfigurationTest.java,0,10,6,22
org.apache.logging.log4j.core.net.ssl.StoreConfiguration, 0, 0, 0, 0, 0, 0, 0, 0, 0, 0, 0, 0, 0, 0,0.0,0.0,0.0,0.25,0.0,0.0,0.0,0.0,0.0,0.0,0.0,0.0,0.0,63,log4j-core\src\main\java\org\apache\logging\log4j\core\net\ssl\StoreConfiguration.java,0,0,0,0
org.apache.logging.log4j.core.net.ssl.StoreConfigurationException, 0, 0, 0, 0, 0, 0, 0, 0, 0, 0, 0, 0, 0, 0,0.0,0.0,0.0,0.0,0.0,0.0,0.0,0.0,0.0,0.0,0.0,0.0,0.0,9,log4j-core\src\main\java\org\apache\logging\log4j\core\net\ssl\StoreConfigurationException.java,0,0,0,0
org.apache.logging.log4j.core.net.ssl.StoreConfigurationTest, 0, 0, 0, 0, 0, 0, 0, 0, 0, 0, 0, 0, 0, 0,0.0,0.0,0.0,0.0,0.0,0.0,0.0,0.0,0.0,0.0,0.0,0.0,0.0,27,log4j-core\src\test\java\org\apache\logging\log4j\core\net\ssl\StoreConfigurationTest.java,0,0,0,0
org.apache.logging.log4j.core.net.ssl.TestConstants, 0, 0, 0, 0, 0, 0, 0, 0, 0, 0, 0, 0, 0, 0,0.0,0.0,0.0,0.0,0.0,0.0,0.0,0.0,0.0,0.0,0.0,0.0,0.0,11,log4j-core\src\test\java\org\apache\logging\log4j\core\net\ssl\TestConstants.java,0,0,0,0
org.apache.logging.log4j.core.net.ssl.TlsSyslogInputStreamReader, 0, 0, 0, 0, 0, 0, 0, 0, 0, 0, 0, 0, 0, 0,0.0,0.0,0.0,0.0,0.0,0.0,0.0,0.0,0.0,0.0,0.0,0.0,0.0,59,log4j-core\src\test\java\org\apache\logging\log4j\core\net\ssl\TlsSyslogInputStreamReader.java,0,0,1,2
org.apache.logging.log4j.core.net.ssl.TlsSyslogInputStreamReaderBase, 0, 0, 0, 0, 0, 0, 0, 0, 0, 0, 0, 0, 0, 0,0.0,0.0,0.0,0.0,0.0,0.0,0.0,0.0,0.0,0.0,0.0,0.0,0.0,10,log4j-core\src\test\java\org\apache\logging\log4j\core\net\ssl\TlsSyslogInputStreamReaderBase.java,0,0,0,0
org.apache.logging.log4j.core.net.ssl.TrustStoreConfiguration, 0, 0, 0, 0, 0, 0, 0, 0, 0, 0, 0, 0, 0, 0,0.0,0.0,0.0,0.16666666666666666,0.0,0.0,0.0,0.0,0.0,0.0,0.0,0.0,0.0,22,log4j-core\src\main\java\org\apache\logging\log4j\core\net\ssl\TrustStoreConfiguration.java,0,0,0,0
org.apache.logging.log4j.core.net.ssl.TrustStoreConfigurationException, 0, 0, 0, 0, 0, 0, 0, 0, 0, 0, 0, 0, 0, 0,0.0,0.0,0.0,0.5,0.0,0.0,0.0,0.0,0.0,0.0,0.0,0.0,0.0,6,log4j-core\src\main\java\org\apache\logging\log4j\core\net\ssl\TrustStoreConfigurationException.java,0,0,0,0
org.apache.logging.log4j.core.net.ssl.TrustStoreConfigurationTest, 0, 0, 0, 0, 0, 0, 0, 0, 0, 0, 0, 0, 0, 0,0.0,0.0,0.0,0.0,0.0,0.0,0.0,0.0,0.0,0.0,0.0,0.0,0.0,27,log4j-core\src\test\java\org\apache\logging\log4j\core\net\ssl\TrustStoreConfigurationTest.java,0,0,0,0
org.apache.logging.log4j.core.osgi.Activator, 0, 0, 0, 0, 0, 0, 0, 0, 0, 0, 0, 0, 0, 0,0.0,0.0,0.0,0.0,0.0,0.0,0.0,0.0,0.0,0.0,0.0,0.0,0.0,48,log4j-core\src\main\java\org\apache\logging\log4j\core\osgi\Activator.java,0,0,0,0
org.apache.logging.log4j.core.osgi.BundleContextSelector, 0, 0, 0, 0, 0, 0, 0, 0, 0, 0, 0, 0, 0, 0,0.0,0.0,0.0,0.0,0.0,0.0,0.0,0.0,0.0,0.0,0.0,0.0,0.0,48,log4j-core\src\main\java\org\apache\logging\log4j\core\osgi\BundleContextSelector.java,0,0,0,0
org.apache.logging.log4j.core.osgi.equinox.EquinoxLoadCoreBundleTest, 0, 0, 0, 0, 0, 0, 0, 0, 0, 0, 0, 0, 0, 0,0.0,0.0,0.0,0.0,0.0,0.0,0.0,0.0,0.0,0.0,0.0,0.0,0.0,2,log4j-core\src\test\java\org\apache\logging\log4j\core\osgi\equinox\EquinoxLoadCoreBundleTest.java,0,0,0,0
org.apache.logging.log4j.core.osgi.felix.FelixLoadCoreBundleTest, 0, 0, 0, 0, 0, 0, 0, 0, 0, 0, 0, 0, 0, 0,0.0,0.0,0.0,0.0,0.0,0.0,0.0,0.0,0.0,0.0,0.0,0.0,0.0,2,log4j-core\src\test\java\org\apache\logging\log4j\core\osgi\felix\FelixLoadCoreBundleTest.java,0,0,0,0
org.apache.logging.log4j.core.pattern.AbstractPatternConverter, 0, 0, 0, 0, 0, 0, 0, 0, 0, 0, 0, 0, 0, 0,0.0,0.0,0.0,0.0,0.0,0.0,0.0,0.0,0.0,0.0,0.0,0.0,0.0,17,log4j-core\src\main\java\org\apache\logging\log4j\core\pattern\AbstractPatternConverter.java,0,0,0,0
org.apache.logging.log4j.core.pattern.AnsiConverter, 0, 0, 0, 0, 0, 0, 0, 0, 0, 0, 0, 0, 0, 0,0.0,0.0,0.0,0.0,0.0,0.0,0.0,0.0,0.0,0.0,0.0,0.0,0.0,17,log4j-core\src\main\java\org\apache\logging\log4j\core\pattern\AnsiConverter.java,0,0,0,0
org.apache.logging.log4j.core.pattern.ArrayPatternConverter, 0, 0, 0, 0, 0, 0, 0, 0, 0, 0, 0, 0, 0, 0,0.0,0.0,0.0,0.0,0.0,0.0,0.0,0.0,0.0,0.0,0.0,0.0,0.0,17,log4j-core\src\main\java\org\apache\logging\log4j\core\pattern\ArrayPatternConverter.java,0,0,0,0
org.apache.logging.log4j.core.pattern.CallerInformationTest, 1, 0, 1, 0, 0, 0, 0, 0, 0, 0, 0, 0, 0, 2,0.0,0.0,0.0,0.0,0.0,0.0,0.0,1.0,0.0,0.0,0.0,0.0,0.0,32,log4j-core\src\test\java\org\apache\logging\log4j\core\pattern\CallerInformationTest.java,0,0,0,0
org.apache.logging.log4j.core.pattern.DatePatternConverterTest, 0, 0, 0, 0, 0, 0, 0, 0, 0, 0, 0, 0, 0, 0,0.0,0.0,0.0,0.0,0.0,0.0,0.0,0.0,0.0,0.0,0.0,0.0,0.0,85,log4j-core\src\test\java\org\apache\logging\log4j\core\pattern\DatePatternConverterTest.java,0,0,0,0
org.apache.logging.log4j.core.pattern.EncodingPatternConverterTest, 0, 0, 0, 0, 0, 0, 0, 0, 0, 0, 0, 0, 0, 0,0.0,0.0,0.0,0.0,0.0,0.0,0.0,0.0,0.0,0.0,0.0,0.0,0.0,16,log4j-core\src\test\java\org\apache\logging\log4j\core\pattern\EncodingPatternConverterTest.java,0,0,0,0
org.apache.logging.log4j.core.pattern.FileDatePatternConverter, 0, 0, 0, 0, 0, 0, 0, 0, 0, 0, 0, 0, 0, 0,0.0,0.0,0.0,0.0,0.0,0.0,0.0,0.0,0.0,0.0,0.0,0.0,0.0,13,log4j-core\src\main\java\org\apache\logging\log4j\core\pattern\FileDatePatternConverter.java,0,0,0,0
org.apache.logging.log4j.core.pattern.LevelPatternConverterTest, 0, 0, 0, 0, 0, 0, 0, 0, 0, 0, 0, 0, 0, 0,0.0,0.0,0.0,0.0,0.0,0.0,0.0,0.0,0.0,0.0,0.0,0.0,0.0,107,log4j-core\src\test\java\org\apache\logging\log4j\core\pattern\LevelPatternConverterTest.java,0,0,0,0
org.apache.logging.log4j.core.pattern.LiteralPatternConverterTest, 0, 0, 0, 0, 0, 0, 0, 0, 0, 0, 0, 0, 0, 0,0.0,0.0,0.0,0.0,0.0,0.0,0.0,0.0,0.0,0.0,0.0,0.0,0.0,14,log4j-core\src\test\java\org\apache\logging\log4j\core\pattern\LiteralPatternConverterTest.java,0,0,0,0
org.apache.logging.log4j.core.pattern.LogEventPatternConverter, 0, 0, 0, 0, 0, 0, 0, 0, 0, 0, 0, 0, 0, 0,0.0,0.0,0.0,0.0,0.0,0.0,0.0,0.0,0.0,0.0,0.0,0.0,0.0,15,log4j-core\src\main\java\org\apache\logging\log4j\core\pattern\LogEventPatternConverter.java,0,0,0,0
org.apache.logging.log4j.core.pattern.MarkerPatternConverterTest, 0, 0, 0, 0, 0, 0, 0, 0, 0, 0, 0, 0, 0, 0,0.0,0.0,0.0,0.0,0.0,0.0,0.0,0.0,0.0,0.0,0.0,0.0,0.0,13,log4j-core\src\test\java\org\apache\logging\log4j\core\pattern\MarkerPatternConverterTest.java,0,0,0,0
org.apache.logging.log4j.core.pattern.MessagePatternConverterTest, 0, 0, 0, 0, 0, 0, 0, 0, 0, 0, 0, 0, 0, 0,0.0,0.0,0.0,0.0,0.0,0.0,0.0,0.0,0.0,0.0,0.0,0.0,0.0,39,log4j-core\src\test\java\org\apache\logging\log4j\core\pattern\MessagePatternConverterTest.java,0,0,0,0
org.apache.logging.log4j.core.pattern.NameAbbreviatorTest, 0, 0, 0, 0, 0, 0, 0, 0, 0, 0, 0, 0, 0, 0,0.0,0.0,0.0,0.0,0.0,0.0,0.0,0.0,0.0,0.0,0.0,0.0,0.0,28,log4j-core\src\test\java\org\apache\logging\log4j\core\pattern\NameAbbreviatorTest.java,0,0,0,0
org.apache.logging.log4j.core.pattern.NamePatternConverter, 0, 0, 0, 0, 0, 0, 0, 0, 0, 0, 0, 0, 0, 0,0.0,0.0,0.0,0.0,0.0,0.0,0.0,0.0,0.0,0.0,0.0,0.0,0.0,14,log4j-core\src\main\java\org\apache\logging\log4j\core\pattern\NamePatternConverter.java,0,0,0,0
org.apache.logging.log4j.core.pattern.PatternConverter, 0, 0, 0, 0, 0, 0, 0, 0, 0, 0, 0, 0, 0, 0,0.0,0.0,0.0,0.0,0.0,0.0,0.0,0.0,0.0,0.0,0.0,0.0,0.0,14,log4j-core\src\main\java\org\apache\logging\log4j\core\pattern\PatternConverter.java,0,0,0,0
org.apache.logging.log4j.core.pattern.PatternParserTest2, 0, 0, 0, 0, 0, 0, 0, 1, 0, 0, 0, 0, 0, 1,0.0,0.0,0.0,0.0,0.0,0.0,0.0,0.0,0.0,0.0,0.0,0.0,0.0,47,log4j-core\src\test\java\org\apache\logging\log4j\core\pattern\PatternParserTest2.java,0,0,1,2
org.apache.logging.log4j.core.pattern.RegexReplacement, 0, 0, 0, 0, 0, 0, 0, 0, 0, 0, 0, 0, 0, 0,0.0,0.0,0.0,0.0,0.0,0.0,0.0,0.0,0.0,0.0,0.0,0.0,0.0,29,log4j-core\src\main\java\org\apache\logging\log4j\core\pattern\RegexReplacement.java,0,0,0,0
org.apache.logging.log4j.core.pattern.RegexReplacementConverterTest, 0, 0, 0, 0, 0, 0, 0, 0, 0, 0, 0, 0, 0, 0,0.0,0.0,0.0,0.0,0.0,0.0,0.0,0.0,0.0,0.0,0.0,0.0,0.0,18,log4j-core\src\test\java\org\apache\logging\log4j\core\pattern\RegexReplacementConverterTest.java,0,0,0,0
org.apache.logging.log4j.core.pattern.RegexReplacementTest, 1, 0, 1, 0, 0, 0, 0, 0, 0, 0, 0, 0, 0, 2,0.0,0.0,0.0,0.0,0.0,0.0,0.0,1.0,0.0,0.0,0.0,0.0,0.0,44,log4j-core\src\test\java\org\apache\logging\log4j\core\pattern\RegexReplacementTest.java,0,0,0,0
org.apache.logging.log4j.core.pattern.StyleConverterTest, 0, 0, 1, 0, 0, 0, 0, 0, 0, 0, 0, 0, 0, 1,0.0,0.0,0.0,0.0,0.0,0.0,0.0,1.0,0.0,0.0,0.0,0.0,0.0,22,log4j-core\src\test\java\org\apache\logging\log4j\core\pattern\StyleConverterTest.java,0,0,0,0
org.apache.logging.log4j.core.selector.BasicContextSelector, 0, 0, 0, 0, 0, 0, 0, 0, 0, 0, 0, 0, 0, 0,0.0,0.0,0.0,0.0,0.0,0.0,0.0,0.0,0.0,0.0,0.0,0.0,0.0,26,log4j-core\src\main\java\org\apache\logging\log4j\core\selector\BasicContextSelector.java,0,0,0,0
org.apache.logging.log4j.core.selector.ClassLoaderContextSelectorTest, 0, 0, 0, 0, 0, 0, 0, 0, 0, 0, 0, 0, 0, 0,0.0,0.0,0.0,0.0,0.0,0.0,0.0,0.0,0.0,0.0,0.0,0.0,0.0,31,log4j-core\src\test\java\org\apache\logging\log4j\core\selector\ClassLoaderContextSelectorTest.java,0,0,0,0
org.apache.logging.log4j.core.selector.ContextSelector, 0, 0, 0, 0, 0, 0, 0, 0, 0, 0, 0, 0, 0, 0,0.0,0.0,0.0,0.0,0.0,0.0,0.0,0.0,0.0,0.0,0.0,0.0,0.0,31,log4j-core\src\main\java\org\apache\logging\log4j\core\selector\ContextSelector.java,0,0,0,0
org.apache.logging.log4j.core.selector.NamedContextSelector, 0, 0, 0, 0, 0, 0, 0, 0, 0, 0, 0, 0, 0, 0,0.0,0.0,0.0,0.0,0.0,0.0,0.0,0.0,0.0,0.0,0.0,0.0,0.0,31,log4j-core\src\main\java\org\apache\logging\log4j\core\selector\NamedContextSelector.java,0,0,0,0
org.apache.logging.log4j.core.selector.TestClassLoader, 0, 0, 0, 0, 0, 0, 0, 0, 0, 0, 0, 0, 0, 0,0.0,0.0,0.0,0.0,0.0,0.0,0.0,0.0,0.0,0.0,0.0,0.0,0.0,35,log4j-core\src\test\java\org\apache\logging\log4j\core\selector\TestClassLoader.java,0,0,0,0
org.apache.logging.log4j.core.selector.a.Logging1, 1, 0, 0, 0, 0, 0, 0, 0, 0, 0, 0, 0, 0, 1,0.0,0.0,0.0,0.0,0.0,0.0,0.0,0.0,0.0,0.0,0.0,0.0,0.0,3,log4j-core\src\test\java\org\apache\logging\log4j\core\selector\a\Logging1.java,0,0,0,0
org.apache.logging.log4j.core.selector.b.Logging2, 1, 0, 0, 0, 0, 0, 0, 0, 0, 0, 0, 0, 0, 1,0.0,0.0,0.0,0.0,0.0,0.0,0.0,0.0,0.0,0.0,0.0,0.0,0.0,3,log4j-core\src\test\java\org\apache\logging\log4j\core\selector\b\Logging2.java,0,0,0,0
org.apache.logging.log4j.core.selector.c.Logging3, 1, 0, 0, 0, 0, 0, 0, 0, 0, 0, 0, 0, 0, 1,0.0,0.0,0.0,0.0,0.0,0.0,0.0,0.0,0.0,0.0,0.0,0.0,0.0,3,log4j-core\src\test\java\org\apache\logging\log4j\core\selector\c\Logging3.java,0,0,0,0
org.apache.logging.log4j.core.tools.GenerateCustomLoggerTest, 0, 0, 0, 0, 0, 0, 0, 0, 0, 0, 0, 0, 0, 0,0.0,0.0,0.0,0.0,0.0,0.0,0.0,0.0,0.0,0.0,0.0,0.0,0.0,70,log4j-core\src\test\java\org\apache\logging\log4j\core\tools\GenerateCustomLoggerTest.java,0,0,0,0
org.apache.logging.log4j.core.tools.GenerateExtendedLoggerTest, 0, 0, 0, 0, 0, 0, 0, 0, 0, 0, 0, 0, 0, 0,0.0,0.0,0.0,0.0,0.0,0.0,0.0,0.0,0.0,0.0,0.0,0.0,0.0,84,log4j-core\src\test\java\org\apache\logging\log4j\core\tools\GenerateExtendedLoggerTest.java,0,0,0,0
org.apache.logging.log4j.core.util.Assert, 0, 0, 0, 0, 0, 0, 0, 0, 0, 0, 0, 0, 0, 0,0.0,0.0,0.0,0.0,0.0,0.0,0.0,0.09090909090909091,0.0,0.0,0.0,0.0,0.0,10,log4j-core\src\main\java\org\apache\logging\log4j\core\util\Assert.java,0,0,0,0
org.apache.logging.log4j.core.util.Booleans, 0, 0, 0, 0, 0, 0, 0, 0, 0, 0, 0, 0, 0, 0,0.0,0.0,0.0,0.0,0.0,0.0,0.0,1.0,0.0,0.0,0.0,0.0,0.0,7,log4j-core\src\main\java\org\apache\logging\log4j\core\util\Booleans.java,0,0,0,0
org.apache.logging.log4j.core.util.Builder, 0, 0, 0, 0, 0, 0, 0, 0, 0, 0, 0, 0, 0, 0,0.0,0.0,0.0,0.0,0.0,0.0,0.0,0.0,0.0,0.0,0.0,0.0,0.0,7,log4j-core\src\main\java\org\apache\logging\log4j\core\util\Builder.java,0,0,0,0
org.apache.logging.log4j.core.util.CachedClock, 0, 0, 0, 0, 0, 0, 0, 0, 0, 0, 0, 0, 0, 0,0.0,0.0,0.0,0.0,0.0,0.0,0.0,0.0,0.0,0.0,0.0,0.0,0.0,41,log4j-core\src\main\java\org\apache\logging\log4j\core\util\CachedClock.java,0,0,0,0
org.apache.logging.log4j.core.util.Cancellable, 0, 0, 0, 0, 0, 0, 0, 0, 0, 0, 0, 0, 0, 0,0.0,0.0,0.0,0.0,0.0,0.0,0.0,0.0,0.0,0.0,0.0,0.0,0.0,41,log4j-core\src\main\java\org\apache\logging\log4j\core\util\Cancellable.java,0,0,0,0
org.apache.logging.log4j.core.util.Charsets, 0, 0, 0, 0, 0, 0, 0, 0, 0, 0, 0, 0, 0, 0,0.0,0.0,0.0,0.0,0.0,0.0,0.0,0.0,0.0,0.0,0.0,0.0,0.0,27,log4j-core\src\main\java\org\apache\logging\log4j\core\util\Charsets.java,30,0,0,30
org.apache.logging.log4j.core.util.CharsetsTest, 0, 0, 0, 0, 0, 0, 0, 0, 0, 0, 0, 0, 0, 0,0.0,0.0,0.0,0.0,0.0,0.0,0.0,0.0,0.0,0.0,0.0,0.0,0.0,28,log4j-core\src\test\java\org\apache\logging\log4j\core\util\CharsetsTest.java,33,0,0,33
org.apache.logging.log4j.core.util.Clock, 0, 0, 0, 0, 0, 0, 0, 0, 0, 0, 0, 0, 0, 0,0.0,0.0,0.0,0.0,0.0,0.0,0.0,0.0,0.0,0.0,0.0,0.0,0.0,28,log4j-core\src\main\java\org\apache\logging\log4j\core\util\Clock.java,0,0,0,0
org.apache.logging.log4j.core.util.ClockFactory, 0, 0, 0, 0, 0, 0, 0, 0, 0, 0, 0, 0, 0, 0,0.0,0.0,0.0,0.0,0.0,0.0,0.0,0.0,0.0,0.0,0.0,0.0,0.0,35,log4j-core\src\main\java\org\apache\logging\log4j\core\util\ClockFactory.java,0,0,0,0
org.apache.logging.log4j.core.util.ClockFactoryTest, 0, 0, 0, 0, 0, 0, 0, 0, 0, 0, 0, 0, 0, 0,0.25,0.0,0.25,0.0,0.0,0.0,0.0,0.0,0.0,0.0,0.0,0.0,0.0,62,log4j-core\src\test\java\org\apache\logging\log4j\core\util\ClockFactoryTest.java,0,0,0,0
org.apache.logging.log4j.core.util.Closer, 0, 0, 0, 0, 0, 0, 0, 0, 0, 0, 0, 0, 0, 0,0.0,0.0,0.0,0.3333333333333333,0.0,0.0,0.0,0.0,0.0,0.0,0.0,0.0,0.0,59,log4j-core\src\main\java\org\apache\logging\log4j\core\util\Closer.java,0,0,0,0
org.apache.logging.log4j.core.util.CoarseCachedClock, 0, 0, 0, 0, 0, 0, 0, 0, 0, 0, 0, 0, 0, 0,0.0,0.0,0.0,0.0,0.0,0.0,0.0,0.0,0.0,0.0,0.0,0.0,0.0,34,log4j-core\src\main\java\org\apache\logging\log4j\core\util\CoarseCachedClock.java,0,0,0,0
org.apache.logging.log4j.core.util.Compare, 0, 0, 0, 0, 0, 0, 0, 1, 0, 0, 0, 0, 0, 1,0.0,0.0,0.0,0.0,0.0,0.0,0.0,0.0,0.0,0.0,0.0,0.0,0.0,88,log4j-core\src\test\java\org\apache\logging\log4j\core\util\Compare.java,0,0,0,0
org.apache.logging.log4j.core.util.Constants, 0, 0, 0, 0, 0, 0, 0, 0, 0, 0, 0, 0, 0, 0,0.0,0.0,0.0,0.0,0.0,0.0,0.0,0.0,0.0,0.0,0.0,0.0,0.0,10,log4j-core\src\main\java\org\apache\logging\log4j\core\util\Constants.java,0,2,0,2
org.apache.logging.log4j.core.util.CyclicBuffer, 0, 0, 0, 0, 0, 0, 0, 0, 0, 0, 0, 0, 0, 0,0.0,0.0,0.0,0.0,0.0,0.0,0.0,0.0,0.0,0.0,0.0,0.0,0.0,45,log4j-core\src\main\java\org\apache\logging\log4j\core\util\CyclicBuffer.java,0,0,0,0
org.apache.logging.log4j.core.util.DefaultShutdownCallbackRegistry, 0, 0, 0, 0, 0, 0, 0, 0, 0, 0, 0, 0, 0, 0,0.0,0.0,0.0,0.0,0.0,0.0,0.0,1.0,0.0,0.0,0.0,0.0,0.0,101,log4j-core\src\main\java\org\apache\logging\log4j\core\util\DefaultShutdownCallbackRegistry.java,0,0,0,0
org.apache.logging.log4j.core.util.FileUtils, 0, 0, 0, 0, 0, 0, 0, 0, 0, 0, 0, 0, 0, 0,0.0,0.0,0.25,0.25,0.0,0.0,0.0,0.0,0.0,0.0,0.0,0.0,0.0,54,log4j-core\src\main\java\org\apache\logging\log4j\core\util\FileUtils.java,0,12,6,24
org.apache.logging.log4j.core.util.FileUtilsTest, 0, 0, 0, 0, 0, 0, 0, 0, 0, 0, 0, 0, 0, 0,0.0,0.0,0.0,0.0,0.0,0.0,0.0,0.0,0.0,0.0,0.0,0.0,0.0,33,log4j-core\src\test\java\org\apache\logging\log4j\core\util\FileUtilsTest.java,1,31,3,38
org.apache.logging.log4j.core.util.Integers, 0, 0, 0, 0, 0, 0, 0, 0, 0, 0, 0, 0, 0, 0,0.0,0.0,0.0,0.25,0.0,0.0,0.0,0.25,0.0,0.0,0.0,0.0,0.0,13,log4j-core\src\main\java\org\apache\logging\log4j\core\util\Integers.java,0,0,0,0
org.apache.logging.log4j.core.util.IntegersTest, 0, 0, 0, 0, 0, 0, 0, 0, 0, 0, 0, 0, 0, 0,0.0,0.0,0.0,0.0,0.0,0.0,0.0,0.0,0.0,0.0,0.0,0.0,0.0,12,log4j-core\src\test\java\org\apache\logging\log4j\core\util\IntegersTest.java,0,0,0,0
org.apache.logging.log4j.core.util.JndiCloser, 0, 0, 0, 0, 0, 0, 0, 0, 0, 0, 0, 0, 0, 0,0.0,0.0,0.0,0.0,0.0,0.0,0.0,0.0,0.0,0.0,0.0,0.0,0.0,13,log4j-core\src\main\java\org\apache\logging\log4j\core\util\JndiCloser.java,0,0,0,0
org.apache.logging.log4j.core.util.KeyValuePair, 0, 0, 0, 0, 0, 0, 0, 0, 0, 0, 0, 0, 0, 0,0.25,0.0,0.0,0.25,0.0,0.0,0.0,0.0,0.0,0.0,0.0,0.0,0.0,87,log4j-core\src\main\java\org\apache\logging\log4j\core\util\KeyValuePair.java,0,0,0,0
org.apache.logging.log4j.core.util.KeyValuePairSerializationTest, 0, 0, 0, 0, 0, 0, 0, 0, 0, 0, 0, 0, 0, 0,0.0,0.0,0.0,0.0,0.0,0.0,0.0,0.0,0.0,0.0,0.0,0.0,0.0,11,log4j-core\src\test\java\org\apache\logging\log4j\core\util\KeyValuePairSerializationTest.java,0,0,0,0
org.apache.logging.log4j.core.util.Loader, 0, 0, 0, 0, 0, 0, 0, 0, 0, 0, 0, 0, 0, 0,0.08333333333333333,0.0,0.0,0.0,0.0,0.0,0.0,0.5,0.0,0.0,0.0,0.0,0.0,146,log4j-core\src\main\java\org\apache\logging\log4j\core\util\Loader.java,0,0,0,0
org.apache.logging.log4j.core.util.NetUtils, 0, 0, 0, 0, 0, 0, 0, 0, 0, 0, 0, 0, 0, 0,1.0,0.0,1.0,0.0,0.0,0.0,0.0,0.0,0.0,0.0,0.0,0.0,0.0,33,log4j-core\src\main\java\org\apache\logging\log4j\core\util\NetUtils.java,0,0,0,0
org.apache.logging.log4j.core.util.Patterns, 0, 0, 0, 0, 0, 0, 0, 0, 0, 0, 0, 0, 0, 0,0.0,0.0,0.0,0.0,0.0,0.0,0.0,0.0,0.0,0.0,0.0,0.0,0.0,9,log4j-core\src\main\java\org\apache\logging\log4j\core\util\Patterns.java,0,0,0,0
org.apache.logging.log4j.core.util.Profiler, 0, 0, 0, 0, 0, 0, 0, 0, 0, 0, 0, 0, 0, 0,0.0,0.0,0.0,1.0,0.0,0.0,0.0,0.0,0.0,0.0,0.0,0.0,0.0,57,log4j-core\src\test\java\org\apache\logging\log4j\core\util\Profiler.java,0,0,0,0
org.apache.logging.log4j.core.util.SecretKeyProvider, 0, 0, 0, 0, 0, 0, 0, 0, 0, 0, 0, 0, 0, 0,0.0,0.0,0.0,0.0,0.0,0.0,0.0,0.0,0.0,0.0,0.0,0.0,0.0,57,log4j-core\src\main\java\org\apache\logging\log4j\core\util\SecretKeyProvider.java,0,0,0,0
org.apache.logging.log4j.core.util.SetUtils, 0, 0, 0, 0, 0, 0, 0, 0, 0, 0, 0, 0, 0, 0,0.0,0.0,0.0,0.0,0.0,0.0,0.0,0.0,0.0,0.0,0.0,0.0,0.0,12,log4j-core\src\main\java\org\apache\logging\log4j\core\util\SetUtils.java,0,0,0,0
org.apache.logging.log4j.core.util.ShutdownCallbackRegistry, 0, 0, 0, 0, 0, 0, 0, 0, 0, 0, 0, 0, 0, 0,0.0,0.0,0.0,0.0,0.0,0.0,0.0,0.0,0.0,0.0,0.0,0.0,0.0,12,log4j-core\src\main\java\org\apache\logging\log4j\core\util\ShutdownCallbackRegistry.java,0,0,0,0
org.apache.logging.log4j.core.util.ShutdownCallbackRegistryTest, 0, 0, 0, 0, 0, 0, 0, 0, 0, 0, 0, 0, 0, 0,0.0,0.0,0.0,0.0,0.0,0.0,0.0,0.5,0.0,0.0,0.0,0.0,0.0,47,log4j-core\src\test\java\org\apache\logging\log4j\core\util\ShutdownCallbackRegistryTest.java,0,0,0,0
org.apache.logging.log4j.core.util.SystemClock, 0, 0, 0, 0, 0, 0, 0, 0, 0, 0, 0, 0, 0, 0,0.0,0.0,0.0,0.0,0.0,0.0,0.0,0.0,0.0,0.0,0.0,0.0,0.0,6,log4j-core\src\main\java\org\apache\logging\log4j\core\util\SystemClock.java,0,0,0,0
org.apache.logging.log4j.core.util.SystemClockTest, 0, 0, 0, 0, 0, 0, 0, 0, 0, 0, 0, 0, 0, 0,0.0,0.0,0.0,0.0,0.0,0.0,0.0,0.0,0.0,0.0,0.0,0.0,0.0,17,log4j-core\src\test\java\org\apache\logging\log4j\core\util\SystemClockTest.java,0,0,0,0
org.apache.logging.log4j.core.util.Throwables, 0, 0, 0, 0, 0, 0, 0, 0, 0, 0, 0, 0, 0, 0,0.0,0.0,0.0,0.0,0.0,0.0,0.0,0.0,0.0,0.0,0.0,0.0,0.0,83,log4j-core\src\main\java\org\apache\logging\log4j\core\util\Throwables.java,0,0,0,0
org.apache.logging.log4j.core.util.ThrowablesTest, 0, 0, 0, 0, 0, 0, 0, 0, 0, 0, 0, 0, 0, 0,0.0,0.0,0.0,0.0,0.0,0.0,0.0,0.0,0.0,0.0,0.0,0.0,0.0,14,log4j-core\src\test\java\org\apache\logging\log4j\core\util\ThrowablesTest.java,0,0,0,0
org.apache.logging.log4j.core.util.UnexpectedFormatException, 0, 0, 0, 0, 0, 0, 0, 0, 0, 0, 0, 0, 0, 0,0.0,0.0,0.0,0.0,0.0,0.0,0.0,0.0,0.0,0.0,0.0,0.0,0.0,6,log4j-core\src\test\java\org\apache\logging\log4j\core\util\UnexpectedFormatException.java,0,0,0,0
org.apache.logging.log4j.core.util.UuidTest, 0, 0, 0, 0, 0, 0, 0, 0, 0, 0, 0, 0, 0, 0,0.0,0.0,0.0,1.0,0.0,0.0,0.0,0.0,0.0,0.0,0.0,0.0,0.0,85,log4j-core\src\test\java\org\apache\logging\log4j\core\util\UuidTest.java,0,0,0,0
org.apache.logging.log4j.core.util.UuidUtil, 0, 0, 0, 1, 0, 0, 0, 0, 0, 0, 0, 0, 0, 1,0.0,0.0,0.0,0.3333333333333333,0.0,0.0,0.0,0.0,0.0,0.0,0.0,0.0,0.0,114,log4j-core\src\main\java\org\apache\logging\log4j\core\util\UuidUtil.java,0,0,0,0
org.apache.logging.log4j.flume.appender.AbstractFlumeManager, 0, 0, 0, 0, 0, 0, 0, 0, 0, 0, 0, 0, 0, 0,0.0,0.0,0.0,0.0,0.0,0.0,0.0,1.0,0.0,0.0,0.0,0.0,0.0,6,log4j-flume-ng\src\main\java\org\apache\logging\log4j\flume\appender\AbstractFlumeManager.java,0,0,0,0
org.apache.logging.log4j.flume.appender.Agent, 0, 0, 0, 0, 0, 0, 0, 0, 0, 0, 0, 0, 0, 0,0.0,0.0,0.0,0.0,0.0,0.0,0.0,0.5,0.0,0.0,0.0,0.0,0.0,36,log4j-flume-ng\src\main\java\org\apache\logging\log4j\flume\appender\Agent.java,0,0,0,0
org.apache.logging.log4j.flume.appender.BatchEvent, 0, 0, 0, 0, 0, 0, 0, 0, 0, 0, 0, 0, 0, 0,0.0,0.0,0.0,0.0,0.0,0.0,0.0,0.0,0.0,0.0,0.0,0.0,0.0,9,log4j-flume-ng\src\main\java\org\apache\logging\log4j\flume\appender\BatchEvent.java,0,0,0,0
org.apache.logging.log4j.flume.appender.FlumeAppender, 0, 0, 0, 0, 0, 0, 0, 1, 0, 0, 0, 0, 0, 1,0.0,0.0,0.0,0.0,0.0,0.0,0.0,0.0,0.0,0.0,0.0,0.0,0.0,165,log4j-flume-ng\src\main\java\org\apache\logging\log4j\flume\appender\FlumeAppender.java,0,0,0,0
org.apache.logging.log4j.flume.appender.FlumeEventFactory, 0, 0, 0, 0, 0, 0, 0, 0, 0, 0, 0, 0, 0, 0,0.0,0.0,0.0,0.0,0.0,0.0,0.0,0.0,0.0,0.0,0.0,0.0,0.0,165,log4j-flume-ng\src\main\java\org\apache\logging\log4j\flume\appender\FlumeEventFactory.java,0,0,0,0
org.apache.logging.log4j.flume.appender.Log4jEventSource, 0, 0, 0, 0, 0, 0, 0, 0, 0, 0, 0, 0, 0, 0,0.0,0.0,0.0,0.0,0.0,0.0,0.0,0.0,0.0,0.0,0.0,0.0,0.0,29,log4j-flume-ng\src\main\java\org\apache\logging\log4j\flume\appender\Log4jEventSource.java,0,0,0,0
org.apache.logging.log4j.flume.test.FlumeKeyProvider, 0, 0, 0, 0, 0, 0, 0, 0, 0, 0, 0, 0, 0, 0,0.0,0.0,0.0,0.0,0.0,0.0,0.0,0.0,0.0,0.0,0.0,0.0,0.0,8,log4j-flume-ng\src\test\java\org\apache\logging\log4j\flume\test\FlumeKeyProvider.java,0,0,0,0
org.apache.logging.log4j.hamcrest.Descriptors, 0, 0, 0, 0, 0, 0, 0, 0, 0, 0, 0, 0, 0, 0,0.0,0.0,1.0,0.0,0.0,0.0,0.0,0.0,0.0,0.0,0.0,0.0,0.0,10,log4j-core\src\test\java\org\apache\logging\log4j\hamcrest\Descriptors.java,0,0,0,0
org.apache.logging.log4j.hamcrest.FileMatchers, 0, 0, 0, 0, 0, 0, 0, 0, 0, 0, 0, 0, 0, 0,0.0,0.0,0.8333333333333334,0.0,0.0,0.0,0.0,0.0,0.0,0.0,0.0,0.0,0.0,61,log4j-core\src\test\java\org\apache\logging\log4j\hamcrest\FileMatchers.java,0,0,0,0
org.apache.logging.log4j.io.AbstractLoggerOutputStreamTest, 0, 0, 0, 0, 0, 0, 0, 0, 0, 0, 0, 0, 0, 0,0.2,0.0,0.2,0.2,0.0,0.0,0.0,0.0,0.0,0.0,0.0,0.0,0.0,100,log4j-iostreams\src\test\java\org\apache\logging\log4j\io\AbstractLoggerOutputStreamTest.java,0,0,0,0
org.apache.logging.log4j.io.AbstractLoggerWriterTest, 0, 0, 0, 0, 0, 0, 0, 0, 0, 0, 0, 0, 0, 0,0.2,0.0,0.2,0.2,0.0,0.0,0.0,0.0,0.0,0.0,0.0,0.0,0.0,99,log4j-iostreams\src\test\java\org\apache\logging\log4j\io\AbstractLoggerWriterTest.java,0,0,0,0
org.apache.logging.log4j.io.AbstractStreamTest, 1, 0, 1, 0, 0, 0, 0, 0, 0, 0, 0, 0, 0, 2,0.0,0.0,0.0,0.0,0.0,0.0,0.0,0.08333333333333333,0.0,0.0,0.0,0.0,0.0,23,log4j-iostreams\src\test\java\org\apache\logging\log4j\io\AbstractStreamTest.java,0,0,0,0
org.apache.logging.log4j.io.IoBuilder, 0, 0, 0, 1, 0, 0, 0, 0, 0, 0, 0, 0, 0, 1,0.045454545454545456,0.0,0.09090909090909091,0.0,0.0,0.0,0.0,0.18181818181818182,0.0,0.0,0.0,0.0,0.0,135,log4j-iostreams\src\main\java\org\apache\logging\log4j\io\IoBuilder.java,0,0,0,0
org.apache.logging.log4j.io.IoBuilderCallerInfoTesting, 1, 0, 1, 0, 0, 0, 0, 0, 0, 0, 0, 0, 0, 2,0.0,0.0,0.0,0.0,0.0,0.0,0.0,0.16666666666666666,0.0,0.0,0.0,0.0,0.0,22,log4j-iostreams\src\test\java\org\apache\logging\log4j\io\IoBuilderCallerInfoTesting.java,0,0,0,0
org.apache.logging.log4j.io.IoBuilderTest, 0, 0, 1, 0, 0, 0, 0, 0, 0, 0, 0, 0, 0, 1,0.0,0.0,0.0,0.5,0.0,0.0,0.0,0.5,0.0,0.0,0.0,0.0,0.0,16,log4j-iostreams\src\test\java\org\apache\logging\log4j\io\IoBuilderTest.java,0,0,0,0
org.apache.logging.log4j.io.LoggerBufferedInputStream, 0, 0, 0, 0, 0, 0, 0, 1, 0, 0, 0, 0, 0, 1,0.0,0.0,0.0,0.5,0.0,0.0,0.0,0.5,0.0,0.0,0.0,0.0,0.0,32,log4j-iostreams\src\main\java\org\apache\logging\log4j\io\LoggerBufferedInputStream.java,0,0,0,0
org.apache.logging.log4j.io.LoggerBufferedInputStreamCallerInfoTest, 0, 0, 0, 0, 0, 0, 0, 0, 0, 0, 0, 0, 0, 0,0.5,0.0,0.5,0.5,0.0,0.0,0.0,0.0,0.0,0.0,0.0,0.0,0.0,38,log4j-iostreams\src\test\java\org\apache\logging\log4j\io\LoggerBufferedInputStreamCallerInfoTest.java,0,0,0,0
org.apache.logging.log4j.io.LoggerBufferedInputStreamTest, 0, 0, 0, 0, 0, 0, 0, 0, 0, 0, 0, 0, 0, 0,0.3333333333333333,0.0,0.3333333333333333,0.3333333333333333,0.0,0.0,0.0,0.0,0.0,0.0,0.0,0.0,0.0,10,log4j-iostreams\src\test\java\org\apache\logging\log4j\io\LoggerBufferedInputStreamTest.java,0,0,0,0
org.apache.logging.log4j.io.LoggerBufferedReaderTest, 0, 0, 0, 0, 0, 0, 0, 0, 0, 0, 0, 0, 0, 0,0.5,0.0,0.5,0.5,0.0,0.0,0.0,0.0,0.0,0.0,0.0,0.0,0.0,19,log4j-iostreams\src\test\java\org\apache\logging\log4j\io\LoggerBufferedReaderTest.java,0,0,0,0
org.apache.logging.log4j.io.LoggerFilterOutputStream, 0, 0, 0, 0, 0, 0, 0, 1, 0, 0, 0, 0, 0, 1,0.0,0.0,0.0,1.0,0.0,0.0,0.0,0.0,0.0,0.0,0.0,0.0,0.0,39,log4j-iostreams\src\main\java\org\apache\logging\log4j\io\LoggerFilterOutputStream.java,0,0,0,0
org.apache.logging.log4j.io.LoggerFilterOutputStreamTest, 0, 0, 0, 0, 0, 0, 0, 0, 0, 0, 0, 0, 0, 0,0.3333333333333333,0.0,0.3333333333333333,0.3333333333333333,0.0,0.0,0.0,0.0,0.0,0.0,0.0,0.0,0.0,13,log4j-iostreams\src\test\java\org\apache\logging\log4j\io\LoggerFilterOutputStreamTest.java,0,0,0,0
org.apache.logging.log4j.io.LoggerFilterWriterTest, 0, 0, 0, 0, 0, 0, 0, 0, 0, 0, 0, 0, 0, 0,0.3333333333333333,0.0,0.3333333333333333,0.3333333333333333,0.0,0.0,0.0,0.0,0.0,0.0,0.0,0.0,0.0,13,log4j-iostreams\src\test\java\org\apache\logging\log4j\io\LoggerFilterWriterTest.java,0,0,0,0
org.apache.logging.log4j.io.LoggerInputStream, 0, 0, 0, 0, 0, 0, 0, 1, 0, 0, 0, 0, 0, 1,0.0,0.0,0.0,0.5,0.0,0.0,0.0,0.5,0.0,0.0,0.0,0.0,0.0,36,log4j-iostreams\src\main\java\org\apache\logging\log4j\io\LoggerInputStream.java,0,0,0,0
org.apache.logging.log4j.io.LoggerInputStreamCallerInfoTest, 0, 0, 0, 0, 0, 0, 0, 0, 0, 0, 0, 0, 0, 0,0.5,0.0,0.5,0.5,0.0,0.0,0.0,0.0,0.0,0.0,0.0,0.0,0.0,26,log4j-iostreams\src\test\java\org\apache\logging\log4j\io\LoggerInputStreamCallerInfoTest.java,0,0,0,0
org.apache.logging.log4j.io.LoggerInputStreamTest, 0, 0, 0, 0, 0, 0, 0, 0, 0, 0, 0, 0, 0, 0,0.3333333333333333,0.0,0.3333333333333333,0.3333333333333333,0.0,0.0,0.0,0.0,0.0,0.0,0.0,0.0,0.0,90,log4j-iostreams\src\test\java\org\apache\logging\log4j\io\LoggerInputStreamTest.java,0,0,0,0
org.apache.logging.log4j.io.LoggerOutputStream, 0, 0, 0, 0, 0, 0, 0, 1, 0, 0, 0, 0, 0, 1,0.0,0.0,0.0,1.0,0.0,0.0,0.0,0.0,0.0,0.0,0.0,0.0,0.0,29,log4j-iostreams\src\main\java\org\apache\logging\log4j\io\LoggerOutputStream.java,0,0,0,0
org.apache.logging.log4j.io.LoggerOutputStreamCallerInfoTest, 0, 0, 0, 0, 0, 0, 0, 0, 0, 0, 0, 0, 0, 0,0.5,0.0,0.5,0.5,0.0,0.0,0.0,0.0,0.0,0.0,0.0,0.0,0.0,22,log4j-iostreams\src\test\java\org\apache\logging\log4j\io\LoggerOutputStreamCallerInfoTest.java,0,0,0,0
org.apache.logging.log4j.io.LoggerOutputStreamTest, 0, 0, 0, 0, 0, 0, 0, 0, 0, 0, 0, 0, 0, 0,0.3333333333333333,0.0,0.3333333333333333,0.3333333333333333,0.0,0.0,0.0,0.0,0.0,0.0,0.0,0.0,0.0,12,log4j-iostreams\src\test\java\org\apache\logging\log4j\io\LoggerOutputStreamTest.java,0,0,0,0
org.apache.logging.log4j.io.LoggerPrintStreamCallerInfoTest, 0, 0, 0, 0, 0, 0, 0, 0, 0, 0, 0, 0, 0, 0,0.5,0.0,0.5,0.5,0.0,0.0,0.0,0.0,0.0,0.0,0.0,0.0,0.0,106,log4j-iostreams\src\test\java\org\apache\logging\log4j\io\LoggerPrintStreamCallerInfoTest.java,0,0,0,0
org.apache.logging.log4j.io.LoggerPrintStreamTest, 0, 0, 0, 0, 0, 0, 0, 0, 0, 0, 0, 0, 0, 0,0.3333333333333333,0.0,0.3333333333333333,0.3333333333333333,0.0,0.0,0.0,0.0,0.0,0.0,0.0,0.0,0.0,88,log4j-iostreams\src\test\java\org\apache\logging\log4j\io\LoggerPrintStreamTest.java,0,0,0,0
org.apache.logging.log4j.io.LoggerPrintWriterCallerInfoTest, 0, 0, 0, 0, 0, 0, 0, 0, 0, 0, 0, 0, 0, 0,0.5,0.0,0.5,0.5,0.0,0.0,0.0,0.0,0.0,0.0,0.0,0.0,0.0,106,log4j-iostreams\src\test\java\org\apache\logging\log4j\io\LoggerPrintWriterCallerInfoTest.java,0,0,0,0
org.apache.logging.log4j.io.LoggerPrintWriterJdbcH2Test, 1, 0, 1, 0, 0, 0, 0, 0, 0, 0, 0, 0, 0, 2,0.0,0.0,0.0,0.5,0.0,0.0,0.0,0.5,0.0,0.0,0.0,0.0,0.0,56,log4j-iostreams\src\test\java\org\apache\logging\log4j\io\LoggerPrintWriterJdbcH2Test.java,0,0,0,0
org.apache.logging.log4j.io.LoggerPrintWriterTest, 0, 0, 0, 0, 0, 0, 0, 0, 0, 0, 0, 0, 0, 0,0.3333333333333333,0.0,0.3333333333333333,0.3333333333333333,0.0,0.0,0.0,0.0,0.0,0.0,0.0,0.0,0.0,90,log4j-iostreams\src\test\java\org\apache\logging\log4j\io\LoggerPrintWriterTest.java,0,0,0,0
org.apache.logging.log4j.io.LoggerWriterTest, 0, 0, 0, 0, 0, 0, 0, 0, 0, 0, 0, 0, 0, 0,0.3333333333333333,0.0,0.3333333333333333,0.3333333333333333,0.0,0.0,0.0,0.0,0.0,0.0,0.0,0.0,0.0,12,log4j-iostreams\src\test\java\org\apache\logging\log4j\io\LoggerWriterTest.java,0,0,0,0
org.apache.logging.log4j.jcl.CallerInformationTest, 0, 0, 0, 0, 0, 0, 0, 0, 0, 0, 0, 0, 0, 0,0.0,0.0,0.0,0.0,0.0,0.0,0.0,1.0,0.0,0.0,0.0,0.0,0.0,33,log4j-jcl\src\test\java\org\apache\logging\log4j\jcl\CallerInformationTest.java,0,0,0,0
org.apache.logging.log4j.jcl.Log4jLog, 0, 0, 0, 1, 0, 0, 0, 0, 0, 0, 0, 0, 0, 1,0.0,0.0,0.0,0.0,0.0,0.0,0.0,0.0,0.0,0.0,0.0,0.0,0.0,80,log4j-jcl\src\main\java\org\apache\logging\log4j\jcl\Log4jLog.java,0,0,0,0
org.apache.logging.log4j.jcl.LogAdapter, 0, 0, 0, 0, 0, 0, 0, 0, 0, 0, 0, 0, 0, 0,0.0,0.0,0.0,1.0,0.0,0.0,0.0,0.0,0.0,0.0,0.0,0.0,0.0,10,log4j-jcl\src\main\java\org\apache\logging\log4j\jcl\LogAdapter.java,0,0,0,0
org.apache.logging.log4j.jcl.LoggerTest, 0, 0, 0, 0, 0, 0, 0, 0, 0, 0, 0, 0, 0, 0,0.0,0.0,0.0,0.0,0.0,0.0,0.0,1.0,0.0,0.0,0.0,0.0,0.0,25,log4j-jcl\src\test\java\org\apache\logging\log4j\jcl\LoggerTest.java,0,0,0,0
org.apache.logging.log4j.jul.AbstractLoggerAdapter, 0, 0, 0, 0, 0, 0, 0, 0, 0, 0, 0, 0, 0, 0,0.0,0.0,0.0,0.0,0.0,0.0,0.0,0.0,0.0,0.0,0.0,0.0,0.0,6,log4j-jul\src\main\java\org\apache\logging\log4j\jul\AbstractLoggerAdapter.java,0,0,0,0
org.apache.logging.log4j.jul.ApiLoggerAdapter, 0, 0, 0, 0, 0, 0, 0, 0, 0, 0, 0, 0, 0, 0,0.0,0.0,0.0,0.0,0.0,0.0,0.0,0.0,0.0,0.0,0.0,0.0,0.0,7,log4j-jul\src\main\java\org\apache\logging\log4j\jul\ApiLoggerAdapter.java,0,0,0,0
org.apache.logging.log4j.jul.ApiLoggerTest, 0, 0, 0, 0, 0, 0, 0, 0, 0, 0, 0, 0, 0, 0,0.0,0.0,0.0,0.0,0.0,0.0,0.0,1.0,0.0,0.0,0.0,0.0,0.0,37,log4j-jul\src\test\java\org\apache\logging\log4j\jul\ApiLoggerTest.java,0,0,0,0
org.apache.logging.log4j.jul.Constants, 0, 0, 0, 0, 0, 0, 0, 0, 0, 0, 0, 0, 0, 0,0.0,0.0,0.0,0.0,0.0,0.0,0.0,0.0,0.0,0.0,0.0,0.0,0.0,9,log4j-jul\src\main\java\org\apache\logging\log4j\jul\Constants.java,0,0,0,0
org.apache.logging.log4j.jul.CoreLogger, 0, 0, 0, 0, 0, 0, 0, 0, 0, 0, 0, 0, 0, 0,0.0,0.0,0.0,0.0,0.0,0.0,0.0,0.0,0.0,0.0,0.0,0.0,0.0,25,log4j-jul\src\main\java\org\apache\logging\log4j\jul\CoreLogger.java,0,0,0,0
org.apache.logging.log4j.jul.CoreLoggerAdapter, 0, 0, 0, 0, 0, 0, 0, 0, 0, 0, 0, 0, 0, 0,0.0,0.0,0.0,0.0,0.0,0.0,0.0,0.0,0.0,0.0,0.0,0.0,0.0,7,log4j-jul\src\main\java\org\apache\logging\log4j\jul\CoreLoggerAdapter.java,0,0,0,0
org.apache.logging.log4j.jul.CoreLoggerTest, 0, 0, 0, 0, 0, 0, 0, 0, 0, 0, 0, 0, 0, 0,0.0,0.0,0.0,0.0,0.0,0.0,0.0,1.0,0.0,0.0,0.0,0.0,0.0,38,log4j-jul\src\test\java\org\apache\logging\log4j\jul\CoreLoggerTest.java,0,0,0,0
org.apache.logging.log4j.jul.JavaLevelTranslatorTest, 0, 0, 0, 0, 0, 0, 0, 0, 0, 0, 0, 0, 0, 0,0.0,0.0,0.0,0.0,0.0,0.0,0.0,0.0,0.0,0.0,0.0,0.0,0.0,31,log4j-jul\src\test\java\org\apache\logging\log4j\jul\JavaLevelTranslatorTest.java,0,0,0,0
org.apache.logging.log4j.jul.LevelConverter, 0, 0, 0, 0, 0, 0, 0, 0, 0, 0, 0, 0, 0, 0,0.0,0.0,0.0,0.0,0.0,0.0,0.0,0.0,0.0,0.0,0.0,0.0,0.0,31,log4j-jul\src\main\java\org\apache\logging\log4j\jul\LevelConverter.java,0,0,0,0
org.apache.logging.log4j.jul.LevelTranslator, 0, 0, 0, 0, 0, 0, 0, 0, 0, 0, 0, 0, 0, 0,0.0,0.0,0.0,0.0,0.0,0.0,0.0,0.0,0.0,0.0,0.0,0.0,0.0,30,log4j-jul\src\main\java\org\apache\logging\log4j\jul\LevelTranslator.java,0,0,0,0
org.apache.logging.log4j.jul.Log4jLevelTranslatorTest, 0, 0, 0, 0, 0, 0, 0, 0, 0, 0, 0, 0, 0, 0,0.0,0.0,0.0,0.0,0.0,0.0,0.0,0.0,0.0,0.0,0.0,0.0,0.0,25,log4j-jul\src\test\java\org\apache\logging\log4j\jul\Log4jLevelTranslatorTest.java,0,0,0,0
org.apache.logging.log4j.jul.LogManager, 0, 0, 0, 0, 0, 0, 0, 0, 0, 0, 0, 0, 0, 0,0.0,0.0,0.0,0.0,0.0,0.0,0.0,0.0,0.0,0.0,0.0,0.0,0.0,48,log4j-jul\src\main\java\org\apache\logging\log4j\jul\LogManager.java,0,0,0,0
org.apache.logging.log4j.jul.WrappedLogger, 0, 0, 0, 0, 0, 0, 0, 0, 0, 0, 0, 0, 0, 0,0.0,0.0,0.0,0.0,0.0,0.0,0.0,1.0,0.0,0.0,0.0,0.0,0.0,39,log4j-jul\src\main\java\org\apache\logging\log4j\jul\WrappedLogger.java,0,0,1,2
org.apache.logging.log4j.junit.CleanFiles, 0, 0, 0, 0, 0, 0, 0, 0, 0, 0, 0, 0, 0, 0,0.0,0.0,0.6666666666666666,0.0,0.0,0.0,0.0,0.0,0.0,0.0,0.0,0.0,0.0,29,log4j-core\src\test\java\org\apache\logging\log4j\junit\CleanFiles.java,0,0,0,0
org.apache.logging.log4j.junit.LogManagerLoggerContextFactoryRule, 0, 0, 0, 0, 0, 0, 0, 0, 0, 0, 0, 0, 0, 0,0.0,0.0,0.0,0.0,0.0,0.0,0.0,0.0,0.0,0.0,0.0,0.0,0.0,17,log4j-api\src\test\java\org\apache\logging\log4j\junit\LogManagerLoggerContextFactoryRule.java,0,0,0,0
org.apache.logging.log4j.message.AbstractMessageFactory, 0, 0, 0, 0, 0, 0, 0, 0, 0, 0, 0, 0, 0, 0,0.0,0.0,0.0,0.0,0.0,0.0,0.0,0.0,0.0,0.0,0.0,0.0,0.0,13,log4j-api\src\main\java\org\apache\logging\log4j\message\AbstractMessageFactory.java,0,0,0,0
org.apache.logging.log4j.message.FormattedMessage, 0, 0, 0, 1, 0, 0, 0, 0, 0, 0, 0, 0, 0, 1,0.0,0.0,0.0,0.0,0.0,0.0,0.0,0.0,0.0,0.0,0.0,0.0,0.0,125,log4j-api\src\main\java\org\apache\logging\log4j\message\FormattedMessage.java,0,0,0,0
org.apache.logging.log4j.message.FormattedMessageFactory, 0, 0, 0, 0, 0, 0, 0, 0, 0, 0, 0, 0, 0, 0,0.0,0.0,0.0,0.0,0.0,0.0,0.0,0.0,0.0,0.0,0.0,0.0,0.0,7,log4j-api\src\main\java\org\apache\logging\log4j\message\FormattedMessageFactory.java,0,0,0,0
org.apache.logging.log4j.message.FormattedMessageTest, 0, 0, 0, 0, 0, 0, 0, 0, 0, 0, 0, 0, 0, 0,0.0,0.0,0.0,0.5,0.0,0.0,0.0,0.0,0.0,0.0,0.0,0.0,0.0,74,log4j-api\src\test\java\org\apache\logging\log4j\message\FormattedMessageTest.java,0,0,0,0
org.apache.logging.log4j.message.LocalizedMessageFactory, 0, 0, 0, 0, 0, 0, 0, 0, 0, 0, 0, 0, 0, 0,0.0,0.0,0.0,0.0,0.0,0.0,0.0,0.0,0.0,0.0,0.0,0.0,0.0,26,log4j-api\src\main\java\org\apache\logging\log4j\message\LocalizedMessageFactory.java,0,0,0,0
org.apache.logging.log4j.message.LocalizedMessageTest, 0, 0, 0, 0, 0, 0, 0, 0, 0, 0, 0, 0, 0, 0,0.0,0.0,0.0,0.0,0.0,0.0,0.0,0.0,0.0,0.0,0.0,0.0,0.0,48,log4j-api\src\test\java\org\apache\logging\log4j\message\LocalizedMessageTest.java,0,0,0,0
org.apache.logging.log4j.message.LoggerNameAwareMessage, 0, 0, 0, 0, 0, 0, 0, 0, 0, 0, 0, 0, 0, 0,0.0,0.0,0.0,0.0,0.0,0.0,0.0,0.0,0.0,0.0,0.0,0.0,0.0,48,log4j-api\src\main\java\org\apache\logging\log4j\message\LoggerNameAwareMessage.java,0,0,0,0
org.apache.logging.log4j.message.MapMessageTest, 0, 0, 0, 0, 0, 0, 0, 0, 0, 0, 0, 0, 0, 0,0.0,0.0,0.0,0.0,0.0,0.0,0.0,0.0,0.0,0.0,0.0,0.0,0.0,57,log4j-api\src\test\java\org\apache\logging\log4j\message\MapMessageTest.java,0,0,0,0
org.apache.logging.log4j.message.Message, 0, 0, 0, 0, 0, 0, 0, 0, 0, 0, 0, 0, 0, 0,0.0,0.0,0.0,0.0,0.0,0.0,0.0,0.0,0.0,0.0,0.0,0.0,0.0,57,log4j-api\src\main\java\org\apache\logging\log4j\message\Message.java,0,0,0,0
org.apache.logging.log4j.message.MessageFactory, 0, 0, 0, 0, 0, 0, 0, 0, 0, 0, 0, 0, 0, 0,0.0,0.0,0.0,0.0,0.0,0.0,0.0,0.0,0.0,0.0,0.0,0.0,0.0,57,log4j-api\src\main\java\org\apache\logging\log4j\message\MessageFactory.java,0,0,0,0
org.apache.logging.log4j.message.MessageFormatMessage, 0, 0, 0, 0, 0, 0, 0, 0, 0, 0, 0, 0, 0, 0,0.0,0.0,0.0,0.16666666666666666,0.0,0.0,0.0,0.0,0.0,0.0,0.0,0.0,0.0,98,log4j-api\src\main\java\org\apache\logging\log4j\message\MessageFormatMessage.java,0,0,0,0
org.apache.logging.log4j.message.MessageFormatMessageFactory, 0, 0, 0, 0, 0, 0, 0, 0, 0, 0, 0, 0, 0, 0,0.0,0.0,0.0,0.0,0.0,0.0,0.0,0.0,0.0,0.0,0.0,0.0,0.0,7,log4j-api\src\main\java\org\apache\logging\log4j\message\MessageFormatMessageFactory.java,0,0,0,0
org.apache.logging.log4j.message.MessageFormatMessageSerializationTest, 0, 0, 0, 0, 0, 0, 0, 0, 0, 0, 0, 0, 0, 0,0.0,0.0,0.0,0.0,0.0,0.0,0.0,0.0,0.0,0.0,0.0,0.0,0.0,13,log4j-api\src\test\java\org\apache\logging\log4j\message\MessageFormatMessageSerializationTest.java,0,0,0,0
org.apache.logging.log4j.message.MessageFormatMessageTest, 0, 0, 0, 0, 0, 0, 0, 0, 0, 0, 0, 0, 0, 0,0.0,0.0,0.0,0.0,0.0,0.0,0.0,0.0,0.0,0.0,0.0,0.0,0.0,54,log4j-api\src\test\java\org\apache\logging\log4j\message\MessageFormatMessageTest.java,0,0,0,0
org.apache.logging.log4j.message.MessageFormatsPerfTest, 0, 0, 0, 0, 0, 0, 0, 0, 0, 0, 0, 0, 0, 0,0.0,0.0,0.0,0.3333333333333333,0.0,0.0,0.0,0.0,0.0,0.0,0.0,0.0,0.0,90,log4j-api\src\test\java\org\apache\logging\log4j\message\MessageFormatsPerfTest.java,0,0,0,0
org.apache.logging.log4j.message.MultiformatMessage, 0, 0, 0, 0, 0, 0, 0, 0, 0, 0, 0, 0, 0, 0,0.0,0.0,0.0,0.0,0.0,0.0,0.0,0.0,0.0,0.0,0.0,0.0,0.0,90,log4j-api\src\main\java\org\apache\logging\log4j\message\MultiformatMessage.java,0,0,0,0
org.apache.logging.log4j.message.Mutable, 0, 0, 0, 0, 0, 0, 0, 0, 0, 0, 0, 0, 0, 0,0.0,0.0,0.0,0.0,0.0,0.0,0.0,0.0,0.0,0.0,0.0,0.0,0.0,10,log4j-api\src\test\java\org\apache\logging\log4j\message\Mutable.java,0,0,0,0
org.apache.logging.log4j.message.ObjectMessageTest, 0, 0, 0, 0, 0, 0, 0, 0, 0, 0, 0, 0, 0, 0,0.0,0.0,0.0,0.0,0.0,0.0,0.0,0.0,0.0,0.0,0.0,0.0,0.0,54,log4j-api\src\test\java\org\apache\logging\log4j\message\ObjectMessageTest.java,0,0,0,0
org.apache.logging.log4j.message.ParameterizedMessageFactory, 0, 0, 0, 0, 0, 0, 0, 0, 0, 0, 0, 0, 0, 0,0.0,0.0,0.0,0.0,0.0,0.0,0.0,0.0,0.0,0.0,0.0,0.0,0.0,8,log4j-api\src\main\java\org\apache\logging\log4j\message\ParameterizedMessageFactory.java,0,0,0,0
org.apache.logging.log4j.message.ParameterizedMessageTest, 0, 0, 0, 0, 0, 0, 0, 0, 0, 0, 0, 0, 0, 0,0.0,0.0,0.0,0.0,0.0,0.0,0.0,0.0,0.0,0.0,0.0,0.0,0.0,22,log4j-api\src\test\java\org\apache\logging\log4j\message\ParameterizedMessageTest.java,0,0,0,0
org.apache.logging.log4j.message.SimpleMessage, 0, 0, 0, 0, 0, 0, 0, 0, 0, 0, 0, 0, 0, 0,0.0,0.0,0.0,0.10526315789473684,0.0,0.0,0.0,0.10526315789473684,0.0,0.0,0.0,0.0,0.0,45,log4j-api\src\main\java\org\apache\logging\log4j\message\SimpleMessage.java,0,0,0,0
org.apache.logging.log4j.message.StringFormattedMessage, 0, 0, 0, 0, 0, 0, 0, 0, 0, 0, 0, 0, 0, 0,0.0,0.0,0.0,0.2,0.0,0.0,0.0,0.0,0.0,0.0,0.0,0.0,0.0,95,log4j-api\src\main\java\org\apache\logging\log4j\message\StringFormattedMessage.java,0,2,1,4
org.apache.logging.log4j.message.StringFormattedMessageTest, 0, 0, 0, 0, 0, 0, 0, 0, 0, 0, 0, 0, 0, 0,0.0,0.0,0.0,0.0,0.0,0.0,0.0,0.0,0.0,0.0,0.0,0.0,0.0,53,log4j-api\src\test\java\org\apache\logging\log4j\message\StringFormattedMessageTest.java,1,23,0,24
org.apache.logging.log4j.message.StringFormatterMessageFactory, 0, 0, 0, 0, 0, 0, 0, 0, 0, 0, 0, 0, 0, 0,0.0,0.0,0.0,0.0,0.0,0.0,0.0,0.0,0.0,0.0,0.0,0.0,0.0,8,log4j-api\src\main\java\org\apache\logging\log4j\message\StringFormatterMessageFactory.java,0,0,0,0
org.apache.logging.log4j.message.StructuredDataMessageTest, 0, 0, 0, 0, 0, 0, 0, 0, 0, 0, 0, 0, 0, 0,0.0,0.0,0.0,0.0,0.0,0.0,0.0,0.0,0.0,0.0,0.0,0.0,0.0,33,log4j-api\src\test\java\org\apache\logging\log4j\message\StructuredDataMessageTest.java,0,0,0,0
org.apache.logging.log4j.message.ThreadInformation, 0, 0, 0, 0, 0, 0, 0, 0, 0, 0, 0, 0, 0, 0,0.0,0.0,0.0,0.0,0.0,0.0,0.0,0.0,0.0,0.0,0.0,0.0,0.0,33,log4j-api\src\main\java\org\apache\logging\log4j\message\ThreadInformation.java,0,0,0,0
org.apache.logging.log4j.message.TimestampMessage, 0, 0, 0, 0, 0, 0, 0, 0, 0, 0, 0, 0, 0, 0,0.0,0.0,0.0,0.0,0.0,0.0,0.0,0.0,0.0,0.0,0.0,0.0,0.0,33,log4j-api\src\main\java\org\apache\logging\log4j\message\TimestampMessage.java,0,0,0,0
org.apache.logging.log4j.nosql.appender.DefaultNoSqlObject, 0, 0, 0, 0, 0, 0, 0, 0, 0, 0, 0, 0, 0, 0,0.0,0.0,0.0,0.0,0.0,0.0,0.0,0.0,0.0,0.0,0.0,0.0,0.0,30,log4j-nosql\src\main\java\org\apache\logging\log4j\nosql\appender\DefaultNoSqlObject.java,0,0,0,0
org.apache.logging.log4j.nosql.appender.NoSqlAppender, 0, 0, 0, 0, 0, 0, 0, 1, 0, 0, 0, 0, 0, 1,0.0,0.0,0.0,0.0,0.0,0.0,0.0,0.0,0.0,0.0,0.0,0.0,0.0,36,log4j-nosql\src\main\java\org\apache\logging\log4j\nosql\appender\NoSqlAppender.java,0,0,0,0
org.apache.logging.log4j.nosql.appender.NoSqlAppenderTest, 0, 0, 0, 0, 0, 0, 0, 0, 0, 0, 0, 0, 0, 0,0.0,0.0,0.0,0.0,0.0,0.0,0.0,0.5,0.0,0.0,0.0,0.0,0.0,33,log4j-nosql\src\test\java\org\apache\logging\log4j\nosql\appender\NoSqlAppenderTest.java,0,0,0,0
org.apache.logging.log4j.nosql.appender.NoSqlConnection, 0, 0, 0, 0, 0, 0, 0, 0, 0, 0, 0, 0, 0, 0,0.0,0.0,0.0,0.0,0.0,0.0,0.0,0.0,0.0,0.0,0.0,0.0,0.0,33,log4j-nosql\src\main\java\org\apache\logging\log4j\nosql\appender\NoSqlConnection.java,0,0,0,0
org.apache.logging.log4j.nosql.appender.NoSqlObject, 0, 0, 0, 0, 0, 0, 0, 0, 0, 0, 0, 0, 0, 0,0.0,0.0,0.0,0.0,0.0,0.0,0.0,0.0,0.0,0.0,0.0,0.0,0.0,33,log4j-nosql\src\main\java\org\apache\logging\log4j\nosql\appender\NoSqlObject.java,0,0,0,0
org.apache.logging.log4j.nosql.appender.NoSqlProvider, 0, 0, 0, 0, 0, 0, 0, 0, 0, 0, 0, 0, 0, 0,0.0,0.0,0.0,0.0,0.0,0.0,0.0,0.0,0.0,0.0,0.0,0.0,0.0,33,log4j-nosql\src\main\java\org\apache\logging\log4j\nosql\appender\NoSqlProvider.java,0,0,0,0
org.apache.logging.log4j.nosql.appender.couchdb.CouchDbConnection, 0, 0, 0, 0, 0, 0, 0, 0, 0, 0, 0, 0, 0, 0,0.0,0.0,0.0,0.0,0.0,0.0,0.0,0.3333333333333333,0.0,0.0,0.0,0.0,0.0,38,log4j-nosql\src\main\java\org\apache\logging\log4j\nosql\appender\couchdb\CouchDbConnection.java,0,0,0,0
org.apache.logging.log4j.nosql.appender.couchdb.CouchDbProvider, 0, 0, 0, 0, 0, 0, 0, 1, 0, 0, 0, 0, 0, 1,0.0,0.0,0.0,0.0,0.0,0.0,0.0,0.0,0.0,0.0,0.0,0.0,0.0,96,log4j-nosql\src\main\java\org\apache\logging\log4j\nosql\appender\couchdb\CouchDbProvider.java,0,0,0,0
org.apache.logging.log4j.nosql.appender.mongodb.MongoDbConnection, 0, 0, 0, 0, 0, 0, 0, 0, 0, 0, 0, 0, 0, 0,0.0,0.0,0.0,0.0,0.0,0.0,0.0,0.3333333333333333,0.0,0.0,0.0,0.0,0.0,62,log4j-nosql\src\main\java\org\apache\logging\log4j\nosql\appender\mongodb\MongoDbConnection.java,0,0,0,0
org.apache.logging.log4j.nosql.appender.mongodb.MongoDbObject, 0, 0, 0, 0, 0, 0, 0, 0, 0, 0, 0, 0, 0, 0,0.0,0.0,0.0,0.0,0.0,0.0,0.0,0.0,0.0,0.0,0.0,0.0,0.0,32,log4j-nosql\src\main\java\org\apache\logging\log4j\nosql\appender\mongodb\MongoDbObject.java,0,0,0,0
org.apache.logging.log4j.nosql.appender.mongodb.MongoDbProvider, 0, 0, 0, 0, 0, 0, 0, 1, 0, 0, 0, 0, 0, 1,0.0,0.0,0.0,0.0,0.0,0.0,0.0,0.0,0.0,0.0,0.0,0.0,0.0,142,log4j-nosql\src\main\java\org\apache\logging\log4j\nosql\appender\mongodb\MongoDbProvider.java,0,0,0,0
org.apache.logging.log4j.osgi.AbstractLoadBundleTest, 0, 0, 1, 0, 0, 0, 0, 0, 0, 0, 0, 0, 0, 1,0.0,0.0,0.0,0.0,0.0,0.0,0.0,0.0,0.0,0.0,0.0,0.0,0.0,41,log4j-api\src\test\java\org\apache\logging\log4j\osgi\AbstractLoadBundleTest.java,0,0,0,0
org.apache.logging.log4j.osgi.BundleTestInfo, 0, 0, 0, 0, 0, 0, 0, 0, 0, 0, 0, 0, 0, 0,0.0,0.0,1.0,0.0,0.0,0.0,0.0,0.0,0.0,0.0,0.0,0.0,0.0,35,log4j-api\src\test\java\org\apache\logging\log4j\osgi\BundleTestInfo.java,0,0,0,0
org.apache.logging.log4j.osgi.equinox.AbstractEquinoxLoadBundleTest, 0, 0, 0, 0, 0, 0, 0, 0, 0, 0, 0, 0, 0, 0,0.0,0.0,0.25,0.0,0.0,0.0,0.0,0.0,0.0,0.0,0.0,0.0,0.0,6,log4j-api\src\test\java\org\apache\logging\log4j\osgi\equinox\AbstractEquinoxLoadBundleTest.java,0,0,0,0
org.apache.logging.log4j.osgi.equinox.EquinoxLoadApiBundleTest, 0, 0, 0, 0, 0, 0, 0, 0, 0, 0, 0, 0, 0, 0,0.0,0.0,0.0,0.0,0.0,0.0,0.0,0.0,0.0,0.0,0.0,0.0,0.0,2,log4j-api\src\test\java\org\apache\logging\log4j\osgi\equinox\EquinoxLoadApiBundleTest.java,0,0,0,0
org.apache.logging.log4j.osgi.felix.AbstractFelixLoadBundleTest, 0, 0, 0, 0, 0, 0, 0, 0, 0, 0, 0, 0, 0, 0,0.0,0.0,0.25,0.0,0.0,0.0,0.0,0.0,0.0,0.0,0.0,0.0,0.0,6,log4j-api\src\test\java\org\apache\logging\log4j\osgi\felix\AbstractFelixLoadBundleTest.java,0,0,0,0
org.apache.logging.log4j.osgi.felix.FelixLoadApiBundleTest, 0, 0, 0, 0, 0, 0, 0, 0, 0, 0, 0, 0, 0, 0,0.0,0.0,0.0,0.0,0.0,0.0,0.0,0.0,0.0,0.0,0.0,0.0,0.0,2,log4j-api\src\test\java\org\apache\logging\log4j\osgi\felix\FelixLoadApiBundleTest.java,0,0,0,0
org.apache.logging.log4j.perf.jmh.AsyncAppenderLog4j1Benchmark, 0, 0, 0, 0, 0, 0, 0, 0, 0, 0, 0, 0, 0, 0,0.0,0.0,0.0,0.0,0.0,0.0,0.0,0.0,0.0,0.0,0.0,0.0,0.0,45,log4j-perf\src\main\java\org\apache\logging\log4j\perf\jmh\AsyncAppenderLog4j1Benchmark.java,0,0,0,0
org.apache.logging.log4j.perf.jmh.AsyncAppenderLog4j2Benchmark, 0, 0, 0, 0, 0, 0, 0, 0, 0, 0, 0, 0, 0, 0,0.0,0.0,0.0,0.0,0.0,0.0,0.0,0.0,0.0,0.0,0.0,0.0,0.0,45,log4j-perf\src\main\java\org\apache\logging\log4j\perf\jmh\AsyncAppenderLog4j2Benchmark.java,0,0,0,0
org.apache.logging.log4j.perf.jmh.AsyncAppenderLogbackBenchmark, 0, 0, 0, 0, 0, 0, 0, 0, 0, 0, 0, 0, 0, 0,0.0,0.0,0.0,0.0,0.0,0.0,0.0,0.0,0.0,0.0,0.0,0.0,0.0,45,log4j-perf\src\main\java\org\apache\logging\log4j\perf\jmh\AsyncAppenderLogbackBenchmark.java,0,0,0,0
org.apache.logging.log4j.perf.jmh.AsyncLoggersBenchmark, 0, 0, 0, 0, 0, 0, 0, 0, 0, 0, 0, 0, 0, 0,0.0,0.0,0.0,0.0,0.0,0.0,0.0,0.0,0.0,0.0,0.0,0.0,0.0,44,log4j-perf\src\main\java\org\apache\logging\log4j\perf\jmh\AsyncLoggersBenchmark.java,0,0,0,0
org.apache.logging.log4j.perf.jmh.ClocksBenchmark, 0, 0, 0, 0, 0, 0, 0, 0, 0, 0, 0, 0, 0, 0,0.0,0.0,0.0,0.0,0.0,0.0,0.0,0.0,0.0,0.0,0.0,0.0,0.0,121,log4j-perf\src\main\java\org\apache\logging\log4j\perf\jmh\ClocksBenchmark.java,0,0,0,0
org.apache.logging.log4j.perf.jmh.ConfiguratorInitializeBenchmark, 0, 0, 0, 0, 0, 0, 0, 0, 0, 0, 0, 0, 0, 0,0.0,0.0,0.0,0.0,0.0,0.0,0.0,0.0,0.0,0.0,0.0,0.0,0.0,24,log4j-perf\src\main\java\org\apache\logging\log4j\perf\jmh\ConfiguratorInitializeBenchmark.java,0,0,0,0
org.apache.logging.log4j.perf.jmh.DebugDisabledBenchmark, 0, 0, 0, 0, 0, 0, 0, 0, 0, 0, 0, 0, 0, 0,0.0,0.0,0.0,0.0,0.0,0.0,0.0,0.0,0.0,0.0,0.0,0.0,0.0,58,log4j-perf\src\main\java\org\apache\logging\log4j\perf\jmh\DebugDisabledBenchmark.java,0,0,1,2
org.apache.logging.log4j.perf.jmh.FormatterLoggerBenchmark, 0, 0, 0, 0, 0, 0, 0, 0, 0, 0, 0, 0, 0, 0,0.0,0.0,0.0,0.0,0.0,0.0,0.0,0.0,0.0,0.0,0.0,0.0,0.0,76,log4j-perf\src\main\java\org\apache\logging\log4j\perf\jmh\FormatterLoggerBenchmark.java,0,0,0,0
org.apache.logging.log4j.perf.jmh.JdbcAppenderBenchmark, 0, 0, 0, 1, 0, 0, 0, 0, 0, 0, 0, 0, 0, 1,0.0,0.0,0.0,0.0,0.0,0.0,0.0,0.0,0.0,0.0,0.0,0.0,0.0,123,log4j-perf\src\main\java\org\apache\logging\log4j\perf\jmh\JdbcAppenderBenchmark.java,0,0,0,0
org.apache.logging.log4j.perf.jmh.JpaAppenderBenchmark, 0, 0, 0, 0, 0, 0, 0, 0, 0, 0, 0, 0, 0, 0,0.0,0.0,0.0,0.0,0.0,0.0,0.0,0.0,0.0,0.0,0.0,0.0,0.0,120,log4j-perf\src\main\java\org\apache\logging\log4j\perf\jmh\JpaAppenderBenchmark.java,0,0,0,0
org.apache.logging.log4j.perf.jmh.Log4jLogEventBenchmark, 0, 0, 0, 0, 0, 0, 0, 0, 0, 0, 0, 0, 0, 0,0.0,0.0,0.0,0.0,0.0,0.0,0.0,0.0,0.0,0.0,0.0,0.0,0.0,43,log4j-perf\src\main\java\org\apache\logging\log4j\perf\jmh\Log4jLogEventBenchmark.java,0,0,0,0
org.apache.logging.log4j.perf.jmh.ReflectionBenchmark, 0, 0, 0, 0, 0, 0, 0, 0, 0, 0, 0, 0, 0, 0,0.0,0.0,0.0,0.0,0.0,0.0,0.0,0.0,0.0,0.0,0.0,0.0,0.0,77,log4j-perf\src\main\java\org\apache\logging\log4j\perf\jmh\ReflectionBenchmark.java,0,0,0,0
org.apache.logging.log4j.perf.jmh.SimpleBenchmark, 0, 0, 0, 0, 0, 0, 0, 0, 0, 0, 0, 0, 0, 0,0.0,0.0,0.0,0.0,0.0,0.0,0.0,0.0,0.0,0.0,0.0,0.0,0.0,59,log4j-perf\src\main\java\org\apache\logging\log4j\perf\jmh\SimpleBenchmark.java,0,0,0,0
org.apache.logging.log4j.perf.jmh.StringEncodingBenchmark, 0, 0, 0, 0, 0, 0, 0, 0, 0, 0, 0, 0, 0, 0,0.0,0.0,0.0,0.0,0.0,0.0,0.0,0.0,0.0,0.0,0.0,0.0,0.0,51,log4j-perf\src\main\java\org\apache\logging\log4j\perf\jmh\StringEncodingBenchmark.java,0,0,0,0
org.apache.logging.log4j.perf.jmh.TimeFormatBenchmark, 0, 0, 0, 0, 0, 0, 0, 0, 0, 0, 0, 0, 0, 0,0.0,0.0,0.0,0.0,0.0,0.0,0.0,0.0,0.0,0.0,0.0,0.0,0.0,140,log4j-perf\src\main\java\org\apache\logging\log4j\perf\jmh\TimeFormatBenchmark.java,0,0,4,8
org.apache.logging.log4j.perf.jmh.UuidGeneratorBenchmark, 0, 0, 0, 0, 0, 0, 0, 0, 0, 0, 0, 0, 0, 0,0.0,0.0,0.0,1.0,0.0,0.0,0.0,0.0,0.0,0.0,0.0,0.0,0.0,14,log4j-perf\src\main\java\org\apache\logging\log4j\perf\jmh\UuidGeneratorBenchmark.java,0,0,0,0
org.apache.logging.log4j.samples.app.LoggingApp, 0, 0, 0, 0, 0, 0, 0, 0, 0, 0, 0, 0, 0, 0,0.5,0.0,0.0,0.5,0.0,0.0,0.0,0.0,0.0,0.0,0.0,0.0,0.0,82,log4j-samples\flume-common\src\main\java\org\apache\logging\log4j\samples\app\LoggingApp.java,0,0,0,0
org.apache.logging.log4j.samples.app.LoggingController, 0, 0, 0, 0, 0, 0, 0, 0, 0, 0, 0, 0, 0, 0,1.0,0.0,0.0,0.0,0.0,0.0,0.0,0.0,0.0,0.0,0.0,0.0,0.0,79,log4j-samples\flume-common\src\main\java\org\apache\logging\log4j\samples\app\LoggingController.java,0,0,0,0
org.apache.logging.log4j.samples.app.MockEventsSupplier, 1, 0, 0, 0, 0, 0, 0, 0, 0, 0, 0, 0, 0, 1,0.0,0.0,0.0,0.0,0.0,0.0,0.0,0.0,0.0,0.0,0.0,0.0,0.0,54,log4j-samples\flume-common\src\main\java\org\apache\logging\log4j\samples\app\MockEventsSupplier.java,0,0,0,0
org.apache.logging.log4j.samples.dto.AuditEvent, 0, 0, 0, 0, 0, 0, 0, 0, 0, 0, 0, 0, 0, 0,0.0,0.0,0.0,0.0,0.0,0.0,0.0,0.0,0.0,0.0,0.0,0.0,0.0,54,log4j-samples\flume-common\src\main\java\org\apache\logging\log4j\samples\dto\AuditEvent.java,0,0,0,0
org.apache.logging.log4j.samples.dto.RequestContext, 0, 0, 0, 1, 0, 0, 0, 0, 0, 0, 0, 0, 0, 1,0.0,0.0,0.0,0.5,0.0,0.0,0.0,0.0,0.0,0.0,0.0,0.0,0.0,103,log4j-samples\flume-common\src\main\java\org\apache\logging\log4j\samples\dto\RequestContext.java,0,0,0,0
org.apache.logging.log4j.samples.events.Alert, 0, 0, 0, 0, 0, 0, 0, 0, 0, 0, 0, 0, 0, 0,0.0,0.0,0.0,0.0,0.0,0.0,0.0,0.0,0.0,0.0,0.0,0.0,0.0,103,log4j-samples\flume-common\src\main\java\org\apache\logging\log4j\samples\events\Alert.java,0,0,0,0
org.apache.logging.log4j.samples.events.ChangePassword, 0, 0, 0, 0, 0, 0, 0, 0, 0, 0, 0, 0, 0, 0,0.0,0.0,0.0,0.0,0.0,0.0,0.0,0.0,0.0,0.0,0.0,0.0,0.0,103,log4j-samples\flume-common\src\main\java\org\apache\logging\log4j\samples\events\ChangePassword.java,0,0,0,0
org.apache.logging.log4j.samples.events.Login, 0, 0, 0, 0, 0, 0, 0, 0, 0, 0, 0, 0, 0, 0,0.0,0.0,0.0,0.0,0.0,0.0,0.0,0.0,0.0,0.0,0.0,0.0,0.0,103,log4j-samples\flume-common\src\main\java\org\apache\logging\log4j\samples\events\Login.java,0,0,0,0
org.apache.logging.log4j.samples.events.ScheduledTransaction, 0, 0, 0, 0, 0, 0, 0, 0, 0, 0, 0, 0, 0, 0,0.0,0.0,0.0,0.0,0.0,0.0,0.0,0.0,0.0,0.0,0.0,0.0,0.0,103,log4j-samples\flume-common\src\main\java\org\apache\logging\log4j\samples\events\ScheduledTransaction.java,0,0,0,0
org.apache.logging.log4j.samples.events.Transfer, 0, 0, 0, 0, 0, 0, 0, 0, 0, 0, 0, 0, 0, 0,0.0,0.0,0.0,0.0,0.0,0.0,0.0,0.0,0.0,0.0,0.0,0.0,0.0,103,log4j-samples\flume-common\src\main\java\org\apache\logging\log4j\samples\events\Transfer.java,0,0,0,0
org.apache.logging.log4j.samples.util.NamingUtils, 0, 0, 0, 0, 0, 0, 0, 0, 0, 0, 0, 0, 0, 0,0.0,0.0,0.0,0.0,0.0,0.0,0.0,0.0,0.0,0.0,0.0,0.0,0.0,50,log4j-samples\flume-common\src\main\java\org\apache\logging\log4j\samples\util\NamingUtils.java,0,0,0,0
org.apache.logging.log4j.simple.SimpleLoggerContextFactory, 0, 0, 0, 0, 0, 0, 0, 1, 0, 0, 0, 0, 0, 1,0.0,0.0,0.0,0.0,0.0,0.0,0.0,0.0,0.0,0.0,0.0,0.0,0.0,16,log4j-api\src\main\java\org\apache\logging\log4j\simple\SimpleLoggerContextFactory.java,0,0,0,0
org.apache.logging.log4j.simple.SimpleLoggerTest, 0, 0, 0, 0, 0, 0, 0, 0, 0, 0, 0, 0, 0, 0,0.0,0.0,0.0,0.0,0.0,0.0,0.0,0.0,0.0,0.0,0.0,0.0,0.0,26,log4j-api\src\test\java\org\apache\logging\log4j\simple\SimpleLoggerTest.java,0,0,0,0
org.apache.logging.log4j.spi.DefaultThreadContextStack, 0, 0, 0, 1, 0, 0, 0, 0, 0, 0, 0, 0, 0, 1,0.0,0.0,0.0,0.6666666666666666,0.0,0.0,0.0,0.0,0.0,0.0,0.0,0.0,0.0,240,log4j-api\src\main\java\org\apache\logging\log4j\spi\DefaultThreadContextStack.java,0,0,0,0
org.apache.logging.log4j.spi.DefaultThreadContextStackTest, 0, 0, 0, 1, 0, 0, 0, 0, 0, 0, 0, 0, 0, 1,0.0,0.0,0.0,1.0,0.0,0.0,0.0,0.0,0.0,0.0,0.0,0.0,0.0,249,log4j-api\src\test\java\org\apache\logging\log4j\spi\DefaultThreadContextStackTest.java,0,0,0,0
org.apache.logging.log4j.spi.ExtendedLogger, 0, 0, 0, 0, 0, 0, 0, 0, 0, 0, 0, 0, 0, 0,0.0,0.0,0.0,0.0,0.0,0.0,0.0,0.0,0.0,0.0,0.0,0.0,0.0,249,log4j-api\src\main\java\org\apache\logging\log4j\spi\ExtendedLogger.java,0,0,0,0
org.apache.logging.log4j.spi.ExtendedLoggerWrapper, 0, 0, 0, 0, 0, 0, 0, 1, 0, 0, 0, 0, 0, 1,0.0,0.0,0.0,0.0,0.0,0.0,0.0,0.0,0.0,0.0,0.0,0.0,0.0,36,log4j-api\src\main\java\org\apache\logging\log4j\spi\ExtendedLoggerWrapper.java,0,0,0,0
org.apache.logging.log4j.spi.LoggerAdapter, 0, 0, 0, 0, 0, 0, 0, 0, 0, 0, 0, 0, 0, 0,0.0,0.0,0.0,0.0,0.0,0.0,0.0,0.0,0.0,0.0,0.0,0.0,0.0,36,log4j-api\src\main\java\org\apache\logging\log4j\spi\LoggerAdapter.java,0,0,0,0
org.apache.logging.log4j.spi.LoggerContext, 0, 0, 0, 0, 0, 0, 0, 0, 0, 0, 0, 0, 0, 0,0.0,0.0,0.0,0.0,0.0,0.0,0.0,0.0,0.0,0.0,0.0,0.0,0.0,36,log4j-api\src\main\java\org\apache\logging\log4j\spi\LoggerContext.java,0,0,0,0
org.apache.logging.log4j.spi.LoggerContextFactory, 0, 0, 0, 0, 0, 0, 0, 0, 0, 0, 0, 0, 0, 0,0.0,0.0,0.0,0.0,0.0,0.0,0.0,0.0,0.0,0.0,0.0,0.0,0.0,36,log4j-api\src\main\java\org\apache\logging\log4j\spi\LoggerContextFactory.java,0,0,0,0
org.apache.logging.log4j.spi.MutableThreadContextStack, 0, 0, 0, 1, 0, 0, 0, 0, 0, 0, 0, 0, 0, 1,0.0,0.0,0.0,0.6666666666666666,0.0,0.0,0.0,0.0,0.0,0.0,0.0,0.0,0.0,172,log4j-api\src\main\java\org\apache\logging\log4j\spi\MutableThreadContextStack.java,0,0,0,0
org.apache.logging.log4j.spi.MutableThreadContextStackTest, 0, 0, 0, 1, 0, 0, 0, 0, 0, 0, 0, 0, 0, 1,0.0,0.0,0.0,1.0,0.0,0.0,0.0,0.0,0.0,0.0,0.0,0.0,0.0,274,log4j-api\src\test\java\org\apache\logging\log4j\spi\MutableThreadContextStackTest.java,0,0,0,0
org.apache.logging.log4j.spi.ThreadContextStack, 0, 0, 0, 0, 0, 0, 0, 0, 0, 0, 0, 0, 0, 0,0.0,0.0,0.0,0.0,0.0,0.0,0.0,0.0,0.0,0.0,0.0,0.0,0.0,274,log4j-api\src\main\java\org\apache\logging\log4j\spi\ThreadContextStack.java,0,0,0,0
org.apache.logging.log4j.status.StatusConsoleListener, 0, 0, 0, 0, 0, 0, 0, 0, 0, 0, 0, 0, 0, 0,0.0,0.0,0.0,1.0,0.0,0.0,0.0,0.0,0.0,0.0,0.0,0.0,0.0,49,log4j-api\src\main\java\org\apache\logging\log4j\status\StatusConsoleListener.java,0,0,0,0
org.apache.logging.log4j.status.StatusListener, 0, 0, 0, 0, 0, 0, 0, 0, 0, 0, 0, 0, 0, 0,0.0,0.0,0.0,0.0,0.0,0.0,0.0,0.0,0.0,0.0,0.0,0.0,0.0,49,log4j-api\src\main\java\org\apache\logging\log4j\status\StatusListener.java,0,0,0,0
org.apache.logging.log4j.status.StatusLoggerSerializationTest, 0, 0, 0, 0, 0, 0, 0, 0, 0, 0, 0, 0, 0, 0,0.0,0.0,0.0,0.0,0.0,0.0,0.0,0.0,0.0,0.0,0.0,0.0,0.0,9,log4j-api\src\test\java\org\apache\logging\log4j\status\StatusLoggerSerializationTest.java,0,0,0,0
org.apache.logging.log4j.taglib.CatchingTag, 0, 0, 0, 0, 0, 0, 0, 0, 0, 0, 0, 0, 0, 0,0.0,0.0,0.0,0.0,0.0,0.0,0.0,0.0,0.0,0.0,0.0,0.0,0.0,23,log4j-taglib\src\main\java\org\apache\logging\log4j\taglib\CatchingTag.java,0,0,0,0
org.apache.logging.log4j.taglib.CatchingTagTest, 0, 0, 0, 0, 0, 0, 0, 0, 0, 0, 0, 0, 0, 0,0.0,0.0,0.0,0.0,0.0,0.0,0.0,0.25,0.0,0.0,0.0,0.0,0.0,60,log4j-taglib\src\test\java\org\apache\logging\log4j\taglib\CatchingTagTest.java,0,0,0,0
org.apache.logging.log4j.taglib.DebugTag, 0, 0, 0, 0, 0, 0, 0, 0, 0, 0, 0, 0, 0, 0,0.0,0.0,0.0,0.0,0.0,0.0,0.0,0.0,0.0,0.0,0.0,0.0,0.0,7,log4j-taglib\src\main\java\org\apache\logging\log4j\taglib\DebugTag.java,0,0,0,0
org.apache.logging.log4j.taglib.DebugTagTest, 0, 0, 0, 0, 0, 0, 0, 0, 0, 0, 0, 0, 0, 0,0.0,0.0,0.0,0.0,0.0,0.0,0.0,0.0,0.0,0.0,0.0,0.0,0.0,6,log4j-taglib\src\test\java\org\apache\logging\log4j\taglib\DebugTagTest.java,0,0,0,0
org.apache.logging.log4j.taglib.DumpTag, 0, 0, 0, 0, 0, 0, 0, 0, 0, 0, 0, 0, 0, 0,0.0,0.0,0.0,0.0,0.0,0.0,0.0,0.0,0.0,0.0,0.0,0.0,0.0,36,log4j-taglib\src\main\java\org\apache\logging\log4j\taglib\DumpTag.java,0,0,0,0
org.apache.logging.log4j.taglib.DumpTagTest, 0, 0, 0, 0, 0, 0, 0, 0, 0, 0, 0, 0, 0, 0,0.0,0.0,0.0,0.0,0.0,0.0,0.0,0.0,0.0,0.0,0.0,0.0,0.0,70,log4j-taglib\src\test\java\org\apache\logging\log4j\taglib\DumpTagTest.java,0,0,0,0
org.apache.logging.log4j.taglib.EntryTag, 0, 0, 0, 0, 0, 0, 0, 0, 0, 0, 0, 0, 0, 0,0.0,0.0,0.0,0.0,0.0,0.0,0.0,0.0,0.0,0.0,0.0,0.0,0.0,30,log4j-taglib\src\main\java\org\apache\logging\log4j\taglib\EntryTag.java,0,0,0,0
org.apache.logging.log4j.taglib.EntryTagTest, 0, 0, 0, 0, 0, 0, 0, 0, 0, 0, 0, 0, 0, 0,0.0,0.0,0.0,0.0,0.0,0.0,0.0,0.3333333333333333,0.0,0.0,0.0,0.0,0.0,52,log4j-taglib\src\test\java\org\apache\logging\log4j\taglib\EntryTagTest.java,0,0,0,0
org.apache.logging.log4j.taglib.ErrorTag, 0, 0, 0, 0, 0, 0, 0, 0, 0, 0, 0, 0, 0, 0,0.0,0.0,0.0,0.0,0.0,0.0,0.0,0.0,0.0,0.0,0.0,0.0,0.0,7,log4j-taglib\src\main\java\org\apache\logging\log4j\taglib\ErrorTag.java,0,0,0,0
org.apache.logging.log4j.taglib.ErrorTagTest, 0, 0, 0, 0, 0, 0, 0, 0, 0, 0, 0, 0, 0, 0,0.0,0.0,0.0,0.0,0.0,0.0,0.0,0.0,0.0,0.0,0.0,0.0,0.0,6,log4j-taglib\src\test\java\org\apache\logging\log4j\taglib\ErrorTagTest.java,0,0,0,0
org.apache.logging.log4j.taglib.ExceptionAwareTagSupport, 0, 0, 0, 0, 0, 0, 0, 0, 0, 0, 0, 0, 0, 0,0.0,0.0,0.0,0.16666666666666666,0.0,0.0,0.0,0.0,0.0,0.0,0.0,0.0,0.0,15,log4j-taglib\src\main\java\org\apache\logging\log4j\taglib\ExceptionAwareTagSupport.java,0,0,0,0
org.apache.logging.log4j.taglib.ExceptionAwareTagSupportTest, 0, 0, 0, 0, 0, 0, 0, 0, 0, 0, 0, 0, 0, 0,0.0,0.0,0.0,0.0,0.0,0.0,0.0,0.0,0.0,0.0,0.0,0.0,0.0,21,log4j-taglib\src\test\java\org\apache\logging\log4j\taglib\ExceptionAwareTagSupportTest.java,0,0,0,0
org.apache.logging.log4j.taglib.ExitTag, 0, 0, 0, 0, 0, 0, 0, 0, 0, 0, 0, 0, 0, 0,0.0,0.0,0.0,0.0,0.0,0.0,0.0,0.0,0.0,0.0,0.0,0.0,0.0,25,log4j-taglib\src\main\java\org\apache\logging\log4j\taglib\ExitTag.java,0,0,0,0
org.apache.logging.log4j.taglib.ExitTagTest, 0, 0, 0, 0, 0, 0, 0, 0, 0, 0, 0, 0, 0, 0,0.0,0.0,0.0,0.0,0.0,0.0,0.0,0.3333333333333333,0.0,0.0,0.0,0.0,0.0,57,log4j-taglib\src\test\java\org\apache\logging\log4j\taglib\ExitTagTest.java,0,0,0,0
org.apache.logging.log4j.taglib.FatalTag, 0, 0, 0, 0, 0, 0, 0, 0, 0, 0, 0, 0, 0, 0,0.0,0.0,0.0,0.0,0.0,0.0,0.0,0.0,0.0,0.0,0.0,0.0,0.0,7,log4j-taglib\src\main\java\org\apache\logging\log4j\taglib\FatalTag.java,0,0,0,0
org.apache.logging.log4j.taglib.FatalTagTest, 0, 0, 0, 0, 0, 0, 0, 0, 0, 0, 0, 0, 0, 0,0.0,0.0,0.0,0.0,0.0,0.0,0.0,0.0,0.0,0.0,0.0,0.0,0.0,6,log4j-taglib\src\test\java\org\apache\logging\log4j\taglib\FatalTagTest.java,0,0,0,0
org.apache.logging.log4j.taglib.IfEnabledTag, 0, 0, 0, 0, 0, 0, 0, 0, 0, 0, 0, 0, 0, 0,0.0,0.0,0.0,0.0,0.0,0.0,0.0,0.0,0.0,0.0,0.0,0.0,0.0,25,log4j-taglib\src\main\java\org\apache\logging\log4j\taglib\IfEnabledTag.java,0,0,0,0
org.apache.logging.log4j.taglib.IfEnabledTagTest, 0, 0, 0, 0, 0, 0, 0, 0, 0, 0, 0, 0, 0, 0,0.0,0.0,0.0,0.0,0.0,0.0,0.0,0.0,0.0,0.0,0.0,0.0,0.0,68,log4j-taglib\src\test\java\org\apache\logging\log4j\taglib\IfEnabledTagTest.java,0,0,0,0
org.apache.logging.log4j.taglib.InfoTag, 0, 0, 0, 0, 0, 0, 0, 0, 0, 0, 0, 0, 0, 0,0.0,0.0,0.0,0.0,0.0,0.0,0.0,0.0,0.0,0.0,0.0,0.0,0.0,7,log4j-taglib\src\main\java\org\apache\logging\log4j\taglib\InfoTag.java,0,0,0,0
org.apache.logging.log4j.taglib.InfoTagTest, 0, 0, 0, 0, 0, 0, 0, 0, 0, 0, 0, 0, 0, 0,0.0,0.0,0.0,0.0,0.0,0.0,0.0,0.0,0.0,0.0,0.0,0.0,0.0,6,log4j-taglib\src\test\java\org\apache\logging\log4j\taglib\InfoTagTest.java,0,0,0,0
org.apache.logging.log4j.taglib.Log4jTaglibLogger, 0, 0, 0, 0, 0, 0, 0, 0, 0, 0, 0, 0, 0, 0,0.0,0.0,0.0,0.0,0.0,0.0,0.0,0.16666666666666666,0.0,0.0,0.0,0.0,0.0,22,log4j-taglib\src\main\java\org\apache\logging\log4j\taglib\Log4jTaglibLogger.java,0,0,0,0
org.apache.logging.log4j.taglib.LogTag, 0, 0, 0, 0, 0, 0, 0, 0, 0, 0, 0, 0, 0, 0,0.0,0.0,0.0,0.0,0.0,0.0,0.0,0.0,0.0,0.0,0.0,0.0,0.0,16,log4j-taglib\src\main\java\org\apache\logging\log4j\taglib\LogTag.java,0,0,0,0
org.apache.logging.log4j.taglib.LogTagTest, 0, 0, 0, 0, 0, 0, 0, 0, 0, 0, 0, 0, 0, 0,0.0,0.0,0.0,0.0,0.0,0.0,0.0,0.0,0.0,0.0,0.0,0.0,0.0,17,log4j-taglib\src\test\java\org\apache\logging\log4j\taglib\LogTagTest.java,0,0,0,0
org.apache.logging.log4j.taglib.LoggerAwareTagSupport, 0, 0, 0, 0, 0, 0, 0, 0, 0, 0, 0, 0, 0, 0,0.0,0.0,0.0,0.07142857142857142,0.0,0.0,0.0,0.0,0.0,0.0,0.0,0.0,0.0,36,log4j-taglib\src\main\java\org\apache\logging\log4j\taglib\LoggerAwareTagSupport.java,0,0,0,0
org.apache.logging.log4j.taglib.LoggerAwareTagSupportTest, 0, 0, 0, 0, 0, 0, 0, 0, 0, 0, 0, 0, 0, 0,0.0,0.0,0.0,0.0,0.0,0.0,0.0,0.0,0.0,0.0,0.0,0.0,0.0,88,log4j-taglib\src\test\java\org\apache\logging\log4j\taglib\LoggerAwareTagSupportTest.java,0,0,0,0
org.apache.logging.log4j.taglib.LoggingMessageTagSupport, 0, 0, 0, 0, 0, 0, 0, 0, 0, 0, 0, 0, 0, 0,0.0,0.0,0.0,0.09090909090909091,0.0,0.0,0.0,0.0,0.0,0.0,0.0,0.0,0.0,69,log4j-taglib\src\main\java\org\apache\logging\log4j\taglib\LoggingMessageTagSupport.java,0,0,0,0
org.apache.logging.log4j.taglib.LoggingMessageTagSupportTest, 0, 0, 0, 1, 0, 0, 0, 0, 0, 0, 0, 0, 0, 1,0.0,0.0,0.0,0.0,0.0,0.0,0.0,0.25,0.0,0.0,0.0,0.0,0.0,215,log4j-taglib\src\test\java\org\apache\logging\log4j\taglib\LoggingMessageTagSupportTest.java,0,0,0,0
org.apache.logging.log4j.taglib.SetLoggerTag, 0, 0, 0, 0, 0, 0, 0, 0, 0, 0, 0, 0, 0, 0,0.0,0.0,0.0,0.0,0.0,0.0,0.0,0.0,0.0,0.0,0.0,0.0,0.0,49,log4j-taglib\src\main\java\org\apache\logging\log4j\taglib\SetLoggerTag.java,0,0,0,0
org.apache.logging.log4j.taglib.SetLoggerTagTest, 0, 0, 0, 0, 0, 0, 0, 0, 0, 0, 0, 0, 0, 0,0.0,0.0,0.0,0.0,0.0,0.0,0.0,0.0,0.0,0.0,0.0,0.0,0.0,128,log4j-taglib\src\test\java\org\apache\logging\log4j\taglib\SetLoggerTagTest.java,0,0,0,0
org.apache.logging.log4j.taglib.TagUtils, 0, 0, 0, 0, 0, 0, 0, 0, 0, 0, 0, 0, 0, 0,0.0,0.0,0.0,0.0,0.0,0.0,0.0,0.06666666666666667,0.0,0.0,0.0,0.0,0.0,73,log4j-taglib\src\main\java\org\apache\logging\log4j\taglib\TagUtils.java,0,0,0,0
org.apache.logging.log4j.taglib.TagUtilsTest, 0, 0, 0, 0, 0, 0, 0, 0, 0, 0, 0, 0, 0, 0,0.0,0.0,0.0,0.0,0.0,0.0,0.0,0.0,0.0,0.0,0.0,0.0,0.0,70,log4j-taglib\src\test\java\org\apache\logging\log4j\taglib\TagUtilsTest.java,0,0,0,0
org.apache.logging.log4j.taglib.TraceTag, 0, 0, 0, 0, 0, 0, 0, 0, 0, 0, 0, 0, 0, 0,0.0,0.0,0.0,0.0,0.0,0.0,0.0,0.0,0.0,0.0,0.0,0.0,0.0,7,log4j-taglib\src\main\java\org\apache\logging\log4j\taglib\TraceTag.java,0,0,0,0
org.apache.logging.log4j.taglib.TraceTagTest, 0, 0, 0, 0, 0, 0, 0, 0, 0, 0, 0, 0, 0, 0,0.0,0.0,0.0,0.0,0.0,0.0,0.0,0.0,0.0,0.0,0.0,0.0,0.0,6,log4j-taglib\src\test\java\org\apache\logging\log4j\taglib\TraceTagTest.java,0,0,0,0
org.apache.logging.log4j.taglib.WarnTag, 0, 0, 0, 0, 0, 0, 0, 0, 0, 0, 0, 0, 0, 0,0.0,0.0,0.0,0.0,0.0,0.0,0.0,0.0,0.0,0.0,0.0,0.0,0.0,7,log4j-taglib\src\main\java\org\apache\logging\log4j\taglib\WarnTag.java,0,0,0,0
org.apache.logging.log4j.taglib.WarnTagTest, 0, 0, 0, 0, 0, 0, 0, 0, 0, 0, 0, 0, 0, 0,0.0,0.0,0.0,0.0,0.0,0.0,0.0,0.0,0.0,0.0,0.0,0.0,0.0,6,log4j-taglib\src\test\java\org\apache\logging\log4j\taglib\WarnTagTest.java,0,0,0,0
org.apache.logging.log4j.test.AvailablePortFinder, 0, 0, 0, 0, 0, 0, 0, 0, 0, 0, 0, 0, 0, 0,0.0,0.0,0.0,0.0,0.0,0.0,0.0,0.0,0.0,0.0,0.0,0.0,0.0,65,log4j-core\src\test\java\org\apache\logging\log4j\test\AvailablePortFinder.java,0,0,0,0
org.apache.logging.log4j.test.ExtendedLevels, 0, 0, 0, 0, 0, 0, 0, 0, 0, 0, 0, 0, 0, 0,0.0,0.0,0.0,0.0,0.0,0.0,0.0,0.0,0.0,0.0,0.0,0.0,0.0,4,log4j-core\src\test\java\org\apache\logging\log4j\test\ExtendedLevels.java,0,0,0,0
org.apache.logging.log4j.test.SomethingThatUsesLogging, 0, 0, 0, 0, 0, 0, 0, 0, 0, 0, 0, 0, 0, 0,0.0,0.0,0.0,0.0,0.0,0.0,0.0,0.0,0.0,0.0,0.0,0.0,0.0,9,log4j-core\src\test\java\org\apache\logging\log4j\test\SomethingThatUsesLogging.java,0,0,0,0
org.apache.logging.log4j.test.appender.AlwaysFailAppender, 0, 0, 0, 0, 0, 0, 0, 0, 0, 0, 0, 0, 0, 0,0.0,0.0,0.0,0.0,0.0,0.0,0.0,0.0,0.0,0.0,0.0,0.0,0.0,18,log4j-core\src\test\java\org\apache\logging\log4j\test\appender\AlwaysFailAppender.java,0,0,0,0
org.apache.logging.log4j.test.appender.FailOnceAppender, 0, 0, 0, 0, 0, 0, 0, 0, 0, 0, 0, 0, 0, 0,0.0,0.0,0.3333333333333333,0.0,0.0,0.0,0.0,0.0,0.0,0.0,0.0,0.0,0.0,30,log4j-core\src\test\java\org\apache\logging\log4j\test\appender\FailOnceAppender.java,0,0,0,0
org.apache.logging.log4j.test.appender.InMemoryAppender, 0, 0, 0, 0, 0, 0, 0, 0, 0, 0, 0, 0, 0, 0,0.0,0.0,0.0,0.0,0.0,0.0,0.0,0.5,0.0,0.0,0.0,0.0,0.0,20,log4j-core\src\test\java\org\apache\logging\log4j\test\appender\InMemoryAppender.java,0,0,0,0
org.apache.logging.log4j.test.appender.ListAppender, 0, 0, 0, 0, 0, 0, 0, 1, 0, 0, 0, 0, 0, 1,0.4444444444444444,0.0,0.5111111111111111,0.044444444444444446,0.0,0.0,0.0,0.0,0.0,0.0,0.0,0.0,0.0,118,log4j-core\src\test\java\org\apache\logging\log4j\test\appender\ListAppender.java,0,0,0,0
org.apache.logging.log4j.test.appender.UsesLoggingAppender, 0, 0, 0, 0, 0, 0, 0, 0, 0, 0, 0, 0, 0, 0,0.0,0.0,0.0,0.0,0.0,0.0,0.0,0.0,0.0,0.0,0.0,0.0,0.0,31,log4j-core\src\test\java\org\apache\logging\log4j\test\appender\UsesLoggingAppender.java,0,0,0,0
org.apache.logging.log4j.test.layout.BasicLayout, 0, 0, 0, 0, 0, 0, 0, 0, 0, 0, 0, 0, 0, 0,0.0,0.0,0.0,0.0,0.0,0.0,0.0,0.0,0.0,0.0,0.0,0.0,0.0,18,log4j-core\src\test\java\org\apache\logging\log4j\test\layout\BasicLayout.java,1,0,1,3
org.apache.logging.log4j.util.Activator, 0, 0, 0, 0, 0, 0, 0, 0, 0, 0, 0, 0, 0, 0,0.0,0.0,0.0,0.0,0.0,0.0,0.0,0.0,0.0,0.0,0.0,0.0,0.0,68,log4j-api\src\main\java\org\apache\logging\log4j\util\Activator.java,0,0,0,0
org.apache.logging.log4j.util.EnglishEnums, 0, 0, 0, 0, 0, 0, 0, 0, 0, 0, 0, 0, 0, 0,0.0,0.0,0.0,0.0,0.0,0.0,0.0,0.5,0.0,0.0,0.0,0.0,0.0,10,log4j-api\src\main\java\org\apache\logging\log4j\util\EnglishEnums.java,0,0,0,0
org.apache.logging.log4j.util.LoaderUtil, 0, 0, 0, 0, 0, 0, 0, 0, 0, 0, 0, 0, 0, 0,0.0,0.0,0.0,0.0,0.0,0.0,0.0,0.0,0.0,0.0,0.0,0.0,0.0,139,log4j-api\src\main\java\org\apache\logging\log4j\util\LoaderUtil.java,0,0,0,0
org.apache.logging.log4j.util.ReflectionUtilTest, 0, 0, 0, 0, 0, 0, 0, 0, 0, 0, 0, 0, 0, 0,0.0,0.0,0.0,0.0,0.0,0.0,0.0,0.0,0.0,0.0,0.0,0.0,0.0,64,log4j-api\src\test\java\org\apache\logging\log4j\util\ReflectionUtilTest.java,0,0,0,0
org.apache.logging.log4j.web.Log4jServletContainerInitializer, 0, 0, 0, 0, 0, 0, 0, 0, 0, 0, 0, 0, 0, 0,0.0,0.0,0.0,0.0,0.0,0.0,0.0,0.0,0.0,0.0,0.0,0.0,0.0,26,log4j-web\src\main\java\org\apache\logging\log4j\web\Log4jServletContainerInitializer.java,0,0,0,0
org.apache.logging.log4j.web.Log4jServletContainerInitializerTest, 0, 0, 0, 0, 0, 0, 0, 0, 0, 0, 0, 0, 0, 0,0.0,0.0,0.0,0.0,0.0,0.0,0.0,0.0,0.0,0.0,0.0,0.0,0.0,113,log4j-web\src\test\java\org\apache\logging\log4j\web\Log4jServletContainerInitializerTest.java,0,0,0,0
org.apache.logging.log4j.web.Log4jServletContextListener, 0, 0, 0, 0, 0, 0, 0, 0, 0, 0, 0, 0, 0, 0,0.0,0.0,0.0,0.0,0.0,0.0,0.0,0.0,0.0,0.0,0.0,0.0,0.0,26,log4j-web\src\main\java\org\apache\logging\log4j\web\Log4jServletContextListener.java,0,0,0,0
org.apache.logging.log4j.web.Log4jServletContextListenerTest, 0, 0, 0, 0, 0, 0, 0, 0, 0, 0, 0, 0, 0, 0,0.0,0.0,0.0,0.0,0.0,0.0,0.0,0.0,0.0,0.0,0.0,0.0,0.0,59,log4j-web\src\test\java\org\apache\logging\log4j\web\Log4jServletContextListenerTest.java,0,0,0,0
org.apache.logging.log4j.web.Log4jServletFilter, 0, 0, 0, 0, 0, 0, 0, 0, 0, 0, 0, 0, 0, 0,0.0,0.0,0.0,0.0,0.0,0.0,0.0,0.0,0.0,0.0,0.0,0.0,0.0,36,log4j-web\src\main\java\org\apache\logging\log4j\web\Log4jServletFilter.java,0,0,0,0
org.apache.logging.log4j.web.Log4jServletFilterTest, 0, 0, 0, 0, 0, 0, 0, 0, 0, 0, 0, 0, 0, 0,0.0,0.0,0.0,0.0,0.0,0.0,0.0,0.0,0.0,0.0,0.0,0.0,0.0,84,log4j-web\src\test\java\org\apache\logging\log4j\web\Log4jServletFilterTest.java,0,0,0,0
org.apache.logging.log4j.web.Log4jWebInitializerImplTest, 0, 0, 0, 0, 0, 0, 0, 0, 0, 0, 0, 0, 0, 0,0.0,0.0,0.0,0.0,0.0,0.0,0.0,0.0,0.0,0.0,0.0,0.0,0.0,317,log4j-web\src\test\java\org\apache\logging\log4j\web\Log4jWebInitializerImplTest.java,0,0,0,0
org.apache.logging.log4j.web.Log4jWebLifeCycle, 0, 0, 0, 0, 0, 0, 0, 0, 0, 0, 0, 0, 0, 0,0.0,0.0,0.0,0.0,0.0,0.0,0.0,0.0,0.0,0.0,0.0,0.0,0.0,317,log4j-web\src\main\java\org\apache\logging\log4j\web\Log4jWebLifeCycle.java,0,0,0,0
org.apache.logging.log4j.web.Log4jWebSupport, 0, 0, 0, 0, 0, 0, 0, 0, 0, 0, 0, 0, 0, 0,0.0,0.0,0.0,0.0,0.0,0.0,0.0,0.0,0.0,0.0,0.0,0.0,0.0,317,log4j-web\src\main\java\org\apache\logging\log4j\web\Log4jWebSupport.java,0,0,0,0
org.apache.logging.log4j.web.ServletAppenderTest, 0, 0, 0, 0, 0, 0, 0, 0, 0, 0, 0, 0, 0, 0,0.0,0.0,0.0,0.0,0.0,0.0,0.0,0.0,0.0,0.0,0.0,0.0,0.0,32,log4j-web\src\test\java\org\apache\logging\log4j\web\ServletAppenderTest.java,0,0,0,0
org.apache.logging.log4j.web.ShutdownPropertyTest, 0, 0, 0, 0, 0, 0, 0, 0, 0, 0, 0, 0, 0, 0,0.0,0.0,0.0,0.0,0.0,0.0,0.0,0.0,0.0,0.0,0.0,0.0,0.0,6,log4j-web\src\test\java\org\apache\logging\log4j\web\ShutdownPropertyTest.java,0,0,0,0
org.apache.logging.log4j.web.TestAsyncServlet, 0, 0, 0, 0, 0, 0, 0, 0, 0, 0, 0, 0, 0, 0,0.0,0.0,0.0,0.0,0.0,0.0,0.0,0.0,0.0,0.0,0.0,0.0,0.0,27,log4j-web\src\test\java\org\apache\logging\log4j\web\TestAsyncServlet.java,0,0,0,0
org.apache.logging.log4j.web.WebLoggerContextUtils, 0, 0, 0, 0, 0, 0, 0, 0, 0, 0, 0, 0, 0, 0,0.0,0.0,0.0,0.0,0.0,0.0,0.0,0.125,0.0,0.0,0.0,0.0,0.0,51,log4j-web\src\main\java\org\apache\logging\log4j\web\WebLoggerContextUtils.java,0,0,0,0
org.apache.logging.log4j.web.WebLookup, 0, 0, 0, 0, 0, 0, 0, 0, 0, 0, 0, 0, 0, 0,0.0,0.0,0.0,0.0,0.0,0.0,0.0,0.0,0.0,0.0,0.0,0.0,0.0,63,log4j-web\src\main\java\org\apache\logging\log4j\web\WebLookup.java,0,1,1,3
org.apache.logging.log4j.web.appender.ServletAppender, 0, 0, 0, 0, 0, 0, 0, 1, 0, 0, 0, 0, 0, 1,0.0,0.0,0.0,0.0,0.0,0.0,0.0,0.0,0.0,0.0,0.0,0.0,0.0,34,log4j-web\src\main\java\org\apache\logging\log4j\web\appender\ServletAppender.java,0,0,0,0
org.apache.logging.slf4j.CallerInformationTest, 0, 0, 0, 0, 0, 0, 0, 0, 0, 0, 0, 0, 0, 0,0.0,0.0,0.0,0.0,0.0,0.0,0.0,1.0,0.0,0.0,0.0,0.0,0.0,33,log4j-slf4j-impl\src\test\java\org\apache\logging\slf4j\CallerInformationTest.java,0,0,0,0
org.apache.logging.slf4j.CustomFlatMarker, 0, 0, 0, 0, 0, 0, 0, 0, 0, 0, 0, 0, 0, 0,1.0,0.0,1.0,0.0,0.0,0.0,0.0,0.0,0.0,0.0,0.0,0.0,0.0,39,log4j-slf4j-impl\src\test\java\org\apache\logging\slf4j\CustomFlatMarker.java,0,0,0,0
org.apache.logging.slf4j.InitialLoggerContext, 0, 0, 0, 0, 0, 0, 0, 0, 0, 0, 0, 0, 0, 0,0.0,0.0,0.0,0.0,0.0,0.0,0.0,0.0,0.0,0.0,0.0,0.0,0.0,31,log4j-to-slf4j\src\test\java\org\apache\logging\slf4j\InitialLoggerContext.java,0,0,0,0
org.apache.logging.slf4j.Log4jLogger, 0, 0, 0, 1, 0, 0, 0, 1, 0, 0, 0, 0, 0, 2,0.0,0.0,0.0,0.0,0.0,0.0,0.0,0.0,0.0,0.0,0.0,0.0,0.0,320,log4j-slf4j-impl\src\main\java\org\apache\logging\slf4j\Log4jLogger.java,0,0,0,0
org.apache.logging.slf4j.Log4jLoggerFactory, 0, 0, 0, 0, 0, 0, 0, 0, 0, 0, 0, 0, 0, 0,0.0,0.0,0.0,1.0,0.0,0.0,0.0,1.0,0.0,0.0,0.0,0.0,0.0,14,log4j-slf4j-impl\src\main\java\org\apache\logging\slf4j\Log4jLoggerFactory.java,0,0,0,0
org.apache.logging.slf4j.Log4jMarker, 0, 0, 0, 0, 0, 0, 0, 0, 0, 0, 0, 0, 0, 0,0.0,0.0,0.0,1.0,0.0,0.0,0.0,1.0,0.0,0.0,0.0,0.0,0.0,49,log4j-slf4j-impl\src\main\java\org\apache\logging\slf4j\Log4jMarker.java,0,0,0,0
org.apache.logging.slf4j.LoggerTest, 1, 0, 1, 0, 0, 0, 0, 0, 0, 0, 0, 0, 0, 2,0.0,0.0,0.0,0.0,0.0,0.0,0.0,0.5,0.0,0.0,0.0,0.0,0.0,102,log4j-slf4j-impl\src\test\java\org\apache\logging\slf4j\LoggerTest.java,0,0,0,0
org.apache.logging.slf4j.MarkerTest, 0, 0, 0, 0, 0, 0, 0, 0, 0, 0, 0, 0, 0, 0,0.0,0.0,0.0,0.0,0.0,0.0,0.0,0.0,0.0,0.0,0.0,0.0,0.0,22,log4j-slf4j-impl\src\test\java\org\apache\logging\slf4j\MarkerTest.java,0,0,0,0
org.apache.logging.slf4j.OptionalTest, 0, 0, 0, 0, 0, 0, 0, 0, 0, 0, 0, 0, 0, 0,0.0,0.0,0.0,0.0,0.0,0.0,0.0,1.0,0.0,0.0,0.0,0.0,0.0,26,log4j-slf4j-impl\src\test\java\org\apache\logging\slf4j\OptionalTest.java,0,0,0,0
org.apache.logging.slf4j.SLF4JLogger, 0, 0, 0, 0, 0, 0, 0, 1, 0, 0, 0, 0, 0, 1,0.0,0.0,0.0,0.0,0.0,0.0,0.0,0.0,0.0,0.0,0.0,0.0,0.0,137,log4j-to-slf4j\src\main\java\org\apache\logging\slf4j\SLF4JLogger.java,0,0,0,0
org.apache.logging.slf4j.SLF4JLoggerContextFactory, 0, 0, 0, 0, 0, 0, 0, 1, 0, 0, 0, 0, 0, 1,0.0,0.0,0.0,0.0,0.0,0.0,0.0,0.0,0.0,0.0,0.0,0.0,0.0,30,log4j-to-slf4j\src\main\java\org\apache\logging\slf4j\SLF4JLoggerContextFactory.java,0,0,0,0
org.apache.logging.slf4j.SLF4JLoggingException, 0, 0, 0, 0, 0, 0, 0, 0, 0, 0, 0, 0, 0, 0,0.0,0.0,0.0,0.0,0.0,0.0,0.0,0.0,0.0,0.0,0.0,0.0,0.0,12,log4j-slf4j-impl\src\main\java\org\apache\logging\slf4j\SLF4JLoggingException.java,0,0,0,0
org.apache.logging.slf4j.SerializeTest, 0, 0, 0, 0, 0, 0, 0, 0, 0, 0, 0, 0, 0, 0,0.0,0.0,0.0,0.0,0.0,0.0,0.0,0.0,0.0,0.0,0.0,0.0,0.0,10,log4j-slf4j-impl\src\test\java\org\apache\logging\slf4j\SerializeTest.java,0,0,0,0
org.apache.logging.slf4j.TestUtil, 0, 0, 0, 0, 0, 0, 0, 0, 0, 0, 0, 0, 0, 0,0.0,0.0,0.0,0.0,0.0,0.0,0.0,1.0,0.0,0.0,0.0,0.0,0.0,16,log4j-to-slf4j\src\test\java\org\apache\logging\slf4j\TestUtil.java,0,0,0,0
org.slf4j.impl.StaticLoggerBinder, 1, 0, 1, 0, 0, 0, 0, 0, 0, 0, 0, 0, 0, 2,0.0,0.0,0.0,0.0,0.0,0.0,0.0,0.0,0.0,0.0,0.0,0.0,0.0,20,log4j-slf4j-impl\src\main\java\org\slf4j\impl\StaticLoggerBinder.java,0,0,0,0
org.slf4j.impl.StaticMDCBinder, 0, 0, 0, 0, 0, 0, 0, 0, 0, 0, 0, 0, 0, 0,0.0,0.0,0.0,0.0,0.0,0.0,0.0,0.0,0.0,0.0,0.0,0.0,0.0,11,log4j-slf4j-impl\src\main\java\org\slf4j\impl\StaticMDCBinder.java,0,0,0,0
org.slf4j.impl.StaticMarkerBinder, 0, 0, 0, 0, 0, 0, 0, 0, 0, 0, 0, 0, 0, 0,0.0,0.0,0.0,1.0,0.0,0.0,0.0,1.0,0.0,0.0,0.0,0.0,0.0,12,log4j-slf4j-impl\src\main\java\org\slf4j\impl\StaticMarkerBinder.java,0,0,0,0
