ClassName,AntiSingleton,Blob,ClassDataShouldBePrivate,ComplexClass,LargeClass,LazyClass,LongMethod,LongParameterList,MessageChains,RefusedParentBequest,SpaghettiCode,SpeculativeGenerality,SwissArmyKnife,NumOfAPs,AntiSingleton,Blob,ClassDataShouldBePrivate,ComplexClass,LargeClass,LazyClass,LongMethod,LongParameterList,MessageChains,RefusedParentBequest,SpaghettiCode,SpeculativeGenerality,SwissArmyKnife,LOC,name,deleted,added,changed,all
org.apache.whirr.Cluster, 0, 0, 0, 0, 0, 0, 0, 0, 0, 0, 0, 0, 0, 0,0.0,0.0,0.0,0.0975609756097561,0.0,0.0,0.0,0.04878048780487805,0.0,0.0,0.0,0.0,0.0,122,core\src\main\java\org\apache\whirr\Cluster.java,1,0,0,1
org.apache.whirr.ClusterAction, 0, 0, 0, 0, 0, 0, 0, 0, 0, 0, 0, 0, 0, 0,0.0,0.0,0.0,0.0,0.0,0.0,0.0,0.0,0.0,0.0,0.0,0.0,0.0,12,core\src\main\java\org\apache\whirr\ClusterAction.java,0,0,0,0
org.apache.whirr.ClusterControllerFactory, 0, 0, 0, 0, 0, 0, 0, 0, 0, 0, 0, 0, 0, 0,0.0,0.0,0.0,0.07142857142857142,0.0,0.0,0.0,0.07142857142857142,0.0,0.0,0.0,0.0,0.0,22,core\src\main\java\org\apache\whirr\ClusterControllerFactory.java,0,0,0,0
org.apache.whirr.ClusterControllerFactoryTest, 0, 0, 0, 0, 0, 0, 0, 0, 0, 0, 0, 0, 0, 0,0.0,0.0,0.0,0.0,0.0,0.0,0.0,0.0,0.0,0.0,0.0,0.0,0.0,24,core\src\test\java\org\apache\whirr\ClusterControllerFactoryTest.java,0,0,0,0
org.apache.whirr.ClusterTest, 0, 0, 0, 0, 0, 0, 0, 0, 0, 0, 0, 0, 0, 0,0.0,0.0,0.0,0.0,0.0,0.0,0.0,0.0,0.0,0.0,0.0,0.0,0.0,35,core\src\test\java\org\apache\whirr\ClusterTest.java,0,0,0,0
org.apache.whirr.RolePredicates, 0, 0, 0, 0, 0, 0, 0, 0, 0, 0, 0, 0, 0, 0,0.0,0.0,0.0,0.125,0.0,0.0,0.0,0.0,0.0,0.0,0.0,0.0,0.0,42,core\src\main\java\org\apache\whirr\RolePredicates.java,0,0,0,0
org.apache.whirr.TestConstants, 0, 0, 0, 0, 0, 0, 0, 0, 0, 0, 0, 0, 0, 0,0.0,0.0,0.0,0.0,0.0,0.0,0.0,0.0,0.0,0.0,0.0,0.0,0.0,3,core\src\test\java\org\apache\whirr\TestConstants.java,0,0,0,0
org.apache.whirr.actions.CleanupClusterAction, 0, 0, 0, 0, 0, 0, 0, 0, 0, 0, 0, 0, 0, 0,0.0,0.0,0.0,0.0,0.0,0.0,0.0,0.0,0.0,0.0,0.0,0.0,0.0,20,core\src\main\java\org\apache\whirr\actions\CleanupClusterAction.java,0,0,0,0
org.apache.whirr.actions.CleanupClusterActionTest, 0, 0, 0, 0, 0, 0, 0, 0, 0, 0, 0, 0, 0, 0,0.0,0.0,0.0,0.0,0.0,0.0,0.0,0.0,0.0,0.0,0.0,0.0,0.0,13,core\src\test\java\org\apache\whirr\actions\CleanupClusterActionTest.java,0,0,0,0
org.apache.whirr.actions.ConfigureServicesActionTest, 0, 0, 0, 0, 0, 0, 0, 0, 0, 0, 0, 0, 0, 0,0.0,0.0,0.0,0.0,0.0,0.0,0.0,0.0,0.0,0.0,0.0,0.0,0.0,13,core\src\test\java\org\apache\whirr\actions\ConfigureServicesActionTest.java,0,0,0,0
org.apache.whirr.actions.StartServicesAction, 0, 0, 0, 0, 0, 0, 0, 0, 0, 0, 0, 0, 0, 0,0.0,0.0,0.0,0.0,0.0,0.0,0.0,0.0,0.0,0.0,0.0,0.0,0.0,20,core\src\main\java\org\apache\whirr\actions\StartServicesAction.java,0,0,0,0
org.apache.whirr.actions.StartServicesActionTest, 0, 0, 0, 0, 0, 0, 0, 0, 0, 0, 0, 0, 0, 0,0.0,0.0,0.0,0.0,0.0,0.0,0.0,0.0,0.0,0.0,0.0,0.0,0.0,13,core\src\test\java\org\apache\whirr\actions\StartServicesActionTest.java,0,0,0,0
org.apache.whirr.actions.StopServicesAction, 0, 0, 0, 0, 0, 0, 0, 0, 0, 0, 0, 0, 0, 0,0.0,0.0,0.0,0.0,0.0,0.0,0.0,0.0,0.0,0.0,0.0,0.0,0.0,20,core\src\main\java\org\apache\whirr\actions\StopServicesAction.java,0,0,0,0
org.apache.whirr.actions.StopServicesActionTest, 0, 0, 0, 0, 0, 0, 0, 0, 0, 0, 0, 0, 0, 0,0.0,0.0,0.0,0.0,0.0,0.0,0.0,0.0,0.0,0.0,0.0,0.0,0.0,13,core\src\test\java\org\apache\whirr\actions\StopServicesActionTest.java,0,0,0,0
org.apache.whirr.cli.MainTest, 0, 0, 0, 0, 0, 0, 0, 0, 0, 0, 0, 0, 0, 0,0.0,0.0,0.0,0.0,0.0,0.0,0.0,0.0,0.0,0.0,0.0,0.0,0.0,42,cli\src\test\java\org\apache\whirr\cli\MainTest.java,0,0,0,0
org.apache.whirr.cli.command.CleanupClusterCommand, 0, 0, 0, 0, 0, 0, 0, 0, 0, 0, 0, 0, 0, 0,0.0,0.0,0.0,0.0,0.0,0.0,0.0,0.0,0.0,0.0,0.0,0.0,0.0,37,cli\src\main\java\org\apache\whirr\cli\command\CleanupClusterCommand.java,0,0,0,0
org.apache.whirr.cli.command.ConfigureServicesCommand, 0, 0, 0, 0, 0, 0, 0, 0, 0, 0, 0, 0, 0, 0,0.0,0.0,0.0,0.0,0.0,0.0,0.0,0.0,0.0,0.0,0.0,0.0,0.0,23,cli\src\main\java\org\apache\whirr\cli\command\ConfigureServicesCommand.java,0,0,0,0
org.apache.whirr.cli.command.DestroyClusterCommand, 0, 0, 0, 0, 0, 0, 0, 0, 0, 0, 0, 0, 0, 0,0.0,0.0,0.0,0.0,0.0,0.0,0.0,0.0,0.0,0.0,0.0,0.0,0.0,31,cli\src\main\java\org\apache\whirr\cli\command\DestroyClusterCommand.java,0,0,0,0
org.apache.whirr.cli.command.DestroyInstanceCommand, 0, 0, 0, 0, 0, 0, 0, 1, 0, 0, 0, 0, 0, 1,0.0,0.0,0.0,0.0,0.0,0.0,0.0,0.0,0.0,0.0,0.0,0.0,0.0,46,cli\src\main\java\org\apache\whirr\cli\command\DestroyInstanceCommand.java,0,0,0,0
org.apache.whirr.cli.command.HelpCommand, 0, 0, 0, 0, 0, 0, 0, 0, 0, 0, 0, 0, 0, 0,0.0,0.0,0.0,0.0,0.0,0.0,0.0,0.0,0.0,0.0,0.0,0.0,0.0,26,cli\src\main\java\org\apache\whirr\cli\command\HelpCommand.java,0,0,0,0
org.apache.whirr.cli.command.LaunchClusterCommand, 0, 0, 0, 0, 0, 0, 0, 0, 0, 0, 0, 0, 0, 0,0.0,0.0,0.0,0.0,0.0,0.0,0.0,0.0,0.0,0.0,0.0,0.0,0.0,34,cli\src\main\java\org\apache\whirr\cli\command\LaunchClusterCommand.java,0,0,0,0
org.apache.whirr.cli.command.ListClusterCommand, 0, 0, 0, 0, 0, 0, 0, 0, 0, 0, 0, 0, 0, 0,0.0,0.0,0.0,0.0,0.0,0.0,0.0,0.0,0.0,0.0,0.0,0.0,0.0,46,cli\src\main\java\org\apache\whirr\cli\command\ListClusterCommand.java,0,0,0,0
org.apache.whirr.cli.command.ListProvidersCommand, 0, 0, 0, 0, 0, 0, 0, 0, 0, 0, 0, 0, 0, 0,0.0,0.0,0.0,0.0,0.0,0.0,0.0,0.0,0.0,0.0,0.0,0.0,0.0,91,cli\src\main\java\org\apache\whirr\cli\command\ListProvidersCommand.java,0,0,0,0
org.apache.whirr.cli.command.RestartServicesCommand, 0, 0, 0, 0, 0, 0, 0, 0, 0, 0, 0, 0, 0, 0,0.0,0.0,0.0,0.0,0.0,0.0,0.0,0.0,0.0,0.0,0.0,0.0,0.0,29,cli\src\main\java\org\apache\whirr\cli\command\RestartServicesCommand.java,0,0,0,0
org.apache.whirr.cli.command.RoleLifecycleCommand, 0, 0, 0, 0, 0, 0, 0, 0, 0, 0, 0, 0, 0, 0,0.0,0.0,0.0,0.0,0.0,0.0,0.0,0.0,0.0,0.0,0.0,0.0,0.0,53,cli\src\main\java\org\apache\whirr\cli\command\RoleLifecycleCommand.java,0,0,0,0
org.apache.whirr.cli.command.StartServicesCommand, 0, 0, 0, 0, 0, 0, 0, 0, 0, 0, 0, 0, 0, 0,0.0,0.0,0.0,0.0,0.0,0.0,0.0,0.0,0.0,0.0,0.0,0.0,0.0,23,cli\src\main\java\org\apache\whirr\cli\command\StartServicesCommand.java,0,0,0,0
org.apache.whirr.cli.command.StopServicesCommand, 0, 0, 0, 0, 0, 0, 0, 0, 0, 0, 0, 0, 0, 0,0.0,0.0,0.0,0.0,0.0,0.0,0.0,0.0,0.0,0.0,0.0,0.0,0.0,23,cli\src\main\java\org\apache\whirr\cli\command\StopServicesCommand.java,0,0,0,0
org.apache.whirr.cli.command.VersionCommand, 0, 0, 0, 0, 0, 0, 0, 0, 0, 0, 0, 0, 0, 0,0.0,0.0,0.0,0.0,0.0,0.0,0.0,0.0,0.0,0.0,0.0,0.0,0.0,20,cli\src\main\java\org\apache\whirr\cli\command\VersionCommand.java,0,0,0,0
org.apache.whirr.cli.command.VersionCommandTest, 0, 0, 0, 0, 0, 0, 0, 0, 0, 0, 0, 0, 0, 0,0.0,0.0,0.0,0.0,0.0,0.0,0.0,0.0,0.0,0.0,0.0,0.0,0.0,10,cli\src\test\java\org\apache\whirr\cli\command\VersionCommandTest.java,0,0,0,0
org.apache.whirr.command.Command, 0, 0, 0, 0, 0, 0, 0, 0, 0, 0, 0, 0, 0, 0,0.0,0.0,0.0,0.0,0.0,0.0,0.0,0.0,0.0,0.0,0.0,0.0,0.0,17,core\src\main\java\org\apache\whirr\command\Command.java,0,0,0,0
org.apache.whirr.compute.BootstrapTemplate, 0, 0, 0, 0, 0, 0, 0, 0, 0, 0, 0, 0, 0, 0,0.0,0.0,0.0,0.0,0.0,0.0,0.0,0.0,0.0,0.0,0.0,0.0,0.0,108,core\src\main\java\org\apache\whirr\compute\BootstrapTemplate.java,1,1,2,6
org.apache.whirr.compute.NodeStarter, 0, 0, 0, 0, 0, 0, 0, 1, 0, 0, 0, 0, 0, 1,0.0,0.0,0.0,0.0,0.0,0.0,0.0,1.0,0.0,0.0,0.0,0.0,0.0,27,core\src\main\java\org\apache\whirr\compute\NodeStarter.java,0,0,0,0
org.apache.whirr.compute.NodeStarterFactory, 0, 0, 0, 0, 0, 0, 0, 1, 0, 0, 0, 0, 0, 1,0.0,0.0,0.0,0.0,0.0,0.0,0.0,1.0,0.0,0.0,0.0,0.0,0.0,6,core\src\main\java\org\apache\whirr\compute\NodeStarterFactory.java,0,0,0,0
org.apache.whirr.examples.Example, 0, 0, 0, 0, 0, 0, 0, 0, 0, 0, 0, 0, 0, 0,0.0,0.0,0.0,0.0,0.0,0.0,0.0,0.0,0.0,0.0,0.0,0.0,0.0,4,examples\src\main\java\org\apache\whirr\examples\Example.java,0,0,0,0
org.apache.whirr.examples.Main, 0, 0, 0, 0, 0, 0, 0, 0, 0, 0, 0, 0, 0, 0,0.0,0.0,0.0,0.0,0.0,0.0,0.0,0.0,0.0,0.0,0.0,0.0,0.0,27,examples\src\main\java\org\apache\whirr\examples\Main.java,0,0,0,0
org.apache.whirr.karaf.command.DestroyCluster, 0, 0, 0, 0, 0, 0, 0, 0, 0, 0, 0, 0, 0, 0,0.0,0.0,0.0,0.5,0.0,0.0,0.0,0.0,0.0,0.0,0.0,0.0,0.0,11,platforms\karaf\commands\src\main\java\org\apache\whirr\karaf\command\DestroyCluster.java,0,0,0,0
org.apache.whirr.karaf.command.DestroyInstance, 0, 0, 0, 0, 0, 0, 0, 0, 0, 0, 0, 0, 0, 0,0.0,0.0,0.0,0.5,0.0,0.0,0.0,0.5,0.0,0.0,0.0,0.0,0.0,13,platforms\karaf\commands\src\main\java\org\apache\whirr\karaf\command\DestroyInstance.java,0,0,0,0
org.apache.whirr.karaf.command.LaunchCluster, 0, 0, 0, 0, 0, 0, 0, 0, 0, 0, 0, 0, 0, 0,0.0,0.0,0.0,0.5,0.0,0.0,0.0,0.0,0.0,0.0,0.0,0.0,0.0,12,platforms\karaf\commands\src\main\java\org\apache\whirr\karaf\command\LaunchCluster.java,0,0,1,2
org.apache.whirr.karaf.command.ListCluster, 0, 0, 0, 0, 0, 0, 0, 0, 0, 0, 0, 0, 0, 0,0.0,0.0,0.0,0.5,0.0,0.0,0.0,0.0,0.0,0.0,0.0,0.0,0.0,11,platforms\karaf\commands\src\main\java\org\apache\whirr\karaf\command\ListCluster.java,0,0,0,0
org.apache.whirr.karaf.command.RunScript, 0, 0, 0, 0, 0, 0, 0, 0, 0, 0, 0, 0, 0, 0,0.0,0.0,0.0,1.0,0.0,0.0,0.0,0.0,0.0,0.0,0.0,0.0,0.0,18,platforms\karaf\commands\src\main\java\org\apache\whirr\karaf\command\RunScript.java,0,0,0,0
org.apache.whirr.karaf.command.support.ConfigurationReader, 0, 0, 0, 0, 0, 0, 0, 0, 0, 0, 0, 0, 0, 0,0.0,0.0,0.0,1.0,0.0,0.0,0.0,0.0,0.0,0.0,0.0,0.0,0.0,38,platforms\karaf\commands\src\main\java\org\apache\whirr\karaf\command\support\ConfigurationReader.java,0,0,0,0
org.apache.whirr.karaf.command.support.WhirrCommandSupport, 0, 0, 0, 1, 0, 0, 0, 0, 0, 0, 0, 0, 0, 1,0.0,0.0,0.0,0.0,0.0,0.0,0.0,0.0,0.0,0.0,0.0,0.0,0.0,55,platforms\karaf\commands\src\main\java\org\apache\whirr\karaf\command\support\WhirrCommandSupport.java,4,75,1,81
org.apache.whirr.karaf.itest.WhirrFunctionLoaderTest, 0, 0, 0, 0, 0, 0, 0, 0, 0, 0, 0, 0, 0, 0,0.0,0.0,0.0,0.0,0.0,0.0,0.0,0.0,0.0,0.0,0.0,0.0,0.0,103,platforms\karaf\itests\src\test\java\org\apache\whirr\karaf\itest\WhirrFunctionLoaderTest.java,0,0,0,0
org.apache.whirr.karaf.itest.WhirrInstallationTest, 0, 0, 0, 0, 0, 0, 0, 0, 0, 0, 0, 0, 0, 0,0.0,0.0,0.0,0.0,0.0,0.0,0.0,0.0,0.0,0.0,0.0,0.0,0.0,16,platforms\karaf\itests\src\test\java\org\apache\whirr\karaf\itest\WhirrInstallationTest.java,0,0,0,0
org.apache.whirr.karaf.itest.WhirrServicesTest, 0, 0, 0, 0, 0, 0, 0, 0, 0, 0, 0, 0, 0, 0,0.0,0.0,0.0,0.0,0.0,0.0,0.0,0.0,0.0,0.0,0.0,0.0,0.0,45,platforms\karaf\itests\src\test\java\org\apache\whirr\karaf\itest\WhirrServicesTest.java,0,0,0,0
org.apache.whirr.karaf.itest.integration.WhirrKarafZookeeperServiceTest, 0, 0, 0, 0, 0, 0, 0, 0, 0, 0, 0, 0, 0, 0,0.0,0.0,0.0,0.0,0.0,0.0,0.0,0.0,0.0,0.0,0.0,0.0,0.0,38,platforms\karaf\itests\src\test\java\org\apache\whirr\karaf\itest\integration\WhirrKarafZookeeperServiceTest.java,0,0,0,0
org.apache.whirr.net.DnsException, 0, 0, 0, 0, 0, 0, 0, 0, 0, 0, 0, 0, 0, 0,0.0,0.0,0.0,0.0,0.0,0.0,0.0,0.0,0.0,0.0,0.0,0.0,0.0,6,core\src\main\java\org\apache\whirr\net\DnsException.java,0,0,0,0
org.apache.whirr.net.DnsResolver, 0, 0, 0, 0, 0, 0, 0, 0, 0, 0, 0, 0, 0, 0,0.0,0.0,0.0,0.0,0.0,0.0,0.0,0.0,0.0,0.0,0.0,0.0,0.0,6,core\src\main\java\org\apache\whirr\net\DnsResolver.java,0,0,0,0
org.apache.whirr.net.FakeDnsResolver, 0, 0, 0, 0, 0, 0, 0, 0, 0, 0, 0, 0, 0, 0,0.0,0.0,0.0,0.0,0.0,0.0,0.0,0.0,0.0,0.0,0.0,0.0,0.0,6,core\src\test\java\org\apache\whirr\net\FakeDnsResolver.java,0,0,0,0
org.apache.whirr.net.FastDnsResolver, 0, 0, 0, 0, 0, 0, 0, 0, 0, 0, 0, 0, 0, 0,0.0,0.0,0.0,0.0,0.0,0.0,0.0,0.0,0.0,0.0,0.0,0.0,0.0,38,core\src\main\java\org\apache\whirr\net\FastDnsResolver.java,0,0,0,0
org.apache.whirr.net.integration.FastDnsResolverTest, 0, 0, 0, 0, 0, 0, 0, 0, 0, 0, 0, 0, 0, 0,0.0,0.0,0.0,0.0,0.0,0.0,0.0,0.0,0.0,0.0,0.0,0.0,0.0,46,core\src\test\java\org\apache\whirr\net\integration\FastDnsResolverTest.java,0,0,0,0
org.apache.whirr.service.ClusterActionEvent, 0, 0, 0, 1, 0, 0, 0, 1, 0, 0, 0, 0, 0, 2,0.0,0.0,0.0,0.16666666666666666,0.0,0.0,0.0,0.041666666666666664,0.0,0.0,0.0,0.0,0.0,56,core\src\main\java\org\apache\whirr\service\ClusterActionEvent.java,0,0,0,0
org.apache.whirr.service.ClusterActionHandler, 0, 0, 0, 0, 0, 0, 0, 0, 0, 0, 0, 0, 0, 0,0.0,0.0,0.0,0.0,0.0,0.0,0.0,0.0,0.0,0.0,0.0,0.0,0.0,56,core\src\main\java\org\apache\whirr\service\ClusterActionHandler.java,0,0,0,0
org.apache.whirr.service.ClusterActionHandlerFactory, 0, 0, 0, 0, 0, 0, 0, 0, 0, 0, 0, 0, 0, 0,0.0,0.0,0.0,0.0,0.0,0.0,0.0,0.0,0.0,0.0,0.0,0.0,0.0,4,core\src\main\java\org\apache\whirr\service\ClusterActionHandlerFactory.java,0,0,0,0
org.apache.whirr.service.ClusterActionHandlerSupport, 0, 0, 0, 1, 0, 0, 0, 0, 0, 0, 0, 0, 0, 1,0.0,0.0,0.0,0.18181818181818182,0.0,0.0,0.0,0.045454545454545456,0.0,0.0,0.0,0.0,0.0,151,core\src\main\java\org\apache\whirr\service\ClusterActionHandlerSupport.java,0,0,0,0
org.apache.whirr.service.FirewallManager, 0, 0, 0, 0, 0, 0, 0, 1, 0, 0, 0, 0, 0, 1,0.0,0.0,0.0,0.25,0.0,0.0,0.0,0.0625,0.0,0.0,0.0,0.0,0.0,115,core\src\main\java\org\apache\whirr\service\FirewallManager.java,0,0,0,0
org.apache.whirr.service.NoopClusterActionHandler, 0, 0, 0, 0, 0, 0, 0, 0, 0, 0, 0, 0, 0, 0,0.0,0.0,0.0,1.0,0.0,0.0,0.0,0.0,0.0,0.0,0.0,0.0,0.0,7,core\src\main\java\org\apache\whirr\service\NoopClusterActionHandler.java,0,0,0,0
org.apache.whirr.service.cassandra.CassandraClusterActionHandler, 0, 0, 0, 1, 0, 0, 0, 0, 0, 0, 0, 0, 0, 1,0.0,0.0,0.0,0.3333333333333333,0.0,0.0,0.0,0.3333333333333333,0.0,0.0,0.0,0.0,0.0,91,services\cassandra\src\main\java\org\apache\whirr\service\cassandra\CassandraClusterActionHandler.java,0,0,0,0
org.apache.whirr.service.cassandra.CassandraClusterActionHandlerTest, 0, 0, 0, 0, 0, 0, 0, 0, 0, 0, 0, 0, 0, 0,0.0,0.0,0.0,1.0,0.0,0.0,0.0,0.0,0.0,0.0,0.0,0.0,0.0,36,services\cassandra\src\test\java\org\apache\whirr\service\cassandra\CassandraClusterActionHandlerTest.java,0,0,0,0
org.apache.whirr.service.cdh.integration.Cdh3HBaseServiceTest, 0, 0, 0, 0, 0, 0, 0, 0, 0, 0, 0, 0, 0, 0,0.0,0.0,0.0,0.0,0.0,0.0,0.0,0.0,0.0,0.0,0.0,0.0,0.0,43,services\cdh-oldtests\src\test\java\org\apache\whirr\service\cdh\integration\Cdh3HBaseServiceTest.java,0,0,0,0
org.apache.whirr.service.cdh.integration.Cdh3ZooKeeperServiceTest, 0, 0, 0, 0, 0, 0, 0, 0, 0, 0, 0, 0, 0, 0,0.0,0.0,0.0,0.0,0.0,0.0,0.0,0.0,0.0,0.0,0.0,0.0,0.0,59,services\cdh-oldtests\src\test\java\org\apache\whirr\service\cdh\integration\Cdh3ZooKeeperServiceTest.java,0,0,0,0
org.apache.whirr.service.cdh.integration.CdhHBaseServiceTest, 0, 0, 0, 0, 0, 0, 0, 0, 0, 0, 0, 0, 0, 0,0.0,0.0,0.0,0.0,0.0,0.0,0.0,0.0,0.0,0.0,0.0,0.0,0.0,43,services\cdh\src\test\java\org\apache\whirr\service\cdh\integration\CdhHBaseServiceTest.java,0,0,0,0
org.apache.whirr.service.cdh.integration.CdhYarnServiceTest, 0, 0, 0, 0, 0, 0, 0, 0, 0, 0, 0, 0, 0, 0,0.0,0.0,0.0,0.0,0.0,0.0,0.0,0.0,0.0,0.0,0.0,0.0,0.0,18,services\cdh\src\test\java\org\apache\whirr\service\cdh\integration\CdhYarnServiceTest.java,0,0,0,0
org.apache.whirr.service.cdh.integration.CdhZooKeeperServiceTest, 0, 0, 0, 0, 0, 0, 0, 0, 0, 0, 0, 0, 0, 0,0.0,0.0,0.0,0.0,0.0,0.0,0.0,0.0,0.0,0.0,0.0,0.0,0.0,59,services\cdh\src\test\java\org\apache\whirr\service\cdh\integration\CdhZooKeeperServiceTest.java,0,0,0,0
org.apache.whirr.service.cdh.osgi.Activator, 0, 0, 0, 0, 0, 0, 0, 0, 0, 0, 0, 0, 0, 0,0.0,0.0,0.0,0.0,0.0,0.0,0.0,0.0,0.0,0.0,0.0,0.0,0.0,14,services\cdh\src\main\java\org\apache\whirr\service\cdh\osgi\Activator.java,0,0,0,0
org.apache.whirr.service.chef.ChefClusterActionHandler, 0, 0, 0, 0, 0, 0, 0, 0, 0, 0, 0, 0, 0, 0,0.0,0.0,0.0,0.6666666666666666,0.0,0.0,0.0,0.3333333333333333,0.0,0.0,0.0,0.0,0.0,78,services\chef\src\main\java\org\apache\whirr\service\chef\ChefClusterActionHandler.java,0,0,0,0
org.apache.whirr.service.chef.ChefClusterActionHandlerFactory, 0, 0, 0, 0, 0, 0, 0, 0, 0, 0, 0, 0, 0, 0,0.0,0.0,0.0,0.0,0.0,0.0,0.0,0.0,0.0,0.0,0.0,0.0,0.0,12,services\chef\src\main\java\org\apache\whirr\service\chef\ChefClusterActionHandlerFactory.java,0,0,0,0
org.apache.whirr.service.chef.RecipeTest, 0, 0, 0, 0, 0, 0, 0, 0, 0, 0, 0, 0, 0, 0,0.0,0.0,0.0,0.0,0.0,0.0,0.0,0.0,0.0,0.0,0.0,0.0,0.0,36,services\chef\src\test\java\org\apache\whirr\service\chef\RecipeTest.java,0,0,0,0
org.apache.whirr.service.chef.integration.MockDependencyServiceClusterActionHandler, 0, 0, 0, 0, 0, 0, 0, 0, 0, 0, 0, 0, 0, 0,0.0,0.0,0.0,1.0,0.0,0.0,0.0,0.0,0.0,0.0,0.0,0.0,0.0,13,services\chef\src\test\java\org\apache\whirr\service\chef\integration\MockDependencyServiceClusterActionHandler.java,0,0,0,0
org.apache.whirr.service.elasticsearch.ElasticSearchConfigurationBuilderTest, 0, 0, 0, 0, 0, 0, 0, 0, 0, 0, 0, 0, 0, 0,0.0,0.0,0.0,0.0,0.0,0.0,0.0,0.0,0.0,0.0,0.0,0.0,0.0,69,services\elasticsearch\src\test\java\org\apache\whirr\service\elasticsearch\ElasticSearchConfigurationBuilderTest.java,0,0,0,0
org.apache.whirr.service.elasticsearch.ElasticSearchHandler, 0, 0, 0, 0, 0, 0, 0, 0, 0, 0, 0, 0, 0, 0,0.0,0.0,0.0,0.4,0.0,0.0,0.0,0.4,0.0,0.0,0.0,0.0,0.0,47,services\elasticsearch\src\main\java\org\apache\whirr\service\elasticsearch\ElasticSearchHandler.java,0,0,0,0
org.apache.whirr.service.ganglia.GangliaCluster, 0, 0, 0, 0, 0, 0, 0, 0, 0, 0, 0, 0, 0, 0,0.0,0.0,0.0,0.0,0.0,0.0,0.0,0.0,0.0,0.0,0.0,0.0,0.0,12,services\ganglia\src\main\java\org\apache\whirr\service\ganglia\GangliaCluster.java,0,0,0,0
org.apache.whirr.service.ganglia.GangliaMetadClusterActionHandler, 0, 0, 0, 0, 0, 0, 0, 0, 0, 0, 0, 0, 0, 0,0.0,0.0,0.0,0.4,0.0,0.0,0.0,0.4,0.0,0.0,0.0,0.0,0.0,65,services\ganglia\src\main\java\org\apache\whirr\service\ganglia\GangliaMetadClusterActionHandler.java,0,0,0,0
org.apache.whirr.service.ganglia.GangliaMonitorClusterActionHandler, 0, 0, 0, 0, 0, 0, 0, 0, 0, 0, 0, 0, 0, 0,0.0,0.0,0.0,0.3333333333333333,0.0,0.0,0.0,0.3333333333333333,0.0,0.0,0.0,0.0,0.0,64,services\ganglia\src\main\java\org\apache\whirr\service\ganglia\GangliaMonitorClusterActionHandler.java,0,0,0,0
org.apache.whirr.service.hadoop.HadoopCluster, 0, 0, 0, 0, 0, 0, 0, 0, 0, 0, 0, 0, 0, 0,0.0,0.0,0.0,0.0,0.0,0.0,0.0,0.0,0.0,0.0,0.0,0.0,0.0,32,services\hadoop\src\main\java\org\apache\whirr\service\hadoop\HadoopCluster.java,0,0,0,0
org.apache.whirr.service.hadoop.HadoopConfigurationBuilder, 0, 0, 0, 0, 0, 0, 0, 0, 0, 0, 0, 0, 0, 0,0.0,0.0,0.0,0.0,0.0,0.0,0.0,0.0,0.0,0.0,0.0,0.0,0.0,115,services\hadoop\src\main\java\org\apache\whirr\service\hadoop\HadoopConfigurationBuilder.java,0,0,4,8
org.apache.whirr.service.hadoop.HadoopConfigurationBuilderTest, 0, 0, 0, 0, 0, 0, 0, 0, 0, 0, 0, 0, 0, 0,0.0,0.0,0.0,0.0,0.0,0.0,0.0,0.0,0.0,0.0,0.0,0.0,0.0,121,services\hadoop\src\test\java\org\apache\whirr\service\hadoop\HadoopConfigurationBuilderTest.java,0,0,0,0
org.apache.whirr.service.hadoop.HadoopConfigurationConverterTest, 0, 0, 0, 0, 0, 0, 0, 0, 0, 0, 0, 0, 0, 0,0.0,0.0,0.0,0.0,0.0,0.0,0.0,0.0,0.0,0.0,0.0,0.0,0.0,42,services\hadoop\src\test\java\org\apache\whirr\service\hadoop\HadoopConfigurationConverterTest.java,0,0,0,0
org.apache.whirr.service.hadoop.HadoopDataNodeClusterActionHandler, 0, 0, 0, 0, 0, 0, 0, 0, 0, 0, 0, 0, 0, 0,0.0,0.0,0.0,1.0,0.0,0.0,0.0,1.0,0.0,0.0,0.0,0.0,0.0,16,services\hadoop\src\main\java\org\apache\whirr\service\hadoop\HadoopDataNodeClusterActionHandler.java,0,0,0,0
org.apache.whirr.service.hadoop.HadoopJobTrackerClusterActionHandler, 0, 0, 0, 0, 0, 0, 0, 0, 0, 0, 0, 0, 0, 0,0.0,0.0,0.0,0.2,0.0,0.0,0.0,0.4,0.0,0.0,0.0,0.0,0.0,32,services\hadoop\src\main\java\org\apache\whirr\service\hadoop\HadoopJobTrackerClusterActionHandler.java,0,0,0,0
org.apache.whirr.service.hadoop.HadoopProxy, 0, 0, 0, 0, 0, 0, 0, 0, 0, 0, 0, 0, 0, 0,0.0,0.0,0.0,0.0,0.0,0.0,0.0,0.0,0.0,0.0,0.0,0.0,0.0,58,services\hadoop\src\main\java\org\apache\whirr\service\hadoop\HadoopProxy.java,0,0,0,0
org.apache.whirr.service.hadoop.HadoopTaskTrackerClusterActionHandler, 0, 0, 0, 0, 0, 0, 0, 0, 0, 0, 0, 0, 0, 0,0.0,0.0,0.0,0.2,0.0,0.0,0.0,0.4,0.0,0.0,0.0,0.0,0.0,29,services\hadoop\src\main\java\org\apache\whirr\service\hadoop\HadoopTaskTrackerClusterActionHandler.java,0,0,0,0
org.apache.whirr.service.hadoop.integration.AbstractHadoopServiceTest, 1, 0, 0, 0, 0, 0, 0, 0, 0, 0, 0, 0, 0, 1,0.0,0.0,0.0,0.0,0.0,0.0,0.0,0.0,0.0,0.0,0.0,0.0,0.0,40,services\hadoop\src\test\java\org\apache\whirr\service\hadoop\integration\AbstractHadoopServiceTest.java,0,0,0,0
org.apache.whirr.service.hadoop.integration.HadoopSeparateNodesServiceTest, 0, 0, 0, 0, 0, 0, 0, 0, 0, 0, 0, 0, 0, 0,1.0,0.0,0.0,0.0,0.0,0.0,0.0,0.0,0.0,0.0,0.0,0.0,0.0,7,services\hadoop\src\test\java\org\apache\whirr\service\hadoop\integration\HadoopSeparateNodesServiceTest.java,0,0,0,0
org.apache.whirr.service.hadoop.integration.HadoopServiceTest, 0, 0, 0, 0, 0, 0, 0, 0, 0, 0, 0, 0, 0, 0,1.0,0.0,0.0,0.0,0.0,0.0,0.0,0.0,0.0,0.0,0.0,0.0,0.0,7,services\hadoop\src\test\java\org\apache\whirr\service\hadoop\integration\HadoopServiceTest.java,0,0,0,0
org.apache.whirr.service.hadoop.integration.HadoopSingleNodeServiceTest, 0, 0, 0, 0, 0, 0, 0, 0, 0, 0, 0, 0, 0, 0,1.0,0.0,0.0,0.0,0.0,0.0,0.0,0.0,0.0,0.0,0.0,0.0,0.0,7,services\hadoop\src\test\java\org\apache\whirr\service\hadoop\integration\HadoopSingleNodeServiceTest.java,0,0,0,0
org.apache.whirr.service.hadoop.integration.benchmark.HadoopBenchmarkSuite, 0, 0, 0, 0, 0, 0, 0, 0, 0, 0, 0, 0, 0, 0,0.0,0.0,0.0,0.0,0.0,0.0,0.0,0.0,0.0,0.0,0.0,0.0,0.0,12,services\hadoop\src\test\java\org\apache\whirr\service\hadoop\integration\benchmark\HadoopBenchmarkSuite.java,0,0,0,0
org.apache.whirr.service.hadoop.integration.benchmark.HadoopServiceTestDFSIOBenchmark, 0, 0, 0, 0, 0, 0, 0, 0, 0, 0, 0, 0, 0, 0,0.0,0.0,0.0,0.0,0.0,0.0,0.0,0.0,0.0,0.0,0.0,0.0,0.0,32,services\hadoop\src\test\java\org\apache\whirr\service\hadoop\integration\benchmark\HadoopServiceTestDFSIOBenchmark.java,0,0,0,0
org.apache.whirr.service.hama.HamaCluster, 0, 0, 0, 0, 0, 0, 0, 0, 0, 0, 0, 0, 0, 0,0.0,0.0,0.0,0.0,0.0,0.0,0.0,0.0,0.0,0.0,0.0,0.0,0.0,8,services\hama\src\main\java\org\apache\whirr\service\hama\HamaCluster.java,0,0,0,0
org.apache.whirr.service.hama.HamaClusterActionHandler, 0, 0, 0, 0, 0, 0, 0, 0, 0, 0, 0, 0, 0, 0,0.0,0.0,0.0,0.6666666666666666,0.0,0.0,0.0,0.3333333333333333,0.0,0.0,0.0,0.0,0.0,22,services\hama\src\main\java\org\apache\whirr\service\hama\HamaClusterActionHandler.java,0,0,0,0
org.apache.whirr.service.hama.HamaConstants, 0, 0, 0, 0, 0, 0, 0, 0, 0, 0, 0, 0, 0, 0,0.0,0.0,0.0,0.0,0.0,0.0,0.0,0.0,0.0,0.0,0.0,0.0,0.0,16,services\hama\src\main\java\org\apache\whirr\service\hama\HamaConstants.java,0,0,0,0
org.apache.whirr.service.hama.HamaGroomServerClusterActionHandler, 0, 0, 0, 0, 0, 0, 0, 0, 0, 0, 0, 0, 0, 0,0.0,0.0,0.0,0.2857142857142857,0.0,0.0,0.0,0.2857142857142857,0.0,0.0,0.0,0.0,0.0,35,services\hama\src\main\java\org\apache\whirr\service\hama\HamaGroomServerClusterActionHandler.java,0,0,0,0
org.apache.whirr.service.hama.integration.HamaServiceTest, 0, 0, 0, 0, 0, 0, 0, 0, 0, 0, 0, 0, 0, 0,0.0,0.0,0.0,0.0,0.0,0.0,0.0,0.0,0.0,0.0,0.0,0.0,0.0,47,services\hama\src\test\java\org\apache\whirr\service\hama\integration\HamaServiceTest.java,0,0,0,0
org.apache.whirr.service.hbase.BasicServerClusterActionHandler, 0, 0, 0, 0, 0, 0, 0, 0, 0, 0, 0, 0, 0, 0,0.0,0.0,0.0,0.2,0.0,0.0,0.0,0.2,0.0,0.0,0.0,0.0,0.0,57,services\hbase\src\main\java\org\apache\whirr\service\hbase\BasicServerClusterActionHandler.java,0,0,0,0
org.apache.whirr.service.hbase.HBaseAvroServerClusterActionHandler, 0, 0, 0, 0, 0, 0, 0, 0, 0, 0, 0, 0, 0, 0,0.0,0.0,0.0,0.0,0.0,0.0,0.0,0.0,0.0,0.0,0.0,0.0,0.0,8,services\hbase\src\main\java\org\apache\whirr\service\hbase\HBaseAvroServerClusterActionHandler.java,0,0,0,0
org.apache.whirr.service.hbase.HBaseCluster, 0, 0, 0, 0, 0, 0, 0, 0, 0, 0, 0, 0, 0, 0,0.0,0.0,0.0,0.0,0.0,0.0,0.0,0.0,0.0,0.0,0.0,0.0,0.0,7,services\hbase\src\main\java\org\apache\whirr\service\hbase\HBaseCluster.java,0,0,0,0
org.apache.whirr.service.hbase.HBaseClusterActionHandler, 0, 0, 0, 0, 0, 0, 0, 0, 0, 0, 0, 0, 0, 0,0.0,0.0,0.0,0.3333333333333333,0.0,0.0,0.0,0.16666666666666666,0.0,0.0,0.0,0.0,0.0,26,services\hbase\src\main\java\org\apache\whirr\service\hbase\HBaseClusterActionHandler.java,0,0,0,0
org.apache.whirr.service.hbase.HBaseConfigurationBuilder, 0, 0, 0, 0, 0, 0, 0, 0, 0, 0, 0, 0, 0, 0,0.0,0.0,0.0,0.0,0.0,0.0,0.0,0.0,0.0,0.0,0.0,0.0,0.0,37,services\hbase\src\main\java\org\apache\whirr\service\hbase\HBaseConfigurationBuilder.java,0,0,2,4
org.apache.whirr.service.hbase.HBaseConstants, 0, 0, 0, 0, 0, 0, 0, 0, 0, 0, 0, 0, 0, 0,0.0,0.0,0.0,0.0,0.0,0.0,0.0,0.0,0.0,0.0,0.0,0.0,0.0,15,services\hbase\src\main\java\org\apache\whirr\service\hbase\HBaseConstants.java,0,0,0,0
org.apache.whirr.service.hbase.HBaseRegionServerClusterActionHandler, 0, 0, 0, 0, 0, 0, 0, 0, 0, 0, 0, 0, 0, 0,0.0,0.0,0.0,0.25,0.0,0.0,0.0,0.25,0.0,0.0,0.0,0.0,0.0,60,services\hbase\src\main\java\org\apache\whirr\service\hbase\HBaseRegionServerClusterActionHandler.java,0,4,0,4
org.apache.whirr.service.hbase.HBaseRestServerClusterActionHandler, 0, 0, 0, 0, 0, 0, 0, 0, 0, 0, 0, 0, 0, 0,0.0,0.0,0.0,0.0,0.0,0.0,0.0,0.0,0.0,0.0,0.0,0.0,0.0,8,services\hbase\src\main\java\org\apache\whirr\service\hbase\HBaseRestServerClusterActionHandler.java,0,0,0,0
org.apache.whirr.service.hbase.HBaseThriftServerClusterActionHandler, 0, 0, 0, 0, 0, 0, 0, 0, 0, 0, 0, 0, 0, 0,0.0,0.0,0.0,0.0,0.0,0.0,0.0,0.0,0.0,0.0,0.0,0.0,0.0,8,services\hbase\src\main\java\org\apache\whirr\service\hbase\HBaseThriftServerClusterActionHandler.java,0,0,0,0
org.apache.whirr.service.hbase.integration.HBase090ServiceTest, 0, 0, 0, 0, 0, 0, 0, 0, 0, 0, 0, 0, 0, 0,1.0,0.0,0.0,0.0,0.0,0.0,0.0,0.0,0.0,0.0,0.0,0.0,0.0,7,services\hbase-oldtests\src\test\java\org\apache\whirr\service\hbase\integration\HBase090ServiceTest.java,0,0,0,0
org.apache.whirr.service.hbase.integration.HBase090SingleNodeServiceTest, 0, 0, 0, 0, 0, 0, 0, 0, 0, 0, 0, 0, 0, 0,1.0,0.0,0.0,0.0,0.0,0.0,0.0,0.0,0.0,0.0,0.0,0.0,0.0,7,services\hbase-oldtests\src\test\java\org\apache\whirr\service\hbase\integration\HBase090SingleNodeServiceTest.java,0,0,0,0
org.apache.whirr.service.hbase.integration.HBase092ServiceTest, 0, 0, 0, 0, 0, 0, 0, 0, 0, 0, 0, 0, 0, 0,1.0,0.0,0.0,0.0,0.0,0.0,0.0,0.0,0.0,0.0,0.0,0.0,0.0,7,services\hbase\src\test\java\org\apache\whirr\service\hbase\integration\HBase092ServiceTest.java,0,0,0,0
org.apache.whirr.service.hbase.integration.HBase092SingleNodeServiceTest, 0, 0, 0, 0, 0, 0, 0, 0, 0, 0, 0, 0, 0, 0,1.0,0.0,0.0,0.0,0.0,0.0,0.0,0.0,0.0,0.0,0.0,0.0,0.0,7,services\hbase\src\test\java\org\apache\whirr\service\hbase\integration\HBase092SingleNodeServiceTest.java,0,0,0,0
org.apache.whirr.service.hbase.integration.HBaseOldServiceTest, 1, 0, 0, 0, 0, 0, 0, 0, 0, 0, 0, 0, 0, 1,0.0,0.0,0.0,0.0,0.0,0.0,0.0,0.0,0.0,0.0,0.0,0.0,0.0,38,services\hbase-oldtests\src\test\java\org\apache\whirr\service\hbase\integration\HBaseOldServiceTest.java,0,0,0,0
org.apache.whirr.service.hbase.integration.HBaseServiceTest, 1, 0, 0, 0, 0, 0, 0, 0, 0, 0, 0, 0, 0, 1,0.0,0.0,0.0,0.0,0.0,0.0,0.0,0.0,0.0,0.0,0.0,0.0,0.0,41,services\hbase\src\test\java\org\apache\whirr\service\hbase\integration\HBaseServiceTest.java,0,0,0,0
org.apache.whirr.service.jclouds.RunUrlStatementTest, 0, 0, 0, 0, 0, 0, 0, 0, 0, 0, 0, 0, 0, 0,0.0,0.0,0.0,0.0,0.0,0.0,0.0,0.0,0.0,0.0,0.0,0.0,0.0,38,core\src\test\java\org\apache\whirr\service\jclouds\RunUrlStatementTest.java,0,0,0,0
org.apache.whirr.service.jclouds.StatementBuilderTest, 0, 0, 0, 0, 0, 0, 0, 0, 0, 0, 0, 0, 0, 0,0.0,0.0,0.0,0.0,0.0,0.0,0.0,0.0,0.0,0.0,0.0,0.0,0.0,50,core\src\test\java\org\apache\whirr\service\jclouds\StatementBuilderTest.java,0,0,0,0
org.apache.whirr.service.jclouds.VariablesToExport, 0, 0, 0, 0, 0, 0, 0, 0, 0, 0, 0, 0, 0, 0,0.0,0.0,0.0,0.0,0.0,0.0,0.0,0.0,0.0,0.0,0.0,0.0,0.0,67,core\src\main\java\org\apache\whirr\service\jclouds\VariablesToExport.java,0,3,0,3
org.apache.whirr.service.jclouds.integration.FirewallManagerTest, 0, 0, 0, 0, 0, 0, 0, 0, 0, 0, 0, 0, 0, 0,0.0,0.0,0.0,0.0,0.0,0.0,0.0,0.5,0.0,0.0,0.0,0.0,0.0,45,core\src\test\java\org\apache\whirr\service\jclouds\integration\FirewallManagerTest.java,0,0,0,0
org.apache.whirr.service.mahout.MahoutClientClusterActionHandler, 0, 0, 0, 0, 0, 0, 0, 0, 0, 0, 0, 0, 0, 0,0.0,0.0,0.0,1.0,0.0,0.0,0.0,0.5,0.0,0.0,0.0,0.0,0.0,18,services\mahout\src\main\java\org\apache\whirr\service\mahout\MahoutClientClusterActionHandler.java,0,0,0,0
org.apache.whirr.service.pig.PigClientClusterActionHandler, 0, 0, 0, 0, 0, 0, 0, 0, 0, 0, 0, 0, 0, 0,0.0,0.0,0.0,1.0,0.0,0.0,0.0,0.5,0.0,0.0,0.0,0.0,0.0,17,services\pig\src\main\java\org\apache\whirr\service\pig\PigClientClusterActionHandler.java,0,0,0,0
org.apache.whirr.service.puppet.ManifestTest, 0, 0, 0, 0, 0, 0, 0, 0, 0, 0, 0, 0, 0, 0,0.0,0.0,0.0,0.0,0.0,0.0,0.0,0.0,0.0,0.0,0.0,0.0,0.0,24,services\puppet\src\test\java\org\apache\whirr\service\puppet\ManifestTest.java,0,0,0,0
org.apache.whirr.service.puppet.PuppetClusterActionHandlerFactory, 0, 0, 0, 0, 0, 0, 0, 0, 0, 0, 0, 0, 0, 0,0.0,0.0,0.0,0.0,0.0,0.0,0.0,0.0,0.0,0.0,0.0,0.0,0.0,10,services\puppet\src\main\java\org\apache\whirr\service\puppet\PuppetClusterActionHandlerFactory.java,0,0,0,0
org.apache.whirr.service.puppet.PuppetClusterActionHandlerFactoryTest, 0, 0, 0, 0, 0, 0, 0, 0, 0, 0, 0, 0, 0, 0,0.0,0.0,0.0,0.0,0.0,0.0,0.0,0.0,0.0,0.0,0.0,0.0,0.0,11,services\puppet\src\test\java\org\apache\whirr\service\puppet\PuppetClusterActionHandlerFactoryTest.java,0,0,0,0
org.apache.whirr.service.puppet.PuppetConstants, 0, 0, 0, 0, 0, 0, 0, 0, 0, 0, 0, 0, 0, 0,0.0,0.0,0.0,0.0,0.0,0.0,0.0,0.0,0.0,0.0,0.0,0.0,0.0,9,services\puppet\src\main\java\org\apache\whirr\service\puppet\PuppetConstants.java,0,0,0,0
org.apache.whirr.service.puppet.PuppetInstallClusterActionHandler, 0, 0, 0, 0, 0, 0, 0, 0, 0, 0, 0, 0, 0, 0,0.0,0.0,0.0,1.0,0.0,0.0,0.0,0.0,0.0,0.0,0.0,0.0,0.0,15,services\puppet\src\main\java\org\apache\whirr\service\puppet\PuppetInstallClusterActionHandler.java,0,0,0,0
org.apache.whirr.service.puppet.functions.InstallAllModulesStatementFromProperties, 0, 0, 0, 0, 0, 0, 0, 0, 0, 0, 0, 0, 0, 0,0.0,0.0,0.0,0.0,0.0,0.0,0.0,0.0,0.0,0.0,0.0,0.0,0.0,17,services\puppet\src\main\java\org\apache\whirr\service\puppet\functions\InstallAllModulesStatementFromProperties.java,0,0,0,0
org.apache.whirr.service.puppet.functions.InstallAllModulesStatementFromPropertiesTest, 0, 0, 0, 0, 0, 0, 0, 0, 0, 0, 0, 0, 0, 0,0.0,0.0,0.0,0.0,0.0,0.0,0.0,0.0,0.0,0.0,0.0,0.0,0.0,18,services\puppet\src\test\java\org\apache\whirr\service\puppet\functions\InstallAllModulesStatementFromPropertiesTest.java,0,0,0,0
org.apache.whirr.service.puppet.functions.KeyToModuleNameOrNullTest, 0, 0, 0, 0, 0, 0, 0, 0, 0, 0, 0, 0, 0, 0,0.0,0.0,0.0,0.0,0.0,0.0,0.0,0.0,0.0,0.0,0.0,0.0,0.0,8,services\puppet\src\test\java\org\apache\whirr\service\puppet\functions\KeyToModuleNameOrNullTest.java,0,0,0,0
org.apache.whirr.service.puppet.functions.ModulePropertiesFromConfigurationTest, 0, 0, 0, 0, 0, 0, 0, 0, 0, 0, 0, 0, 0, 0,0.0,0.0,0.0,0.0,0.0,0.0,0.0,0.0,0.0,0.0,0.0,0.0,0.0,13,services\puppet\src\test\java\org\apache\whirr\service\puppet\functions\ModulePropertiesFromConfigurationTest.java,0,0,0,0
org.apache.whirr.service.puppet.functions.RolesManagedByPuppetTest, 0, 0, 0, 0, 0, 0, 0, 0, 0, 0, 0, 0, 0, 0,0.0,0.0,0.0,0.0,0.0,0.0,0.0,0.0,0.0,0.0,0.0,0.0,0.0,7,services\puppet\src\test\java\org\apache\whirr\service\puppet\functions\RolesManagedByPuppetTest.java,0,0,0,0
org.apache.whirr.service.puppet.functions.StatementToInstallModuleTest, 0, 0, 0, 0, 0, 0, 0, 0, 0, 0, 0, 0, 0, 0,0.0,0.0,0.0,0.0,0.0,0.0,0.0,0.0,0.0,0.0,0.0,0.0,0.0,32,services\puppet\src\test\java\org\apache\whirr\service\puppet\functions\StatementToInstallModuleTest.java,0,0,0,0
org.apache.whirr.service.puppet.integration.PuppetServiceTest, 0, 0, 0, 0, 0, 0, 0, 0, 0, 0, 0, 0, 0, 0,0.0,0.0,0.0,0.0,0.0,0.0,0.0,0.0,0.0,0.0,0.0,0.0,0.0,33,services\puppet\src\test\java\org\apache\whirr\service\puppet\integration\PuppetServiceTest.java,0,0,0,0
org.apache.whirr.service.puppet.predicates.PuppetPredicatesTest, 0, 0, 0, 0, 0, 0, 0, 0, 0, 0, 0, 0, 0, 0,0.0,0.0,0.0,0.0,0.0,0.0,0.0,0.0,0.0,0.0,0.0,0.0,0.0,15,services\puppet\src\test\java\org\apache\whirr\service\puppet\predicates\PuppetPredicatesTest.java,0,0,0,0
org.apache.whirr.service.puppet.statements.CreateSitePpAndApplyRoles, 0, 0, 0, 0, 0, 0, 0, 0, 0, 0, 0, 0, 0, 0,0.0,0.0,0.0,0.0,0.0,0.0,0.0,0.0,0.0,0.0,0.0,0.0,0.0,78,services\puppet\src\main\java\org\apache\whirr\service\puppet\statements\CreateSitePpAndApplyRoles.java,0,0,0,0
org.apache.whirr.service.puppet.statements.CreateSitePpAndApplyRolesTest, 0, 0, 0, 0, 0, 0, 0, 0, 0, 0, 0, 0, 0, 0,0.0,0.0,0.0,0.0,0.0,0.0,0.0,0.0,0.0,0.0,0.0,0.0,0.0,11,services\puppet\src\test\java\org\apache\whirr\service\puppet\statements\CreateSitePpAndApplyRolesTest.java,0,0,0,0
org.apache.whirr.service.puppet.statements.InstallModuleFromGit, 0, 0, 0, 0, 0, 0, 0, 0, 0, 0, 0, 0, 0, 0,0.0,0.0,0.0,0.0,0.0,0.0,0.0,0.0,0.0,0.0,0.0,0.0,0.0,24,services\puppet\src\main\java\org\apache\whirr\service\puppet\statements\InstallModuleFromGit.java,0,0,0,0
org.apache.whirr.service.puppet.statements.InstallModuleFromGitTest, 0, 0, 0, 0, 0, 0, 0, 0, 0, 0, 0, 0, 0, 0,0.0,0.0,0.0,0.0,0.0,0.0,0.0,0.0,0.0,0.0,0.0,0.0,0.0,16,services\puppet\src\test\java\org\apache\whirr\service\puppet\statements\InstallModuleFromGitTest.java,0,0,0,0
org.apache.whirr.service.solr.SolrClusterActionHandler, 0, 0, 0, 1, 0, 0, 0, 0, 0, 0, 0, 0, 0, 1,0.0,0.0,0.0,0.4,0.0,0.0,0.0,0.4,0.0,0.0,0.0,0.0,0.0,116,services\solr\src\main\java\org\apache\whirr\service\solr\SolrClusterActionHandler.java,0,0,0,0
org.apache.whirr.service.solr.integration.SolrServiceTest, 0, 0, 0, 0, 0, 0, 0, 0, 0, 0, 0, 0, 0, 0,0.0,0.0,0.0,0.0,0.0,0.0,0.0,0.0,0.0,0.0,0.0,0.0,0.0,51,services\solr\src\test\java\org\apache\whirr\service\solr\integration\SolrServiceTest.java,0,0,0,0
org.apache.whirr.service.voldemort.VoldemortClusterActionHandler, 0, 0, 0, 0, 0, 0, 0, 0, 0, 0, 0, 0, 0, 0,0.0,0.0,0.0,0.4,0.0,0.0,0.0,0.4,0.0,0.0,0.0,0.0,0.0,74,services\voldemort\src\main\java\org\apache\whirr\service\voldemort\VoldemortClusterActionHandler.java,0,0,0,0
org.apache.whirr.service.voldemort.VoldemortConstants, 0, 0, 0, 0, 0, 0, 0, 0, 0, 0, 0, 0, 0, 0,0.0,0.0,0.0,0.0,0.0,0.0,0.0,0.0,0.0,0.0,0.0,0.0,0.0,16,services\voldemort\src\main\java\org\apache\whirr\service\voldemort\VoldemortConstants.java,0,0,0,0
org.apache.whirr.service.yarn.MapReduceJobHistoryServerHandler, 0, 0, 0, 0, 0, 0, 0, 0, 0, 0, 0, 0, 0, 0,0.0,0.0,0.0,0.6666666666666666,0.0,0.0,0.0,0.3333333333333333,0.0,0.0,0.0,0.0,0.0,14,services\yarn\src\main\java\org\apache\whirr\service\yarn\MapReduceJobHistoryServerHandler.java,0,0,0,0
org.apache.whirr.service.yarn.YarnConfigurationBuilder, 0, 0, 0, 0, 0, 0, 0, 0, 0, 0, 0, 0, 0, 0,0.0,0.0,0.0,0.0,0.0,0.0,0.0,0.0,0.0,0.0,0.0,0.0,0.0,44,services\yarn\src\main\java\org\apache\whirr\service\yarn\YarnConfigurationBuilder.java,0,0,1,2
org.apache.whirr.service.yarn.YarnHandler, 0, 0, 0, 0, 0, 0, 0, 0, 0, 0, 0, 0, 0, 0,0.0,0.0,0.0,0.5,0.0,0.0,0.0,0.25,0.0,0.0,0.0,0.0,0.0,28,services\yarn\src\main\java\org\apache\whirr\service\yarn\YarnHandler.java,0,0,0,0
org.apache.whirr.service.yarn.YarnNodeManagerHandler, 0, 0, 0, 0, 0, 0, 0, 0, 0, 0, 0, 0, 0, 0,0.0,0.0,0.0,0.2857142857142857,0.0,0.0,0.0,0.2857142857142857,0.0,0.0,0.0,0.0,0.0,34,services\yarn\src\main\java\org\apache\whirr\service\yarn\YarnNodeManagerHandler.java,0,0,0,0
org.apache.whirr.service.yarn.integration.AbstractHadoopServiceTest, 1, 0, 0, 0, 0, 0, 0, 0, 0, 0, 0, 0, 0, 1,0.0,0.0,0.0,0.0,0.0,0.0,0.0,0.0,0.0,0.0,0.0,0.0,0.0,40,services\yarn\src\test\java\org\apache\whirr\service\yarn\integration\AbstractHadoopServiceTest.java,0,0,0,0
org.apache.whirr.service.yarn.integration.YarnServiceTest, 0, 0, 0, 0, 0, 0, 0, 0, 0, 0, 0, 0, 0, 0,1.0,0.0,0.0,0.0,0.0,0.0,0.0,0.0,0.0,0.0,0.0,0.0,0.0,7,services\yarn\src\test\java\org\apache\whirr\service\yarn\integration\YarnServiceTest.java,0,0,0,0
org.apache.whirr.service.zookeeper.ZooKeeperCluster, 0, 0, 0, 0, 0, 0, 0, 0, 0, 0, 0, 0, 0, 0,0.0,0.0,0.0,0.1,0.0,0.0,0.0,0.0,0.0,0.0,0.0,0.0,0.0,12,services\zookeeper\src\main\java\org\apache\whirr\service\zookeeper\ZooKeeperCluster.java,0,0,0,0
org.apache.whirr.service.zookeeper.ZooKeeperClusterActionHandler, 0, 0, 0, 1, 0, 0, 0, 0, 0, 0, 0, 0, 0, 1,0.0,0.0,0.0,0.3333333333333333,0.0,0.0,0.0,0.3333333333333333,0.0,0.0,0.0,0.0,0.0,114,services\zookeeper\src\main\java\org\apache\whirr\service\zookeeper\ZooKeeperClusterActionHandler.java,0,0,0,0
org.apache.whirr.service.zookeeper.integration.ZooKeeperServiceTest, 0, 0, 0, 0, 0, 0, 0, 0, 0, 0, 0, 0, 0, 0,0.0,0.0,0.0,0.0,0.0,0.0,0.0,0.0,0.0,0.0,0.0,0.0,0.0,59,services\zookeeper\src\test\java\org\apache\whirr\service\zookeeper\integration\ZooKeeperServiceTest.java,0,0,0,0
org.apache.whirr.state.BlobClusterStateStore, 0, 0, 0, 0, 0, 0, 0, 0, 0, 0, 0, 0, 0, 0,0.0,0.0,0.0,0.0,0.0,0.0,0.0,0.0,0.0,0.0,0.0,0.0,0.0,38,core\src\main\java\org\apache\whirr\state\BlobClusterStateStore.java,0,0,0,0
org.apache.whirr.state.ClusterStateStoreFactory, 0, 0, 0, 0, 0, 0, 0, 0, 0, 0, 0, 0, 0, 0,0.0,0.0,0.0,0.0,0.0,0.0,0.0,0.0,0.0,0.0,0.0,0.0,0.0,38,core\src\main\java\org\apache\whirr\state\ClusterStateStoreFactory.java,0,0,0,0
org.apache.whirr.state.FileClusterStateStore, 0, 0, 0, 0, 0, 0, 0, 0, 0, 0, 0, 0, 0, 0,0.0,0.0,0.0,0.0,0.0,0.0,0.0,0.0,0.0,0.0,0.0,0.0,0.0,29,core\src\main\java\org\apache\whirr\state\FileClusterStateStore.java,0,0,0,0
org.apache.whirr.state.MemoryClusterStateStore, 0, 0, 0, 0, 0, 0, 0, 0, 0, 0, 0, 0, 0, 0,0.0,0.0,0.0,0.0,0.0,0.0,0.0,0.0,0.0,0.0,0.0,0.0,0.0,15,core\src\main\java\org\apache\whirr\state\MemoryClusterStateStore.java,0,0,0,0
org.apache.whirr.state.integration.BlobClusterStateStoreTest, 0, 0, 0, 0, 0, 0, 0, 0, 0, 0, 0, 0, 0, 0,0.0,0.0,0.0,0.0,0.0,0.0,0.0,0.0,0.0,0.0,0.0,0.0,0.0,60,core\src\test\java\org\apache\whirr\state\integration\BlobClusterStateStoreTest.java,0,0,0,0
org.apache.whirr.template.TemplateUtilsTest, 0, 0, 0, 0, 0, 0, 0, 0, 0, 0, 0, 0, 0, 0,0.0,0.0,0.0,0.0,0.0,0.0,0.0,0.0,0.0,0.0,0.0,0.0,0.0,13,core\src\test\java\org\apache\whirr\template\TemplateUtilsTest.java,0,0,0,0
org.apache.whirr.util.Tarball, 0, 0, 0, 0, 0, 0, 0, 0, 0, 0, 0, 0, 0, 0,0.0,0.0,0.0,0.0,0.0,0.0,0.0,0.0,0.0,0.0,0.0,0.0,0.0,59,core\src\main\java\org\apache\whirr\util\Tarball.java,0,0,0,0
org.apache.whirr.util.UtilsTest, 0, 0, 0, 0, 0, 0, 0, 0, 0, 0, 0, 0, 0, 0,0.0,0.0,0.0,0.0,0.0,0.0,0.0,0.0,0.0,0.0,0.0,0.0,0.0,19,core\src\test\java\org\apache\whirr\util\UtilsTest.java,0,1,1,3
,0.0,0.0,0.0,0.0,0.0,0.0,0.0,0.0,0.0,0.0,0.0,0.0,0.0,19,cli\src\main\java\org\apache\whirr\cli\command\CleanupClusterCommand.java,0,0,0,0
