ClassName,AntiSingleton,Blob,ClassDataShouldBePrivate,ComplexClass,LargeClass,LazyClass,LongMethod,LongParameterList,MessageChains,RefusedParentBequest,SpaghettiCode,SpeculativeGenerality,SwissArmyKnife,NumOfAPs,AntiSingleton,Blob,ClassDataShouldBePrivate,ComplexClass,LargeClass,LazyClass,LongMethod,LongParameterList,MessageChains,RefusedParentBequest,SpaghettiCode,SpeculativeGenerality,SwissArmyKnife,LOC,name,deleted,added,changed,all
Dummy, 0, 0, 0, 0, 0, 0, 0, 0, 0, 0, 0, 0, 0, 0,0.0,0.0,0.0,0.0,0.0,0.0,0.0,0.0,0.0,0.0,0.0,0.0,0.0,2,docs\src\main\java\Dummy.java,0,0,0,0
org.apache.hadoop.examples.SleepJob, 0, 0, 0, 0, 0, 0, 0, 1, 0, 0, 0, 0, 0, 1,0.0,0.0,0.0,0.0,0.0,0.0,0.0,0.0,0.0,0.0,0.0,0.0,0.0,172,core\src\test\java\org\apache\hadoop\examples\SleepJob.java,0,0,0,0
org.apache.oozie.BaseEngine, 0, 0, 0, 1, 0, 0, 0, 1, 0, 0, 0, 0, 0, 2,0.0,0.0,0.0,0.0,0.0,0.0,0.0,0.0,0.0,0.0,0.0,0.0,0.0,39,core\src\main\java\org\apache\oozie\BaseEngine.java,0,0,0,0
org.apache.oozie.BaseEngineException, 0, 0, 0, 0, 0, 0, 0, 0, 0, 0, 0, 0, 0, 0,0.0,0.0,0.0,0.0,0.0,0.0,0.0,0.0,0.0,0.0,0.0,0.0,0.0,8,core\src\main\java\org\apache\oozie\BaseEngineException.java,0,0,0,0
org.apache.oozie.BulkResponseInfo, 0, 0, 0, 0, 0, 0, 0, 0, 0, 0, 0, 0, 0, 0,0.0,0.0,0.0,0.0,0.0,0.0,0.0,0.0,0.0,0.0,0.0,0.0,0.0,24,core\src\main\java\org\apache\oozie\BulkResponseInfo.java,0,0,0,0
org.apache.oozie.BundleActionBean, 0, 0, 0, 1, 0, 0, 0, 0, 0, 0, 0, 0, 0, 1,0.0,0.0,0.0,0.125,0.0,0.0,0.0,0.1875,0.0,0.0,0.0,0.0,0.0,143,core\src\main\java\org\apache\oozie\BundleActionBean.java,0,0,0,0
org.apache.oozie.BundleEngineException, 0, 0, 0, 0, 0, 0, 0, 0, 0, 0, 0, 0, 0, 0,0.0,0.0,0.0,0.0,0.0,0.0,0.0,0.0,0.0,0.0,0.0,0.0,0.0,8,core\src\main\java\org\apache\oozie\BundleEngineException.java,0,0,0,0
org.apache.oozie.BundleJobBean, 0, 0, 0, 1, 0, 0, 0, 0, 0, 0, 0, 0, 0, 1,0.0,0.0,0.0,0.15384615384615385,0.0,0.0,0.0,0.11538461538461539,0.0,0.0,0.0,0.0,0.0,228,core\src\main\java\org\apache\oozie\BundleJobBean.java,0,0,0,0
org.apache.oozie.BundleJobInfo, 0, 0, 0, 0, 0, 0, 0, 0, 0, 0, 0, 0, 0, 0,0.0,0.0,0.0,0.0,0.0,0.0,0.0,0.0,0.0,0.0,0.0,0.0,0.0,24,core\src\main\java\org\apache\oozie\BundleJobInfo.java,0,0,0,0
org.apache.oozie.CoordinatorActionBean, 0, 0, 0, 1, 0, 0, 0, 0, 0, 0, 0, 0, 0, 1,0.0,0.0,0.0,0.13513513513513514,0.0,0.0,0.0,0.16216216216216217,0.0,0.0,0.0,0.0,0.0,203,core\src\main\java\org\apache\oozie\CoordinatorActionBean.java,0,0,0,0
org.apache.oozie.CoordinatorActionInfo, 0, 0, 0, 0, 0, 0, 0, 0, 0, 0, 0, 0, 0, 0,0.0,0.0,0.0,1.0,0.0,0.0,0.0,1.0,0.0,0.0,0.0,0.0,0.0,9,core\src\main\java\org\apache\oozie\CoordinatorActionInfo.java,0,0,0,0
org.apache.oozie.CoordinatorEngineException, 0, 0, 0, 0, 0, 0, 0, 0, 0, 0, 0, 0, 0, 0,0.0,0.0,0.0,0.0,0.0,0.0,0.0,0.0,0.0,0.0,0.0,0.0,0.0,8,core\src\main\java\org\apache\oozie\CoordinatorEngineException.java,0,0,0,0
org.apache.oozie.CoordinatorJobBean, 0, 0, 0, 1, 0, 0, 0, 0, 0, 0, 0, 0, 0, 1,0.0,0.0,0.0,0.17647058823529413,0.0,0.0,0.0,0.17647058823529413,0.0,0.0,0.0,0.0,0.0,321,core\src\main\java\org\apache\oozie\CoordinatorJobBean.java,0,1,0,1
org.apache.oozie.CoordinatorJobInfo, 0, 0, 0, 0, 0, 0, 0, 0, 0, 0, 0, 0, 0, 0,0.0,0.0,0.0,0.0,0.0,0.0,0.0,0.0,0.0,0.0,0.0,0.0,0.0,24,core\src\main\java\org\apache\oozie\CoordinatorJobInfo.java,0,0,0,0
org.apache.oozie.DagEngineException, 0, 0, 0, 0, 0, 0, 0, 0, 0, 0, 0, 0, 0, 0,0.0,0.0,0.0,0.25,0.0,0.0,0.0,0.125,0.0,0.0,0.0,0.0,0.0,8,core\src\main\java\org\apache\oozie\DagEngineException.java,0,0,0,0
org.apache.oozie.FaultInjection, 0, 0, 0, 0, 0, 0, 0, 0, 0, 0, 0, 0, 0, 0,0.0,0.0,0.0,0.05555555555555555,0.0,0.0,0.0,0.05555555555555555,0.0,0.0,0.0,0.0,0.0,66,core\src\main\java\org\apache\oozie\FaultInjection.java,0,0,0,0
org.apache.oozie.ForTestingActionExecutor, 0, 0, 0, 0, 0, 0, 0, 0, 0, 0, 0, 0, 0, 0,0.0,0.0,0.0,0.0,0.0,0.0,0.0,0.0,0.0,0.0,0.0,0.0,0.0,96,core\src\test\java\org\apache\oozie\ForTestingActionExecutor.java,0,0,0,0
org.apache.oozie.SLAEventBean, 0, 0, 0, 1, 0, 0, 0, 0, 0, 0, 0, 0, 0, 1,0.0,0.0,0.0,0.125,0.0,0.0,0.0,0.25,0.0,0.0,0.0,0.0,0.0,176,core\src\main\java\org\apache\oozie\SLAEventBean.java,0,0,0,0
org.apache.oozie.TestActionBean, 0, 0, 0, 0, 0, 0, 0, 0, 0, 0, 0, 0, 0, 0,0.0,0.0,0.0,1.0,0.0,0.0,0.0,0.0,0.0,0.0,0.0,0.0,0.0,43,core\src\test\java\org\apache\oozie\TestActionBean.java,0,0,0,0
org.apache.oozie.TestBundleEngineSimple, 0, 0, 0, 0, 0, 0, 0, 0, 0, 0, 0, 0, 0, 0,0.0,0.0,0.0,0.0,0.0,0.0,0.0,0.0,0.0,0.0,0.0,0.0,0.0,134,core\src\test\java\org\apache\oozie\TestBundleEngineSimple.java,0,0,0,0
org.apache.oozie.TestBundleJobBean, 0, 0, 0, 0, 0, 0, 0, 0, 0, 0, 0, 0, 0, 0,0.0,0.0,0.0,1.0,0.0,0.0,0.0,0.0,0.0,0.0,0.0,0.0,0.0,90,core\src\test\java\org\apache\oozie\TestBundleJobBean.java,0,0,0,0
org.apache.oozie.TestCoordinatorEngine, 0, 0, 0, 0, 0, 0, 0, 0, 0, 0, 0, 0, 0, 0,0.0,0.0,0.0,0.3333333333333333,0.0,0.0,0.0,0.0,0.0,0.0,0.0,0.0,0.0,379,core\src\test\java\org\apache\oozie\TestCoordinatorEngine.java,0,0,0,0
org.apache.oozie.TestCoordinatorEngineStreamLog, 0, 0, 0, 0, 0, 0, 0, 0, 0, 0, 0, 0, 0, 0,0.0,0.0,0.0,0.5,0.0,0.0,0.0,0.0,0.0,0.0,0.0,0.0,0.0,142,core\src\test\java\org\apache\oozie\TestCoordinatorEngineStreamLog.java,0,0,0,0
org.apache.oozie.TestCoordinatorJobBean, 0, 0, 0, 0, 0, 0, 0, 0, 0, 0, 0, 0, 0, 0,0.0,0.0,0.0,1.0,0.0,0.0,0.0,0.0,0.0,0.0,0.0,0.0,0.0,130,core\src\test\java\org\apache\oozie\TestCoordinatorJobBean.java,0,0,0,0
org.apache.oozie.TestDagELFunctions, 0, 0, 0, 0, 0, 0, 0, 0, 0, 0, 0, 0, 0, 0,0.0,0.0,0.0,0.6666666666666666,0.0,0.0,0.0,0.0,0.0,0.0,0.0,0.0,0.0,72,core\src\test\java\org\apache\oozie\TestDagELFunctions.java,0,0,0,0
org.apache.oozie.TestDagEngine, 0, 0, 0, 0, 0, 0, 0, 0, 0, 0, 0, 0, 0, 0,0.0,0.0,0.0,0.0,0.0,0.0,0.0,0.0,0.0,0.0,0.0,0.0,0.0,119,core\src\test\java\org\apache\oozie\TestDagEngine.java,0,0,0,0
org.apache.oozie.TestSLAEventBean, 0, 0, 0, 0, 0, 0, 0, 0, 0, 0, 0, 0, 0, 0,0.0,0.0,0.0,1.0,0.0,0.0,0.0,0.0,0.0,0.0,0.0,0.0,0.0,92,core\src\test\java\org\apache\oozie\TestSLAEventBean.java,0,0,0,0
org.apache.oozie.WorkflowActionBean, 0, 0, 0, 1, 0, 0, 0, 0, 0, 0, 0, 0, 0, 1,0.0,0.0,0.0,0.15555555555555556,0.0,0.0,0.0,0.06666666666666667,0.0,0.0,0.0,0.0,0.0,308,core\src\main\java\org\apache\oozie\WorkflowActionBean.java,0,0,0,0
org.apache.oozie.WorkflowJobBean, 0, 0, 0, 1, 0, 0, 0, 0, 0, 0, 0, 0, 0, 1,0.0,0.0,0.0,0.19148936170212766,0.0,0.0,0.0,0.10638297872340426,0.0,0.0,0.0,0.0,0.0,223,core\src\main\java\org\apache\oozie\WorkflowJobBean.java,0,0,0,0
org.apache.oozie.WorkflowsInfo, 0, 0, 0, 0, 0, 0, 0, 0, 0, 0, 0, 0, 0, 0,0.0,0.0,0.0,0.0,0.0,0.0,0.0,0.0,0.0,0.0,0.0,0.0,0.0,24,core\src\main\java\org\apache\oozie\WorkflowsInfo.java,0,0,0,0
org.apache.oozie.XException, 0, 0, 0, 0, 0, 0, 0, 0, 0, 0, 0, 0, 0, 0,0.0,0.0,0.0,0.13333333333333333,0.0,0.0,0.0,0.08333333333333333,0.0,0.0,0.0,0.0,0.0,16,core\src\main\java\org\apache\oozie\XException.java,0,0,0,0
org.apache.oozie.action.ActionExecutorException, 0, 0, 0, 0, 0, 0, 0, 0, 0, 0, 0, 0, 0, 0,0.0,0.0,0.07692307692307693,0.23076923076923078,0.0,0.0,0.0,0.23076923076923078,0.0,0.0,0.0,0.0,0.0,26,core\src\main\java\org\apache\oozie\action\ActionExecutorException.java,0,0,0,0
org.apache.oozie.action.TestActionExecutor, 0, 0, 0, 0, 0, 0, 0, 0, 0, 0, 0, 0, 0, 0,0.0,0.0,0.0,0.0,0.0,0.0,0.0,0.0,0.0,0.0,0.0,0.0,0.0,167,core\src\test\java\org\apache\oozie\action\TestActionExecutor.java,0,0,0,0
org.apache.oozie.action.control.ControlNodeActionExecutor, 0, 0, 0, 0, 0, 0, 0, 0, 0, 0, 0, 0, 0, 0,0.0,0.0,0.0,0.0,0.0,0.0,0.0,0.0,0.0,0.0,0.0,0.0,0.0,22,core\src\main\java\org\apache\oozie\action\control\ControlNodeActionExecutor.java,0,0,0,0
org.apache.oozie.action.control.EndActionExecutor, 0, 0, 0, 0, 0, 0, 0, 0, 0, 0, 0, 0, 0, 0,0.0,0.0,0.0,0.0,0.0,0.0,0.0,0.0,0.0,0.0,0.0,0.0,0.0,6,core\src\main\java\org\apache\oozie\action\control\EndActionExecutor.java,0,0,0,0
org.apache.oozie.action.control.ForkActionExecutor, 0, 0, 0, 0, 0, 0, 0, 0, 0, 0, 0, 0, 0, 0,0.0,0.0,0.0,0.0,0.0,0.0,0.0,0.0,0.0,0.0,0.0,0.0,0.0,6,core\src\main\java\org\apache\oozie\action\control\ForkActionExecutor.java,0,0,0,0
org.apache.oozie.action.control.JoinActionExecutor, 0, 0, 0, 0, 0, 0, 0, 0, 0, 0, 0, 0, 0, 0,0.0,0.0,0.0,0.0,0.0,0.0,0.0,0.0,0.0,0.0,0.0,0.0,0.0,6,core\src\main\java\org\apache\oozie\action\control\JoinActionExecutor.java,0,0,0,0
org.apache.oozie.action.control.KillActionExecutor, 0, 0, 0, 0, 0, 0, 0, 0, 0, 0, 0, 0, 0, 0,0.0,0.0,0.0,0.0,0.0,0.0,0.0,0.0,0.0,0.0,0.0,0.0,0.0,6,core\src\main\java\org\apache\oozie\action\control\KillActionExecutor.java,0,0,0,0
org.apache.oozie.action.control.StartActionExecutor, 0, 0, 0, 0, 0, 0, 0, 0, 0, 0, 0, 0, 0, 0,0.0,0.0,0.0,0.0,0.0,0.0,0.0,0.0,0.0,0.0,0.0,0.0,0.0,6,core\src\main\java\org\apache\oozie\action\control\StartActionExecutor.java,0,0,0,0
org.apache.oozie.action.decision.DecisionActionExecutor, 0, 0, 0, 0, 0, 0, 0, 0, 0, 0, 0, 0, 0, 0,0.0,0.0,0.0,0.0,0.0,0.0,0.0,0.0,0.0,0.0,0.0,0.0,0.0,54,core\src\main\java\org\apache\oozie\action\decision\DecisionActionExecutor.java,0,0,0,0
org.apache.oozie.action.decision.TestDecisionActionExecutor, 0, 0, 0, 0, 0, 0, 0, 0, 0, 0, 0, 0, 0, 0,0.0,0.0,0.0,0.4,0.0,0.0,0.0,0.0,0.0,0.0,0.0,0.0,0.0,138,core\src\test\java\org\apache\oozie\action\decision\TestDecisionActionExecutor.java,0,0,0,0
org.apache.oozie.action.hadoop.ActionStats, 0, 0, 0, 0, 0, 0, 0, 0, 0, 0, 0, 0, 0, 0,0.0,0.0,0.0,0.0,0.0,0.0,0.0,0.5,0.0,0.0,0.0,0.0,0.0,6,sharelib\oozie\src\main\java\org\apache\oozie\action\hadoop\ActionStats.java,0,0,0,0
org.apache.oozie.action.hadoop.CredentialException, 0, 0, 0, 0, 0, 0, 0, 0, 0, 0, 0, 0, 0, 0,0.0,0.0,0.0,0.0,0.0,0.0,0.0,0.0,0.0,0.0,0.0,0.0,0.0,9,core\src\main\java\org\apache\oozie\action\hadoop\CredentialException.java,0,0,0,0
org.apache.oozie.action.hadoop.Credentials, 0, 0, 0, 0, 0, 0, 0, 0, 0, 0, 0, 0, 0, 0,0.0,0.0,0.0,0.0,0.0,0.0,0.0,0.0,0.0,0.0,0.0,0.0,0.0,3,core\src\main\java\org\apache\oozie\action\hadoop\Credentials.java,0,0,0,0
org.apache.oozie.action.hadoop.CredentialsProvider, 0, 0, 0, 0, 0, 0, 0, 0, 0, 0, 0, 0, 0, 0,0.0,0.0,0.0,0.0,0.0,0.0,0.0,0.0,0.0,0.0,0.0,0.0,0.0,51,core\src\main\java\org\apache\oozie\action\hadoop\CredentialsProvider.java,0,0,0,0
org.apache.oozie.action.hadoop.DistcpActionExecutor, 0, 0, 0, 0, 0, 0, 0, 0, 0, 0, 0, 0, 0, 0,0.0,0.0,0.0,0.0,0.0,0.0,0.0,0.0,0.0,0.0,0.0,0.0,0.0,47,core\src\main\java\org\apache\oozie\action\hadoop\DistcpActionExecutor.java,0,0,0,0
org.apache.oozie.action.hadoop.FSLauncherURIHandler, 0, 0, 0, 0, 0, 0, 0, 0, 0, 0, 0, 0, 0, 0,0.0,0.0,0.0,0.0,0.0,0.0,0.0,0.0,0.0,0.0,0.0,0.0,0.0,51,sharelib\oozie\src\main\java\org\apache\oozie\action\hadoop\FSLauncherURIHandler.java,0,0,0,0
org.apache.oozie.action.hadoop.FsELFunctions, 0, 0, 0, 0, 0, 0, 0, 0, 0, 0, 0, 0, 0, 0,0.0,0.0,0.0,0.0,0.0,0.0,0.0,0.0,0.0,0.0,0.0,0.0,0.0,71,core\src\main\java\org\apache\oozie\action\hadoop\FsELFunctions.java,0,0,0,0
org.apache.oozie.action.hadoop.HCatCredentialHelper, 0, 0, 0, 0, 0, 0, 0, 0, 0, 0, 0, 0, 0, 0,0.0,0.0,0.0,0.0,0.0,0.0,0.0,0.0,0.0,0.0,0.0,0.0,0.0,36,core\src\main\java\org\apache\oozie\action\hadoop\HCatCredentialHelper.java,0,0,0,0
org.apache.oozie.action.hadoop.HCatCredentials, 0, 0, 0, 0, 0, 0, 0, 0, 0, 0, 0, 0, 0, 0,0.0,0.0,0.0,0.0,0.0,0.0,0.0,0.0,0.0,0.0,0.0,0.0,0.0,25,core\src\main\java\org\apache\oozie\action\hadoop\HCatCredentials.java,0,0,0,0
org.apache.oozie.action.hadoop.InsertTestToken, 0, 0, 0, 0, 0, 0, 0, 0, 0, 0, 0, 0, 0, 0,0.0,0.0,0.0,0.0,0.0,0.0,0.0,0.0,0.0,0.0,0.0,0.0,0.0,16,core\src\test\java\org\apache\oozie\action\hadoop\InsertTestToken.java,0,0,0,0
org.apache.oozie.action.hadoop.LauncherException, 0, 0, 0, 0, 0, 0, 0, 0, 0, 0, 0, 0, 0, 0,0.0,0.0,0.0,0.0,0.0,0.0,0.0,0.0,0.0,0.0,0.0,0.0,0.0,8,sharelib\oozie\src\main\java\org\apache\oozie\action\hadoop\LauncherException.java,0,0,0,0
org.apache.oozie.action.hadoop.LauncherMainTester2, 0, 0, 0, 0, 0, 0, 0, 0, 0, 0, 0, 0, 0, 0,0.0,0.0,0.0,0.0,0.0,0.0,0.0,0.0,0.0,0.0,0.0,0.0,0.0,2,core\src\test\java\org\apache\oozie\action\hadoop\LauncherMainTester2.java,0,0,0,0
org.apache.oozie.action.hadoop.LauncherURIHandler, 0, 0, 0, 0, 0, 0, 0, 0, 0, 0, 0, 0, 0, 0,0.0,0.0,0.0,0.0,0.0,0.0,0.0,0.0,0.0,0.0,0.0,0.0,0.0,2,sharelib\oozie\src\main\java\org\apache\oozie\action\hadoop\LauncherURIHandler.java,0,0,0,0
org.apache.oozie.action.hadoop.LauncherURIHandlerFactory, 0, 0, 0, 0, 0, 0, 0, 0, 0, 0, 0, 0, 0, 0,0.0,0.0,0.0,0.0,0.0,0.0,0.0,0.0,0.0,0.0,0.0,0.0,0.0,29,sharelib\oozie\src\main\java\org\apache\oozie\action\hadoop\LauncherURIHandlerFactory.java,0,2,2,6
org.apache.oozie.action.hadoop.MRStats, 0, 0, 0, 0, 0, 0, 0, 0, 0, 0, 0, 0, 0, 0,0.0,0.0,0.0,0.0,0.0,0.0,0.0,0.5,0.0,0.0,0.0,0.0,0.0,27,sharelib\oozie\src\main\java\org\apache\oozie\action\hadoop\MRStats.java,0,0,0,0
org.apache.oozie.action.hadoop.MainTestCase, 0, 0, 0, 0, 0, 0, 0, 0, 0, 0, 0, 0, 0, 0,0.6666666666666666,0.0,0.0,0.0,0.0,0.0,0.0,0.0,0.0,0.0,0.0,0.0,0.0,14,core\src\test\java\org\apache\oozie\action\hadoop\MainTestCase.java,0,0,0,0
org.apache.oozie.action.hadoop.MapReduceActionExecutor, 0, 0, 0, 0, 0, 0, 0, 1, 0, 0, 0, 0, 0, 1,0.0,0.0,0.0,0.16666666666666666,0.0,0.0,0.0,0.16666666666666666,0.0,0.0,0.0,0.0,0.0,254,core\src\main\java\org\apache\oozie\action\hadoop\MapReduceActionExecutor.java,0,0,0,0
org.apache.oozie.action.hadoop.MapperReducerCredentialsForTest, 0, 0, 0, 0, 0, 0, 0, 0, 0, 0, 0, 0, 0, 0,0.0,0.0,0.0,0.0,0.0,0.0,0.0,0.0,0.0,0.0,0.0,0.0,0.0,39,core\src\test\java\org\apache\oozie\action\hadoop\MapperReducerCredentialsForTest.java,0,0,0,0
org.apache.oozie.action.hadoop.MapperReducerForTest, 0, 0, 0, 0, 0, 0, 0, 0, 0, 0, 0, 0, 0, 0,0.0,0.0,0.0,0.0,0.0,0.0,0.0,0.0,0.0,0.0,0.0,0.0,0.0,23,core\src\test\java\org\apache\oozie\action\hadoop\MapperReducerForTest.java,0,0,0,0
org.apache.oozie.action.hadoop.MapperReducerUberJarForTest, 0, 0, 0, 0, 0, 0, 0, 0, 0, 0, 0, 0, 0, 0,0.0,0.0,0.0,0.0,0.0,0.0,0.0,0.0,0.0,0.0,0.0,0.0,0.0,31,core\src\test\java\org\apache\oozie\action\hadoop\MapperReducerUberJarForTest.java,0,0,0,0
org.apache.oozie.action.hadoop.PigActionExecutor, 0, 0, 0, 0, 0, 0, 0, 0, 0, 0, 0, 0, 0, 0,0.0,0.0,0.0,0.0,0.0,0.0,0.0,0.0,0.0,0.0,0.0,0.0,0.0,117,core\src\main\java\org\apache\oozie\action\hadoop\PigActionExecutor.java,0,0,0,0
org.apache.oozie.action.hadoop.PigTestCase, 1, 0, 0, 0, 0, 0, 0, 0, 0, 0, 0, 0, 0, 1,0.0,0.0,0.0,0.0,0.0,0.0,0.0,0.0,0.0,0.0,0.0,0.0,0.0,43,sharelib\pig\src\test\java\org\apache\oozie\action\hadoop\PigTestCase.java,0,0,0,0
org.apache.oozie.action.hadoop.PrepareActionsDriver, 0, 0, 0, 0, 0, 0, 0, 0, 0, 0, 0, 0, 0, 0,0.0,0.0,0.0,0.0,0.0,0.0,0.0,0.0,0.0,0.0,0.0,0.0,0.0,44,sharelib\oozie\src\main\java\org\apache\oozie\action\hadoop\PrepareActionsDriver.java,0,0,0,0
org.apache.oozie.action.hadoop.ScriptLanguageActionExecutor, 0, 0, 0, 0, 0, 0, 0, 0, 0, 0, 0, 0, 0, 0,0.0,0.0,0.0,0.0,0.0,0.0,0.0,0.0,0.0,0.0,0.0,0.0,0.0,52,core\src\main\java\org\apache\oozie\action\hadoop\ScriptLanguageActionExecutor.java,0,0,0,0
org.apache.oozie.action.hadoop.SharelibUtils, 0, 0, 0, 0, 0, 0, 0, 0, 0, 0, 0, 0, 0, 0,0.0,0.0,0.0,0.0,0.0,0.0,0.0,0.0,0.0,0.0,0.0,0.0,0.0,61,core\src\test\java\org\apache\oozie\action\hadoop\SharelibUtils.java,0,0,0,0
org.apache.oozie.action.hadoop.ShellActionExecutor, 0, 0, 1, 0, 0, 0, 0, 1, 0, 0, 0, 0, 0, 2,0.0,0.0,0.0,0.0,0.0,0.0,0.0,0.0,0.0,0.0,0.0,0.0,0.0,81,core\src\main\java\org\apache\oozie\action\hadoop\ShellActionExecutor.java,0,0,0,0
org.apache.oozie.action.hadoop.ShellTestCase, 1, 0, 0, 0, 0, 0, 0, 0, 0, 0, 0, 0, 0, 1,0.0,0.0,0.0,0.0,0.0,0.0,0.0,0.0,0.0,0.0,0.0,0.0,0.0,19,core\src\test\java\org\apache\oozie\action\hadoop\ShellTestCase.java,0,0,0,0
org.apache.oozie.action.hadoop.TestCredentials, 0, 0, 0, 0, 0, 0, 0, 0, 0, 0, 0, 0, 0, 0,0.0,0.0,0.0,0.0,0.0,0.0,0.0,0.0,0.0,0.0,0.0,0.0,0.0,10,core\src\test\java\org\apache\oozie\action\hadoop\TestCredentials.java,0,0,0,0
org.apache.oozie.action.hadoop.TestDistCpActionExecutor, 0, 0, 0, 0, 0, 0, 0, 0, 0, 0, 0, 0, 0, 0,0.0,0.0,0.0,0.5,0.0,0.0,0.0,0.0,0.0,0.0,0.0,0.0,0.0,91,sharelib\distcp\src\test\java\org\apache\oozie\action\hadoop\TestDistCpActionExecutor.java,0,0,0,0
org.apache.oozie.action.hadoop.TestFSPrepareActions, 0, 0, 0, 0, 0, 0, 0, 0, 0, 0, 0, 0, 0, 0,0.0,0.0,0.0,0.0,0.0,0.0,0.0,0.0,0.0,0.0,0.0,0.0,0.0,84,core\src\test\java\org\apache\oozie\action\hadoop\TestFSPrepareActions.java,8,2,4,18
org.apache.oozie.action.hadoop.TestFsELFunctions, 0, 0, 0, 0, 0, 0, 0, 0, 0, 0, 0, 0, 0, 0,0.0,0.0,0.0,0.5714285714285714,0.0,0.0,0.0,0.0,0.0,0.0,0.0,0.0,0.0,68,core\src\test\java\org\apache\oozie\action\hadoop\TestFsELFunctions.java,0,0,0,0
org.apache.oozie.action.hadoop.TestHCatPrepareActions, 0, 0, 0, 0, 0, 0, 0, 0, 0, 0, 0, 0, 0, 0,0.0,0.0,0.0,0.0,0.0,0.0,0.0,0.0,0.0,0.0,0.0,0.0,0.0,41,core\src\test\java\org\apache\oozie\action\hadoop\TestHCatPrepareActions.java,0,0,0,0
org.apache.oozie.action.hadoop.TestLauncher, 0, 0, 0, 0, 0, 0, 0, 0, 0, 0, 0, 0, 0, 0,0.0,0.0,0.0,0.0,0.0,0.0,0.0,0.0,0.0,0.0,0.0,0.0,0.0,248,core\src\test\java\org\apache\oozie\action\hadoop\TestLauncher.java,0,0,0,0
org.apache.oozie.action.hadoop.TestLauncherFSURIHandler, 0, 0, 0, 0, 0, 0, 0, 0, 0, 0, 0, 0, 0, 0,0.0,0.0,0.0,0.0,0.0,0.0,0.0,0.0,0.0,0.0,0.0,0.0,0.0,34,core\src\test\java\org\apache\oozie\action\hadoop\TestLauncherFSURIHandler.java,0,0,0,0
org.apache.oozie.action.hadoop.TestLauncherHCatURIHandler, 0, 0, 0, 0, 0, 0, 0, 0, 0, 0, 0, 0, 0, 0,0.0,0.0,0.0,0.0,0.0,0.0,0.0,0.0,0.0,0.0,0.0,0.0,0.0,95,core\src\test\java\org\apache\oozie\action\hadoop\TestLauncherHCatURIHandler.java,0,0,0,0
org.apache.oozie.action.hadoop.TestMapReduceActionError, 0, 0, 0, 0, 0, 0, 0, 0, 0, 0, 0, 0, 0, 0,0.0,0.0,0.0,0.5,0.0,0.0,0.0,0.25,0.0,0.0,0.0,0.0,0.0,103,core\src\test\java\org\apache\oozie\action\hadoop\TestMapReduceActionError.java,0,0,0,0
org.apache.oozie.action.hadoop.TestMapReduceActionExecutorUberJar, 0, 0, 0, 0, 0, 0, 0, 0, 0, 0, 0, 0, 0, 0,0.0,0.0,0.0,0.0,0.0,0.0,0.0,0.0,0.0,0.0,0.0,0.0,0.0,43,sharelib\streaming\src\test\java\org\apache\oozie\action\hadoop\TestMapReduceActionExecutorUberJar.java,0,0,0,0
org.apache.oozie.action.hadoop.TestPrepareActionsDriver, 0, 0, 0, 0, 0, 0, 0, 0, 0, 0, 0, 0, 0, 0,0.0,0.0,0.0,0.0,0.0,0.0,0.0,0.0,0.0,0.0,0.0,0.0,0.0,46,core\src\test\java\org\apache\oozie\action\hadoop\TestPrepareActionsDriver.java,0,0,0,0
org.apache.oozie.action.hadoop.TestShellActionExecutor, 0, 0, 0, 0, 0, 0, 0, 0, 0, 0, 0, 0, 0, 0,0.0,0.0,0.25,0.5,0.0,0.0,0.0,0.25,0.0,0.0,0.0,0.0,0.0,210,core\src\test\java\org\apache\oozie\action\hadoop\TestShellActionExecutor.java,0,0,0,0
org.apache.oozie.action.hadoop.UDFTester, 0, 0, 0, 0, 0, 0, 0, 0, 0, 0, 0, 0, 0, 0,0.0,0.0,0.0,0.0,0.0,0.0,0.0,0.0,0.0,0.0,0.0,0.0,0.0,27,sharelib\pig\src\test\java\org\apache\oozie\action\hadoop\UDFTester.java,0,0,0,0
org.apache.oozie.action.oozie.SubWorkflowActionExecutor, 0, 0, 0, 0, 0, 0, 0, 0, 0, 0, 0, 0, 0, 0,0.0,0.0,0.0,0.25,0.0,0.0,0.0,0.0,0.0,0.0,0.0,0.0,0.0,174,core\src\main\java\org\apache\oozie\action\oozie\SubWorkflowActionExecutor.java,0,0,0,0
org.apache.oozie.action.oozie.TestSubWorkflowActionExecutor, 0, 0, 0, 0, 0, 0, 0, 0, 0, 0, 0, 0, 0, 0,0.0,0.0,0.0,0.6666666666666666,0.0,0.0,0.0,0.0,0.0,0.0,0.0,0.0,0.0,298,core\src\test\java\org\apache\oozie\action\oozie\TestSubWorkflowActionExecutor.java,0,0,0,0
org.apache.oozie.action.ssh.TestSshActionExecutor, 0, 0, 0, 0, 0, 0, 0, 0, 0, 0, 0, 0, 0, 0,0.0,0.0,0.0,0.5714285714285714,0.0,0.0,0.0,0.0,0.0,0.0,0.0,0.0,0.0,459,core\src\test\java\org\apache\oozie\action\ssh\TestSshActionExecutor.java,0,0,0,0
org.apache.oozie.action.ssh.TestSshActionExecutorAsExtension, 0, 0, 0, 0, 0, 0, 0, 0, 0, 0, 0, 0, 0, 0,0.0,0.0,0.0,0.0,0.0,0.0,0.0,0.0,0.0,0.0,0.0,0.0,0.0,6,core\src\test\java\org\apache\oozie\action\ssh\TestSshActionExecutorAsExtension.java,0,0,0,0
org.apache.oozie.cli.OozieCLIException, 0, 0, 0, 0, 0, 0, 0, 0, 0, 0, 0, 0, 0, 0,0.0,0.0,0.0,0.0,0.0,0.0,0.0,0.0,0.0,0.0,0.0,0.0,0.0,8,client\src\main\java\org\apache\oozie\cli\OozieCLIException.java,0,0,0,0
org.apache.oozie.cli.TestCLIParser, 0, 0, 0, 0, 0, 0, 0, 0, 0, 0, 0, 0, 0, 0,0.0,0.0,0.0,0.0,0.0,0.0,0.0,0.0,0.0,0.0,0.0,0.0,0.0,71,client\src\test\java\org\apache\oozie\cli\TestCLIParser.java,0,0,0,0
org.apache.oozie.cli.TestOozieCLIMethods, 0, 0, 0, 1, 0, 0, 0, 0, 0, 0, 0, 0, 0, 1,0.0,0.0,0.0,0.0,0.0,0.0,0.0,0.0,0.0,0.0,0.0,0.0,0.0,370,client\src\test\java\org\apache\oozie\cli\TestOozieCLIMethods.java,0,0,0,0
org.apache.oozie.cli.TestValidation, 0, 0, 0, 0, 0, 0, 0, 0, 0, 0, 0, 0, 0, 0,0.0,0.0,0.0,0.0,0.0,0.0,0.0,0.0,0.0,0.0,0.0,0.0,0.0,16,client\src\test\java\org\apache\oozie\cli\TestValidation.java,0,0,0,0
org.apache.oozie.client.BulkResponse, 0, 0, 0, 0, 0, 0, 0, 0, 0, 0, 0, 0, 0, 0,0.0,0.0,0.0,0.0,0.0,0.0,0.0,0.0,0.0,0.0,0.0,0.0,0.0,16,client\src\main\java\org\apache\oozie\client\BulkResponse.java,0,0,0,0
org.apache.oozie.client.BundleJob, 0, 0, 0, 0, 0, 0, 0, 0, 0, 0, 0, 0, 0, 0,0.0,0.0,0.0,0.0,0.0,0.0,0.0,0.0,0.0,0.0,0.0,0.0,0.0,16,client\src\main\java\org\apache\oozie\client\BundleJob.java,0,0,0,0
org.apache.oozie.client.CoordinatorAction, 0, 0, 0, 0, 0, 0, 0, 0, 0, 0, 0, 0, 0, 0,0.0,0.0,0.0,0.0,0.0,0.0,0.0,0.0,0.0,0.0,0.0,0.0,0.0,16,client\src\main\java\org\apache\oozie\client\CoordinatorAction.java,0,0,0,0
org.apache.oozie.client.CoordinatorJob, 0, 0, 0, 0, 0, 0, 0, 0, 0, 0, 0, 0, 0, 0,0.0,0.0,0.0,0.0,0.0,0.0,0.0,0.0,0.0,0.0,0.0,0.0,0.0,16,client\src\main\java\org\apache\oozie\client\CoordinatorJob.java,0,0,0,0
org.apache.oozie.client.JMSConnectionInfo, 0, 0, 0, 0, 0, 0, 0, 0, 0, 0, 0, 0, 0, 0,0.0,0.0,0.0,0.0,0.0,0.0,0.0,0.0,0.0,0.0,0.0,0.0,0.0,16,client\src\main\java\org\apache\oozie\client\JMSConnectionInfo.java,0,0,0,0
org.apache.oozie.client.JMSConnectionInfoWrapper, 0, 0, 0, 0, 0, 0, 0, 0, 0, 0, 0, 0, 0, 0,0.0,0.0,0.0,0.0,0.0,0.0,0.0,0.0,0.0,0.0,0.0,0.0,0.0,16,client\src\main\java\org\apache\oozie\client\JMSConnectionInfoWrapper.java,0,0,0,0
org.apache.oozie.client.Job, 0, 0, 0, 0, 0, 0, 0, 0, 0, 0, 0, 0, 0, 0,0.0,0.0,0.0,0.0,0.0,0.0,0.0,0.0,0.0,0.0,0.0,0.0,0.0,16,client\src\main\java\org\apache\oozie\client\Job.java,0,0,0,0
org.apache.oozie.client.OozieClientException, 0, 0, 0, 0, 0, 0, 0, 0, 0, 0, 0, 0, 0, 0,0.0,0.0,0.0,0.0,0.0,0.0,0.0,0.0,0.0,0.0,0.0,0.0,0.0,27,client\src\main\java\org\apache\oozie\client\OozieClientException.java,0,0,0,0
org.apache.oozie.client.SLAEvent, 0, 0, 0, 0, 0, 0, 0, 0, 0, 0, 0, 0, 0, 0,0.0,0.0,0.0,0.0,0.0,0.0,0.0,0.0,0.0,0.0,0.0,0.0,0.0,27,client\src\main\java\org\apache\oozie\client\SLAEvent.java,0,0,0,0
org.apache.oozie.client.TestOozieClientWithFakeServlet, 0, 0, 0, 0, 0, 0, 0, 0, 0, 0, 0, 0, 0, 0,0.0,0.0,0.0,0.0,0.0,0.0,0.0,0.0,0.0,0.0,0.0,0.0,0.0,110,core\src\test\java\org\apache\oozie\client\TestOozieClientWithFakeServlet.java,0,0,0,0
org.apache.oozie.client.TestWorkflowClientException, 0, 0, 0, 0, 0, 0, 0, 0, 0, 0, 0, 0, 0, 0,0.0,0.0,0.0,0.0,0.0,0.0,0.0,0.0,0.0,0.0,0.0,0.0,0.0,23,core\src\test\java\org\apache\oozie\client\TestWorkflowClientException.java,0,0,0,0
org.apache.oozie.client.WorkflowAction, 0, 0, 0, 0, 0, 0, 0, 0, 0, 0, 0, 0, 0, 0,0.0,0.0,0.0,0.0,0.0,0.0,0.0,0.0,0.0,0.0,0.0,0.0,0.0,23,client\src\main\java\org\apache\oozie\client\WorkflowAction.java,0,0,0,0
org.apache.oozie.client.WorkflowJob, 0, 0, 0, 0, 0, 0, 0, 0, 0, 0, 0, 0, 0, 0,0.0,0.0,0.0,0.0,0.0,0.0,0.0,0.0,0.0,0.0,0.0,0.0,0.0,23,client\src\main\java\org\apache\oozie\client\WorkflowJob.java,0,0,0,0
org.apache.oozie.client.event.Event, 0, 0, 0, 0, 0, 0, 0, 0, 0, 0, 0, 0, 0, 0,0.0,0.0,0.0,0.6,0.0,0.0,0.0,0.2,0.0,0.0,0.0,0.0,0.0,17,client\src\main\java\org\apache\oozie\client\event\Event.java,0,0,0,0
org.apache.oozie.client.event.JobEvent, 0, 0, 0, 1, 0, 0, 0, 1, 0, 0, 0, 0, 0, 2,0.0,0.0,0.0,0.1,0.0,0.0,0.0,0.5,0.0,0.0,0.0,0.0,0.0,75,client\src\main\java\org\apache\oozie\client\event\JobEvent.java,0,0,0,0
org.apache.oozie.client.event.SLAEvent, 0, 0, 0, 1, 0, 0, 0, 0, 0, 0, 0, 0, 0, 1,0.0,0.0,0.0,0.4,0.0,0.0,0.0,0.0,0.0,0.0,0.0,0.0,0.0,39,client\src\main\java\org\apache\oozie\client\event\SLAEvent.java,0,0,0,0
org.apache.oozie.client.event.jms.JMSHeaderConstants, 0, 0, 0, 0, 0, 0, 0, 0, 0, 0, 0, 0, 0, 0,0.0,0.0,0.0,0.0,0.0,0.0,0.0,0.0,0.0,0.0,0.0,0.0,0.0,9,client\src\main\java\org\apache\oozie\client\event\jms\JMSHeaderConstants.java,0,0,0,0
org.apache.oozie.client.event.jms.JSONMessageDeserializer, 1, 0, 0, 0, 0, 0, 0, 0, 0, 0, 0, 0, 0, 1,0.0,0.0,0.0,0.0,0.0,0.0,0.0,0.0,0.0,0.0,0.0,0.0,0.0,16,client\src\main\java\org\apache\oozie\client\event\jms\JSONMessageDeserializer.java,0,0,0,0
org.apache.oozie.client.event.jms.MessageDeserializer, 0, 0, 0, 0, 0, 0, 0, 0, 0, 0, 0, 0, 0, 0,1.0,0.0,0.0,0.0,0.0,0.0,0.0,0.0,0.0,0.0,0.0,0.0,0.0,39,client\src\main\java\org\apache\oozie\client\event\jms\MessageDeserializer.java,0,0,0,0
org.apache.oozie.client.event.message.CoordinatorActionMessage, 0, 0, 0, 0, 0, 0, 0, 1, 0, 0, 0, 0, 0, 1,0.0,0.0,0.0,0.5,0.0,0.0,0.0,0.0,0.0,0.0,0.0,0.0,0.0,55,client\src\main\java\org\apache\oozie\client\event\message\CoordinatorActionMessage.java,0,0,0,0
org.apache.oozie.client.event.message.SLAMessage, 0, 0, 0, 1, 0, 0, 0, 1, 0, 0, 0, 0, 0, 2,0.0,0.0,0.0,0.3333333333333333,0.0,0.0,0.0,0.0,0.0,0.0,0.0,0.0,0.0,154,client\src\main\java\org\apache\oozie\client\event\message\SLAMessage.java,0,0,0,0
org.apache.oozie.client.event.message.WorkflowJobMessage, 0, 0, 0, 0, 0, 0, 0, 1, 0, 0, 0, 0, 0, 1,0.0,0.0,0.0,0.5,0.0,0.0,0.0,0.0,0.0,0.0,0.0,0.0,0.0,37,client\src\main\java\org\apache\oozie\client\event\message\WorkflowJobMessage.java,0,0,0,0
org.apache.oozie.client.rest.BulkResponseImpl, 0, 0, 0, 1, 0, 0, 0, 0, 0, 0, 0, 0, 0, 1,0.0,0.0,0.0,0.8571428571428571,0.0,0.0,0.0,0.0,0.0,0.0,0.0,0.0,0.0,65,core\src\main\java\org\apache\oozie\client\rest\BulkResponseImpl.java,0,0,0,0
org.apache.oozie.client.rest.JMSConnectionInfoBean, 0, 0, 0, 0, 0, 0, 0, 0, 0, 0, 0, 0, 0, 0,0.0,0.0,0.0,0.0,0.0,0.0,0.0,0.0,0.0,0.0,0.0,0.0,0.0,38,core\src\main\java\org\apache\oozie\client\rest\JMSConnectionInfoBean.java,0,0,0,0
org.apache.oozie.client.rest.JsonBean, 0, 0, 0, 0, 0, 0, 0, 0, 0, 0, 0, 0, 0, 0,0.0,0.0,0.0,0.0,0.0,0.0,0.0,0.0,0.0,0.0,0.0,0.0,0.0,38,core\src\main\java\org\apache\oozie\client\rest\JsonBean.java,0,0,0,0
org.apache.oozie.client.rest.JsonBundleJob, 0, 0, 0, 1, 0, 0, 0, 0, 0, 0, 0, 0, 0, 1,0.0,0.0,0.0,0.25925925925925924,0.0,0.0,0.0,0.14814814814814814,0.0,0.0,0.0,0.0,0.0,221,core\src\main\java\org\apache\oozie\client\rest\JsonBundleJob.java,0,0,0,0
org.apache.oozie.client.rest.JsonCoordinatorAction, 0, 0, 0, 1, 0, 0, 0, 0, 0, 0, 0, 0, 0, 1,0.012987012987012988,0.0,0.0,0.12987012987012986,0.0,0.0,0.0,0.16883116883116883,0.0,0.0,0.0,0.0,0.0,254,core\src\main\java\org\apache\oozie\client\rest\JsonCoordinatorAction.java,0,0,0,0
org.apache.oozie.client.rest.JsonCoordinatorJob, 0, 0, 0, 1, 0, 0, 0, 0, 0, 0, 0, 0, 0, 1,0.011363636363636364,0.0,0.0,0.14772727272727273,0.0,0.0,0.0,0.19318181818181818,0.0,0.0,0.0,0.0,0.0,281,core\src\main\java\org\apache\oozie\client\rest\JsonCoordinatorJob.java,0,0,0,0
org.apache.oozie.client.rest.JsonSLAEvent, 0, 0, 0, 1, 0, 0, 0, 0, 0, 0, 0, 0, 0, 1,0.0,0.0,0.0,0.125,0.0,0.0,0.0,0.25,0.0,0.0,0.0,0.0,0.0,200,core\src\main\java\org\apache\oozie\client\rest\JsonSLAEvent.java,0,0,0,0
org.apache.oozie.client.rest.JsonTags, 0, 0, 0, 0, 0, 0, 0, 0, 0, 0, 0, 0, 0, 0,0.0,0.0,0.0,0.0,0.0,0.0,0.0,0.0,0.0,0.0,0.0,0.0,0.0,200,client\src\main\java\org\apache\oozie\client\rest\JsonTags.java,0,0,0,0
org.apache.oozie.client.rest.JsonUtils, 0, 0, 0, 0, 0, 0, 0, 0, 0, 0, 0, 0, 0, 0,0.36363636363636365,0.0,0.0,0.5454545454545454,0.0,0.0,0.0,0.0,0.0,0.0,0.0,0.0,0.0,27,client\src\main\java\org\apache\oozie\client\rest\JsonUtils.java,0,0,0,0
org.apache.oozie.client.rest.JsonWorkflowAction, 0, 0, 0, 1, 0, 0, 0, 0, 0, 0, 0, 0, 0, 1,0.020833333333333332,0.0,0.0,0.16666666666666666,0.0,0.0,0.0,0.0625,0.0,0.0,0.0,0.0,0.0,243,core\src\main\java\org\apache\oozie\client\rest\JsonWorkflowAction.java,0,0,0,0
org.apache.oozie.client.rest.JsonWorkflowJob, 0, 0, 0, 1, 0, 0, 0, 0, 0, 0, 0, 0, 0, 1,0.016666666666666666,0.0,0.0,0.16666666666666666,0.0,0.0,0.0,0.08333333333333333,0.0,0.0,0.0,0.0,0.0,186,core\src\main\java\org\apache\oozie\client\rest\JsonWorkflowJob.java,0,0,0,0
org.apache.oozie.client.rest.RestConstants, 0, 0, 0, 0, 0, 0, 0, 0, 0, 0, 0, 0, 0, 0,0.0,0.0,0.0,0.0,0.0,0.0,0.0,0.0,0.0,0.0,0.0,0.0,0.0,186,client\src\main\java\org\apache\oozie\client\rest\RestConstants.java,0,0,0,0
org.apache.oozie.client.rest.TestJsonCoordinatorAction, 1, 0, 0, 0, 0, 0, 0, 0, 0, 0, 0, 0, 0, 1,0.0,0.0,0.0,0.5,0.0,0.0,0.0,0.0,0.0,0.0,0.0,0.0,0.0,37,core\src\test\java\org\apache\oozie\client\rest\TestJsonCoordinatorAction.java,0,0,0,0
org.apache.oozie.client.rest.TestJsonCoordinatorJob, 1, 0, 0, 0, 0, 0, 0, 0, 0, 0, 0, 0, 0, 1,0.0,0.0,0.0,0.5,0.0,0.0,0.0,0.0,0.0,0.0,0.0,0.0,0.0,49,core\src\test\java\org\apache\oozie\client\rest\TestJsonCoordinatorJob.java,0,0,0,0
org.apache.oozie.client.rest.TestJsonUtils, 0, 0, 0, 0, 0, 0, 0, 0, 0, 0, 0, 0, 0, 0,0.0,0.0,0.0,0.0,0.0,0.0,0.0,0.0,0.0,0.0,0.0,0.0,0.0,32,client\src\test\java\org\apache\oozie\client\rest\TestJsonUtils.java,0,0,0,0
org.apache.oozie.client.rest.TestJsonWorkflowAction, 1, 0, 0, 0, 0, 0, 0, 0, 0, 0, 0, 0, 0, 1,0.3333333333333333,0.0,0.0,0.3333333333333333,0.0,0.0,0.0,0.0,0.0,0.0,0.0,0.0,0.0,46,core\src\test\java\org\apache\oozie\client\rest\TestJsonWorkflowAction.java,0,0,0,0
org.apache.oozie.client.rest.TestJsonWorkflowJob, 1, 0, 0, 0, 0, 0, 0, 0, 0, 0, 0, 0, 0, 1,0.3333333333333333,0.0,0.0,0.3333333333333333,0.0,0.0,0.0,0.0,0.0,0.0,0.0,0.0,0.0,39,core\src\test\java\org\apache\oozie\client\rest\TestJsonWorkflowJob.java,0,0,0,0
org.apache.oozie.command.CommandException, 0, 0, 0, 0, 0, 0, 0, 0, 0, 0, 0, 0, 0, 0,0.0,0.0,0.0,0.12962962962962962,0.0,0.0,0.0,0.14814814814814814,0.0,0.0,0.0,0.0,0.0,8,core\src\main\java\org\apache\oozie\command\CommandException.java,0,0,0,0
org.apache.oozie.command.KillTransitionXCommand, 0, 0, 0, 0, 0, 0, 0, 0, 0, 0, 0, 0, 0, 0,0.0,0.0,0.0,0.0,0.0,0.0,0.0,0.0,0.0,0.0,0.0,0.0,0.0,27,core\src\main\java\org\apache\oozie\command\KillTransitionXCommand.java,0,0,0,0
org.apache.oozie.command.MaterializeTransitionXCommand, 0, 0, 0, 0, 0, 0, 0, 0, 0, 0, 0, 0, 0, 0,0.0,0.0,0.0,0.0,0.0,0.0,0.0,0.0,0.0,0.0,0.0,0.0,0.0,23,core\src\main\java\org\apache\oozie\command\MaterializeTransitionXCommand.java,0,0,0,0
org.apache.oozie.command.PauseTransitionXCommand, 0, 0, 0, 0, 0, 0, 0, 0, 0, 0, 0, 0, 0, 0,0.0,0.0,0.0,0.0,0.0,0.0,0.0,0.0,0.0,0.0,0.0,0.0,0.0,36,core\src\main\java\org\apache\oozie\command\PauseTransitionXCommand.java,0,0,0,0
org.apache.oozie.command.PreconditionException, 0, 0, 0, 0, 0, 0, 0, 0, 0, 0, 0, 0, 0, 0,0.0,0.0,0.0,0.14285714285714285,0.0,0.0,0.0,0.047619047619047616,0.0,0.0,0.0,0.0,0.0,8,core\src\main\java\org\apache\oozie\command\PreconditionException.java,0,0,0,0
org.apache.oozie.command.PurgeXCommand, 0, 0, 0, 1, 0, 0, 0, 0, 0, 0, 0, 0, 0, 1,0.0,0.0,0.0,0.06666666666666667,0.0,0.0,0.0,0.06666666666666667,0.0,0.0,0.0,0.0,0.0,191,core\src\main\java\org\apache\oozie\command\PurgeXCommand.java,0,0,0,0
org.apache.oozie.command.RerunTransitionXCommand, 0, 0, 0, 0, 0, 0, 0, 0, 0, 0, 0, 0, 0, 0,0.0,0.0,0.0,0.25,0.0,0.0,0.0,0.25,0.0,0.0,0.0,0.0,0.0,70,core\src\main\java\org\apache\oozie\command\RerunTransitionXCommand.java,0,0,0,0
org.apache.oozie.command.ResumeTransitionXCommand, 0, 0, 0, 0, 0, 0, 0, 0, 0, 0, 0, 0, 0, 0,0.0,0.0,0.0,0.0,0.0,0.0,0.0,0.0,0.0,0.0,0.0,0.0,0.0,37,core\src\main\java\org\apache\oozie\command\ResumeTransitionXCommand.java,0,0,0,0
org.apache.oozie.command.SkipCommitFaultInjection, 0, 0, 0, 0, 0, 0, 0, 0, 0, 0, 0, 0, 0, 0,0.0,0.0,0.0,0.0,0.0,0.0,0.0,0.0,0.0,0.0,0.0,0.0,0.0,14,core\src\test\java\org\apache\oozie\command\SkipCommitFaultInjection.java,0,0,0,0
org.apache.oozie.command.StartTransitionXCommand, 0, 0, 0, 0, 0, 0, 0, 0, 0, 0, 0, 0, 0, 0,0.0,0.0,0.0,0.0,0.0,0.0,0.0,0.0,0.0,0.0,0.0,0.0,0.0,26,core\src\main\java\org\apache\oozie\command\StartTransitionXCommand.java,0,0,0,0
org.apache.oozie.command.StatusUpdateXCommand, 0, 0, 0, 0, 0, 0, 0, 0, 0, 0, 0, 0, 0, 0,0.0,0.0,0.0,0.0,0.0,0.0,0.0,0.0,0.0,0.0,0.0,0.0,0.0,8,core\src\main\java\org\apache\oozie\command\StatusUpdateXCommand.java,0,0,0,0
org.apache.oozie.command.SubmitTransitionXCommand, 0, 0, 0, 0, 0, 0, 0, 0, 0, 0, 0, 0, 0, 0,0.0,0.0,0.0,0.0,0.0,0.0,0.0,0.0,0.0,0.0,0.0,0.0,0.0,28,core\src\main\java\org\apache\oozie\command\SubmitTransitionXCommand.java,0,0,0,0
org.apache.oozie.command.SuspendTransitionXCommand, 0, 0, 0, 0, 0, 0, 0, 0, 0, 0, 0, 0, 0, 0,0.0,0.0,0.0,0.0,0.0,0.0,0.0,0.0,0.0,0.0,0.0,0.0,0.0,43,core\src\main\java\org\apache\oozie\command\SuspendTransitionXCommand.java,0,0,0,0
org.apache.oozie.command.TestPurgeXCommand, 0, 0, 0, 1, 0, 0, 0, 0, 0, 0, 0, 0, 0, 1,0.0,0.0,0.0,0.41379310344827586,0.0,0.0,0.0,0.0,0.0,0.0,0.0,0.0,0.0,3131,core\src\test\java\org\apache\oozie\command\TestPurgeXCommand.java,0,0,0,0
org.apache.oozie.command.TestXCommand, 0, 0, 0, 0, 0, 0, 0, 0, 0, 0, 0, 0, 0, 0,0.0,0.0,0.0,0.0,0.0,0.0,0.0,0.0,0.0,0.0,0.0,0.0,0.0,195,core\src\test\java\org\apache\oozie\command\TestXCommand.java,0,0,0,0
org.apache.oozie.command.TransitionXCommand, 0, 0, 0, 0, 0, 0, 0, 0, 0, 0, 0, 0, 0, 0,0.0,0.0,0.0,0.25,0.0,0.0,0.0,0.0625,0.0,0.0,0.0,0.0,0.0,37,core\src\main\java\org\apache\oozie\command\TransitionXCommand.java,0,0,0,0
org.apache.oozie.command.UnpauseTransitionXCommand, 0, 0, 0, 0, 0, 0, 0, 0, 0, 0, 0, 0, 0, 0,0.0,0.0,0.0,0.0,0.0,0.0,0.0,0.0,0.0,0.0,0.0,0.0,0.0,36,core\src\main\java\org\apache\oozie\command\UnpauseTransitionXCommand.java,0,0,0,0
org.apache.oozie.command.bundle.BundleJobException, 0, 0, 0, 0, 0, 0, 0, 0, 0, 0, 0, 0, 0, 0,0.0,0.0,0.0,0.0,0.0,0.0,0.0,0.0,0.0,0.0,0.0,0.0,0.0,8,core\src\main\java\org\apache\oozie\command\bundle\BundleJobException.java,0,0,0,0
org.apache.oozie.command.bundle.BundleJobResumeXCommand, 0, 0, 0, 0, 0, 0, 0, 0, 0, 0, 0, 0, 0, 0,0.0,0.0,0.0,0.23076923076923078,0.0,0.0,0.0,0.07692307692307693,0.0,0.0,0.0,0.0,0.0,98,core\src\main\java\org\apache\oozie\command\bundle\BundleJobResumeXCommand.java,0,0,0,0
org.apache.oozie.command.bundle.BundleJobSuspendXCommand, 0, 0, 0, 0, 0, 0, 0, 0, 0, 0, 0, 0, 0, 0,0.0,0.0,0.0,0.21428571428571427,0.0,0.0,0.0,0.07142857142857142,0.0,0.0,0.0,0.0,0.0,114,core\src\main\java\org\apache\oozie\command\bundle\BundleJobSuspendXCommand.java,0,0,0,0
org.apache.oozie.command.bundle.BundleJobXCommand, 0, 0, 0, 0, 0, 0, 0, 0, 0, 0, 0, 0, 0, 0,0.0,0.0,0.0,0.2857142857142857,0.0,0.0,0.0,0.0,0.0,0.0,0.0,0.0,0.0,40,core\src\main\java\org\apache\oozie\command\bundle\BundleJobXCommand.java,0,0,0,0
org.apache.oozie.command.bundle.BundleKillXCommand, 0, 0, 0, 0, 0, 0, 0, 0, 0, 0, 0, 0, 0, 0,0.0,0.0,0.0,0.2,0.0,0.0,0.0,0.06666666666666667,0.0,0.0,0.0,0.0,0.0,97,core\src\main\java\org\apache\oozie\command\bundle\BundleKillXCommand.java,0,0,0,0
org.apache.oozie.command.bundle.BundlePauseXCommand, 0, 0, 0, 0, 0, 0, 0, 0, 0, 0, 0, 0, 0, 0,0.0,0.0,0.0,0.25,0.0,0.0,0.0,0.0,0.0,0.0,0.0,0.0,0.0,45,core\src\main\java\org\apache\oozie\command\bundle\BundlePauseXCommand.java,0,0,0,0
org.apache.oozie.command.bundle.BundleStatusUpdateXCommand, 0, 0, 0, 0, 0, 0, 0, 0, 0, 0, 0, 0, 0, 0,0.0,0.0,0.0,0.25,0.0,0.0,0.0,0.0625,0.0,0.0,0.0,0.0,0.0,96,core\src\main\java\org\apache\oozie\command\bundle\BundleStatusUpdateXCommand.java,0,0,0,0
org.apache.oozie.command.bundle.BundleUnpauseXCommand, 0, 0, 0, 0, 0, 0, 0, 0, 0, 0, 0, 0, 0, 0,0.0,0.0,0.0,0.25,0.0,0.0,0.0,0.0,0.0,0.0,0.0,0.0,0.0,45,core\src\main\java\org\apache\oozie\command\bundle\BundleUnpauseXCommand.java,0,0,0,0
org.apache.oozie.command.bundle.TestBundleChangeXCommand, 0, 0, 0, 0, 0, 0, 0, 0, 0, 0, 0, 0, 0, 0,0.0,0.0,0.0,0.5,0.0,0.0,0.0,0.0,0.0,0.0,0.0,0.0,0.0,101,core\src\test\java\org\apache\oozie\command\bundle\TestBundleChangeXCommand.java,0,0,0,0
org.apache.oozie.command.bundle.TestBundleJobSuspendXCommand, 0, 0, 0, 0, 0, 0, 0, 0, 0, 0, 0, 0, 0, 0,0.0,0.0,0.0,0.375,0.0,0.0,0.0,0.0,0.0,0.0,0.0,0.0,0.0,132,core\src\test\java\org\apache\oozie\command\bundle\TestBundleJobSuspendXCommand.java,0,0,0,0
org.apache.oozie.command.bundle.TestBundleJobXCommand, 0, 0, 0, 0, 0, 0, 0, 0, 0, 0, 0, 0, 0, 0,0.0,0.0,0.0,0.4,0.0,0.0,0.0,0.0,0.0,0.0,0.0,0.0,0.0,36,core\src\test\java\org\apache\oozie\command\bundle\TestBundleJobXCommand.java,0,0,0,0
org.apache.oozie.command.bundle.TestBundleKillXCommand, 0, 0, 0, 0, 0, 0, 0, 0, 0, 0, 0, 0, 0, 0,0.0,0.0,0.0,0.375,0.0,0.0,0.0,0.0,0.0,0.0,0.0,0.0,0.0,110,core\src\test\java\org\apache\oozie\command\bundle\TestBundleKillXCommand.java,0,0,0,0
org.apache.oozie.command.bundle.TestBundlePauseUnpauseXCommand, 0, 0, 0, 0, 0, 0, 0, 0, 0, 0, 0, 0, 0, 0,0.0,0.0,0.0,0.4,0.0,0.0,0.0,0.0,0.0,0.0,0.0,0.0,0.0,71,core\src\test\java\org\apache\oozie\command\bundle\TestBundlePauseUnpauseXCommand.java,0,0,0,0
org.apache.oozie.command.bundle.TestBundleRerunXCommand, 0, 0, 0, 0, 0, 0, 0, 0, 0, 0, 0, 0, 0, 0,0.0,0.0,0.0,0.5,0.0,0.0,0.0,0.0,0.0,0.0,0.0,0.0,0.0,199,core\src\test\java\org\apache\oozie\command\bundle\TestBundleRerunXCommand.java,0,0,0,0
org.apache.oozie.command.bundle.TestBundleStartXCommand, 0, 0, 0, 0, 0, 0, 0, 0, 0, 0, 0, 0, 0, 0,0.0,0.0,0.0,0.5,0.0,0.0,0.0,0.0,0.0,0.0,0.0,0.0,0.0,167,core\src\test\java\org\apache\oozie\command\bundle\TestBundleStartXCommand.java,0,0,0,0
org.apache.oozie.command.coord.CoordActionCheckXCommand, 0, 0, 0, 0, 0, 0, 0, 0, 0, 0, 0, 0, 0, 0,0.0,0.0,0.0,0.3333333333333333,0.0,0.0,0.0,0.05555555555555555,0.0,0.0,0.0,0.0,0.0,119,core\src\main\java\org\apache\oozie\command\coord\CoordActionCheckXCommand.java,0,0,0,0
org.apache.oozie.command.coord.CoordActionInfoXCommand, 0, 0, 0, 0, 0, 0, 0, 0, 0, 0, 0, 0, 0, 0,0.0,0.0,0.0,0.2,0.0,0.0,0.0,0.0,0.0,0.0,0.0,0.0,0.0,39,core\src\main\java\org\apache\oozie\command\coord\CoordActionInfoXCommand.java,0,0,0,0
org.apache.oozie.command.coord.CoordActionNotificationXCommand, 0, 0, 0, 0, 0, 0, 0, 0, 0, 0, 0, 0, 0, 0,0.0,0.0,0.0,0.375,0.0,0.0,0.0,0.125,0.0,0.0,0.0,0.0,0.0,75,core\src\main\java\org\apache\oozie\command\coord\CoordActionNotificationXCommand.java,0,0,0,0
org.apache.oozie.command.coord.CoordActionReadyXCommand, 0, 0, 0, 0, 0, 0, 0, 0, 0, 0, 0, 0, 0, 0,0.0,0.0,0.0,0.38461538461538464,0.0,0.0,0.0,0.0,0.0,0.0,0.0,0.0,0.0,98,core\src\main\java\org\apache\oozie\command\coord\CoordActionReadyXCommand.java,0,0,0,0
org.apache.oozie.command.coord.CoordActionStartXCommand, 0, 0, 0, 1, 0, 0, 0, 0, 0, 0, 0, 0, 0, 1,0.0,0.0,0.0,0.25,0.0,0.0,0.0,0.0625,0.0,0.0,0.0,0.0,0.0,197,core\src\main\java\org\apache\oozie\command\coord\CoordActionStartXCommand.java,0,0,0,0
org.apache.oozie.command.coord.CoordActionTimeOutXCommand, 0, 0, 0, 0, 0, 0, 0, 0, 0, 0, 0, 0, 0, 0,0.0,0.0,0.0,0.2222222222222222,0.0,0.0,0.0,0.0,0.0,0.0,0.0,0.0,0.0,63,core\src\main\java\org\apache\oozie\command\coord\CoordActionTimeOutXCommand.java,0,0,0,0
org.apache.oozie.command.coord.CoordActionUpdatePushMissingDependency, 0, 0, 0, 0, 0, 0, 0, 0, 0, 0, 0, 0, 0, 0,0.0,0.0,0.0,0.3333333333333333,0.0,0.0,0.0,0.0,0.0,0.0,0.0,0.0,0.0,62,core\src\main\java\org\apache\oozie\command\coord\CoordActionUpdatePushMissingDependency.java,0,0,0,0
org.apache.oozie.command.coord.CoordActionUpdateXCommand, 0, 0, 0, 0, 0, 0, 0, 0, 0, 0, 0, 0, 0, 0,0.0,0.0,0.0,0.30434782608695654,0.0,0.0,0.0,0.13043478260869565,0.0,0.0,0.0,0.0,0.0,142,core\src\main\java\org\apache\oozie\command\coord\CoordActionUpdateXCommand.java,0,0,0,0
org.apache.oozie.command.coord.CoordELExtensions, 0, 0, 0, 0, 0, 0, 0, 0, 0, 0, 0, 0, 0, 0,0.0,0.0,0.0,0.0,0.0,0.0,0.0,0.0,0.0,0.0,0.0,0.0,0.0,43,core\src\test\java\org\apache\oozie\command\coord\CoordELExtensions.java,0,0,0,0
org.apache.oozie.command.coord.CoordJobXCommand, 0, 0, 0, 0, 0, 0, 0, 1, 0, 0, 0, 0, 0, 1,0.0,0.0,0.0,0.2857142857142857,0.0,0.0,0.0,0.0,0.0,0.0,0.0,0.0,0.0,69,core\src\main\java\org\apache\oozie\command\coord\CoordJobXCommand.java,0,0,0,0
org.apache.oozie.command.coord.CoordKillXCommand, 0, 0, 0, 0, 0, 0, 0, 0, 0, 0, 0, 0, 0, 0,0.0,0.0,0.0,0.23809523809523808,0.0,0.0,0.0,0.047619047619047616,0.0,0.0,0.0,0.0,0.0,121,core\src\main\java\org\apache\oozie\command\coord\CoordKillXCommand.java,0,0,0,0
org.apache.oozie.command.coord.CoordPauseXCommand, 0, 0, 0, 0, 0, 0, 0, 0, 0, 0, 0, 0, 0, 0,0.0,0.0,0.0,0.25,0.0,0.0,0.0,0.0,0.0,0.0,0.0,0.0,0.0,51,core\src\main\java\org\apache\oozie\command\coord\CoordPauseXCommand.java,0,0,0,0
org.apache.oozie.command.coord.CoordRerunXCommand, 0, 0, 0, 1, 0, 0, 0, 1, 0, 0, 0, 0, 0, 2,0.047619047619047616,0.0,0.047619047619047616,0.23809523809523808,0.0,0.0,0.0,0.09523809523809523,0.0,0.0,0.0,0.0,0.0,272,core\src\main\java\org\apache\oozie\command\coord\CoordRerunXCommand.java,0,0,0,0
org.apache.oozie.command.coord.CoordResumeXCommand, 0, 0, 0, 0, 0, 0, 0, 0, 0, 0, 0, 0, 0, 0,0.0,0.0,0.0,0.25,0.0,0.0,0.0,0.05,0.0,0.0,0.0,0.0,0.0,116,core\src\main\java\org\apache\oozie\command\coord\CoordResumeXCommand.java,0,0,0,0
org.apache.oozie.command.coord.CoordSuspendXCommand, 0, 0, 0, 0, 0, 0, 0, 0, 0, 0, 0, 0, 0, 0,0.0,0.0,0.0,0.23809523809523808,0.0,0.0,0.0,0.09523809523809523,0.0,0.0,0.0,0.0,0.0,145,core\src\main\java\org\apache\oozie\command\coord\CoordSuspendXCommand.java,0,0,0,0
org.apache.oozie.command.coord.CoordUnpauseXCommand, 0, 0, 0, 0, 0, 0, 0, 0, 0, 0, 0, 0, 0, 0,0.0,0.0,0.0,0.25,0.0,0.0,0.0,0.0,0.0,0.0,0.0,0.0,0.0,51,core\src\main\java\org\apache\oozie\command\coord\CoordUnpauseXCommand.java,0,0,0,0
org.apache.oozie.command.coord.CoordXTestCase, 0, 0, 0, 0, 0, 0, 0, 0, 0, 0, 0, 0, 0, 0,0.0,0.0,0.0,0.0,0.0,0.0,0.0,0.0,0.0,0.0,0.0,0.0,0.0,17,core\src\test\java\org\apache\oozie\command\coord\CoordXTestCase.java,0,0,0,0
org.apache.oozie.command.coord.CoordinatorCommand, 0, 0, 0, 0, 0, 0, 0, 1, 0, 0, 0, 0, 0, 1,0.0,0.0,0.0,0.0,0.0,0.0,0.0,0.0,0.0,0.0,0.0,0.0,0.0,14,core\src\main\java\org\apache\oozie\command\coord\CoordinatorCommand.java,0,0,0,0
org.apache.oozie.command.coord.CoordinatorXCommand, 0, 0, 0, 0, 0, 0, 0, 0, 0, 0, 0, 0, 0, 0,0.0,0.0,0.0,0.3125,0.0,0.0,0.0,0.1875,0.0,0.0,0.0,0.0,0.0,36,core\src\main\java\org\apache\oozie\command\coord\CoordinatorXCommand.java,0,0,0,0
org.apache.oozie.command.coord.TestCoordActionInputCheckXCommandNonUTC, 0, 0, 0, 0, 0, 0, 0, 0, 0, 0, 0, 0, 0, 0,0.0,0.0,0.0,0.0,0.0,0.0,0.0,0.0,0.0,0.0,0.0,0.0,0.0,5,core\src\test\java\org\apache\oozie\command\coord\TestCoordActionInputCheckXCommandNonUTC.java,0,0,0,0
org.apache.oozie.command.coord.TestCoordActionMaterializeCommand, 0, 0, 0, 0, 0, 0, 0, 0, 0, 0, 0, 0, 0, 0,0.0,0.0,0.0,0.5,0.0,0.0,0.0,0.0,0.0,0.0,0.0,0.0,0.0,238,core\src\test\java\org\apache\oozie\command\coord\TestCoordActionMaterializeCommand.java,0,0,0,0
org.apache.oozie.command.coord.TestCoordActionNotificationXCommand, 0, 0, 0, 0, 0, 0, 0, 0, 0, 0, 0, 0, 0, 0,0.0,0.0,0.0,0.6666666666666666,0.0,0.0,0.0,0.0,0.0,0.0,0.0,0.0,0.0,43,core\src\test\java\org\apache\oozie\command\coord\TestCoordActionNotificationXCommand.java,0,0,0,0
org.apache.oozie.command.coord.TestCoordActionUpdatePushMissingDependency, 0, 0, 0, 0, 0, 0, 0, 0, 0, 0, 0, 0, 0, 0,0.0,0.0,0.0,0.4,0.0,0.0,0.0,0.0,0.0,0.0,0.0,0.0,0.0,73,core\src\test\java\org\apache\oozie\command\coord\TestCoordActionUpdatePushMissingDependency.java,0,0,0,0
org.apache.oozie.command.coord.TestCoordChangeXCommand, 0, 0, 0, 0, 0, 0, 0, 1, 0, 0, 0, 0, 0, 1,0.0,0.0,0.0,0.3076923076923077,0.0,0.0,0.0,0.0,0.0,0.0,0.0,0.0,0.0,432,core\src\test\java\org\apache\oozie\command\coord\TestCoordChangeXCommand.java,0,56,1,58
org.apache.oozie.command.coord.TestCoordCommandUtils, 0, 0, 0, 0, 0, 0, 0, 0, 0, 0, 0, 0, 0, 0,0.0,0.0,0.0,0.6666666666666666,0.0,0.0,0.0,0.0,0.0,0.0,0.0,0.0,0.0,207,core\src\test\java\org\apache\oozie\command\coord\TestCoordCommandUtils.java,0,0,0,0
org.apache.oozie.command.coord.TestCoordELExtensions, 0, 0, 0, 0, 0, 0, 0, 0, 0, 0, 0, 0, 0, 0,0.0,0.0,0.0,0.75,0.0,0.0,0.0,0.0,0.0,0.0,0.0,0.0,0.0,44,core\src\test\java\org\apache\oozie\command\coord\TestCoordELExtensions.java,0,0,0,0
org.apache.oozie.command.coord.TestCoordMaterializeTransitionXCommand, 0, 0, 0, 1, 0, 0, 0, 1, 0, 0, 0, 0, 0, 2,0.0,0.0,0.0,0.3076923076923077,0.0,0.0,0.0,0.0,0.0,0.0,0.0,0.0,0.0,286,core\src\test\java\org\apache\oozie\command\coord\TestCoordMaterializeTransitionXCommand.java,0,0,0,0
org.apache.oozie.command.coord.TestCoordResumeXCommand, 0, 0, 0, 0, 0, 0, 0, 0, 0, 0, 0, 0, 0, 0,0.0,0.0,0.0,0.3333333333333333,0.0,0.0,0.0,0.0,0.0,0.0,0.0,0.0,0.0,77,core\src\test\java\org\apache\oozie\command\coord\TestCoordResumeXCommand.java,0,0,0,0
org.apache.oozie.command.coord.TestCoordSubmitXCommand, 0, 0, 0, 1, 0, 0, 0, 0, 0, 0, 0, 0, 0, 1,0.0,0.0,0.0,0.42857142857142855,0.0,0.0,0.0,0.0,0.0,0.0,0.0,0.0,0.0,761,core\src\test\java\org\apache\oozie\command\coord\TestCoordSubmitXCommand.java,0,0,0,0
org.apache.oozie.command.coord.TestCoordSuspendXCommand, 0, 0, 0, 0, 0, 0, 0, 0, 0, 0, 0, 0, 0, 0,0.0,0.0,0.0,0.5,0.0,0.0,0.0,0.0,0.0,0.0,0.0,0.0,0.0,59,core\src\test\java\org\apache\oozie\command\coord\TestCoordSuspendXCommand.java,0,0,0,0
org.apache.oozie.command.coord.TestFutureActionsTimeOut, 0, 0, 0, 0, 0, 0, 0, 0, 0, 0, 0, 0, 0, 0,0.0,0.0,0.0,0.5,0.0,0.0,0.0,0.0,0.0,0.0,0.0,0.0,0.0,131,core\src\test\java\org\apache\oozie\command\coord\TestFutureActionsTimeOut.java,0,0,0,0
org.apache.oozie.command.coord.TestPastActionsTimeOut, 0, 0, 0, 0, 0, 0, 0, 0, 0, 0, 0, 0, 0, 0,0.0,0.0,0.0,0.5,0.0,0.0,0.0,0.0,0.0,0.0,0.0,0.0,0.0,95,core\src\test\java\org\apache\oozie\command\coord\TestPastActionsTimeOut.java,0,0,0,0
org.apache.oozie.command.wf.ActionCheckXCommand, 0, 0, 0, 1, 0, 0, 0, 0, 0, 0, 0, 0, 0, 1,0.0,0.0,0.0,0.21052631578947367,0.0,0.0,0.0,0.05263157894736842,0.0,0.0,0.0,0.0,0.0,177,core\src\main\java\org\apache\oozie\command\wf\ActionCheckXCommand.java,0,0,0,0
org.apache.oozie.command.wf.ActionEndXCommand, 0, 0, 0, 0, 0, 0, 0, 0, 0, 0, 0, 0, 0, 0,0.0,0.0,0.0,0.3157894736842105,0.0,0.0,0.0,0.10526315789473684,0.0,0.0,0.0,0.0,0.0,196,core\src\main\java\org\apache\oozie\command\wf\ActionEndXCommand.java,0,0,0,0
org.apache.oozie.command.wf.ActionKillXCommand, 0, 0, 0, 0, 0, 0, 0, 0, 0, 0, 0, 0, 0, 0,0.0,0.0,0.0,0.21052631578947367,0.0,0.0,0.0,0.10526315789473684,0.0,0.0,0.0,0.0,0.0,117,core\src\main\java\org\apache\oozie\command\wf\ActionKillXCommand.java,0,0,0,0
org.apache.oozie.command.wf.ActionStartXCommand, 0, 0, 0, 1, 0, 0, 0, 0, 0, 0, 0, 0, 0, 1,0.0,0.0,0.0,0.16666666666666666,0.0,0.0,0.0,0.08333333333333333,0.0,0.0,0.0,0.0,0.0,266,core\src\main\java\org\apache\oozie\command\wf\ActionStartXCommand.java,0,0,0,0
org.apache.oozie.command.wf.ActionXCommand, 0, 0, 0, 0, 0, 0, 0, 1, 0, 0, 0, 0, 0, 1,0.0,0.0,0.0,0.35294117647058826,0.0,0.0,0.0,0.058823529411764705,0.0,0.0,0.0,0.0,0.0,233,core\src\main\java\org\apache\oozie\command\wf\ActionXCommand.java,0,0,0,0
org.apache.oozie.command.wf.CompletedActionXCommand, 0, 0, 0, 0, 0, 0, 0, 0, 0, 0, 0, 0, 0, 0,0.0,0.0,0.0,0.42857142857142855,0.0,0.0,0.0,0.0,0.0,0.0,0.0,0.0,0.0,62,core\src\main\java\org\apache\oozie\command\wf\CompletedActionXCommand.java,0,0,0,0
org.apache.oozie.command.wf.DefinitionXCommand, 0, 0, 0, 0, 0, 0, 0, 0, 0, 0, 0, 0, 0, 0,0.0,0.0,0.0,0.16666666666666666,0.0,0.0,0.0,0.0,0.0,0.0,0.0,0.0,0.0,44,core\src\main\java\org\apache\oozie\command\wf\DefinitionXCommand.java,0,0,0,0
org.apache.oozie.command.wf.ExternalIdXCommand, 0, 0, 0, 0, 0, 0, 0, 0, 0, 0, 0, 0, 0, 0,0.0,0.0,0.0,0.0,0.0,0.0,0.0,0.0,0.0,0.0,0.0,0.0,0.0,38,core\src\main\java\org\apache\oozie\command\wf\ExternalIdXCommand.java,0,0,0,0
org.apache.oozie.command.wf.HangServlet, 0, 0, 0, 0, 0, 0, 0, 0, 0, 0, 0, 0, 0, 0,0.0,0.0,0.0,0.0,0.0,0.0,0.0,0.0,0.0,0.0,0.0,0.0,0.0,10,core\src\test\java\org\apache\oozie\command\wf\HangServlet.java,0,0,0,0
org.apache.oozie.command.wf.JobXCommand, 0, 0, 0, 0, 0, 0, 0, 0, 0, 0, 0, 0, 0, 0,0.0,0.0,0.0,0.3333333333333333,0.0,0.0,0.0,0.0,0.0,0.0,0.0,0.0,0.0,52,core\src\main\java\org\apache\oozie\command\wf\JobXCommand.java,0,0,0,0
org.apache.oozie.command.wf.KillXCommand, 0, 0, 0, 0, 0, 0, 0, 0, 0, 0, 0, 0, 0, 0,0.0,0.0,0.0,0.16666666666666666,0.0,0.0,0.0,0.08333333333333333,0.0,0.0,0.0,0.0,0.0,120,core\src\main\java\org\apache\oozie\command\wf\KillXCommand.java,0,0,0,0
org.apache.oozie.command.wf.NotificationXCommand, 0, 0, 0, 0, 0, 0, 0, 0, 0, 0, 0, 0, 0, 0,0.0,0.0,0.0,0.38461538461538464,0.0,0.0,0.0,0.15384615384615385,0.0,0.0,0.0,0.0,0.0,85,core\src\main\java\org\apache\oozie\command\wf\NotificationXCommand.java,0,0,0,0
org.apache.oozie.command.wf.ResumeXCommand, 0, 0, 0, 0, 0, 0, 0, 0, 0, 0, 0, 0, 0, 0,0.0,0.0,0.0,0.2,0.0,0.0,0.0,0.0,0.0,0.0,0.0,0.0,0.0,124,core\src\main\java\org\apache\oozie\command\wf\ResumeXCommand.java,0,0,0,0
org.apache.oozie.command.wf.StartXCommand, 0, 0, 0, 0, 0, 0, 0, 0, 0, 0, 0, 0, 0, 0,0.0,0.0,0.0,0.0,0.0,0.0,0.0,0.0,0.0,0.0,0.0,0.0,0.0,6,core\src\main\java\org\apache\oozie\command\wf\StartXCommand.java,0,0,0,0
org.apache.oozie.command.wf.SubmitHiveXCommand, 0, 0, 0, 0, 0, 0, 0, 0, 0, 0, 0, 0, 0, 0,0.0,0.0,0.0,0.0,0.0,0.0,0.0,0.0,0.0,0.0,0.0,0.0,0.0,17,core\src\main\java\org\apache\oozie\command\wf\SubmitHiveXCommand.java,0,0,0,0
org.apache.oozie.command.wf.SubmitPigXCommand, 0, 0, 0, 0, 0, 0, 0, 0, 0, 0, 0, 0, 0, 0,0.0,0.0,0.0,0.0,0.0,0.0,0.0,0.0,0.0,0.0,0.0,0.0,0.0,13,core\src\main\java\org\apache\oozie\command\wf\SubmitPigXCommand.java,0,0,0,0
org.apache.oozie.command.wf.SubmitScriptLanguageXCommand, 0, 0, 0, 0, 0, 0, 0, 0, 0, 0, 0, 0, 0, 0,0.0,0.0,0.0,0.0,0.0,0.0,0.0,0.0,0.0,0.0,0.0,0.0,0.0,129,core\src\main\java\org\apache\oozie\command\wf\SubmitScriptLanguageXCommand.java,0,0,0,0
org.apache.oozie.command.wf.SuspendXCommand, 0, 0, 0, 0, 0, 0, 0, 1, 0, 0, 0, 0, 0, 1,0.0,0.0,0.0,0.2222222222222222,0.0,0.0,0.0,0.05555555555555555,0.0,0.0,0.0,0.0,0.0,110,core\src\main\java\org\apache\oozie\command\wf\SuspendXCommand.java,0,0,0,0
org.apache.oozie.command.wf.TestActionCheckXCommand, 0, 0, 0, 0, 0, 0, 0, 0, 0, 0, 0, 0, 0, 0,0.0,0.0,0.0,0.46153846153846156,0.0,0.0,0.0,0.07692307692307693,0.0,0.0,0.0,0.0,0.0,360,core\src\test\java\org\apache\oozie\command\wf\TestActionCheckXCommand.java,0,0,0,0
org.apache.oozie.command.wf.TestActionErrors, 0, 0, 0, 1, 0, 0, 0, 0, 0, 0, 0, 0, 0, 1,0.0,0.0,0.0,0.5555555555555556,0.0,0.0,0.0,0.0,0.0,0.0,0.0,0.0,0.0,374,core\src\test\java\org\apache\oozie\command\wf\TestActionErrors.java,0,0,0,0
org.apache.oozie.command.wf.TestNotificationXCommand, 0, 0, 0, 0, 0, 0, 0, 0, 0, 0, 0, 0, 0, 0,0.0,0.0,0.0,0.6666666666666666,0.0,0.0,0.0,0.0,0.0,0.0,0.0,0.0,0.0,44,core\src\test\java\org\apache\oozie\command\wf\TestNotificationXCommand.java,0,0,0,0
org.apache.oozie.command.wf.TestSubmitXCommand, 0, 0, 0, 0, 0, 0, 0, 0, 0, 0, 0, 0, 0, 0,0.0,0.0,0.0,0.25,0.0,0.0,0.0,0.0,0.0,0.0,0.0,0.0,0.0,182,core\src\test\java\org\apache\oozie\command\wf\TestSubmitXCommand.java,0,0,0,0
org.apache.oozie.command.wf.TestWorkflowActionKillXCommand, 0, 0, 0, 0, 0, 0, 0, 0, 0, 0, 0, 0, 0, 0,0.0,0.0,0.0,0.3333333333333333,0.0,0.0,0.0,0.1111111111111111,0.0,0.0,0.0,0.0,0.0,97,core\src\test\java\org\apache\oozie\command\wf\TestWorkflowActionKillXCommand.java,0,24,7,38
org.apache.oozie.command.wf.TestWorkflowKillXCommand, 0, 0, 0, 0, 0, 0, 0, 0, 0, 0, 0, 0, 0, 0,0.0,0.0,0.0,0.5,0.0,0.0,0.0,0.0,0.0,0.0,0.0,0.0,0.0,150,core\src\test\java\org\apache\oozie\command\wf\TestWorkflowKillXCommand.java,0,0,0,0
org.apache.oozie.command.wf.WfEndXCommand, 0, 0, 0, 0, 0, 0, 0, 0, 0, 0, 0, 0, 0, 0,0.0,0.0,0.0,0.25,0.0,0.0,0.0,0.0,0.0,0.0,0.0,0.0,0.0,54,core\src\main\java\org\apache\oozie\command\wf\WfEndXCommand.java,0,0,0,0
org.apache.oozie.command.wf.WorkflowActionInfoXCommand, 0, 0, 0, 0, 0, 0, 0, 0, 0, 0, 0, 0, 0, 0,0.0,0.0,0.0,0.2,0.0,0.0,0.0,0.0,0.0,0.0,0.0,0.0,0.0,40,core\src\main\java\org\apache\oozie\command\wf\WorkflowActionInfoXCommand.java,0,0,0,0
org.apache.oozie.command.wf.WorkflowXCommand, 0, 0, 0, 0, 0, 0, 0, 0, 0, 0, 0, 0, 0, 0,0.0,0.0,0.0,0.2857142857142857,0.0,0.0,0.0,0.19047619047619047,0.0,0.0,0.0,0.0,0.0,29,core\src\main\java\org\apache\oozie\command\wf\WorkflowXCommand.java,0,0,0,0
org.apache.oozie.coord.CoordELConstants, 0, 0, 0, 0, 0, 0, 0, 0, 0, 0, 0, 0, 0, 0,0.0,0.0,0.0,0.0,0.0,0.0,0.0,0.0,0.0,0.0,0.0,0.0,0.0,11,core\src\main\java\org\apache\oozie\coord\CoordELConstants.java,0,0,0,0
org.apache.oozie.coord.CoordinatorJobException, 0, 0, 0, 0, 0, 0, 0, 0, 0, 0, 0, 0, 0, 0,0.0,0.0,0.0,0.0,0.0,0.0,0.0,0.0,0.0,0.0,0.0,0.0,0.0,8,core\src\main\java\org\apache\oozie\coord\CoordinatorJobException.java,0,0,0,0
org.apache.oozie.coord.SyncCoordAction, 0, 0, 0, 1, 0, 0, 0, 0, 0, 0, 0, 0, 0, 1,0.0,0.0,0.0,1.0,0.0,0.0,0.0,0.0,0.0,0.0,0.0,0.0,0.0,58,core\src\main\java\org\apache\oozie\coord\SyncCoordAction.java,0,0,0,0
org.apache.oozie.coord.SyncCoordDataset, 0, 0, 0, 1, 0, 0, 0, 0, 0, 0, 0, 0, 0, 1,0.0,0.0,0.0,1.0,0.0,0.0,0.0,0.0,0.0,0.0,0.0,0.0,0.0,65,core\src\main\java\org\apache\oozie\coord\SyncCoordDataset.java,0,0,0,0
org.apache.oozie.coord.TestCoordUtils, 0, 0, 0, 0, 0, 0, 0, 0, 0, 0, 0, 0, 0, 0,0.0,0.0,0.0,1.0,0.0,0.0,0.0,0.0,0.0,0.0,0.0,0.0,0.0,60,core\src\test\java\org\apache\oozie\coord\TestCoordUtils.java,0,0,0,0
org.apache.oozie.coord.TestHCatELFunctions, 0, 0, 0, 1, 0, 0, 0, 0, 0, 0, 0, 0, 0, 1,0.0,0.0,0.0,0.75,0.0,0.0,0.0,0.0,0.0,0.0,0.0,0.0,0.0,295,core\src\test\java\org\apache\oozie\coord\TestHCatELFunctions.java,0,0,0,0
org.apache.oozie.dependency.ActionDependency, 0, 0, 0, 0, 0, 0, 0, 0, 0, 0, 0, 0, 0, 0,0.0,0.0,0.0,0.0,0.0,0.0,0.0,0.0,0.0,0.0,0.0,0.0,0.0,14,core\src\main\java\org\apache\oozie\dependency\ActionDependency.java,0,0,0,0
org.apache.oozie.dependency.DependencyChecker, 0, 0, 0, 0, 0, 0, 0, 0, 0, 0, 0, 0, 0, 0,0.0,0.0,0.0,0.0,0.0,0.0,0.0,0.0,0.0,0.0,0.0,0.0,0.0,52,core\src\main\java\org\apache\oozie\dependency\DependencyChecker.java,0,0,0,0
org.apache.oozie.dependency.FSURIHandler, 0, 0, 0, 0, 0, 0, 0, 0, 0, 0, 0, 0, 0, 0,0.0,0.0,0.0,0.0,0.0,0.0,0.0,0.0,0.0,0.0,0.0,0.0,0.0,94,core\src\main\java\org\apache\oozie\dependency\FSURIHandler.java,0,0,0,0
org.apache.oozie.dependency.TestFSURIHandler, 0, 0, 0, 0, 0, 0, 0, 0, 0, 0, 0, 0, 0, 0,0.0,0.0,0.0,0.0,0.0,0.0,0.0,0.0,0.0,0.0,0.0,0.0,0.0,29,core\src\test\java\org\apache\oozie\dependency\TestFSURIHandler.java,0,0,0,0
org.apache.oozie.dependency.TestHCatURIHandler, 0, 0, 0, 0, 0, 0, 0, 0, 0, 0, 0, 0, 0, 0,0.0,0.0,0.0,0.0,0.0,0.0,0.0,0.0,0.0,0.0,0.0,0.0,0.0,54,core\src\test\java\org\apache\oozie\dependency\TestHCatURIHandler.java,0,0,0,0
org.apache.oozie.dependency.TestURIHandlerService, 0, 0, 0, 0, 0, 0, 0, 0, 0, 0, 0, 0, 0, 0,0.0,0.0,0.0,0.0,0.0,0.0,0.0,0.0,0.0,0.0,0.0,0.0,0.0,37,core\src\test\java\org\apache\oozie\dependency\TestURIHandlerService.java,0,0,0,0
org.apache.oozie.dependency.URIHandler, 0, 0, 0, 0, 0, 0, 0, 0, 0, 0, 0, 0, 0, 0,0.0,0.0,0.0,0.0,0.0,0.0,0.0,0.0,0.0,0.0,0.0,0.0,0.0,37,core\src\main\java\org\apache\oozie\dependency\URIHandler.java,0,0,0,0
org.apache.oozie.dependency.URIHandlerException, 0, 0, 0, 0, 0, 0, 0, 0, 0, 0, 0, 0, 0, 0,0.0,0.0,0.0,0.0,0.0,0.0,0.0,0.0,0.0,0.0,0.0,0.0,0.0,8,core\src\main\java\org\apache\oozie\dependency\URIHandlerException.java,0,0,0,0
org.apache.oozie.dependency.hcat.WaitingAction, 0, 0, 0, 0, 0, 0, 0, 0, 0, 0, 0, 0, 0, 0,0.0,0.0,0.0,0.0,0.0,0.0,0.0,0.0,0.0,0.0,0.0,0.0,0.0,35,core\src\main\java\org\apache\oozie\dependency\hcat\WaitingAction.java,0,0,0,0
org.apache.oozie.dependency.hcat.WaitingActions, 0, 0, 0, 0, 0, 0, 0, 0, 0, 0, 0, 0, 0, 0,0.0,0.0,0.0,0.0,0.0,0.0,0.0,0.0,0.0,0.0,0.0,0.0,0.0,13,core\src\main\java\org\apache\oozie\dependency\hcat\WaitingActions.java,0,0,0,0
org.apache.oozie.event.BundleJobEvent, 0, 0, 0, 0, 0, 0, 0, 1, 0, 0, 0, 0, 0, 1,0.0,0.0,0.0,0.5,0.0,0.0,0.0,0.5,0.0,0.0,0.0,0.0,0.0,32,core\src\main\java\org\apache\oozie\event\BundleJobEvent.java,0,0,0,0
org.apache.oozie.event.CoordinatorActionEvent, 0, 0, 0, 0, 0, 0, 0, 1, 0, 0, 0, 0, 0, 1,0.14285714285714285,0.0,0.0,0.2857142857142857,0.0,0.0,0.0,0.14285714285714285,0.0,0.0,0.0,0.0,0.0,69,core\src\main\java\org\apache\oozie\event\CoordinatorActionEvent.java,0,0,0,0
org.apache.oozie.event.CoordinatorJobEvent, 0, 0, 0, 0, 0, 0, 0, 1, 0, 0, 0, 0, 0, 1,0.2,0.0,0.0,0.2,0.0,0.0,0.0,0.2,0.0,0.0,0.0,0.0,0.0,34,core\src\main\java\org\apache\oozie\event\CoordinatorJobEvent.java,0,0,0,0
org.apache.oozie.event.EventQueue, 0, 0, 0, 0, 0, 0, 0, 0, 0, 0, 0, 0, 0, 0,0.0,0.0,0.0,0.0,0.0,0.0,0.0,0.0,0.0,0.0,0.0,0.0,0.0,34,core\src\main\java\org\apache\oozie\event\EventQueue.java,0,0,0,0
org.apache.oozie.event.MemoryEventQueue, 0, 0, 0, 0, 0, 0, 0, 0, 0, 0, 0, 0, 0, 0,0.0,0.0,0.0,0.0,0.0,0.0,0.0,0.0,0.0,0.0,0.0,0.0,0.0,83,core\src\main\java\org\apache\oozie\event\MemoryEventQueue.java,0,0,0,0
org.apache.oozie.event.WorkflowActionEvent, 0, 0, 0, 0, 0, 0, 0, 1, 0, 0, 0, 0, 0, 1,0.2,0.0,0.0,0.2,0.0,0.0,0.0,0.2,0.0,0.0,0.0,0.0,0.0,54,core\src\main\java\org\apache\oozie\event\WorkflowActionEvent.java,0,0,0,0
org.apache.oozie.event.WorkflowJobEvent, 0, 0, 0, 0, 0, 0, 0, 1, 0, 0, 0, 0, 0, 1,0.14285714285714285,0.0,0.0,0.2857142857142857,0.0,0.0,0.0,0.14285714285714285,0.0,0.0,0.0,0.0,0.0,48,core\src\main\java\org\apache\oozie\event\WorkflowJobEvent.java,0,0,0,0
org.apache.oozie.event.listener.JobEventListener, 0, 0, 0, 0, 0, 0, 0, 0, 0, 0, 0, 0, 0, 0,0.0,0.0,0.0,0.0,0.0,0.0,0.0,0.8333333333333334,0.0,0.0,0.0,0.0,0.0,9,core\src\main\java\org\apache\oozie\event\listener\JobEventListener.java,0,0,0,0
org.apache.oozie.event.messaging.JSONMessageSerializer, 0, 0, 0, 0, 0, 0, 0, 0, 0, 0, 0, 0, 0, 0,1.0,0.0,0.0,0.0,0.0,0.0,0.0,0.0,0.0,0.0,0.0,0.0,0.0,16,core\src\main\java\org\apache\oozie\event\messaging\JSONMessageSerializer.java,0,0,0,0
org.apache.oozie.event.messaging.MessageFactory, 0, 0, 0, 0, 0, 0, 0, 0, 0, 0, 0, 0, 0, 0,0.1111111111111111,0.0,0.0,0.4444444444444444,0.0,0.0,0.0,0.6666666666666666,0.0,0.0,0.0,0.0,0.0,45,core\src\main\java\org\apache\oozie\event\messaging\MessageFactory.java,0,0,0,0
org.apache.oozie.event.messaging.MessageSerializer, 1, 0, 0, 0, 0, 0, 0, 0, 0, 0, 0, 0, 0, 1,0.0,0.0,0.0,0.3333333333333333,0.0,0.0,0.0,0.0,0.0,0.0,0.0,0.0,0.0,5,core\src\main\java\org\apache\oozie\event\messaging\MessageSerializer.java,0,0,0,0
org.apache.oozie.example.DemoJavaMain, 0, 0, 0, 0, 0, 0, 0, 0, 0, 0, 0, 0, 0, 0,0.0,0.0,0.0,0.0,0.0,0.0,0.0,0.0,0.0,0.0,0.0,0.0,0.0,9,examples\src\main\java\org\apache\oozie\example\DemoJavaMain.java,0,0,0,0
org.apache.oozie.example.DemoMapReduceMain, 0, 0, 0, 0, 0, 0, 0, 0, 0, 0, 0, 0, 0, 0,0.0,0.0,0.0,0.0,0.0,0.0,0.0,0.0,0.0,0.0,0.0,0.0,0.0,2,examples\src\main\java\org\apache\oozie\example\DemoMapReduceMain.java,0,0,0,0
org.apache.oozie.example.DemoMapper, 0, 0, 0, 0, 0, 0, 0, 0, 0, 0, 0, 0, 0, 0,0.0,0.0,0.0,0.0,0.0,0.0,0.0,0.0,0.0,0.0,0.0,0.0,0.0,13,examples\src\main\java\org\apache\oozie\example\DemoMapper.java,0,0,0,0
org.apache.oozie.example.DemoPigMain, 0, 0, 0, 0, 0, 0, 0, 0, 0, 0, 0, 0, 0, 0,0.0,0.0,0.0,0.0,0.0,0.0,0.0,0.0,0.0,0.0,0.0,0.0,0.0,2,examples\src\main\java\org\apache\oozie\example\DemoPigMain.java,0,0,0,0
org.apache.oozie.example.DemoReducer, 0, 0, 0, 0, 0, 0, 0, 0, 0, 0, 0, 0, 0, 0,0.0,0.0,0.0,0.0,0.0,0.0,0.0,0.0,0.0,0.0,0.0,0.0,0.0,10,examples\src\main\java\org\apache\oozie\example\DemoReducer.java,0,0,0,0
org.apache.oozie.example.Repeatable, 0, 0, 0, 1, 0, 0, 0, 0, 0, 0, 0, 0, 0, 1,0.0,0.0,0.0,0.0,0.0,0.0,0.0,0.0,0.0,0.0,0.0,0.0,0.0,99,examples\src\main\java\org\apache\oozie\example\Repeatable.java,0,0,0,0
org.apache.oozie.example.SampleMapper, 0, 0, 0, 0, 0, 0, 0, 0, 0, 0, 0, 0, 0, 0,0.0,0.0,0.0,0.0,0.0,0.0,0.0,0.0,0.0,0.0,0.0,0.0,0.0,10,examples\src\main\java\org\apache\oozie\example\SampleMapper.java,0,0,0,0
org.apache.oozie.example.SampleReducer, 0, 0, 0, 0, 0, 0, 0, 0, 0, 0, 0, 0, 0, 0,0.0,0.0,0.0,0.0,0.0,0.0,0.0,0.0,0.0,0.0,0.0,0.0,0.0,12,examples\src\main\java\org\apache\oozie\example\SampleReducer.java,0,0,0,0
org.apache.oozie.executor.jpa.BulkUpdateDeleteJPAExecutor, 0, 0, 0, 0, 0, 0, 0, 0, 0, 0, 0, 0, 0, 0,0.0,0.0,0.0,0.25,0.0,0.0,0.0,0.0,0.0,0.0,0.0,0.0,0.0,64,core\src\main\java\org\apache\oozie\executor\jpa\BulkUpdateDeleteJPAExecutor.java,0,0,0,0
org.apache.oozie.executor.jpa.BulkUpdateInsertForCoordActionStartJPAExecutor, 0, 0, 0, 0, 0, 0, 0, 0, 0, 0, 0, 0, 0, 0,0.0,0.0,0.0,0.5,0.0,0.0,0.0,0.0,0.0,0.0,0.0,0.0,0.0,58,core\src\main\java\org\apache\oozie\executor\jpa\BulkUpdateInsertForCoordActionStartJPAExecutor.java,0,0,0,0
org.apache.oozie.executor.jpa.BulkUpdateInsertForCoordActionStatusJPAExecutor, 0, 0, 0, 0, 0, 0, 0, 0, 0, 0, 0, 0, 0, 0,0.0,0.0,0.0,0.2,0.0,0.0,0.0,0.0,0.0,0.0,0.0,0.0,0.0,54,core\src\main\java\org\apache\oozie\executor\jpa\BulkUpdateInsertForCoordActionStatusJPAExecutor.java,0,0,0,0
org.apache.oozie.executor.jpa.BulkUpdateInsertJPAExecutor, 0, 0, 0, 0, 0, 0, 0, 0, 0, 0, 0, 0, 0, 0,0.0,0.0,0.0,0.21428571428571427,0.0,0.0,0.0,0.14285714285714285,0.0,0.0,0.0,0.0,0.0,42,core\src\main\java\org\apache\oozie\executor\jpa\BulkUpdateInsertJPAExecutor.java,0,0,0,0
org.apache.oozie.executor.jpa.BundleActionGetJPAExecutor, 0, 0, 0, 0, 0, 0, 0, 0, 0, 0, 0, 0, 0, 0,0.0,0.0,0.0,0.3333333333333333,0.0,0.0,0.0,0.3333333333333333,0.0,0.0,0.0,0.0,0.0,33,core\src\main\java\org\apache\oozie\executor\jpa\BundleActionGetJPAExecutor.java,0,0,0,0
org.apache.oozie.executor.jpa.BundleActionInsertJPAExecutor, 0, 0, 0, 0, 0, 0, 0, 0, 0, 0, 0, 0, 0, 0,0.0,0.0,0.0,0.5,0.0,0.0,0.0,0.0,0.0,0.0,0.0,0.0,0.0,16,core\src\main\java\org\apache\oozie\executor\jpa\BundleActionInsertJPAExecutor.java,0,0,0,0
org.apache.oozie.executor.jpa.BundleActionUpdateJPAExecutor, 0, 0, 0, 0, 0, 0, 0, 0, 0, 0, 0, 0, 0, 0,0.0,0.0,0.0,0.5,0.0,0.0,0.0,0.0,0.0,0.0,0.0,0.0,0.0,16,core\src\main\java\org\apache\oozie\executor\jpa\BundleActionUpdateJPAExecutor.java,0,0,0,0
org.apache.oozie.executor.jpa.BundleActionsCountForJobGetJPAExecutor, 0, 0, 0, 0, 0, 0, 0, 0, 0, 0, 0, 0, 0, 0,0.0,0.0,0.0,0.0,0.0,0.0,0.0,0.0,0.0,0.0,0.0,0.0,0.0,23,core\src\main\java\org\apache\oozie\executor\jpa\BundleActionsCountForJobGetJPAExecutor.java,0,0,0,0
org.apache.oozie.executor.jpa.BundleActionsGetByLastModifiedTimeJPAExecutor, 0, 0, 0, 0, 0, 0, 0, 0, 0, 0, 0, 0, 0, 0,0.0,0.0,0.0,0.0,0.0,0.0,0.0,0.0,0.0,0.0,0.0,0.0,0.0,24,core\src\main\java\org\apache\oozie\executor\jpa\BundleActionsGetByLastModifiedTimeJPAExecutor.java,0,0,0,0
org.apache.oozie.executor.jpa.BundleActionsGetJPAExecutor, 0, 0, 0, 0, 0, 0, 0, 0, 0, 0, 0, 0, 0, 0,0.0,0.0,0.0,0.0,0.0,0.0,0.0,0.0,0.0,0.0,0.0,0.0,0.0,25,core\src\main\java\org\apache\oozie\executor\jpa\BundleActionsGetJPAExecutor.java,0,0,0,0
org.apache.oozie.executor.jpa.BundleActionsGetStatusPendingJPAExecutor, 0, 0, 0, 0, 0, 0, 0, 0, 0, 0, 0, 0, 0, 0,0.0,0.0,0.0,0.5,0.0,0.0,0.0,0.0,0.0,0.0,0.0,0.0,0.0,42,core\src\main\java\org\apache\oozie\executor\jpa\BundleActionsGetStatusPendingJPAExecutor.java,0,0,0,0
org.apache.oozie.executor.jpa.BundleActionsGetWaitingOlderJPAExecutor, 0, 0, 0, 0, 0, 0, 0, 0, 0, 0, 0, 0, 0, 0,0.0,0.0,0.0,0.0,0.0,0.0,0.0,0.0,0.0,0.0,0.0,0.0,0.0,25,core\src\main\java\org\apache\oozie\executor\jpa\BundleActionsGetWaitingOlderJPAExecutor.java,0,0,0,0
org.apache.oozie.executor.jpa.BundleJobGetCoordinatorsJPAExecutor, 0, 0, 0, 0, 0, 0, 0, 0, 0, 0, 0, 0, 0, 0,0.0,0.0,0.0,0.3333333333333333,0.0,0.0,0.0,0.0,0.0,0.0,0.0,0.0,0.0,32,core\src\main\java\org\apache\oozie\executor\jpa\BundleJobGetCoordinatorsJPAExecutor.java,0,0,0,0
org.apache.oozie.executor.jpa.BundleJobGetForUserJPAExecutor, 0, 0, 0, 0, 0, 0, 0, 0, 0, 0, 0, 0, 0, 0,0.0,0.0,0.0,0.0,0.0,0.0,0.0,0.0,0.0,0.0,0.0,0.0,0.0,22,core\src\main\java\org\apache\oozie\executor\jpa\BundleJobGetForUserJPAExecutor.java,0,0,0,0
org.apache.oozie.executor.jpa.BundleJobGetJPAExecutor, 0, 0, 0, 0, 0, 0, 0, 0, 0, 0, 0, 0, 0, 0,0.0,0.0,0.0,0.21052631578947367,0.0,0.0,0.0,0.21052631578947367,0.0,0.0,0.0,0.0,0.0,33,core\src\main\java\org\apache\oozie\executor\jpa\BundleJobGetJPAExecutor.java,0,0,0,0
org.apache.oozie.executor.jpa.BundleJobInsertJPAExecutor, 0, 0, 0, 0, 0, 0, 0, 0, 0, 0, 0, 0, 0, 0,0.0,0.0,0.0,0.5,0.0,0.0,0.0,0.3333333333333333,0.0,0.0,0.0,0.0,0.0,16,core\src\main\java\org\apache\oozie\executor\jpa\BundleJobInsertJPAExecutor.java,0,0,0,0
org.apache.oozie.executor.jpa.BundleJobUpdateJPAExecutor, 0, 0, 0, 0, 0, 0, 0, 0, 0, 0, 0, 0, 0, 0,0.0,0.0,0.0,0.25,0.0,0.0,0.0,0.25,0.0,0.0,0.0,0.0,0.0,16,core\src\main\java\org\apache\oozie\executor\jpa\BundleJobUpdateJPAExecutor.java,0,0,0,0
org.apache.oozie.executor.jpa.BundleJobsDeleteJPAExecutor, 0, 0, 0, 0, 0, 0, 0, 0, 0, 0, 0, 0, 0, 0,0.0,0.0,0.0,0.25,0.0,0.0,0.0,0.0,0.0,0.0,0.0,0.0,0.0,37,core\src\main\java\org\apache\oozie\executor\jpa\BundleJobsDeleteJPAExecutor.java,0,0,0,0
org.apache.oozie.executor.jpa.BundleJobsGetForPurgeJPAExecutor, 0, 0, 0, 0, 0, 0, 0, 0, 0, 0, 0, 0, 0, 0,0.0,0.0,0.0,0.5,0.0,0.0,0.0,0.0,0.0,0.0,0.0,0.0,0.0,35,core\src\main\java\org\apache\oozie\executor\jpa\BundleJobsGetForPurgeJPAExecutor.java,0,0,0,0
org.apache.oozie.executor.jpa.BundleJobsGetNeedStartJPAExecutor, 0, 0, 0, 0, 0, 0, 0, 0, 0, 0, 0, 0, 0, 0,0.0,0.0,0.0,0.0,0.0,0.0,0.0,0.0,0.0,0.0,0.0,0.0,0.0,28,core\src\main\java\org\apache\oozie\executor\jpa\BundleJobsGetNeedStartJPAExecutor.java,0,0,0,0
org.apache.oozie.executor.jpa.BundleJobsGetPausedJPAExecutor, 0, 0, 0, 0, 0, 0, 0, 0, 0, 0, 0, 0, 0, 0,0.0,0.0,0.0,0.0,0.0,0.0,0.0,0.0,0.0,0.0,0.0,0.0,0.0,30,core\src\main\java\org\apache\oozie\executor\jpa\BundleJobsGetPausedJPAExecutor.java,0,0,0,0
org.apache.oozie.executor.jpa.BundleJobsGetRunningOrPendingJPAExecutor, 0, 0, 0, 0, 0, 0, 0, 0, 0, 0, 0, 0, 0, 0,0.0,0.0,0.0,0.0,0.0,0.0,0.0,0.0,0.0,0.0,0.0,0.0,0.0,30,core\src\main\java\org\apache\oozie\executor\jpa\BundleJobsGetRunningOrPendingJPAExecutor.java,0,0,0,0
org.apache.oozie.executor.jpa.BundleJobsGetUnpausedJPAExecutor, 0, 0, 0, 0, 0, 0, 0, 0, 0, 0, 0, 0, 0, 0,0.0,0.0,0.0,0.0,0.0,0.0,0.0,0.0,0.0,0.0,0.0,0.0,0.0,30,core\src\main\java\org\apache\oozie\executor\jpa\BundleJobsGetUnpausedJPAExecutor.java,0,0,0,0
org.apache.oozie.executor.jpa.CoordActionGetForCheckJPAExecutor, 0, 0, 0, 0, 0, 0, 0, 0, 0, 0, 0, 0, 0, 0,0.0,0.0,0.0,0.4,0.0,0.0,0.0,0.2,0.0,0.0,0.0,0.0,0.0,55,core\src\main\java\org\apache\oozie\executor\jpa\CoordActionGetForCheckJPAExecutor.java,0,0,0,0
org.apache.oozie.executor.jpa.CoordActionGetForExternalIdJPAExecutor, 0, 0, 0, 0, 0, 0, 0, 0, 0, 0, 0, 0, 0, 0,0.0,0.0,0.0,0.5,0.0,0.0,0.0,0.16666666666666666,0.0,0.0,0.0,0.0,0.0,59,core\src\main\java\org\apache\oozie\executor\jpa\CoordActionGetForExternalIdJPAExecutor.java,0,0,0,0
org.apache.oozie.executor.jpa.CoordActionGetForInfoJPAExecutor, 0, 0, 0, 0, 0, 0, 0, 0, 0, 0, 0, 0, 0, 0,0.0,0.0,0.0,0.4,0.0,0.0,0.0,0.2,0.0,0.0,0.0,0.0,0.0,128,core\src\main\java\org\apache\oozie\executor\jpa\CoordActionGetForInfoJPAExecutor.java,0,0,0,0
org.apache.oozie.executor.jpa.CoordActionGetForInputCheckJPAExecutor, 0, 0, 0, 0, 0, 0, 0, 0, 0, 0, 0, 0, 0, 0,0.0,0.0,0.0,0.5,0.0,0.0,0.0,0.25,0.0,0.0,0.0,0.0,0.0,58,core\src\main\java\org\apache\oozie\executor\jpa\CoordActionGetForInputCheckJPAExecutor.java,0,0,0,0
org.apache.oozie.executor.jpa.CoordActionGetForSLAJPAExecutor, 0, 0, 0, 0, 0, 0, 0, 0, 0, 0, 0, 0, 0, 0,0.0,0.0,0.0,0.6666666666666666,0.0,0.0,0.0,0.0,0.0,0.0,0.0,0.0,0.0,43,core\src\main\java\org\apache\oozie\executor\jpa\CoordActionGetForSLAJPAExecutor.java,0,0,0,0
org.apache.oozie.executor.jpa.CoordActionGetForStartJPAExecutor, 0, 0, 0, 0, 0, 0, 0, 0, 0, 0, 0, 0, 0, 0,0.0,0.0,0.0,0.5,0.0,0.0,0.0,0.25,0.0,0.0,0.0,0.0,0.0,64,core\src\main\java\org\apache\oozie\executor\jpa\CoordActionGetForStartJPAExecutor.java,0,0,0,0
org.apache.oozie.executor.jpa.CoordActionGetForTimeoutJPAExecutor, 0, 0, 0, 0, 0, 0, 0, 0, 0, 0, 0, 0, 0, 0,0.0,0.0,0.0,0.4,0.0,0.0,0.0,0.2,0.0,0.0,0.0,0.0,0.0,49,core\src\main\java\org\apache\oozie\executor\jpa\CoordActionGetForTimeoutJPAExecutor.java,0,0,0,0
org.apache.oozie.executor.jpa.CoordActionGetJPAExecutor, 0, 0, 0, 0, 0, 0, 0, 0, 0, 0, 0, 0, 0, 0,0.0,0.0,0.0,0.3157894736842105,0.0,0.0,0.0,0.21052631578947367,0.0,0.0,0.0,0.0,0.0,61,core\src\main\java\org\apache\oozie\executor\jpa\CoordActionGetJPAExecutor.java,0,0,0,0
org.apache.oozie.executor.jpa.CoordActionInsertJPAExecutor, 0, 0, 0, 0, 0, 0, 0, 0, 0, 0, 0, 0, 0, 0,0.0,0.0,0.0,0.75,0.0,0.0,0.0,0.5,0.0,0.0,0.0,0.0,0.0,16,core\src\main\java\org\apache\oozie\executor\jpa\CoordActionInsertJPAExecutor.java,0,0,0,0
org.apache.oozie.executor.jpa.CoordActionRemoveJPAExecutor, 0, 0, 0, 0, 0, 0, 0, 0, 0, 0, 0, 0, 0, 0,0.0,0.0,0.0,0.0,0.0,0.0,0.0,0.0,0.0,0.0,0.0,0.0,0.0,25,core\src\main\java\org\apache\oozie\executor\jpa\CoordActionRemoveJPAExecutor.java,0,0,0,0
org.apache.oozie.executor.jpa.CoordActionUpdateForInputCheckJPAExecutor, 0, 0, 0, 0, 0, 0, 0, 0, 0, 0, 0, 0, 0, 0,0.0,0.0,0.0,0.5,0.0,0.0,0.0,0.0,0.0,0.0,0.0,0.0,0.0,27,core\src\main\java\org\apache\oozie\executor\jpa\CoordActionUpdateForInputCheckJPAExecutor.java,0,0,0,0
org.apache.oozie.executor.jpa.CoordActionUpdateForModifiedTimeJPAExecutor, 0, 0, 0, 0, 0, 0, 0, 0, 0, 0, 0, 0, 0, 0,0.0,0.0,0.0,0.5,0.0,0.0,0.0,0.0,0.0,0.0,0.0,0.0,0.0,24,core\src\main\java\org\apache\oozie\executor\jpa\CoordActionUpdateForModifiedTimeJPAExecutor.java,0,0,0,0
org.apache.oozie.executor.jpa.CoordActionUpdateJPAExecutor, 0, 0, 0, 0, 0, 0, 0, 0, 0, 0, 0, 0, 0, 0,0.0,0.0,0.0,0.25,0.0,0.0,0.0,0.0,0.0,0.0,0.0,0.0,0.0,22,core\src\main\java\org\apache\oozie\executor\jpa\CoordActionUpdateJPAExecutor.java,0,0,0,0
org.apache.oozie.executor.jpa.CoordActionUpdatePushInputCheckJPAExecutor, 0, 0, 0, 0, 0, 0, 0, 0, 0, 0, 0, 0, 0, 0,0.0,0.0,0.0,0.6666666666666666,0.0,0.0,0.0,0.0,0.0,0.0,0.0,0.0,0.0,27,core\src\main\java\org\apache\oozie\executor\jpa\CoordActionUpdatePushInputCheckJPAExecutor.java,0,0,0,0
org.apache.oozie.executor.jpa.CoordActionUpdateStatusJPAExecutor, 0, 0, 0, 0, 0, 0, 0, 0, 0, 0, 0, 0, 0, 0,0.0,0.0,0.0,0.5,0.0,0.0,0.0,0.0,0.0,0.0,0.0,0.0,0.0,26,core\src\main\java\org\apache\oozie\executor\jpa\CoordActionUpdateStatusJPAExecutor.java,0,0,0,0
org.apache.oozie.executor.jpa.CoordActionsActiveCountJPAExecutor, 0, 0, 0, 0, 0, 0, 0, 0, 0, 0, 0, 0, 0, 0,0.0,0.0,0.0,0.0,0.0,0.0,0.0,0.0,0.0,0.0,0.0,0.0,0.0,23,core\src\main\java\org\apache\oozie\executor\jpa\CoordActionsActiveCountJPAExecutor.java,0,0,0,0
org.apache.oozie.executor.jpa.CoordActionsCountForJobIdJPAExecutor, 0, 0, 0, 0, 0, 0, 0, 0, 0, 0, 0, 0, 0, 0,0.0,0.0,0.0,0.0,0.0,0.0,0.0,0.5,0.0,0.0,0.0,0.0,0.0,23,core\src\main\java\org\apache\oozie\executor\jpa\CoordActionsCountForJobIdJPAExecutor.java,0,0,0,0
org.apache.oozie.executor.jpa.CoordActionsGetByLastModifiedTimeJPAExecutor, 0, 0, 0, 0, 0, 0, 0, 0, 0, 0, 0, 0, 0, 0,0.0,0.0,0.0,0.0,0.0,0.0,0.0,0.0,0.0,0.0,0.0,0.0,0.0,23,core\src\main\java\org\apache\oozie\executor\jpa\CoordActionsGetByLastModifiedTimeJPAExecutor.java,0,0,0,0
org.apache.oozie.executor.jpa.CoordActionsGetForRecoveryJPAExecutor, 0, 0, 0, 0, 0, 0, 0, 0, 0, 0, 0, 0, 0, 0,0.0,0.0,0.0,0.6666666666666666,0.0,0.0,0.0,0.0,0.0,0.0,0.0,0.0,0.0,72,core\src\main\java\org\apache\oozie\executor\jpa\CoordActionsGetForRecoveryJPAExecutor.java,0,0,0,0
org.apache.oozie.executor.jpa.CoordActionsGetReadyGroupbyJobIDJPAExecutor, 0, 0, 0, 0, 0, 0, 0, 0, 0, 0, 0, 0, 0, 0,0.0,0.0,0.0,0.0,0.0,0.0,0.0,0.0,0.0,0.0,0.0,0.0,0.0,30,core\src\main\java\org\apache\oozie\executor\jpa\CoordActionsGetReadyGroupbyJobIDJPAExecutor.java,0,0,0,0
org.apache.oozie.executor.jpa.CoordActionsPendingFalseCountGetJPAExecutor, 0, 0, 0, 0, 0, 0, 0, 0, 0, 0, 0, 0, 0, 0,0.0,0.0,0.0,0.0,0.0,0.0,0.0,0.0,0.0,0.0,0.0,0.0,0.0,23,core\src\main\java\org\apache\oozie\executor\jpa\CoordActionsPendingFalseCountGetJPAExecutor.java,0,0,0,0
org.apache.oozie.executor.jpa.CoordActionsPendingFalseStatusCountGetJPAExecutor, 0, 0, 0, 0, 0, 0, 0, 0, 0, 0, 0, 0, 0, 0,0.0,0.0,0.0,0.0,0.0,0.0,0.0,0.0,0.0,0.0,0.0,0.0,0.0,27,core\src\main\java\org\apache\oozie\executor\jpa\CoordActionsPendingFalseStatusCountGetJPAExecutor.java,0,0,0,0
org.apache.oozie.executor.jpa.CoordActionsRunningGetJPAExecutor, 0, 0, 0, 0, 0, 0, 0, 0, 0, 0, 0, 0, 0, 0,0.0,0.0,0.0,0.0,0.0,0.0,0.0,0.0,0.0,0.0,0.0,0.0,0.0,24,core\src\main\java\org\apache\oozie\executor\jpa\CoordActionsRunningGetJPAExecutor.java,0,0,0,0
org.apache.oozie.executor.jpa.CoordJobDeleteJPAExecutor, 0, 0, 0, 0, 0, 0, 0, 0, 0, 0, 0, 0, 0, 0,0.0,0.0,0.0,0.0,0.0,0.0,0.0,0.0,0.0,0.0,0.0,0.0,0.0,19,core\src\main\java\org\apache\oozie\executor\jpa\CoordJobDeleteJPAExecutor.java,0,0,0,0
org.apache.oozie.executor.jpa.CoordJobGetActionByActionNumberJPAExecutor, 0, 0, 0, 0, 0, 0, 0, 0, 0, 0, 0, 0, 0, 0,0.0,0.0,0.0,0.0,0.0,0.0,0.0,0.3333333333333333,0.0,0.0,0.0,0.0,0.0,26,core\src\main\java\org\apache\oozie\executor\jpa\CoordJobGetActionByActionNumberJPAExecutor.java,0,0,0,0
org.apache.oozie.executor.jpa.CoordJobGetActionForNominalTimeJPAExecutor, 0, 0, 0, 0, 0, 0, 0, 0, 0, 0, 0, 0, 0, 0,0.0,0.0,0.0,0.5,0.0,0.0,0.0,0.0,0.0,0.0,0.0,0.0,0.0,55,core\src\main\java\org\apache\oozie\executor\jpa\CoordJobGetActionForNominalTimeJPAExecutor.java,0,0,0,0
org.apache.oozie.executor.jpa.CoordJobGetActionIdsForDateRangeJPAExecutor, 0, 0, 0, 0, 0, 0, 0, 0, 0, 0, 0, 0, 0, 0,0.0,0.0,0.0,0.0,0.0,0.0,0.0,0.0,0.0,0.0,0.0,0.0,0.0,29,core\src\main\java\org\apache\oozie\executor\jpa\CoordJobGetActionIdsForDateRangeJPAExecutor.java,0,0,0,0
org.apache.oozie.executor.jpa.CoordJobGetActionsForDatesJPAExecutor, 0, 0, 0, 0, 0, 0, 0, 0, 0, 0, 0, 0, 0, 0,0.0,0.0,0.0,0.5,0.0,0.0,0.0,0.0,0.0,0.0,0.0,0.0,0.0,60,core\src\main\java\org\apache\oozie\executor\jpa\CoordJobGetActionsForDatesJPAExecutor.java,0,0,0,0
org.apache.oozie.executor.jpa.CoordJobGetActionsJPAExecutor, 0, 0, 0, 0, 0, 0, 0, 0, 0, 0, 0, 0, 0, 0,0.0,0.0,0.0,0.3333333333333333,0.0,0.0,0.0,0.3333333333333333,0.0,0.0,0.0,0.0,0.0,24,core\src\main\java\org\apache\oozie\executor\jpa\CoordJobGetActionsJPAExecutor.java,0,0,0,0
org.apache.oozie.executor.jpa.CoordJobGetActionsNotCompletedJPAExecutor, 0, 0, 0, 0, 0, 0, 0, 0, 0, 0, 0, 0, 0, 0,0.0,0.0,0.0,0.4,0.0,0.0,0.0,0.0,0.0,0.0,0.0,0.0,0.0,60,core\src\main\java\org\apache\oozie\executor\jpa\CoordJobGetActionsNotCompletedJPAExecutor.java,0,0,0,0
org.apache.oozie.executor.jpa.CoordJobGetActionsRunningJPAExecutor, 0, 0, 0, 0, 0, 0, 0, 0, 0, 0, 0, 0, 0, 0,0.0,0.0,0.0,0.4,0.0,0.0,0.0,0.0,0.0,0.0,0.0,0.0,0.0,51,core\src\main\java\org\apache\oozie\executor\jpa\CoordJobGetActionsRunningJPAExecutor.java,0,0,0,0
org.apache.oozie.executor.jpa.CoordJobGetActionsStatusJPAExecutor, 0, 0, 0, 0, 0, 0, 0, 0, 0, 0, 0, 0, 0, 0,0.0,0.0,0.0,0.0,0.0,0.0,0.0,0.0,0.0,0.0,0.0,0.0,0.0,28,core\src\main\java\org\apache\oozie\executor\jpa\CoordJobGetActionsStatusJPAExecutor.java,0,0,0,0
org.apache.oozie.executor.jpa.CoordJobGetActionsSuspendedJPAExecutor, 0, 0, 0, 0, 0, 0, 0, 0, 0, 0, 0, 0, 0, 0,0.0,0.0,0.0,0.4,0.0,0.0,0.0,0.0,0.0,0.0,0.0,0.0,0.0,51,core\src\main\java\org\apache\oozie\executor\jpa\CoordJobGetActionsSuspendedJPAExecutor.java,0,0,0,0
org.apache.oozie.executor.jpa.CoordJobGetJPAExecutor, 0, 0, 0, 0, 0, 0, 0, 0, 0, 0, 0, 0, 0, 0,0.0,0.0,0.0,0.2413793103448276,0.0,0.0,0.0,0.3103448275862069,0.0,0.0,0.0,0.0,0.0,33,core\src\main\java\org\apache\oozie\executor\jpa\CoordJobGetJPAExecutor.java,0,0,0,0
org.apache.oozie.executor.jpa.CoordJobGetPendingActionsCountJPAExecutor, 0, 0, 0, 0, 0, 0, 0, 0, 0, 0, 0, 0, 0, 0,0.0,0.0,0.0,0.0,0.0,0.0,0.0,0.0,0.0,0.0,0.0,0.0,0.0,23,core\src\main\java\org\apache\oozie\executor\jpa\CoordJobGetPendingActionsCountJPAExecutor.java,0,0,0,0
org.apache.oozie.executor.jpa.CoordJobGetReadyActionsJPAExecutor, 0, 0, 0, 0, 0, 0, 0, 0, 0, 0, 0, 0, 0, 0,0.0,0.0,0.0,0.4,0.0,0.0,0.0,0.0,0.0,0.0,0.0,0.0,0.0,64,core\src\main\java\org\apache\oozie\executor\jpa\CoordJobGetReadyActionsJPAExecutor.java,0,0,0,0
org.apache.oozie.executor.jpa.CoordJobGetRunningActionsCountJPAExecutor, 0, 0, 0, 0, 0, 0, 0, 0, 0, 0, 0, 0, 0, 0,0.0,0.0,0.0,0.2,0.0,0.0,0.0,0.4,0.0,0.0,0.0,0.0,0.0,23,core\src\main\java\org\apache\oozie\executor\jpa\CoordJobGetRunningActionsCountJPAExecutor.java,0,0,0,0
org.apache.oozie.executor.jpa.CoordJobInsertJPAExecutor, 0, 0, 0, 0, 0, 0, 0, 0, 0, 0, 0, 0, 0, 0,0.0,0.0,0.0,0.4444444444444444,0.0,0.0,0.0,0.5555555555555556,0.0,0.0,0.0,0.0,0.0,16,core\src\main\java\org\apache\oozie\executor\jpa\CoordJobInsertJPAExecutor.java,0,0,0,0
org.apache.oozie.executor.jpa.CoordJobUpdateJPAExecutor, 0, 0, 0, 0, 0, 0, 0, 0, 0, 0, 0, 0, 0, 0,0.0,0.0,0.0,0.2727272727272727,0.0,0.0,0.0,0.18181818181818182,0.0,0.0,0.0,0.0,0.0,21,core\src\main\java\org\apache\oozie\executor\jpa\CoordJobUpdateJPAExecutor.java,0,0,0,0
org.apache.oozie.executor.jpa.CoordJobsCountNotForPurgeFromParentIdJPAExecutor, 0, 0, 0, 0, 0, 0, 0, 0, 0, 0, 0, 0, 0, 0,0.0,0.0,0.0,0.3333333333333333,0.0,0.0,0.0,0.0,0.0,0.0,0.0,0.0,0.0,29,core\src\main\java\org\apache\oozie\executor\jpa\CoordJobsCountNotForPurgeFromParentIdJPAExecutor.java,0,0,0,0
org.apache.oozie.executor.jpa.CoordJobsDeleteJPAExecutor, 0, 0, 0, 0, 0, 0, 0, 0, 0, 0, 0, 0, 0, 0,0.0,0.0,0.0,0.25,0.0,0.0,0.0,0.0,0.0,0.0,0.0,0.0,0.0,37,core\src\main\java\org\apache\oozie\executor\jpa\CoordJobsDeleteJPAExecutor.java,0,0,0,0
org.apache.oozie.executor.jpa.CoordJobsGetForPurgeJPAExecutor, 0, 0, 0, 0, 0, 0, 0, 0, 0, 0, 0, 0, 0, 0,0.0,0.0,0.0,0.5,0.0,0.0,0.0,0.0,0.0,0.0,0.0,0.0,0.0,35,core\src\main\java\org\apache\oozie\executor\jpa\CoordJobsGetForPurgeJPAExecutor.java,0,0,0,0
org.apache.oozie.executor.jpa.CoordJobsGetFromParentIdJPAExecutor, 0, 0, 0, 0, 0, 0, 0, 0, 0, 0, 0, 0, 0, 0,0.0,0.0,0.0,0.5,0.0,0.0,0.0,0.0,0.0,0.0,0.0,0.0,0.0,33,core\src\main\java\org\apache\oozie\executor\jpa\CoordJobsGetFromParentIdJPAExecutor.java,0,0,0,0
org.apache.oozie.executor.jpa.CoordJobsGetPausedJPAExecutor, 0, 0, 0, 0, 0, 0, 0, 0, 0, 0, 0, 0, 0, 0,0.0,0.0,0.0,0.0,0.0,0.0,0.0,0.0,0.0,0.0,0.0,0.0,0.0,30,core\src\main\java\org\apache\oozie\executor\jpa\CoordJobsGetPausedJPAExecutor.java,0,0,0,0
org.apache.oozie.executor.jpa.CoordJobsGetPendingJPAExecutor, 0, 0, 0, 0, 0, 0, 0, 0, 0, 0, 0, 0, 0, 0,0.0,0.0,0.0,0.0,0.0,0.0,0.0,0.0,0.0,0.0,0.0,0.0,0.0,30,core\src\main\java\org\apache\oozie\executor\jpa\CoordJobsGetPendingJPAExecutor.java,0,0,0,0
org.apache.oozie.executor.jpa.CoordJobsGetUnpausedJPAExecutor, 0, 0, 0, 0, 0, 0, 0, 0, 0, 0, 0, 0, 0, 0,0.0,0.0,0.0,0.0,0.0,0.0,0.0,0.0,0.0,0.0,0.0,0.0,0.0,30,core\src\main\java\org\apache\oozie\executor\jpa\CoordJobsGetUnpausedJPAExecutor.java,0,0,0,0
org.apache.oozie.executor.jpa.CoordJobsToBeMaterializedJPAExecutor, 0, 0, 0, 0, 0, 0, 0, 0, 0, 0, 0, 0, 0, 0,0.0,0.0,0.0,0.0,0.0,0.0,0.0,0.0,0.0,0.0,0.0,0.0,0.0,46,core\src\main\java\org\apache\oozie\executor\jpa\CoordJobsToBeMaterializedJPAExecutor.java,0,0,0,0
org.apache.oozie.executor.jpa.CoordinatorJobGetForUserAppnameJPAExecutor, 0, 0, 0, 0, 0, 0, 0, 0, 0, 0, 0, 0, 0, 0,0.0,0.0,0.0,0.4,0.0,0.0,0.0,0.0,0.0,0.0,0.0,0.0,0.0,29,core\src\main\java\org\apache\oozie\executor\jpa\CoordinatorJobGetForUserAppnameJPAExecutor.java,0,0,0,0
org.apache.oozie.executor.jpa.CoordinatorJobGetForUserJPAExecutor, 0, 0, 0, 0, 0, 0, 0, 0, 0, 0, 0, 0, 0, 0,0.0,0.0,0.0,0.0,0.0,0.0,0.0,0.0,0.0,0.0,0.0,0.0,0.0,22,core\src\main\java\org\apache\oozie\executor\jpa\CoordinatorJobGetForUserJPAExecutor.java,0,0,0,0
org.apache.oozie.executor.jpa.JPAExecutor, 0, 0, 0, 0, 0, 0, 0, 0, 0, 0, 0, 0, 0, 0,0.0,0.0,0.0,0.0,0.0,0.0,0.0,0.0,0.0,0.0,0.0,0.0,0.0,22,core\src\main\java\org\apache\oozie\executor\jpa\JPAExecutor.java,0,0,0,0
org.apache.oozie.executor.jpa.JPAExecutorException, 0, 0, 0, 0, 0, 0, 0, 0, 0, 0, 0, 0, 0, 0,0.006802721088435374,0.0,0.006802721088435374,0.08843537414965986,0.0,0.0,0.0,0.08163265306122448,0.0,0.0,0.0,0.0,0.0,9,core\src\main\java\org\apache\oozie\executor\jpa\JPAExecutorException.java,0,0,0,0
org.apache.oozie.executor.jpa.SLAEventInsertJPAExecutor, 0, 0, 0, 0, 0, 0, 0, 0, 0, 0, 0, 0, 0, 0,0.0,0.0,0.0,1.0,0.0,0.0,0.0,0.0,0.0,0.0,0.0,0.0,0.0,16,core\src\main\java\org\apache\oozie\executor\jpa\SLAEventInsertJPAExecutor.java,0,0,0,0
org.apache.oozie.executor.jpa.SLAEventsGetForSeqIdJPAExecutor, 0, 0, 0, 0, 0, 0, 0, 0, 0, 0, 0, 0, 0, 0,0.0,0.0,0.0,0.5,0.0,0.0,0.0,0.25,0.0,0.0,0.0,0.0,0.0,33,core\src\main\java\org\apache\oozie\executor\jpa\SLAEventsGetForSeqIdJPAExecutor.java,0,0,0,0
org.apache.oozie.executor.jpa.SLAEventsGetJPAExecutor, 0, 0, 0, 0, 0, 0, 0, 0, 0, 0, 0, 0, 0, 0,0.0,0.0,0.0,0.0,0.0,0.0,0.0,0.0,0.0,0.0,0.0,0.0,0.0,23,core\src\main\java\org\apache\oozie\executor\jpa\SLAEventsGetJPAExecutor.java,0,0,0,0
org.apache.oozie.executor.jpa.TestBulkMonitorJPAExecutor, 0, 0, 0, 0, 0, 0, 0, 0, 0, 0, 0, 0, 0, 0,0.0,0.0,0.0,0.625,0.0,0.0,0.0,0.0,0.0,0.0,0.0,0.0,0.0,92,core\src\test\java\org\apache\oozie\executor\jpa\TestBulkMonitorJPAExecutor.java,0,0,0,0
org.apache.oozie.executor.jpa.TestBulkUpdateDeleteJPAExecutor, 0, 0, 0, 0, 0, 0, 0, 0, 0, 0, 0, 0, 0, 0,0.0,0.0,0.0,0.4666666666666667,0.0,0.0,0.0,0.0,0.0,0.0,0.0,0.0,0.0,126,core\src\test\java\org\apache\oozie\executor\jpa\TestBulkUpdateDeleteJPAExecutor.java,0,0,0,0
org.apache.oozie.executor.jpa.TestBulkUpdateInsertForCoordActionStartJPAExecutor, 0, 0, 0, 0, 0, 0, 0, 0, 0, 0, 0, 0, 0, 0,0.0,0.0,0.0,0.4,0.0,0.0,0.0,0.0,0.0,0.0,0.0,0.0,0.0,140,core\src\test\java\org\apache\oozie\executor\jpa\TestBulkUpdateInsertForCoordActionStartJPAExecutor.java,0,0,0,0
org.apache.oozie.executor.jpa.TestBulkUpdateInsertForCoordActionStatusJPAExecutor, 0, 0, 0, 0, 0, 0, 0, 0, 0, 0, 0, 0, 0, 0,0.0,0.0,0.0,0.4,0.0,0.0,0.0,0.0,0.0,0.0,0.0,0.0,0.0,140,core\src\test\java\org\apache\oozie\executor\jpa\TestBulkUpdateInsertForCoordActionStatusJPAExecutor.java,0,0,0,0
org.apache.oozie.executor.jpa.TestBulkUpdateInsertJPAExecutor, 0, 0, 0, 0, 0, 0, 0, 0, 0, 0, 0, 0, 0, 0,0.0,0.0,0.0,0.4,0.0,0.0,0.0,0.0,0.0,0.0,0.0,0.0,0.0,140,core\src\test\java\org\apache\oozie\executor\jpa\TestBulkUpdateInsertJPAExecutor.java,0,0,0,0
org.apache.oozie.executor.jpa.TestBundleActionsCountForJobGetJPAExecutor, 0, 0, 0, 0, 0, 0, 0, 0, 0, 0, 0, 0, 0, 0,0.0,0.0,0.0,0.5,0.0,0.0,0.0,0.0,0.0,0.0,0.0,0.0,0.0,31,core\src\test\java\org\apache\oozie\executor\jpa\TestBundleActionsCountForJobGetJPAExecutor.java,0,0,0,0
org.apache.oozie.executor.jpa.TestBundleJobsDeleteJPAExecutor, 0, 0, 0, 0, 0, 0, 0, 0, 0, 0, 0, 0, 0, 0,0.0,0.0,0.0,0.25,0.0,0.0,0.0,0.0,0.0,0.0,0.0,0.0,0.0,185,core\src\test\java\org\apache\oozie\executor\jpa\TestBundleJobsDeleteJPAExecutor.java,0,0,0,0
org.apache.oozie.executor.jpa.TestCoordActionGetByLastModifiedTimeJPAExecutor, 0, 0, 0, 0, 0, 0, 0, 0, 0, 0, 0, 0, 0, 0,0.0,0.0,0.0,0.5,0.0,0.0,0.0,0.0,0.0,0.0,0.0,0.0,0.0,38,core\src\test\java\org\apache\oozie\executor\jpa\TestCoordActionGetByLastModifiedTimeJPAExecutor.java,0,0,0,0
org.apache.oozie.executor.jpa.TestCoordActionGetForCheckJPAExecutor, 0, 0, 0, 0, 0, 0, 0, 1, 0, 0, 0, 0, 0, 1,0.0,0.0,0.0,0.75,0.0,0.0,0.0,0.0,0.0,0.0,0.0,0.0,0.0,41,core\src\test\java\org\apache\oozie\executor\jpa\TestCoordActionGetForCheckJPAExecutor.java,0,0,0,0
org.apache.oozie.executor.jpa.TestCoordActionGetForExternalIdJPAExecutor, 0, 0, 0, 0, 0, 0, 0, 1, 0, 0, 0, 0, 0, 1,0.0,0.0,0.0,0.75,0.0,0.0,0.0,0.0,0.0,0.0,0.0,0.0,0.0,41,core\src\test\java\org\apache\oozie\executor\jpa\TestCoordActionGetForExternalIdJPAExecutor.java,0,0,0,0
org.apache.oozie.executor.jpa.TestCoordActionGetForInfoJPAExecutor, 0, 0, 0, 0, 0, 0, 0, 1, 0, 0, 0, 0, 0, 1,0.0,0.0,0.0,0.6,0.0,0.0,0.0,0.0,0.0,0.0,0.0,0.0,0.0,99,core\src\test\java\org\apache\oozie\executor\jpa\TestCoordActionGetForInfoJPAExecutor.java,0,0,0,0
org.apache.oozie.executor.jpa.TestCoordActionGetForInputCheckJPAExecutor, 0, 0, 0, 0, 0, 0, 0, 1, 0, 0, 0, 0, 0, 1,0.0,0.0,0.0,0.6,0.0,0.0,0.0,0.0,0.0,0.0,0.0,0.0,0.0,58,core\src\test\java\org\apache\oozie\executor\jpa\TestCoordActionGetForInputCheckJPAExecutor.java,0,0,0,0
org.apache.oozie.executor.jpa.TestCoordActionGetForStartJPAExecutor, 0, 0, 0, 0, 0, 0, 0, 1, 0, 0, 0, 0, 0, 1,0.0,0.0,0.0,0.6,0.0,0.0,0.0,0.0,0.0,0.0,0.0,0.0,0.0,59,core\src\test\java\org\apache\oozie\executor\jpa\TestCoordActionGetForStartJPAExecutor.java,0,0,0,0
org.apache.oozie.executor.jpa.TestCoordActionGetForTimeoutJPAExecutor, 0, 0, 0, 0, 0, 0, 0, 1, 0, 0, 0, 0, 0, 1,0.0,0.0,0.0,0.6,0.0,0.0,0.0,0.0,0.0,0.0,0.0,0.0,0.0,46,core\src\test\java\org\apache\oozie\executor\jpa\TestCoordActionGetForTimeoutJPAExecutor.java,0,0,0,0
org.apache.oozie.executor.jpa.TestCoordActionGetJPAExecutor, 0, 0, 0, 0, 0, 0, 0, 0, 0, 0, 0, 0, 0, 0,0.0,0.0,0.0,0.6666666666666666,0.0,0.0,0.0,0.0,0.0,0.0,0.0,0.0,0.0,30,core\src\test\java\org\apache\oozie\executor\jpa\TestCoordActionGetJPAExecutor.java,0,0,0,0
org.apache.oozie.executor.jpa.TestCoordActionRemoveJPAExecutor, 0, 0, 0, 0, 0, 0, 0, 0, 0, 0, 0, 0, 0, 0,0.0,0.0,0.0,0.3333333333333333,0.0,0.0,0.0,0.0,0.0,0.0,0.0,0.0,0.0,52,core\src\test\java\org\apache\oozie\executor\jpa\TestCoordActionRemoveJPAExecutor.java,0,0,0,0
org.apache.oozie.executor.jpa.TestCoordActionUpdateForInputCheckJPAExecutor, 0, 0, 0, 0, 0, 0, 0, 0, 0, 0, 0, 0, 0, 0,0.0,0.0,0.0,0.6,0.0,0.0,0.0,0.0,0.0,0.0,0.0,0.0,0.0,37,core\src\test\java\org\apache\oozie\executor\jpa\TestCoordActionUpdateForInputCheckJPAExecutor.java,0,0,0,0
org.apache.oozie.executor.jpa.TestCoordActionUpdateForModifiedTimeJPAExecutor, 0, 0, 0, 0, 0, 0, 0, 0, 0, 0, 0, 0, 0, 0,0.0,0.0,0.0,0.6,0.0,0.0,0.0,0.0,0.0,0.0,0.0,0.0,0.0,36,core\src\test\java\org\apache\oozie\executor\jpa\TestCoordActionUpdateForModifiedTimeJPAExecutor.java,0,0,0,0
org.apache.oozie.executor.jpa.TestCoordActionUpdateJPAExecutor, 0, 0, 0, 0, 0, 0, 0, 0, 0, 0, 0, 0, 0, 0,0.0,0.0,0.0,0.6,0.0,0.0,0.0,0.0,0.0,0.0,0.0,0.0,0.0,33,core\src\test\java\org\apache\oozie\executor\jpa\TestCoordActionUpdateJPAExecutor.java,0,0,0,0
org.apache.oozie.executor.jpa.TestCoordActionUpdateStatusJPAExecutor, 0, 0, 0, 0, 0, 0, 0, 0, 0, 0, 0, 0, 0, 0,0.0,0.0,0.0,0.6,0.0,0.0,0.0,0.0,0.0,0.0,0.0,0.0,0.0,35,core\src\test\java\org\apache\oozie\executor\jpa\TestCoordActionUpdateStatusJPAExecutor.java,0,0,0,0
org.apache.oozie.executor.jpa.TestCoordActionsActiveCountJPAExecutor, 0, 0, 0, 0, 0, 0, 0, 0, 0, 0, 0, 0, 0, 0,0.0,0.0,0.0,0.5,0.0,0.0,0.0,0.0,0.0,0.0,0.0,0.0,0.0,31,core\src\test\java\org\apache\oozie\executor\jpa\TestCoordActionsActiveCountJPAExecutor.java,0,0,0,0
org.apache.oozie.executor.jpa.TestCoordActionsPendingFalseCountGetJPAExecutor, 0, 0, 0, 0, 0, 0, 0, 0, 0, 0, 0, 0, 0, 0,0.0,0.0,0.0,0.5,0.0,0.0,0.0,0.0,0.0,0.0,0.0,0.0,0.0,31,core\src\test\java\org\apache\oozie\executor\jpa\TestCoordActionsPendingFalseCountGetJPAExecutor.java,0,0,0,0
org.apache.oozie.executor.jpa.TestCoordActionsPendingFalseStatusCountGetJPAExecutor, 0, 0, 0, 0, 0, 0, 0, 0, 0, 0, 0, 0, 0, 0,0.0,0.0,0.0,0.5,0.0,0.0,0.0,0.0,0.0,0.0,0.0,0.0,0.0,32,core\src\test\java\org\apache\oozie\executor\jpa\TestCoordActionsPendingFalseStatusCountGetJPAExecutor.java,0,0,0,0
org.apache.oozie.executor.jpa.TestCoordActionsRunningGetJPAExecutor, 0, 0, 0, 0, 0, 0, 0, 0, 0, 0, 0, 0, 0, 0,0.0,0.0,0.0,0.6666666666666666,0.0,0.0,0.0,0.0,0.0,0.0,0.0,0.0,0.0,30,core\src\test\java\org\apache\oozie\executor\jpa\TestCoordActionsRunningGetJPAExecutor.java,0,0,0,0
org.apache.oozie.executor.jpa.TestCoordJobDeleteJPAExecutor, 0, 0, 0, 0, 0, 0, 0, 0, 0, 0, 0, 0, 0, 0,0.0,0.0,0.0,0.3333333333333333,0.0,0.0,0.0,0.0,0.0,0.0,0.0,0.0,0.0,32,core\src\test\java\org\apache\oozie\executor\jpa\TestCoordJobDeleteJPAExecutor.java,0,0,0,0
org.apache.oozie.executor.jpa.TestCoordJobGetActionByActionNumberJPAExecutor, 0, 0, 0, 0, 0, 0, 0, 0, 0, 0, 0, 0, 0, 0,0.0,0.0,0.0,0.8,0.0,0.0,0.0,0.0,0.0,0.0,0.0,0.0,0.0,32,core\src\test\java\org\apache\oozie\executor\jpa\TestCoordJobGetActionByActionNumberJPAExecutor.java,0,0,0,0
org.apache.oozie.executor.jpa.TestCoordJobGetActionForNominalTimeJPAExecutor, 0, 0, 0, 0, 0, 0, 0, 0, 0, 0, 0, 0, 0, 0,0.0,0.0,0.0,0.6,0.0,0.0,0.0,0.0,0.0,0.0,0.0,0.0,0.0,34,core\src\test\java\org\apache\oozie\executor\jpa\TestCoordJobGetActionForNominalTimeJPAExecutor.java,0,0,0,0
org.apache.oozie.executor.jpa.TestCoordJobGetActionIdsForDatesJPAExecutor, 0, 0, 0, 0, 0, 0, 0, 0, 0, 0, 0, 0, 0, 0,0.0,0.0,0.0,0.3333333333333333,0.0,0.0,0.0,0.0,0.0,0.0,0.0,0.0,0.0,41,core\src\test\java\org\apache\oozie\executor\jpa\TestCoordJobGetActionIdsForDatesJPAExecutor.java,0,0,0,0
org.apache.oozie.executor.jpa.TestCoordJobGetActionsForDatesJPAExecutor, 0, 0, 0, 0, 0, 0, 0, 0, 0, 0, 0, 0, 0, 0,0.0,0.0,0.0,0.3333333333333333,0.0,0.0,0.0,0.0,0.0,0.0,0.0,0.0,0.0,41,core\src\test\java\org\apache\oozie\executor\jpa\TestCoordJobGetActionsForDatesJPAExecutor.java,0,0,0,0
org.apache.oozie.executor.jpa.TestCoordJobGetActionsJPAExecutor, 0, 0, 0, 0, 0, 0, 0, 0, 0, 0, 0, 0, 0, 0,0.0,0.0,0.0,0.6666666666666666,0.0,0.0,0.0,0.0,0.0,0.0,0.0,0.0,0.0,28,core\src\test\java\org\apache\oozie\executor\jpa\TestCoordJobGetActionsJPAExecutor.java,0,0,0,0
org.apache.oozie.executor.jpa.TestCoordJobGetActionsNotCompletedJPAExecutor, 0, 0, 0, 0, 0, 0, 0, 0, 0, 0, 0, 0, 0, 0,0.0,0.0,0.0,0.75,0.0,0.0,0.0,0.0,0.0,0.0,0.0,0.0,0.0,52,core\src\test\java\org\apache\oozie\executor\jpa\TestCoordJobGetActionsNotCompletedJPAExecutor.java,0,0,0,0
org.apache.oozie.executor.jpa.TestCoordJobGetActionsRunningJPAExecutor, 0, 0, 0, 0, 0, 0, 0, 0, 0, 0, 0, 0, 0, 0,0.0,0.0,0.0,0.75,0.0,0.0,0.0,0.0,0.0,0.0,0.0,0.0,0.0,51,core\src\test\java\org\apache\oozie\executor\jpa\TestCoordJobGetActionsRunningJPAExecutor.java,0,0,0,0
org.apache.oozie.executor.jpa.TestCoordJobGetActionsSubsetJPAExecutor, 0, 0, 0, 0, 0, 0, 0, 1, 0, 0, 0, 0, 0, 1,0.0,0.0,0.0,0.75,0.0,0.0,0.0,0.0,0.0,0.0,0.0,0.0,0.0,139,core\src\test\java\org\apache\oozie\executor\jpa\TestCoordJobGetActionsSubsetJPAExecutor.java,0,0,0,0
org.apache.oozie.executor.jpa.TestCoordJobGetActionsSuspendedJPAExecutor, 0, 0, 0, 0, 0, 0, 0, 0, 0, 0, 0, 0, 0, 0,0.0,0.0,0.0,0.75,0.0,0.0,0.0,0.0,0.0,0.0,0.0,0.0,0.0,51,core\src\test\java\org\apache\oozie\executor\jpa\TestCoordJobGetActionsSuspendedJPAExecutor.java,0,0,0,0
org.apache.oozie.executor.jpa.TestCoordJobGetJPAExecutor, 0, 0, 0, 0, 0, 0, 0, 0, 0, 0, 0, 0, 0, 0,0.0,0.0,0.0,0.5,0.0,0.0,0.0,0.0,0.0,0.0,0.0,0.0,0.0,27,core\src\test\java\org\apache\oozie\executor\jpa\TestCoordJobGetJPAExecutor.java,0,0,0,0
org.apache.oozie.executor.jpa.TestCoordJobGetPendingActionsCountJPAExecutor, 0, 0, 0, 0, 0, 0, 0, 0, 0, 0, 0, 0, 0, 0,0.0,0.0,0.0,0.5,0.0,0.0,0.0,0.0,0.0,0.0,0.0,0.0,0.0,31,core\src\test\java\org\apache\oozie\executor\jpa\TestCoordJobGetPendingActionsCountJPAExecutor.java,0,0,0,0
org.apache.oozie.executor.jpa.TestCoordJobGetReadyActionsJPAExecutor, 0, 0, 0, 0, 0, 0, 0, 0, 0, 0, 0, 0, 0, 0,0.0,0.0,0.0,0.5,0.0,0.0,0.0,0.0,0.0,0.0,0.0,0.0,0.0,32,core\src\test\java\org\apache\oozie\executor\jpa\TestCoordJobGetReadyActionsJPAExecutor.java,0,0,0,0
org.apache.oozie.executor.jpa.TestCoordJobGetRunningActionsCountJPAExecutor, 0, 0, 0, 0, 0, 0, 0, 0, 0, 0, 0, 0, 0, 0,0.0,0.0,0.0,0.5,0.0,0.0,0.0,0.0,0.0,0.0,0.0,0.0,0.0,36,core\src\test\java\org\apache\oozie\executor\jpa\TestCoordJobGetRunningActionsCountJPAExecutor.java,0,0,0,0
org.apache.oozie.executor.jpa.TestCoordJobUpdateJPAExecutor, 0, 0, 0, 0, 0, 0, 0, 0, 0, 0, 0, 0, 0, 0,0.0,0.0,0.0,0.5,0.0,0.0,0.0,0.0,0.0,0.0,0.0,0.0,0.0,30,core\src\test\java\org\apache\oozie\executor\jpa\TestCoordJobUpdateJPAExecutor.java,0,0,0,0
org.apache.oozie.executor.jpa.TestCoordJobsCountNotForPurgeFromParentIdJPAExecutor, 0, 0, 0, 0, 0, 0, 0, 0, 0, 0, 0, 0, 0, 0,0.0,0.0,0.0,0.6666666666666666,0.0,0.0,0.0,0.0,0.0,0.0,0.0,0.0,0.0,153,core\src\test\java\org\apache\oozie\executor\jpa\TestCoordJobsCountNotForPurgeFromParentIdJPAExecutor.java,0,0,0,0
org.apache.oozie.executor.jpa.TestCoordJobsDeleteJPAExecutor, 0, 0, 0, 0, 0, 0, 0, 0, 0, 0, 0, 0, 0, 0,0.0,0.0,0.0,0.25,0.0,0.0,0.0,0.0,0.0,0.0,0.0,0.0,0.0,197,core\src\test\java\org\apache\oozie\executor\jpa\TestCoordJobsDeleteJPAExecutor.java,0,0,0,0
org.apache.oozie.executor.jpa.TestSLAEventsGetForSeqIdJPAExecutor, 0, 0, 0, 0, 0, 0, 0, 0, 0, 0, 0, 0, 0, 0,0.0,0.0,0.0,0.5,0.0,0.0,0.0,0.0,0.0,0.0,0.0,0.0,0.0,41,core\src\test\java\org\apache\oozie\executor\jpa\TestSLAEventsGetForSeqIdJPAExecutor.java,0,0,0,0
org.apache.oozie.executor.jpa.TestSLAEventsGetJPAExecutor, 0, 0, 0, 0, 0, 0, 0, 0, 0, 0, 0, 0, 0, 0,0.0,0.0,0.0,0.0,0.0,0.0,0.0,0.0,0.0,0.0,0.0,0.0,0.0,31,core\src\test\java\org\apache\oozie\executor\jpa\TestSLAEventsGetJPAExecutor.java,0,0,0,0
org.apache.oozie.executor.jpa.TestWorkflowActionDeleteJPAExecutor, 0, 0, 0, 0, 0, 0, 0, 0, 0, 0, 0, 0, 0, 0,0.0,0.0,0.0,0.4,0.0,0.0,0.0,0.0,0.0,0.0,0.0,0.0,0.0,37,core\src\test\java\org\apache\oozie\executor\jpa\TestWorkflowActionDeleteJPAExecutor.java,0,0,0,0
org.apache.oozie.executor.jpa.TestWorkflowActionRetryManualGetJPAExecutor, 0, 0, 0, 0, 0, 0, 0, 0, 0, 0, 0, 0, 0, 0,0.0,0.0,0.0,0.5,0.0,0.0,0.0,0.0,0.0,0.0,0.0,0.0,0.0,28,core\src\test\java\org\apache\oozie\executor\jpa\TestWorkflowActionRetryManualGetJPAExecutor.java,0,0,0,0
org.apache.oozie.executor.jpa.TestWorkflowActionSubsetGetJPAExecutor, 0, 0, 0, 0, 0, 0, 0, 0, 0, 0, 0, 0, 0, 0,0.0,0.0,0.0,0.5,0.0,0.0,0.0,0.0,0.0,0.0,0.0,0.0,0.0,32,core\src\test\java\org\apache\oozie\executor\jpa\TestWorkflowActionSubsetGetJPAExecutor.java,0,0,0,0
org.apache.oozie.executor.jpa.TestWorkflowActionUpdateJPAExecutor, 0, 0, 0, 0, 0, 0, 0, 0, 0, 0, 0, 0, 0, 0,0.0,0.0,0.0,0.6,0.0,0.0,0.0,0.0,0.0,0.0,0.0,0.0,0.0,31,core\src\test\java\org\apache\oozie\executor\jpa\TestWorkflowActionUpdateJPAExecutor.java,0,0,0,0
org.apache.oozie.executor.jpa.TestWorkflowActionsGetForJobJPAExecutor, 0, 0, 0, 0, 0, 0, 0, 0, 0, 0, 0, 0, 0, 0,0.0,0.0,0.0,0.5,0.0,0.0,0.0,0.0,0.0,0.0,0.0,0.0,0.0,30,core\src\test\java\org\apache\oozie\executor\jpa\TestWorkflowActionsGetForJobJPAExecutor.java,0,0,0,0
org.apache.oozie.executor.jpa.TestWorkflowActionsRunningGetJPAExecutor, 0, 0, 0, 0, 0, 0, 0, 0, 0, 0, 0, 0, 0, 0,0.0,0.0,0.0,0.4,0.0,0.0,0.0,0.0,0.0,0.0,0.0,0.0,0.0,46,core\src\test\java\org\apache\oozie\executor\jpa\TestWorkflowActionsRunningGetJPAExecutor.java,0,0,0,0
org.apache.oozie.executor.jpa.TestWorkflowIdGetForExternalIdJPAExecutor, 0, 0, 0, 0, 0, 0, 0, 0, 0, 0, 0, 0, 0, 0,0.0,0.0,0.0,0.2,0.0,0.0,0.0,0.0,0.0,0.0,0.0,0.0,0.0,52,core\src\test\java\org\apache\oozie\executor\jpa\TestWorkflowIdGetForExternalIdJPAExecutor.java,0,0,0,0
org.apache.oozie.executor.jpa.TestWorkflowInfoWithActionsSubsetGetJPAExecutor, 0, 0, 0, 0, 0, 0, 0, 0, 0, 0, 0, 0, 0, 0,0.0,0.0,0.0,0.5,0.0,0.0,0.0,0.0,0.0,0.0,0.0,0.0,0.0,30,core\src\test\java\org\apache\oozie\executor\jpa\TestWorkflowInfoWithActionsSubsetGetJPAExecutor.java,0,0,0,0
org.apache.oozie.executor.jpa.TestWorkflowJobDeleteJPAExecutor, 0, 0, 0, 0, 0, 0, 0, 0, 0, 0, 0, 0, 0, 0,0.0,0.0,0.0,0.4,0.0,0.0,0.0,0.0,0.0,0.0,0.0,0.0,0.0,30,core\src\test\java\org\apache\oozie\executor\jpa\TestWorkflowJobDeleteJPAExecutor.java,0,0,0,0
org.apache.oozie.executor.jpa.TestWorkflowJobGetActionsJPAExecutor, 0, 0, 0, 0, 0, 0, 0, 0, 0, 0, 0, 0, 0, 0,0.0,0.0,0.0,0.5,0.0,0.0,0.0,0.0,0.0,0.0,0.0,0.0,0.0,30,core\src\test\java\org\apache\oozie\executor\jpa\TestWorkflowJobGetActionsJPAExecutor.java,0,0,0,0
org.apache.oozie.executor.jpa.TestWorkflowJobGetJPAExecutor, 0, 0, 0, 0, 0, 0, 0, 0, 0, 0, 0, 0, 0, 0,0.0,0.0,0.0,0.6666666666666666,0.0,0.0,0.0,0.0,0.0,0.0,0.0,0.0,0.0,28,core\src\test\java\org\apache\oozie\executor\jpa\TestWorkflowJobGetJPAExecutor.java,0,0,0,0
org.apache.oozie.executor.jpa.TestWorkflowJobUpdateJPAExecutor, 0, 0, 0, 0, 0, 0, 0, 0, 0, 0, 0, 0, 0, 0,0.0,0.0,0.0,0.5,0.0,0.0,0.0,0.0,0.0,0.0,0.0,0.0,0.0,35,core\src\test\java\org\apache\oozie\executor\jpa\TestWorkflowJobUpdateJPAExecutor.java,0,0,0,0
org.apache.oozie.executor.jpa.TestWorkflowJobsCountNotForPurgeFromParentIdJPAExecutor, 0, 0, 0, 0, 0, 0, 0, 0, 0, 0, 0, 0, 0, 0,0.0,0.0,0.0,0.75,0.0,0.0,0.0,0.0,0.0,0.0,0.0,0.0,0.0,63,core\src\test\java\org\apache\oozie\executor\jpa\TestWorkflowJobsCountNotForPurgeFromParentIdJPAExecutor.java,0,0,0,0
org.apache.oozie.executor.jpa.TestWorkflowJobsDeleteJPAExecutor, 0, 0, 0, 0, 0, 0, 0, 0, 0, 0, 0, 0, 0, 0,0.0,0.0,0.0,0.25,0.0,0.0,0.0,0.0,0.0,0.0,0.0,0.0,0.0,185,core\src\test\java\org\apache\oozie\executor\jpa\TestWorkflowJobsDeleteJPAExecutor.java,0,0,0,0
org.apache.oozie.executor.jpa.WorkflowActionDeleteJPAExecutor, 0, 0, 0, 0, 0, 0, 0, 0, 0, 0, 0, 0, 0, 0,0.0,0.0,0.0,0.0,0.0,0.0,0.0,0.0,0.0,0.0,0.0,0.0,0.0,19,core\src\main\java\org\apache\oozie\executor\jpa\WorkflowActionDeleteJPAExecutor.java,0,0,0,0
org.apache.oozie.executor.jpa.WorkflowActionGetForSLAJPAExecutor, 0, 0, 0, 0, 0, 0, 0, 0, 0, 0, 0, 0, 0, 0,0.0,0.0,0.0,0.6666666666666666,0.0,0.0,0.0,0.0,0.0,0.0,0.0,0.0,0.0,38,core\src\main\java\org\apache\oozie\executor\jpa\WorkflowActionGetForSLAJPAExecutor.java,0,0,0,0
org.apache.oozie.executor.jpa.WorkflowActionGetJPAExecutor, 0, 0, 0, 0, 0, 0, 0, 0, 0, 0, 0, 0, 0, 0,0.0,0.0,0.0,0.2857142857142857,0.0,0.0,0.0,0.047619047619047616,0.0,0.0,0.0,0.0,0.0,71,core\src\main\java\org\apache\oozie\executor\jpa\WorkflowActionGetJPAExecutor.java,0,0,0,0
org.apache.oozie.executor.jpa.WorkflowActionInsertJPAExecutor, 0, 0, 0, 0, 0, 0, 0, 0, 0, 0, 0, 0, 0, 0,0.0,0.0,0.0,0.3333333333333333,0.0,0.0,0.0,0.16666666666666666,0.0,0.0,0.0,0.0,0.0,16,core\src\main\java\org\apache\oozie\executor\jpa\WorkflowActionInsertJPAExecutor.java,0,0,0,0
org.apache.oozie.executor.jpa.WorkflowActionRetryManualGetJPAExecutor, 0, 0, 0, 0, 0, 0, 0, 0, 0, 0, 0, 0, 0, 0,0.0,0.0,0.0,0.0,0.0,0.0,0.0,0.3333333333333333,0.0,0.0,0.0,0.0,0.0,25,core\src\main\java\org\apache\oozie\executor\jpa\WorkflowActionRetryManualGetJPAExecutor.java,0,0,0,0
org.apache.oozie.executor.jpa.WorkflowActionSubsetGetJPAExecutor, 0, 0, 0, 0, 0, 0, 0, 0, 0, 0, 0, 0, 0, 0,0.0,0.0,0.0,0.4,0.0,0.0,0.0,0.0,0.0,0.0,0.0,0.0,0.0,72,core\src\main\java\org\apache\oozie\executor\jpa\WorkflowActionSubsetGetJPAExecutor.java,0,0,0,0
org.apache.oozie.executor.jpa.WorkflowActionUpdateJPAExecutor, 0, 0, 0, 0, 0, 0, 0, 0, 0, 0, 0, 0, 0, 0,0.0,0.0,0.0,0.4,0.0,0.0,0.0,0.0,0.0,0.0,0.0,0.0,0.0,21,core\src\main\java\org\apache\oozie\executor\jpa\WorkflowActionUpdateJPAExecutor.java,0,0,0,0
org.apache.oozie.executor.jpa.WorkflowActionsGetForJobJPAExecutor, 0, 0, 0, 0, 0, 0, 0, 0, 0, 0, 0, 0, 0, 0,0.0,0.0,0.0,0.42857142857142855,0.0,0.0,0.0,0.0,0.0,0.0,0.0,0.0,0.0,68,core\src\main\java\org\apache\oozie\executor\jpa\WorkflowActionsGetForJobJPAExecutor.java,0,0,0,0
org.apache.oozie.executor.jpa.WorkflowActionsGetPendingJPAExecutor, 0, 0, 0, 0, 0, 0, 0, 0, 0, 0, 0, 0, 0, 0,0.0,0.0,0.0,0.0,0.0,0.0,0.0,0.0,0.0,0.0,0.0,0.0,0.0,25,core\src\main\java\org\apache\oozie\executor\jpa\WorkflowActionsGetPendingJPAExecutor.java,0,0,0,0
org.apache.oozie.executor.jpa.WorkflowActionsRunningGetJPAExecutor, 0, 0, 0, 0, 0, 0, 0, 0, 0, 0, 0, 0, 0, 0,0.0,0.0,0.0,0.5,0.0,0.0,0.0,0.0,0.0,0.0,0.0,0.0,0.0,68,core\src\main\java\org\apache\oozie\executor\jpa\WorkflowActionsRunningGetJPAExecutor.java,0,0,0,0
org.apache.oozie.executor.jpa.WorkflowIdGetForExternalIdJPAExecutor, 0, 0, 0, 0, 0, 0, 0, 0, 0, 0, 0, 0, 0, 0,0.0,0.0,0.0,0.0,0.0,0.0,0.0,0.0,0.0,0.0,0.0,0.0,0.0,24,core\src\main\java\org\apache\oozie\executor\jpa\WorkflowIdGetForExternalIdJPAExecutor.java,0,0,0,0
org.apache.oozie.executor.jpa.WorkflowInfoWithActionsSubsetGetJPAExecutor, 0, 0, 0, 0, 0, 0, 0, 0, 0, 0, 0, 0, 0, 0,0.0,0.0,0.0,0.2857142857142857,0.0,0.0,0.0,0.0,0.0,0.0,0.0,0.0,0.0,51,core\src\main\java\org\apache\oozie\executor\jpa\WorkflowInfoWithActionsSubsetGetJPAExecutor.java,0,0,0,0
org.apache.oozie.executor.jpa.WorkflowJobDeleteJPAExecutor, 0, 0, 0, 0, 0, 0, 0, 0, 0, 0, 0, 0, 0, 0,0.0,0.0,0.0,0.0,0.0,0.0,0.0,0.0,0.0,0.0,0.0,0.0,0.0,19,core\src\main\java\org\apache\oozie\executor\jpa\WorkflowJobDeleteJPAExecutor.java,0,0,0,0
org.apache.oozie.executor.jpa.WorkflowJobGetActionsJPAExecutor, 0, 0, 0, 0, 0, 0, 0, 0, 0, 0, 0, 0, 0, 0,0.0,0.0,0.0,0.4,0.0,0.0,0.0,0.0,0.0,0.0,0.0,0.0,0.0,68,core\src\main\java\org\apache\oozie\executor\jpa\WorkflowJobGetActionsJPAExecutor.java,0,0,0,0
org.apache.oozie.executor.jpa.WorkflowJobGetForSLAJPAExecutor, 0, 0, 0, 0, 0, 0, 0, 0, 0, 0, 0, 0, 0, 0,0.0,0.0,0.0,0.5,0.0,0.0,0.0,0.0,0.0,0.0,0.0,0.0,0.0,38,core\src\main\java\org\apache\oozie\executor\jpa\WorkflowJobGetForSLAJPAExecutor.java,0,0,0,0
org.apache.oozie.executor.jpa.WorkflowJobGetForUserJPAExecutor, 0, 0, 0, 0, 0, 0, 0, 0, 0, 0, 0, 0, 0, 0,0.0,0.0,0.0,0.0,0.0,0.0,0.0,0.0,0.0,0.0,0.0,0.0,0.0,22,core\src\main\java\org\apache\oozie\executor\jpa\WorkflowJobGetForUserJPAExecutor.java,0,0,0,0
org.apache.oozie.executor.jpa.WorkflowJobGetJPAExecutor, 0, 0, 0, 0, 0, 0, 0, 0, 0, 0, 0, 0, 0, 0,0.0,0.0,0.0,0.3,0.0,0.0,0.0,0.16666666666666666,0.0,0.0,0.0,0.0,0.0,33,core\src\main\java\org\apache\oozie\executor\jpa\WorkflowJobGetJPAExecutor.java,0,0,0,0
org.apache.oozie.executor.jpa.WorkflowJobInsertJPAExecutor, 0, 0, 0, 0, 0, 0, 0, 0, 0, 0, 0, 0, 0, 0,0.0,0.0,0.0,0.5,0.0,0.0,0.0,0.16666666666666666,0.0,0.0,0.0,0.0,0.0,16,core\src\main\java\org\apache\oozie\executor\jpa\WorkflowJobInsertJPAExecutor.java,0,0,0,0
org.apache.oozie.executor.jpa.WorkflowJobUpdateJPAExecutor, 0, 0, 0, 0, 0, 0, 0, 0, 0, 0, 0, 0, 0, 0,0.0,0.0,0.0,0.2857142857142857,0.0,0.0,0.0,0.14285714285714285,0.0,0.0,0.0,0.0,0.0,22,core\src\main\java\org\apache\oozie\executor\jpa\WorkflowJobUpdateJPAExecutor.java,0,0,0,0
org.apache.oozie.executor.jpa.WorkflowJobsCountNotForPurgeFromParentIdJPAExecutor, 0, 0, 0, 0, 0, 0, 0, 0, 0, 0, 0, 0, 0, 0,0.0,0.0,0.0,0.3333333333333333,0.0,0.0,0.0,0.0,0.0,0.0,0.0,0.0,0.0,29,core\src\main\java\org\apache\oozie\executor\jpa\WorkflowJobsCountNotForPurgeFromParentIdJPAExecutor.java,0,0,0,0
org.apache.oozie.executor.jpa.WorkflowJobsDeleteJPAExecutor, 0, 0, 0, 0, 0, 0, 0, 0, 0, 0, 0, 0, 0, 0,0.0,0.0,0.0,0.25,0.0,0.0,0.0,0.0,0.0,0.0,0.0,0.0,0.0,37,core\src\main\java\org\apache\oozie\executor\jpa\WorkflowJobsDeleteJPAExecutor.java,0,0,0,0
org.apache.oozie.executor.jpa.WorkflowJobsGetForPurgeJPAExecutor, 0, 0, 0, 0, 0, 0, 0, 0, 0, 0, 0, 0, 0, 0,0.0,0.0,0.0,0.5,0.0,0.0,0.0,0.0,0.0,0.0,0.0,0.0,0.0,35,core\src\main\java\org\apache\oozie\executor\jpa\WorkflowJobsGetForPurgeJPAExecutor.java,0,0,0,0
org.apache.oozie.executor.jpa.WorkflowJobsGetFromParentIdJPAExecutor, 0, 0, 0, 0, 0, 0, 0, 0, 0, 0, 0, 0, 0, 0,0.0,0.0,0.0,0.5,0.0,0.0,0.0,0.0,0.0,0.0,0.0,0.0,0.0,33,core\src\main\java\org\apache\oozie\executor\jpa\WorkflowJobsGetFromParentIdJPAExecutor.java,0,0,0,0
org.apache.oozie.executor.jpa.sla.SLACalculationInsertUpdateJPAExecutor, 0, 0, 0, 0, 0, 0, 0, 0, 0, 0, 0, 0, 0, 0,0.0,0.0,0.0,0.0,0.0,0.0,0.0,0.375,0.0,0.0,0.0,0.0,0.0,42,core\src\main\java\org\apache\oozie\executor\jpa\sla\SLACalculationInsertUpdateJPAExecutor.java,0,0,0,0
org.apache.oozie.executor.jpa.sla.SLARegistrationGetJPAExecutor, 0, 0, 0, 0, 0, 0, 0, 0, 0, 0, 0, 0, 0, 0,0.0,0.0,0.0,0.0,0.0,0.0,0.0,0.6666666666666666,0.0,0.0,0.0,0.0,0.0,29,core\src\main\java\org\apache\oozie\executor\jpa\sla\SLARegistrationGetJPAExecutor.java,0,0,0,0
org.apache.oozie.executor.jpa.sla.SLARegistrationGetOnRestartJPAExecutor, 0, 0, 0, 0, 0, 0, 0, 0, 0, 0, 0, 0, 0, 0,0.0,0.0,0.0,0.0,0.0,0.0,0.0,0.0,0.0,0.0,0.0,0.0,0.0,38,core\src\main\java\org\apache\oozie\executor\jpa\sla\SLARegistrationGetOnRestartJPAExecutor.java,0,0,0,0
org.apache.oozie.executor.jpa.sla.SLASummaryGetJPAExecutor, 0, 0, 0, 0, 0, 0, 0, 0, 0, 0, 0, 0, 0, 0,0.14285714285714285,0.0,0.0,0.14285714285714285,0.0,0.0,0.0,0.2857142857142857,0.0,0.0,0.0,0.0,0.0,29,core\src\main\java\org\apache\oozie\executor\jpa\sla\SLASummaryGetJPAExecutor.java,0,0,0,0
org.apache.oozie.executor.jpa.sla.SLASummaryGetRecordsOnRestartJPAExecutor, 0, 0, 0, 0, 0, 0, 0, 0, 0, 0, 0, 0, 0, 0,0.0,0.0,0.0,0.0,0.0,0.0,0.0,0.0,0.0,0.0,0.0,0.0,0.0,25,core\src\main\java\org\apache\oozie\executor\jpa\sla\SLASummaryGetRecordsOnRestartJPAExecutor.java,0,0,0,0
org.apache.oozie.executor.jpa.sla.SLASummaryUpdateForSLAStatusActualTimesJPAExecutor, 0, 0, 0, 0, 0, 0, 0, 0, 0, 0, 0, 0, 0, 0,0.0,0.0,0.0,0.5,0.0,0.0,0.0,0.0,0.0,0.0,0.0,0.0,0.0,31,core\src\main\java\org\apache\oozie\executor\jpa\sla\SLASummaryUpdateForSLAStatusActualTimesJPAExecutor.java,0,0,0,0
org.apache.oozie.jms.ConnectionContext, 0, 0, 0, 0, 0, 0, 0, 0, 0, 0, 0, 0, 0, 0,0.0,0.0,0.0,0.0,0.0,0.0,0.0,0.0,0.0,0.0,0.0,0.0,0.0,31,core\src\main\java\org\apache\oozie\jms\ConnectionContext.java,0,0,0,0
org.apache.oozie.jms.JMSExceptionListener, 0, 0, 0, 0, 0, 0, 0, 0, 0, 0, 0, 0, 0, 0,0.0,0.0,0.0,0.0,0.0,0.0,0.0,0.0,0.0,0.0,0.0,0.0,0.0,20,core\src\main\java\org\apache\oozie\jms\JMSExceptionListener.java,0,0,0,0
org.apache.oozie.jms.JMSSLAEventListener, 0, 0, 0, 1, 0, 0, 0, 0, 0, 0, 0, 0, 0, 1,0.16666666666666666,0.0,0.0,0.3333333333333333,0.0,0.0,0.0,0.16666666666666666,0.0,0.0,0.0,0.0,0.0,92,core\src\main\java\org\apache\oozie\jms\JMSSLAEventListener.java,0,0,0,0
org.apache.oozie.jms.MessageHandler, 0, 0, 0, 0, 0, 0, 0, 0, 0, 0, 0, 0, 0, 0,0.0,0.0,0.0,0.0,0.0,0.0,0.0,0.0,0.0,0.0,0.0,0.0,0.0,92,core\src\main\java\org\apache\oozie\jms\MessageHandler.java,0,0,0,0
org.apache.oozie.jms.MessageReceiver, 0, 0, 0, 0, 0, 0, 0, 0, 0, 0, 0, 0, 0, 0,0.0,0.0,0.0,0.0,0.0,0.0,0.0,0.0,0.0,0.0,0.0,0.0,0.0,25,core\src\main\java\org\apache\oozie\jms\MessageReceiver.java,0,0,0,0
org.apache.oozie.jms.TestDefaultConnectionContext, 0, 0, 0, 0, 0, 0, 0, 0, 0, 0, 0, 0, 0, 0,0.0,0.0,0.0,0.0,0.0,0.0,0.0,0.0,0.0,0.0,0.0,0.0,0.0,58,core\src\test\java\org\apache\oozie\jms\TestDefaultConnectionContext.java,0,0,0,0
org.apache.oozie.jms.TestJMSJobEventListener, 0, 0, 0, 1, 0, 0, 0, 0, 0, 0, 0, 0, 0, 1,0.0,0.0,0.0,0.2,0.0,0.0,0.0,1.0,0.0,0.0,0.0,0.0,0.0,497,core\src\test\java\org\apache\oozie\jms\TestJMSJobEventListener.java,0,0,0,0
org.apache.oozie.jms.TestJMSSLAEventListener, 0, 0, 0, 0, 0, 0, 0, 0, 0, 0, 0, 0, 0, 0,0.0,0.0,0.0,0.75,0.0,0.0,0.0,0.25,0.0,0.0,0.0,0.0,0.0,312,core\src\test\java\org\apache\oozie\jms\TestJMSSLAEventListener.java,0,0,0,0
org.apache.oozie.service.AuthorizationException, 0, 0, 0, 0, 0, 0, 0, 0, 0, 0, 0, 0, 0, 0,0.0,0.0,0.0,0.25,0.0,0.0,0.0,0.25,0.0,0.0,0.0,0.0,0.0,8,core\src\main\java\org\apache\oozie\service\AuthorizationException.java,0,0,0,0
org.apache.oozie.service.AuthorizationService, 0, 0, 0, 1, 0, 0, 0, 1, 0, 0, 0, 0, 0, 2,0.0,0.0,0.0,0.21428571428571427,0.0,0.0,0.0,0.0,0.0,0.0,0.0,0.0,0.0,312,core\src\main\java\org\apache\oozie\service\AuthorizationService.java,0,0,0,0
org.apache.oozie.service.BundleEngineService, 0, 0, 0, 0, 0, 0, 0, 0, 0, 0, 0, 0, 0, 0,0.0,0.0,0.0,0.0,0.0,0.0,0.0,0.0,0.0,0.0,0.0,0.0,0.0,15,core\src\main\java\org\apache\oozie\service\BundleEngineService.java,0,0,0,0
org.apache.oozie.service.CallbackService, 0, 0, 0, 0, 0, 0, 0, 0, 0, 0, 0, 0, 0, 0,0.0,0.0,0.0,0.0,0.0,0.0,0.0,0.0,0.0,0.0,0.0,0.0,0.0,51,core\src\main\java\org\apache\oozie\service\CallbackService.java,0,0,0,0
org.apache.oozie.service.CoordMaterializeTriggerService, 0, 0, 0, 0, 0, 0, 0, 0, 0, 0, 0, 0, 0, 0,0.0,0.0,0.0,0.0,0.0,0.0,0.0,0.0,0.0,0.0,0.0,0.0,0.0,114,core\src\main\java\org\apache\oozie\service\CoordMaterializeTriggerService.java,0,0,0,0
org.apache.oozie.service.CoordinatorEngineService, 0, 0, 0, 0, 0, 0, 0, 0, 0, 0, 0, 0, 0, 0,0.0,0.0,0.0,0.0,0.0,0.0,0.0,0.0,0.0,0.0,0.0,0.0,0.0,15,core\src\main\java\org\apache\oozie\service\CoordinatorEngineService.java,0,0,0,0
org.apache.oozie.service.CoordinatorStoreService, 0, 0, 0, 0, 0, 0, 0, 0, 0, 0, 0, 0, 0, 0,0.0,0.0,0.0,0.0,0.0,0.0,0.0,0.0,0.0,0.0,0.0,0.0,0.0,36,core\src\main\java\org\apache\oozie\service\CoordinatorStoreService.java,0,0,0,0
org.apache.oozie.service.DagEngineService, 0, 0, 0, 0, 0, 0, 0, 0, 0, 0, 0, 0, 0, 0,0.0,0.0,0.0,0.0,0.0,0.0,0.0,0.0,0.0,0.0,0.0,0.0,0.0,15,core\src\main\java\org\apache\oozie\service\DagEngineService.java,0,0,0,0
org.apache.oozie.service.DagXLogInfoService, 0, 0, 0, 0, 0, 0, 0, 0, 0, 0, 0, 0, 0, 0,0.0,0.0,0.0,0.0,0.0,0.0,0.0,0.0,0.0,0.0,0.0,0.0,0.0,21,core\src\main\java\org\apache\oozie\service\DagXLogInfoService.java,0,0,0,0
org.apache.oozie.service.ForTestAuthorizationService, 0, 0, 0, 0, 0, 0, 0, 0, 0, 0, 0, 0, 0, 0,0.0,0.0,0.0,1.0,0.0,0.0,0.0,1.0,0.0,0.0,0.0,0.0,0.0,13,core\src\test\java\org\apache\oozie\service\ForTestAuthorizationService.java,0,0,0,0
org.apache.oozie.service.HCatAccessorException, 0, 0, 0, 0, 0, 0, 0, 0, 0, 0, 0, 0, 0, 0,0.0,0.0,0.0,0.0,0.0,0.0,0.0,0.0,0.0,0.0,0.0,0.0,0.0,8,core\src\main\java\org\apache\oozie\service\HCatAccessorException.java,0,0,0,0
org.apache.oozie.service.HadoopAccessorException, 0, 0, 0, 0, 0, 0, 0, 0, 0, 0, 0, 0, 0, 0,0.0,0.0,0.0,0.16666666666666666,0.0,0.0,0.0,0.16666666666666666,0.0,0.0,0.0,0.0,0.0,8,core\src\main\java\org\apache\oozie\service\HadoopAccessorException.java,0,0,0,0
org.apache.oozie.service.LiteWorkflowAppService, 0, 0, 0, 0, 0, 0, 0, 0, 0, 0, 0, 0, 0, 0,0.0,0.0,0.0,0.0,0.0,0.0,0.0,0.0,0.0,0.0,0.0,0.0,0.0,12,core\src\main\java\org\apache\oozie\service\LiteWorkflowAppService.java,0,0,0,0
org.apache.oozie.service.LiteWorkflowStoreService, 0, 0, 0, 0, 0, 0, 0, 0, 0, 0, 0, 0, 0, 0,0.0,0.0,0.0,0.5,0.0,0.0,0.0,0.25,0.0,0.0,0.0,0.0,0.0,198,core\src\main\java\org\apache\oozie\service\LiteWorkflowStoreService.java,0,0,0,0
org.apache.oozie.service.MemoryLocksService, 0, 0, 0, 0, 0, 0, 0, 0, 0, 0, 0, 0, 0, 0,0.0,0.0,0.0,0.0,0.0,0.0,0.0,0.0,0.0,0.0,0.0,0.0,0.0,30,core\src\main\java\org\apache\oozie\service\MemoryLocksService.java,0,0,0,0
org.apache.oozie.service.PauseTransitService, 0, 0, 0, 0, 0, 0, 0, 0, 0, 0, 0, 0, 0, 0,0.0,0.0,0.0,0.0,0.0,0.0,0.0,0.0,0.0,0.0,0.0,0.0,0.0,140,core\src\main\java\org\apache\oozie\service\PauseTransitService.java,0,0,0,0
org.apache.oozie.service.PurgeService, 0, 0, 0, 0, 0, 0, 0, 0, 0, 0, 0, 0, 0, 0,0.0,0.0,0.0,0.0,0.0,0.0,0.0,0.0,0.0,0.0,0.0,0.0,0.0,40,core\src\main\java\org\apache\oozie\service\PurgeService.java,0,0,0,0
org.apache.oozie.service.SLAStoreService, 0, 0, 0, 0, 0, 0, 0, 0, 0, 0, 0, 0, 0, 0,0.0,0.0,0.0,0.0,0.0,0.0,0.0,0.0,0.0,0.0,0.0,0.0,0.0,28,core\src\main\java\org\apache\oozie\service\SLAStoreService.java,0,0,0,0
org.apache.oozie.service.SchedulerService, 0, 0, 0, 0, 0, 0, 0, 0, 0, 0, 0, 0, 0, 0,0.0,0.0,0.0,0.0,0.0,0.0,0.0,0.0,0.0,0.0,0.0,0.0,0.0,127,core\src\main\java\org\apache\oozie\service\SchedulerService.java,0,0,0,0
org.apache.oozie.service.SchemaService, 0, 0, 0, 1, 0, 0, 0, 0, 0, 0, 0, 0, 0, 1,0.0,0.0,0.0,0.5,0.0,0.0,0.0,0.0,0.0,0.0,0.0,0.0,0.0,97,core\src\main\java\org\apache\oozie\service\SchemaService.java,0,0,0,0
org.apache.oozie.service.Service, 0, 0, 0, 0, 0, 0, 0, 0, 0, 0, 0, 0, 0, 0,0.0,0.0,0.0,0.0,0.0,0.0,0.0,0.0,0.0,0.0,0.0,0.0,0.0,97,core\src\main\java\org\apache\oozie\service\Service.java,0,0,0,0
org.apache.oozie.service.ServiceException, 0, 0, 0, 0, 0, 0, 0, 0, 0, 0, 0, 0, 0, 0,0.1111111111111111,0.0,0.1111111111111111,0.3333333333333333,0.0,0.0,0.0,0.2222222222222222,0.0,0.0,0.0,0.0,0.0,8,core\src\main\java\org\apache\oozie\service\ServiceException.java,0,0,0,0
org.apache.oozie.service.StoreService, 0, 0, 0, 0, 0, 0, 0, 0, 0, 0, 0, 0, 0, 0,0.0,0.0,0.0,0.0,0.0,0.0,0.0,0.0,0.0,0.0,0.0,0.0,0.0,51,core\src\main\java\org\apache\oozie\service\StoreService.java,0,0,0,0
org.apache.oozie.service.TestActionCheckerService, 0, 0, 0, 0, 0, 0, 0, 0, 0, 0, 0, 0, 0, 0,0.0,0.0,0.0,0.6666666666666666,0.0,0.0,0.0,0.0,0.0,0.0,0.0,0.0,0.0,142,core\src\test\java\org\apache\oozie\service\TestActionCheckerService.java,0,0,0,0
org.apache.oozie.service.TestActionService, 0, 0, 0, 0, 0, 0, 0, 0, 0, 0, 0, 0, 0, 0,0.0,0.0,0.0,0.0,0.0,0.0,0.0,0.0,0.0,0.0,0.0,0.0,0.0,19,core\src\test\java\org\apache\oozie\service\TestActionService.java,0,0,0,0
org.apache.oozie.service.TestAuthorizationService, 0, 0, 0, 0, 0, 0, 0, 0, 0, 0, 0, 0, 0, 0,0.0,0.0,0.0,0.5714285714285714,0.0,0.0,0.0,0.14285714285714285,0.0,0.0,0.0,0.0,0.0,239,core\src\test\java\org\apache\oozie\service\TestAuthorizationService.java,0,0,0,0
org.apache.oozie.service.TestConfigurationService, 0, 0, 0, 0, 0, 0, 0, 0, 0, 0, 0, 0, 0, 0,0.0,0.0,0.0,0.0,0.0,0.0,0.0,0.0,0.0,0.0,0.0,0.0,0.0,65,core\src\test\java\org\apache\oozie\service\TestConfigurationService.java,0,0,0,0
org.apache.oozie.service.TestCoordMaterializeTriggerService, 0, 0, 0, 0, 0, 0, 0, 1, 0, 0, 0, 0, 0, 1,0.0,0.0,0.0,0.4,0.0,0.0,0.0,0.0,0.0,0.0,0.0,0.0,0.0,98,core\src\test\java\org\apache\oozie\service\TestCoordMaterializeTriggerService.java,0,0,0,0
org.apache.oozie.service.TestELService, 0, 0, 0, 0, 0, 0, 0, 0, 0, 0, 0, 0, 0, 0,0.0,0.0,0.0,0.0,0.0,0.0,0.0,0.0,0.0,0.0,0.0,0.0,0.0,26,core\src\test\java\org\apache\oozie\service\TestELService.java,0,0,0,0
org.apache.oozie.service.TestGroupsService, 0, 0, 0, 0, 0, 0, 0, 0, 0, 0, 0, 0, 0, 0,0.0,0.0,0.0,0.0,0.0,0.0,0.0,0.0,0.0,0.0,0.0,0.0,0.0,35,core\src\test\java\org\apache\oozie\service\TestGroupsService.java,0,0,0,0
org.apache.oozie.service.TestHCatAccessorService, 0, 0, 0, 0, 0, 0, 0, 0, 0, 0, 0, 0, 0, 0,0.0,0.0,0.0,0.0,0.0,0.0,0.0,0.0,0.0,0.0,0.0,0.0,0.0,63,core\src\test\java\org\apache\oozie\service\TestHCatAccessorService.java,0,0,0,0
org.apache.oozie.service.TestHadoopAccessorService, 0, 0, 0, 0, 0, 0, 0, 0, 0, 0, 0, 0, 0, 0,0.0,0.0,0.0,0.0,0.0,0.0,0.0,0.0,0.0,0.0,0.0,0.0,0.0,110,core\src\test\java\org\apache\oozie\service\TestHadoopAccessorService.java,0,0,0,0
org.apache.oozie.service.TestInstrumentationService, 0, 0, 0, 0, 0, 0, 0, 0, 0, 0, 0, 0, 0, 0,0.0,0.0,0.0,0.0,0.0,0.0,0.0,0.0,0.0,0.0,0.0,0.0,0.0,16,core\src\test\java\org\apache\oozie\service\TestInstrumentationService.java,0,0,0,0
org.apache.oozie.service.TestJMSAccessorService, 0, 0, 0, 0, 0, 0, 0, 0, 0, 0, 0, 0, 0, 0,0.0,0.0,0.0,0.0,0.0,0.0,0.0,0.0,0.0,0.0,0.0,0.0,0.0,202,core\src\test\java\org\apache\oozie\service\TestJMSAccessorService.java,0,0,0,0
org.apache.oozie.service.TestJPAService, 0, 0, 0, 0, 0, 0, 0, 0, 0, 0, 0, 0, 0, 0,0.0,0.0,0.0,0.0,0.0,0.0,0.0,0.0,0.0,0.0,0.0,0.0,0.0,29,core\src\test\java\org\apache\oozie\service\TestJPAService.java,0,0,0,0
org.apache.oozie.service.TestLiteWorkflowStoreService, 0, 0, 0, 0, 0, 0, 0, 0, 0, 0, 0, 0, 0, 0,0.0,0.0,0.0,0.0,0.0,0.0,0.0,0.0,0.0,0.0,0.0,0.0,0.0,26,core\src\test\java\org\apache\oozie\service\TestLiteWorkflowStoreService.java,0,0,0,0
org.apache.oozie.service.TestMemoryLocksService, 0, 0, 0, 0, 0, 0, 0, 0, 0, 0, 0, 0, 0, 0,0.0,0.0,0.0,0.0,0.0,0.0,0.0,0.0,0.0,0.0,0.0,0.0,0.0,15,core\src\test\java\org\apache\oozie\service\TestMemoryLocksService.java,0,0,0,0
org.apache.oozie.service.TestPartitionDependencyManagerEhcache, 0, 0, 0, 0, 0, 0, 0, 0, 0, 0, 0, 0, 0, 0,0.0,0.0,0.0,0.0,0.0,0.0,0.0,1.0,0.0,0.0,0.0,0.0,0.0,93,core\src\test\java\org\apache\oozie\service\TestPartitionDependencyManagerEhcache.java,0,0,0,0
org.apache.oozie.service.TestPartitionDependencyManagerService, 0, 0, 0, 0, 0, 0, 0, 1, 0, 0, 0, 0, 0, 1,0.0,0.0,0.0,0.0,0.0,0.0,0.0,0.0,0.0,0.0,0.0,0.0,0.0,125,core\src\test\java\org\apache\oozie\service\TestPartitionDependencyManagerService.java,0,0,0,0
org.apache.oozie.service.TestPauseTransitService, 0, 0, 0, 0, 0, 0, 0, 1, 0, 0, 0, 0, 0, 1,0.0,0.0,0.0,0.4166666666666667,0.0,0.0,0.0,0.0,0.0,0.0,0.0,0.0,0.0,269,core\src\test\java\org\apache\oozie\service\TestPauseTransitService.java,0,0,0,0
org.apache.oozie.service.TestPurgeService, 0, 0, 0, 0, 0, 0, 0, 1, 0, 0, 0, 0, 0, 1,0.0,0.0,0.0,0.47368421052631576,0.0,0.0,0.0,0.0,0.0,0.0,0.0,0.0,0.0,198,core\src\test\java\org\apache\oozie\service\TestPurgeService.java,0,0,0,0
org.apache.oozie.service.TestRecoveryService, 0, 0, 0, 1, 0, 0, 0, 1, 0, 0, 0, 0, 0, 2,0.0,0.0,0.0,0.4444444444444444,0.0,0.0,0.0,0.05555555555555555,0.0,0.0,0.0,0.0,0.0,576,core\src\test\java\org\apache\oozie\service\TestRecoveryService.java,0,0,0,0
org.apache.oozie.service.TestSchedulerService, 0, 0, 0, 0, 0, 0, 0, 0, 0, 0, 0, 0, 0, 0,0.0,0.0,0.0,0.0,0.0,0.0,0.0,0.0,0.0,0.0,0.0,0.0,0.0,28,core\src\test\java\org\apache\oozie\service\TestSchedulerService.java,0,0,0,0
org.apache.oozie.service.TestSchemaService, 0, 0, 0, 1, 0, 0, 0, 0, 0, 0, 0, 0, 0, 1,0.0,0.0,0.0,1.0,0.0,0.0,0.0,0.0,0.0,0.0,0.0,0.0,0.0,164,core\src\test\java\org\apache\oozie\service\TestSchemaService.java,0,0,0,0
org.apache.oozie.service.TestServices, 0, 0, 0, 0, 0, 0, 0, 0, 0, 0, 0, 0, 0, 0,0.0,0.0,0.0,0.0,0.0,0.0,0.0,0.0,0.0,0.0,0.0,0.0,0.0,84,core\src\test\java\org\apache\oozie\service\TestServices.java,0,0,0,0
org.apache.oozie.service.TestStatusTransitService, 0, 0, 0, 1, 0, 0, 0, 1, 0, 0, 0, 0, 0, 2,0.0,0.0,0.0,0.32142857142857145,0.0,0.0,0.0,0.0,0.0,0.0,0.0,0.0,0.0,945,core\src\test\java\org\apache\oozie\service\TestStatusTransitService.java,0,0,0,0
org.apache.oozie.service.TestStoreService, 0, 0, 0, 0, 0, 0, 0, 0, 0, 0, 0, 0, 0, 0,0.0,0.0,0.0,0.0,0.0,0.0,0.0,0.0,0.0,0.0,0.0,0.0,0.0,18,core\src\test\java\org\apache\oozie\service\TestStoreService.java,0,0,0,0
org.apache.oozie.service.TestUUIDService, 0, 0, 0, 0, 0, 0, 0, 0, 0, 0, 0, 0, 0, 0,0.0,0.0,0.0,0.0,0.0,0.0,0.0,0.0,0.0,0.0,0.0,0.0,0.0,66,core\src\test\java\org\apache\oozie\service\TestUUIDService.java,0,0,0,0
org.apache.oozie.service.WorkflowSchemaService, 0, 0, 0, 0, 0, 0, 0, 0, 0, 0, 0, 0, 0, 0,0.0,0.0,0.0,0.0,0.0,0.0,0.0,0.0,0.0,0.0,0.0,0.0,0.0,38,core\src\main\java\org\apache\oozie\service\WorkflowSchemaService.java,0,0,0,0
org.apache.oozie.service.WorkflowStoreService, 0, 0, 0, 0, 0, 0, 0, 0, 0, 0, 0, 0, 0, 0,0.0,0.0,0.0,0.0,0.0,0.0,0.0,0.0,0.0,0.0,0.0,0.0,0.0,34,core\src\main\java\org\apache\oozie\service\WorkflowStoreService.java,0,0,0,0
org.apache.oozie.servlet.BaseJobServlet, 0, 0, 0, 0, 0, 0, 0, 0, 0, 0, 0, 0, 0, 0,0.0,0.0,0.0,0.125,0.0,0.0,0.0,0.125,0.0,0.0,0.0,0.0,0.0,220,core\src\main\java\org\apache\oozie\servlet\BaseJobServlet.java,0,0,0,0
org.apache.oozie.servlet.BaseJobsServlet, 0, 0, 0, 0, 0, 0, 0, 0, 0, 0, 0, 0, 0, 0,0.0,0.0,0.0,0.0,0.0,0.0,0.0,0.0,0.0,0.0,0.0,0.0,0.0,78,core\src\main\java\org\apache\oozie\servlet\BaseJobsServlet.java,0,0,0,0
org.apache.oozie.servlet.CallbackServlet, 0, 0, 0, 0, 0, 0, 0, 0, 0, 0, 0, 0, 0, 0,0.0,0.0,0.0,0.0,0.0,0.0,0.0,0.0,0.0,0.0,0.0,0.0,0.0,89,core\src\main\java\org\apache\oozie\servlet\CallbackServlet.java,0,0,0,0
org.apache.oozie.servlet.HostnameFilter, 0, 0, 0, 0, 0, 0, 0, 0, 0, 0, 0, 0, 0, 0,0.0,0.0,0.0,0.0,0.0,0.0,0.0,0.0,0.0,0.0,0.0,0.0,0.0,37,core\src\main\java\org\apache\oozie\servlet\HostnameFilter.java,0,0,0,0
org.apache.oozie.servlet.MyJsonRestServlet, 1, 0, 0, 0, 0, 0, 0, 0, 0, 0, 0, 0, 0, 1,0.0,0.0,0.0,0.0,0.0,0.0,0.0,0.0,0.0,0.0,0.0,0.0,0.0,72,core\src\test\java\org\apache\oozie\servlet\MyJsonRestServlet.java,0,0,0,0
org.apache.oozie.servlet.ServicesLoader, 0, 0, 0, 0, 0, 0, 0, 0, 0, 0, 0, 0, 0, 0,0.0,0.0,0.0,0.0,0.0,0.0,0.0,0.0,0.0,0.0,0.0,0.0,0.0,25,core\src\main\java\org\apache\oozie\servlet\ServicesLoader.java,0,0,0,0
org.apache.oozie.servlet.ServletUtilities, 0, 0, 0, 0, 0, 0, 0, 0, 0, 0, 0, 0, 0, 0,0.0,0.0,0.0,0.0,0.0,0.0,0.0,0.0,0.0,0.0,0.0,0.0,0.0,37,core\src\main\java\org\apache\oozie\servlet\ServletUtilities.java,0,0,0,0
org.apache.oozie.servlet.TestHostnameFilter, 0, 0, 0, 0, 0, 0, 0, 0, 0, 0, 0, 0, 0, 0,0.0,0.0,0.0,0.0,0.0,0.0,0.0,0.0,0.0,0.0,0.0,0.0,0.0,44,core\src\test\java\org\apache\oozie\servlet\TestHostnameFilter.java,0,0,0,0
org.apache.oozie.servlet.V0AdminServlet, 0, 0, 0, 0, 0, 0, 0, 0, 0, 0, 0, 0, 0, 0,0.0,0.0,0.0,0.0,0.0,0.0,0.0,0.0,0.0,0.0,0.0,0.0,0.0,57,core\src\main\java\org\apache\oozie\servlet\V0AdminServlet.java,0,0,0,0
org.apache.oozie.servlet.V0JobServlet, 0, 0, 0, 0, 0, 0, 0, 0, 0, 0, 0, 0, 0, 0,0.0,0.0,0.0,0.0,0.0,0.0,0.0,0.0,0.0,0.0,0.0,0.0,0.0,120,core\src\main\java\org\apache\oozie\servlet\V0JobServlet.java,0,0,0,0
org.apache.oozie.servlet.V0JobsServlet, 0, 0, 0, 0, 0, 0, 0, 0, 0, 0, 0, 0, 0, 0,0.0,0.0,0.0,0.2,0.0,0.0,0.0,0.0,0.0,0.0,0.0,0.0,0.0,64,core\src\main\java\org\apache\oozie\servlet\V0JobsServlet.java,0,0,0,0
org.apache.oozie.servlet.V1AdminServlet, 0, 0, 0, 0, 0, 0, 0, 0, 0, 0, 0, 0, 0, 0,0.0,0.0,0.0,0.0,0.0,0.0,0.0,0.0,0.0,0.0,0.0,0.0,0.0,77,core\src\main\java\org\apache\oozie\servlet\V1AdminServlet.java,0,0,0,0
org.apache.oozie.servlet.V2JobServlet, 0, 0, 0, 0, 0, 0, 0, 0, 0, 0, 0, 0, 0, 0,0.0,0.0,0.0,0.5,0.0,0.0,0.0,0.5,0.0,0.0,0.0,0.0,0.0,30,core\src\main\java\org\apache\oozie\servlet\V2JobServlet.java,0,4,0,4
org.apache.oozie.servlet.VersionServlet, 0, 0, 0, 0, 0, 0, 0, 0, 0, 0, 0, 0, 0, 0,0.0,0.0,0.0,0.0,0.0,0.0,0.0,0.0,0.0,0.0,0.0,0.0,0.0,16,core\src\main\java\org\apache\oozie\servlet\VersionServlet.java,0,0,0,0
org.apache.oozie.servlet.XServletException, 0, 0, 0, 0, 0, 0, 0, 0, 0, 0, 0, 0, 0, 0,0.0,0.0,0.0,0.0,0.0,0.0,0.0,0.0,0.0,0.0,0.0,0.0,0.0,21,core\src\main\java\org\apache\oozie\servlet\XServletException.java,0,0,0,0
org.apache.oozie.sla.SLACalcStatus, 0, 0, 0, 1, 0, 0, 0, 0, 0, 0, 0, 0, 0, 1,0.125,0.0,0.0,0.25,0.0,0.0,0.0,0.0,0.0,0.0,0.0,0.0,0.0,185,core\src\main\java\org\apache\oozie\sla\SLACalcStatus.java,0,0,0,0
org.apache.oozie.sla.SLACalculator, 0, 0, 0, 0, 0, 0, 0, 0, 0, 0, 0, 0, 0, 0,0.0,0.0,0.0,0.0,0.0,0.0,0.0,0.0,0.0,0.0,0.0,0.0,0.0,185,core\src\main\java\org\apache\oozie\sla\SLACalculator.java,0,0,0,0
org.apache.oozie.sla.SLASummaryBean, 0, 0, 0, 1, 0, 0, 0, 0, 0, 0, 0, 0, 0, 1,0.1,0.0,0.0,0.1,0.0,0.0,0.0,0.2,0.0,0.0,0.0,0.0,0.0,282,core\src\main\java\org\apache\oozie\sla\SLASummaryBean.java,0,0,0,0
org.apache.oozie.sla.TestSLACalculationJPAExecutor, 0, 0, 0, 0, 0, 0, 0, 1, 0, 0, 0, 0, 0, 1,0.0,0.0,0.0,0.25,0.0,0.0,0.0,0.0,0.0,0.0,0.0,0.0,0.0,144,core\src\test\java\org\apache\oozie\sla\TestSLACalculationJPAExecutor.java,0,0,0,0
org.apache.oozie.sla.TestSLACalculatorMemory, 0, 0, 0, 0, 0, 0, 0, 0, 0, 0, 0, 0, 0, 0,0.0,0.0,0.0,0.5714285714285714,0.0,0.0,0.0,0.0,0.0,0.0,0.0,0.0,0.0,448,core\src\test\java\org\apache\oozie\sla\TestSLACalculatorMemory.java,0,0,0,0
org.apache.oozie.sla.TestSLAEmailEventListener, 0, 0, 0, 0, 0, 0, 0, 0, 0, 0, 0, 0, 0, 0,0.0,0.0,0.0,1.0,0.0,0.0,0.0,0.0,0.0,0.0,0.0,0.0,0.0,303,core\src\test\java\org\apache\oozie\sla\TestSLAEmailEventListener.java,0,0,0,0
org.apache.oozie.sla.TestSLAEventGeneration, 0, 0, 0, 0, 0, 0, 0, 0, 0, 0, 0, 0, 0, 0,0.041666666666666664,0.0,0.041666666666666664,0.4583333333333333,0.0,0.0,0.0,0.125,0.0,0.0,0.0,0.0,0.0,399,core\src\test\java\org\apache\oozie\sla\TestSLAEventGeneration.java,0,0,0,0
org.apache.oozie.sla.TestSLAJobEventListener, 1, 0, 0, 0, 0, 0, 0, 0, 0, 0, 0, 0, 0, 1,0.1111111111111111,0.0,0.1111111111111111,0.3333333333333333,0.0,0.0,0.0,0.5555555555555556,0.0,0.0,0.0,0.0,0.0,85,core\src\test\java\org\apache\oozie\sla\TestSLAJobEventListener.java,0,0,0,0
org.apache.oozie.sla.TestSLARegistrationGetJPAExecutor, 0, 0, 0, 0, 0, 0, 0, 1, 0, 0, 0, 0, 0, 1,0.0,0.0,0.0,0.0,0.0,0.0,0.0,0.0,0.0,0.0,0.0,0.0,0.0,53,core\src\test\java\org\apache\oozie\sla\TestSLARegistrationGetJPAExecutor.java,0,0,0,0
org.apache.oozie.sla.TestSLARegistrationGetRecordsOnRestartJPAExecutor, 0, 0, 0, 0, 0, 0, 0, 0, 0, 0, 0, 0, 0, 0,0.0,0.0,0.0,0.0,0.0,0.0,0.0,0.0,0.0,0.0,0.0,0.0,0.0,39,core\src\test\java\org\apache\oozie\sla\TestSLARegistrationGetRecordsOnRestartJPAExecutor.java,0,0,0,0
org.apache.oozie.sla.TestSLASummaryGetOnRestartJPAExecutor, 0, 0, 0, 0, 0, 0, 0, 0, 0, 0, 0, 0, 0, 0,0.0,0.0,0.0,0.3333333333333333,0.0,0.0,0.0,0.0,0.0,0.0,0.0,0.0,0.0,43,core\src\test\java\org\apache\oozie\sla\TestSLASummaryGetOnRestartJPAExecutor.java,0,0,0,0
org.apache.oozie.sla.listener.SLAEventListener, 0, 0, 0, 0, 0, 0, 0, 0, 0, 0, 0, 0, 0, 0,0.0,0.0,0.0,1.0,0.0,0.0,0.0,0.0,0.0,0.0,0.0,0.0,0.0,10,core\src\main\java\org\apache\oozie\sla\listener\SLAEventListener.java,0,0,0,0
org.apache.oozie.sla.listener.SLAJobEventListener, 0, 0, 0, 0, 0, 0, 0, 0, 0, 0, 0, 0, 0, 0,0.125,0.0,0.0,0.125,0.0,0.0,0.0,0.625,0.0,0.0,0.0,0.0,0.0,38,core\src\main\java\org\apache\oozie\sla\listener\SLAJobEventListener.java,0,0,0,0
org.apache.oozie.sla.service.SLAService, 1, 0, 1, 1, 0, 0, 0, 1, 0, 0, 0, 0, 0, 4,0.2,0.0,0.0,0.2,0.0,0.0,0.0,0.2,0.0,0.0,0.0,0.0,0.0,118,core\src\main\java\org\apache\oozie\sla\service\SLAService.java,0,0,0,0
org.apache.oozie.store.SLAStore, 0, 0, 0, 0, 0, 0, 0, 0, 0, 0, 0, 0, 0, 0,0.0,0.0,0.0,0.2857142857142857,0.0,0.0,0.0,0.0,0.0,0.0,0.0,0.0,0.0,110,core\src\main\java\org\apache\oozie\store\SLAStore.java,0,0,0,0
org.apache.oozie.store.Store, 0, 0, 0, 0, 0, 0, 0, 0, 0, 0, 0, 0, 0, 0,0.0,0.0,0.0,0.42857142857142855,0.0,0.0,0.0,0.2857142857142857,0.0,0.0,0.0,0.0,0.0,54,core\src\main\java\org\apache\oozie\store\Store.java,0,0,0,0
org.apache.oozie.store.StoreException, 0, 0, 0, 0, 0, 0, 0, 0, 0, 0, 0, 0, 0, 0,0.0,0.0,0.0,0.16666666666666666,0.0,0.0,0.0,0.08333333333333333,0.0,0.0,0.0,0.0,0.0,8,core\src\main\java\org\apache\oozie\store\StoreException.java,0,0,0,0
org.apache.oozie.store.TestCoordinatorStore, 0, 0, 0, 1, 0, 0, 0, 0, 0, 0, 0, 0, 0, 1,0.0,0.0,0.0,0.6666666666666666,0.0,0.0,0.0,0.0,0.0,0.0,0.0,0.0,0.0,331,core\src\test\java\org\apache\oozie\store\TestCoordinatorStore.java,0,0,0,0
org.apache.oozie.store.TestSLAStore, 0, 0, 0, 0, 0, 0, 0, 0, 0, 0, 0, 0, 0, 0,0.0,0.0,0.0,0.5,0.0,0.0,0.0,0.0,0.0,0.0,0.0,0.0,0.0,59,core\src\test\java\org\apache\oozie\store\TestSLAStore.java,0,0,0,0
org.apache.oozie.test.MiniOozieTestCase, 0, 0, 0, 0, 0, 0, 0, 0, 0, 0, 0, 0, 0, 0,0.0,0.0,0.0,0.0,0.0,0.0,0.0,0.0,0.0,0.0,0.0,0.0,0.0,16,core\src\test\java\org\apache\oozie\test\MiniOozieTestCase.java,0,0,0,0
org.apache.oozie.test.PingServlet, 1, 0, 1, 0, 0, 0, 0, 0, 0, 0, 0, 0, 0, 2,0.0,0.0,0.0,0.0,0.0,0.0,0.0,0.0,0.0,0.0,0.0,0.0,0.0,20,core\src\test\java\org\apache\oozie\test\PingServlet.java,0,0,0,0
org.apache.oozie.test.TestEmbeddedServletContainer, 0, 0, 0, 0, 0, 0, 0, 0, 0, 0, 0, 0, 0, 0,0.0,0.0,0.0,0.0,0.0,0.0,0.0,0.0,0.0,0.0,0.0,0.0,0.0,24,core\src\test\java\org\apache\oozie\test\TestEmbeddedServletContainer.java,0,0,0,0
org.apache.oozie.test.TestXFsTestCase, 0, 0, 0, 0, 0, 0, 0, 0, 0, 0, 0, 0, 0, 0,0.0,0.0,0.0,0.0,0.0,0.0,0.0,0.0,0.0,0.0,0.0,0.0,0.0,16,core\src\test\java\org\apache\oozie\test\TestXFsTestCase.java,0,0,0,0
org.apache.oozie.test.XFsTestCase, 0, 0, 0, 0, 0, 0, 0, 0, 0, 0, 0, 0, 0, 0,0.05714285714285714,0.0,0.0,0.02857142857142857,0.0,0.0,0.0,0.2,0.0,0.0,0.0,0.0,0.0,64,core\src\test\java\org\apache\oozie\test\XFsTestCase.java,0,0,0,0
org.apache.oozie.tools.LauncherSecurityManager, 0, 0, 0, 0, 0, 0, 0, 0, 0, 0, 0, 0, 0, 0,0.0,0.0,0.0,0.0,0.0,0.0,0.0,0.0,0.0,0.0,0.0,0.0,0.0,38,tools\src\test\java\org\apache\oozie\tools\LauncherSecurityManager.java,0,0,0,0
org.apache.oozie.tools.OozieSharelibCLI, 0, 0, 0, 0, 0, 0, 0, 0, 0, 0, 0, 0, 0, 0,0.0,0.0,0.0,0.0,0.0,0.0,0.0,0.0,0.0,0.0,0.0,0.0,0.0,122,tools\src\main\java\org\apache\oozie\tools\OozieSharelibCLI.java,0,0,0,0
org.apache.oozie.util.ClassUtils, 0, 0, 0, 0, 0, 0, 0, 0, 0, 0, 0, 0, 0, 0,0.5,0.0,0.0,0.0,0.0,0.0,0.0,0.0,0.0,0.0,0.0,0.0,0.0,23,core\src\main\java\org\apache\oozie\util\ClassUtils.java,0,0,0,0
org.apache.oozie.util.ConfigUtils, 0, 0, 0, 0, 0, 0, 0, 0, 0, 0, 0, 0, 0, 0,0.0,0.0,0.0,0.3333333333333333,0.0,0.0,0.0,0.3333333333333333,0.0,0.0,0.0,0.0,0.0,21,core\src\main\java\org\apache\oozie\util\ConfigUtils.java,0,0,0,0
org.apache.oozie.util.ELEvaluationException, 0, 0, 0, 0, 0, 0, 0, 0, 0, 0, 0, 0, 0, 0,0.0,0.0,0.0,1.0,0.0,0.0,0.0,0.0,0.0,0.0,0.0,0.0,0.0,8,core\src\main\java\org\apache\oozie\util\ELEvaluationException.java,0,0,0,0
org.apache.oozie.util.InstrumentUtils, 0, 0, 0, 0, 0, 0, 0, 0, 0, 0, 0, 0, 0, 0,0.0,0.0,0.0,0.09090909090909091,0.0,0.0,0.0,0.2727272727272727,0.0,0.0,0.0,0.0,0.0,14,core\src\main\java\org\apache\oozie\util\InstrumentUtils.java,0,0,0,0
org.apache.oozie.util.Instrumentable, 0, 0, 0, 0, 0, 0, 0, 0, 0, 0, 0, 0, 0, 0,0.0,0.0,0.0,0.0,0.0,0.0,0.0,0.0,0.0,0.0,0.0,0.0,0.0,14,core\src\main\java\org\apache\oozie\util\Instrumentable.java,0,0,0,0
org.apache.oozie.util.LogUtils, 0, 0, 0, 0, 0, 0, 0, 0, 0, 0, 0, 0, 0, 0,0.0,0.0,0.0,0.3783783783783784,0.0,0.0,0.0,0.05405405405405406,0.0,0.0,0.0,0.0,0.0,48,core\src\main\java\org\apache\oozie\util\LogUtils.java,0,0,0,0
org.apache.oozie.util.OozieRollingPolicy, 0, 0, 0, 0, 0, 0, 0, 0, 0, 0, 0, 0, 0, 0,0.0,0.0,0.0,0.0,0.0,0.0,0.0,0.0,0.0,0.0,0.0,0.0,0.0,131,core\src\main\java\org\apache\oozie\util\OozieRollingPolicy.java,0,0,0,0
org.apache.oozie.util.ParameterVerifierException, 0, 0, 0, 0, 0, 0, 0, 0, 0, 0, 0, 0, 0, 0,0.0,0.0,0.0,0.0,0.0,0.0,0.0,0.0,0.0,0.0,0.0,0.0,0.0,8,core\src\main\java\org\apache\oozie\util\ParameterVerifierException.java,0,0,0,0
org.apache.oozie.util.PollablePriorityDelayQueue, 0, 0, 0, 0, 0, 0, 0, 0, 0, 0, 0, 0, 0, 0,0.0,0.0,0.0,0.0,0.0,0.0,0.0,0.0,0.0,0.0,0.0,0.0,0.0,51,core\src\main\java\org\apache\oozie\util\PollablePriorityDelayQueue.java,0,0,0,0
org.apache.oozie.util.StatusUtils, 0, 0, 0, 0, 0, 0, 0, 0, 0, 0, 0, 0, 0, 0,0.0,0.0,0.0,0.4,0.0,0.0,0.0,0.2,0.0,0.0,0.0,0.0,0.0,111,core\src\main\java\org\apache\oozie\util\StatusUtils.java,0,0,0,0
org.apache.oozie.util.TestClassUtils, 0, 0, 0, 0, 0, 0, 0, 0, 0, 0, 0, 0, 0, 0,0.0,0.0,0.0,0.0,0.0,0.0,0.0,0.0,0.0,0.0,0.0,0.0,0.0,5,core\src\test\java\org\apache\oozie\util\TestClassUtils.java,0,0,0,0
org.apache.oozie.util.TestCoordActionsInDateRange, 0, 0, 0, 0, 0, 0, 0, 0, 0, 0, 0, 0, 0, 0,0.0,0.0,0.0,0.6666666666666666,0.0,0.0,0.0,0.0,0.0,0.0,0.0,0.0,0.0,75,core\src\test\java\org\apache\oozie\util\TestCoordActionsInDateRange.java,0,0,0,0
org.apache.oozie.util.TestDateUtils, 0, 0, 0, 0, 0, 0, 0, 0, 0, 0, 0, 0, 0, 0,0.0,0.0,0.0,0.0,0.0,0.0,0.0,0.0,0.0,0.0,0.0,0.0,0.0,94,core\src\test\java\org\apache\oozie\util\TestDateUtils.java,0,0,0,0
org.apache.oozie.util.TestIOUtils, 0, 0, 0, 0, 0, 0, 0, 0, 0, 0, 0, 0, 0, 0,0.0,0.0,0.0,0.0,0.0,0.0,0.0,0.0,0.0,0.0,0.0,0.0,0.0,42,core\src\test\java\org\apache\oozie\util\TestIOUtils.java,0,0,0,0
org.apache.oozie.util.TestInstrumentation, 0, 0, 0, 0, 0, 0, 0, 0, 0, 0, 0, 0, 0, 0,0.0,0.0,0.0,0.0,0.0,0.0,0.0,0.0,0.0,0.0,0.0,0.0,0.0,244,core\src\test\java\org\apache\oozie\util\TestInstrumentation.java,0,0,0,0
org.apache.oozie.util.TestParamChecker, 0, 0, 0, 0, 0, 0, 0, 0, 0, 0, 0, 0, 0, 0,0.0,0.0,0.0,0.0,0.0,0.0,0.0,0.0,0.0,0.0,0.0,0.0,0.0,169,core\src\test\java\org\apache\oozie\util\TestParamChecker.java,0,0,0,0
org.apache.oozie.util.TestParameterVerifier, 0, 0, 0, 0, 0, 0, 0, 0, 0, 0, 0, 0, 0, 0,0.0,0.0,0.0,0.0,0.0,0.0,0.0,0.0,0.0,0.0,0.0,0.0,0.0,121,core\src\test\java\org\apache\oozie\util\TestParameterVerifier.java,0,0,0,0
org.apache.oozie.util.TestPriorityDelayQueue, 0, 0, 0, 0, 0, 0, 0, 0, 0, 0, 0, 0, 0, 0,0.0,0.0,0.0,0.0,0.0,0.0,0.0,0.0,0.0,0.0,0.0,0.0,0.0,283,core\src\test\java\org\apache\oozie\util\TestPriorityDelayQueue.java,0,0,0,0
org.apache.oozie.util.TestWritableUtils, 0, 0, 0, 0, 0, 0, 0, 0, 0, 0, 0, 0, 0, 0,0.0,0.0,0.0,0.0,0.0,0.0,0.0,0.0,0.0,0.0,0.0,0.0,0.0,21,core\src\test\java\org\apache\oozie\util\TestWritableUtils.java,0,0,0,0
org.apache.oozie.util.TestXLog, 0, 0, 0, 0, 0, 0, 0, 0, 0, 0, 0, 0, 0, 0,0.0,0.0,0.0,0.0,0.0,0.0,0.0,0.0,0.0,0.0,0.0,0.0,0.0,189,core\src\test\java\org\apache\oozie\util\TestXLog.java,0,0,0,0
org.apache.oozie.util.TestXLogFilter, 0, 0, 0, 0, 0, 0, 0, 0, 0, 0, 0, 0, 0, 0,0.0,0.0,0.0,0.0,0.0,0.0,0.0,0.0,0.0,0.0,0.0,0.0,0.0,59,core\src\test\java\org\apache\oozie\util\TestXLogFilter.java,0,0,0,0
org.apache.oozie.util.TestXmlUtils, 0, 0, 0, 0, 0, 0, 0, 0, 0, 0, 0, 0, 0, 0,0.0,0.0,0.0,0.0,0.0,0.0,0.0,0.0,0.0,0.0,0.0,0.0,0.0,14,core\src\test\java\org\apache\oozie\util\TestXmlUtils.java,0,0,0,0
org.apache.oozie.util.WritableUtils, 0, 0, 0, 0, 0, 0, 0, 0, 0, 0, 0, 0, 0, 0,0.0,0.0,0.0,0.75,0.0,0.0,0.0,0.125,0.0,0.0,0.0,0.0,0.0,34,core\src\main\java\org\apache\oozie\util\WritableUtils.java,0,0,0,0
org.apache.oozie.util.XCallable, 0, 0, 0, 0, 0, 0, 0, 0, 0, 0, 0, 0, 0, 0,0.0,0.0,0.0,0.0,0.0,0.0,0.0,0.0,0.0,0.0,0.0,0.0,0.0,34,core\src\main\java\org\apache\oozie\util\XCallable.java,0,0,0,0
org.apache.oozie.util.XLogReader, 0, 0, 0, 0, 0, 0, 0, 0, 0, 0, 0, 0, 0, 0,0.0,0.0,0.0,0.0,0.0,0.0,0.0,0.0,0.0,0.0,0.0,0.0,0.0,45,core\src\main\java\org\apache\oozie\util\XLogReader.java,0,0,0,0
org.apache.oozie.util.db.InstrumentedBasicDataSource, 0, 0, 0, 0, 0, 0, 0, 0, 0, 0, 0, 0, 0, 0,0.0,0.0,0.0,0.0,0.0,0.0,0.0,0.0,0.0,0.0,0.0,0.0,0.0,15,core\src\main\java\org\apache\oozie\util\db\InstrumentedBasicDataSource.java,0,0,0,0
org.apache.oozie.util.db.SLADbOperations, 0, 0, 0, 0, 0, 0, 0, 1, 0, 0, 0, 0, 0, 1,0.0,0.0,0.0,0.5,0.0,0.0,0.0,0.125,0.0,0.0,0.0,0.0,0.0,163,core\src\main\java\org\apache\oozie\util\db\SLADbOperations.java,0,0,0,0
org.apache.oozie.util.db.SLADbXOperations, 0, 0, 0, 0, 0, 0, 0, 1, 0, 0, 0, 0, 0, 1,0.0,0.0,0.0,0.42857142857142855,0.0,0.0,0.0,0.0,0.0,0.0,0.0,0.0,0.0,104,core\src\main\java\org\apache\oozie\util\db\SLADbXOperations.java,0,0,0,0
org.apache.oozie.util.db.ValidateConnectionBean, 0, 0, 1, 0, 0, 0, 0, 0, 0, 0, 0, 0, 0, 1,0.0,0.0,0.0,0.0,0.0,0.0,0.0,0.0,0.0,0.0,0.0,0.0,0.0,5,core\src\main\java\org\apache\oozie\util\db\ValidateConnectionBean.java,0,0,0,0
org.apache.oozie.workflow.WorkflowApp, 0, 0, 0, 0, 0, 0, 0, 0, 0, 0, 0, 0, 0, 0,0.0,0.0,0.0,0.0,0.0,0.0,0.0,0.0,0.0,0.0,0.0,0.0,0.0,5,core\src\main\java\org\apache\oozie\workflow\WorkflowApp.java,0,0,0,0
org.apache.oozie.workflow.WorkflowException, 0, 0, 0, 0, 0, 0, 0, 0, 0, 0, 0, 0, 0, 0,0.0,0.0,0.0,0.08333333333333333,0.0,0.0,0.0,0.3333333333333333,0.0,0.0,0.0,0.0,0.0,8,core\src\main\java\org\apache\oozie\workflow\WorkflowException.java,0,0,0,0
org.apache.oozie.workflow.WorkflowLib, 0, 0, 0, 0, 0, 0, 0, 0, 0, 0, 0, 0, 0, 0,0.0,0.0,0.0,0.0,0.0,0.0,0.0,0.0,0.0,0.0,0.0,0.0,0.0,8,core\src\main\java\org\apache\oozie\workflow\WorkflowLib.java,0,0,0,0
org.apache.oozie.workflow.lite.ActionNodeDef, 0, 0, 0, 0, 0, 0, 0, 1, 0, 0, 0, 0, 0, 1,0.0,0.0,0.0,1.0,0.0,0.0,0.0,1.0,0.0,0.0,0.0,0.0,0.0,16,core\src\main\java\org\apache\oozie\workflow\lite\ActionNodeDef.java,0,0,0,0
org.apache.oozie.workflow.lite.ActionNodeHandler, 0, 0, 0, 0, 0, 0, 0, 0, 0, 0, 0, 0, 0, 0,0.0,0.0,0.0,0.3333333333333333,0.0,0.0,0.0,0.3333333333333333,0.0,0.0,0.0,0.0,0.0,26,core\src\main\java\org\apache\oozie\workflow\lite\ActionNodeHandler.java,0,0,0,0
org.apache.oozie.workflow.lite.ControlNodeDef, 0, 0, 0, 0, 0, 0, 0, 0, 0, 0, 0, 0, 0, 0,0.0,0.0,0.0,0.16666666666666666,0.0,0.0,0.0,0.16666666666666666,0.0,0.0,0.0,0.0,0.0,9,core\src\main\java\org\apache\oozie\workflow\lite\ControlNodeDef.java,0,0,0,0
org.apache.oozie.workflow.lite.ControlNodeHandler, 0, 0, 0, 0, 0, 0, 0, 0, 0, 0, 0, 0, 0, 0,0.0,0.0,0.0,0.3333333333333333,0.0,0.0,0.0,0.3333333333333333,0.0,0.0,0.0,0.0,0.0,173,core\src\main\java\org\apache\oozie\workflow\lite\ControlNodeHandler.java,0,0,0,0
org.apache.oozie.workflow.lite.DBLiteWorkflowLib, 0, 0, 0, 0, 0, 0, 0, 1, 0, 0, 0, 0, 0, 1,0.0,0.0,0.0,0.0,0.0,0.0,0.0,0.0,0.0,0.0,0.0,0.0,0.0,68,core\src\main\java\org\apache\oozie\workflow\lite\DBLiteWorkflowLib.java,0,0,0,0
org.apache.oozie.workflow.lite.DecisionNodeDef, 0, 0, 0, 0, 0, 0, 0, 0, 0, 0, 0, 0, 0, 0,0.0,0.0,0.0,1.0,0.0,0.0,0.0,1.0,0.0,0.0,0.0,0.0,0.0,7,core\src\main\java\org\apache\oozie\workflow\lite\DecisionNodeDef.java,0,0,0,0
org.apache.oozie.workflow.lite.DecisionNodeHandler, 0, 0, 0, 0, 0, 0, 0, 0, 0, 0, 0, 0, 0, 0,0.0,0.0,0.0,0.3333333333333333,0.0,0.0,0.0,0.3333333333333333,0.0,0.0,0.0,0.0,0.0,20,core\src\main\java\org\apache\oozie\workflow\lite\DecisionNodeHandler.java,0,0,0,0
org.apache.oozie.workflow.lite.EndNodeDef, 0, 0, 0, 0, 0, 0, 0, 0, 0, 0, 0, 0, 0, 0,0.0,0.0,0.0,0.3,0.0,0.0,0.0,0.1,0.0,0.0,0.0,0.0,0.0,21,core\src\main\java\org\apache\oozie\workflow\lite\EndNodeDef.java,0,0,0,0
org.apache.oozie.workflow.lite.ForkNodeDef, 0, 0, 0, 0, 0, 0, 0, 0, 0, 0, 0, 0, 0, 0,0.0,0.0,0.0,0.0,0.0,0.0,0.0,0.0,0.0,0.0,0.0,0.0,0.0,31,core\src\main\java\org\apache\oozie\workflow\lite\ForkNodeDef.java,0,0,0,0
org.apache.oozie.workflow.lite.JoinNodeDef, 0, 0, 0, 0, 0, 0, 0, 0, 0, 0, 0, 0, 0, 0,0.0,0.0,0.0,0.0,0.0,0.0,0.0,0.0,0.0,0.0,0.0,0.0,0.0,56,core\src\main\java\org\apache\oozie\workflow\lite\JoinNodeDef.java,0,0,0,0
org.apache.oozie.workflow.lite.KillNodeDef, 0, 0, 0, 0, 0, 0, 0, 0, 0, 0, 0, 0, 0, 0,0.0,0.0,0.0,0.0,0.0,0.0,0.0,0.0,0.0,0.0,0.0,0.0,0.0,21,core\src\main\java\org\apache\oozie\workflow\lite\KillNodeDef.java,0,0,0,0
org.apache.oozie.workflow.lite.LiteWorkflowLib, 0, 0, 0, 0, 0, 0, 0, 0, 0, 0, 0, 0, 0, 0,0.0,0.0,0.0,0.0,0.0,0.0,0.0,1.0,0.0,0.0,0.0,0.0,0.0,33,core\src\main\java\org\apache\oozie\workflow\lite\LiteWorkflowLib.java,0,0,0,0
org.apache.oozie.workflow.lite.NodeDef, 0, 0, 0, 1, 0, 0, 0, 1, 0, 0, 0, 0, 0, 2,0.0,0.0,0.0,0.0,0.0,0.0,0.0,0.1111111111111111,0.0,0.0,0.0,0.0,0.0,198,core\src\main\java\org\apache\oozie\workflow\lite\NodeDef.java,0,0,0,0
org.apache.oozie.workflow.lite.NodeHandler, 0, 0, 0, 0, 0, 0, 0, 0, 0, 0, 0, 0, 0, 0,0.0,0.0,0.0,0.2,0.0,0.0,0.0,0.2,0.0,0.0,0.0,0.0,0.0,43,core\src\main\java\org\apache\oozie\workflow\lite\NodeHandler.java,0,0,0,0
org.apache.oozie.workflow.lite.StartNodeDef, 0, 0, 0, 0, 0, 0, 0, 0, 0, 0, 0, 0, 0, 0,0.0,0.0,0.0,0.3,0.0,0.0,0.0,0.1,0.0,0.0,0.0,0.0,0.0,23,core\src\main\java\org\apache\oozie\workflow\lite\StartNodeDef.java,0,0,0,0
