ClassName,AntiSingleton,Blob,ClassDataShouldBePrivate,ComplexClass,LargeClass,LazyClass,LongMethod,LongParameterList,MessageChains,RefusedParentBequest,SpaghettiCode,SpeculativeGenerality,SwissArmyKnife,NumOfAPs,AntiSingleton,Blob,ClassDataShouldBePrivate,ComplexClass,LargeClass,LazyClass,LongMethod,LongParameterList,MessageChains,RefusedParentBequest,SpaghettiCode,SpeculativeGenerality,SwissArmyKnife,LOC,name,deleted,added,changed,all
org.apache.shindig.auth.AnonymousAuthenticationHandler, 0, 0, 0, 0, 0, 0, 0, 0, 0, 0, 0, 0, 0, 0,0.0,0.0,0.0,0.0,0.0,0.0,0.0,0.0,0.0,0.0,0.0,0.0,0.0,21,java\common\src\main\java\org\apache\shindig\auth\AnonymousAuthenticationHandler.java,0,0,0,0
org.apache.shindig.auth.AnonymousSecurityToken, 0, 0, 0, 0, 0, 0, 0, 0, 0, 0, 0, 0, 0, 0,0.0,0.0,0.0,0.2,0.0,0.0,0.0,0.0,0.0,0.0,0.0,0.0,0.0,46,java\common\src\main\java\org\apache\shindig\auth\AnonymousSecurityToken.java,0,0,0,0
org.apache.shindig.auth.AuthInfo, 0, 0, 0, 0, 0, 0, 0, 0, 0, 0, 0, 0, 0, 0,0.0,0.0,0.0,0.0,0.0,0.0,0.0,0.0,0.0,0.0,0.0,0.0,0.0,19,java\common\src\main\java\org\apache\shindig\auth\AuthInfo.java,0,0,0,0
org.apache.shindig.auth.AuthInfoUtil, 0, 0, 0, 0, 0, 0, 0, 0, 0, 0, 0, 0, 0, 0,0.0,0.0,0.0,0.0,0.0,0.0,0.0,0.0,0.0,0.0,0.0,0.0,0.0,30,java\common\src\main\java\org\apache\shindig\auth\AuthInfoUtil.java,0,0,0,0
org.apache.shindig.auth.AuthInfoUtilTest, 0, 0, 0, 0, 0, 0, 0, 0, 0, 0, 0, 0, 0, 0,0.0,0.0,0.0,0.0,0.0,0.0,0.0,0.0,0.0,0.0,0.0,0.0,0.0,15,java\common\src\test\java\org\apache\shindig\auth\AuthInfoUtilTest.java,0,0,0,0
org.apache.shindig.auth.AuthenticationServletFilterTest, 0, 0, 0, 0, 0, 0, 0, 0, 0, 0, 0, 0, 0, 0,0.0,0.0,0.0,0.0,0.0,0.0,0.0,0.0,0.0,0.0,0.0,0.0,0.0,41,java\common\src\test\java\org\apache\shindig\auth\AuthenticationServletFilterTest.java,0,0,0,0
org.apache.shindig.auth.BasicSecurityToken, 0, 0, 0, 0, 0, 0, 0, 1, 0, 0, 0, 0, 0, 1,0.0,0.0,0.0,0.0,0.0,0.0,0.0,0.0,0.0,0.0,0.0,0.0,0.0,23,java\common\src\main\java\org\apache\shindig\auth\BasicSecurityToken.java,0,0,0,0
org.apache.shindig.auth.ForwardingSecurityToken, 0, 0, 0, 0, 0, 0, 0, 0, 0, 0, 0, 0, 0, 0,0.0,0.0,0.0,0.0,0.0,0.0,0.0,0.0,0.0,0.0,0.0,0.0,0.0,48,java\common\src\main\java\org\apache\shindig\auth\ForwardingSecurityToken.java,0,0,0,0
org.apache.shindig.auth.OAuthConstants, 0, 0, 0, 0, 0, 0, 0, 0, 0, 0, 0, 0, 0, 0,0.0,0.0,0.0,0.0,0.0,0.0,0.0,0.0,0.0,0.0,0.0,0.0,0.0,10,java\common\src\main\java\org\apache\shindig\auth\OAuthConstants.java,0,0,0,0
org.apache.shindig.auth.SecurityToken, 0, 0, 0, 0, 0, 0, 0, 0, 0, 0, 0, 0, 0, 0,0.0,0.0,0.0,0.0,0.0,0.0,0.0,0.0,0.0,0.0,0.0,0.0,0.0,10,java\common\src\main\java\org\apache\shindig\auth\SecurityToken.java,0,0,0,0
org.apache.shindig.auth.SecurityTokenException, 0, 0, 0, 0, 0, 0, 0, 0, 0, 0, 0, 0, 0, 0,0.0,0.0,0.0,0.0,0.0,0.0,0.0,0.0,0.0,0.0,0.0,0.0,0.0,11,java\common\src\main\java\org\apache\shindig\auth\SecurityTokenException.java,0,0,0,0
org.apache.shindig.common.AllTests, 0, 0, 0, 0, 0, 0, 0, 0, 0, 0, 0, 0, 0, 0,0.0,0.0,0.0,0.0,0.0,0.0,0.0,0.0,0.0,0.0,0.0,0.0,0.0,7,java\common\src\test\java\org\apache\shindig\common\AllTests.java,0,0,0,0
org.apache.shindig.common.EasyMockTestCase, 0, 0, 0, 0, 0, 0, 0, 0, 0, 0, 0, 0, 0, 0,0.0,0.0,0.05,0.05,0.0,0.0,0.0,0.05,0.0,0.0,0.0,0.0,0.0,35,java\common\src\test\java\org\apache\shindig\common\EasyMockTestCase.java,0,0,0,0
org.apache.shindig.common.JsonAssert, 0, 0, 0, 0, 0, 0, 0, 0, 0, 0, 0, 0, 0, 0,0.0,0.0,0.0,0.0,0.0,0.0,0.0,0.0,0.0,0.0,0.0,0.0,0.0,84,java\common\src\test\java\org\apache\shindig\common\JsonAssert.java,0,0,0,0
org.apache.shindig.common.Pair, 0, 0, 0, 0, 0, 0, 0, 0, 0, 0, 0, 0, 0, 0,0.0,0.0,0.0,0.0,0.0,0.0,0.0,0.0,0.0,0.0,0.0,0.0,0.0,11,java\common\src\main\java\org\apache\shindig\common\Pair.java,0,0,0,0
org.apache.shindig.common.PairTest, 0, 0, 0, 0, 0, 0, 0, 0, 0, 0, 0, 0, 0, 0,0.0,0.0,0.0,0.0,0.0,0.0,0.0,0.0,0.0,0.0,0.0,0.0,0.0,8,java\common\src\test\java\org\apache\shindig\common\PairTest.java,0,0,0,0
org.apache.shindig.common.cache.Cache, 0, 0, 0, 0, 0, 0, 0, 0, 0, 0, 0, 0, 0, 0,0.0,0.0,0.0,0.0,0.0,0.0,0.0,0.0,0.0,0.0,0.0,0.0,0.0,8,java\common\src\main\java\org\apache\shindig\common\cache\Cache.java,0,0,0,0
org.apache.shindig.common.cache.CacheProvider, 0, 0, 0, 0, 0, 0, 0, 0, 0, 0, 0, 0, 0, 0,0.0,0.0,0.0,0.0,0.0,0.0,0.0,0.0,0.0,0.0,0.0,0.0,0.0,8,java\common\src\main\java\org\apache\shindig\common\cache\CacheProvider.java,0,0,0,0
org.apache.shindig.common.cache.LruCacheProviderTest, 0, 0, 0, 0, 0, 0, 0, 0, 0, 0, 0, 0, 0, 0,0.0,0.0,0.0,0.0,0.0,0.0,0.0,0.0,0.0,0.0,0.0,0.0,0.0,43,java\common\src\test\java\org\apache\shindig\common\cache\LruCacheProviderTest.java,0,0,0,0
org.apache.shindig.common.cache.LruCacheTest, 0, 0, 0, 0, 0, 0, 0, 0, 0, 0, 0, 0, 0, 0,0.0,0.0,0.0,0.0,0.0,0.0,0.0,0.0,0.0,0.0,0.0,0.0,0.0,25,java\common\src\test\java\org\apache\shindig\common\cache\LruCacheTest.java,0,0,0,0
org.apache.shindig.common.cache.NullCache, 0, 0, 0, 0, 0, 0, 0, 0, 0, 0, 0, 0, 0, 0,0.0,0.0,0.0,0.0,0.0,0.0,0.0,0.0,0.0,0.0,0.0,0.0,0.0,16,java\common\src\main\java\org\apache\shindig\common\cache\NullCache.java,0,0,0,0
org.apache.shindig.common.cache.SoftExpiringCache, 0, 0, 0, 0, 0, 0, 0, 0, 0, 0, 0, 0, 0, 0,0.0,0.0,0.0,0.4,0.0,0.0,0.0,0.0,0.0,0.0,0.0,0.0,0.0,37,java\common\src\main\java\org\apache\shindig\common\cache\SoftExpiringCache.java,0,0,0,0
org.apache.shindig.common.cache.SoftExpiringCacheTest, 0, 0, 0, 0, 0, 0, 0, 0, 0, 0, 0, 0, 0, 0,0.0,0.0,0.5,0.0,0.0,0.0,0.0,0.0,0.0,0.0,0.0,0.0,0.0,30,java\common\src\test\java\org\apache\shindig\common\cache\SoftExpiringCacheTest.java,0,0,0,0
org.apache.shindig.common.cache.ehcache.EhCacheCacheProviderTest, 1, 0, 0, 0, 0, 0, 0, 0, 0, 0, 0, 0, 0, 1,0.0,0.0,0.0,0.0,0.0,0.0,0.0,0.0,0.0,0.0,0.0,0.0,0.0,47,java\common\src\test\java\org\apache\shindig\common\cache\ehcache\EhCacheCacheProviderTest.java,0,0,0,0
org.apache.shindig.common.cache.ehcache.EhCacheModule, 0, 0, 0, 0, 0, 0, 0, 0, 0, 0, 0, 0, 0, 0,0.0,0.0,0.0,0.0,0.0,0.0,0.0,0.0,0.0,0.0,0.0,0.0,0.0,6,java\common\src\main\java\org\apache\shindig\common\cache\ehcache\EhCacheModule.java,0,0,0,0
org.apache.shindig.common.cache.ehcache.EhConfiguredCache, 0, 0, 0, 0, 0, 0, 0, 0, 0, 0, 0, 0, 0, 0,0.0,0.0,0.0,0.0,0.0,0.0,0.0,0.0,0.0,0.0,0.0,0.0,0.0,40,java\common\src\main\java\org\apache\shindig\common\cache\ehcache\EhConfiguredCache.java,0,0,0,0
org.apache.shindig.common.crypto.BlobCrypterException, 0, 0, 0, 0, 0, 0, 0, 0, 0, 0, 0, 0, 0, 0,0.0,0.0,0.0,0.0,0.0,0.0,0.0,0.0,0.0,0.0,0.0,0.0,0.0,11,java\common\src\main\java\org\apache\shindig\common\crypto\BlobCrypterException.java,0,0,0,0
org.apache.shindig.common.crypto.BlobExpiredException, 0, 0, 0, 0, 0, 0, 0, 0, 0, 0, 0, 0, 0, 0,0.0,0.0,0.0,0.0,0.0,0.0,0.0,0.0,0.0,0.0,0.0,0.0,0.0,12,java\common\src\main\java\org\apache\shindig\common\crypto\BlobExpiredException.java,0,0,0,0
org.apache.shindig.common.crypto.CryptoTest, 0, 0, 0, 0, 0, 0, 0, 0, 0, 0, 0, 0, 0, 0,0.0,0.0,1.0,0.0,0.0,0.0,0.0,0.0,0.0,0.0,0.0,0.0,0.0,121,java\common\src\test\java\org\apache\shindig\common\crypto\CryptoTest.java,0,0,0,0
org.apache.shindig.common.logging.i18n.MessageKeys, 0, 0, 0, 0, 0, 0, 0, 0, 0, 0, 0, 0, 0, 0,0.0,0.0,0.0,0.0,0.0,0.0,0.0,0.0,0.0,0.0,0.0,0.0,0.0,121,java\common\src\main\java\org\apache\shindig\common\logging\i18n\MessageKeys.java,0,0,0,0
org.apache.shindig.common.servlet.Authority, 0, 0, 0, 0, 0, 0, 0, 0, 0, 0, 0, 0, 0, 0,0.0,0.0,0.0,0.0,0.0,0.0,0.0,0.0,0.0,0.0,0.0,0.0,0.0,121,java\common\src\main\java\org\apache\shindig\common\servlet\Authority.java,0,0,0,0
org.apache.shindig.common.servlet.BasicAuthority, 0, 0, 0, 0, 0, 0, 0, 0, 0, 0, 0, 0, 0, 0,0.0,0.0,0.0,0.0,0.0,0.0,0.0,0.0,0.0,0.0,0.0,0.0,0.0,31,java\common\src\main\java\org\apache\shindig\common\servlet\BasicAuthority.java,0,0,0,0
org.apache.shindig.common.servlet.BasicAuthorityTest, 0, 0, 0, 0, 0, 0, 0, 0, 0, 0, 0, 0, 0, 0,0.0,0.0,0.0,0.0,0.0,0.0,0.0,0.0,0.0,0.0,0.0,0.0,0.0,27,java\common\src\test\java\org\apache\shindig\common\servlet\BasicAuthorityTest.java,0,0,0,0
org.apache.shindig.common.servlet.GuiceServletContextListener, 0, 0, 0, 0, 0, 0, 0, 0, 0, 0, 0, 0, 0, 0,0.0,0.0,0.0,0.0,0.0,0.0,0.0,0.0,0.0,0.0,0.0,0.0,0.0,77,java\common\src\main\java\org\apache\shindig\common\servlet\GuiceServletContextListener.java,0,0,0,0
org.apache.shindig.common.servlet.HostFilter, 0, 0, 0, 0, 0, 0, 0, 0, 0, 0, 0, 0, 0, 0,0.0,0.0,0.0,0.0,0.0,0.0,0.0,0.0,0.0,0.0,0.0,0.0,0.0,11,java\common\src\main\java\org\apache\shindig\common\servlet\HostFilter.java,0,0,0,0
org.apache.shindig.common.servlet.HttpServletUserAgentProvider, 0, 0, 0, 0, 0, 0, 0, 0, 0, 0, 0, 0, 0, 0,0.0,0.0,0.0,0.0,0.0,0.0,0.0,0.0,0.0,0.0,0.0,0.0,0.0,20,java\common\src\main\java\org\apache\shindig\common\servlet\HttpServletUserAgentProvider.java,0,0,0,0
org.apache.shindig.common.servlet.HttpServletUserAgentProviderTest, 0, 0, 0, 0, 0, 0, 0, 0, 0, 0, 0, 0, 0, 0,0.0,0.0,0.0,0.0,0.0,0.0,0.0,0.0,0.0,0.0,0.0,0.0,0.0,46,java\common\src\test\java\org\apache\shindig\common\servlet\HttpServletUserAgentProviderTest.java,0,0,0,0
org.apache.shindig.common.servlet.HttpUtil, 0, 0, 0, 0, 0, 0, 0, 0, 0, 0, 0, 0, 0, 0,0.09090909090909091,0.0,0.09090909090909091,0.09090909090909091,0.0,0.0,0.0,0.09090909090909091,0.0,0.0,0.0,0.0,0.0,76,java\common\src\main\java\org\apache\shindig\common\servlet\HttpUtil.java,0,0,0,0
org.apache.shindig.common.servlet.HttpUtilTest, 0, 0, 0, 0, 0, 0, 0, 0, 0, 0, 0, 0, 0, 0,0.0,0.0,0.3333333333333333,0.0,0.0,0.0,0.0,0.0,0.0,0.0,0.0,0.0,0.0,84,java\common\src\test\java\org\apache\shindig\common\servlet\HttpUtilTest.java,0,0,0,0
org.apache.shindig.common.servlet.InjectedFilter, 0, 0, 0, 0, 0, 0, 0, 0, 0, 0, 0, 0, 0, 0,0.0,0.0,0.0,0.0,0.0,0.0,0.0,0.0,0.0,0.0,0.0,0.0,0.0,17,java\common\src\main\java\org\apache\shindig\common\servlet\InjectedFilter.java,0,0,0,0
org.apache.shindig.common.servlet.InjectedServlet, 0, 0, 0, 0, 0, 0, 0, 0, 0, 0, 0, 0, 0, 0,0.0,0.0,0.0,0.0,0.0,0.0,0.0,0.0,0.0,0.0,0.0,0.0,0.0,31,java\common\src\main\java\org\apache\shindig\common\servlet\InjectedServlet.java,0,0,0,0
org.apache.shindig.common.servlet.ServletRequestContext, 0, 0, 0, 0, 0, 0, 0, 0, 0, 0, 0, 0, 0, 0,0.0,0.0,0.0,0.0,0.0,0.0,0.0,0.0,0.0,0.0,0.0,0.0,0.0,25,java\common\src\main\java\org\apache\shindig\common\servlet\ServletRequestContext.java,0,0,0,0
org.apache.shindig.common.servlet.UserAgentTest, 0, 0, 0, 0, 0, 0, 0, 0, 0, 0, 0, 0, 0, 0,0.0,0.0,0.0,0.0,0.0,0.0,0.0,0.0,0.0,0.0,0.0,0.0,0.0,29,java\common\src\test\java\org\apache\shindig\common\servlet\UserAgentTest.java,0,0,0,0
org.apache.shindig.common.testing.ImmediateExecutorService, 0, 0, 0, 0, 0, 0, 0, 0, 0, 0, 0, 0, 0, 0,0.0,0.0,0.0,0.0,0.0,0.0,0.0,0.0,0.0,0.0,0.0,0.0,0.0,22,java\common\src\test\java\org\apache\shindig\common\testing\ImmediateExecutorService.java,0,0,0,0
org.apache.shindig.common.uri.DefaultUriParser, 0, 0, 0, 0, 0, 0, 0, 0, 0, 0, 0, 0, 0, 0,0.0,0.0,0.0,0.0,0.0,0.0,0.0,0.0,0.0,0.0,0.0,0.0,0.0,9,java\common\src\main\java\org\apache\shindig\common\uri\DefaultUriParser.java,0,0,0,0
org.apache.shindig.common.uri.UriParser, 0, 0, 0, 0, 0, 0, 0, 0, 0, 0, 0, 0, 0, 0,0.0,0.0,0.0,0.0,0.0,0.0,0.0,0.0,0.0,0.0,0.0,0.0,0.0,9,java\common\src\main\java\org\apache\shindig\common\uri\UriParser.java,0,0,0,0
org.apache.shindig.common.uri.UriTest, 0, 0, 0, 1, 0, 0, 0, 0, 0, 0, 0, 0, 0, 1,0.0,0.0,0.0,0.0,0.0,0.0,0.0,0.0,0.0,0.0,0.0,0.0,0.0,188,java\common\src\test\java\org\apache\shindig\common\uri\UriTest.java,0,0,0,0
org.apache.shindig.common.util.Base32, 0, 0, 0, 0, 0, 0, 0, 0, 0, 0, 0, 0, 0, 0,0.0,0.0,0.0,0.0,0.0,0.0,0.0,0.0,0.0,0.0,0.0,0.0,0.0,30,java\common\src\main\java\org\apache\shindig\common\util\Base32.java,0,0,0,0
org.apache.shindig.common.util.CharsetUtil, 0, 0, 0, 0, 0, 0, 0, 0, 0, 0, 0, 0, 0, 0,0.0,0.0,0.0,0.16666666666666666,0.0,0.0,0.0,0.0,0.0,0.0,0.0,0.0,0.0,13,java\common\src\main\java\org\apache\shindig\common\util\CharsetUtil.java,0,0,0,0
org.apache.shindig.common.util.DateUtil, 0, 0, 0, 0, 0, 0, 0, 0, 0, 0, 0, 0, 0, 0,0.16666666666666666,0.0,0.16666666666666666,0.16666666666666666,0.0,0.0,0.0,0.16666666666666666,0.0,0.0,0.0,0.0,0.0,35,java\common\src\main\java\org\apache\shindig\common\util\DateUtil.java,0,0,0,0
org.apache.shindig.common.util.DateUtilTest, 0, 0, 0, 0, 0, 0, 0, 0, 0, 0, 0, 0, 0, 0,0.0,0.0,0.0,0.0,0.0,0.0,0.0,0.0,0.0,0.0,0.0,0.0,0.0,83,java\common\src\test\java\org\apache\shindig\common\util\DateUtilTest.java,0,0,0,0
org.apache.shindig.common.util.FakeTimeSource, 0, 0, 1, 0, 0, 0, 0, 0, 0, 0, 0, 0, 0, 1,0.125,0.0,0.125,0.25,0.0,0.0,0.0,0.0,0.0,0.0,0.0,0.0,0.0,19,java\common\src\test\java\org\apache\shindig\common\util\FakeTimeSource.java,0,0,0,0
org.apache.shindig.common.util.HashUtil, 0, 0, 0, 0, 0, 0, 0, 0, 0, 0, 0, 0, 0, 0,0.0,0.0,0.0,0.0,0.0,0.0,0.0,0.0,0.0,0.0,0.0,0.0,0.0,33,java\common\src\main\java\org\apache\shindig\common\util\HashUtil.java,0,0,0,0
org.apache.shindig.common.util.HashUtilTest, 0, 0, 0, 0, 0, 0, 0, 0, 0, 0, 0, 0, 0, 0,0.0,0.0,0.0,0.0,0.0,0.0,0.0,0.0,0.0,0.0,0.0,0.0,0.0,21,java\common\src\test\java\org\apache\shindig\common\util\HashUtilTest.java,0,0,0,0
org.apache.shindig.common.util.ResourceLoader, 0, 0, 0, 0, 0, 0, 0, 0, 0, 0, 0, 0, 0, 0,0.0,0.0,0.0,0.0,0.0,0.0,0.0,0.0,0.0,0.0,0.0,0.0,0.0,47,java\common\src\main\java\org\apache\shindig\common\util\ResourceLoader.java,0,0,0,0
org.apache.shindig.common.util.StringEncodingTest, 0, 0, 0, 0, 0, 0, 0, 0, 0, 0, 0, 0, 0, 0,0.0,0.0,0.0,0.0,0.0,0.0,0.0,0.0,0.0,0.0,0.0,0.0,0.0,26,java\common\src\test\java\org\apache\shindig\common\util\StringEncodingTest.java,0,0,0,0
org.apache.shindig.common.util.TimeSource, 0, 0, 0, 0, 0, 0, 0, 0, 0, 0, 0, 0, 0, 0,0.16666666666666666,0.0,0.3333333333333333,0.16666666666666666,0.0,0.0,0.0,0.16666666666666666,0.0,0.0,0.0,0.0,0.0,5,java\common\src\main\java\org\apache\shindig\common\util\TimeSource.java,0,0,0,0
org.apache.shindig.common.util.Utf8UrlCoder, 0, 0, 0, 0, 0, 0, 0, 0, 0, 0, 0, 0, 0, 0,0.0,0.0,0.0,0.0,0.0,0.0,0.0,0.3333333333333333,0.0,0.0,0.0,0.0,0.0,17,java\common\src\main\java\org\apache\shindig\common\util\Utf8UrlCoder.java,0,0,0,0
org.apache.shindig.common.util.Utf8UrlCoderTest, 0, 0, 0, 0, 0, 0, 0, 0, 0, 0, 0, 0, 0, 0,0.0,0.0,0.0,0.0,0.0,0.0,0.0,0.0,0.0,0.0,0.0,0.0,0.0,22,java\common\src\test\java\org\apache\shindig\common\util\Utf8UrlCoderTest.java,0,0,0,0
org.apache.shindig.common.xml.DomUtil, 0, 0, 0, 0, 0, 0, 0, 0, 0, 0, 0, 0, 0, 0,0.0,0.0,0.0,0.3333333333333333,0.0,0.0,0.0,0.0,0.0,0.0,0.0,0.0,0.0,41,java\common\src\main\java\org\apache\shindig\common\xml\DomUtil.java,0,0,0,0
org.apache.shindig.common.xml.DomUtilTest, 0, 0, 0, 0, 0, 0, 0, 0, 0, 0, 0, 0, 0, 0,0.0,0.0,0.0,0.0,0.0,0.0,0.0,0.0,0.0,0.0,0.0,0.0,0.0,37,java\common\src\test\java\org\apache\shindig\common\xml\DomUtilTest.java,0,0,0,0
org.apache.shindig.common.xml.XmlException, 0, 0, 0, 0, 0, 0, 0, 0, 0, 0, 0, 0, 0, 0,0.0,0.0,0.0,0.0,0.0,0.0,0.0,0.0,0.0,0.0,0.0,0.0,0.0,11,java\common\src\main\java\org\apache\shindig\common\xml\XmlException.java,0,0,0,0
org.apache.shindig.common.xml.XmlUtilTest, 0, 0, 0, 0, 0, 0, 0, 0, 0, 0, 0, 0, 0, 0,0.0,0.0,0.0,0.0,0.0,0.0,0.0,0.0,0.0,0.0,0.0,0.0,0.0,75,java\common\src\test\java\org\apache\shindig\common\xml\XmlUtilTest.java,0,0,0,0
org.apache.shindig.config.ContainerConfigELResolver, 0, 0, 0, 0, 0, 0, 0, 0, 0, 0, 0, 0, 0, 0,0.0,0.0,0.0,0.0,0.0,0.0,0.0,0.0,0.0,0.0,0.0,0.0,0.0,75,java\common\src\main\java\org\apache\shindig\config\ContainerConfigELResolver.java,0,0,0,0
org.apache.shindig.config.ContainerConfigException, 0, 0, 0, 0, 0, 0, 0, 0, 0, 0, 0, 0, 0, 0,0.0,0.0,0.0,0.0,0.0,0.0,0.0,0.0,0.0,0.0,0.0,0.0,0.0,11,java\common\src\main\java\org\apache\shindig\config\ContainerConfigException.java,0,0,0,0
org.apache.shindig.config.JsonContainerConfig, 0, 0, 0, 0, 0, 0, 0, 0, 0, 0, 0, 0, 0, 0,0.0,0.0,0.0,0.0,0.0,0.0,0.0,0.0,0.0,0.0,0.0,0.0,0.0,27,java\common\src\main\java\org\apache\shindig\config\JsonContainerConfig.java,0,0,0,0
org.apache.shindig.expressions.ELTypeConverter, 0, 0, 0, 0, 0, 0, 0, 0, 0, 0, 0, 0, 0, 0,0.0,0.0,0.0,0.0,0.0,0.0,0.0,0.0,0.0,0.0,0.0,0.0,0.0,27,java\common\src\main\java\org\apache\shindig\expressions\ELTypeConverter.java,0,0,0,0
org.apache.shindig.expressions.ExpressionProvider, 0, 0, 0, 0, 0, 0, 0, 0, 0, 0, 0, 0, 0, 0,0.0,0.0,0.0,0.0,0.0,0.0,0.0,0.0,0.0,0.0,0.0,0.0,0.0,27,java\common\src\main\java\org\apache\shindig\expressions\ExpressionProvider.java,0,0,0,0
org.apache.shindig.expressions.FunctionsTest, 0, 0, 0, 0, 0, 0, 0, 0, 0, 0, 0, 0, 0, 0,0.0,0.0,0.0,0.0,0.0,0.0,0.0,0.0,0.0,0.0,0.0,0.0,0.0,54,java\common\src\test\java\org\apache\shindig\expressions\FunctionsTest.java,0,0,0,0
org.apache.shindig.expressions.JsonELResolver, 0, 0, 0, 0, 0, 0, 0, 0, 0, 0, 0, 0, 0, 0,0.0,0.0,0.0,0.0,0.0,0.0,0.0,0.0,0.0,0.0,0.0,0.0,0.0,81,java\common\src\main\java\org\apache\shindig\expressions\JsonELResolver.java,0,0,0,0
org.apache.shindig.expressions.OpensocialFunctions, 0, 0, 0, 0, 0, 0, 0, 0, 0, 0, 0, 0, 0, 0,0.0,0.0,0.0,0.0,0.0,0.0,0.0,0.0,0.0,0.0,0.0,0.0,0.0,54,java\common\src\main\java\org\apache\shindig\expressions\OpensocialFunctions.java,0,0,0,0
org.apache.shindig.expressions.jasper.JasperConversionModule, 0, 0, 0, 0, 0, 0, 0, 0, 0, 0, 0, 0, 0, 0,0.0,0.0,0.0,0.0,0.0,0.0,0.0,0.0,0.0,0.0,0.0,0.0,0.0,6,java\common\src\main\java\org\apache\shindig\expressions\jasper\JasperConversionModule.java,0,0,0,0
org.apache.shindig.expressions.jasper.JasperExpressionsTest, 0, 0, 0, 0, 0, 0, 0, 0, 0, 0, 0, 0, 0, 0,0.0,0.0,0.0,0.0,0.0,0.0,0.0,0.0,0.0,0.0,0.0,0.0,0.0,25,java\common\src\test\java\org\apache\shindig\expressions\jasper\JasperExpressionsTest.java,0,0,0,0
org.apache.shindig.expressions.jasper.JasperModule, 0, 0, 0, 0, 0, 0, 0, 0, 0, 0, 0, 0, 0, 0,0.0,0.0,0.0,0.0,0.0,0.0,0.0,0.0,0.0,0.0,0.0,0.0,0.0,7,java\common\src\main\java\org\apache\shindig\expressions\jasper\JasperModule.java,0,0,0,0
org.apache.shindig.expressions.jasper.JasperProvider, 0, 0, 0, 0, 0, 0, 0, 0, 0, 0, 0, 0, 0, 0,0.0,0.0,0.0,0.0,0.0,0.0,0.0,0.0,0.0,0.0,0.0,0.0,0.0,6,java\common\src\main\java\org\apache\shindig\expressions\jasper\JasperProvider.java,0,0,0,0
org.apache.shindig.expressions.jasper.JasperTypeConverter, 0, 0, 0, 0, 0, 0, 0, 0, 0, 0, 0, 0, 0, 0,0.0,0.0,0.0,0.0,0.0,0.0,0.0,0.0,0.0,0.0,0.0,0.0,0.0,7,java\common\src\main\java\org\apache\shindig\expressions\jasper\JasperTypeConverter.java,0,0,0,0
org.apache.shindig.expressions.juel.JuelModule, 0, 0, 0, 0, 0, 0, 0, 0, 0, 0, 0, 0, 0, 0,0.0,0.0,0.0,0.0,0.0,0.0,0.0,0.0,0.0,0.0,0.0,0.0,0.0,6,java\common\src\main\java\org\apache\shindig\expressions\juel\JuelModule.java,0,0,0,0
org.apache.shindig.expressions.juel.JuelProvider, 0, 0, 0, 0, 0, 0, 0, 0, 0, 0, 0, 0, 0, 0,0.0,0.0,0.0,0.0,0.0,0.0,0.0,0.0,0.0,0.0,0.0,0.0,0.0,26,java\common\src\main\java\org\apache\shindig\expressions\juel\JuelProvider.java,0,0,0,0
org.apache.shindig.expressions.juel.JuelTypeConverter, 0, 0, 0, 0, 0, 0, 0, 0, 0, 0, 0, 0, 0, 0,0.0,0.0,0.0,0.0,0.0,0.0,0.0,0.0,0.0,0.0,0.0,0.0,0.0,12,java\common\src\main\java\org\apache\shindig\expressions\juel\JuelTypeConverter.java,0,0,0,0
org.apache.shindig.extras.ShindigExtrasGuiceModule, 0, 0, 0, 0, 0, 0, 0, 0, 0, 0, 0, 0, 0, 0,0.0,0.0,0.0,0.0,0.0,0.0,0.0,0.0,0.0,0.0,0.0,0.0,0.0,10,extras\src\main\java\org\apache\shindig\extras\ShindigExtrasGuiceModule.java,0,0,0,0
org.apache.shindig.gadgets.AbstractSpecFactory, 0, 0, 0, 0, 0, 0, 0, 0, 0, 0, 0, 0, 0, 0,0.0,0.0,0.0,0.0,0.0,0.0,0.0,0.0,0.0,0.0,0.0,0.0,0.0,155,java\gadgets\src\main\java\org\apache\shindig\gadgets\AbstractSpecFactory.java,0,0,0,0
org.apache.shindig.gadgets.AuthTypeTest, 0, 0, 0, 0, 0, 0, 0, 0, 0, 0, 0, 0, 0, 0,0.0,0.0,0.0,0.0,0.0,0.0,0.0,0.0,0.0,0.0,0.0,0.0,0.0,17,java\gadgets\src\test\java\org\apache\shindig\gadgets\AuthTypeTest.java,0,0,0,0
org.apache.shindig.gadgets.DefaultGadgetSpecFactory, 0, 0, 0, 0, 0, 0, 0, 0, 0, 0, 0, 0, 0, 0,0.0,0.0,0.0,0.2,0.0,0.0,0.0,0.0,0.0,0.0,0.0,0.0,0.0,50,java\gadgets\src\main\java\org\apache\shindig\gadgets\DefaultGadgetSpecFactory.java,0,0,0,0
org.apache.shindig.gadgets.DefaultGadgetSpecFactoryTest, 0, 0, 0, 1, 0, 0, 0, 0, 0, 0, 0, 0, 0, 1,0.0,0.0,0.0,0.0,0.0,0.0,0.0,0.0,0.0,0.0,0.0,0.0,0.0,249,java\gadgets\src\test\java\org\apache\shindig\gadgets\DefaultGadgetSpecFactoryTest.java,0,0,0,0
org.apache.shindig.gadgets.DefaultGuiceModule, 0, 0, 0, 0, 0, 0, 0, 0, 0, 0, 0, 0, 0, 0,0.0,0.0,0.0,0.0,0.0,0.0,0.0,0.0,0.0,0.0,0.0,0.0,0.0,69,java\gadgets\src\main\java\org\apache\shindig\gadgets\DefaultGuiceModule.java,0,0,0,0
org.apache.shindig.gadgets.DefaultMessageBundleFactory, 0, 0, 0, 0, 0, 0, 0, 0, 0, 0, 0, 0, 0, 0,0.0,0.0,0.0,0.5,0.0,0.0,0.0,0.0,0.0,0.0,0.0,0.0,0.0,62,java\gadgets\src\main\java\org\apache\shindig\gadgets\DefaultMessageBundleFactory.java,0,0,0,0
org.apache.shindig.gadgets.DefaultMessageBundleFactoryTest, 0, 0, 0, 1, 0, 0, 0, 0, 0, 0, 0, 0, 0, 1,0.0,0.0,0.0,0.0,0.0,0.0,0.0,0.0,0.0,0.0,0.0,0.0,0.0,271,java\gadgets\src\test\java\org\apache\shindig\gadgets\DefaultMessageBundleFactoryTest.java,0,0,0,0
org.apache.shindig.gadgets.FeedProcessor, 0, 0, 0, 0, 0, 0, 0, 0, 0, 0, 0, 0, 0, 0,0.0,0.0,0.0,0.0,0.0,0.0,0.0,0.0,0.0,0.0,0.0,0.0,0.0,271,java\gadgets\src\main\java\org\apache\shindig\gadgets\FeedProcessor.java,0,0,0,0
org.apache.shindig.gadgets.FeedProcessorImpl, 0, 0, 0, 0, 0, 0, 0, 0, 0, 0, 0, 0, 0, 0,0.0,0.0,0.0,0.0,0.0,0.0,0.0,0.0,0.0,0.0,0.0,0.0,0.0,123,java\gadgets\src\main\java\org\apache\shindig\gadgets\FeedProcessorImpl.java,0,0,0,0
org.apache.shindig.gadgets.FeedProcessorImplTest, 0, 0, 0, 1, 0, 0, 0, 0, 0, 0, 0, 0, 0, 1,0.0,0.0,0.0,0.0,0.0,0.0,0.0,0.0,0.0,0.0,0.0,0.0,0.0,282,java\gadgets\src\test\java\org\apache\shindig\gadgets\FeedProcessorImplTest.java,0,0,0,0
org.apache.shindig.gadgets.GadgetContext, 0, 0, 0, 0, 0, 0, 0, 0, 0, 0, 0, 0, 0, 0,0.0,0.0,0.0,0.06060606060606061,0.0,0.0,0.0,0.0,0.0,0.0,0.0,0.0,0.0,66,java\gadgets\src\main\java\org\apache\shindig\gadgets\GadgetContext.java,0,0,0,0
org.apache.shindig.gadgets.GadgetELResolverTest, 0, 0, 0, 0, 0, 0, 0, 0, 0, 0, 0, 0, 0, 0,0.0,0.0,0.0,0.0,0.0,0.0,0.0,0.0,0.0,0.0,0.0,0.0,0.0,53,java\gadgets\src\test\java\org\apache\shindig\gadgets\GadgetELResolverTest.java,0,0,0,0
org.apache.shindig.gadgets.GadgetException, 0, 0, 0, 0, 0, 0, 0, 0, 0, 0, 0, 0, 0, 0,0.0,0.0,0.0,0.09375,0.0,0.03125,0.0,0.0625,0.0,0.0,0.0,0.0,0.0,74,java\gadgets\src\main\java\org\apache\shindig\gadgets\GadgetException.java,0,0,0,0
org.apache.shindig.gadgets.GadgetSpecFactory, 0, 0, 0, 0, 0, 0, 0, 0, 0, 0, 0, 0, 0, 0,0.0,0.0,0.0,0.0,0.0,0.0,0.0,0.0,0.0,0.0,0.0,0.0,0.0,74,java\gadgets\src\main\java\org\apache\shindig\gadgets\GadgetSpecFactory.java,0,0,0,0
org.apache.shindig.gadgets.GadgetTest, 0, 0, 0, 0, 0, 0, 0, 0, 0, 0, 0, 0, 0, 0,0.0,0.0,0.0,0.0,0.0,0.0,0.0,0.0,0.0,0.0,0.0,0.0,0.0,119,java\gadgets\src\test\java\org\apache\shindig\gadgets\GadgetTest.java,0,0,0,0
org.apache.shindig.gadgets.JsCompileModeTest, 0, 0, 0, 0, 0, 0, 0, 0, 0, 0, 0, 0, 0, 0,0.0,0.0,0.0,0.0,0.0,0.0,0.0,0.0,0.0,0.0,0.0,0.0,0.0,9,java\gadgets\src\test\java\org\apache\shindig\gadgets\JsCompileModeTest.java,0,0,0,0
org.apache.shindig.gadgets.LockedDomainService, 0, 0, 0, 0, 0, 0, 0, 0, 0, 0, 0, 0, 0, 0,0.0,0.0,0.0,0.0,0.0,0.0,0.0,0.0,0.0,0.0,0.0,0.0,0.0,9,java\gadgets\src\main\java\org\apache\shindig\gadgets\LockedDomainService.java,0,0,0,0
org.apache.shindig.gadgets.MessageBundleFactory, 0, 0, 0, 0, 0, 0, 0, 0, 0, 0, 0, 0, 0, 0,0.0,0.0,0.0,0.0,0.0,0.0,0.0,0.0,0.0,0.0,0.0,0.0,0.0,9,java\gadgets\src\main\java\org\apache\shindig\gadgets\MessageBundleFactory.java,0,0,0,0
org.apache.shindig.gadgets.UnsupportedFeatureException, 0, 0, 0, 0, 0, 1, 0, 0, 0, 0, 0, 0, 0, 1,0.0,0.0,0.0,0.0,0.0,0.0,0.0,0.0,0.0,0.0,0.0,0.0,0.0,6,java\gadgets\src\main\java\org\apache\shindig\gadgets\UnsupportedFeatureException.java,0,0,0,0
org.apache.shindig.gadgets.admin.FeatureAdminData, 0, 0, 0, 0, 0, 0, 0, 0, 0, 0, 0, 0, 0, 0,0.0,0.0,0.0,0.6666666666666666,0.0,0.0,0.0,0.0,0.0,0.0,0.0,0.0,0.0,83,java\gadgets\src\main\java\org\apache\shindig\gadgets\admin\FeatureAdminData.java,0,0,0,0
org.apache.shindig.gadgets.admin.FeatureAdminDataTest, 0, 0, 0, 1, 0, 0, 0, 0, 0, 0, 0, 0, 0, 1,0.0,0.0,0.0,0.0,0.0,0.0,0.0,0.0,0.0,0.0,0.0,0.0,0.0,158,java\gadgets\src\test\java\org\apache\shindig\gadgets\admin\FeatureAdminDataTest.java,0,0,0,0
org.apache.shindig.gadgets.admin.GadgetAdminData, 0, 0, 0, 0, 0, 0, 0, 0, 0, 0, 0, 0, 0, 0,0.0,0.0,0.0,0.3333333333333333,0.0,0.0,0.0,0.0,0.0,0.0,0.0,0.0,0.0,50,java\gadgets\src\main\java\org\apache\shindig\gadgets\admin\GadgetAdminData.java,0,0,0,0
org.apache.shindig.gadgets.admin.GadgetAdminDataTest, 0, 0, 0, 1, 0, 0, 0, 0, 0, 0, 0, 0, 0, 1,0.0,0.0,0.0,0.0,0.0,0.0,0.0,0.0,0.0,0.0,0.0,0.0,0.0,114,java\gadgets\src\test\java\org\apache\shindig\gadgets\admin\GadgetAdminDataTest.java,0,0,0,0
org.apache.shindig.gadgets.admin.GadgetAdminModule, 0, 0, 0, 0, 0, 0, 0, 0, 0, 0, 0, 0, 0, 0,0.0,0.0,0.0,0.0,0.0,0.0,0.0,0.0,0.0,0.0,0.0,0.0,0.0,33,java\gadgets\src\main\java\org\apache\shindig\gadgets\admin\GadgetAdminModule.java,0,0,0,0
org.apache.shindig.gadgets.admin.GadgetAdminStore, 0, 0, 0, 0, 0, 0, 0, 0, 0, 0, 0, 0, 0, 0,0.0,0.0,0.0,0.0,0.0,0.0,0.0,0.0,0.0,0.0,0.0,0.0,0.0,33,java\gadgets\src\main\java\org\apache\shindig\gadgets\admin\GadgetAdminStore.java,0,0,0,0
org.apache.shindig.gadgets.admin.RpcAdminData, 0, 0, 0, 0, 0, 0, 0, 0, 0, 0, 0, 0, 0, 0,0.0,0.0,0.0,0.3333333333333333,0.0,0.0,0.0,0.0,0.0,0.0,0.0,0.0,0.0,41,java\gadgets\src\main\java\org\apache\shindig\gadgets\admin\RpcAdminData.java,0,0,0,0
org.apache.shindig.gadgets.admin.RpcAdminDataTest, 0, 0, 0, 0, 0, 0, 0, 0, 0, 0, 0, 0, 0, 0,0.0,0.0,0.0,0.0,0.0,0.0,0.0,0.0,0.0,0.0,0.0,0.0,0.0,96,java\gadgets\src\test\java\org\apache\shindig\gadgets\admin\RpcAdminDataTest.java,0,0,0,0
org.apache.shindig.gadgets.config.DefaultConfigContributorModule, 0, 0, 0, 0, 0, 0, 0, 0, 0, 0, 0, 0, 0, 0,0.0,0.0,0.0,0.0,0.0,0.0,0.0,0.0,0.0,0.0,0.0,0.0,0.0,14,java\gadgets\src\main\java\org\apache\shindig\gadgets\config\DefaultConfigContributorModule.java,0,0,0,0
org.apache.shindig.gadgets.encoding.EncodingDetector, 0, 0, 0, 0, 0, 0, 0, 0, 0, 0, 0, 0, 0, 0,0.0,0.0,0.0,0.0,0.0,0.0,0.0,0.0,0.0,0.0,0.0,0.0,0.0,57,java\gadgets\src\main\java\org\apache\shindig\gadgets\encoding\EncodingDetector.java,0,0,0,0
org.apache.shindig.gadgets.encoding.EncodingDetectorTest, 0, 0, 0, 0, 0, 0, 0, 0, 0, 0, 0, 0, 0, 0,0.0,0.0,0.0,0.0,0.0,0.0,0.0,0.0,0.0,0.0,0.0,0.0,0.0,75,java\gadgets\src\test\java\org\apache\shindig\gadgets\encoding\EncodingDetectorTest.java,0,0,0,0
org.apache.shindig.gadgets.features.ApiDirective, 0, 0, 0, 0, 0, 0, 0, 0, 0, 0, 0, 0, 0, 0,0.0,0.0,0.0,0.5,0.0,0.0,0.0,0.0,0.0,0.0,0.0,0.0,0.0,38,java\gadgets\src\main\java\org\apache\shindig\gadgets\features\ApiDirective.java,0,0,0,0
org.apache.shindig.gadgets.features.DefaultFeatureFile, 0, 0, 0, 0, 0, 0, 0, 0, 0, 0, 0, 0, 0, 0,0.0,0.0,0.0,0.0,0.0,0.0,0.0,0.0,0.0,0.0,0.0,0.0,0.0,53,java\gadgets\src\main\java\org\apache\shindig\gadgets\features\DefaultFeatureFile.java,0,0,0,0
org.apache.shindig.gadgets.features.DefaultFeatureFileSystem, 0, 0, 0, 0, 0, 0, 0, 0, 0, 0, 0, 0, 0, 0,0.0,0.0,0.0,0.0,0.0,0.0,0.0,0.0,0.0,0.0,0.0,0.0,0.0,8,java\gadgets\src\main\java\org\apache\shindig\gadgets\features\DefaultFeatureFileSystem.java,0,0,0,0
org.apache.shindig.gadgets.features.DefaultFeatureRegistryProvider, 0, 0, 0, 0, 0, 0, 0, 0, 0, 0, 0, 0, 0, 0,0.0,0.0,0.0,0.0,0.0,0.0,0.0,0.0,0.0,0.0,0.0,0.0,0.0,14,java\gadgets\src\main\java\org\apache\shindig\gadgets\features\DefaultFeatureRegistryProvider.java,0,0,0,0
org.apache.shindig.gadgets.features.FeatureFile, 0, 0, 0, 0, 0, 0, 0, 0, 0, 0, 0, 0, 0, 0,0.0,0.0,0.0,0.0,0.0,0.0,0.0,0.0,0.0,0.0,0.0,0.0,0.0,14,java\gadgets\src\main\java\org\apache\shindig\gadgets\features\FeatureFile.java,0,0,0,0
org.apache.shindig.gadgets.features.FeatureFileSystem, 0, 0, 0, 0, 0, 0, 0, 0, 0, 0, 0, 0, 0, 0,0.0,0.0,0.0,0.0,0.0,0.0,0.0,0.0,0.0,0.0,0.0,0.0,0.0,14,java\gadgets\src\main\java\org\apache\shindig\gadgets\features\FeatureFileSystem.java,0,0,0,0
org.apache.shindig.gadgets.features.FeatureParserTest, 0, 0, 0, 0, 0, 0, 0, 0, 0, 0, 0, 0, 0, 0,0.0,0.0,0.0,0.0,0.0,0.0,0.0,0.0,0.0,0.0,0.0,0.0,0.0,114,java\gadgets\src\test\java\org\apache\shindig\gadgets\features\FeatureParserTest.java,0,0,0,0
org.apache.shindig.gadgets.features.FeatureRegistryProvider, 0, 0, 0, 0, 0, 0, 0, 0, 0, 0, 0, 0, 0, 0,0.0,0.0,0.0,0.0,0.0,0.0,0.0,0.0,0.0,0.0,0.0,0.0,0.0,114,java\gadgets\src\main\java\org\apache\shindig\gadgets\features\FeatureRegistryProvider.java,0,0,0,0
org.apache.shindig.gadgets.http.AbstractHttpCache, 1, 0, 1, 1, 0, 0, 0, 0, 0, 0, 0, 0, 0, 3,0.0,0.0,0.0,0.0,0.0,0.0,0.0,0.0,0.0,0.0,0.0,0.0,0.0,172,java\gadgets\src\main\java\org\apache\shindig\gadgets\http\AbstractHttpCache.java,0,0,0,0
org.apache.shindig.gadgets.http.AbstractHttpFetcherTest, 0, 0, 0, 1, 0, 0, 0, 0, 0, 0, 0, 0, 0, 1,0.0,0.0,0.0,0.0,0.0,0.0,0.0,0.0,0.0,0.0,0.0,0.0,0.0,219,java\gadgets\src\test\java\org\apache\shindig\gadgets\http\AbstractHttpFetcherTest.java,0,0,0,0
org.apache.shindig.gadgets.http.BasicHttpFetcherTest, 0, 0, 0, 0, 0, 0, 0, 0, 0, 0, 0, 0, 0, 0,0.0,0.0,0.0,0.0,0.0,0.0,0.0,0.0,0.0,0.0,0.0,0.0,0.0,132,java\gadgets\src\test\java\org\apache\shindig\gadgets\http\BasicHttpFetcherTest.java,0,0,0,0
org.apache.shindig.gadgets.http.CacheKeyBuilderTest, 0, 0, 0, 0, 0, 0, 0, 0, 0, 0, 0, 0, 0, 0,0.0,0.0,0.0,0.0,0.0,0.0,0.0,0.0,0.0,0.0,0.0,0.0,0.0,60,java\gadgets\src\test\java\org\apache\shindig\gadgets\http\CacheKeyBuilderTest.java,0,0,0,0
org.apache.shindig.gadgets.http.DefaultHttpCache, 0, 0, 0, 0, 0, 0, 0, 0, 0, 0, 0, 0, 0, 0,0.3333333333333333,0.0,0.3333333333333333,0.3333333333333333,0.0,0.0,0.0,0.0,0.0,0.0,0.0,0.0,0.0,20,java\gadgets\src\main\java\org\apache\shindig\gadgets\http\DefaultHttpCache.java,0,0,0,0
org.apache.shindig.gadgets.http.DefaultHttpCacheTest, 0, 0, 0, 0, 0, 0, 0, 0, 0, 0, 0, 0, 0, 0,0.5,0.0,0.5,0.5,0.0,0.0,0.0,0.0,0.0,0.0,0.0,0.0,0.0,32,java\gadgets\src\test\java\org\apache\shindig\gadgets\http\DefaultHttpCacheTest.java,0,0,0,0
org.apache.shindig.gadgets.http.DefaultInvalidationServiceTest, 0, 0, 0, 0, 0, 0, 0, 0, 0, 0, 0, 0, 0, 0,0.0,0.0,0.0,0.0,0.0,0.0,0.0,0.3333333333333333,0.0,0.0,0.0,0.0,0.0,156,java\gadgets\src\test\java\org\apache\shindig\gadgets\http\DefaultInvalidationServiceTest.java,0,0,0,0
org.apache.shindig.gadgets.http.DefaultRequestPipeline, 0, 0, 0, 0, 0, 0, 0, 1, 0, 0, 0, 0, 0, 1,0.0,0.0,0.0,0.0,0.0,0.0,0.0,0.0,0.0,0.0,0.0,0.0,0.0,178,java\gadgets\src\main\java\org\apache\shindig\gadgets\http\DefaultRequestPipeline.java,0,0,0,0
org.apache.shindig.gadgets.http.EchoServer, 0, 0, 0, 0, 0, 0, 0, 0, 0, 0, 0, 0, 0, 0,0.0,0.0,0.0,0.3333333333333333,0.0,0.0,0.0,0.0,0.0,0.0,0.0,0.0,0.0,54,java\gadgets\src\test\java\org\apache\shindig\gadgets\http\EchoServer.java,0,0,0,0
org.apache.shindig.gadgets.http.FakeHttpServer, 0, 0, 0, 0, 0, 0, 0, 0, 0, 0, 0, 0, 0, 0,0.0,0.0,0.0,0.3333333333333333,0.0,0.0,0.0,0.0,0.0,0.0,0.0,0.0,0.0,14,java\gadgets\src\test\java\org\apache\shindig\gadgets\http\FakeHttpServer.java,0,0,0,0
org.apache.shindig.gadgets.http.HttpCache, 0, 0, 0, 0, 0, 0, 0, 0, 0, 0, 0, 0, 0, 0,0.0,0.0,0.0,0.0,0.0,0.0,0.0,0.0,0.0,0.0,0.0,0.0,0.0,14,java\gadgets\src\main\java\org\apache\shindig\gadgets\http\HttpCache.java,0,0,0,0
org.apache.shindig.gadgets.http.HttpFetcher, 0, 0, 0, 0, 0, 0, 0, 0, 0, 0, 0, 0, 0, 0,0.0,0.0,0.0,0.0,0.0,0.0,0.0,0.0,0.0,0.0,0.0,0.0,0.0,14,java\gadgets\src\main\java\org\apache\shindig\gadgets\http\HttpFetcher.java,0,0,0,0
org.apache.shindig.gadgets.http.HttpResponseMetadataHelperTest, 0, 0, 0, 0, 0, 0, 0, 0, 0, 0, 0, 0, 0, 0,0.0,0.0,0.0,0.0,0.0,0.0,0.0,0.0,0.0,0.0,0.0,0.0,0.0,53,java\gadgets\src\test\java\org\apache\shindig\gadgets\http\HttpResponseMetadataHelperTest.java,0,0,0,0
org.apache.shindig.gadgets.http.HttpResponseTest, 1, 0, 1, 1, 0, 0, 0, 0, 0, 0, 0, 0, 0, 3,0.0,0.0,0.25,0.0,0.0,0.0,0.0,0.0,0.0,0.0,0.0,0.0,0.0,505,java\gadgets\src\test\java\org\apache\shindig\gadgets\http\HttpResponseTest.java,0,0,0,0
org.apache.shindig.gadgets.http.InvalidationHandler, 0, 0, 0, 0, 0, 0, 0, 0, 0, 0, 0, 0, 0, 0,0.0,0.0,0.0,0.0,0.0,0.0,0.0,0.0,0.0,0.0,0.0,0.0,0.0,48,java\gadgets\src\main\java\org\apache\shindig\gadgets\http\InvalidationHandler.java,0,0,0,0
org.apache.shindig.gadgets.http.InvalidationService, 0, 0, 0, 0, 0, 0, 0, 0, 0, 0, 0, 0, 0, 0,0.0,0.0,0.0,0.0,0.0,0.0,0.0,0.0,0.0,0.0,0.0,0.0,0.0,48,java\gadgets\src\main\java\org\apache\shindig\gadgets\http\InvalidationService.java,0,0,0,0
org.apache.shindig.gadgets.http.NoOpInvalidationService, 0, 0, 0, 0, 0, 0, 0, 0, 0, 0, 0, 0, 0, 0,0.0,0.0,0.0,0.0,0.0,0.0,0.0,0.0,0.0,0.0,0.0,0.0,0.0,12,java\gadgets\src\main\java\org\apache\shindig\gadgets\http\NoOpInvalidationService.java,0,0,0,0
org.apache.shindig.gadgets.http.RequestPipeline, 0, 0, 0, 0, 0, 0, 0, 0, 0, 0, 0, 0, 0, 0,0.0,0.0,0.0,0.0,0.0,0.0,0.0,0.0,0.0,0.0,0.0,0.0,0.0,12,java\gadgets\src\main\java\org\apache\shindig\gadgets\http\RequestPipeline.java,0,0,0,0
org.apache.shindig.gadgets.js.AddJslInfoVariableProcessor, 0, 0, 0, 0, 0, 0, 0, 0, 0, 0, 0, 0, 0, 0,0.0,0.0,0.0,0.0,0.0,0.0,0.0,0.25,0.0,0.0,0.0,0.0,0.0,42,java\gadgets\src\main\java\org\apache\shindig\gadgets\js\AddJslInfoVariableProcessor.java,0,0,0,0
org.apache.shindig.gadgets.js.AddJslInfoVariableProcessorTest, 0, 0, 0, 0, 0, 0, 0, 0, 0, 0, 0, 0, 0, 0,0.0,0.0,0.0,0.0,0.0,0.0,0.0,0.0,0.0,0.0,0.0,0.0,0.0,50,java\gadgets\src\test\java\org\apache\shindig\gadgets\js\AddJslInfoVariableProcessorTest.java,0,0,0,0
org.apache.shindig.gadgets.js.AddJslLoadedVariableProcessorTest, 0, 0, 0, 0, 0, 0, 0, 0, 0, 0, 0, 0, 0, 0,0.0,0.0,0.0,0.0,0.0,0.0,0.0,0.0,0.0,0.0,0.0,0.0,0.0,50,java\gadgets\src\test\java\org\apache\shindig\gadgets\js\AddJslLoadedVariableProcessorTest.java,0,0,0,0
org.apache.shindig.gadgets.js.AddOnloadFunctionProcessor, 0, 0, 0, 0, 0, 0, 0, 0, 0, 0, 0, 0, 0, 0,0.0,0.0,0.0,0.0,0.0,0.0,0.0,0.25,0.0,0.0,0.0,0.0,0.0,41,java\gadgets\src\main\java\org\apache\shindig\gadgets\js\AddOnloadFunctionProcessor.java,0,0,0,0
org.apache.shindig.gadgets.js.AddOnloadFunctionProcessorTest, 0, 0, 0, 0, 0, 0, 0, 0, 0, 0, 0, 0, 0, 0,0.0,0.0,0.0,0.0,0.0,0.0,0.0,0.0,0.0,0.0,0.0,0.0,0.0,67,java\gadgets\src\test\java\org\apache\shindig\gadgets\js\AddOnloadFunctionProcessorTest.java,0,0,0,0
org.apache.shindig.gadgets.js.AnonFuncWrappingProcessor, 0, 0, 0, 0, 0, 0, 0, 0, 0, 0, 0, 0, 0, 0,0.0,0.0,0.0,0.0,0.0,0.0,0.0,0.3333333333333333,0.0,0.0,0.0,0.0,0.0,10,java\gadgets\src\main\java\org\apache\shindig\gadgets\js\AnonFuncWrappingProcessor.java,0,0,0,0
org.apache.shindig.gadgets.js.AnonFuncWrappingProcessorTest, 0, 0, 0, 0, 0, 0, 0, 0, 0, 0, 0, 0, 0, 0,0.0,0.0,0.0,0.0,0.0,0.0,0.0,0.0,0.0,0.0,0.0,0.0,0.0,31,java\gadgets\src\test\java\org\apache\shindig\gadgets\js\AnonFuncWrappingProcessorTest.java,0,0,0,0
org.apache.shindig.gadgets.js.CompilationProcessor, 0, 0, 0, 0, 0, 0, 0, 0, 0, 0, 0, 0, 0, 0,0.0,0.0,0.0,0.0,0.0,0.0,0.0,0.25,0.0,0.0,0.0,0.0,0.0,26,java\gadgets\src\main\java\org\apache\shindig\gadgets\js\CompilationProcessor.java,0,0,0,0
org.apache.shindig.gadgets.js.CompilationProcessorTest, 0, 0, 0, 0, 0, 0, 0, 0, 0, 0, 0, 0, 0, 0,0.0,0.0,0.0,0.0,0.0,0.0,0.0,0.0,0.0,0.0,0.0,0.0,0.0,66,java\gadgets\src\test\java\org\apache\shindig\gadgets\js\CompilationProcessorTest.java,0,0,0,0
org.apache.shindig.gadgets.js.DefaultJsProcessorRegistry, 0, 0, 0, 0, 0, 0, 0, 0, 0, 0, 0, 0, 0, 0,0.0,0.0,0.0,0.0,0.0,0.0,0.0,0.3333333333333333,0.0,0.0,0.0,0.0,0.0,29,java\gadgets\src\main\java\org\apache\shindig\gadgets\js\DefaultJsProcessorRegistry.java,0,0,0,0
org.apache.shindig.gadgets.js.DefaultJsProcessorRegistryTest, 0, 0, 0, 0, 0, 0, 0, 0, 0, 0, 0, 0, 0, 0,0.0,0.0,0.0,0.0,0.0,0.0,0.0,0.0,0.0,0.0,0.0,0.0,0.0,73,java\gadgets\src\test\java\org\apache\shindig\gadgets\js\DefaultJsProcessorRegistryTest.java,0,0,0,0
org.apache.shindig.gadgets.js.DefaultJsServingPipeline, 0, 0, 0, 0, 0, 0, 0, 0, 0, 0, 0, 0, 0, 0,0.0,0.0,0.0,0.0,0.0,0.0,0.0,0.25,0.0,0.0,0.0,0.0,0.0,16,java\gadgets\src\main\java\org\apache\shindig\gadgets\js\DefaultJsServingPipeline.java,0,0,0,0
org.apache.shindig.gadgets.js.DefaultJsServingPipelineTest, 0, 0, 0, 0, 0, 0, 0, 0, 0, 0, 0, 0, 0, 0,0.0,0.0,0.0,0.0,0.0,0.0,0.0,0.0,0.0,0.0,0.0,0.0,0.0,13,java\gadgets\src\test\java\org\apache\shindig\gadgets\js\DefaultJsServingPipelineTest.java,0,0,0,0
org.apache.shindig.gadgets.js.DeferJsProcessorTest, 0, 0, 0, 0, 0, 0, 0, 0, 0, 0, 0, 0, 0, 0,0.0,0.0,0.0,0.0,0.0,0.0,0.0,0.0,0.0,0.0,0.0,0.0,0.0,125,java\gadgets\src\test\java\org\apache\shindig\gadgets\js\DeferJsProcessorTest.java,0,0,0,0
org.apache.shindig.gadgets.js.ExportJsProcessorTest, 0, 0, 0, 1, 0, 0, 0, 0, 0, 0, 0, 0, 0, 1,0.0,0.0,0.0,0.0,0.0,0.0,0.0,0.0,0.0,0.0,0.0,0.0,0.0,174,java\gadgets\src\test\java\org\apache\shindig\gadgets\js\ExportJsProcessorTest.java,0,0,0,0
org.apache.shindig.gadgets.js.GetJsContentProcessor, 0, 0, 0, 0, 0, 0, 0, 0, 0, 0, 0, 0, 0, 0,0.0,0.0,0.0,0.0,0.0,0.0,0.0,0.2857142857142857,0.0,0.0,0.0,0.0,0.0,82,java\gadgets\src\main\java\org\apache\shindig\gadgets\js\GetJsContentProcessor.java,0,0,0,0
org.apache.shindig.gadgets.js.GetJsContentProcessorTest, 0, 0, 0, 0, 0, 0, 0, 0, 0, 0, 0, 0, 0, 0,0.0,0.0,0.0,0.0,0.0,0.0,0.0,0.0,0.0,0.0,0.0,0.0,0.0,143,java\gadgets\src\test\java\org\apache\shindig\gadgets\js\GetJsContentProcessorTest.java,0,0,0,0
org.apache.shindig.gadgets.js.IfModifiedSinceProcessor, 0, 0, 0, 0, 0, 0, 0, 0, 0, 0, 0, 0, 0, 0,0.0,0.0,0.0,0.0,0.0,0.0,0.0,0.3333333333333333,0.0,0.0,0.0,0.0,0.0,19,java\gadgets\src\main\java\org\apache\shindig\gadgets\js\IfModifiedSinceProcessor.java,0,0,0,0
org.apache.shindig.gadgets.js.IfModifiedSinceProcessorTest, 0, 0, 0, 0, 0, 0, 0, 0, 0, 0, 0, 0, 0, 0,0.0,0.0,0.0,0.0,0.0,0.0,0.0,0.0,0.0,0.0,0.0,0.0,0.0,41,java\gadgets\src\test\java\org\apache\shindig\gadgets\js\IfModifiedSinceProcessorTest.java,0,0,0,0
org.apache.shindig.gadgets.js.JsCompilerModule, 0, 0, 0, 0, 0, 0, 0, 0, 0, 0, 0, 0, 0, 0,0.0,0.0,0.0,0.0,0.0,0.0,0.0,0.0,0.0,0.0,0.0,0.0,0.0,6,java\gadgets\src\main\java\org\apache\shindig\gadgets\js\JsCompilerModule.java,0,0,0,0
org.apache.shindig.gadgets.js.JsContent, 0, 0, 0, 0, 0, 0, 0, 0, 0, 0, 0, 0, 0, 0,0.0,0.0,0.0,0.14285714285714285,0.0,0.0,0.0,0.0,0.0,0.0,0.0,0.0,0.0,45,java\gadgets\src\main\java\org\apache\shindig\gadgets\js\JsContent.java,0,0,0,0
org.apache.shindig.gadgets.js.JsException, 0, 0, 0, 0, 0, 0, 0, 0, 0, 0, 0, 0, 0, 0,0.0,0.0,0.0,0.0,0.0,0.0,0.0,0.0,0.0,0.0,0.0,0.0,0.0,10,java\gadgets\src\main\java\org\apache\shindig\gadgets\js\JsException.java,0,0,0,0
org.apache.shindig.gadgets.js.JsGadgetContext, 0, 0, 0, 0, 0, 0, 0, 0, 0, 0, 0, 0, 0, 0,0.0,0.0,0.0,0.0,0.0,0.0,0.0,0.0,0.0,0.0,0.0,0.0,0.0,22,java\gadgets\src\main\java\org\apache\shindig\gadgets\js\JsGadgetContext.java,0,0,0,0
org.apache.shindig.gadgets.js.JsLoadProcessor, 0, 0, 0, 0, 0, 0, 0, 0, 0, 0, 0, 0, 0, 0,0.0,0.0,0.0,0.0,0.0,0.0,0.0,0.4,0.0,0.0,0.0,0.0,0.0,70,java\gadgets\src\main\java\org\apache\shindig\gadgets\js\JsLoadProcessor.java,0,0,0,0
org.apache.shindig.gadgets.js.JsLoadProcessorTest, 0, 0, 0, 0, 0, 0, 0, 0, 0, 0, 0, 0, 0, 0,0.0,0.0,0.0,0.0,0.0,0.0,0.0,0.0,0.0,0.0,0.0,0.0,0.0,83,java\gadgets\src\test\java\org\apache\shindig\gadgets\js\JsLoadProcessorTest.java,0,0,0,0
org.apache.shindig.gadgets.js.JsProcessor, 0, 0, 0, 0, 0, 0, 0, 0, 0, 0, 0, 0, 0, 0,0.0,0.0,0.0,0.0,0.0,0.0,0.0,0.0,0.0,0.0,0.0,0.0,0.0,83,java\gadgets\src\main\java\org\apache\shindig\gadgets\js\JsProcessor.java,0,0,0,0
org.apache.shindig.gadgets.js.JsProcessorRegistry, 0, 0, 0, 0, 0, 0, 0, 0, 0, 0, 0, 0, 0, 0,0.0,0.0,0.0,0.0,0.0,0.0,0.0,0.0,0.0,0.0,0.0,0.0,0.0,83,java\gadgets\src\main\java\org\apache\shindig\gadgets\js\JsProcessorRegistry.java,0,0,0,0
org.apache.shindig.gadgets.js.JsRequest, 0, 0, 0, 0, 0, 0, 0, 0, 0, 0, 0, 0, 0, 0,0.0,0.0,0.0,0.043478260869565216,0.0,0.0,0.0,0.0,0.0,0.0,0.0,0.0,0.0,48,java\gadgets\src\main\java\org\apache\shindig\gadgets\js\JsRequest.java,0,0,0,0
org.apache.shindig.gadgets.js.JsRequestBuilder, 0, 0, 0, 0, 0, 0, 0, 0, 0, 0, 0, 0, 0, 0,0.0,0.0,0.0,0.0,0.0,0.0,0.0,0.25,0.0,0.0,0.0,0.0,0.0,22,java\gadgets\src\main\java\org\apache\shindig\gadgets\js\JsRequestBuilder.java,0,0,0,0
org.apache.shindig.gadgets.js.JsRequestBuilderTest, 0, 0, 0, 0, 0, 0, 0, 0, 0, 0, 0, 0, 0, 0,0.0,0.0,0.0,0.0,0.0,0.0,0.0,0.0,0.0,0.0,0.0,0.0,0.0,91,java\gadgets\src\test\java\org\apache\shindig\gadgets\js\JsRequestBuilderTest.java,0,0,0,0
org.apache.shindig.gadgets.js.JsResponseBuilderTest, 0, 0, 0, 0, 0, 0, 0, 0, 0, 0, 0, 0, 0, 0,0.0,0.0,0.0,0.0,0.0,0.0,0.0,0.0,0.0,0.0,0.0,0.0,0.0,37,java\gadgets\src\test\java\org\apache\shindig\gadgets\js\JsResponseBuilderTest.java,0,0,0,0
org.apache.shindig.gadgets.js.JsServingPipeline, 0, 0, 0, 0, 0, 0, 0, 0, 0, 0, 0, 0, 0, 0,0.0,0.0,0.0,0.0,0.0,0.0,0.0,0.0,0.0,0.0,0.0,0.0,0.0,37,java\gadgets\src\main\java\org\apache\shindig\gadgets\js\JsServingPipeline.java,0,0,0,0
org.apache.shindig.gadgets.js.JsServingPipelineModule, 0, 0, 0, 0, 0, 0, 0, 1, 0, 0, 0, 0, 0, 1,0.0,0.0,0.0,0.0,0.0,0.0,0.0,0.0,0.0,0.0,0.0,0.0,0.0,49,java\gadgets\src\main\java\org\apache\shindig\gadgets\js\JsServingPipelineModule.java,0,0,0,0
org.apache.shindig.gadgets.js.SeparatorCommentingProcessor, 0, 0, 0, 0, 0, 0, 0, 0, 0, 0, 0, 0, 0, 0,0.0,0.0,0.0,0.0,0.0,0.0,0.0,0.25,0.0,0.0,0.0,0.0,0.0,30,java\gadgets\src\main\java\org\apache\shindig\gadgets\js\SeparatorCommentingProcessor.java,0,0,0,0
org.apache.shindig.gadgets.js.SeparatorCommentingProcessorTest, 0, 0, 0, 0, 0, 0, 0, 0, 0, 0, 0, 0, 0, 0,0.0,0.0,0.0,0.0,0.0,0.0,0.0,0.0,0.0,0.0,0.0,0.0,0.0,119,java\gadgets\src\test\java\org\apache\shindig\gadgets\js\SeparatorCommentingProcessorTest.java,0,0,0,0
org.apache.shindig.gadgets.oauth.AccessorInfo, 0, 0, 0, 0, 0, 0, 0, 0, 0, 0, 0, 0, 0, 0,0.0,0.0,0.0,0.3333333333333333,0.0,0.0,0.0,0.0,0.0,0.0,0.0,0.0,0.0,50,java\gadgets\src\main\java\org\apache\shindig\gadgets\oauth\AccessorInfo.java,0,0,0,0
org.apache.shindig.gadgets.oauth.AccessorInfoBuilder, 0, 0, 0, 0, 0, 0, 0, 0, 0, 0, 0, 0, 0, 0,0.0,0.0,0.0,0.0,0.0,0.0,0.0,0.0,0.0,0.0,0.0,0.0,0.0,49,java\gadgets\src\main\java\org\apache\shindig\gadgets\oauth\AccessorInfoBuilder.java,0,0,0,0
org.apache.shindig.gadgets.oauth.BasicOAuthStoreConsumerIndex, 0, 0, 0, 0, 0, 0, 0, 0, 0, 0, 0, 0, 0, 0,0.0,0.0,0.0,1.0,0.0,0.0,0.0,0.0,0.0,0.0,0.0,0.0,0.0,37,java\gadgets\src\main\java\org\apache\shindig\gadgets\oauth\BasicOAuthStoreConsumerIndex.java,0,0,0,0
org.apache.shindig.gadgets.oauth.BasicOAuthStoreConsumerKeyAndSecret, 0, 0, 0, 0, 0, 0, 0, 0, 0, 0, 0, 0, 0, 0,0.0,0.0,0.0,0.5,0.0,0.0,0.0,0.0,0.0,0.0,0.0,0.0,0.0,40,java\gadgets\src\main\java\org\apache\shindig\gadgets\oauth\BasicOAuthStoreConsumerKeyAndSecret.java,0,0,0,0
org.apache.shindig.gadgets.oauth.BasicOAuthStoreTest, 0, 0, 0, 0, 0, 0, 0, 0, 0, 0, 0, 0, 0, 0,0.0,0.0,0.0,0.0,0.0,0.0,0.0,0.0,0.0,0.0,0.0,0.0,0.0,110,java\gadgets\src\test\java\org\apache\shindig\gadgets\oauth\BasicOAuthStoreTest.java,0,0,0,0
org.apache.shindig.gadgets.oauth.BasicOAuthStoreTokenIndex, 0, 0, 0, 0, 0, 0, 0, 0, 0, 0, 0, 0, 0, 0,0.0,0.0,0.0,0.0,0.0,0.0,0.0,0.0,0.0,0.0,0.0,0.0,0.0,65,java\gadgets\src\main\java\org\apache\shindig\gadgets\oauth\BasicOAuthStoreTokenIndex.java,0,0,0,0
org.apache.shindig.gadgets.oauth.BasicOAuthStoreTokenIndexTest, 0, 0, 0, 0, 0, 0, 0, 0, 0, 0, 0, 0, 0, 0,0.0,0.0,0.0,0.0,0.0,0.0,0.0,0.0,0.0,0.0,0.0,0.0,0.0,21,java\gadgets\src\test\java\org\apache\shindig\gadgets\oauth\BasicOAuthStoreTokenIndexTest.java,0,0,0,0
org.apache.shindig.gadgets.oauth.GadgetOAuthCallbackGenerator, 0, 0, 0, 0, 0, 0, 0, 0, 0, 0, 0, 0, 0, 0,0.0,0.0,0.0,0.0,0.0,0.0,0.0,0.0,0.0,0.0,0.0,0.0,0.0,68,java\gadgets\src\main\java\org\apache\shindig\gadgets\oauth\GadgetOAuthCallbackGenerator.java,0,0,0,0
org.apache.shindig.gadgets.oauth.GadgetOAuthTokenStore, 0, 0, 0, 0, 0, 0, 0, 0, 0, 0, 0, 0, 0, 0,0.0,0.0,0.0,0.1111111111111111,0.0,0.0,0.0,0.0,0.0,0.0,0.0,0.0,0.0,189,java\gadgets\src\main\java\org\apache\shindig\gadgets\oauth\GadgetOAuthTokenStore.java,0,0,0,0
org.apache.shindig.gadgets.oauth.GadgetTokenStoreTest, 0, 0, 0, 1, 0, 0, 0, 0, 0, 0, 0, 0, 0, 1,0.0,0.0,0.14285714285714285,0.0,0.0,0.0,0.0,0.0,0.0,0.0,0.0,0.0,0.0,379,java\gadgets\src\test\java\org\apache\shindig\gadgets\oauth\GadgetTokenStoreTest.java,0,0,0,0
org.apache.shindig.gadgets.oauth.OAuthArgumentsTest, 0, 0, 0, 0, 0, 0, 0, 0, 0, 0, 0, 0, 0, 0,0.0,0.0,0.0,0.0,0.0,0.0,0.0,0.0,0.0,0.0,0.0,0.0,0.0,161,java\gadgets\src\test\java\org\apache\shindig\gadgets\oauth\OAuthArgumentsTest.java,0,0,0,0
org.apache.shindig.gadgets.oauth.OAuthCallbackGenerator, 0, 0, 0, 0, 0, 0, 0, 0, 0, 0, 0, 0, 0, 0,0.0,0.0,0.0,0.0,0.0,0.0,0.0,0.0,0.0,0.0,0.0,0.0,0.0,161,java\gadgets\src\main\java\org\apache\shindig\gadgets\oauth\OAuthCallbackGenerator.java,0,0,0,0
org.apache.shindig.gadgets.oauth.OAuthClientStateTest, 0, 0, 0, 0, 0, 0, 0, 0, 0, 0, 0, 0, 0, 0,0.0,0.0,1.0,0.0,0.0,0.0,0.0,0.0,0.0,0.0,0.0,0.0,0.0,68,java\gadgets\src\test\java\org\apache\shindig\gadgets\oauth\OAuthClientStateTest.java,0,0,0,0
org.apache.shindig.gadgets.oauth.OAuthFetcherConfig, 0, 0, 0, 0, 0, 0, 0, 0, 0, 0, 0, 0, 0, 0,0.0,0.0,0.0,0.2,0.0,0.0,0.0,0.0,0.0,0.0,0.0,0.0,0.0,36,java\gadgets\src\main\java\org\apache\shindig\gadgets\oauth\OAuthFetcherConfig.java,0,0,0,0
org.apache.shindig.gadgets.oauth.OAuthFetcherConfigTest, 0, 0, 0, 0, 0, 0, 0, 0, 0, 0, 0, 0, 0, 0,0.0,0.0,0.0,0.0,0.0,0.0,0.0,0.0,0.0,0.0,0.0,0.0,0.0,15,java\gadgets\src\test\java\org\apache\shindig\gadgets\oauth\OAuthFetcherConfigTest.java,0,0,0,0
org.apache.shindig.gadgets.oauth.OAuthGadgetContext, 0, 0, 0, 0, 0, 0, 0, 0, 0, 0, 0, 0, 0, 0,0.0,0.0,0.0,0.0,0.0,0.0,0.0,0.0,0.0,0.0,0.0,0.0,0.0,28,java\gadgets\src\main\java\org\apache\shindig\gadgets\oauth\OAuthGadgetContext.java,0,0,0,0
org.apache.shindig.gadgets.oauth.OAuthProtocolException, 0, 0, 0, 0, 0, 0, 0, 0, 0, 0, 0, 0, 0, 0,0.0,0.0,0.0,0.0,0.0,0.0,0.0,0.0,0.0,0.0,0.0,0.0,0.0,68,java\gadgets\src\main\java\org\apache\shindig\gadgets\oauth\OAuthProtocolException.java,0,0,0,0
org.apache.shindig.gadgets.oauth.OAuthRequestException, 0, 0, 0, 0, 0, 0, 0, 0, 0, 0, 0, 0, 0, 0,0.0,0.0,0.0,0.25,0.0,0.0,0.0,0.0,0.0,0.0,0.0,0.0,0.0,43,java\gadgets\src\main\java\org\apache\shindig\gadgets\oauth\OAuthRequestException.java,0,0,0,0
org.apache.shindig.gadgets.oauth.OAuthStore, 0, 0, 0, 0, 0, 0, 0, 0, 0, 0, 0, 0, 0, 0,0.0,0.0,0.0,0.0,0.0,0.0,0.0,0.0,0.0,0.0,0.0,0.0,0.0,43,java\gadgets\src\main\java\org\apache\shindig\gadgets\oauth\OAuthStore.java,0,0,0,0
org.apache.shindig.gadgets.oauth2.BasicOAuth2Store, 0, 0, 0, 1, 0, 0, 0, 1, 0, 0, 0, 0, 0, 2,0.0,0.0,0.0,0.25,0.0,0.0,0.0,0.0,0.0,0.0,0.0,0.0,0.0,406,java\gadgets\src\main\java\org\apache\shindig\gadgets\oauth2\BasicOAuth2Store.java,0,0,0,0
org.apache.shindig.gadgets.oauth2.BasicOAuth2StoreTest, 0, 0, 0, 0, 0, 0, 0, 0, 0, 0, 0, 0, 0, 0,0.0,0.0,0.0,1.0,0.0,0.0,0.0,0.5,0.0,0.0,0.0,0.0,0.0,23,java\gadgets\src\test\java\org\apache\shindig\gadgets\oauth2\BasicOAuth2StoreTest.java,0,0,0,0
org.apache.shindig.gadgets.oauth2.GadgetOAuth2TokenStore, 0, 0, 0, 0, 0, 0, 0, 0, 0, 0, 0, 0, 0, 0,0.0,0.0,0.0,0.0,0.0,0.0,0.0,0.0,0.0,0.0,0.0,0.0,0.0,179,java\gadgets\src\main\java\org\apache\shindig\gadgets\oauth2\GadgetOAuth2TokenStore.java,0,0,0,0
org.apache.shindig.gadgets.oauth2.GadgetOAuth2TokenStoreTest, 0, 0, 0, 0, 0, 0, 0, 0, 0, 0, 0, 0, 0, 0,0.0,0.0,0.0,0.0,0.0,0.0,0.0,0.0,0.0,0.0,0.0,0.0,0.0,82,java\gadgets\src\test\java\org\apache\shindig\gadgets\oauth2\GadgetOAuth2TokenStoreTest.java,0,0,0,0
org.apache.shindig.gadgets.oauth2.OAuth2ErrorTest, 0, 0, 0, 0, 0, 0, 0, 0, 0, 0, 0, 0, 0, 0,0.0,0.0,0.0,0.0,0.0,0.0,0.0,0.0,0.0,0.0,0.0,0.0,0.0,8,java\gadgets\src\test\java\org\apache\shindig\gadgets\oauth2\OAuth2ErrorTest.java,0,0,0,0
org.apache.shindig.gadgets.oauth2.OAuth2FetcherConfig, 0, 0, 0, 0, 0, 0, 0, 0, 0, 0, 0, 0, 0, 0,0.0,0.0,0.0,0.0,0.0,0.0,0.0,0.0,0.0,0.0,0.0,0.0,0.0,21,java\gadgets\src\main\java\org\apache\shindig\gadgets\oauth2\OAuth2FetcherConfig.java,0,0,0,0
org.apache.shindig.gadgets.oauth2.OAuth2FetcherConfigTest, 0, 0, 0, 0, 0, 0, 0, 0, 0, 0, 0, 0, 0, 0,0.0,0.0,0.0,0.0,0.0,0.0,0.0,0.0,0.0,0.0,0.0,0.0,0.0,46,java\gadgets\src\test\java\org\apache\shindig\gadgets\oauth2\OAuth2FetcherConfigTest.java,0,0,0,0
org.apache.shindig.gadgets.oauth2.OAuth2GadgetContext, 0, 0, 0, 0, 0, 0, 0, 0, 0, 0, 0, 0, 0, 0,0.0,0.0,0.0,0.0,0.0,0.0,0.0,0.0,0.0,0.0,0.0,0.0,0.0,34,java\gadgets\src\main\java\org\apache\shindig\gadgets\oauth2\OAuth2GadgetContext.java,0,0,0,0
org.apache.shindig.gadgets.oauth2.OAuth2GadgetContextTest, 0, 0, 0, 0, 0, 0, 0, 0, 0, 0, 0, 0, 0, 0,0.0,0.0,0.0,0.0,0.0,0.0,0.0,0.0,0.0,0.0,0.0,0.0,0.0,35,java\gadgets\src\test\java\org\apache\shindig\gadgets\oauth2\OAuth2GadgetContextTest.java,0,0,0,0
org.apache.shindig.gadgets.oauth2.OAuth2MessageModule, 0, 0, 0, 0, 0, 0, 0, 0, 0, 0, 0, 0, 0, 0,0.0,0.0,0.0,0.0,0.0,0.0,0.0,0.0,0.0,0.0,0.0,0.0,0.0,14,java\gadgets\src\main\java\org\apache\shindig\gadgets\oauth2\OAuth2MessageModule.java,0,0,0,0
org.apache.shindig.gadgets.oauth2.OAuth2MessageModuleTest, 0, 0, 0, 0, 0, 0, 0, 0, 0, 0, 0, 0, 0, 0,0.0,0.0,0.0,0.0,0.0,0.0,0.0,0.0,0.0,0.0,0.0,0.0,0.0,8,java\gadgets\src\test\java\org\apache\shindig\gadgets\oauth2\OAuth2MessageModuleTest.java,0,0,0,0
org.apache.shindig.gadgets.oauth2.OAuth2Module, 0, 0, 0, 0, 0, 0, 0, 0, 0, 0, 0, 0, 0, 0,0.0,0.0,0.0,0.0,0.0,0.0,0.0,0.0,0.0,0.0,0.0,0.0,0.0,119,java\gadgets\src\main\java\org\apache\shindig\gadgets\oauth2\OAuth2Module.java,0,0,0,0
org.apache.shindig.gadgets.oauth2.OAuth2ModuleTest, 0, 0, 0, 0, 0, 0, 0, 0, 0, 0, 0, 0, 0, 0,0.0,0.0,0.0,0.0,0.0,0.0,0.0,0.0,0.0,0.0,0.0,0.0,0.0,8,java\gadgets\src\test\java\org\apache\shindig\gadgets\oauth2\OAuth2ModuleTest.java,0,0,0,0
org.apache.shindig.gadgets.oauth2.OAuth2Request, 0, 0, 0, 0, 0, 0, 0, 0, 0, 0, 0, 0, 0, 0,0.0,0.0,0.0,0.0,0.0,0.0,0.0,0.0,0.0,0.0,0.0,0.0,0.0,8,java\gadgets\src\main\java\org\apache\shindig\gadgets\oauth2\OAuth2Request.java,0,0,0,0
org.apache.shindig.gadgets.oauth2.OAuth2RequestException, 0, 0, 0, 0, 0, 0, 0, 0, 0, 0, 0, 0, 0, 0,0.0,0.0,0.0,0.0,0.0,0.0,0.0,0.0,0.0,0.0,0.0,0.0,0.0,39,java\gadgets\src\main\java\org\apache\shindig\gadgets\oauth2\OAuth2RequestException.java,0,0,0,0
org.apache.shindig.gadgets.oauth2.OAuth2RequestExceptionTest, 0, 0, 0, 0, 0, 0, 0, 0, 0, 0, 0, 0, 0, 0,0.0,0.0,0.0,0.0,0.0,0.0,0.0,0.0,0.0,0.0,0.0,0.0,0.0,21,java\gadgets\src\test\java\org\apache\shindig\gadgets\oauth2\OAuth2RequestExceptionTest.java,0,0,0,0
org.apache.shindig.gadgets.oauth2.OAuth2ResponseParamsTest, 0, 0, 0, 0, 0, 0, 0, 0, 0, 0, 0, 0, 0, 0,0.0,0.0,0.0,0.0,0.0,0.0,0.0,0.0,0.0,0.0,0.0,0.0,0.0,234,java\gadgets\src\test\java\org\apache\shindig\gadgets\oauth2\OAuth2ResponseParamsTest.java,0,0,0,0
org.apache.shindig.gadgets.oauth2.OAuth2Store, 0, 0, 0, 0, 0, 0, 0, 0, 0, 0, 0, 0, 0, 0,0.0,0.0,0.0,0.0,0.0,0.0,0.0,0.0,0.0,0.0,0.0,0.0,0.0,234,java\gadgets\src\main\java\org\apache\shindig\gadgets\oauth2\OAuth2Store.java,0,0,0,0
org.apache.shindig.gadgets.oauth2.handler.AuthorizationEndpointResponseHandler, 0, 0, 0, 0, 0, 0, 0, 0, 0, 0, 0, 0, 0, 0,0.0,0.0,0.0,0.0,0.0,0.0,0.0,0.0,0.0,0.0,0.0,0.0,0.0,234,java\gadgets\src\main\java\org\apache\shindig\gadgets\oauth2\handler\AuthorizationEndpointResponseHandler.java,0,0,0,0
org.apache.shindig.gadgets.oauth2.handler.BasicAuthenticationHandler, 0, 0, 0, 0, 0, 0, 0, 0, 0, 0, 0, 0, 0, 0,0.0,0.0,0.0,0.0,0.0,0.0,0.0,0.0,0.0,0.0,0.0,0.0,0.0,38,java\gadgets\src\main\java\org\apache\shindig\gadgets\oauth2\handler\BasicAuthenticationHandler.java,0,0,0,0
org.apache.shindig.gadgets.oauth2.handler.BasicAuthenticationHandlerTest, 0, 0, 0, 0, 0, 0, 0, 0, 0, 0, 0, 0, 0, 0,0.0,0.0,0.0,0.0,0.0,0.0,0.0,0.0,0.0,0.0,0.0,0.0,0.0,63,java\gadgets\src\test\java\org\apache\shindig\gadgets\oauth2\handler\BasicAuthenticationHandlerTest.java,0,0,0,0
org.apache.shindig.gadgets.oauth2.handler.BearerTokenHandlerTest, 0, 0, 0, 0, 0, 0, 0, 0, 0, 0, 0, 0, 0, 0,0.0,0.0,0.0,0.0,0.0,0.0,0.0,0.0,0.0,0.0,0.0,0.0,0.0,65,java\gadgets\src\test\java\org\apache\shindig\gadgets\oauth2\handler\BearerTokenHandlerTest.java,0,0,0,0
org.apache.shindig.gadgets.oauth2.handler.ClientAuthenticationHandler, 0, 0, 0, 0, 0, 0, 0, 0, 0, 0, 0, 0, 0, 0,0.0,0.0,0.0,0.0,0.0,0.0,0.0,0.0,0.0,0.0,0.0,0.0,0.0,65,java\gadgets\src\main\java\org\apache\shindig\gadgets\oauth2\handler\ClientAuthenticationHandler.java,0,0,0,0
org.apache.shindig.gadgets.oauth2.handler.ClientCredentialsGrantTypeHandlerTest, 0, 0, 0, 0, 0, 0, 0, 0, 0, 0, 0, 0, 0, 0,0.0,0.0,0.0,0.0,0.0,0.0,0.0,0.0,0.0,0.0,0.0,0.0,0.0,114,java\gadgets\src\test\java\org\apache\shindig\gadgets\oauth2\handler\ClientCredentialsGrantTypeHandlerTest.java,0,1,0,1
org.apache.shindig.gadgets.oauth2.handler.GrantRequestHandler, 0, 0, 0, 0, 0, 0, 0, 0, 0, 0, 0, 0, 0, 0,0.0,0.0,0.0,0.0,0.0,0.0,0.0,0.0,0.0,0.0,0.0,0.0,0.0,114,java\gadgets\src\main\java\org\apache\shindig\gadgets\oauth2\handler\GrantRequestHandler.java,0,0,0,0
org.apache.shindig.gadgets.oauth2.handler.MacTokenHandlerTest, 0, 0, 0, 0, 0, 0, 0, 0, 0, 0, 0, 0, 0, 0,0.0,0.0,0.0,0.0,0.0,0.0,0.0,0.0,0.0,0.0,0.0,0.0,0.0,74,java\gadgets\src\test\java\org\apache\shindig\gadgets\oauth2\handler\MacTokenHandlerTest.java,0,0,0,0
org.apache.shindig.gadgets.oauth2.handler.OAuth2HandlerError, 0, 0, 0, 0, 0, 0, 0, 0, 0, 0, 0, 0, 0, 0,0.0,0.0,0.0,0.0,0.0,0.0,0.0,0.0,0.0,0.0,0.0,0.0,0.0,41,java\gadgets\src\main\java\org\apache\shindig\gadgets\oauth2\handler\OAuth2HandlerError.java,0,0,0,0
org.apache.shindig.gadgets.oauth2.handler.OAuth2HandlerErrorTest, 0, 0, 0, 0, 0, 0, 0, 0, 0, 0, 0, 0, 0, 0,0.0,0.0,0.0,0.0,0.0,0.0,0.0,0.0,0.0,0.0,0.0,0.0,0.0,52,java\gadgets\src\test\java\org\apache\shindig\gadgets\oauth2\handler\OAuth2HandlerErrorTest.java,0,0,0,0
org.apache.shindig.gadgets.oauth2.handler.OAuth2HandlerModule, 0, 0, 0, 0, 0, 0, 0, 0, 0, 0, 0, 0, 0, 0,0.0,0.0,0.0,0.0,0.0,0.0,0.0,0.0,0.0,0.0,0.0,0.0,0.0,43,java\gadgets\src\main\java\org\apache\shindig\gadgets\oauth2\handler\OAuth2HandlerModule.java,0,0,0,0
org.apache.shindig.gadgets.oauth2.handler.OAuth2HandlerModuleTest, 0, 0, 0, 0, 0, 0, 0, 0, 0, 0, 0, 0, 0, 0,0.0,0.0,0.0,0.0,0.0,0.0,0.0,0.0,0.0,0.0,0.0,0.0,0.0,67,java\gadgets\src\test\java\org\apache\shindig\gadgets\oauth2\handler\OAuth2HandlerModuleTest.java,0,0,0,0
org.apache.shindig.gadgets.oauth2.handler.ResourceRequestHandler, 0, 0, 0, 0, 0, 0, 0, 0, 0, 0, 0, 0, 0, 0,0.0,0.0,0.0,0.0,0.0,0.0,0.0,0.0,0.0,0.0,0.0,0.0,0.0,67,java\gadgets\src\main\java\org\apache\shindig\gadgets\oauth2\handler\ResourceRequestHandler.java,0,0,0,0
org.apache.shindig.gadgets.oauth2.handler.StandardAuthenticationHandler, 0, 0, 0, 0, 0, 0, 0, 0, 0, 0, 0, 0, 0, 0,0.0,0.0,0.0,0.0,0.0,0.0,0.0,0.0,0.0,0.0,0.0,0.0,0.0,42,java\gadgets\src\main\java\org\apache\shindig\gadgets\oauth2\handler\StandardAuthenticationHandler.java,0,0,0,0
org.apache.shindig.gadgets.oauth2.handler.StandardAuthenticationHandlerTest, 0, 0, 0, 0, 0, 0, 0, 0, 0, 0, 0, 0, 0, 0,0.0,0.0,0.0,0.0,0.0,0.0,0.0,0.0,0.0,0.0,0.0,0.0,0.0,71,java\gadgets\src\test\java\org\apache\shindig\gadgets\oauth2\handler\StandardAuthenticationHandlerTest.java,0,0,0,0
org.apache.shindig.gadgets.oauth2.handler.TokenAuthorizationResponseHandlerTest, 0, 0, 0, 0, 0, 0, 0, 0, 0, 0, 0, 0, 0, 0,0.0,0.0,0.0,0.0,0.0,0.0,0.0,0.0,0.0,0.0,0.0,0.0,0.0,142,java\gadgets\src\test\java\org\apache\shindig\gadgets\oauth2\handler\TokenAuthorizationResponseHandlerTest.java,0,0,0,0
org.apache.shindig.gadgets.oauth2.handler.TokenEndpointResponseHandler, 0, 0, 0, 0, 0, 0, 0, 0, 0, 0, 0, 0, 0, 0,0.0,0.0,0.0,0.0,0.0,0.0,0.0,0.0,0.0,0.0,0.0,0.0,0.0,142,java\gadgets\src\main\java\org\apache\shindig\gadgets\oauth2\handler\TokenEndpointResponseHandler.java,0,0,0,0
org.apache.shindig.gadgets.oauth2.logger.FilteredLoggerTest, 0, 0, 0, 0, 0, 0, 0, 0, 0, 0, 0, 0, 0, 0,0.0,0.0,0.0,0.0,0.0,0.0,0.0,0.0,0.0,0.0,0.0,0.0,0.0,154,java\gadgets\src\test\java\org\apache\shindig\gadgets\oauth2\logger\FilteredLoggerTest.java,0,0,0,0
org.apache.shindig.gadgets.oauth2.persistence.OAuth2Cache, 0, 0, 0, 0, 0, 0, 0, 0, 0, 0, 0, 0, 0, 0,0.0,0.0,0.0,0.0,0.0,0.0,0.0,0.0,0.0,0.0,0.0,0.0,0.0,154,java\gadgets\src\main\java\org\apache\shindig\gadgets\oauth2\persistence\OAuth2Cache.java,0,0,0,0
org.apache.shindig.gadgets.oauth2.persistence.OAuth2CacheException, 0, 0, 0, 0, 0, 0, 0, 0, 0, 0, 0, 0, 0, 0,0.0,0.0,0.0,0.3333333333333333,0.0,0.0,0.0,0.3333333333333333,0.0,0.0,0.0,0.0,0.0,6,java\gadgets\src\main\java\org\apache\shindig\gadgets\oauth2\persistence\OAuth2CacheException.java,0,0,0,0
org.apache.shindig.gadgets.oauth2.persistence.OAuth2CacheExceptionTest, 0, 0, 0, 0, 0, 0, 0, 0, 0, 0, 0, 0, 0, 0,0.0,0.0,0.0,0.0,0.0,0.0,0.0,0.0,0.0,0.0,0.0,0.0,0.0,13,java\gadgets\src\test\java\org\apache\shindig\gadgets\oauth2\persistence\OAuth2CacheExceptionTest.java,0,0,0,0
org.apache.shindig.gadgets.oauth2.persistence.OAuth2Client, 0, 0, 0, 1, 0, 0, 0, 0, 0, 0, 0, 0, 0, 1,0.0,0.0,0.0,0.3333333333333333,0.0,0.0,0.0,0.16666666666666666,0.0,0.0,0.0,0.0,0.0,201,java\gadgets\src\main\java\org\apache\shindig\gadgets\oauth2\persistence\OAuth2Client.java,0,0,0,0
org.apache.shindig.gadgets.oauth2.persistence.OAuth2ClientTest, 0, 0, 0, 1, 0, 0, 0, 0, 0, 0, 0, 0, 0, 1,0.0,0.0,0.0,1.0,0.0,0.0,0.0,0.0,0.0,0.0,0.0,0.0,0.0,536,java\gadgets\src\test\java\org\apache\shindig\gadgets\oauth2\persistence\OAuth2ClientTest.java,0,0,0,0
org.apache.shindig.gadgets.oauth2.persistence.OAuth2Encrypter, 0, 0, 0, 0, 0, 0, 0, 0, 0, 0, 0, 0, 0, 0,0.0,0.0,0.0,0.0,0.0,0.0,0.0,0.0,0.0,0.0,0.0,0.0,0.0,536,java\gadgets\src\main\java\org\apache\shindig\gadgets\oauth2\persistence\OAuth2Encrypter.java,0,0,0,0
org.apache.shindig.gadgets.oauth2.persistence.OAuth2EncryptionException, 0, 0, 0, 0, 0, 0, 0, 0, 0, 0, 0, 0, 0, 0,0.0,0.0,0.0,0.3333333333333333,0.0,0.0,0.0,0.0,0.0,0.0,0.0,0.0,0.0,6,java\gadgets\src\main\java\org\apache\shindig\gadgets\oauth2\persistence\OAuth2EncryptionException.java,0,0,0,0
org.apache.shindig.gadgets.oauth2.persistence.OAuth2EncryptionExceptionTest, 0, 0, 0, 0, 0, 0, 0, 0, 0, 0, 0, 0, 0, 0,0.0,0.0,0.0,0.0,0.0,0.0,0.0,0.0,0.0,0.0,0.0,0.0,0.0,15,java\gadgets\src\test\java\org\apache\shindig\gadgets\oauth2\persistence\OAuth2EncryptionExceptionTest.java,0,0,0,0
org.apache.shindig.gadgets.oauth2.persistence.OAuth2PersistenceException, 0, 0, 0, 0, 0, 0, 0, 0, 0, 0, 0, 0, 0, 0,0.0,0.0,0.0,0.3333333333333333,0.0,0.0,0.0,0.3333333333333333,0.0,0.0,0.0,0.0,0.0,6,java\gadgets\src\main\java\org\apache\shindig\gadgets\oauth2\persistence\OAuth2PersistenceException.java,0,0,0,0
org.apache.shindig.gadgets.oauth2.persistence.OAuth2PersistenceExceptionTest, 0, 0, 0, 0, 0, 0, 0, 0, 0, 0, 0, 0, 0, 0,0.0,0.0,0.0,0.0,0.0,0.0,0.0,0.0,0.0,0.0,0.0,0.0,0.0,14,java\gadgets\src\test\java\org\apache\shindig\gadgets\oauth2\persistence\OAuth2PersistenceExceptionTest.java,0,0,0,0
org.apache.shindig.gadgets.oauth2.persistence.OAuth2Persister, 0, 0, 0, 0, 0, 0, 0, 0, 0, 0, 0, 0, 0, 0,0.0,0.0,0.0,0.0,0.0,0.0,0.0,0.0,0.0,0.0,0.0,0.0,0.0,14,java\gadgets\src\main\java\org\apache\shindig\gadgets\oauth2\persistence\OAuth2Persister.java,0,0,0,0
org.apache.shindig.gadgets.oauth2.persistence.sample.InMemoryCacheTest, 0, 0, 0, 0, 0, 0, 0, 0, 0, 0, 0, 0, 0, 0,0.0,0.0,0.0,1.0,0.0,0.0,0.0,0.0,0.0,0.0,0.0,0.0,0.0,171,java\gadgets\src\test\java\org\apache\shindig\gadgets\oauth2\persistence\sample\InMemoryCacheTest.java,0,0,0,0
org.apache.shindig.gadgets.oauth2.persistence.sample.JSONOAuth2PersisterTest, 0, 0, 0, 0, 0, 0, 0, 0, 0, 0, 0, 0, 0, 0,0.0,0.0,0.0,1.0,0.0,0.0,0.0,0.0,0.0,0.0,0.0,0.0,0.0,54,java\gadgets\src\test\java\org\apache\shindig\gadgets\oauth2\persistence\sample\JSONOAuth2PersisterTest.java,0,0,0,0
org.apache.shindig.gadgets.oauth2.persistence.sample.NoOpEncrypter, 0, 0, 0, 0, 0, 0, 0, 0, 0, 0, 0, 0, 0, 0,0.0,0.0,0.0,0.0,0.0,0.0,0.0,0.0,0.0,0.0,0.0,0.0,0.0,11,java\gadgets\src\main\java\org\apache\shindig\gadgets\oauth2\persistence\sample\NoOpEncrypter.java,0,0,0,0
org.apache.shindig.gadgets.oauth2.persistence.sample.NoOpEncrypterTest, 0, 0, 0, 0, 0, 0, 0, 0, 0, 0, 0, 0, 0, 0,0.0,0.0,0.0,0.0,0.0,0.0,0.0,0.0,0.0,0.0,0.0,0.0,0.0,52,java\gadgets\src\test\java\org\apache\shindig\gadgets\oauth2\persistence\sample\NoOpEncrypterTest.java,0,0,0,0
org.apache.shindig.gadgets.oauth2.persistence.sample.OAuth2GadgetBinding, 0, 0, 0, 0, 0, 0, 0, 0, 0, 0, 0, 0, 0, 0,0.0,0.0,0.0,0.0,0.0,0.0,0.0,0.0,0.0,0.0,0.0,0.0,0.0,63,java\gadgets\src\main\java\org\apache\shindig\gadgets\oauth2\persistence\sample\OAuth2GadgetBinding.java,0,0,0,0
org.apache.shindig.gadgets.oauth2.persistence.sample.OAuth2GadgetBindingTest, 0, 0, 0, 0, 0, 0, 0, 0, 0, 0, 0, 0, 0, 0,0.0,0.0,0.0,0.0,0.0,0.0,0.0,0.0,0.0,0.0,0.0,0.0,0.0,69,java\gadgets\src\test\java\org\apache\shindig\gadgets\oauth2\persistence\sample\OAuth2GadgetBindingTest.java,0,0,0,0
org.apache.shindig.gadgets.oauth2.persistence.sample.OAuth2PersistenceModule, 0, 0, 0, 0, 0, 0, 0, 0, 0, 0, 0, 0, 0, 0,0.0,0.0,0.0,0.0,0.0,0.0,0.0,0.0,0.0,0.0,0.0,0.0,0.0,8,java\gadgets\src\main\java\org\apache\shindig\gadgets\oauth2\persistence\sample\OAuth2PersistenceModule.java,0,0,0,0
org.apache.shindig.gadgets.oauth2.persistence.sample.OAuth2PersistenceModuleTest, 0, 0, 0, 0, 0, 0, 0, 0, 0, 0, 0, 0, 0, 0,0.0,0.0,0.0,0.0,0.0,0.0,0.0,0.0,0.0,0.0,0.0,0.0,0.0,8,java\gadgets\src\test\java\org\apache\shindig\gadgets\oauth2\persistence\sample\OAuth2PersistenceModuleTest.java,0,0,0,0
org.apache.shindig.gadgets.oauth2.persistence.sample.OAuth2Provider, 0, 0, 0, 0, 0, 0, 0, 0, 0, 0, 0, 0, 0, 0,0.0,0.0,0.0,0.0,0.0,0.0,0.0,0.0,0.0,0.0,0.0,0.0,0.0,76,java\gadgets\src\main\java\org\apache\shindig\gadgets\oauth2\persistence\sample\OAuth2Provider.java,0,0,0,0
org.apache.shindig.gadgets.oauth2.persistence.sample.OAuth2ProviderTest, 0, 0, 0, 0, 0, 0, 0, 0, 0, 0, 0, 0, 0, 0,0.0,0.0,0.0,0.0,0.0,0.0,0.0,0.0,0.0,0.0,0.0,0.0,0.0,115,java\gadgets\src\test\java\org\apache\shindig\gadgets\oauth2\persistence\sample\OAuth2ProviderTest.java,0,0,0,0
org.apache.shindig.gadgets.parse.AbstractParserAndSerializerTest, 0, 0, 0, 0, 0, 0, 0, 0, 0, 0, 0, 0, 0, 0,0.0,0.0,0.0,0.0,0.0,0.0,0.0,0.0,0.0,0.0,0.0,0.0,0.0,61,java\gadgets\src\test\java\org\apache\shindig\gadgets\parse\AbstractParserAndSerializerTest.java,0,0,0,0
org.apache.shindig.gadgets.parse.CompactHtmlSerializerTest, 0, 0, 0, 0, 0, 0, 0, 0, 0, 0, 0, 0, 0, 0,0.0,0.0,0.0,0.0,0.0,0.0,0.0,0.0,0.0,0.0,0.0,0.0,0.0,58,java\gadgets\src\test\java\org\apache\shindig\gadgets\parse\CompactHtmlSerializerTest.java,0,0,0,0
org.apache.shindig.gadgets.parse.DefaultHtmlSerializerTest, 0, 0, 0, 0, 0, 0, 0, 0, 0, 0, 0, 0, 0, 0,0.0,0.0,0.0,0.0,0.0,0.0,0.0,0.0,0.0,0.0,0.0,0.0,0.0,61,java\gadgets\src\test\java\org\apache\shindig\gadgets\parse\DefaultHtmlSerializerTest.java,0,0,0,0
org.apache.shindig.gadgets.parse.HtmlParserTest, 0, 0, 0, 0, 0, 0, 0, 0, 0, 0, 0, 0, 0, 0,0.0,0.0,0.0,0.0,0.0,0.0,0.0,0.0,0.0,0.0,0.0,0.0,0.0,43,java\gadgets\src\test\java\org\apache\shindig\gadgets\parse\HtmlParserTest.java,0,0,0,0
org.apache.shindig.gadgets.parse.HtmlSerializationTest, 0, 0, 0, 0, 0, 0, 0, 0, 0, 0, 0, 0, 0, 0,0.0,0.0,0.0,0.0,0.0,0.0,0.0,0.0,0.0,0.0,0.0,0.0,0.0,51,java\gadgets\src\test\java\org\apache\shindig\gadgets\parse\HtmlSerializationTest.java,0,0,0,0
org.apache.shindig.gadgets.parse.HtmlSerializer, 0, 0, 0, 0, 0, 0, 0, 0, 0, 0, 0, 0, 0, 0,0.0,0.0,0.0,0.0,0.0,0.0,0.0,0.0,0.0,0.0,0.0,0.0,0.0,51,java\gadgets\src\main\java\org\apache\shindig\gadgets\parse\HtmlSerializer.java,0,0,0,0
org.apache.shindig.gadgets.parse.ParseModule, 0, 0, 0, 0, 0, 0, 0, 0, 0, 0, 0, 0, 0, 0,0.0,0.0,0.0,0.0,0.0,0.0,0.0,0.0,0.0,0.0,0.0,0.0,0.0,42,java\gadgets\src\main\java\org\apache\shindig\gadgets\parse\ParseModule.java,0,0,0,0
org.apache.shindig.gadgets.parse.ParseTreeSerializerBenchmark, 0, 0, 0, 0, 0, 0, 0, 0, 0, 0, 0, 0, 0, 0,0.0,0.0,0.0,0.0,0.0,0.0,0.0,0.0,0.0,0.0,0.0,0.0,0.0,100,java\gadgets\src\test\java\org\apache\shindig\gadgets\parse\ParseTreeSerializerBenchmark.java,0,0,0,0
org.apache.shindig.gadgets.parse.SocialDataTags, 0, 0, 0, 0, 0, 0, 0, 0, 0, 0, 0, 0, 0, 0,0.0,0.0,0.0,0.0,0.0,0.0,0.0,0.0,0.0,0.0,0.0,0.0,0.0,31,java\gadgets\src\main\java\org\apache\shindig\gadgets\parse\SocialDataTags.java,0,0,0,0
org.apache.shindig.gadgets.parse.caja.CajaCompactHtmlSerializerTest, 0, 0, 0, 0, 0, 0, 0, 0, 0, 0, 0, 0, 0, 0,0.0,0.0,0.0,0.0,0.0,0.0,0.0,0.0,0.0,0.0,0.0,0.0,0.0,6,java\gadgets\src\test\java\org\apache\shindig\gadgets\parse\caja\CajaCompactHtmlSerializerTest.java,0,0,0,0
org.apache.shindig.gadgets.parse.caja.CajaCssLexerParserTest, 0, 0, 0, 0, 0, 0, 0, 0, 0, 0, 0, 0, 0, 0,0.0,0.0,0.0,0.0,0.0,0.0,0.0,0.0,0.0,0.0,0.0,0.0,0.0,31,java\gadgets\src\test\java\org\apache\shindig\gadgets\parse\caja\CajaCssLexerParserTest.java,0,0,0,0
org.apache.shindig.gadgets.parse.caja.CajaCssParser, 0, 0, 0, 0, 0, 0, 0, 0, 0, 0, 0, 0, 0, 0,0.0,0.0,0.0,0.0,0.0,0.0,0.0,0.0,0.0,0.0,0.0,0.0,0.0,70,java\gadgets\src\main\java\org\apache\shindig\gadgets\parse\caja\CajaCssParser.java,0,0,0,0
org.apache.shindig.gadgets.parse.caja.CajaCssParserTest, 0, 0, 0, 0, 0, 0, 0, 0, 0, 0, 0, 0, 0, 0,0.0,0.0,0.0,0.0,0.0,0.0,0.0,0.0,0.0,0.0,0.0,0.0,0.0,82,java\gadgets\src\test\java\org\apache\shindig\gadgets\parse\caja\CajaCssParserTest.java,0,0,0,0
org.apache.shindig.gadgets.parse.caja.CajaCssSanitizerTest, 0, 0, 0, 0, 0, 0, 0, 0, 0, 0, 0, 0, 0, 0,0.0,0.0,0.0,0.0,0.0,0.0,0.0,0.0,0.0,0.0,0.0,0.0,0.0,120,java\gadgets\src\test\java\org\apache\shindig\gadgets\parse\caja\CajaCssSanitizerTest.java,0,0,0,0
org.apache.shindig.gadgets.parse.caja.CajaCssUtils, 0, 0, 0, 0, 0, 0, 0, 0, 0, 0, 0, 0, 0, 0,0.0,0.0,0.0,0.0,0.0,0.0,0.0,0.0,0.0,0.0,0.0,0.0,0.0,24,java\gadgets\src\main\java\org\apache\shindig\gadgets\parse\caja\CajaCssUtils.java,0,0,0,0
org.apache.shindig.gadgets.parse.caja.CajaHtmlSerializer, 0, 0, 0, 0, 0, 0, 0, 0, 0, 0, 0, 0, 0, 0,0.0,0.0,0.0,0.0,0.0,0.0,0.0,0.0,0.0,0.0,0.0,0.0,0.0,9,java\gadgets\src\main\java\org\apache\shindig\gadgets\parse\caja\CajaHtmlSerializer.java,0,0,0,0
org.apache.shindig.gadgets.parse.caja.CajaParserAndSerializerTest, 0, 0, 0, 0, 0, 0, 0, 0, 0, 0, 0, 0, 0, 0,0.0,0.0,0.0,0.0,0.0,0.0,0.0,0.0,0.0,0.0,0.0,0.0,0.0,10,java\gadgets\src\test\java\org\apache\shindig\gadgets\parse\caja\CajaParserAndSerializerTest.java,0,0,0,0
org.apache.shindig.gadgets.parse.caja.CajaSocialMarkupHtmlParserTest, 0, 0, 0, 0, 0, 0, 0, 0, 0, 0, 0, 0, 0, 0,0.0,0.0,0.0,0.0,0.0,0.0,0.0,0.0,0.0,0.0,0.0,0.0,0.0,10,java\gadgets\src\test\java\org\apache\shindig\gadgets\parse\caja\CajaSocialMarkupHtmlParserTest.java,0,0,0,0
org.apache.shindig.gadgets.parse.caja.VanillaCajaHtmlParser, 0, 0, 0, 0, 0, 0, 0, 0, 0, 0, 0, 0, 0, 0,0.0,0.0,0.0,0.0,0.0,0.0,0.0,0.0,0.0,0.0,0.0,0.0,0.0,45,java\gadgets\src\main\java\org\apache\shindig\gadgets\parse\caja\VanillaCajaHtmlParser.java,0,0,0,0
org.apache.shindig.gadgets.parse.caja.VanillaCajaHtmlParserTest, 0, 0, 0, 0, 0, 0, 0, 0, 0, 0, 0, 0, 0, 0,0.0,0.0,0.0,0.0,0.0,0.0,0.0,0.0,0.0,0.0,0.0,0.0,0.0,58,java\gadgets\src\test\java\org\apache\shindig\gadgets\parse\caja\VanillaCajaHtmlParserTest.java,0,0,0,0
org.apache.shindig.gadgets.parse.caja.VanillaCajaHtmlSerializer, 0, 0, 0, 0, 0, 0, 0, 0, 0, 0, 0, 0, 0, 0,0.0,0.0,0.0,0.0,0.0,0.0,0.0,0.0,0.0,0.0,0.0,0.0,0.0,18,java\gadgets\src\main\java\org\apache\shindig\gadgets\parse\caja\VanillaCajaHtmlSerializer.java,0,0,0,0
org.apache.shindig.gadgets.parse.caja.VanillaCajaHtmlSerializerTest, 0, 0, 0, 0, 0, 0, 0, 0, 0, 0, 0, 0, 0, 0,0.0,0.0,0.0,0.0,0.0,0.0,0.0,0.0,0.0,0.0,0.0,0.0,0.0,28,java\gadgets\src\test\java\org\apache\shindig\gadgets\parse\caja\VanillaCajaHtmlSerializerTest.java,0,0,0,0
org.apache.shindig.gadgets.parse.nekohtml.NekoCompactHtmlSerializerTest, 0, 0, 0, 0, 0, 0, 0, 0, 0, 0, 0, 0, 0, 0,0.0,0.0,0.0,0.0,0.0,0.0,0.0,0.0,0.0,0.0,0.0,0.0,0.0,7,java\gadgets\src\test\java\org\apache\shindig\gadgets\parse\nekohtml\NekoCompactHtmlSerializerTest.java,0,0,0,0
org.apache.shindig.gadgets.parse.nekohtml.NekoParserAndSerializeTest, 0, 0, 0, 0, 0, 0, 0, 0, 0, 0, 0, 0, 0, 0,0.0,0.0,0.0,0.0,0.0,0.0,0.0,0.0,0.0,0.0,0.0,0.0,0.0,40,java\gadgets\src\test\java\org\apache\shindig\gadgets\parse\nekohtml\NekoParserAndSerializeTest.java,0,0,0,0
org.apache.shindig.gadgets.parse.nekohtml.SocialMarkupHtmlParserTest, 0, 0, 0, 0, 0, 0, 0, 0, 0, 0, 0, 0, 0, 0,0.0,0.0,0.0,0.0,0.0,0.0,0.0,0.0,0.0,0.0,0.0,0.0,0.0,6,java\gadgets\src\test\java\org\apache\shindig\gadgets\parse\nekohtml\SocialMarkupHtmlParserTest.java,0,0,0,0
org.apache.shindig.gadgets.preload.ConcurrentPreloaderService, 0, 0, 0, 0, 0, 0, 0, 0, 0, 0, 0, 0, 0, 0,0.0,0.0,0.0,0.0,0.0,0.0,0.0,0.0,0.0,0.0,0.0,0.0,0.0,29,java\gadgets\src\main\java\org\apache\shindig\gadgets\preload\ConcurrentPreloaderService.java,0,0,0,0
org.apache.shindig.gadgets.preload.ConcurrentPreloads, 0, 0, 0, 0, 0, 0, 0, 0, 0, 0, 0, 0, 0, 0,0.0,0.0,0.0,0.0,0.0,0.0,0.0,0.0,0.0,0.0,0.0,0.0,0.0,49,java\gadgets\src\main\java\org\apache\shindig\gadgets\preload\ConcurrentPreloads.java,0,0,0,0
org.apache.shindig.gadgets.preload.ConcurrentPreloadsTest, 0, 0, 0, 0, 0, 0, 0, 0, 0, 0, 0, 0, 0, 0,0.0,0.0,0.0,0.0,0.0,0.0,0.0,0.0,0.0,0.0,0.0,0.0,0.0,113,java\gadgets\src\test\java\org\apache\shindig\gadgets\preload\ConcurrentPreloadsTest.java,0,0,0,0
org.apache.shindig.gadgets.preload.PreloadException, 0, 0, 0, 0, 0, 0, 0, 0, 0, 0, 0, 0, 0, 0,0.0,0.0,0.0,0.0,0.0,0.0,0.0,0.0,0.0,0.0,0.0,0.0,0.0,11,java\gadgets\src\main\java\org\apache\shindig\gadgets\preload\PreloadException.java,0,0,0,0
org.apache.shindig.gadgets.preload.PreloadModule, 0, 0, 0, 0, 0, 0, 0, 0, 0, 0, 0, 0, 0, 0,0.0,0.0,0.0,0.0,0.0,0.0,0.0,0.0,0.0,0.0,0.0,0.0,0.0,5,java\gadgets\src\main\java\org\apache\shindig\gadgets\preload\PreloadModule.java,0,0,0,0
org.apache.shindig.gadgets.preload.PreloadedData, 0, 0, 0, 0, 0, 0, 0, 0, 0, 0, 0, 0, 0, 0,0.0,0.0,0.0,0.0,0.0,0.0,0.0,0.0,0.0,0.0,0.0,0.0,0.0,5,java\gadgets\src\main\java\org\apache\shindig\gadgets\preload\PreloadedData.java,0,0,0,0
org.apache.shindig.gadgets.preload.Preloader, 0, 0, 0, 0, 0, 0, 0, 0, 0, 0, 0, 0, 0, 0,0.0,0.0,0.0,0.0,0.0,0.0,0.0,0.0,0.0,0.0,0.0,0.0,0.0,5,java\gadgets\src\main\java\org\apache\shindig\gadgets\preload\Preloader.java,0,0,0,0
org.apache.shindig.gadgets.preload.PreloaderService, 0, 0, 0, 0, 0, 0, 0, 0, 0, 0, 0, 0, 0, 0,0.0,0.0,0.0,0.0,0.0,0.0,0.0,0.0,0.0,0.0,0.0,0.0,0.0,5,java\gadgets\src\main\java\org\apache\shindig\gadgets\preload\PreloaderService.java,0,0,0,0
org.apache.shindig.gadgets.process.ProcessingException, 0, 0, 0, 0, 0, 0, 0, 0, 0, 0, 0, 0, 0, 0,0.0,0.0,0.0,0.0,0.0,0.0,0.0,0.0,0.0,0.0,0.0,0.0,0.0,18,java\gadgets\src\main\java\org\apache\shindig\gadgets\process\ProcessingException.java,0,0,0,0
org.apache.shindig.gadgets.process.Processor, 0, 0, 0, 0, 0, 0, 0, 0, 0, 0, 0, 0, 0, 0,0.0,0.0,0.1111111111111111,0.0,0.0,0.0,0.0,0.0,0.0,0.0,0.0,0.0,0.0,78,java\gadgets\src\main\java\org\apache\shindig\gadgets\process\Processor.java,0,0,0,0
org.apache.shindig.gadgets.process.ProcessorTest, 0, 0, 0, 0, 0, 0, 0, 0, 0, 0, 0, 0, 0, 0,0.0,0.0,0.0,0.0,0.0,0.0,0.0,0.0,0.0,0.0,0.0,0.0,0.0,160,java\gadgets\src\test\java\org\apache\shindig\gadgets\process\ProcessorTest.java,0,0,0,0
org.apache.shindig.gadgets.render.CajaResponseRewriterTest, 0, 0, 0, 0, 0, 0, 0, 0, 0, 0, 0, 0, 0, 0,0.0,0.0,0.0,0.0,0.0,0.0,0.0,0.0,0.0,0.0,0.0,0.0,0.0,55,java\gadgets\src\test\java\org\apache\shindig\gadgets\render\CajaResponseRewriterTest.java,0,0,0,0
org.apache.shindig.gadgets.render.DefaultRpcServiceLookup, 0, 0, 0, 0, 0, 0, 0, 0, 0, 0, 0, 0, 0, 0,0.0,0.0,0.0,0.0,0.0,0.0,0.0,0.0,0.0,0.0,0.0,0.0,0.0,32,java\gadgets\src\main\java\org\apache\shindig\gadgets\render\DefaultRpcServiceLookup.java,0,0,0,0
org.apache.shindig.gadgets.render.DefaultRpcServiceLookupTest, 0, 0, 0, 0, 0, 0, 0, 0, 0, 0, 0, 0, 0, 0,0.0,0.0,0.0,0.0,0.0,0.0,0.0,0.0,0.0,0.0,0.0,0.0,0.0,72,java\gadgets\src\test\java\org\apache\shindig\gadgets\render\DefaultRpcServiceLookupTest.java,0,0,0,0
org.apache.shindig.gadgets.render.DefaultServiceFetcherTest, 0, 0, 0, 0, 0, 0, 0, 0, 0, 0, 0, 0, 0, 0,0.0,0.0,0.0,0.0,0.0,0.0,0.0,0.0,0.0,0.0,0.0,0.0,0.0,117,java\gadgets\src\test\java\org\apache\shindig\gadgets\render\DefaultServiceFetcherTest.java,0,0,0,0
org.apache.shindig.gadgets.render.FakeMessageBundleFactory, 0, 0, 0, 0, 0, 0, 0, 0, 0, 0, 0, 0, 0, 0,0.0,0.0,0.0,0.0,0.0,0.0,0.0,0.0,0.0,0.0,0.0,0.0,0.0,9,java\gadgets\src\test\java\org\apache\shindig\gadgets\render\FakeMessageBundleFactory.java,0,0,0,0
org.apache.shindig.gadgets.render.GadgetRewritersProvider, 0, 0, 0, 0, 0, 0, 0, 0, 0, 0, 0, 0, 0, 0,0.0,0.0,0.0,0.0,0.0,0.0,0.0,0.0,0.0,0.0,0.0,0.0,0.0,11,java\gadgets\src\main\java\org\apache\shindig\gadgets\render\GadgetRewritersProvider.java,0,0,0,0
org.apache.shindig.gadgets.render.HtmlRenderer, 0, 0, 0, 0, 0, 0, 0, 0, 0, 0, 0, 0, 0, 0,0.0,0.0,0.0,0.0,0.0,0.0,0.0,0.0,0.0,0.0,0.0,0.0,0.0,44,java\gadgets\src\main\java\org\apache\shindig\gadgets\render\HtmlRenderer.java,0,0,0,0
org.apache.shindig.gadgets.render.HtmlRendererTest, 0, 0, 0, 0, 0, 0, 0, 0, 0, 0, 0, 0, 0, 0,0.0,0.0,0.0,0.0,0.0,0.0,0.0,0.0,0.0,0.0,0.0,0.0,0.0,80,java\gadgets\src\test\java\org\apache\shindig\gadgets\render\HtmlRendererTest.java,0,0,0,0
org.apache.shindig.gadgets.render.ProxyRenderer, 0, 0, 0, 0, 0, 0, 0, 0, 0, 0, 0, 0, 0, 0,0.0,0.0,0.0,0.0,0.0,0.0,0.0,0.0,0.0,0.0,0.0,0.0,0.0,85,java\gadgets\src\main\java\org\apache\shindig\gadgets\render\ProxyRenderer.java,0,0,0,0
org.apache.shindig.gadgets.render.RenderModule, 0, 0, 0, 0, 0, 0, 0, 0, 0, 0, 0, 0, 0, 0,0.0,0.0,0.0,0.0,0.0,0.0,0.0,0.0,0.0,0.0,0.0,0.0,0.0,28,java\gadgets\src\main\java\org\apache\shindig\gadgets\render\RenderModule.java,0,0,0,0
org.apache.shindig.gadgets.render.Renderer, 0, 0, 0, 0, 0, 0, 0, 0, 0, 0, 0, 0, 0, 0,0.0,0.0,0.0,0.0,0.0,0.0,0.0,0.0,0.0,0.0,0.0,0.0,0.0,82,java\gadgets\src\main\java\org\apache\shindig\gadgets\render\Renderer.java,0,0,0,0
org.apache.shindig.gadgets.render.RenderingException, 0, 0, 0, 0, 0, 0, 0, 0, 0, 0, 0, 0, 0, 0,0.0,0.0,0.0,0.0,0.0,0.0,0.0,0.0,0.0,0.0,0.0,0.0,0.0,18,java\gadgets\src\main\java\org\apache\shindig\gadgets\render\RenderingException.java,0,0,0,0
org.apache.shindig.gadgets.render.RenderingResults, 0, 0, 0, 0, 0, 0, 0, 0, 0, 0, 0, 0, 0, 0,0.0,0.0,0.0,0.0,0.0,0.0,0.0,0.0,0.0,0.0,0.0,0.0,0.0,48,java\gadgets\src\main\java\org\apache\shindig\gadgets\render\RenderingResults.java,0,0,0,0
org.apache.shindig.gadgets.render.RpcServiceLookup, 0, 0, 0, 0, 0, 0, 0, 0, 0, 0, 0, 0, 0, 0,0.0,0.0,0.0,0.0,0.0,0.0,0.0,0.0,0.0,0.0,0.0,0.0,0.0,48,java\gadgets\src\main\java\org\apache\shindig\gadgets\render\RpcServiceLookup.java,0,0,0,0
org.apache.shindig.gadgets.render.SanitizingGadgetRewriter, 0, 0, 0, 0, 0, 0, 0, 0, 0, 0, 0, 0, 0, 0,0.0,0.0,0.0,0.5,0.0,0.0,0.0,0.0,0.0,0.0,0.0,0.0,0.0,251,java\gadgets\src\main\java\org\apache\shindig\gadgets\render\SanitizingGadgetRewriter.java,0,0,0,0
org.apache.shindig.gadgets.render.SanitizingProxyUriManager, 0, 0, 0, 0, 0, 0, 0, 0, 0, 0, 0, 0, 0, 0,0.0,0.0,0.0,0.0,0.0,0.0,0.0,0.0,0.0,0.0,0.0,0.0,0.0,20,java\gadgets\src\main\java\org\apache\shindig\gadgets\render\SanitizingProxyUriManager.java,0,0,0,0
org.apache.shindig.gadgets.render.SanitizingProxyUriManagerTest, 0, 0, 0, 0, 0, 0, 0, 0, 0, 0, 0, 0, 0, 0,0.0,0.0,0.0,0.0,0.0,0.0,0.0,0.0,0.0,0.0,0.0,0.0,0.0,93,java\gadgets\src\test\java\org\apache\shindig\gadgets\render\SanitizingProxyUriManagerTest.java,0,0,0,0
org.apache.shindig.gadgets.render.SanitizingResponseRewriter, 0, 0, 0, 0, 0, 0, 0, 0, 0, 0, 0, 0, 0, 0,0.0,0.0,0.0,0.0,0.0,0.0,0.0,0.0,0.0,0.0,0.0,0.0,0.0,85,java\gadgets\src\main\java\org\apache\shindig\gadgets\render\SanitizingResponseRewriter.java,0,0,0,0
org.apache.shindig.gadgets.render.SanitizingResponseRewriterTest, 0, 0, 0, 0, 0, 0, 0, 0, 0, 0, 0, 0, 0, 0,0.0,0.0,0.0,0.0,0.0,0.0,0.0,0.0,0.0,0.0,0.0,0.0,0.0,123,java\gadgets\src\test\java\org\apache\shindig\gadgets\render\SanitizingResponseRewriterTest.java,0,0,0,0
org.apache.shindig.gadgets.render.ServiceFetcher, 0, 0, 0, 0, 0, 0, 0, 0, 0, 0, 0, 0, 0, 0,0.0,0.0,0.0,0.0,0.0,0.0,0.0,0.0,0.0,0.0,0.0,0.0,0.0,123,java\gadgets\src\main\java\org\apache\shindig\gadgets\render\ServiceFetcher.java,0,0,0,0
org.apache.shindig.gadgets.rewrite.BaseTagRemoverRewriterTest, 0, 0, 0, 0, 0, 0, 0, 0, 0, 0, 0, 0, 0, 0,0.0,0.0,0.0,0.0,0.0,0.0,0.0,0.0,0.0,0.0,0.0,0.0,0.0,132,java\gadgets\src\test\java\org\apache\shindig\gadgets\rewrite\BaseTagRemoverRewriterTest.java,0,0,0,0
org.apache.shindig.gadgets.rewrite.CacheEnforcementVisitor, 0, 0, 0, 0, 0, 0, 0, 0, 0, 0, 0, 0, 0, 0,0.0,0.0,0.0,0.0,0.0,0.0,0.0,0.0,0.0,0.0,0.0,0.0,0.0,80,java\gadgets\src\main\java\org\apache\shindig\gadgets\rewrite\CacheEnforcementVisitor.java,0,0,0,0
org.apache.shindig.gadgets.rewrite.CaptureRewriter, 0, 0, 0, 0, 0, 0, 0, 0, 0, 0, 0, 0, 0, 0,0.0,0.0,0.5,0.0,0.0,0.0,0.0,0.0,0.0,0.0,0.0,0.0,0.0,16,java\gadgets\src\main\java\org\apache\shindig\gadgets\rewrite\CaptureRewriter.java,0,0,0,0
org.apache.shindig.gadgets.rewrite.ConcatVisitor, 0, 0, 0, 0, 0, 0, 0, 0, 0, 0, 0, 0, 0, 0,0.0,0.0,0.0,0.0,0.0,0.0,0.0,0.0,0.0,0.0,0.0,0.0,0.0,171,java\gadgets\src\main\java\org\apache\shindig\gadgets\rewrite\ConcatVisitor.java,0,0,0,0
org.apache.shindig.gadgets.rewrite.ContentRewriterFeatureTestCase, 0, 0, 0, 1, 0, 0, 0, 0, 0, 0, 0, 0, 0, 1,0.0,0.0,0.0,0.0,0.0,0.0,0.0,0.0,0.0,0.0,0.0,0.0,0.0,197,java\gadgets\src\test\java\org\apache\shindig\gadgets\rewrite\ContentRewriterFeatureTestCase.java,0,0,0,0
org.apache.shindig.gadgets.rewrite.ContentRewriterFeatureTestCaseOS9, 0, 0, 0, 0, 0, 0, 0, 0, 0, 0, 0, 0, 0, 0,0.0,0.0,0.0,0.0,0.0,0.0,0.0,0.0,0.0,0.0,0.0,0.0,0.0,213,java\gadgets\src\test\java\org\apache\shindig\gadgets\rewrite\ContentRewriterFeatureTestCaseOS9.java,0,0,0,0
org.apache.shindig.gadgets.rewrite.ContentTypeCharsetRemoverRewriter, 0, 0, 0, 0, 0, 1, 0, 0, 0, 0, 0, 0, 0, 1,0.0,0.0,0.0,0.0,0.0,0.0,0.0,0.0,0.0,0.0,0.0,0.0,0.0,6,java\gadgets\src\main\java\org\apache\shindig\gadgets\rewrite\ContentTypeCharsetRemoverRewriter.java,0,0,0,0
org.apache.shindig.gadgets.rewrite.ContentTypeCharsetRemoverRewriterTest, 0, 0, 0, 0, 0, 0, 0, 0, 0, 0, 0, 0, 0, 0,0.0,0.0,0.0,0.0,0.0,0.5,0.0,0.0,0.0,0.0,0.0,0.0,0.0,88,java\gadgets\src\test\java\org\apache\shindig\gadgets\rewrite\ContentTypeCharsetRemoverRewriterTest.java,0,0,0,0
org.apache.shindig.gadgets.rewrite.ContentTypeCharsetRemoverVisitor, 0, 0, 0, 0, 0, 0, 0, 0, 0, 0, 0, 0, 0, 0,0.0,0.0,0.0,0.0,0.0,0.0,0.0,0.0,0.0,0.0,0.0,0.0,0.0,23,java\gadgets\src\main\java\org\apache\shindig\gadgets\rewrite\ContentTypeCharsetRemoverVisitor.java,0,0,0,0
org.apache.shindig.gadgets.rewrite.CssResponseRewriter, 0, 0, 0, 0, 0, 0, 0, 0, 0, 0, 0, 0, 0, 0,0.0,0.0,0.0,0.0,0.0,0.0,0.0,0.0,0.0,0.0,0.0,0.0,0.0,137,java\gadgets\src\main\java\org\apache\shindig\gadgets\rewrite\CssResponseRewriter.java,0,0,0,0
org.apache.shindig.gadgets.rewrite.DefaultContentRewriterRegistryTest, 0, 0, 0, 0, 0, 0, 0, 0, 0, 0, 0, 0, 0, 0,0.0,0.0,0.0,0.0,0.0,0.0,0.0,0.0,0.0,0.0,0.0,0.0,0.0,40,java\gadgets\src\test\java\org\apache\shindig\gadgets\rewrite\DefaultContentRewriterRegistryTest.java,0,0,0,0
org.apache.shindig.gadgets.rewrite.DefaultResponseRewriterRegistry, 0, 0, 0, 0, 0, 0, 0, 0, 0, 0, 0, 0, 0, 0,0.0,0.0,0.0,0.0,0.0,0.0,0.0,0.0,0.0,0.0,0.0,0.0,0.0,21,java\gadgets\src\main\java\org\apache\shindig\gadgets\rewrite\DefaultResponseRewriterRegistry.java,0,0,0,0
org.apache.shindig.gadgets.rewrite.DomWalkerTest, 0, 0, 0, 0, 0, 0, 0, 0, 0, 0, 0, 0, 0, 0,0.0,0.0,0.0,0.0,0.0,0.0,0.0,0.0,0.0,0.0,0.0,0.0,0.0,185,java\gadgets\src\test\java\org\apache\shindig\gadgets\rewrite\DomWalkerTest.java,0,0,0,0
org.apache.shindig.gadgets.rewrite.DomWalkerTestBase, 0, 0, 0, 0, 0, 0, 0, 0, 0, 0, 0, 0, 0, 0,0.0,0.0,0.0,0.0,0.0,0.0,0.0,0.0,0.0,0.0,0.0,0.0,0.0,71,java\gadgets\src\test\java\org\apache\shindig\gadgets\rewrite\DomWalkerTestBase.java,0,0,0,0
org.apache.shindig.gadgets.rewrite.GadgetRewriter, 0, 0, 0, 0, 0, 0, 0, 0, 0, 0, 0, 0, 0, 0,0.0,0.0,0.0,0.0,0.0,0.0,0.0,0.0,0.0,0.0,0.0,0.0,0.0,71,java\gadgets\src\main\java\org\apache\shindig\gadgets\rewrite\GadgetRewriter.java,0,0,0,0
org.apache.shindig.gadgets.rewrite.ImageResizeRewriter, 0, 0, 0, 0, 0, 0, 0, 0, 0, 0, 0, 0, 0, 0,0.0,0.0,0.0,0.0,0.0,0.0,0.0,0.0,0.0,0.0,0.0,0.0,0.0,110,java\gadgets\src\main\java\org\apache\shindig\gadgets\rewrite\ImageResizeRewriter.java,0,0,0,0
org.apache.shindig.gadgets.rewrite.ImageResizeRewriterTest, 0, 0, 0, 0, 0, 0, 0, 0, 0, 0, 0, 0, 0, 0,0.0,0.0,0.0,0.0,0.0,0.0,0.0,0.0,0.0,0.0,0.0,0.0,0.0,89,java\gadgets\src\test\java\org\apache\shindig\gadgets\rewrite\ImageResizeRewriterTest.java,0,0,0,0
org.apache.shindig.gadgets.rewrite.OsTemplateXmlLoaderRewriterTest, 0, 0, 0, 1, 0, 0, 0, 0, 0, 0, 0, 0, 0, 1,0.0,0.0,0.0,0.0,0.0,0.0,0.0,0.0,0.0,0.0,0.0,0.0,0.0,250,java\gadgets\src\test\java\org\apache\shindig\gadgets\rewrite\OsTemplateXmlLoaderRewriterTest.java,0,0,0,0
org.apache.shindig.gadgets.rewrite.ProxyingContentRewriter, 0, 0, 0, 0, 0, 0, 0, 0, 0, 0, 0, 0, 0, 0,0.0,0.0,0.0,0.0,0.0,0.0,0.0,0.0,0.0,0.0,0.0,0.0,0.0,23,java\gadgets\src\main\java\org\apache\shindig\gadgets\rewrite\ProxyingContentRewriter.java,0,0,0,0
org.apache.shindig.gadgets.rewrite.ProxyingContentRewriterTest, 0, 0, 0, 0, 0, 0, 0, 0, 0, 0, 0, 0, 0, 0,0.0,0.0,0.0,0.0,0.0,0.0,0.0,0.0,0.0,0.0,0.0,0.0,0.0,5,java\gadgets\src\test\java\org\apache\shindig\gadgets\rewrite\ProxyingContentRewriterTest.java,0,0,0,0
org.apache.shindig.gadgets.rewrite.ProxyingVisitor, 0, 0, 0, 0, 0, 0, 0, 0, 0, 0, 0, 0, 0, 0,0.0,0.0,0.0,0.0,0.0,0.0,0.0,0.0,0.0,0.0,0.0,0.0,0.0,41,java\gadgets\src\main\java\org\apache\shindig\gadgets\rewrite\ProxyingVisitor.java,0,0,0,0
org.apache.shindig.gadgets.rewrite.ResponseRewriter, 0, 0, 0, 0, 0, 0, 0, 0, 0, 0, 0, 0, 0, 0,0.0,0.0,0.0,0.0,0.0,0.0,0.0,0.0,0.0,0.0,0.0,0.0,0.0,41,java\gadgets\src\main\java\org\apache\shindig\gadgets\rewrite\ResponseRewriter.java,0,0,0,0
org.apache.shindig.gadgets.rewrite.ResponseRewriterRegistry, 0, 0, 0, 0, 0, 0, 0, 0, 0, 0, 0, 0, 0, 0,0.0,0.0,0.0,0.0,0.0,0.0,0.0,0.0,0.0,0.0,0.0,0.0,0.0,41,java\gadgets\src\main\java\org\apache\shindig\gadgets\rewrite\ResponseRewriterRegistry.java,0,0,0,0
org.apache.shindig.gadgets.rewrite.RewriteModuleTest, 0, 0, 0, 0, 0, 0, 0, 0, 0, 0, 0, 0, 0, 0,0.0,0.0,0.0,0.0,0.0,0.0,0.0,0.0,0.0,0.0,0.0,0.0,0.0,71,java\gadgets\src\test\java\org\apache\shindig\gadgets\rewrite\RewriteModuleTest.java,0,0,0,0
org.apache.shindig.gadgets.rewrite.RewritePath, 0, 0, 0, 0, 0, 0, 0, 0, 0, 0, 0, 0, 0, 0,0.0,0.0,0.0,0.0,0.0,0.0,0.0,0.0,0.0,0.0,0.0,0.0,0.0,33,java\gadgets\src\main\java\org\apache\shindig\gadgets\rewrite\RewritePath.java,0,0,0,0
org.apache.shindig.gadgets.rewrite.RewriterUtilsTest, 0, 0, 0, 0, 0, 0, 0, 0, 0, 0, 0, 0, 0, 0,0.0,0.0,0.0,0.0,0.0,0.0,0.0,0.0,0.0,0.0,0.0,0.0,0.0,27,java\gadgets\src\test\java\org\apache\shindig\gadgets\rewrite\RewriterUtilsTest.java,0,0,0,0
org.apache.shindig.gadgets.rewrite.RewritingException, 0, 0, 0, 0, 0, 0, 0, 0, 0, 0, 0, 0, 0, 0,0.0,0.0,0.0,0.0,0.0,0.0,0.0,0.2,0.0,0.0,0.0,0.0,0.0,18,java\gadgets\src\main\java\org\apache\shindig\gadgets\rewrite\RewritingException.java,0,0,0,0
org.apache.shindig.gadgets.rewrite.ScriptConcatContentRewriter, 0, 0, 0, 0, 0, 0, 0, 0, 0, 0, 0, 0, 0, 0,0.0,0.0,0.0,0.0,0.0,0.0,0.0,0.0,0.0,0.0,0.0,0.0,0.0,27,java\gadgets\src\main\java\org\apache\shindig\gadgets\rewrite\ScriptConcatContentRewriter.java,0,0,0,0
org.apache.shindig.gadgets.rewrite.ScriptConcatContentRewriterTest, 0, 0, 0, 0, 0, 0, 0, 0, 0, 0, 0, 0, 0, 0,0.0,0.0,0.0,0.0,0.0,0.0,0.0,0.0,0.0,0.0,0.0,0.0,0.0,5,java\gadgets\src\test\java\org\apache\shindig\gadgets\rewrite\ScriptConcatContentRewriterTest.java,0,0,0,0
org.apache.shindig.gadgets.rewrite.StyleAdjacencyContentRewriter, 0, 0, 0, 0, 0, 1, 0, 0, 0, 0, 0, 0, 0, 1,0.0,0.0,0.0,0.0,0.0,0.0,0.0,0.0,0.0,0.0,0.0,0.0,0.0,5,java\gadgets\src\main\java\org\apache\shindig\gadgets\rewrite\StyleAdjacencyContentRewriter.java,0,0,0,0
org.apache.shindig.gadgets.rewrite.StyleAdjacencyContentRewriterTest, 0, 0, 0, 0, 0, 0, 0, 0, 0, 0, 0, 0, 0, 0,0.0,0.0,0.0,0.0,0.0,0.0,0.0,0.0,0.0,0.0,0.0,0.0,0.0,5,java\gadgets\src\test\java\org\apache\shindig\gadgets\rewrite\StyleAdjacencyContentRewriterTest.java,0,0,0,0
org.apache.shindig.gadgets.rewrite.StyleAdjacencyVisitor, 0, 0, 0, 0, 0, 0, 0, 0, 0, 0, 0, 0, 0, 0,0.0,0.0,0.0,0.0,0.0,0.0,0.0,0.0,0.0,0.0,0.0,0.0,0.0,46,java\gadgets\src\main\java\org\apache\shindig\gadgets\rewrite\StyleAdjacencyVisitor.java,0,0,0,0
org.apache.shindig.gadgets.rewrite.StyleAdjacencyVisitorTest, 0, 0, 0, 0, 0, 0, 0, 0, 0, 0, 0, 0, 0, 0,0.0,0.0,0.0,0.0,0.0,0.0,0.0,0.0,0.0,0.0,0.0,0.0,0.0,204,java\gadgets\src\test\java\org\apache\shindig\gadgets\rewrite\StyleAdjacencyVisitorTest.java,0,0,0,0
org.apache.shindig.gadgets.rewrite.StyleConcatContentRewriter, 0, 0, 0, 0, 0, 0, 0, 0, 0, 0, 0, 0, 0, 0,0.0,0.0,0.0,0.0,0.0,0.0,0.0,0.0,0.0,0.0,0.0,0.0,0.0,27,java\gadgets\src\main\java\org\apache\shindig\gadgets\rewrite\StyleConcatContentRewriter.java,0,0,0,0
org.apache.shindig.gadgets.rewrite.StyleConcatContentRewriterTest, 0, 0, 0, 0, 0, 0, 0, 0, 0, 0, 0, 0, 0, 0,0.0,0.0,0.0,0.0,0.0,0.0,0.0,0.0,0.0,0.0,0.0,0.0,0.0,5,java\gadgets\src\test\java\org\apache\shindig\gadgets\rewrite\StyleConcatContentRewriterTest.java,0,0,0,0
org.apache.shindig.gadgets.rewrite.StyleTagExtractorContentRewriter, 0, 0, 0, 0, 0, 0, 0, 0, 0, 0, 0, 0, 0, 0,0.0,0.0,0.0,0.0,0.0,0.0,0.0,0.0,0.0,0.0,0.0,0.0,0.0,18,java\gadgets\src\main\java\org\apache\shindig\gadgets\rewrite\StyleTagExtractorContentRewriter.java,0,0,0,0
org.apache.shindig.gadgets.rewrite.StyleTagExtractorContentRewriterTest, 0, 0, 0, 0, 0, 0, 0, 0, 0, 0, 0, 0, 0, 0,0.0,0.0,0.0,0.0,0.0,0.0,0.0,0.0,0.0,0.0,0.0,0.0,0.0,5,java\gadgets\src\test\java\org\apache\shindig\gadgets\rewrite\StyleTagExtractorContentRewriterTest.java,0,0,0,0
org.apache.shindig.gadgets.rewrite.StyleTagExtractorVisitor, 0, 0, 0, 0, 0, 0, 0, 0, 0, 0, 0, 0, 0, 0,0.0,0.0,0.0,0.0,0.0,0.0,0.0,0.0,0.0,0.0,0.0,0.0,0.0,49,java\gadgets\src\main\java\org\apache\shindig\gadgets\rewrite\StyleTagExtractorVisitor.java,0,0,0,0
org.apache.shindig.gadgets.rewrite.StyleTagExtractorVisitorTest, 0, 0, 0, 0, 0, 0, 0, 0, 0, 0, 0, 0, 0, 0,0.0,0.0,0.0,0.0,0.0,0.0,0.0,0.0,0.0,0.0,0.0,0.0,0.0,171,java\gadgets\src\test\java\org\apache\shindig\gadgets\rewrite\StyleTagExtractorVisitorTest.java,0,0,0,0
org.apache.shindig.gadgets.rewrite.StyleTagProxyEmbeddedUrlsRewriter, 0, 0, 0, 0, 0, 0, 0, 0, 0, 0, 0, 0, 0, 0,0.0,0.0,0.0,0.0,0.0,0.0,0.0,0.0,0.0,0.0,0.0,0.0,0.0,19,java\gadgets\src\main\java\org\apache\shindig\gadgets\rewrite\StyleTagProxyEmbeddedUrlsRewriter.java,0,0,0,0
org.apache.shindig.gadgets.rewrite.StyleTagProxyEmbeddedUrlsVisitor, 0, 0, 0, 0, 0, 0, 0, 0, 0, 0, 0, 0, 0, 0,0.0,0.0,0.0,0.0,0.0,0.0,0.0,0.0,0.0,0.0,0.0,0.0,0.0,30,java\gadgets\src\main\java\org\apache\shindig\gadgets\rewrite\StyleTagProxyEmbeddedUrlsVisitor.java,0,0,0,0
org.apache.shindig.gadgets.rewrite.XPathWrapper, 0, 0, 0, 0, 0, 0, 0, 0, 0, 0, 0, 0, 0, 0,0.0,0.0,0.0,0.0,0.0,0.0,0.0,0.0,0.0,0.0,0.0,0.0,0.0,19,java\gadgets\src\test\java\org\apache\shindig\gadgets\rewrite\XPathWrapper.java,0,0,0,0
org.apache.shindig.gadgets.rewrite.image.BMPOptimizer, 0, 0, 0, 0, 0, 0, 0, 0, 0, 0, 0, 0, 0, 0,0.0,0.0,0.0,0.0,0.0,0.0,0.0,0.3333333333333333,0.0,0.0,0.0,0.0,0.0,19,java\gadgets\src\main\java\org\apache\shindig\gadgets\rewrite\image\BMPOptimizer.java,0,0,0,0
org.apache.shindig.gadgets.rewrite.image.BMPOptimizerTest, 0, 0, 0, 0, 0, 0, 0, 0, 0, 0, 0, 0, 0, 0,0.0,0.0,0.0,0.0,0.0,0.0,0.0,0.3333333333333333,0.0,0.0,0.0,0.0,0.0,41,java\gadgets\src\test\java\org\apache\shindig\gadgets\rewrite\image\BMPOptimizerTest.java,0,0,0,0
org.apache.shindig.gadgets.rewrite.image.BaseOptimizerTest, 0, 0, 0, 0, 0, 0, 0, 0, 0, 0, 0, 0, 0, 0,0.0,0.0,0.0,0.0,0.0,0.0,0.0,0.0,0.0,0.0,0.0,0.0,0.0,13,java\gadgets\src\test\java\org\apache\shindig\gadgets\rewrite\image\BaseOptimizerTest.java,0,0,0,0
org.apache.shindig.gadgets.rewrite.image.GIFOptimizer, 0, 0, 0, 0, 0, 0, 0, 0, 0, 0, 0, 0, 0, 0,0.0,0.0,0.0,0.0,0.0,0.0,0.0,0.3333333333333333,0.0,0.0,0.0,0.0,0.0,35,java\gadgets\src\main\java\org\apache\shindig\gadgets\rewrite\image\GIFOptimizer.java,0,0,0,0
org.apache.shindig.gadgets.rewrite.image.GIFOptimizerTest, 0, 0, 0, 0, 0, 0, 0, 0, 0, 0, 0, 0, 0, 0,0.0,0.0,0.0,0.0,0.0,0.0,0.0,0.3333333333333333,0.0,0.0,0.0,0.0,0.0,32,java\gadgets\src\test\java\org\apache\shindig\gadgets\rewrite\image\GIFOptimizerTest.java,0,0,0,0
org.apache.shindig.gadgets.rewrite.image.ImageRewriterTest, 0, 0, 0, 1, 0, 0, 0, 1, 0, 0, 0, 0, 0, 2,0.0,0.0,0.0,0.0,0.0,0.0,0.0,1.0,0.0,0.0,0.0,0.0,0.0,204,java\gadgets\src\test\java\org\apache\shindig\gadgets\rewrite\image\ImageRewriterTest.java,0,0,0,0
org.apache.shindig.gadgets.rewrite.image.JPEGOptimizer, 0, 0, 0, 0, 0, 0, 0, 0, 0, 0, 0, 0, 0, 0,0.0,0.0,0.0,0.0,0.0,0.0,0.0,0.3333333333333333,0.0,0.0,0.0,0.0,0.0,59,java\gadgets\src\main\java\org\apache\shindig\gadgets\rewrite\image\JPEGOptimizer.java,0,0,0,0
org.apache.shindig.gadgets.rewrite.image.JPEGOptimizerTest, 0, 0, 0, 0, 0, 0, 0, 0, 0, 0, 0, 0, 0, 0,0.0,0.0,0.0,0.0,0.0,0.0,0.0,0.3333333333333333,0.0,0.0,0.0,0.0,0.0,122,java\gadgets\src\test\java\org\apache\shindig\gadgets\rewrite\image\JPEGOptimizerTest.java,0,0,0,0
org.apache.shindig.gadgets.rewrite.image.JpegImageUtilsTest, 0, 0, 0, 0, 0, 0, 0, 0, 0, 0, 0, 0, 0, 0,0.0,0.0,0.0,0.0,0.0,0.0,0.0,0.0,0.0,0.0,0.0,0.0,0.0,36,java\gadgets\src\test\java\org\apache\shindig\gadgets\rewrite\image\JpegImageUtilsTest.java,0,0,0,0
org.apache.shindig.gadgets.rewrite.image.OptimizerConfig, 0, 0, 0, 0, 0, 0, 0, 1, 0, 0, 0, 0, 0, 1,0.0,0.0,0.0,0.1,0.0,0.0,0.0,0.1,0.0,0.0,0.0,0.0,0.0,50,java\gadgets\src\main\java\org\apache\shindig\gadgets\rewrite\image\OptimizerConfig.java,0,0,0,0
org.apache.shindig.gadgets.rewrite.image.OptimizerConfigTest, 0, 0, 0, 0, 0, 0, 0, 0, 0, 0, 0, 0, 0, 0,0.0,0.0,0.0,0.0,0.0,0.0,0.0,1.0,0.0,0.0,0.0,0.0,0.0,17,java\gadgets\src\test\java\org\apache\shindig\gadgets\rewrite\image\OptimizerConfigTest.java,0,0,0,0
org.apache.shindig.gadgets.rewrite.image.PNGOptimizer, 0, 0, 0, 0, 0, 0, 0, 0, 0, 0, 0, 0, 0, 0,0.0,0.0,0.0,0.0,0.0,0.0,0.0,0.2,0.0,0.0,0.0,0.0,0.0,67,java\gadgets\src\main\java\org\apache\shindig\gadgets\rewrite\image\PNGOptimizer.java,0,0,0,0
org.apache.shindig.gadgets.rewrite.image.PNGOptimizerTest, 0, 0, 0, 0, 0, 0, 0, 0, 0, 0, 0, 0, 0, 0,0.0,0.0,0.0,0.0,0.0,0.0,0.0,0.3333333333333333,0.0,0.0,0.0,0.0,0.0,32,java\gadgets\src\test\java\org\apache\shindig\gadgets\rewrite\image\PNGOptimizerTest.java,0,0,0,0
org.apache.shindig.gadgets.rewrite.js.CompileResult, 0, 0, 0, 0, 0, 0, 0, 0, 0, 0, 0, 0, 0, 0,0.0,0.0,0.0,0.0,0.0,0.0,0.0,0.0,0.0,0.0,0.0,0.0,0.0,19,java\gadgets\src\main\java\org\apache\shindig\gadgets\rewrite\js\CompileResult.java,0,0,0,0
org.apache.shindig.gadgets.rewrite.js.DefaultJsCompiler, 0, 0, 0, 0, 0, 0, 0, 0, 0, 0, 0, 0, 0, 0,0.0,0.0,0.0,0.0,0.0,0.0,0.0,0.0,0.0,0.0,0.0,0.0,0.0,23,java\gadgets\src\main\java\org\apache\shindig\gadgets\rewrite\js\DefaultJsCompiler.java,0,0,0,0
org.apache.shindig.gadgets.rewrite.js.JsCompiler, 0, 0, 0, 0, 0, 0, 0, 0, 0, 0, 0, 0, 0, 0,0.0,0.0,0.0,0.0,0.0,0.0,0.0,0.0,0.0,0.0,0.0,0.0,0.0,23,java\gadgets\src\main\java\org\apache\shindig\gadgets\rewrite\js\JsCompiler.java,0,0,0,0
org.apache.shindig.gadgets.servlet.AccelHandler, 0, 0, 0, 0, 0, 0, 0, 0, 0, 0, 0, 0, 0, 0,0.0,0.0,0.0,0.0,0.0,0.0,0.0,0.0,0.0,0.0,0.0,0.0,0.0,94,java\gadgets\src\main\java\org\apache\shindig\gadgets\servlet\AccelHandler.java,0,0,0,0
org.apache.shindig.gadgets.servlet.AuthenticationModule, 0, 0, 0, 0, 0, 0, 0, 0, 0, 0, 0, 0, 0, 0,0.0,0.0,0.0,0.0,0.0,0.0,0.0,0.0,0.0,0.0,0.0,0.0,0.0,11,java\gadgets\src\main\java\org\apache\shindig\gadgets\servlet\AuthenticationModule.java,0,0,0,0
org.apache.shindig.gadgets.servlet.CajaContentRewriterTest, 0, 0, 0, 0, 0, 0, 0, 0, 0, 0, 0, 0, 0, 0,0.0,0.0,0.0,0.0,0.0,0.0,0.0,0.0,0.0,0.0,0.0,0.0,0.0,134,java\gadgets\src\test\java\org\apache\shindig\gadgets\servlet\CajaContentRewriterTest.java,0,0,0,0
org.apache.shindig.gadgets.servlet.ETagFilter, 0, 0, 0, 0, 0, 0, 0, 0, 0, 0, 0, 0, 0, 0,0.0,0.0,0.0,0.0,0.0,0.0,0.0,0.0,0.0,0.0,0.0,0.0,0.0,23,java\gadgets\src\main\java\org\apache\shindig\gadgets\servlet\ETagFilter.java,0,0,0,0
org.apache.shindig.gadgets.servlet.ETagFilterTest, 0, 0, 0, 0, 0, 0, 0, 0, 0, 0, 0, 0, 0, 0,0.0,0.0,0.0,0.0,0.0,0.0,0.0,0.0,0.0,0.0,0.0,0.0,0.0,77,java\gadgets\src\test\java\org\apache\shindig\gadgets\servlet\ETagFilterTest.java,0,0,0,0
org.apache.shindig.gadgets.servlet.ETaggingHttpResponse, 0, 0, 0, 0, 0, 0, 0, 0, 0, 0, 0, 0, 0, 0,0.0,0.0,0.0,0.5,0.0,0.0,0.0,0.0,0.0,0.0,0.0,0.0,0.0,130,java\gadgets\src\main\java\org\apache\shindig\gadgets\servlet\ETaggingHttpResponse.java,0,0,0,0
org.apache.shindig.gadgets.servlet.ETaggingHttpResponseTest, 0, 0, 0, 1, 0, 0, 0, 0, 0, 0, 0, 0, 0, 1,0.0,0.0,0.0,0.0,0.0,0.0,0.0,0.0,0.0,0.0,0.0,0.0,0.0,201,java\gadgets\src\test\java\org\apache\shindig\gadgets\servlet\ETaggingHttpResponseTest.java,0,0,0,0
org.apache.shindig.gadgets.servlet.GadgetRenderingServlet, 0, 0, 0, 0, 0, 0, 0, 0, 0, 0, 0, 0, 0, 0,0.0,0.0,0.0,0.0,0.0,0.0,0.0,0.0,0.0,0.0,0.0,0.0,0.0,126,java\gadgets\src\main\java\org\apache\shindig\gadgets\servlet\GadgetRenderingServlet.java,0,0,0,0
org.apache.shindig.gadgets.servlet.GadgetRenderingServletTest, 0, 0, 0, 0, 0, 0, 0, 0, 0, 0, 0, 0, 0, 0,0.0,0.0,0.0,0.0,0.0,0.0,0.0,0.0,0.0,0.0,0.0,0.0,0.0,119,java\gadgets\src\test\java\org\apache\shindig\gadgets\servlet\GadgetRenderingServletTest.java,0,0,0,0
org.apache.shindig.gadgets.servlet.HttpGadgetContextTest, 0, 0, 0, 0, 0, 0, 0, 0, 0, 0, 0, 0, 0, 0,0.0,0.0,0.25,0.0,0.0,0.0,0.0,0.0,0.0,0.0,0.0,0.0,0.0,60,java\gadgets\src\test\java\org\apache\shindig\gadgets\servlet\HttpGadgetContextTest.java,0,0,0,0
org.apache.shindig.gadgets.servlet.JsServlet, 0, 0, 0, 0, 0, 0, 0, 0, 0, 0, 0, 0, 0, 0,0.0,0.0,0.0,0.0,0.0,0.0,0.0,0.16666666666666666,0.0,0.0,0.0,0.0,0.0,70,java\gadgets\src\main\java\org\apache\shindig\gadgets\servlet\JsServlet.java,0,0,0,0
org.apache.shindig.gadgets.servlet.JsServletTest, 0, 0, 0, 0, 0, 0, 0, 1, 0, 0, 0, 0, 0, 1,0.0,0.0,0.1111111111111111,0.0,0.0,0.0,0.0,0.0,0.0,0.0,0.0,0.0,0.0,181,java\gadgets\src\test\java\org\apache\shindig\gadgets\servlet\JsServletTest.java,0,0,0,0
org.apache.shindig.gadgets.servlet.MakeRequestServlet, 0, 0, 0, 0, 0, 0, 0, 0, 0, 0, 0, 0, 0, 0,0.0,0.0,0.0,0.0,0.0,0.0,0.0,0.0,0.0,0.0,0.0,0.0,0.0,32,java\gadgets\src\main\java\org\apache\shindig\gadgets\servlet\MakeRequestServlet.java,0,0,0,0
org.apache.shindig.gadgets.servlet.MakeRequestServletTest, 0, 0, 0, 0, 0, 0, 0, 0, 0, 0, 0, 0, 0, 0,0.0,0.0,0.16666666666666666,0.0,0.0,0.0,0.0,0.0,0.0,0.0,0.0,0.0,0.0,112,java\gadgets\src\test\java\org\apache\shindig\gadgets\servlet\MakeRequestServletTest.java,0,0,0,0
org.apache.shindig.gadgets.servlet.ModuleCache, 0, 0, 0, 0, 0, 0, 0, 0, 0, 0, 0, 0, 0, 0,0.0,0.0,0.0,0.0,0.0,0.0,0.0,0.0,0.0,0.0,0.0,0.0,0.0,30,java\gadgets\src\main\java\org\apache\shindig\gadgets\servlet\ModuleCache.java,0,0,0,0
org.apache.shindig.gadgets.servlet.ModuleCacheKeys, 0, 0, 0, 0, 0, 0, 0, 0, 0, 0, 0, 0, 0, 0,0.0,0.0,0.0,0.0,0.0,0.0,0.0,0.0,0.0,0.0,0.0,0.0,0.0,30,java\gadgets\src\main\java\org\apache\shindig\gadgets\servlet\ModuleCacheKeys.java,0,0,0,0
org.apache.shindig.gadgets.servlet.ModuleCacheTest, 0, 0, 0, 0, 0, 0, 0, 0, 0, 0, 0, 0, 0, 0,0.0,0.0,0.0,0.0,0.0,0.0,0.0,0.0,0.0,0.0,0.0,0.0,0.0,65,java\gadgets\src\test\java\org\apache\shindig\gadgets\servlet\ModuleCacheTest.java,0,0,0,0
org.apache.shindig.gadgets.servlet.ModuleIdManager, 0, 0, 0, 0, 0, 0, 0, 0, 0, 0, 0, 0, 0, 0,0.0,0.0,0.0,0.0,0.0,0.0,0.0,0.0,0.0,0.0,0.0,0.0,0.0,65,java\gadgets\src\main\java\org\apache\shindig\gadgets\servlet\ModuleIdManager.java,0,0,0,0
org.apache.shindig.gadgets.servlet.ModuleIdManagerImpl, 0, 0, 0, 0, 0, 0, 0, 0, 0, 0, 0, 0, 0, 0,0.0,0.0,0.0,0.0,0.0,0.0,0.0,0.0,0.0,0.0,0.0,0.0,0.0,8,java\gadgets\src\main\java\org\apache\shindig\gadgets\servlet\ModuleIdManagerImpl.java,0,0,0,0
org.apache.shindig.gadgets.servlet.OAuthCallbackServletTest, 0, 0, 0, 0, 0, 0, 0, 0, 0, 0, 0, 0, 0, 0,0.0,0.0,0.5,0.0,0.0,0.0,0.0,0.0,0.0,0.0,0.0,0.0,0.0,46,java\gadgets\src\test\java\org\apache\shindig\gadgets\servlet\OAuthCallbackServletTest.java,0,0,0,0
org.apache.shindig.gadgets.servlet.ProxyHandler, 0, 0, 0, 0, 0, 0, 0, 0, 0, 0, 0, 0, 0, 0,0.0,0.0,0.0,0.0,0.0,0.0,0.0,0.0,0.0,0.0,0.0,0.0,0.0,112,java\gadgets\src\main\java\org\apache\shindig\gadgets\servlet\ProxyHandler.java,0,0,0,0
org.apache.shindig.gadgets.servlet.RpcException, 0, 0, 0, 0, 0, 0, 0, 0, 0, 0, 0, 0, 0, 0,0.0,0.0,0.0,0.0,0.0,0.0,0.0,0.0,0.0,0.0,0.0,0.0,0.0,26,java\gadgets\src\main\java\org\apache\shindig\gadgets\servlet\RpcException.java,0,0,0,0
org.apache.shindig.gadgets.servlet.RpcServlet, 0, 0, 0, 0, 0, 0, 0, 0, 0, 0, 0, 0, 0, 0,0.0,0.0,0.0,0.0,0.0,0.0,0.0,0.0,0.0,0.0,0.0,0.0,0.0,112,java\gadgets\src\main\java\org\apache\shindig\gadgets\servlet\RpcServlet.java,0,0,0,0
org.apache.shindig.gadgets.servlet.RpcServletTest, 0, 0, 0, 0, 0, 0, 0, 0, 0, 0, 0, 0, 0, 0,0.0,0.0,0.0,0.0,0.0,0.0,0.0,0.0,0.0,0.0,0.0,0.0,0.0,114,java\gadgets\src\test\java\org\apache\shindig\gadgets\servlet\RpcServletTest.java,0,0,0,0
org.apache.shindig.gadgets.servlet.RpcSwfServlet, 0, 0, 0, 0, 0, 0, 0, 0, 0, 0, 0, 0, 0, 0,0.0,0.0,0.0,0.0,0.0,0.0,0.0,0.0,0.0,0.0,0.0,0.0,0.0,42,java\gadgets\src\main\java\org\apache\shindig\gadgets\servlet\RpcSwfServlet.java,0,0,0,0
org.apache.shindig.gadgets.servlet.ServletTestFixture, 0, 0, 1, 0, 0, 0, 0, 0, 0, 0, 0, 0, 0, 1,0.0,0.0,0.0,0.0,0.0,0.0,0.0,0.14285714285714285,0.0,0.0,0.0,0.0,0.0,16,java\gadgets\src\test\java\org\apache\shindig\gadgets\servlet\ServletTestFixture.java,0,0,0,0
org.apache.shindig.gadgets.servlet.ServletUtilTest, 0, 0, 0, 0, 0, 0, 0, 0, 0, 0, 0, 0, 0, 0,0.0,0.0,0.3333333333333333,0.0,0.0,0.0,0.0,0.0,0.0,0.0,0.0,0.0,0.0,224,java\gadgets\src\test\java\org\apache\shindig\gadgets\servlet\ServletUtilTest.java,0,0,0,0
org.apache.shindig.gadgets.spec.ApplicationManifestTest, 0, 0, 0, 0, 0, 0, 0, 0, 0, 0, 0, 0, 0, 0,0.0,0.0,0.0,0.0,0.0,0.0,0.0,0.0,0.0,0.0,0.0,0.0,0.0,119,java\gadgets\src\test\java\org\apache\shindig\gadgets\spec\ApplicationManifestTest.java,0,0,0,0
org.apache.shindig.gadgets.spec.FeatureTest, 0, 0, 0, 0, 0, 0, 0, 0, 0, 0, 0, 0, 0, 0,0.0,0.0,0.0,0.0,0.0,0.0,0.0,0.0,0.0,0.0,0.0,0.0,0.0,82,java\gadgets\src\test\java\org\apache\shindig\gadgets\spec\FeatureTest.java,0,0,0,0
org.apache.shindig.gadgets.spec.GadgetSpecTest, 0, 0, 0, 0, 0, 0, 0, 0, 0, 0, 0, 0, 0, 0,0.0,0.0,0.0,0.0,0.0,0.0,0.0,0.0,0.0,0.0,0.0,0.0,0.0,109,java\gadgets\src\test\java\org\apache\shindig\gadgets\spec\GadgetSpecTest.java,0,0,0,0
org.apache.shindig.gadgets.spec.IconTest, 0, 0, 0, 0, 0, 0, 0, 0, 0, 0, 0, 0, 0, 0,0.0,0.0,0.0,0.0,0.0,0.0,0.0,0.0,0.0,0.0,0.0,0.0,0.0,24,java\gadgets\src\test\java\org\apache\shindig\gadgets\spec\IconTest.java,0,0,0,0
org.apache.shindig.gadgets.spec.LinkSpec, 0, 0, 0, 0, 0, 0, 0, 0, 0, 0, 0, 0, 0, 0,0.0,0.0,0.0,0.0,0.0,0.0,0.0,0.0,0.0,0.0,0.0,0.0,0.0,45,java\gadgets\src\main\java\org\apache\shindig\gadgets\spec\LinkSpec.java,0,0,0,0
org.apache.shindig.gadgets.spec.LinkSpecTest, 0, 0, 0, 0, 0, 0, 0, 0, 0, 0, 0, 0, 0, 0,0.0,0.0,0.0,0.0,0.0,0.0,0.0,0.0,0.0,0.0,0.0,0.0,0.0,73,java\gadgets\src\test\java\org\apache\shindig\gadgets\spec\LinkSpecTest.java,0,0,0,0
org.apache.shindig.gadgets.spec.LocaleSpecTest, 0, 0, 0, 0, 0, 0, 0, 0, 0, 0, 0, 0, 0, 0,0.0,0.0,0.0,0.0,0.0,0.0,0.0,0.0,0.0,0.0,0.0,0.0,0.0,84,java\gadgets\src\test\java\org\apache\shindig\gadgets\spec\LocaleSpecTest.java,0,0,0,0
org.apache.shindig.gadgets.spec.OAuth2Service, 0, 0, 0, 0, 0, 0, 0, 0, 0, 0, 0, 0, 0, 0,0.0,0.0,0.0,0.0,0.0,0.0,0.0,0.0,0.0,0.0,0.0,0.0,0.0,42,java\gadgets\src\main\java\org\apache\shindig\gadgets\spec\OAuth2Service.java,0,0,0,0
org.apache.shindig.gadgets.spec.OAuthService, 0, 0, 0, 0, 0, 0, 0, 0, 0, 0, 0, 0, 0, 0,0.0,0.0,0.0,0.0,0.0,0.0,0.0,0.0,0.0,0.0,0.0,0.0,0.0,65,java\gadgets\src\main\java\org\apache\shindig\gadgets\spec\OAuthService.java,0,0,0,0
org.apache.shindig.gadgets.spec.OAuthServiceTest, 0, 0, 0, 0, 0, 0, 0, 0, 0, 0, 0, 0, 0, 0,0.0,0.0,0.0,0.0,0.0,0.0,0.0,0.0,0.0,0.0,0.0,0.0,0.0,118,java\gadgets\src\test\java\org\apache\shindig\gadgets\spec\OAuthServiceTest.java,0,0,0,0
org.apache.shindig.gadgets.spec.OAuthSpecTest, 0, 0, 0, 0, 0, 0, 0, 0, 0, 0, 0, 0, 0, 0,0.0,0.0,0.0,0.0,0.0,0.0,0.0,0.0,0.0,0.0,0.0,0.0,0.0,66,java\gadgets\src\test\java\org\apache\shindig\gadgets\spec\OAuthSpecTest.java,0,0,0,0
org.apache.shindig.gadgets.spec.PreloadTest, 0, 0, 0, 0, 0, 0, 0, 0, 0, 0, 0, 0, 0, 0,0.0,0.0,0.0,0.0,0.0,0.0,0.0,0.0,0.0,0.0,0.0,0.0,0.0,95,java\gadgets\src\test\java\org\apache\shindig\gadgets\spec\PreloadTest.java,0,0,0,0
org.apache.shindig.gadgets.spec.SpecParserException, 0, 0, 0, 0, 0, 0, 0, 0, 0, 0, 0, 0, 0, 0,0.0,0.0,0.0,0.1,0.0,0.0,0.0,0.0,0.0,0.0,0.0,0.0,0.0,11,java\gadgets\src\main\java\org\apache\shindig\gadgets\spec\SpecParserException.java,0,0,0,0
org.apache.shindig.gadgets.spec.UserPrefTest, 0, 0, 0, 0, 0, 0, 0, 0, 0, 0, 0, 0, 0, 0,0.0,0.0,0.0,0.0,0.0,0.0,0.0,0.0,0.0,0.0,0.0,0.0,0.0,78,java\gadgets\src\test\java\org\apache\shindig\gadgets\spec\UserPrefTest.java,0,0,0,0
org.apache.shindig.gadgets.spec.ViewTest, 0, 0, 0, 0, 0, 0, 0, 0, 0, 0, 0, 0, 0, 0,0.0,0.0,0.0,0.0,0.0,0.0,0.0,0.0,0.0,0.0,0.0,0.0,0.0,202,java\gadgets\src\test\java\org\apache\shindig\gadgets\spec\ViewTest.java,0,0,0,0
org.apache.shindig.gadgets.templates.ContainerTagLibraryFactory, 0, 0, 0, 0, 0, 0, 0, 0, 0, 0, 0, 0, 0, 0,0.0,0.0,0.0,0.25,0.0,0.0,0.0,0.0,0.0,0.0,0.0,0.0,0.0,41,java\gadgets\src\main\java\org\apache\shindig\gadgets\templates\ContainerTagLibraryFactory.java,0,0,0,0
org.apache.shindig.gadgets.templates.ElementELResolver, 0, 0, 0, 0, 0, 0, 0, 0, 0, 0, 0, 0, 0, 0,0.0,0.0,0.0,0.0,0.0,0.0,0.0,0.0,0.0,0.0,0.0,0.0,0.0,78,java\gadgets\src\main\java\org\apache\shindig\gadgets\templates\ElementELResolver.java,0,0,0,0
org.apache.shindig.gadgets.templates.MessageELResolver, 0, 0, 0, 0, 0, 0, 0, 0, 0, 0, 0, 0, 0, 0,0.0,0.0,0.0,0.0,0.0,0.0,0.0,0.0,0.0,0.0,0.0,0.0,0.0,81,java\gadgets\src\main\java\org\apache\shindig\gadgets\templates\MessageELResolver.java,0,0,0,0
org.apache.shindig.gadgets.templates.MessageELResolverTest, 0, 0, 0, 0, 0, 0, 0, 0, 0, 0, 0, 0, 0, 0,0.0,0.0,0.0,0.0,0.0,0.0,0.0,0.0,0.0,0.0,0.0,0.0,0.0,49,java\gadgets\src\test\java\org\apache\shindig\gadgets\templates\MessageELResolverTest.java,0,0,0,0
org.apache.shindig.gadgets.templates.NullTemplateLibrary, 0, 0, 0, 0, 0, 0, 0, 0, 0, 0, 0, 0, 0, 0,0.0,0.0,0.0,0.0,0.0,0.0,0.0,0.0,0.0,0.0,0.0,0.0,0.0,18,java\gadgets\src\main\java\org\apache\shindig\gadgets\templates\NullTemplateLibrary.java,0,0,0,0
org.apache.shindig.gadgets.templates.TagRegistry, 0, 0, 0, 0, 0, 0, 0, 0, 0, 0, 0, 0, 0, 0,0.0,0.0,0.0,0.0,0.0,0.0,0.0,0.0,0.0,0.0,0.0,0.0,0.0,18,java\gadgets\src\main\java\org\apache\shindig\gadgets\templates\TagRegistry.java,0,0,0,0
org.apache.shindig.gadgets.templates.TemplateLibrary, 0, 0, 0, 0, 0, 0, 0, 0, 0, 0, 0, 0, 0, 0,0.0,0.0,0.0,0.0,0.0,0.0,0.0,0.0,0.0,0.0,0.0,0.0,0.0,18,java\gadgets\src\main\java\org\apache\shindig\gadgets\templates\TemplateLibrary.java,0,0,0,0
org.apache.shindig.gadgets.templates.TemplateLibraryFactory, 0, 0, 0, 0, 0, 0, 0, 0, 0, 0, 0, 0, 0, 0,0.0,0.0,0.0,0.125,0.0,0.0,0.0,0.0,0.0,0.0,0.0,0.0,0.0,50,java\gadgets\src\main\java\org\apache\shindig\gadgets\templates\TemplateLibraryFactory.java,0,0,0,0
org.apache.shindig.gadgets.templates.TemplateLibraryFactoryTest, 0, 0, 0, 0, 0, 0, 0, 0, 0, 0, 0, 0, 0, 0,0.0,0.0,0.0,0.0,0.0,0.0,0.0,0.0,0.0,0.0,0.0,0.0,0.0,51,java\gadgets\src\test\java\org\apache\shindig\gadgets\templates\TemplateLibraryFactoryTest.java,0,0,0,0
org.apache.shindig.gadgets.templates.TemplateModule, 0, 0, 0, 0, 0, 0, 0, 0, 0, 0, 0, 0, 0, 0,0.0,0.0,0.0,0.0,0.0,0.0,0.0,0.0,0.0,0.0,0.0,0.0,0.0,17,java\gadgets\src\main\java\org\apache\shindig\gadgets\templates\TemplateModule.java,0,0,0,0
org.apache.shindig.gadgets.templates.TemplateParserException, 0, 0, 0, 0, 0, 0, 0, 0, 0, 0, 0, 0, 0, 0,0.0,0.0,0.0,0.3333333333333333,0.0,0.0,0.0,0.0,0.0,0.0,0.0,0.0,0.0,11,java\gadgets\src\main\java\org\apache\shindig\gadgets\templates\TemplateParserException.java,0,0,0,0
org.apache.shindig.gadgets.templates.TemplateProcessor, 0, 0, 0, 0, 0, 0, 0, 0, 0, 0, 0, 0, 0, 0,0.0,0.0,0.0,0.0,0.0,0.0,0.0,0.0,0.0,0.0,0.0,0.0,0.0,11,java\gadgets\src\main\java\org\apache\shindig\gadgets\templates\TemplateProcessor.java,0,0,0,0
org.apache.shindig.gadgets.templates.TemplateResource, 0, 0, 0, 0, 0, 0, 0, 0, 0, 0, 0, 0, 0, 0,0.0,0.0,0.0,1.0,0.0,0.0,0.0,0.0,0.0,0.0,0.0,0.0,0.0,30,java\gadgets\src\main\java\org\apache\shindig\gadgets\templates\TemplateResource.java,0,0,0,0
org.apache.shindig.gadgets.templates.XmlTemplateLibrary, 0, 0, 0, 1, 0, 0, 0, 0, 0, 0, 0, 0, 0, 1,0.0,0.0,0.0,0.0,0.0,0.0,0.0,0.0,0.0,0.0,0.0,0.0,0.0,197,java\gadgets\src\main\java\org\apache\shindig\gadgets\templates\XmlTemplateLibrary.java,0,0,0,0
org.apache.shindig.gadgets.templates.tags.AbstractTagHandler, 0, 0, 0, 0, 0, 0, 0, 0, 0, 0, 0, 0, 0, 0,0.0,0.0,0.0,0.0,0.0,0.0,0.0,0.0,0.0,0.0,0.0,0.0,0.0,40,java\gadgets\src\main\java\org\apache\shindig\gadgets\templates\tags\AbstractTagHandler.java,0,0,0,0
org.apache.shindig.gadgets.templates.tags.AbstractTagHandlerTest, 0, 0, 0, 0, 0, 0, 0, 0, 0, 0, 0, 0, 0, 0,0.0,0.0,0.0,0.0,0.0,0.0,0.0,0.0,0.0,0.0,0.0,0.0,0.0,34,java\gadgets\src\test\java\org\apache\shindig\gadgets\templates\tags\AbstractTagHandlerTest.java,0,0,0,0
org.apache.shindig.gadgets.templates.tags.AbstractTagRegistry, 0, 0, 0, 0, 0, 0, 0, 0, 0, 0, 0, 0, 0, 0,0.0,0.0,0.0,0.0,0.0,0.0,0.0,0.0,0.0,0.0,0.0,0.0,0.0,8,java\gadgets\src\main\java\org\apache\shindig\gadgets\templates\tags\AbstractTagRegistry.java,0,0,0,0
org.apache.shindig.gadgets.templates.tags.CompositeTagRegistry, 0, 0, 0, 0, 0, 0, 0, 0, 0, 0, 0, 0, 0, 0,0.0,0.0,0.0,0.0,0.0,0.0,0.0,0.0,0.0,0.0,0.0,0.0,0.0,16,java\gadgets\src\main\java\org\apache\shindig\gadgets\templates\tags\CompositeTagRegistry.java,0,0,0,0
org.apache.shindig.gadgets.templates.tags.CompositeTagRegistryTest, 0, 0, 0, 0, 0, 0, 0, 0, 0, 0, 0, 0, 0, 0,0.0,0.0,0.0,0.0,0.0,0.0,0.0,0.0,0.0,0.0,0.0,0.0,0.0,37,java\gadgets\src\test\java\org\apache\shindig\gadgets\templates\tags\CompositeTagRegistryTest.java,0,0,0,0
org.apache.shindig.gadgets.templates.tags.DefaultTagRegistryTest, 0, 0, 0, 0, 0, 0, 0, 0, 0, 0, 0, 0, 0, 0,0.0,0.0,0.0,0.0,0.0,0.0,0.0,0.0,0.0,0.0,0.0,0.0,0.0,34,java\gadgets\src\test\java\org\apache\shindig\gadgets\templates\tags\DefaultTagRegistryTest.java,0,0,0,0
org.apache.shindig.gadgets.templates.tags.HtmlTagHandler, 0, 0, 0, 0, 0, 0, 0, 0, 0, 0, 0, 0, 0, 0,0.0,0.0,0.0,0.0,0.0,0.0,0.0,0.0,0.0,0.0,0.0,0.0,0.0,28,java\gadgets\src\main\java\org\apache\shindig\gadgets\templates\tags\HtmlTagHandler.java,0,0,0,0
org.apache.shindig.gadgets.templates.tags.HtmlTagHandlerTest, 0, 0, 0, 0, 0, 0, 0, 0, 0, 0, 0, 0, 0, 0,0.0,0.0,0.0,0.0,0.0,0.0,0.0,0.0,0.0,0.0,0.0,0.0,0.0,23,java\gadgets\src\test\java\org\apache\shindig\gadgets\templates\tags\HtmlTagHandlerTest.java,0,0,0,0
org.apache.shindig.gadgets.templates.tags.IfTagHandler, 0, 0, 0, 0, 0, 0, 0, 0, 0, 0, 0, 0, 0, 0,0.0,0.0,0.0,0.0,0.0,0.0,0.0,0.0,0.0,0.0,0.0,0.0,0.0,15,java\gadgets\src\main\java\org\apache\shindig\gadgets\templates\tags\IfTagHandler.java,0,0,0,0
org.apache.shindig.gadgets.templates.tags.IfTagHandlerTest, 0, 0, 0, 0, 0, 0, 0, 0, 0, 0, 0, 0, 0, 0,0.0,0.0,0.0,0.0,0.0,0.0,0.0,0.0,0.0,0.0,0.0,0.0,0.0,40,java\gadgets\src\test\java\org\apache\shindig\gadgets\templates\tags\IfTagHandlerTest.java,0,0,0,0
org.apache.shindig.gadgets.templates.tags.RepeatTagHandler, 0, 0, 0, 0, 0, 0, 0, 0, 0, 0, 0, 0, 0, 0,0.0,0.0,0.0,0.0,0.0,0.0,0.0,0.0,0.0,0.0,0.0,0.0,0.0,25,java\gadgets\src\main\java\org\apache\shindig\gadgets\templates\tags\RepeatTagHandler.java,0,0,0,0
org.apache.shindig.gadgets.templates.tags.RepeatTagHandlerTest, 0, 0, 0, 0, 0, 0, 0, 0, 0, 0, 0, 0, 0, 0,0.0,0.0,0.0,0.0,0.0,0.0,0.0,0.0,0.0,0.0,0.0,0.0,0.0,47,java\gadgets\src\test\java\org\apache\shindig\gadgets\templates\tags\RepeatTagHandlerTest.java,0,0,0,0
org.apache.shindig.gadgets.templates.tags.TagHandler, 0, 0, 0, 0, 0, 0, 0, 0, 0, 0, 0, 0, 0, 0,0.0,0.0,0.0,0.0,0.0,0.0,0.0,0.0,0.0,0.0,0.0,0.0,0.0,47,java\gadgets\src\main\java\org\apache\shindig\gadgets\templates\tags\TagHandler.java,0,0,0,0
org.apache.shindig.gadgets.templates.tags.TemplateBasedTagHandlerTest, 0, 0, 0, 0, 0, 0, 0, 0, 0, 0, 0, 0, 0, 0,0.0,0.0,0.0,0.0,0.0,0.0,0.0,0.0,0.0,0.0,0.0,0.0,0.0,103,java\gadgets\src\test\java\org\apache\shindig\gadgets\templates\tags\TemplateBasedTagHandlerTest.java,0,0,0,0
org.apache.shindig.gadgets.templates.tags.VarTagHandler, 0, 0, 0, 0, 0, 0, 0, 0, 0, 0, 0, 0, 0, 0,0.0,0.0,0.0,0.0,0.0,0.0,0.0,0.0,0.0,0.0,0.0,0.0,0.0,20,java\gadgets\src\main\java\org\apache\shindig\gadgets\templates\tags\VarTagHandler.java,0,0,0,0
org.apache.shindig.gadgets.templates.tags.VariableTagHandler, 0, 0, 0, 0, 0, 0, 0, 0, 0, 0, 0, 0, 0, 0,0.0,0.0,0.0,0.0,0.0,0.0,0.0,0.0,0.0,0.0,0.0,0.0,0.0,18,java\gadgets\src\main\java\org\apache\shindig\gadgets\templates\tags\VariableTagHandler.java,0,0,0,0
org.apache.shindig.gadgets.uri.AccelUriManager, 0, 0, 0, 0, 0, 0, 0, 0, 0, 0, 0, 0, 0, 0,0.0,0.0,0.0,0.0,0.0,0.0,0.0,0.0,0.0,0.0,0.0,0.0,0.0,18,java\gadgets\src\main\java\org\apache\shindig\gadgets\uri\AccelUriManager.java,0,0,0,0
org.apache.shindig.gadgets.uri.AllJsIframeVersioner, 0, 0, 0, 0, 0, 0, 0, 0, 0, 0, 0, 0, 0, 0,0.0,0.0,0.0,0.0,0.0,0.0,0.0,0.0,0.0,0.0,0.0,0.0,0.0,33,java\gadgets\src\main\java\org\apache\shindig\gadgets\uri\AllJsIframeVersioner.java,0,0,0,0
org.apache.shindig.gadgets.uri.AllJsIframeVersionerTest, 0, 0, 0, 0, 0, 0, 0, 0, 0, 0, 0, 0, 0, 0,0.0,0.0,0.0,0.0,0.0,0.0,0.0,0.0,0.0,0.0,0.0,0.0,0.0,57,java\gadgets\src\test\java\org\apache\shindig\gadgets\uri\AllJsIframeVersionerTest.java,0,0,0,0
org.apache.shindig.gadgets.uri.DefaultAccelUriManager, 0, 0, 0, 0, 0, 0, 0, 0, 0, 0, 0, 0, 0, 0,0.0,0.0,0.0,0.0,0.0,0.0,0.0,0.0,0.0,0.0,0.0,0.0,0.0,35,java\gadgets\src\main\java\org\apache\shindig\gadgets\uri\DefaultAccelUriManager.java,0,0,0,0
org.apache.shindig.gadgets.uri.DefaultJsVersionerTest, 0, 0, 0, 0, 0, 0, 0, 0, 0, 0, 0, 0, 0, 0,0.0,0.0,0.0,0.0,0.0,0.0,0.0,0.0,0.0,0.0,0.0,0.0,0.0,103,java\gadgets\src\test\java\org\apache\shindig\gadgets\uri\DefaultJsVersionerTest.java,0,0,0,0
org.apache.shindig.gadgets.uri.DefaultOAuthUriManagerTest, 0, 0, 0, 0, 0, 0, 0, 0, 0, 0, 0, 0, 0, 0,0.0,0.0,0.0,0.0,0.0,0.0,0.0,0.0,0.0,0.0,0.0,0.0,0.0,38,java\gadgets\src\test\java\org\apache\shindig\gadgets\uri\DefaultOAuthUriManagerTest.java,0,0,0,0
org.apache.shindig.gadgets.uri.DefaultProxyUriManagerTest, 0, 0, 0, 1, 0, 0, 0, 1, 0, 0, 0, 0, 0, 2,0.0,0.0,0.0,0.0,0.0,0.0,0.0,0.0,0.0,0.0,0.0,0.0,0.0,452,java\gadgets\src\test\java\org\apache\shindig\gadgets\uri\DefaultProxyUriManagerTest.java,0,0,0,0
org.apache.shindig.gadgets.uri.HashShaLockedDomainPrefixGenerator, 0, 0, 0, 0, 0, 0, 0, 0, 0, 0, 0, 0, 0, 0,0.0,0.0,0.0,0.0,0.0,0.0,0.0,0.0,0.0,0.0,0.0,0.0,0.0,9,java\gadgets\src\main\java\org\apache\shindig\gadgets\uri\HashShaLockedDomainPrefixGenerator.java,0,0,0,0
org.apache.shindig.gadgets.uri.HashShaLockedDomainPrefixGeneratorTest, 0, 0, 0, 0, 0, 0, 0, 0, 0, 0, 0, 0, 0, 0,0.0,0.0,0.0,0.0,0.0,0.0,0.0,0.0,0.0,0.0,0.0,0.0,0.0,12,java\gadgets\src\test\java\org\apache\shindig\gadgets\uri\HashShaLockedDomainPrefixGeneratorTest.java,0,0,0,0
org.apache.shindig.gadgets.uri.JsUriManager, 0, 0, 0, 0, 0, 0, 0, 0, 0, 0, 0, 0, 0, 0,0.0,0.0,0.0,0.0,0.0,0.0,0.0,0.0,0.0,0.0,0.0,0.0,0.0,12,java\gadgets\src\main\java\org\apache\shindig\gadgets\uri\JsUriManager.java,0,0,0,0
org.apache.shindig.gadgets.uri.JsUriManagerTest, 0, 0, 0, 0, 0, 0, 0, 0, 0, 0, 0, 0, 0, 0,0.0,0.0,0.0,0.0,0.0,0.0,0.0,0.0,0.0,0.0,0.0,0.0,0.0,77,java\gadgets\src\test\java\org\apache\shindig\gadgets\uri\JsUriManagerTest.java,0,0,0,0
org.apache.shindig.gadgets.uri.LockedDomainPrefixGenerator, 0, 0, 0, 0, 0, 0, 0, 0, 0, 0, 0, 0, 0, 0,0.0,0.0,0.0,0.0,0.0,0.0,0.0,0.0,0.0,0.0,0.0,0.0,0.0,77,java\gadgets\src\main\java\org\apache\shindig\gadgets\uri\LockedDomainPrefixGenerator.java,0,0,0,0
org.apache.shindig.gadgets.uri.OAuthUriManager, 0, 0, 0, 0, 0, 0, 0, 0, 0, 0, 0, 0, 0, 0,0.0,0.0,0.0,0.0,0.0,0.0,0.0,0.0,0.0,0.0,0.0,0.0,0.0,77,java\gadgets\src\main\java\org\apache\shindig\gadgets\uri\OAuthUriManager.java,0,0,0,0
org.apache.shindig.gadgets.uri.PassthruManager, 0, 0, 0, 0, 0, 0, 0, 0, 0, 0, 0, 0, 0, 0,0.0,0.0,0.0,0.0,0.0,0.0,0.0,0.0,0.0,0.0,0.0,0.0,0.0,45,java\gadgets\src\test\java\org\apache\shindig\gadgets\uri\PassthruManager.java,0,0,0,0
org.apache.shindig.gadgets.uri.ProxyUriBaseTest, 0, 0, 0, 0, 0, 0, 0, 0, 0, 0, 0, 0, 0, 0,0.0,0.0,0.0,0.0,0.0,0.0,0.0,0.0,0.0,0.0,0.0,0.0,0.0,38,java\gadgets\src\test\java\org\apache\shindig\gadgets\uri\ProxyUriBaseTest.java,0,0,0,0
org.apache.shindig.gadgets.uri.ProxyUriManager, 0, 0, 0, 0, 0, 0, 0, 0, 0, 0, 0, 0, 0, 0,0.0,0.0,0.0,0.0,0.0,0.0,0.0,0.0,0.0,0.0,0.0,0.0,0.0,38,java\gadgets\src\main\java\org\apache\shindig\gadgets\uri\ProxyUriManager.java,0,0,0,0
org.apache.shindig.gadgets.uri.ProxyUriManagerTest, 0, 0, 0, 0, 0, 0, 0, 0, 0, 0, 0, 0, 0, 0,0.0,0.0,0.0,0.0,0.0,0.0,0.0,0.0,0.0,0.0,0.0,0.0,0.0,42,java\gadgets\src\test\java\org\apache\shindig\gadgets\uri\ProxyUriManagerTest.java,0,0,0,0
org.apache.shindig.gadgets.uri.UriCommon, 0, 0, 0, 0, 0, 0, 0, 0, 0, 0, 0, 0, 0, 0,0.0,0.0,0.0,0.0,0.0,0.0,0.0,0.0,0.0,0.0,0.0,0.0,0.0,42,java\gadgets\src\main\java\org\apache\shindig\gadgets\uri\UriCommon.java,0,0,0,0
org.apache.shindig.gadgets.uri.UriModule, 0, 0, 0, 0, 0, 0, 0, 0, 0, 0, 0, 0, 0, 0,0.0,0.0,0.0,0.0,0.0,0.0,0.0,0.0,0.0,0.0,0.0,0.0,0.0,16,java\gadgets\src\main\java\org\apache\shindig\gadgets\uri\UriModule.java,0,0,0,0
org.apache.shindig.gadgets.variables.BidiSubstituter, 0, 0, 0, 0, 0, 0, 0, 0, 0, 0, 0, 0, 0, 0,0.0,0.0,0.0,0.0,0.0,0.0,0.0,0.0,0.0,0.0,0.0,0.0,0.0,27,java\gadgets\src\main\java\org\apache\shindig\gadgets\variables\BidiSubstituter.java,0,0,0,0
org.apache.shindig.gadgets.variables.BidiSubstituterTest, 0, 0, 0, 0, 0, 0, 0, 0, 0, 0, 0, 0, 0, 0,0.0,0.0,0.0,0.0,0.0,0.0,0.0,0.0,0.0,0.0,0.0,0.0,0.0,44,java\gadgets\src\test\java\org\apache\shindig\gadgets\variables\BidiSubstituterTest.java,0,0,0,0
org.apache.shindig.gadgets.variables.MessageSubstituter, 0, 0, 0, 0, 0, 0, 0, 0, 0, 0, 0, 0, 0, 0,0.0,0.0,0.0,0.0,0.0,0.0,0.0,0.0,0.0,0.0,0.0,0.0,0.0,13,java\gadgets\src\main\java\org\apache\shindig\gadgets\variables\MessageSubstituter.java,0,0,0,0
org.apache.shindig.gadgets.variables.MessageSubstituterTest, 0, 0, 0, 0, 0, 0, 0, 0, 0, 0, 0, 0, 0, 0,0.0,0.0,0.0,0.0,0.0,0.0,0.0,0.0,0.0,0.0,0.0,0.0,0.0,22,java\gadgets\src\test\java\org\apache\shindig\gadgets\variables\MessageSubstituterTest.java,0,0,0,0
org.apache.shindig.gadgets.variables.ModuleSubstituter, 0, 0, 0, 0, 0, 0, 0, 0, 0, 0, 0, 0, 0, 0,0.0,0.0,0.0,0.0,0.0,0.0,0.0,0.0,0.0,0.0,0.0,0.0,0.0,6,java\gadgets\src\main\java\org\apache\shindig\gadgets\variables\ModuleSubstituter.java,0,0,0,0
org.apache.shindig.gadgets.variables.ModuleSubstituterTest, 0, 0, 0, 0, 0, 0, 0, 0, 0, 0, 0, 0, 0, 0,0.0,0.0,0.0,0.0,0.0,0.0,0.0,0.0,0.0,0.0,0.0,0.0,0.0,28,java\gadgets\src\test\java\org\apache\shindig\gadgets\variables\ModuleSubstituterTest.java,0,0,0,0
org.apache.shindig.gadgets.variables.Substituter, 0, 0, 0, 0, 0, 0, 0, 0, 0, 0, 0, 0, 0, 0,0.0,0.0,0.0,0.0,0.0,0.0,0.0,0.0,0.0,0.0,0.0,0.0,0.0,28,java\gadgets\src\main\java\org\apache\shindig\gadgets\variables\Substituter.java,0,0,0,0
org.apache.shindig.gadgets.variables.SubstituterModule, 0, 0, 0, 0, 0, 0, 0, 0, 0, 0, 0, 0, 0, 0,0.0,0.0,0.0,0.0,0.0,0.0,0.0,0.0,0.0,0.0,0.0,0.0,0.0,25,java\gadgets\src\main\java\org\apache\shindig\gadgets\variables\SubstituterModule.java,0,0,0,0
org.apache.shindig.gadgets.variables.SubstitutionsTest, 0, 0, 0, 0, 0, 0, 0, 0, 0, 0, 0, 0, 0, 0,0.0,0.0,0.0,0.0,0.0,0.0,0.0,0.0,0.0,0.0,0.0,0.0,0.0,104,java\gadgets\src\test\java\org\apache\shindig\gadgets\variables\SubstitutionsTest.java,0,0,0,0
org.apache.shindig.gadgets.variables.UserPrefSubstituter, 0, 0, 0, 0, 0, 0, 0, 0, 0, 0, 0, 0, 0, 0,0.0,0.0,0.0,0.0,0.0,0.0,0.0,0.0,0.0,0.0,0.0,0.0,0.0,17,java\gadgets\src\main\java\org\apache\shindig\gadgets\variables\UserPrefSubstituter.java,0,0,0,0
org.apache.shindig.gadgets.variables.VariableSubstituter, 0, 0, 0, 0, 0, 0, 0, 0, 0, 0, 0, 0, 0, 0,0.0,0.0,0.0,0.0,0.0,0.0,0.0,0.0,0.0,0.0,0.0,0.0,0.0,14,java\gadgets\src\main\java\org\apache\shindig\gadgets\variables\VariableSubstituter.java,0,0,0,0
org.apache.shindig.gadgets.variables.VariableSubstituterTest, 0, 0, 0, 0, 0, 0, 0, 0, 0, 0, 0, 0, 0, 0,0.0,0.0,0.0,0.0,0.0,0.0,0.0,0.0,0.0,0.0,0.0,0.0,0.0,80,java\gadgets\src\test\java\org\apache\shindig\gadgets\variables\VariableSubstituterTest.java,0,0,0,0
org.apache.shindig.protocol.ContentTypes, 0, 0, 0, 0, 0, 0, 0, 0, 0, 0, 0, 0, 0, 0,0.0,0.0,0.0,0.0,0.0,0.0,0.0,0.0,0.0,0.0,0.0,0.0,0.0,56,java\common\src\main\java\org\apache\shindig\protocol\ContentTypes.java,0,3,1,5
org.apache.shindig.protocol.ContentTypesTest, 0, 0, 0, 0, 0, 0, 0, 0, 0, 0, 0, 0, 0, 0,0.0,0.0,0.0,0.0,0.0,0.0,0.0,0.0,0.0,0.0,0.0,0.0,0.0,41,java\common\src\test\java\org\apache\shindig\protocol\ContentTypesTest.java,0,8,0,8
org.apache.shindig.protocol.DataServiceServletTest, 0, 0, 0, 0, 0, 0, 0, 0, 0, 0, 0, 0, 0, 0,0.0,0.0,0.0,0.0,0.0,0.0,0.0,0.0,0.0,0.0,0.0,0.0,0.0,130,java\common\src\test\java\org\apache\shindig\protocol\DataServiceServletTest.java,0,0,0,0
org.apache.shindig.protocol.DefaultHandlerRegistryTest, 0, 0, 0, 0, 0, 0, 0, 0, 0, 0, 0, 0, 0, 0,0.0,0.0,0.0,0.0,0.0,0.0,0.0,0.0,0.0,0.0,0.0,0.0,0.0,171,java\common\src\test\java\org\apache\shindig\protocol\DefaultHandlerRegistryTest.java,0,0,0,0
org.apache.shindig.protocol.HandlerPreconditions, 0, 0, 0, 0, 0, 0, 0, 0, 0, 0, 0, 0, 0, 0,0.0,0.0,0.0,0.0,0.0,0.0,0.0,0.0,0.0,0.0,0.0,0.0,0.0,25,java\common\src\main\java\org\apache\shindig\protocol\HandlerPreconditions.java,0,0,0,0
org.apache.shindig.protocol.HandlerRegistry, 0, 0, 0, 0, 0, 0, 0, 0, 0, 0, 0, 0, 0, 0,0.0,0.0,0.0,0.0,0.0,0.0,0.0,0.0,0.0,0.0,0.0,0.0,0.0,25,java\common\src\main\java\org\apache\shindig\protocol\HandlerRegistry.java,0,0,0,0
org.apache.shindig.protocol.ProtocolException, 0, 0, 0, 0, 0, 0, 0, 0, 0, 0, 0, 0, 0, 0,0.0,0.0,0.0,0.2,0.0,0.0,0.0,0.0,0.0,0.0,0.0,0.0,0.0,29,java\common\src\main\java\org\apache\shindig\protocol\ProtocolException.java,0,0,0,0
org.apache.shindig.protocol.RequestItem, 0, 0, 0, 0, 0, 0, 0, 0, 0, 0, 0, 0, 0, 0,0.0,0.0,0.0,0.0,0.0,0.0,0.0,0.0,0.0,0.0,0.0,0.0,0.0,29,java\common\src\main\java\org\apache\shindig\protocol\RequestItem.java,0,0,0,0
org.apache.shindig.protocol.ResponseItem, 0, 0, 0, 0, 0, 0, 0, 0, 0, 0, 0, 0, 0, 0,0.0,0.0,0.0,0.0,0.0,0.0,0.0,0.0,0.0,0.0,0.0,0.0,0.0,44,java\common\src\main\java\org\apache\shindig\protocol\ResponseItem.java,0,0,0,0
org.apache.shindig.protocol.RestfulCollectionTest, 0, 0, 0, 0, 0, 0, 0, 0, 0, 0, 0, 0, 0, 0,0.0,0.0,0.0,0.0,0.0,0.0,0.0,0.0,0.0,0.0,0.0,0.0,0.0,57,java\common\src\test\java\org\apache\shindig\protocol\RestfulCollectionTest.java,0,0,0,0
org.apache.shindig.protocol.SystemHandler, 0, 0, 0, 0, 0, 0, 0, 0, 0, 0, 0, 0, 0, 0,0.0,0.0,0.0,0.0,0.0,0.0,0.0,0.0,0.0,0.0,0.0,0.0,0.0,15,java\common\src\main\java\org\apache\shindig\protocol\SystemHandler.java,0,0,0,0
org.apache.shindig.protocol.conversion.BeanJsonConverterInjectedClassTest, 0, 0, 0, 0, 0, 0, 0, 0, 0, 0, 0, 0, 0, 0,0.0,0.0,0.0,0.0,0.0,0.0,0.0,0.0,0.0,0.0,0.0,0.0,0.0,40,java\common\src\test\java\org\apache\shindig\protocol\conversion\BeanJsonConverterInjectedClassTest.java,0,0,0,0
org.apache.shindig.protocol.conversion.xstream.ClassFieldMapping, 0, 0, 0, 0, 0, 0, 0, 0, 0, 0, 0, 0, 0, 0,0.0,0.0,0.0,0.0,0.0,0.0,0.0,0.0,0.0,0.0,0.0,0.0,0.0,28,java\common\src\main\java\org\apache\shindig\protocol\conversion\xstream\ClassFieldMapping.java,0,0,0,0
org.apache.shindig.protocol.conversion.xstream.ImplicitCollectionFieldMapping, 0, 0, 0, 0, 0, 0, 0, 0, 0, 0, 0, 0, 0, 0,0.0,0.0,0.0,0.0,0.0,0.0,0.0,0.0,0.0,0.0,0.0,0.0,0.0,33,java\common\src\main\java\org\apache\shindig\protocol\conversion\xstream\ImplicitCollectionFieldMapping.java,0,0,0,0
org.apache.shindig.protocol.conversion.xstream.InterfaceFieldAliasMapping, 0, 0, 0, 0, 0, 0, 0, 0, 0, 0, 0, 0, 0, 0,0.0,0.0,0.0,0.0,0.0,0.0,0.0,0.0,0.0,0.0,0.0,0.0,0.0,40,java\common\src\main\java\org\apache\shindig\protocol\conversion\xstream\InterfaceFieldAliasMapping.java,0,0,0,0
org.apache.shindig.protocol.conversion.xstream.RestfullCollectionConverter, 0, 0, 0, 0, 0, 0, 0, 0, 0, 0, 0, 0, 0, 0,0.0,0.0,0.0,0.0,0.0,0.0,0.0,0.0,0.0,0.0,0.0,0.0,0.0,43,java\common\src\main\java\org\apache\shindig\protocol\conversion\xstream\RestfullCollectionConverter.java,0,0,0,0
org.apache.shindig.protocol.conversion.xstream.ThreadSafeWriterStack, 0, 0, 0, 0, 0, 0, 0, 0, 0, 0, 0, 0, 0, 0,0.0,0.0,0.0,0.0,0.0,0.0,0.0,0.0,0.0,0.0,0.0,0.0,0.0,54,java\common\src\main\java\org\apache\shindig\protocol\conversion\xstream\ThreadSafeWriterStack.java,0,0,0,0
org.apache.shindig.protocol.conversion.xstream.WriterStack, 0, 0, 0, 0, 0, 0, 0, 0, 0, 0, 0, 0, 0, 0,0.0,0.0,0.0,0.0,0.0,0.0,0.0,0.0,0.0,0.0,0.0,0.0,0.0,54,java\common\src\main\java\org\apache\shindig\protocol\conversion\xstream\WriterStack.java,0,0,0,0
org.apache.shindig.protocol.model.Enum, 0, 0, 0, 0, 0, 0, 0, 0, 0, 0, 0, 0, 0, 0,0.0,0.0,0.0,0.0,0.0,0.0,0.0,0.0,0.0,0.0,0.0,0.0,0.0,54,java\common\src\main\java\org\apache\shindig\protocol\model\Enum.java,0,0,0,0
org.apache.shindig.protocol.model.EnumImpl, 0, 0, 0, 0, 0, 0, 0, 0, 0, 0, 0, 0, 0, 0,0.0,0.0,0.0,0.0,0.0,0.0,0.0,0.0,0.0,0.0,0.0,0.0,0.0,23,java\common\src\main\java\org\apache\shindig\protocol\model\EnumImpl.java,0,0,0,0
org.apache.shindig.protocol.multipart.CommonsFormDataItem, 0, 0, 0, 0, 0, 0, 0, 0, 0, 0, 0, 0, 0, 0,0.0,0.0,0.0,0.0,0.0,0.0,0.0,0.0,0.0,0.0,0.0,0.0,0.0,30,java\common\src\main\java\org\apache\shindig\protocol\multipart\CommonsFormDataItem.java,0,0,0,0
org.apache.shindig.protocol.multipart.DefaultMultipartFormParser, 0, 0, 0, 0, 0, 0, 0, 0, 0, 0, 0, 0, 0, 0,0.0,0.0,0.0,0.0,0.0,0.0,0.0,0.0,0.0,0.0,0.0,0.0,0.0,35,java\common\src\main\java\org\apache\shindig\protocol\multipart\DefaultMultipartFormParser.java,0,0,0,0
org.apache.shindig.protocol.multipart.FormDataItem, 0, 0, 0, 0, 0, 0, 0, 0, 0, 0, 0, 0, 0, 0,0.0,0.0,0.0,0.0,0.0,0.0,0.0,0.0,0.0,0.0,0.0,0.0,0.0,35,java\common\src\main\java\org\apache\shindig\protocol\multipart\FormDataItem.java,0,0,0,0
org.apache.shindig.protocol.multipart.MultipartFormParser, 0, 0, 0, 0, 0, 0, 0, 0, 0, 0, 0, 0, 0, 0,0.0,0.0,0.0,0.0,0.0,0.0,0.0,0.0,0.0,0.0,0.0,0.0,0.0,35,java\common\src\main\java\org\apache\shindig\protocol\multipart\MultipartFormParser.java,0,0,0,0
org.apache.shindig.sample.container.SampleContainerGuiceModule, 0, 0, 0, 0, 0, 0, 0, 0, 0, 0, 0, 0, 0, 0,0.0,0.0,0.0,0.0,0.0,0.0,0.0,0.0,0.0,0.0,0.0,0.0,0.0,6,java\sample-container\src\main\java\org\apache\shindig\sample\container\SampleContainerGuiceModule.java,0,0,0,0
org.apache.shindig.sample.shiro.SampleShiroRealm, 0, 0, 0, 0, 0, 0, 0, 0, 0, 0, 0, 0, 0, 0,0.0,0.0,0.0,0.0,0.0,0.0,0.0,0.0,0.0,0.0,0.0,0.0,0.0,26,java\sample-container\src\main\java\org\apache\shindig\sample\shiro\SampleShiroRealm.java,0,0,0,0
org.apache.shindig.sample.shiro.ShiroGuiceModule, 0, 0, 0, 0, 0, 0, 0, 0, 0, 0, 0, 0, 0, 0,0.0,0.0,0.0,0.0,0.0,0.0,0.0,0.0,0.0,0.0,0.0,0.0,0.0,5,java\sample-container\src\main\java\org\apache\shindig\sample\shiro\ShiroGuiceModule.java,0,0,0,0
org.apache.shindig.social.SocialApiTestsGuiceModule, 0, 0, 0, 0, 0, 0, 0, 0, 0, 0, 0, 0, 0, 0,0.0,0.0,0.0,0.0,0.0,0.0,0.0,0.0,0.0,0.0,0.0,0.0,0.0,37,java\social-api\src\test\java\org\apache\shindig\social\SocialApiTestsGuiceModule.java,0,0,0,0
org.apache.shindig.social.core.config.SocialApiGuiceModule, 0, 0, 0, 0, 0, 0, 0, 0, 0, 0, 0, 0, 0, 0,0.0,0.0,0.0,0.0,0.0,0.0,0.0,0.0,0.0,0.0,0.0,0.0,0.0,28,java\social-api\src\main\java\org\apache\shindig\social\core\config\SocialApiGuiceModule.java,0,0,0,0
org.apache.shindig.social.core.config.SocialApiGuiceModuleTest, 0, 0, 0, 0, 0, 0, 0, 0, 0, 0, 0, 0, 0, 0,0.0,0.0,0.0,0.0,0.0,0.0,0.0,0.0,0.0,0.0,0.0,0.0,0.0,24,java\social-api\src\test\java\org\apache\shindig\social\core\config\SocialApiGuiceModuleTest.java,0,0,0,0
org.apache.shindig.social.core.model.AccountImpl, 0, 0, 0, 0, 0, 0, 0, 0, 0, 0, 0, 0, 0, 0,0.0,0.0,0.0,0.0,0.0,0.0,0.0,0.0,0.0,0.0,0.0,0.0,0.0,29,java\social-api\src\main\java\org\apache\shindig\social\core\model\AccountImpl.java,0,0,0,0
org.apache.shindig.social.core.model.ActivityEntryImpl, 0, 0, 0, 1, 0, 0, 0, 0, 0, 0, 0, 0, 0, 1,0.0,0.0,0.0,0.0,0.0,0.0,0.0,0.0,0.0,0.0,0.0,0.0,0.0,135,java\social-api\src\main\java\org\apache\shindig\social\core\model\ActivityEntryImpl.java,0,0,0,0
org.apache.shindig.social.core.model.ActivityObjectImpl, 0, 0, 0, 1, 0, 0, 0, 0, 0, 0, 0, 0, 0, 1,0.0,0.0,0.0,0.0,0.0,0.0,0.0,0.0,0.0,0.0,0.0,0.0,0.0,116,java\social-api\src\main\java\org\apache\shindig\social\core\model\ActivityObjectImpl.java,0,0,0,0
org.apache.shindig.social.core.model.AddressImpl, 0, 0, 0, 1, 0, 0, 0, 0, 0, 0, 0, 0, 0, 1,0.0,0.0,0.0,0.0,0.0,0.0,0.0,0.0,0.0,0.0,0.0,0.0,0.0,76,java\social-api\src\main\java\org\apache\shindig\social\core\model\AddressImpl.java,0,0,0,0
org.apache.shindig.social.core.model.AlbumImpl, 0, 0, 0, 1, 0, 0, 0, 0, 0, 0, 0, 0, 0, 1,0.0,0.0,0.0,0.0,0.0,0.0,0.0,0.0,0.0,0.0,0.0,0.0,0.0,67,java\social-api\src\main\java\org\apache\shindig\social\core\model\AlbumImpl.java,0,0,0,0
org.apache.shindig.social.core.model.BodyTypeImpl, 0, 0, 0, 0, 0, 0, 0, 0, 0, 0, 0, 0, 0, 0,0.0,0.0,0.0,0.0,0.0,0.0,0.0,0.0,0.0,0.0,0.0,0.0,0.0,37,java\social-api\src\main\java\org\apache\shindig\social\core\model\BodyTypeImpl.java,0,0,0,0
org.apache.shindig.social.core.model.ListFieldImpl, 0, 0, 0, 0, 0, 0, 0, 0, 0, 0, 0, 0, 0, 0,0.0,0.0,0.0,0.0,0.0,0.0,0.0,0.0,0.0,0.0,0.0,0.0,0.0,28,java\social-api\src\main\java\org\apache\shindig\social\core\model\ListFieldImpl.java,0,0,0,0
org.apache.shindig.social.core.model.MediaItemImpl, 0, 0, 0, 1, 0, 0, 0, 0, 0, 0, 0, 0, 0, 1,0.0,0.0,0.0,0.0,0.0,0.0,0.0,0.0,0.0,0.0,0.0,0.0,0.0,156,java\social-api\src\main\java\org\apache\shindig\social\core\model\MediaItemImpl.java,0,0,0,0
org.apache.shindig.social.core.model.MediaLinkImpl, 0, 0, 0, 0, 0, 0, 0, 0, 0, 0, 0, 0, 0, 0,0.0,0.0,0.0,0.0,0.0,0.0,0.0,0.0,0.0,0.0,0.0,0.0,0.0,45,java\social-api\src\main\java\org\apache\shindig\social\core\model\MediaLinkImpl.java,0,0,0,0
org.apache.shindig.social.core.model.MessageCollectionImpl, 0, 0, 0, 0, 0, 0, 0, 0, 0, 0, 0, 0, 0, 0,0.0,0.0,0.0,0.0,0.0,0.0,0.0,0.0,0.0,0.0,0.0,0.0,0.0,45,java\social-api\src\main\java\org\apache\shindig\social\core\model\MessageCollectionImpl.java,0,0,0,0
org.apache.shindig.social.core.model.MessageImpl, 0, 0, 0, 1, 0, 0, 0, 0, 0, 0, 0, 0, 0, 1,0.0,0.0,0.0,1.0,0.0,0.0,0.0,0.0,0.0,0.0,0.0,0.0,0.0,124,java\social-api\src\main\java\org\apache\shindig\social\core\model\MessageImpl.java,0,0,0,0
org.apache.shindig.social.core.model.NameImpl, 0, 0, 0, 0, 0, 0, 0, 0, 0, 0, 0, 0, 0, 0,0.0,0.0,0.0,0.0,0.0,0.0,0.0,0.0,0.0,0.0,0.0,0.0,0.0,49,java\social-api\src\main\java\org\apache\shindig\social\core\model\NameImpl.java,0,0,0,0
org.apache.shindig.social.core.model.OrganizationImpl, 0, 0, 0, 1, 0, 0, 0, 0, 0, 0, 0, 0, 0, 1,0.0,0.0,0.0,0.0,0.0,0.0,0.0,0.0,0.0,0.0,0.0,0.0,0.0,100,java\social-api\src\main\java\org\apache\shindig\social\core\model\OrganizationImpl.java,0,0,0,0
org.apache.shindig.social.core.model.UrlImpl, 0, 0, 0, 0, 0, 0, 0, 0, 0, 0, 0, 0, 0, 0,0.0,0.0,0.0,0.0,0.0,0.0,0.0,0.0,0.0,0.0,0.0,0.0,0.0,14,java\social-api\src\main\java\org\apache\shindig\social\core\model\UrlImpl.java,0,0,0,0
org.apache.shindig.social.core.oauth.AuthenticationHandlerProvider, 0, 0, 0, 0, 0, 0, 0, 0, 0, 0, 0, 0, 0, 0,0.0,0.0,0.0,0.0,0.0,0.0,0.0,0.0,0.0,0.0,0.0,0.0,0.0,12,java\social-api\src\main\java\org\apache\shindig\social\core\oauth\AuthenticationHandlerProvider.java,0,0,0,0
org.apache.shindig.social.core.oauth.AuthenticationProviderHandlerTest, 0, 0, 0, 0, 0, 0, 0, 0, 0, 0, 0, 0, 0, 0,0.0,0.0,0.0,0.0,0.0,0.0,0.0,0.0,0.0,0.0,0.0,0.0,0.0,28,java\social-api\src\test\java\org\apache\shindig\social\core\oauth\AuthenticationProviderHandlerTest.java,0,0,0,0
org.apache.shindig.social.core.oauth.MockServletOutputStream, 0, 0, 0, 0, 0, 0, 0, 0, 0, 0, 0, 0, 0, 0,0.0,0.0,0.0,0.0,0.0,0.0,0.0,0.0,0.0,0.0,0.0,0.0,0.0,10,java\social-api\src\test\java\org\apache\shindig\social\core\oauth\MockServletOutputStream.java,0,0,0,0
org.apache.shindig.social.core.oauth.OAuth2AuthenticationHandlerTest, 0, 0, 0, 0, 0, 0, 0, 0, 0, 0, 0, 0, 0, 0,0.0,0.0,0.0,0.0,0.0,0.0,0.0,0.0,0.0,0.0,0.0,0.0,0.0,51,java\social-api\src\test\java\org\apache\shindig\social\core\oauth\OAuth2AuthenticationHandlerTest.java,0,0,0,0
org.apache.shindig.social.core.oauth.OAuth2ClientCredentialFlowTest, 0, 0, 0, 0, 0, 0, 0, 0, 0, 0, 0, 0, 0, 0,0.0,0.0,0.0,0.0,0.0,0.0,0.0,0.0,0.0,0.0,0.0,0.0,0.0,114,java\social-api\src\test\java\org\apache\shindig\social\core\oauth\OAuth2ClientCredentialFlowTest.java,0,17,4,25
org.apache.shindig.social.core.oauth.OAuthAuthenticationHanderTest, 0, 0, 0, 1, 0, 0, 0, 0, 0, 0, 0, 0, 0, 1,0.0,0.0,0.0,0.2,0.0,0.0,0.0,0.0,0.0,0.0,0.0,0.0,0.0,332,java\social-api\src\test\java\org\apache\shindig\social\core\oauth\OAuthAuthenticationHanderTest.java,0,0,0,0
org.apache.shindig.social.core.oauth.OAuthAuthenticationHandler, 0, 0, 0, 0, 0, 0, 0, 0, 0, 0, 0, 0, 0, 0,0.0,0.0,0.0,0.4,0.0,0.0,0.0,0.2,0.0,0.0,0.0,0.0,0.0,137,java\social-api\src\main\java\org\apache\shindig\social\core\oauth\OAuthAuthenticationHandler.java,0,0,0,0
org.apache.shindig.social.core.oauth.OAuthSecurityToken, 0, 0, 0, 0, 0, 0, 0, 1, 0, 0, 0, 0, 0, 1,0.0,0.0,0.0,0.0,0.0,0.0,0.0,0.0,0.0,0.0,0.0,0.0,0.0,42,java\social-api\src\main\java\org\apache\shindig\social\core\oauth\OAuthSecurityToken.java,0,0,0,0
org.apache.shindig.social.core.oauth.OAuthValidatorProvider, 0, 0, 0, 0, 0, 0, 0, 0, 0, 0, 0, 0, 0, 0,0.0,0.0,0.0,0.0,0.0,0.0,0.0,0.0,0.0,0.0,0.0,0.0,0.0,11,java\social-api\src\main\java\org\apache\shindig\social\core\oauth\OAuthValidatorProvider.java,0,0,0,0
org.apache.shindig.social.core.oauth2.OAuth2AuthorizationHandler, 0, 0, 0, 0, 0, 0, 0, 0, 0, 0, 0, 0, 0, 0,0.0,0.0,0.0,0.5,0.0,0.0,0.0,0.0,0.0,0.0,0.0,0.0,0.0,62,java\social-api\src\main\java\org\apache\shindig\social\core\oauth2\OAuth2AuthorizationHandler.java,0,0,0,0
org.apache.shindig.social.core.oauth2.OAuth2Client, 0, 0, 0, 0, 0, 0, 0, 0, 0, 0, 0, 0, 0, 0,0.0,0.0,0.0,0.16666666666666666,0.0,0.0,0.0,0.0,0.0,0.0,0.0,0.0,0.0,83,java\social-api\src\main\java\org\apache\shindig\social\core\oauth2\OAuth2Client.java,0,0,0,0
org.apache.shindig.social.core.oauth2.OAuth2Code, 0, 0, 0, 1, 0, 0, 0, 0, 0, 0, 0, 0, 0, 1,0.0,0.0,0.0,0.0,0.0,0.0,0.0,0.0,0.0,0.0,0.0,0.0,0.0,80,java\social-api\src\main\java\org\apache\shindig\social\core\oauth2\OAuth2Code.java,0,0,0,0
org.apache.shindig.social.core.oauth2.OAuth2DataService, 0, 0, 0, 0, 0, 0, 0, 0, 0, 0, 0, 0, 0, 0,0.0,0.0,0.0,0.0,0.0,0.0,0.0,0.0,0.0,0.0,0.0,0.0,0.0,80,java\social-api\src\main\java\org\apache\shindig\social\core\oauth2\OAuth2DataService.java,0,0,0,0
org.apache.shindig.social.core.oauth2.OAuth2Exception, 0, 0, 0, 0, 0, 0, 0, 0, 0, 0, 0, 0, 0, 0,0.0,0.0,0.0,0.0,0.0,0.0,0.0,0.0,0.0,0.0,0.0,0.0,0.0,11,java\social-api\src\main\java\org\apache\shindig\social\core\oauth2\OAuth2Exception.java,0,0,0,0
org.apache.shindig.social.core.oauth2.OAuth2Service, 0, 0, 0, 0, 0, 0, 0, 0, 0, 0, 0, 0, 0, 0,0.0,0.0,0.0,0.0,0.0,0.0,0.0,0.0,0.0,0.0,0.0,0.0,0.0,11,java\social-api\src\main\java\org\apache\shindig\social\core\oauth2\OAuth2Service.java,0,0,0,0
org.apache.shindig.social.core.oauth2.OAuth2ServiceImpl, 0, 0, 0, 0, 0, 0, 0, 0, 0, 0, 0, 0, 0, 0,0.0,0.0,0.0,0.14285714285714285,0.0,0.0,0.0,0.0,0.0,0.0,0.0,0.0,0.0,122,java\social-api\src\main\java\org\apache\shindig\social\core\oauth2\OAuth2ServiceImpl.java,0,0,0,0
org.apache.shindig.social.core.oauth2.OAuth2ServiceImplTest, 0, 0, 0, 0, 0, 0, 0, 0, 0, 0, 0, 0, 0, 0,0.0,0.0,0.0,0.0,0.0,0.0,0.0,0.0,0.0,0.0,0.0,0.0,0.0,28,java\social-api\src\test\java\org\apache\shindig\social\core\oauth2\OAuth2ServiceImplTest.java,0,0,0,0
org.apache.shindig.social.core.oauth2.OAuth2TokenHandler, 0, 0, 0, 0, 0, 0, 0, 0, 0, 0, 0, 0, 0, 0,0.0,0.0,0.0,0.3333333333333333,0.0,0.0,0.0,0.0,0.0,0.0,0.0,0.0,0.0,32,java\social-api\src\main\java\org\apache\shindig\social\core\oauth2\OAuth2TokenHandler.java,0,0,0,0
org.apache.shindig.social.core.oauth2.OAuth2TokenHandlerTest, 0, 0, 0, 0, 0, 0, 0, 0, 0, 0, 0, 0, 0, 0,0.0,0.0,0.0,0.0,0.0,0.0,0.0,0.0,0.0,0.0,0.0,0.0,0.0,21,java\social-api\src\test\java\org\apache\shindig\social\core\oauth2\OAuth2TokenHandlerTest.java,0,0,0,0
org.apache.shindig.social.core.oauth2.OAuth2Types, 0, 0, 0, 0, 0, 1, 0, 0, 0, 0, 0, 0, 0, 1,0.0,0.0,0.0,0.0,0.0,0.0,0.0,0.0,0.0,0.0,0.0,0.0,0.0,67,java\social-api\src\main\java\org\apache\shindig\social\core\oauth2\OAuth2Types.java,0,0,0,0
org.apache.shindig.social.core.oauth2.validators.AccessTokenRequestValidator, 0, 0, 0, 0, 0, 0, 0, 0, 0, 0, 0, 0, 0, 0,0.0,0.0,0.0,0.0,0.0,0.0,0.0,0.0,0.0,0.0,0.0,0.0,0.0,65,java\social-api\src\main\java\org\apache\shindig\social\core\oauth2\validators\AccessTokenRequestValidator.java,0,0,0,0
org.apache.shindig.social.core.oauth2.validators.AuthCodeGrantValidator, 0, 0, 0, 0, 0, 0, 0, 0, 0, 0, 0, 0, 0, 0,0.0,0.0,0.0,0.25,0.0,0.0,0.0,0.0,0.0,0.0,0.0,0.0,0.0,52,java\social-api\src\main\java\org\apache\shindig\social\core\oauth2\validators\AuthCodeGrantValidator.java,0,0,0,0
org.apache.shindig.social.core.oauth2.validators.AuthorizationCodeRequestValidator, 0, 0, 0, 0, 0, 0, 0, 0, 0, 0, 0, 0, 0, 0,0.0,0.0,0.0,0.0,0.0,0.0,0.0,0.0,0.0,0.0,0.0,0.0,0.0,39,java\social-api\src\main\java\org\apache\shindig\social\core\oauth2\validators\AuthorizationCodeRequestValidator.java,0,0,0,0
org.apache.shindig.social.core.oauth2.validators.ClientCredentialsGrantValidator, 0, 0, 0, 0, 0, 0, 0, 0, 0, 0, 0, 0, 0, 0,0.0,0.0,0.0,0.0,0.0,0.0,0.0,0.0,0.0,0.0,0.0,0.0,0.0,33,java\social-api\src\main\java\org\apache\shindig\social\core\oauth2\validators\ClientCredentialsGrantValidator.java,0,0,0,0
org.apache.shindig.social.core.oauth2.validators.DefaultResourceRequestValidator, 0, 0, 0, 0, 0, 0, 0, 0, 0, 0, 0, 0, 0, 0,0.0,0.0,0.0,0.3333333333333333,0.0,0.0,0.0,0.0,0.0,0.0,0.0,0.0,0.0,31,java\social-api\src\main\java\org\apache\shindig\social\core\oauth2\validators\DefaultResourceRequestValidator.java,0,0,0,0
org.apache.shindig.social.core.oauth2.validators.OAuth2GrantValidator, 0, 0, 0, 0, 0, 0, 0, 0, 0, 0, 0, 0, 0, 0,0.0,0.0,0.0,0.0,0.0,0.0,0.0,0.0,0.0,0.0,0.0,0.0,0.0,31,java\social-api\src\main\java\org\apache\shindig\social\core\oauth2\validators\OAuth2GrantValidator.java,0,0,0,0
org.apache.shindig.social.core.oauth2.validators.OAuth2ProtectedResourceValidator, 0, 0, 0, 0, 0, 0, 0, 0, 0, 0, 0, 0, 0, 0,0.0,0.0,0.0,0.0,0.0,0.0,0.0,0.0,0.0,0.0,0.0,0.0,0.0,31,java\social-api\src\main\java\org\apache\shindig\social\core\oauth2\validators\OAuth2ProtectedResourceValidator.java,0,0,0,0
org.apache.shindig.social.core.oauth2.validators.OAuth2RequestValidator, 0, 0, 0, 0, 0, 0, 0, 0, 0, 0, 0, 0, 0, 0,0.0,0.0,0.0,0.0,0.0,0.0,0.0,0.0,0.0,0.0,0.0,0.0,0.0,31,java\social-api\src\main\java\org\apache\shindig\social\core\oauth2\validators\OAuth2RequestValidator.java,0,0,0,0
org.apache.shindig.social.core.util.BeanXStreamAtomConverter, 0, 0, 0, 0, 0, 0, 0, 0, 0, 0, 0, 0, 0, 0,0.0,0.0,0.0,0.0,0.0,0.0,0.0,0.0,0.0,0.0,0.0,0.0,0.0,18,java\social-api\src\main\java\org\apache\shindig\social\core\util\BeanXStreamAtomConverter.java,0,0,0,0
org.apache.shindig.social.core.util.atom.AtomAttribute, 0, 0, 0, 0, 0, 0, 0, 0, 0, 0, 0, 0, 0, 0,0.0,0.0,0.0,0.0,0.0,0.0,0.0,0.0,0.0,0.0,0.0,0.0,0.0,10,java\social-api\src\main\java\org\apache\shindig\social\core\util\atom\AtomAttribute.java,0,0,0,0
org.apache.shindig.social.core.util.atom.AtomAttributeConverter, 0, 0, 0, 0, 0, 0, 0, 0, 0, 0, 0, 0, 0, 0,0.0,0.0,0.0,0.0,0.0,0.0,0.0,0.0,0.0,0.0,0.0,0.0,0.0,12,java\social-api\src\main\java\org\apache\shindig\social\core\util\atom\AtomAttributeConverter.java,0,0,0,0
org.apache.shindig.social.core.util.atom.AtomAuthor, 0, 0, 0, 0, 0, 0, 0, 0, 0, 0, 0, 0, 0, 0,0.0,0.0,0.0,0.0,0.0,0.0,0.0,0.0,0.0,0.0,0.0,0.0,0.0,18,java\social-api\src\main\java\org\apache\shindig\social\core\util\atom\AtomAuthor.java,0,0,0,0
org.apache.shindig.social.core.util.atom.AtomGenerator, 0, 0, 0, 0, 0, 0, 0, 0, 0, 0, 0, 0, 0, 0,0.0,0.0,0.0,0.0,0.0,0.0,0.0,0.0,0.0,0.0,0.0,0.0,0.0,7,java\social-api\src\main\java\org\apache\shindig\social\core\util\atom\AtomGenerator.java,0,0,0,0
org.apache.shindig.social.core.util.atom.AtomLink, 0, 0, 0, 0, 0, 0, 0, 0, 0, 0, 0, 0, 0, 0,0.0,0.0,0.0,0.0,0.0,0.0,0.0,0.0,0.0,0.0,0.0,0.0,0.0,22,java\social-api\src\main\java\org\apache\shindig\social\core\util\atom\AtomLink.java,0,0,0,0
org.apache.shindig.social.core.util.atom.AtomLinkConverter, 0, 0, 0, 0, 0, 0, 0, 0, 0, 0, 0, 0, 0, 0,0.0,0.0,0.0,0.0,0.0,0.0,0.0,0.0,0.0,0.0,0.0,0.0,0.0,22,java\social-api\src\main\java\org\apache\shindig\social\core\util\atom\AtomLinkConverter.java,0,0,0,0
org.apache.shindig.social.core.util.atom.AtomSource, 0, 0, 0, 0, 0, 0, 0, 0, 0, 0, 0, 0, 0, 0,0.0,0.0,0.0,0.0,0.0,0.0,0.0,0.0,0.0,0.0,0.0,0.0,0.0,10,java\social-api\src\main\java\org\apache\shindig\social\core\util\atom\AtomSource.java,0,0,0,0
org.apache.shindig.social.core.util.atom.AtomSummary, 0, 0, 0, 0, 0, 0, 0, 0, 0, 0, 0, 0, 0, 0,0.0,0.0,0.0,0.0,0.0,0.0,0.0,0.0,0.0,0.0,0.0,0.0,0.0,11,java\social-api\src\main\java\org\apache\shindig\social\core\util\atom\AtomSummary.java,0,0,0,0
org.apache.shindig.social.core.util.atom.AtomSummaryConverter, 0, 0, 0, 0, 0, 0, 0, 0, 0, 0, 0, 0, 0, 0,0.0,0.0,0.0,0.0,0.0,0.0,0.0,0.0,0.0,0.0,0.0,0.0,0.0,19,java\social-api\src\main\java\org\apache\shindig\social\core\util\atom\AtomSummaryConverter.java,0,0,0,0
org.apache.shindig.social.dataservice.integration.RestfulAtomActivityEntryTest, 0, 0, 0, 0, 0, 0, 0, 0, 0, 0, 0, 0, 0, 0,0.0,0.0,0.0,0.0,0.0,0.0,0.0,0.0,0.0,0.0,0.0,0.0,0.0,18,java\social-api\src\test\java\org\apache\shindig\social\dataservice\integration\RestfulAtomActivityEntryTest.java,0,0,0,0
org.apache.shindig.social.dataservice.integration.RestfulJsonActivityEntryTest, 0, 0, 0, 0, 0, 0, 0, 0, 0, 0, 0, 0, 0, 0,0.0,0.0,0.0,0.0,0.0,0.0,0.0,0.0,0.0,0.0,0.0,0.0,0.0,63,java\social-api\src\test\java\org\apache\shindig\social\dataservice\integration\RestfulJsonActivityEntryTest.java,0,0,0,0
org.apache.shindig.social.dataservice.integration.RestfulJsonActivityTest, 0, 0, 0, 0, 0, 0, 0, 0, 0, 0, 0, 0, 0, 0,0.0,0.0,0.0,0.0,0.0,0.0,0.0,0.0,0.0,0.0,0.0,0.0,0.0,59,java\social-api\src\test\java\org\apache\shindig\social\dataservice\integration\RestfulJsonActivityTest.java,0,0,0,0
org.apache.shindig.social.dataservice.integration.RestfulXmlActivityEntryTest, 0, 0, 0, 0, 0, 0, 0, 0, 0, 0, 0, 0, 0, 0,0.0,0.0,0.0,0.0,0.0,0.0,0.0,0.0,0.0,0.0,0.0,0.0,0.0,18,java\social-api\src\test\java\org\apache\shindig\social\dataservice\integration\RestfulXmlActivityEntryTest.java,0,0,0,0
org.apache.shindig.social.opensocial.model.Account, 0, 0, 0, 0, 0, 0, 0, 0, 0, 0, 0, 0, 0, 0,0.0,0.0,0.0,0.0,0.0,0.0,0.0,0.0,0.0,0.0,0.0,0.0,0.0,18,java\social-api\src\main\java\org\apache\shindig\social\opensocial\model\Account.java,0,0,0,0
org.apache.shindig.social.opensocial.model.ActivityEntry, 0, 0, 0, 0, 0, 0, 0, 0, 0, 0, 0, 0, 0, 0,0.0,0.0,0.0,0.0,0.0,0.0,0.0,0.0,0.0,0.0,0.0,0.0,0.0,18,java\social-api\src\main\java\org\apache\shindig\social\opensocial\model\ActivityEntry.java,0,0,0,0
org.apache.shindig.social.opensocial.model.ActivityObject, 0, 0, 0, 0, 0, 0, 0, 0, 0, 0, 0, 0, 0, 0,0.0,0.0,0.0,0.0,0.0,0.0,0.0,0.0,0.0,0.0,0.0,0.0,0.0,18,java\social-api\src\main\java\org\apache\shindig\social\opensocial\model\ActivityObject.java,0,0,0,0
org.apache.shindig.social.opensocial.model.Album, 0, 0, 0, 0, 0, 0, 0, 0, 0, 0, 0, 0, 0, 0,0.0,0.0,0.0,0.0,0.0,0.0,0.0,0.0,0.0,0.0,0.0,0.0,0.0,18,java\social-api\src\main\java\org\apache\shindig\social\opensocial\model\Album.java,0,0,0,0
org.apache.shindig.social.opensocial.model.BodyType, 0, 0, 0, 0, 0, 0, 0, 0, 0, 0, 0, 0, 0, 0,0.0,0.0,0.0,0.0,0.0,0.0,0.0,0.0,0.0,0.0,0.0,0.0,0.0,18,java\social-api\src\main\java\org\apache\shindig\social\opensocial\model\BodyType.java,0,0,0,0
org.apache.shindig.social.opensocial.model.EnumUtil, 0, 0, 0, 0, 0, 0, 0, 0, 0, 0, 0, 0, 0, 0,0.0,0.0,0.0,0.0,0.0,0.0,0.0,0.0,0.0,0.0,0.0,0.0,0.0,13,java\social-api\src\main\java\org\apache\shindig\social\opensocial\model\EnumUtil.java,0,0,0,0
org.apache.shindig.social.opensocial.model.ListField, 0, 0, 0, 0, 0, 0, 0, 0, 0, 0, 0, 0, 0, 0,0.0,0.0,0.0,0.0,0.0,0.0,0.0,0.0,0.0,0.0,0.0,0.0,0.0,13,java\social-api\src\main\java\org\apache\shindig\social\opensocial\model\ListField.java,0,0,0,0
org.apache.shindig.social.opensocial.model.MediaItem, 0, 0, 0, 0, 0, 0, 0, 0, 0, 0, 0, 0, 0, 0,0.0,0.0,0.0,0.0,0.0,0.0,0.0,0.0,0.0,0.0,0.0,0.0,0.0,13,java\social-api\src\main\java\org\apache\shindig\social\opensocial\model\MediaItem.java,0,0,0,0
org.apache.shindig.social.opensocial.model.MediaLink, 0, 0, 0, 0, 0, 0, 0, 0, 0, 0, 0, 0, 0, 0,0.0,0.0,0.0,0.0,0.0,0.0,0.0,0.0,0.0,0.0,0.0,0.0,0.0,13,java\social-api\src\main\java\org\apache\shindig\social\opensocial\model\MediaLink.java,0,0,0,0
org.apache.shindig.social.opensocial.model.Message, 0, 0, 0, 0, 0, 0, 0, 0, 0, 0, 0, 0, 0, 0,0.0,0.0,0.0,0.0,0.0,0.0,0.0,0.0,0.0,0.0,0.0,0.0,0.0,13,java\social-api\src\main\java\org\apache\shindig\social\opensocial\model\Message.java,0,0,0,0
org.apache.shindig.social.opensocial.model.MessageCollection, 0, 0, 0, 0, 0, 0, 0, 0, 0, 0, 0, 0, 0, 0,0.0,0.0,0.0,0.0,0.0,0.0,0.0,0.0,0.0,0.0,0.0,0.0,0.0,13,java\social-api\src\main\java\org\apache\shindig\social\opensocial\model\MessageCollection.java,0,0,0,0
org.apache.shindig.social.opensocial.model.Name, 0, 0, 0, 0, 0, 0, 0, 0, 0, 0, 0, 0, 0, 0,0.0,0.0,0.0,0.0,0.0,0.0,0.0,0.0,0.0,0.0,0.0,0.0,0.0,13,java\social-api\src\main\java\org\apache\shindig\social\opensocial\model\Name.java,0,0,0,0
org.apache.shindig.social.opensocial.model.Organization, 0, 0, 0, 0, 0, 0, 0, 0, 0, 0, 0, 0, 0, 0,0.0,0.0,0.0,0.0,0.0,0.0,0.0,0.0,0.0,0.0,0.0,0.0,0.0,13,java\social-api\src\main\java\org\apache\shindig\social\opensocial\model\Organization.java,0,0,0,0
org.apache.shindig.social.opensocial.model.PersonTest, 0, 0, 0, 0, 0, 0, 0, 0, 0, 0, 0, 0, 0, 0,0.0,0.0,0.0,0.0,0.0,0.0,0.0,0.0,0.0,0.0,0.0,0.0,0.0,45,java\social-api\src\test\java\org\apache\shindig\social\opensocial\model\PersonTest.java,0,0,0,0
org.apache.shindig.social.opensocial.model.Url, 0, 0, 0, 0, 0, 0, 0, 0, 0, 0, 0, 0, 0, 0,0.0,0.0,0.0,0.0,0.0,0.0,0.0,0.0,0.0,0.0,0.0,0.0,0.0,45,java\social-api\src\main\java\org\apache\shindig\social\opensocial\model\Url.java,0,0,0,0
org.apache.shindig.social.opensocial.oauth.OAuthDataStore, 0, 0, 0, 0, 0, 0, 0, 0, 0, 0, 0, 0, 0, 0,0.0,0.0,0.0,0.0,0.0,0.0,0.0,0.0,0.0,0.0,0.0,0.0,0.0,45,java\social-api\src\main\java\org\apache\shindig\social\opensocial\oauth\OAuthDataStore.java,0,0,0,0
org.apache.shindig.social.opensocial.oauth.OAuthEntry, 0, 0, 0, 1, 0, 0, 0, 0, 0, 0, 0, 0, 0, 1,0.0,0.0,0.0,0.25,0.0,0.0,0.0,0.0,0.0,0.0,0.0,0.0,0.0,147,java\social-api\src\main\java\org\apache\shindig\social\opensocial\oauth\OAuthEntry.java,0,0,0,0
org.apache.shindig.social.opensocial.service.ActivityHandler, 0, 0, 0, 0, 0, 0, 0, 0, 0, 0, 0, 0, 0, 0,0.0,0.0,0.0,0.0,0.0,0.0,0.0,0.0,0.0,0.0,0.0,0.0,0.0,69,java\social-api\src\main\java\org\apache\shindig\social\opensocial\service\ActivityHandler.java,0,0,0,0
org.apache.shindig.social.opensocial.service.ActivityHandlerTest, 0, 0, 0, 0, 0, 0, 0, 0, 0, 0, 0, 0, 0, 0,0.0,0.0,0.0,0.0,0.0,0.0,0.0,0.0,0.0,0.0,0.0,0.0,0.0,141,java\social-api\src\test\java\org\apache\shindig\social\opensocial\service\ActivityHandlerTest.java,0,0,0,0
org.apache.shindig.social.opensocial.service.ActivityStreamHandler, 0, 0, 0, 0, 0, 0, 0, 0, 0, 0, 0, 0, 0, 0,0.0,0.0,0.0,0.0,0.0,0.0,0.0,0.0,0.0,0.0,0.0,0.0,0.0,79,java\social-api\src\main\java\org\apache\shindig\social\opensocial\service\ActivityStreamHandler.java,0,0,0,0
org.apache.shindig.social.opensocial.service.ActivityStreamHandlerTest, 0, 0, 0, 0, 0, 0, 0, 0, 0, 0, 0, 0, 0, 0,0.0,0.0,0.0,0.2,0.0,0.0,0.0,0.0,0.0,0.0,0.0,0.0,0.0,163,java\social-api\src\test\java\org\apache\shindig\social\opensocial\service\ActivityStreamHandlerTest.java,0,0,0,0
org.apache.shindig.social.opensocial.service.AlbumHandler, 0, 0, 0, 0, 0, 0, 0, 0, 0, 0, 0, 0, 0, 0,0.0,0.0,0.0,0.0,0.0,0.0,0.0,0.0,0.0,0.0,0.0,0.0,0.0,79,java\social-api\src\main\java\org\apache\shindig\social\opensocial\service\AlbumHandler.java,0,0,0,0
org.apache.shindig.social.opensocial.service.AlbumHandlerTest, 0, 0, 0, 0, 0, 0, 0, 0, 0, 0, 0, 0, 0, 0,0.0,0.0,0.0,0.0,0.0,0.0,0.0,0.0,0.0,0.0,0.0,0.0,0.0,50,java\social-api\src\test\java\org\apache\shindig\social\opensocial\service\AlbumHandlerTest.java,0,0,0,0
org.apache.shindig.social.opensocial.service.GroupHandler, 0, 0, 0, 0, 0, 0, 0, 0, 0, 0, 0, 0, 0, 0,0.0,0.0,0.0,0.0,0.0,0.0,0.0,0.0,0.0,0.0,0.0,0.0,0.0,17,java\social-api\src\main\java\org\apache\shindig\social\opensocial\service\GroupHandler.java,0,0,0,0
org.apache.shindig.social.opensocial.service.MediaItemHandler, 0, 0, 0, 0, 0, 0, 0, 0, 0, 0, 0, 0, 0, 0,0.0,0.0,0.0,0.0,0.0,0.0,0.0,0.0,0.0,0.0,0.0,0.0,0.0,118,java\social-api\src\main\java\org\apache\shindig\social\opensocial\service\MediaItemHandler.java,0,0,0,0
org.apache.shindig.social.opensocial.service.MediaItemHandlerTest, 0, 0, 0, 0, 0, 0, 0, 0, 0, 0, 0, 0, 0, 0,0.0,0.0,0.0,0.0,0.0,0.0,0.0,0.0,0.0,0.0,0.0,0.0,0.0,72,java\social-api\src\test\java\org\apache\shindig\social\opensocial\service\MediaItemHandlerTest.java,0,0,0,0
org.apache.shindig.social.opensocial.service.MessageHandler, 0, 0, 0, 0, 0, 0, 0, 0, 0, 0, 0, 0, 0, 0,0.0,0.0,0.0,0.0,0.0,0.0,0.0,0.0,0.0,0.0,0.0,0.0,0.0,88,java\social-api\src\main\java\org\apache\shindig\social\opensocial\service\MessageHandler.java,0,0,0,0
org.apache.shindig.social.opensocial.service.PersonHandler, 0, 0, 0, 0, 0, 0, 0, 0, 0, 0, 0, 0, 0, 0,0.0,0.0,0.0,0.0,0.0,0.0,0.0,0.0,0.0,0.0,0.0,0.0,0.0,83,java\social-api\src\main\java\org\apache\shindig\social\opensocial\service\PersonHandler.java,0,0,0,0
org.apache.shindig.social.opensocial.service.ResponseItemTest, 0, 0, 0, 0, 0, 0, 0, 0, 0, 0, 0, 0, 0, 0,0.0,0.0,0.0,0.0,0.0,0.0,0.0,0.0,0.0,0.0,0.0,0.0,0.0,28,java\social-api\src\test\java\org\apache\shindig\social\opensocial\service\ResponseItemTest.java,0,0,0,0
org.apache.shindig.social.opensocial.service.SocialRequestItemTest, 0, 0, 0, 0, 0, 0, 0, 0, 0, 0, 0, 0, 0, 0,0.0,0.0,0.0,0.0,0.0,0.0,0.0,0.0,0.0,0.0,0.0,0.0,0.0,25,java\social-api\src\test\java\org\apache\shindig\social\opensocial\service\SocialRequestItemTest.java,0,0,0,0
org.apache.shindig.social.opensocial.spi.ActivityService, 0, 0, 0, 0, 0, 0, 0, 0, 0, 0, 0, 0, 0, 0,0.0,0.0,0.0,0.0,0.0,0.0,0.0,0.0,0.0,0.0,0.0,0.0,0.0,25,java\social-api\src\main\java\org\apache\shindig\social\opensocial\spi\ActivityService.java,0,0,0,0
org.apache.shindig.social.opensocial.spi.ActivityStreamService, 0, 0, 0, 0, 0, 0, 0, 0, 0, 0, 0, 0, 0, 0,0.0,0.0,0.0,0.0,0.0,0.0,0.0,0.0,0.0,0.0,0.0,0.0,0.0,25,java\social-api\src\main\java\org\apache\shindig\social\opensocial\spi\ActivityStreamService.java,0,0,0,0
org.apache.shindig.social.opensocial.spi.AlbumService, 0, 0, 0, 0, 0, 0, 0, 0, 0, 0, 0, 0, 0, 0,0.0,0.0,0.0,0.0,0.0,0.0,0.0,0.0,0.0,0.0,0.0,0.0,0.0,25,java\social-api\src\main\java\org\apache\shindig\social\opensocial\spi\AlbumService.java,0,0,0,0
org.apache.shindig.social.opensocial.spi.CollectionOptionsFactory, 0, 0, 0, 0, 0, 0, 0, 0, 0, 0, 0, 0, 0, 0,0.0,0.0,0.0,0.0,0.0,0.0,0.0,0.0,0.0,0.0,0.0,0.0,0.0,5,java\social-api\src\main\java\org\apache\shindig\social\opensocial\spi\CollectionOptionsFactory.java,0,0,0,0
org.apache.shindig.social.opensocial.spi.DomainName, 0, 0, 0, 0, 0, 0, 0, 0, 0, 0, 0, 0, 0, 0,0.0,0.0,0.0,0.0,0.0,0.0,0.0,0.0,0.0,0.0,0.0,0.0,0.0,40,java\social-api\src\main\java\org\apache\shindig\social\opensocial\spi\DomainName.java,0,0,0,0
org.apache.shindig.social.opensocial.spi.DomainNameTest, 0, 0, 0, 0, 0, 0, 0, 0, 0, 0, 0, 0, 0, 0,0.0,0.0,0.0,0.0,0.0,0.0,0.0,0.0,0.0,0.0,0.0,0.0,0.0,15,java\social-api\src\test\java\org\apache\shindig\social\opensocial\spi\DomainNameTest.java,0,0,0,0
org.apache.shindig.social.opensocial.spi.GlobalId, 0, 0, 0, 0, 0, 0, 0, 0, 0, 0, 0, 0, 0, 0,0.0,0.0,0.0,0.0,0.0,0.0,0.0,0.0,0.0,0.0,0.0,0.0,0.0,62,java\social-api\src\main\java\org\apache\shindig\social\opensocial\spi\GlobalId.java,0,0,0,0
org.apache.shindig.social.opensocial.spi.GlobalIdTest, 0, 0, 0, 0, 0, 0, 0, 0, 0, 0, 0, 0, 0, 0,0.0,0.0,0.0,0.0,0.0,0.0,0.0,0.0,0.0,0.0,0.0,0.0,0.0,17,java\social-api\src\test\java\org\apache\shindig\social\opensocial\spi\GlobalIdTest.java,0,0,0,0
org.apache.shindig.social.opensocial.spi.GroupId, 0, 0, 0, 0, 0, 0, 0, 0, 0, 0, 0, 0, 0, 0,0.0,0.0,0.0,0.14285714285714285,0.0,0.0,0.0,0.0,0.0,0.0,0.0,0.0,0.0,101,java\social-api\src\main\java\org\apache\shindig\social\opensocial\spi\GroupId.java,0,0,0,0
org.apache.shindig.social.opensocial.spi.GroupIdTest, 0, 0, 0, 0, 0, 0, 0, 0, 0, 0, 0, 0, 0, 0,0.0,0.0,0.0,0.0,0.0,0.0,0.0,0.0,0.0,0.0,0.0,0.0,0.0,49,java\social-api\src\test\java\org\apache\shindig\social\opensocial\spi\GroupIdTest.java,0,0,0,0
org.apache.shindig.social.opensocial.spi.GroupService, 0, 0, 0, 0, 0, 0, 0, 0, 0, 0, 0, 0, 0, 0,0.0,0.0,0.0,0.0,0.0,0.0,0.0,0.0,0.0,0.0,0.0,0.0,0.0,49,java\social-api\src\main\java\org\apache\shindig\social\opensocial\spi\GroupService.java,0,0,0,0
org.apache.shindig.social.opensocial.spi.LocalId, 0, 0, 0, 0, 0, 0, 0, 0, 0, 0, 0, 0, 0, 0,0.0,0.0,0.0,0.0,0.0,0.0,0.0,0.0,0.0,0.0,0.0,0.0,0.0,44,java\social-api\src\main\java\org\apache\shindig\social\opensocial\spi\LocalId.java,0,0,0,0
org.apache.shindig.social.opensocial.spi.LocalIdTest, 0, 0, 0, 0, 0, 0, 0, 0, 0, 0, 0, 0, 0, 0,0.0,0.0,0.0,0.0,0.0,0.0,0.0,0.0,0.0,0.0,0.0,0.0,0.0,13,java\social-api\src\test\java\org\apache\shindig\social\opensocial\spi\LocalIdTest.java,0,0,0,0
org.apache.shindig.social.opensocial.spi.MediaItemService, 0, 0, 0, 0, 0, 0, 0, 0, 0, 0, 0, 0, 0, 0,0.0,0.0,0.0,0.0,0.0,0.0,0.0,0.0,0.0,0.0,0.0,0.0,0.0,13,java\social-api\src\main\java\org\apache\shindig\social\opensocial\spi\MediaItemService.java,0,0,0,0
org.apache.shindig.social.opensocial.spi.MessageService, 0, 0, 0, 0, 0, 0, 0, 0, 0, 0, 0, 0, 0, 0,0.0,0.0,0.0,0.0,0.0,0.0,0.0,0.0,0.0,0.0,0.0,0.0,0.0,13,java\social-api\src\main\java\org\apache\shindig\social\opensocial\spi\MessageService.java,0,0,0,0
org.apache.shindig.social.opensocial.spi.ObjectId, 0, 0, 0, 0, 0, 0, 0, 0, 0, 0, 0, 0, 0, 0,0.0,0.0,0.0,0.0,0.0,0.0,0.0,0.0,0.0,0.0,0.0,0.0,0.0,45,java\social-api\src\main\java\org\apache\shindig\social\opensocial\spi\ObjectId.java,0,0,0,0
org.apache.shindig.social.opensocial.spi.ObjectIdTest, 0, 0, 0, 0, 0, 0, 0, 0, 0, 0, 0, 0, 0, 0,0.0,0.0,0.0,0.0,0.0,0.0,0.0,0.0,0.0,0.0,0.0,0.0,0.0,21,java\social-api\src\test\java\org\apache\shindig\social\opensocial\spi\ObjectIdTest.java,0,0,0,0
org.apache.shindig.social.opensocial.spi.PersonService, 0, 0, 0, 0, 0, 0, 0, 0, 0, 0, 0, 0, 0, 0,0.0,0.0,0.0,0.0,0.0,0.0,0.0,0.0,0.0,0.0,0.0,0.0,0.0,21,java\social-api\src\main\java\org\apache\shindig\social\opensocial\spi\PersonService.java,0,0,0,0
org.apache.shindig.social.opensocial.spi.UserIdTest, 0, 0, 0, 0, 0, 0, 0, 0, 0, 0, 0, 0, 0, 0,0.0,0.0,0.0,0.0,0.0,0.0,0.0,0.0,0.0,0.0,0.0,0.0,0.0,25,java\social-api\src\test\java\org\apache\shindig\social\opensocial\spi\UserIdTest.java,0,0,0,0
org.apache.shindig.social.opensocial.util.XSDValidatorTest, 0, 0, 0, 0, 0, 0, 0, 0, 0, 0, 0, 0, 0, 0,0.0,0.0,0.0,0.0,0.0,0.0,0.0,0.0,0.0,0.0,0.0,0.0,0.0,23,java\social-api\src\test\java\org\apache\shindig\social\opensocial\util\XSDValidatorTest.java,0,0,0,0
org.apache.shindig.social.sample.SampleModule, 0, 0, 0, 0, 0, 0, 0, 0, 0, 0, 0, 0, 0, 0,0.0,0.0,0.0,0.0,0.0,0.0,0.0,0.0,0.0,0.0,0.0,0.0,0.0,18,java\social-api\src\main\java\org\apache\shindig\social\sample\SampleModule.java,0,0,0,0
org.apache.shindig.social.sample.oauth.SampleOAuthDataStore, 0, 0, 0, 0, 0, 0, 0, 0, 0, 0, 0, 0, 0, 0,0.0,0.0,0.0,0.5,0.0,0.0,0.0,0.5,0.0,0.0,0.0,0.0,0.0,90,java\social-api\src\main\java\org\apache\shindig\social\sample\oauth\SampleOAuthDataStore.java,0,0,0,0
org.apache.shindig.social.sample.oauth.SampleOAuthServlet, 0, 0, 0, 0, 0, 0, 0, 0, 0, 0, 0, 0, 0, 0,0.0,0.0,0.0,0.3333333333333333,0.0,0.0,0.0,0.0,0.0,0.0,0.0,0.0,0.0,192,java\social-api\src\main\java\org\apache\shindig\social\sample\oauth\SampleOAuthServlet.java,0,0,0,0
org.apache.shindig.social.sample.spi.JsonDbOpensocialServiceTest, 0, 0, 0, 1, 0, 0, 0, 0, 0, 0, 0, 0, 0, 1,0.0,0.0,0.0,0.3333333333333333,0.0,0.0,0.0,0.0,0.0,0.0,0.0,0.0,0.0,294,java\social-api\src\test\java\org\apache\shindig\social\sample\spi\JsonDbOpensocialServiceTest.java,0,0,0,0
