ClassName,AntiSingleton,Blob,ClassDataShouldBePrivate,ComplexClass,LargeClass,LazyClass,LongMethod,LongParameterList,MessageChains,RefusedParentBequest,SpaghettiCode,SpeculativeGenerality,SwissArmyKnife,NumOfAPs,AntiSingleton,Blob,ClassDataShouldBePrivate,ComplexClass,LargeClass,LazyClass,LongMethod,LongParameterList,MessageChains,RefusedParentBequest,SpaghettiCode,SpeculativeGenerality,SwissArmyKnife,LOC,name,deleted,added,changed,all
org.apache.subversion.javahl.ClientException, 0, 0, 0, 0, 0, 0, 0, 0, 0, 0, 0, 0, 0, 0,0.0,0.0,0.0,0.3333333333333333,0.0,0.0,0.0,0.3333333333333333,0.0,0.0,0.0,0.0,0.0,19,subversion\bindings\javahl\src\org\apache\subversion\javahl\ClientException.java,0,0,0,0
org.apache.subversion.javahl.CommitInfo, 0, 0, 0, 0, 0, 0, 0, 0, 0, 0, 0, 0, 0, 0,0.0,0.0,0.0,0.0,0.0,0.0,0.0,0.0,0.0,0.0,0.0,0.0,0.0,38,subversion\bindings\javahl\src\org\apache\subversion\javahl\CommitInfo.java,0,0,0,0
org.apache.subversion.javahl.CommitItem, 0, 0, 0, 0, 0, 0, 0, 0, 0, 0, 0, 0, 0, 0,0.0,0.0,0.0,0.0,0.0,0.0,0.0,0.0,0.0,0.0,0.0,0.0,0.0,52,subversion\bindings\javahl\src\org\apache\subversion\javahl\CommitItem.java,0,0,0,0
org.apache.subversion.javahl.CommitItemStateFlags, 0, 0, 0, 0, 0, 0, 0, 0, 0, 0, 0, 0, 0, 0,0.0,0.0,0.0,0.0,0.0,0.0,0.0,0.0,0.0,0.0,0.0,0.0,0.0,52,subversion\bindings\javahl\src\org\apache\subversion\javahl\CommitItemStateFlags.java,0,0,0,0
org.apache.subversion.javahl.ConflictDescriptor, 0, 0, 0, 0, 0, 0, 0, 1, 0, 0, 0, 0, 0, 1,0.0,0.0,0.0,0.3333333333333333,0.0,0.0,0.0,0.6666666666666666,0.0,0.0,0.0,0.0,0.0,133,subversion\bindings\javahl\src\org\apache\subversion\javahl\ConflictDescriptor.java,0,0,0,0
org.apache.subversion.javahl.ConflictResult, 0, 0, 0, 0, 0, 0, 0, 0, 0, 0, 0, 0, 0, 0,0.0,0.0,0.0,0.0,0.0,0.0,0.0,0.0,0.0,0.0,0.0,0.0,0.0,28,subversion\bindings\javahl\src\org\apache\subversion\javahl\ConflictResult.java,0,0,0,0
org.apache.subversion.javahl.DiffSummary, 0, 0, 0, 0, 0, 0, 0, 0, 0, 0, 0, 0, 0, 0,0.0,0.0,0.0,0.0,0.0,0.0,0.0,0.0,0.0,0.0,0.0,0.0,0.0,51,subversion\bindings\javahl\src\org\apache\subversion\javahl\DiffSummary.java,0,0,0,0
org.apache.subversion.javahl.ISVNRepos, 0, 0, 0, 0, 0, 0, 0, 0, 0, 0, 0, 0, 0, 0,0.0,0.0,0.0,0.0,0.0,0.0,0.0,0.0,0.0,0.0,0.0,0.0,0.0,51,subversion\bindings\javahl\src\org\apache\subversion\javahl\ISVNRepos.java,0,0,0,0
org.apache.subversion.javahl.JNIError, 0, 0, 0, 0, 0, 1, 0, 0, 0, 0, 0, 0, 0, 1,0.0,0.0,0.0,0.0,0.0,0.0,0.0,0.0,0.0,0.0,0.0,0.0,0.0,8,subversion\bindings\javahl\src\org\apache\subversion\javahl\JNIError.java,0,0,0,0
org.apache.subversion.javahl.NativeResources, 0, 0, 0, 0, 0, 0, 0, 0, 0, 0, 0, 0, 0, 0,0.0,0.0,0.0,0.0,0.0,0.0,0.0,0.0,0.0,0.0,0.0,0.0,0.0,60,subversion\bindings\javahl\src\org\apache\subversion\javahl\NativeResources.java,0,0,0,0
org.apache.subversion.javahl.ProgressEvent, 0, 0, 0, 0, 0, 0, 0, 0, 0, 0, 0, 0, 0, 0,0.0,0.0,0.0,0.0,0.0,0.0,0.0,0.0,0.0,0.0,0.0,0.0,0.0,19,subversion\bindings\javahl\src\org\apache\subversion\javahl\ProgressEvent.java,0,0,0,0
org.apache.subversion.javahl.ReposNotifyInformation, 0, 0, 0, 0, 0, 0, 0, 0, 0, 0, 0, 0, 0, 0,0.0,0.0,0.0,0.0,0.0,0.0,0.0,0.0,0.0,0.0,0.0,0.0,0.0,87,subversion\bindings\javahl\src\org\apache\subversion\javahl\ReposNotifyInformation.java,0,0,0,0
org.apache.subversion.javahl.RunTests, 0, 0, 0, 0, 0, 0, 0, 0, 0, 0, 0, 0, 0, 0,0.0,0.0,0.0,0.0,0.0,0.0,0.0,0.0,0.0,0.0,0.0,0.0,0.0,85,subversion\bindings\javahl\tests\org\apache\subversion\javahl\RunTests.java,0,0,0,0
org.apache.subversion.javahl.SVNRepos, 0, 0, 0, 0, 0, 0, 0, 0, 0, 0, 0, 0, 0, 0,0.0,0.0,0.0,0.0,0.0,0.0,0.0,0.0,0.0,0.0,0.0,0.0,0.0,84,subversion\bindings\javahl\src\org\apache\subversion\javahl\SVNRepos.java,0,0,0,0
org.apache.subversion.javahl.SubversionException, 0, 0, 0, 0, 0, 1, 0, 0, 0, 0, 0, 0, 0, 1,0.0,0.0,0.0,0.0,0.0,0.0,0.0,0.0,0.0,0.0,0.0,0.0,0.0,8,subversion\bindings\javahl\src\org\apache\subversion\javahl\SubversionException.java,0,0,0,0
org.apache.subversion.javahl.callback.ChangelistCallback, 0, 0, 0, 0, 0, 0, 0, 0, 0, 0, 0, 0, 0, 0,0.0,0.0,0.0,0.0,0.0,0.0,0.0,0.0,0.0,0.0,0.0,0.0,0.0,8,subversion\bindings\javahl\src\org\apache\subversion\javahl\callback\ChangelistCallback.java,0,0,0,0
org.apache.subversion.javahl.callback.ClientNotifyCallback, 0, 0, 0, 0, 0, 0, 0, 0, 0, 0, 0, 0, 0, 0,0.0,0.0,0.0,0.0,0.0,0.0,0.0,0.0,0.0,0.0,0.0,0.0,0.0,8,subversion\bindings\javahl\src\org\apache\subversion\javahl\callback\ClientNotifyCallback.java,0,0,0,0
org.apache.subversion.javahl.callback.CommitCallback, 0, 0, 0, 0, 0, 0, 0, 0, 0, 0, 0, 0, 0, 0,0.0,0.0,0.0,0.0,0.0,0.0,0.0,0.0,0.0,0.0,0.0,0.0,0.0,8,subversion\bindings\javahl\src\org\apache\subversion\javahl\callback\CommitCallback.java,0,0,0,0
org.apache.subversion.javahl.callback.CommitMessageCallback, 0, 0, 0, 0, 0, 0, 0, 0, 0, 0, 0, 0, 0, 0,0.0,0.0,0.0,0.0,0.0,0.0,0.0,0.0,0.0,0.0,0.0,0.0,0.0,8,subversion\bindings\javahl\src\org\apache\subversion\javahl\callback\CommitMessageCallback.java,0,0,0,0
org.apache.subversion.javahl.callback.ConflictResolverCallback, 0, 0, 0, 0, 0, 0, 0, 0, 0, 0, 0, 0, 0, 0,0.0,0.0,0.0,0.0,0.0,0.0,0.0,0.0,0.0,0.0,0.0,0.0,0.0,8,subversion\bindings\javahl\src\org\apache\subversion\javahl\callback\ConflictResolverCallback.java,0,0,0,0
org.apache.subversion.javahl.callback.DiffSummaryCallback, 0, 0, 0, 0, 0, 0, 0, 0, 0, 0, 0, 0, 0, 0,0.0,0.0,0.0,0.0,0.0,0.0,0.0,0.0,0.0,0.0,0.0,0.0,0.0,8,subversion\bindings\javahl\src\org\apache\subversion\javahl\callback\DiffSummaryCallback.java,0,0,0,0
org.apache.subversion.javahl.callback.ImportFilterCallback, 0, 0, 0, 0, 0, 0, 0, 0, 0, 0, 0, 0, 0, 0,0.0,0.0,0.0,0.0,0.0,0.0,0.0,0.0,0.0,0.0,0.0,0.0,0.0,8,subversion\bindings\javahl\src\org\apache\subversion\javahl\callback\ImportFilterCallback.java,0,0,0,0
org.apache.subversion.javahl.callback.InfoCallback, 0, 0, 0, 0, 0, 0, 0, 0, 0, 0, 0, 0, 0, 0,0.0,0.0,0.0,0.0,0.0,0.0,0.0,0.0,0.0,0.0,0.0,0.0,0.0,8,subversion\bindings\javahl\src\org\apache\subversion\javahl\callback\InfoCallback.java,0,0,0,0
org.apache.subversion.javahl.callback.ListCallback, 0, 0, 0, 0, 0, 0, 0, 0, 0, 0, 0, 0, 0, 0,0.0,0.0,0.0,0.0,0.0,0.0,0.0,0.0,0.0,0.0,0.0,0.0,0.0,8,subversion\bindings\javahl\src\org\apache\subversion\javahl\callback\ListCallback.java,0,0,0,0
org.apache.subversion.javahl.callback.PatchCallback, 0, 0, 0, 0, 0, 0, 0, 0, 0, 0, 0, 0, 0, 0,0.0,0.0,0.0,0.0,0.0,0.0,0.0,0.0,0.0,0.0,0.0,0.0,0.0,8,subversion\bindings\javahl\src\org\apache\subversion\javahl\callback\PatchCallback.java,0,0,0,0
org.apache.subversion.javahl.callback.ProgressCallback, 0, 0, 0, 0, 0, 0, 0, 0, 0, 0, 0, 0, 0, 0,0.0,0.0,0.0,0.0,0.0,0.0,0.0,0.0,0.0,0.0,0.0,0.0,0.0,8,subversion\bindings\javahl\src\org\apache\subversion\javahl\callback\ProgressCallback.java,0,0,0,0
org.apache.subversion.javahl.callback.ReposFreezeAction, 0, 0, 0, 0, 0, 0, 0, 0, 0, 0, 0, 0, 0, 0,0.0,0.0,0.0,0.0,0.0,0.0,0.0,0.0,0.0,0.0,0.0,0.0,0.0,8,subversion\bindings\javahl\src\org\apache\subversion\javahl\callback\ReposFreezeAction.java,0,0,0,0
org.apache.subversion.javahl.callback.ReposNotifyCallback, 0, 0, 0, 0, 0, 0, 0, 0, 0, 0, 0, 0, 0, 0,0.0,0.0,0.0,0.0,0.0,0.0,0.0,0.0,0.0,0.0,0.0,0.0,0.0,8,subversion\bindings\javahl\src\org\apache\subversion\javahl\callback\ReposNotifyCallback.java,0,0,0,0
org.apache.subversion.javahl.callback.StatusCallback, 0, 0, 0, 0, 0, 0, 0, 0, 0, 0, 0, 0, 0, 0,0.0,0.0,0.0,0.0,0.0,0.0,0.0,0.0,0.0,0.0,0.0,0.0,0.0,8,subversion\bindings\javahl\src\org\apache\subversion\javahl\callback\StatusCallback.java,0,0,0,0
org.apache.subversion.javahl.callback.UserPasswordCallback, 0, 0, 0, 0, 0, 0, 0, 0, 0, 0, 0, 0, 0, 0,0.0,0.0,0.0,0.0,0.0,0.0,0.0,0.0,0.0,0.0,0.0,0.0,0.0,8,subversion\bindings\javahl\src\org\apache\subversion\javahl\callback\UserPasswordCallback.java,0,0,0,0
org.apache.subversion.javahl.types.ChangePath, 0, 0, 0, 0, 0, 0, 0, 0, 0, 0, 0, 0, 0, 0,0.0,0.0,0.0,0.0,0.0,0.0,0.0,0.0,0.0,0.0,0.0,0.0,0.0,58,subversion\bindings\javahl\src\org\apache\subversion\javahl\types\ChangePath.java,0,0,0,0
org.apache.subversion.javahl.types.Checksum, 0, 0, 0, 0, 0, 0, 0, 0, 0, 0, 0, 0, 0, 0,0.0,0.0,0.0,1.0,0.0,0.0,0.0,1.0,0.0,0.0,0.0,0.0,0.0,24,subversion\bindings\javahl\src\org\apache\subversion\javahl\types\Checksum.java,0,0,0,0
org.apache.subversion.javahl.types.ConflictVersion, 0, 0, 0, 0, 0, 0, 0, 0, 0, 0, 0, 0, 0, 0,0.0,0.0,0.0,0.0,0.0,0.0,0.0,0.5,0.0,0.0,0.0,0.0,0.0,42,subversion\bindings\javahl\src\org\apache\subversion\javahl\types\ConflictVersion.java,0,0,0,0
org.apache.subversion.javahl.types.CopySource, 0, 0, 0, 0, 0, 0, 0, 0, 0, 0, 0, 0, 0, 0,0.0,0.0,0.0,0.0,0.0,0.0,0.0,0.0,0.0,0.0,0.0,0.0,0.0,25,subversion\bindings\javahl\src\org\apache\subversion\javahl\types\CopySource.java,0,0,0,0
org.apache.subversion.javahl.types.DiffOptions, 0, 0, 0, 0, 0, 0, 0, 0, 0, 0, 0, 0, 0, 0,0.0,0.0,0.0,0.0,0.0,0.0,0.0,0.0,0.0,0.0,0.0,0.0,0.0,46,subversion\bindings\javahl\src\org\apache\subversion\javahl\types\DiffOptions.java,0,0,0,0
org.apache.subversion.javahl.types.DirEntry, 0, 0, 0, 0, 0, 0, 0, 0, 0, 0, 0, 0, 0, 0,0.0,0.0,0.0,0.0,0.0,0.0,0.0,0.0,0.0,0.0,0.0,0.0,0.0,79,subversion\bindings\javahl\src\org\apache\subversion\javahl\types\DirEntry.java,0,0,0,0
org.apache.subversion.javahl.types.Info, 0, 0, 0, 1, 0, 0, 0, 1, 0, 0, 0, 0, 0, 2,0.0,0.0,0.0,0.25,0.0,0.0,0.0,0.5,0.0,0.0,0.0,0.0,0.0,162,subversion\bindings\javahl\src\org\apache\subversion\javahl\types\Info.java,0,0,0,0
org.apache.subversion.javahl.types.Lock, 0, 0, 0, 0, 0, 0, 0, 0, 0, 0, 0, 0, 0, 0,0.0,0.0,0.0,0.75,0.0,0.0,0.0,0.75,0.0,0.0,0.0,0.0,0.0,50,subversion\bindings\javahl\src\org\apache\subversion\javahl\types\Lock.java,0,0,0,0
org.apache.subversion.javahl.types.LogDate, 0, 0, 0, 0, 0, 0, 0, 0, 0, 0, 0, 0, 0, 0,0.0,0.0,0.0,0.0,0.0,0.0,0.0,0.0,0.0,0.0,0.0,0.0,0.0,67,subversion\bindings\javahl\src\org\apache\subversion\javahl\types\LogDate.java,0,0,0,0
org.apache.subversion.javahl.types.Property, 0, 0, 0, 0, 0, 0, 0, 0, 0, 0, 0, 0, 0, 0,0.0,0.0,0.0,0.0,0.0,0.0,0.0,0.0,0.0,0.0,0.0,0.0,0.0,15,subversion\bindings\javahl\src\org\apache\subversion\javahl\types\Property.java,0,0,0,0
org.apache.subversion.javahl.types.Revision, 0, 0, 0, 0, 0, 0, 0, 0, 0, 0, 0, 0, 0, 0,0.0,0.0,0.0,0.16666666666666666,0.0,0.0,0.0,0.16666666666666666,0.0,0.0,0.0,0.0,0.0,129,subversion\bindings\javahl\src\org\apache\subversion\javahl\types\Revision.java,0,0,0,0
org.apache.subversion.javahl.types.RevisionRange, 0, 0, 0, 0, 0, 0, 0, 0, 0, 0, 0, 0, 0, 0,0.0,0.0,0.0,0.0,0.0,0.0,0.0,0.0,0.0,0.0,0.0,0.0,0.0,128,subversion\bindings\javahl\src\org\apache\subversion\javahl\types\RevisionRange.java,0,0,0,0
org.apache.subversion.javahl.types.Status, 0, 0, 0, 1, 0, 0, 0, 1, 0, 0, 0, 0, 0, 2,0.0,0.0,0.0,0.3333333333333333,0.0,0.0,0.0,0.3333333333333333,0.0,0.0,0.0,0.0,0.0,255,subversion\bindings\javahl\src\org\apache\subversion\javahl\types\Status.java,0,0,0,0
org.tigris.subversion.javahl.BlameCallback, 0, 0, 0, 0, 0, 0, 0, 0, 0, 0, 0, 0, 0, 0,0.0,0.0,0.0,0.0,0.0,0.0,0.0,0.0,0.0,0.0,0.0,0.0,0.0,255,subversion\bindings\javahl\src\org\tigris\subversion\javahl\BlameCallback.java,0,0,0,0
org.tigris.subversion.javahl.BlameCallback2, 0, 0, 0, 0, 0, 0, 0, 0, 0, 0, 0, 0, 0, 0,0.0,0.0,0.0,0.0,0.0,0.0,0.0,0.0,0.0,0.0,0.0,0.0,0.0,255,subversion\bindings\javahl\src\org\tigris\subversion\javahl\BlameCallback2.java,0,0,0,0
org.tigris.subversion.javahl.ChangePath, 0, 0, 0, 0, 0, 0, 0, 0, 0, 0, 0, 0, 0, 0,0.0,0.0,0.0,0.0,0.0,0.0,0.0,0.0,0.0,0.0,0.0,0.0,0.0,53,subversion\bindings\javahl\src\org\tigris\subversion\javahl\ChangePath.java,0,0,0,0
org.tigris.subversion.javahl.ChangelistCallback, 0, 0, 0, 0, 0, 0, 0, 0, 0, 0, 0, 0, 0, 0,0.0,0.0,0.0,0.0,0.0,0.0,0.0,0.0,0.0,0.0,0.0,0.0,0.0,53,subversion\bindings\javahl\src\org\tigris\subversion\javahl\ChangelistCallback.java,0,0,0,0
org.tigris.subversion.javahl.ClientException, 0, 0, 0, 0, 0, 0, 0, 0, 0, 0, 0, 0, 0, 0,0.0,0.0,0.0,0.0,0.0,0.0,0.0,0.0,0.0,0.0,0.0,0.0,0.0,23,subversion\bindings\javahl\src\org\tigris\subversion\javahl\ClientException.java,0,0,0,0
org.tigris.subversion.javahl.CommitItem, 0, 0, 0, 0, 0, 0, 0, 0, 0, 0, 0, 0, 0, 0,0.0,0.0,0.0,0.0,0.0,0.0,0.0,0.0,0.0,0.0,0.0,0.0,0.0,52,subversion\bindings\javahl\src\org\tigris\subversion\javahl\CommitItem.java,0,0,0,0
org.tigris.subversion.javahl.CommitItemStateFlags, 0, 0, 0, 0, 0, 0, 0, 0, 0, 0, 0, 0, 0, 0,0.0,0.0,0.0,0.0,0.0,0.0,0.0,0.0,0.0,0.0,0.0,0.0,0.0,52,subversion\bindings\javahl\src\org\tigris\subversion\javahl\CommitItemStateFlags.java,0,0,0,0
org.tigris.subversion.javahl.CommitMessage, 0, 0, 0, 0, 0, 0, 0, 0, 0, 0, 0, 0, 0, 0,0.0,0.0,0.0,0.0,0.0,0.0,0.0,0.0,0.0,0.0,0.0,0.0,0.0,52,subversion\bindings\javahl\src\org\tigris\subversion\javahl\CommitMessage.java,0,0,0,0
org.tigris.subversion.javahl.ConflictDescriptor, 0, 0, 0, 0, 0, 0, 0, 1, 0, 0, 0, 0, 0, 1,0.0,0.0,0.0,0.25,0.0,0.0,0.0,0.5,0.0,0.0,0.0,0.0,0.0,137,subversion\bindings\javahl\src\org\tigris\subversion\javahl\ConflictDescriptor.java,0,0,0,0
org.tigris.subversion.javahl.ConflictResolverCallback, 0, 0, 0, 0, 0, 0, 0, 0, 0, 0, 0, 0, 0, 0,0.0,0.0,0.0,0.0,0.0,0.0,0.0,0.0,0.0,0.0,0.0,0.0,0.0,137,subversion\bindings\javahl\src\org\tigris\subversion\javahl\ConflictResolverCallback.java,0,0,0,0
org.tigris.subversion.javahl.ConflictResult, 0, 0, 0, 0, 0, 0, 0, 0, 0, 0, 0, 0, 0, 0,0.0,0.0,0.0,0.0,0.0,0.0,0.0,0.0,0.0,0.0,0.0,0.0,0.0,31,subversion\bindings\javahl\src\org\tigris\subversion\javahl\ConflictResult.java,0,0,0,0
org.tigris.subversion.javahl.ConflictVersion, 0, 0, 0, 0, 0, 0, 0, 0, 0, 0, 0, 0, 0, 0,0.0,0.0,0.0,0.0,0.0,0.0,0.0,0.3333333333333333,0.0,0.0,0.0,0.0,0.0,40,subversion\bindings\javahl\src\org\tigris\subversion\javahl\ConflictVersion.java,0,0,0,0
org.tigris.subversion.javahl.CopySource, 0, 0, 0, 0, 0, 0, 0, 0, 0, 0, 0, 0, 0, 0,0.0,0.0,0.0,0.0,0.0,0.0,0.0,0.0,0.0,0.0,0.0,0.0,0.0,31,subversion\bindings\javahl\src\org\tigris\subversion\javahl\CopySource.java,0,0,0,0
org.tigris.subversion.javahl.Depth, 0, 0, 0, 0, 0, 0, 0, 0, 0, 0, 0, 0, 0, 0,0.0,0.0,0.0,0.0,0.0,0.0,0.0,0.0,0.0,0.0,0.0,0.0,0.0,73,subversion\bindings\javahl\src\org\tigris\subversion\javahl\Depth.java,0,0,0,0
org.tigris.subversion.javahl.DiffSummary, 0, 0, 0, 0, 0, 0, 0, 0, 0, 0, 0, 0, 0, 0,0.0,0.0,0.0,0.0,0.0,0.0,0.0,0.0,0.0,0.0,0.0,0.0,0.0,100,subversion\bindings\javahl\src\org\tigris\subversion\javahl\DiffSummary.java,0,0,0,0
org.tigris.subversion.javahl.DiffSummaryReceiver, 0, 0, 0, 0, 0, 0, 0, 0, 0, 0, 0, 0, 0, 0,0.0,0.0,0.0,0.0,0.0,0.0,0.0,0.0,0.0,0.0,0.0,0.0,0.0,100,subversion\bindings\javahl\src\org\tigris\subversion\javahl\DiffSummaryReceiver.java,0,0,0,0
org.tigris.subversion.javahl.DirEntry, 0, 0, 0, 0, 0, 0, 0, 0, 0, 0, 0, 0, 0, 0,0.0,0.0,0.0,0.0,0.0,0.0,0.0,0.0,0.0,0.0,0.0,0.0,0.0,88,subversion\bindings\javahl\src\org\tigris\subversion\javahl\DirEntry.java,0,0,0,0
org.tigris.subversion.javahl.ErrorCodes, 0, 0, 0, 1, 0, 0, 0, 0, 0, 0, 0, 0, 0, 1,0.0,0.0,0.0,0.0,0.0,0.0,0.0,0.0,0.0,0.0,0.0,0.0,0.0,231,subversion\bindings\javahl\src\org\tigris\subversion\javahl\ErrorCodes.java,0,0,0,0
org.tigris.subversion.javahl.Info, 0, 0, 0, 0, 0, 0, 0, 1, 0, 0, 0, 0, 0, 1,0.0,0.0,0.0,0.5,0.0,0.0,0.0,0.5,0.0,0.0,0.0,0.0,0.0,142,subversion\bindings\javahl\src\org\tigris\subversion\javahl\Info.java,0,0,0,0
org.tigris.subversion.javahl.InfoCallback, 0, 0, 0, 0, 0, 0, 0, 0, 0, 0, 0, 0, 0, 0,0.0,0.0,0.0,0.0,0.0,0.0,0.0,0.0,0.0,0.0,0.0,0.0,0.0,142,subversion\bindings\javahl\src\org\tigris\subversion\javahl\InfoCallback.java,0,0,0,0
org.tigris.subversion.javahl.InputInterface, 0, 0, 0, 0, 0, 0, 0, 0, 0, 0, 0, 0, 0, 0,0.0,0.0,0.0,0.0,0.0,0.0,0.0,0.0,0.0,0.0,0.0,0.0,0.0,142,subversion\bindings\javahl\src\org\tigris\subversion\javahl\InputInterface.java,0,0,0,0
org.tigris.subversion.javahl.ListCallback, 0, 0, 0, 0, 0, 0, 0, 0, 0, 0, 0, 0, 0, 0,0.0,0.0,0.0,0.0,0.0,0.0,0.0,0.0,0.0,0.0,0.0,0.0,0.0,142,subversion\bindings\javahl\src\org\tigris\subversion\javahl\ListCallback.java,0,0,0,0
org.tigris.subversion.javahl.Lock, 0, 0, 0, 0, 0, 0, 0, 0, 0, 0, 0, 0, 0, 0,0.0,0.0,0.0,0.25,0.0,0.0,0.0,0.5,0.0,0.0,0.0,0.0,0.0,59,subversion\bindings\javahl\src\org\tigris\subversion\javahl\Lock.java,0,0,0,0
org.tigris.subversion.javahl.LockStatus, 0, 0, 0, 0, 0, 0, 0, 0, 0, 0, 0, 0, 0, 0,0.0,0.0,0.0,0.0,0.0,0.0,0.0,0.0,0.0,0.0,0.0,0.0,0.0,59,subversion\bindings\javahl\src\org\tigris\subversion\javahl\LockStatus.java,0,0,0,0
org.tigris.subversion.javahl.LogDate, 0, 0, 0, 0, 0, 0, 0, 0, 0, 0, 0, 0, 0, 0,0.0,0.0,0.0,0.0,0.0,0.0,0.0,0.0,0.0,0.0,0.0,0.0,0.0,67,subversion\bindings\javahl\src\org\tigris\subversion\javahl\LogDate.java,0,0,0,0
org.tigris.subversion.javahl.LogMessage, 0, 0, 0, 0, 0, 0, 0, 0, 0, 0, 0, 0, 0, 0,0.0,0.0,0.0,0.0,0.0,0.0,0.0,0.0,0.0,0.0,0.0,0.0,0.0,64,subversion\bindings\javahl\src\org\tigris\subversion\javahl\LogMessage.java,0,0,0,0
org.tigris.subversion.javahl.MergeinfoLogKind, 0, 0, 0, 0, 0, 0, 0, 0, 0, 0, 0, 0, 0, 0,0.0,0.0,0.0,0.0,0.0,0.0,0.0,0.0,0.0,0.0,0.0,0.0,0.0,64,subversion\bindings\javahl\src\org\tigris\subversion\javahl\MergeinfoLogKind.java,0,0,0,0
org.tigris.subversion.javahl.NodeKind, 0, 0, 0, 0, 0, 0, 0, 0, 0, 0, 0, 0, 0, 0,0.0,0.0,0.0,0.1111111111111111,0.0,0.0,0.0,0.4444444444444444,0.0,0.0,0.0,0.0,0.0,33,subversion\bindings\javahl\src\org\tigris\subversion\javahl\NodeKind.java,0,0,0,0
org.tigris.subversion.javahl.Notify, 0, 0, 0, 0, 0, 0, 0, 0, 0, 0, 0, 0, 0, 0,0.0,0.0,0.0,0.0,0.0,0.0,0.0,0.0,0.0,0.0,0.0,0.0,0.0,33,subversion\bindings\javahl\src\org\tigris\subversion\javahl\Notify.java,0,0,0,0
org.tigris.subversion.javahl.Notify2, 0, 0, 0, 0, 0, 0, 0, 0, 0, 0, 0, 0, 0, 0,0.0,0.0,0.0,0.0,0.0,0.0,0.0,0.0,0.0,0.0,0.0,0.0,0.0,33,subversion\bindings\javahl\src\org\tigris\subversion\javahl\Notify2.java,0,0,0,0
org.tigris.subversion.javahl.NotifyAction, 0, 0, 0, 0, 0, 0, 0, 0, 0, 0, 0, 0, 0, 0,0.0,0.0,0.0,0.0,0.0,0.0,0.0,0.0,0.0,0.0,0.0,0.0,0.0,33,subversion\bindings\javahl\src\org\tigris\subversion\javahl\NotifyAction.java,0,0,0,0
org.tigris.subversion.javahl.NotifyInformation, 0, 0, 0, 0, 0, 0, 0, 1, 0, 0, 0, 0, 0, 1,0.0,0.0,0.0,0.0,0.0,0.0,0.0,0.0,0.0,0.0,0.0,0.0,0.0,138,subversion\bindings\javahl\src\org\tigris\subversion\javahl\NotifyInformation.java,0,0,0,0
org.tigris.subversion.javahl.NotifyStatus, 0, 0, 0, 0, 0, 0, 0, 0, 0, 0, 0, 0, 0, 0,0.0,0.0,0.0,0.0,0.0,0.0,0.0,0.0,0.0,0.0,0.0,0.0,0.0,138,subversion\bindings\javahl\src\org\tigris\subversion\javahl\NotifyStatus.java,0,0,0,0
org.tigris.subversion.javahl.Operation, 0, 0, 0, 0, 0, 0, 0, 0, 0, 0, 0, 0, 0, 0,0.0,0.0,0.0,0.0,0.0,0.0,0.0,0.0,0.0,0.0,0.0,0.0,0.0,7,subversion\bindings\javahl\src\org\tigris\subversion\javahl\Operation.java,0,0,0,0
org.tigris.subversion.javahl.OutputInterface, 0, 0, 0, 0, 0, 0, 0, 0, 0, 0, 0, 0, 0, 0,0.0,0.0,0.0,0.0,0.0,0.0,0.0,0.0,0.0,0.0,0.0,0.0,0.0,7,subversion\bindings\javahl\src\org\tigris\subversion\javahl\OutputInterface.java,0,0,0,0
org.tigris.subversion.javahl.Path, 0, 0, 0, 0, 0, 0, 0, 0, 0, 0, 0, 0, 0, 0,0.0,0.0,0.0,0.0,0.0,0.0,0.0,0.0,0.0,0.0,0.0,0.0,0.0,31,subversion\bindings\javahl\src\org\tigris\subversion\javahl\Path.java,0,0,0,0
org.tigris.subversion.javahl.ProgressEvent, 0, 0, 0, 0, 0, 0, 0, 0, 0, 0, 0, 0, 0, 0,0.0,0.0,0.0,0.0,0.0,0.0,0.0,0.0,0.0,0.0,0.0,0.0,0.0,23,subversion\bindings\javahl\src\org\tigris\subversion\javahl\ProgressEvent.java,0,0,0,0
org.tigris.subversion.javahl.ProgressListener, 0, 0, 0, 0, 0, 0, 0, 0, 0, 0, 0, 0, 0, 0,0.0,0.0,0.0,0.0,0.0,0.0,0.0,0.0,0.0,0.0,0.0,0.0,0.0,23,subversion\bindings\javahl\src\org\tigris\subversion\javahl\ProgressListener.java,0,0,0,0
org.tigris.subversion.javahl.PromptUserPassword, 0, 0, 0, 0, 0, 0, 0, 0, 0, 0, 0, 0, 0, 0,0.0,0.0,0.0,0.0,0.0,0.0,0.0,0.0,0.0,0.0,0.0,0.0,0.0,23,subversion\bindings\javahl\src\org\tigris\subversion\javahl\PromptUserPassword.java,0,0,0,0
org.tigris.subversion.javahl.PromptUserPassword2, 0, 0, 0, 0, 0, 0, 0, 0, 0, 0, 0, 0, 0, 0,0.0,0.0,0.0,0.0,0.0,0.0,0.0,0.0,0.0,0.0,0.0,0.0,0.0,23,subversion\bindings\javahl\src\org\tigris\subversion\javahl\PromptUserPassword2.java,0,0,0,0
org.tigris.subversion.javahl.PromptUserPassword3, 0, 0, 0, 0, 0, 0, 0, 0, 0, 0, 0, 0, 0, 0,0.0,0.0,0.0,0.0,0.0,0.0,0.0,0.0,0.0,0.0,0.0,0.0,0.0,23,subversion\bindings\javahl\src\org\tigris\subversion\javahl\PromptUserPassword3.java,0,0,0,0
org.tigris.subversion.javahl.PropertyData, 0, 0, 0, 0, 0, 0, 0, 0, 0, 0, 0, 0, 0, 0,0.0,0.0,0.0,0.0,0.0,0.0,0.0,0.0,0.0,0.0,0.0,0.0,0.0,70,subversion\bindings\javahl\src\org\tigris\subversion\javahl\PropertyData.java,0,0,0,0
org.tigris.subversion.javahl.ProplistCallback, 0, 0, 0, 0, 0, 0, 0, 0, 0, 0, 0, 0, 0, 0,0.0,0.0,0.0,0.0,0.0,0.0,0.0,0.0,0.0,0.0,0.0,0.0,0.0,70,subversion\bindings\javahl\src\org\tigris\subversion\javahl\ProplistCallback.java,0,0,0,0
org.tigris.subversion.javahl.Revision, 0, 0, 0, 0, 0, 0, 0, 0, 0, 0, 0, 0, 0, 0,0.0,0.0,0.0,0.125,0.0,0.0,0.0,0.125,0.0,0.0,0.0,0.0,0.0,197,subversion\bindings\javahl\src\org\tigris\subversion\javahl\Revision.java,0,0,0,0
org.tigris.subversion.javahl.RevisionKind, 0, 0, 0, 0, 0, 0, 0, 0, 0, 0, 0, 0, 0, 0,0.0,0.0,0.0,0.0,0.0,0.0,0.0,0.0,0.0,0.0,0.0,0.0,0.0,197,subversion\bindings\javahl\src\org\tigris\subversion\javahl\RevisionKind.java,0,0,0,0
org.tigris.subversion.javahl.RevisionRange, 0, 0, 0, 0, 0, 0, 0, 0, 0, 0, 0, 0, 0, 0,0.0,0.0,0.0,0.0,0.0,0.0,0.0,0.3333333333333333,0.0,0.0,0.0,0.0,0.0,138,subversion\bindings\javahl\src\org\tigris\subversion\javahl\RevisionRange.java,0,0,0,0
org.tigris.subversion.javahl.RunTests, 0, 0, 0, 0, 0, 0, 0, 0, 0, 0, 0, 0, 0, 0,0.0,0.0,0.0,0.0,0.0,0.0,0.0,0.0,0.0,0.0,0.0,0.0,0.0,85,subversion\bindings\javahl\tests\org\tigris\subversion\javahl\RunTests.java,0,0,0,0
org.tigris.subversion.javahl.SVNAdmin, 0, 0, 0, 0, 0, 0, 0, 0, 0, 0, 0, 0, 0, 0,0.0,0.0,0.0,0.0,0.0,0.09090909090909091,0.0,0.0,0.0,0.0,0.0,0.0,0.0,391,subversion\bindings\javahl\src\org\tigris\subversion\javahl\SVNAdmin.java,0,0,0,0
org.tigris.subversion.javahl.SVNAdminTests, 0, 0, 0, 0, 0, 0, 0, 0, 0, 0, 0, 0, 0, 0,0.0,0.0,0.0,0.0,0.0,0.0,0.0,0.0,0.0,0.0,0.0,0.0,0.0,71,subversion\bindings\javahl\tests\org\tigris\subversion\javahl\SVNAdminTests.java,0,0,0,0
org.tigris.subversion.javahl.SVNClientLogLevel, 0, 0, 0, 0, 0, 0, 0, 0, 0, 0, 0, 0, 0, 0,0.0,0.0,0.0,0.0,0.0,0.0,0.0,0.0,0.0,0.0,0.0,0.0,0.0,71,subversion\bindings\javahl\src\org\tigris\subversion\javahl\SVNClientLogLevel.java,0,0,0,0
org.tigris.subversion.javahl.SVNInputStream, 0, 0, 0, 0, 0, 0, 0, 0, 0, 0, 0, 0, 0, 0,0.0,0.0,0.0,0.0,0.0,0.0,0.0,0.0,0.0,0.0,0.0,0.0,0.0,37,subversion\bindings\javahl\src\org\tigris\subversion\javahl\SVNInputStream.java,0,0,0,0
org.tigris.subversion.javahl.SVNOutputStream, 0, 0, 0, 0, 0, 0, 0, 0, 0, 0, 0, 0, 0, 0,0.0,0.0,0.0,0.0,0.0,0.0,0.0,0.0,0.0,0.0,0.0,0.0,0.0,36,subversion\bindings\javahl\src\org\tigris\subversion\javahl\SVNOutputStream.java,0,0,0,0
org.tigris.subversion.javahl.ScheduleKind, 0, 0, 0, 0, 0, 0, 0, 0, 0, 0, 0, 0, 0, 0,0.0,0.0,0.0,0.0,0.0,0.0,0.0,0.0,0.0,0.0,0.0,0.0,0.0,36,subversion\bindings\javahl\src\org\tigris\subversion\javahl\ScheduleKind.java,0,0,0,0
org.tigris.subversion.javahl.Status, 0, 0, 0, 1, 0, 0, 0, 1, 0, 0, 0, 0, 0, 2,0.0,0.0,0.0,0.2222222222222222,0.0,0.0,0.0,0.4444444444444444,0.0,0.0,0.0,0.0,0.0,453,subversion\bindings\javahl\src\org\tigris\subversion\javahl\Status.java,0,0,0,0
org.tigris.subversion.javahl.StatusCallback, 0, 0, 0, 0, 0, 0, 0, 0, 0, 0, 0, 0, 0, 0,0.0,0.0,0.0,0.0,0.0,0.0,0.0,0.0,0.0,0.0,0.0,0.0,0.0,453,subversion\bindings\javahl\src\org\tigris\subversion\javahl\StatusCallback.java,0,0,0,0
org.tigris.subversion.javahl.StatusKind, 0, 0, 0, 0, 0, 0, 0, 0, 0, 0, 0, 0, 0, 0,0.0,0.0,0.0,0.0,0.0,0.0,0.0,0.0,0.0,0.0,0.0,0.0,0.0,453,subversion\bindings\javahl\src\org\tigris\subversion\javahl\StatusKind.java,0,0,0,0
org.tigris.subversion.javahl.SubversionException, 0, 0, 0, 0, 0, 0, 0, 0, 0, 0, 0, 0, 0, 0,0.0,0.0,0.0,0.0,0.0,0.5,0.0,0.0,0.0,0.0,0.0,0.0,0.0,12,subversion\bindings\javahl\src\org\tigris\subversion\javahl\SubversionException.java,0,0,0,0
org.tigris.subversion.javahl.Version, 0, 0, 0, 0, 0, 0, 0, 0, 0, 0, 0, 0, 0, 0,0.0,0.0,0.0,0.0,0.0,0.0,0.0,0.0,0.0,0.0,0.0,0.0,0.0,32,subversion\bindings\javahl\src\org\tigris\subversion\javahl\Version.java,0,0,0,0
