ClassName,AntiSingleton,Blob,ClassDataShouldBePrivate,ComplexClass,LargeClass,LazyClass,LongMethod,LongParameterList,MessageChains,RefusedParentBequest,SpaghettiCode,SpeculativeGenerality,SwissArmyKnife,NumOfAPs,AntiSingleton,Blob,ClassDataShouldBePrivate,ComplexClass,LargeClass,LazyClass,LongMethod,LongParameterList,MessageChains,RefusedParentBequest,SpaghettiCode,SpeculativeGenerality,SwissArmyKnife,LOC,name,deleted,added,changed,all
org.apache.etch.bindings.c.compiler.IncludeTreeWalker, 0, 0, 0, 0, 0, 0, 0, 0, 0, 0, 0, 0, 0, 0,0.0,0.0,0.0,0.0,0.0,0.0,0.0,0.0,0.0,0.0,0.0,0.0,0.0,79,binding-c\compiler\src\main\java\org\apache\etch\bindings\c\compiler\IncludeTreeWalker.java,0,0,0,0
org.apache.etch.bindings.cpp.compiler.IncludeTreeWalker, 0, 0, 0, 0, 0, 0, 0, 0, 0, 0, 0, 0, 0, 0,0.0,0.0,0.0,0.0,0.0,0.0,0.0,0.0,0.0,0.0,0.0,0.0,0.0,79,binding-cpp\compiler\src\main\java\org\apache\etch\bindings\cpp\compiler\IncludeTreeWalker.java,0,0,0,0
org.apache.etch.bindings.go.compiler.CompilerVersion, 0, 0, 0, 0, 0, 0, 0, 0, 0, 0, 0, 0, 0, 0,0.0,0.0,0.0,0.0,0.0,0.0,0.0,0.0,0.0,0.0,0.0,0.0,0.0,79,binding-go\compiler\src\main\java\org\apache\etch\bindings\go\compiler\CompilerVersion.java,5,0,0,5
org.apache.etch.bindings.java.msg.ComboValidator, 0, 0, 0, 0, 0, 0, 0, 0, 0, 0, 0, 0, 0, 0,0.0,0.0,0.0,0.0,0.0,0.0,0.0,0.0,0.0,0.0,0.0,0.0,0.0,66,binding-java\runtime\src\main\java\org\apache\etch\bindings\java\msg\ComboValidator.java,0,0,0,0
org.apache.etch.bindings.java.msg.Field, 0, 0, 0, 0, 0, 1, 0, 0, 0, 0, 0, 0, 0, 1,0.043478260869565216,0.0,0.043478260869565216,0.08695652173913043,0.0,0.08695652173913043,0.0,0.08695652173913043,0.0,0.0,0.0,0.0,0.0,11,binding-java\runtime\src\main\java\org\apache\etch\bindings\java\msg\Field.java,0,0,0,0
org.apache.etch.bindings.java.msg.FieldMap, 0, 0, 0, 0, 0, 1, 0, 0, 0, 0, 0, 0, 0, 1,0.0,0.0,0.0,0.0,0.0,1.0,0.0,0.0,0.0,0.0,0.0,0.0,0.0,8,binding-java\runtime\src\main\java\org\apache\etch\bindings\java\msg\FieldMap.java,0,0,0,0
org.apache.etch.bindings.java.msg.IdName, 0, 0, 0, 0, 0, 0, 0, 0, 0, 0, 0, 0, 0, 0,0.0,0.0,0.0,0.07692307692307693,0.0,0.15384615384615385,0.0,0.0,0.0,0.0,0.0,0.0,0.0,44,binding-java\runtime\src\main\java\org\apache\etch\bindings\java\msg\IdName.java,0,0,0,0
org.apache.etch.bindings.java.msg.ImportExportHelper, 0, 0, 0, 0, 0, 0, 0, 0, 0, 0, 0, 0, 0, 0,0.0,0.0,0.0,0.0,0.0,0.0,0.0,0.0,0.0,0.0,0.0,0.0,0.0,44,binding-java\runtime\src\main\java\org\apache\etch\bindings\java\msg\ImportExportHelper.java,0,0,0,0
org.apache.etch.bindings.java.msg.Message, 0, 0, 0, 0, 0, 0, 0, 0, 0, 0, 0, 0, 0, 0,0.0,0.0,0.0,0.041666666666666664,0.0,0.041666666666666664,0.0,0.08333333333333333,0.0,0.0,0.0,0.0,0.0,47,binding-java\runtime\src\main\java\org\apache\etch\bindings\java\msg\Message.java,0,0,0,0
org.apache.etch.bindings.java.msg.TestComboValidator, 0, 0, 0, 0, 0, 0, 0, 0, 0, 0, 0, 0, 0, 0,0.0,0.0,0.0,0.0,0.0,0.0,0.0,0.0,0.0,0.0,0.0,0.0,0.0,95,binding-java\runtime\src\test\java\org\apache\etch\bindings\java\msg\TestComboValidator.java,0,0,0,0
org.apache.etch.bindings.java.msg.TestField, 0, 0, 0, 0, 0, 0, 0, 0, 0, 0, 0, 0, 0, 0,0.0,0.0,0.0,0.0,0.0,0.6666666666666666,0.0,0.0,0.0,0.0,0.0,0.0,0.0,29,binding-java\runtime\src\test\java\org\apache\etch\bindings\java\msg\TestField.java,0,0,0,0
org.apache.etch.bindings.java.msg.TestFieldMap, 0, 0, 0, 0, 0, 1, 0, 0, 0, 0, 0, 0, 0, 1,0.0,0.0,0.0,0.0,0.0,1.0,0.0,0.0,0.0,0.0,0.0,0.0,0.0,10,binding-java\runtime\src\test\java\org\apache\etch\bindings\java\msg\TestFieldMap.java,0,0,0,0
org.apache.etch.bindings.java.msg.TestIdName, 0, 0, 0, 0, 0, 0, 0, 0, 0, 0, 0, 0, 0, 0,0.0,0.0,0.0,0.0,0.0,0.5,0.0,0.0,0.0,0.0,0.0,0.0,0.0,65,binding-java\runtime\src\test\java\org\apache\etch\bindings\java\msg\TestIdName.java,0,0,0,0
org.apache.etch.bindings.java.msg.TestIdNameMap, 0, 0, 0, 0, 0, 0, 0, 0, 0, 0, 0, 0, 0, 0,0.0,0.0,0.0,0.0,0.0,0.0,0.0,0.0,0.0,0.0,0.0,0.0,0.0,133,binding-java\runtime\src\test\java\org\apache\etch\bindings\java\msg\TestIdNameMap.java,0,0,0,0
org.apache.etch.bindings.java.msg.TestMessage, 0, 0, 0, 0, 0, 0, 0, 0, 0, 0, 0, 0, 0, 0,0.0,0.0,0.0,0.0,0.0,0.5,0.0,0.0,0.0,0.0,0.0,0.0,0.0,102,binding-java\runtime\src\test\java\org\apache\etch\bindings\java\msg\TestMessage.java,0,0,0,0
org.apache.etch.bindings.java.msg.TestType, 0, 0, 0, 0, 0, 0, 0, 0, 0, 0, 0, 0, 0, 0,0.0,0.0,0.0,0.0,0.0,0.5,0.0,0.0,0.0,0.0,0.0,0.0,0.0,56,binding-java\runtime\src\test\java\org\apache\etch\bindings\java\msg\TestType.java,0,0,0,0
org.apache.etch.bindings.java.msg.TestTypeMap, 0, 0, 0, 0, 0, 1, 0, 0, 0, 0, 0, 0, 0, 1,0.0,0.0,0.0,0.0,0.0,1.0,0.0,0.0,0.0,0.0,0.0,0.0,0.0,10,binding-java\runtime\src\test\java\org\apache\etch\bindings\java\msg\TestTypeMap.java,0,0,0,0
org.apache.etch.bindings.java.msg.TypeMap, 0, 0, 0, 0, 0, 1, 0, 0, 0, 0, 0, 0, 0, 1,0.5,0.0,0.5,0.0,0.0,0.5,0.0,0.0,0.0,0.0,0.0,0.0,0.0,8,binding-java\runtime\src\main\java\org\apache\etch\bindings\java\msg\TypeMap.java,0,0,0,0
org.apache.etch.bindings.java.msg.Validator, 0, 0, 0, 0, 0, 0, 0, 0, 0, 0, 0, 0, 0, 0,0.0,0.0,0.0,0.0,0.0,0.0,0.0,0.0,0.0,0.0,0.0,0.0,0.0,8,binding-java\runtime\src\main\java\org\apache\etch\bindings\java\msg\Validator.java,0,0,0,0
org.apache.etch.bindings.java.msg.ValueFactory, 0, 0, 0, 0, 0, 0, 0, 0, 0, 0, 0, 0, 0, 0,0.0,0.0,0.0,0.0,0.0,0.0,0.0,0.0,0.0,0.0,0.0,0.0,0.0,8,binding-java\runtime\src\main\java\org\apache\etch\bindings\java\msg\ValueFactory.java,0,0,0,0
org.apache.etch.bindings.java.support.AuthExceptionSerializer, 0, 0, 0, 0, 0, 0, 0, 0, 0, 0, 0, 0, 0, 0,0.0,0.0,0.0,0.0,0.0,0.3333333333333333,0.0,0.0,0.0,0.0,0.0,0.0,0.0,31,binding-java\runtime\src\main\java\org\apache\etch\bindings\java\support\AuthExceptionSerializer.java,0,0,0,0
org.apache.etch.bindings.java.support.DefaultServerFactory, 0, 0, 0, 0, 0, 0, 0, 0, 0, 0, 0, 0, 0, 0,0.0,0.0,0.0,0.0,0.0,0.0,0.0,0.0,0.0,0.0,0.0,0.0,0.0,54,binding-java\runtime\src\main\java\org\apache\etch\bindings\java\support\DefaultServerFactory.java,0,0,0,0
org.apache.etch.bindings.java.support.DeliveryService, 0, 0, 0, 0, 0, 0, 0, 0, 0, 0, 0, 0, 0, 0,0.0,0.0,0.0,0.0,0.0,0.0,0.0,0.0,0.0,0.0,0.0,0.0,0.0,54,binding-java\runtime\src\main\java\org\apache\etch\bindings\java\support\DeliveryService.java,0,0,0,0
org.apache.etch.bindings.java.support.DummyValueFactory, 0, 0, 0, 0, 0, 0, 0, 0, 0, 0, 0, 0, 0, 0,0.0,0.0,0.0,0.0,0.0,0.5,0.0,0.0,0.0,0.0,0.0,0.0,0.0,81,binding-java\runtime\src\main\java\org\apache\etch\bindings\java\support\DummyValueFactory.java,0,0,0,0
org.apache.etch.bindings.java.support.FreePool, 0, 0, 0, 0, 0, 0, 0, 0, 0, 0, 0, 0, 0, 0,0.0,0.0,0.0,0.0,0.0,0.0,0.0,0.0,0.0,0.0,0.0,0.0,0.0,45,binding-java\runtime\src\main\java\org\apache\etch\bindings\java\support\FreePool.java,0,0,0,0
org.apache.etch.bindings.java.support.Mailbox, 0, 0, 0, 0, 0, 0, 0, 0, 0, 0, 0, 0, 0, 0,0.0,0.0,0.0,0.0,0.0,0.0,0.0,0.0,0.0,0.0,0.0,0.0,0.0,45,binding-java\runtime\src\main\java\org\apache\etch\bindings\java\support\Mailbox.java,0,0,0,0
org.apache.etch.bindings.java.support.NullPool, 0, 0, 0, 0, 0, 1, 0, 0, 0, 0, 0, 0, 0, 1,0.0,0.0,0.0,0.0,0.0,0.0,0.0,0.0,0.0,0.0,0.0,0.0,0.0,14,binding-java\runtime\src\main\java\org\apache\etch\bindings\java\support\NullPool.java,0,0,0,0
org.apache.etch.bindings.java.support.ObjSession, 0, 0, 0, 0, 0, 0, 0, 0, 0, 0, 0, 0, 0, 0,0.0,0.0,0.0,0.0,0.0,0.0,0.0,0.0,0.0,0.0,0.0,0.0,0.0,14,binding-java\runtime\src\main\java\org\apache\etch\bindings\java\support\ObjSession.java,0,0,0,0
org.apache.etch.bindings.java.support.Pool, 0, 0, 0, 0, 0, 0, 0, 0, 0, 0, 0, 0, 0, 0,0.0,0.0,0.0,0.0,0.0,0.0,0.0,0.0,0.0,0.0,0.0,0.0,0.0,14,binding-java\runtime\src\main\java\org\apache\etch\bindings\java\support\Pool.java,0,0,0,0
org.apache.etch.bindings.java.support.QueuedPool, 0, 0, 0, 0, 0, 0, 0, 0, 0, 0, 0, 0, 0, 0,0.0,0.0,0.0,0.0,0.0,0.0,0.0,0.5,0.0,0.0,0.0,0.0,0.0,25,binding-java\runtime\src\main\java\org\apache\etch\bindings\java\support\QueuedPool.java,0,0,0,0
org.apache.etch.bindings.java.support.RemoteBase, 0, 0, 0, 0, 0, 0, 0, 0, 0, 0, 0, 0, 0, 0,0.0,0.0,0.0,0.0,0.0,0.0,0.0,0.0,0.0,0.0,0.0,0.0,0.0,79,binding-java\runtime\src\main\java\org\apache\etch\bindings\java\support\RemoteBase.java,0,0,0,0
org.apache.etch.bindings.java.support.RuntimeExceptionSerializer, 0, 0, 0, 0, 0, 0, 0, 0, 0, 0, 0, 0, 0, 0,0.0,0.0,0.3333333333333333,0.0,0.0,0.3333333333333333,0.0,0.0,0.0,0.0,0.0,0.0,0.0,30,binding-java\runtime\src\main\java\org\apache\etch\bindings\java\support\RuntimeExceptionSerializer.java,0,0,0,0
org.apache.etch.bindings.java.support.ServerFactory, 0, 0, 0, 0, 0, 0, 0, 0, 0, 0, 0, 0, 0, 0,0.0,0.0,0.0,0.0,0.0,0.0,0.0,0.0,0.0,0.0,0.0,0.0,0.0,30,binding-java\runtime\src\main\java\org\apache\etch\bindings\java\support\ServerFactory.java,0,0,0,0
org.apache.etch.bindings.java.support.StubBase, 0, 0, 0, 0, 0, 0, 0, 0, 0, 0, 0, 0, 0, 0,0.0,0.0,0.0,0.0,0.0,0.5,0.0,0.0,0.0,0.0,0.0,0.0,0.0,114,binding-java\runtime\src\main\java\org\apache\etch\bindings\java\support\StubBase.java,0,0,0,0
org.apache.etch.bindings.java.support.StubHelper, 0, 0, 0, 0, 0, 1, 0, 0, 0, 0, 0, 0, 0, 1,0.0,0.0,0.0,0.0,0.0,0.3333333333333333,0.0,0.0,0.0,0.0,0.0,0.0,0.0,8,binding-java\runtime\src\main\java\org\apache\etch\bindings\java\support\StubHelper.java,0,0,0,0
org.apache.etch.bindings.java.support.TestAuthExceptionSerializer, 0, 0, 0, 0, 0, 1, 0, 0, 0, 0, 0, 0, 0, 1,0.0,0.0,0.0,0.0,0.0,0.0,0.0,0.0,0.0,0.0,0.0,0.0,0.0,8,binding-java\runtime\src\test\java\org\apache\etch\bindings\java\support\TestAuthExceptionSerializer.java,0,0,0,0
org.apache.etch.bindings.java.support.TestClass2TypeMap, 0, 0, 0, 0, 0, 1, 0, 0, 0, 0, 0, 0, 0, 1,0.0,0.0,0.0,0.0,0.0,0.0,0.0,0.0,0.0,0.0,0.0,0.0,0.0,8,binding-java\runtime\src\test\java\org\apache\etch\bindings\java\support\TestClass2TypeMap.java,0,0,0,0
org.apache.etch.bindings.java.support.TestDefaultServerFactory, 0, 0, 0, 0, 0, 1, 0, 0, 0, 0, 0, 0, 0, 1,0.0,0.0,0.0,0.0,0.0,0.0,0.0,0.0,0.0,0.0,0.0,0.0,0.0,8,binding-java\runtime\src\test\java\org\apache\etch\bindings\java\support\TestDefaultServerFactory.java,0,0,0,0
org.apache.etch.bindings.java.support.TestDefaultValueFactory, 0, 0, 0, 0, 0, 0, 0, 0, 0, 0, 0, 0, 0, 0,0.0,0.0,0.0,0.0,0.0,0.25,0.0,0.0,0.0,0.0,0.0,0.0,0.0,296,binding-java\runtime\src\test\java\org\apache\etch\bindings\java\support\TestDefaultValueFactory.java,0,0,0,0
org.apache.etch.bindings.java.support.TestDummyValueFactory, 0, 0, 0, 0, 0, 1, 0, 0, 0, 0, 0, 0, 0, 1,0.0,0.0,0.0,0.0,0.0,0.0,0.0,0.0,0.0,0.0,0.0,0.0,0.0,8,binding-java\runtime\src\test\java\org\apache\etch\bindings\java\support\TestDummyValueFactory.java,0,0,0,0
org.apache.etch.bindings.java.support.TestFreePool, 0, 0, 0, 0, 0, 0, 0, 0, 0, 0, 0, 0, 0, 0,0.0,0.0,0.0,0.0,0.0,0.0,0.0,0.0,0.0,0.0,0.0,0.0,0.0,211,binding-java\runtime\src\test\java\org\apache\etch\bindings\java\support\TestFreePool.java,0,0,0,0
org.apache.etch.bindings.java.support.TestNullPool, 0, 0, 0, 0, 0, 1, 0, 0, 0, 0, 0, 0, 0, 1,0.0,0.0,0.0,0.0,0.0,0.0,0.0,0.0,0.0,0.0,0.0,0.0,0.0,8,binding-java\runtime\src\test\java\org\apache\etch\bindings\java\support\TestNullPool.java,0,0,0,0
org.apache.etch.bindings.java.support.TestQueuedPool, 0, 0, 0, 0, 0, 1, 0, 0, 0, 0, 0, 0, 0, 1,0.0,0.0,0.0,0.0,0.0,0.0,0.0,0.0,0.0,0.0,0.0,0.0,0.0,8,binding-java\runtime\src\test\java\org\apache\etch\bindings\java\support\TestQueuedPool.java,0,0,0,0
org.apache.etch.bindings.java.support.TestRemoteBase, 0, 0, 0, 0, 0, 0, 0, 0, 0, 0, 0, 0, 0, 0,0.0,0.0,0.0,0.0,0.0,0.0,0.0,0.0,0.0,0.0,0.0,0.0,0.0,330,binding-java\runtime\src\test\java\org\apache\etch\bindings\java\support\TestRemoteBase.java,0,0,0,0
org.apache.etch.bindings.java.support.TestRuntimeExceptionSerializer, 0, 0, 0, 0, 0, 1, 0, 0, 0, 0, 0, 0, 0, 1,0.0,0.0,0.0,0.0,0.0,0.0,0.0,0.0,0.0,0.0,0.0,0.0,0.0,8,binding-java\runtime\src\test\java\org\apache\etch\bindings\java\support\TestRuntimeExceptionSerializer.java,0,0,0,0
org.apache.etch.bindings.java.support.TestStubBase, 0, 0, 0, 0, 0, 0, 0, 0, 0, 0, 0, 0, 0, 0,0.0,0.0,0.0,0.0,0.0,0.0,0.0,0.0,0.0,0.0,0.0,0.0,0.0,260,binding-java\runtime\src\test\java\org\apache\etch\bindings\java\support\TestStubBase.java,0,0,0,0
org.apache.etch.bindings.java.support.TestStubHelper, 0, 0, 0, 0, 0, 1, 0, 0, 0, 0, 0, 0, 0, 1,0.0,0.0,0.0,0.0,0.0,0.0,0.0,0.0,0.0,0.0,0.0,0.0,0.0,8,binding-java\runtime\src\test\java\org\apache\etch\bindings\java\support\TestStubHelper.java,0,0,0,0
org.apache.etch.bindings.java.support.TestTransportFactory, 0, 0, 0, 0, 0, 1, 0, 0, 0, 0, 0, 0, 0, 1,0.0,0.0,0.0,0.0,0.0,0.0,0.0,0.0,0.0,0.0,0.0,0.0,0.0,8,binding-java\runtime\src\test\java\org\apache\etch\bindings\java\support\TestTransportFactory.java,0,0,0,0
org.apache.etch.bindings.java.support.TestTransportHelper, 0, 0, 0, 0, 0, 1, 0, 0, 0, 0, 0, 0, 0, 1,0.0,0.0,0.0,0.0,0.0,0.0,0.0,0.0,0.0,0.0,0.0,0.0,0.0,8,binding-java\runtime\src\test\java\org\apache\etch\bindings\java\support\TestTransportHelper.java,0,0,0,0
org.apache.etch.bindings.java.support.TestTypeValidator, 0, 0, 0, 0, 0, 0, 0, 0, 0, 0, 0, 0, 0, 0,0.0,0.0,0.0,0.0,0.0,0.0,0.0,1.0,0.0,0.0,0.0,0.0,0.0,67,binding-java\runtime\src\test\java\org\apache\etch\bindings\java\support\TestTypeValidator.java,0,0,0,0
org.apache.etch.bindings.java.support.TestValidator_RuntimeException, 0, 0, 0, 0, 0, 1, 0, 0, 0, 0, 0, 0, 0, 1,0.0,0.0,0.0,0.0,0.0,0.0,0.0,0.0,0.0,0.0,0.0,0.0,0.0,8,binding-java\runtime\src\test\java\org\apache\etch\bindings\java\support\TestValidator_RuntimeException.java,0,0,0,0
org.apache.etch.bindings.java.support.TestValidator_StructValue, 0, 0, 0, 0, 0, 0, 0, 0, 0, 0, 0, 0, 0, 0,0.0,0.0,0.0,0.0,0.0,0.0,0.0,0.5,0.0,0.0,0.0,0.0,0.0,165,binding-java\runtime\src\test\java\org\apache\etch\bindings\java\support\TestValidator_StructValue.java,0,0,0,0
org.apache.etch.bindings.java.support.TestValidator_boolean, 0, 0, 0, 0, 0, 0, 0, 0, 0, 0, 0, 0, 0, 0,0.0,0.0,0.0,0.0,0.0,0.0,0.0,0.5,0.0,0.0,0.0,0.0,0.0,161,binding-java\runtime\src\test\java\org\apache\etch\bindings\java\support\TestValidator_boolean.java,0,0,0,0
org.apache.etch.bindings.java.support.TestValidator_byte, 0, 0, 0, 0, 0, 0, 0, 0, 0, 0, 0, 0, 0, 0,0.0,0.0,0.0,0.0,0.0,0.0,0.0,0.5,0.0,0.0,0.0,0.0,0.0,188,binding-java\runtime\src\test\java\org\apache\etch\bindings\java\support\TestValidator_byte.java,0,0,0,0
org.apache.etch.bindings.java.support.TestValidator_custom, 0, 0, 0, 0, 0, 1, 0, 0, 0, 0, 0, 0, 0, 1,0.0,0.0,0.0,0.0,0.0,0.0,0.0,0.0,0.0,0.0,0.0,0.0,0.0,8,binding-java\runtime\src\test\java\org\apache\etch\bindings\java\support\TestValidator_custom.java,0,0,0,0
org.apache.etch.bindings.java.support.TestValidator_double, 0, 0, 0, 0, 0, 0, 0, 0, 0, 0, 0, 0, 0, 0,0.0,0.0,0.0,0.0,0.0,0.0,0.0,0.5,0.0,0.0,0.0,0.0,0.0,163,binding-java\runtime\src\test\java\org\apache\etch\bindings\java\support\TestValidator_double.java,0,0,0,0
org.apache.etch.bindings.java.support.TestValidator_float, 0, 0, 0, 0, 0, 0, 0, 0, 0, 0, 0, 0, 0, 0,0.0,0.0,0.0,0.0,0.0,0.0,0.0,0.5,0.0,0.0,0.0,0.0,0.0,163,binding-java\runtime\src\test\java\org\apache\etch\bindings\java\support\TestValidator_float.java,0,0,0,0
org.apache.etch.bindings.java.support.TestValidator_int, 0, 0, 0, 0, 0, 0, 0, 0, 0, 0, 0, 0, 0, 0,0.0,0.0,0.0,0.0,0.0,0.0,0.0,0.5,0.0,0.0,0.0,0.0,0.0,206,binding-java\runtime\src\test\java\org\apache\etch\bindings\java\support\TestValidator_int.java,0,0,0,0
org.apache.etch.bindings.java.support.TestValidator_long, 0, 0, 0, 0, 0, 0, 0, 0, 0, 0, 0, 0, 0, 0,0.0,0.0,0.0,0.0,0.0,0.0,0.0,0.5,0.0,0.0,0.0,0.0,0.0,209,binding-java\runtime\src\test\java\org\apache\etch\bindings\java\support\TestValidator_long.java,0,0,0,0
org.apache.etch.bindings.java.support.TestValidator_object, 0, 0, 0, 0, 0, 0, 0, 0, 0, 0, 0, 0, 0, 0,0.0,0.0,0.0,0.0,0.0,0.0,0.0,0.5,0.0,0.0,0.0,0.0,0.0,226,binding-java\runtime\src\test\java\org\apache\etch\bindings\java\support\TestValidator_object.java,0,0,0,0
org.apache.etch.bindings.java.support.TestValidator_short, 0, 0, 0, 0, 0, 0, 0, 0, 0, 0, 0, 0, 0, 0,0.0,0.0,0.0,0.0,0.0,0.0,0.0,0.5,0.0,0.0,0.0,0.0,0.0,199,binding-java\runtime\src\test\java\org\apache\etch\bindings\java\support\TestValidator_short.java,0,0,0,0
org.apache.etch.bindings.java.support.TestValidator_string, 0, 0, 0, 0, 0, 0, 0, 0, 0, 0, 0, 0, 0, 0,0.0,0.0,0.0,0.0,0.0,0.0,0.0,0.5,0.0,0.0,0.0,0.0,0.0,161,binding-java\runtime\src\test\java\org\apache\etch\bindings\java\support\TestValidator_string.java,0,0,0,0
org.apache.etch.bindings.java.support.TestValidator_void, 0, 0, 0, 0, 0, 0, 0, 0, 0, 0, 0, 0, 0, 0,0.0,0.0,0.0,0.0,0.0,0.0,0.0,0.0,0.0,0.0,0.0,0.0,0.0,34,binding-java\runtime\src\test\java\org\apache\etch\bindings\java\support\TestValidator_void.java,0,0,0,0
org.apache.etch.bindings.java.support.TestValidators, 0, 0, 0, 0, 0, 0, 0, 0, 0, 0, 0, 0, 0, 0,0.0,0.0,0.0,0.0,0.0,0.0,0.0,0.0,0.0,0.0,0.0,0.0,0.0,143,binding-java\runtime\src\test\java\org\apache\etch\bindings\java\support\TestValidators.java,0,0,0,0
org.apache.etch.bindings.java.support.Test_Etch_AuthException, 0, 0, 0, 0, 0, 1, 0, 0, 0, 0, 0, 0, 0, 1,0.0,0.0,0.0,0.0,0.0,0.0,0.0,0.0,0.0,0.0,0.0,0.0,0.0,8,binding-java\runtime\src\test\java\org\apache\etch\bindings\java\support\Test_Etch_AuthException.java,0,0,0,0
org.apache.etch.bindings.java.support.Test_Etch_RuntimeException, 0, 0, 0, 0, 0, 1, 0, 0, 0, 0, 0, 0, 0, 1,0.0,0.0,0.0,0.0,0.0,0.0,0.0,0.0,0.0,0.0,0.0,0.0,0.0,8,binding-java\runtime\src\test\java\org\apache\etch\bindings\java\support\Test_Etch_RuntimeException.java,0,0,0,0
org.apache.etch.bindings.java.support.TransportHelper, 0, 0, 0, 0, 0, 0, 0, 0, 0, 0, 0, 0, 0, 0,0.0,0.0,0.0,0.0,0.0,0.0,0.0,0.0,0.0,0.0,0.0,0.0,0.0,19,binding-java\runtime\src\main\java\org\apache\etch\bindings\java\support\TransportHelper.java,0,0,0,0
org.apache.etch.bindings.java.support.TypeValidator, 0, 0, 0, 0, 0, 0, 0, 1, 0, 0, 0, 0, 0, 1,0.0,0.0,0.0,0.0,0.0,0.0,0.0,0.0,0.0,0.0,0.0,0.0,0.0,62,binding-java\runtime\src\main\java\org\apache\etch\bindings\java\support\TypeValidator.java,0,0,0,0
org.apache.etch.bindings.java.support.Validator_RuntimeException, 0, 0, 0, 0, 0, 0, 0, 0, 0, 0, 0, 0, 0, 0,1.0,0.0,1.0,0.0,0.0,0.0,0.0,0.0,0.0,0.0,0.0,0.0,0.0,27,binding-java\runtime\src\main\java\org\apache\etch\bindings\java\support\Validator_RuntimeException.java,0,0,0,0
org.apache.etch.bindings.java.support.Validator_StructValue, 0, 0, 0, 0, 0, 0, 0, 0, 0, 0, 0, 0, 0, 0,0.2,0.0,0.2,0.0,0.0,0.0,0.0,0.2,0.0,0.0,0.0,0.0,0.0,29,binding-java\runtime\src\main\java\org\apache\etch\bindings\java\support\Validator_StructValue.java,0,0,0,0
org.apache.etch.bindings.java.support.Validator_boolean, 0, 0, 0, 0, 0, 0, 0, 0, 0, 0, 0, 0, 0, 0,0.0,0.0,0.0,0.0,0.0,0.0,0.0,0.3333333333333333,0.0,0.0,0.0,0.0,0.0,22,binding-java\runtime\src\main\java\org\apache\etch\bindings\java\support\Validator_boolean.java,0,0,0,0
org.apache.etch.bindings.java.support.Validator_byte, 0, 0, 0, 0, 0, 0, 0, 0, 0, 0, 0, 0, 0, 0,0.0,0.0,0.0,0.0,0.0,0.0,0.0,0.5,0.0,0.0,0.0,0.0,0.0,57,binding-java\runtime\src\main\java\org\apache\etch\bindings\java\support\Validator_byte.java,0,0,0,0
org.apache.etch.bindings.java.support.Validator_double, 0, 0, 0, 0, 0, 0, 0, 0, 0, 0, 0, 0, 0, 0,0.0,0.0,0.0,0.0,0.0,0.0,0.0,0.5,0.0,0.0,0.0,0.0,0.0,22,binding-java\runtime\src\main\java\org\apache\etch\bindings\java\support\Validator_double.java,0,0,0,0
org.apache.etch.bindings.java.support.Validator_float, 0, 0, 0, 0, 0, 0, 0, 0, 0, 0, 0, 0, 0, 0,0.0,0.0,0.0,0.0,0.0,0.0,0.0,0.5,0.0,0.0,0.0,0.0,0.0,22,binding-java\runtime\src\main\java\org\apache\etch\bindings\java\support\Validator_float.java,0,0,0,0
org.apache.etch.bindings.java.support.Validator_int, 0, 0, 0, 0, 0, 0, 0, 0, 0, 0, 0, 0, 0, 0,0.1111111111111111,0.0,0.1111111111111111,0.0,0.0,0.0,0.0,0.2222222222222222,0.0,0.0,0.0,0.0,0.0,47,binding-java\runtime\src\main\java\org\apache\etch\bindings\java\support\Validator_int.java,0,0,0,0
org.apache.etch.bindings.java.support.Validator_long, 0, 0, 0, 0, 0, 0, 0, 0, 0, 0, 0, 0, 0, 0,0.14285714285714285,0.0,0.14285714285714285,0.0,0.0,0.0,0.0,0.2857142857142857,0.0,0.0,0.0,0.0,0.0,41,binding-java\runtime\src\main\java\org\apache\etch\bindings\java\support\Validator_long.java,0,0,0,0
org.apache.etch.bindings.java.support.Validator_object, 0, 0, 0, 0, 0, 0, 0, 0, 0, 0, 0, 0, 0, 0,0.0,0.0,0.0,0.0,0.0,0.0,0.0,0.3333333333333333,0.0,0.0,0.0,0.0,0.0,22,binding-java\runtime\src\main\java\org\apache\etch\bindings\java\support\Validator_object.java,0,0,0,0
org.apache.etch.bindings.java.support.Validator_short, 0, 0, 0, 0, 0, 0, 0, 0, 0, 0, 0, 0, 0, 0,0.0,0.0,0.0,0.0,0.0,0.0,0.0,0.5,0.0,0.0,0.0,0.0,0.0,52,binding-java\runtime\src\main\java\org\apache\etch\bindings\java\support\Validator_short.java,0,0,0,0
org.apache.etch.bindings.java.support.Validator_string, 0, 0, 0, 0, 0, 0, 0, 0, 0, 0, 0, 0, 0, 0,0.1111111111111111,0.0,0.1111111111111111,0.0,0.0,0.0,0.0,0.2222222222222222,0.0,0.0,0.0,0.0,0.0,22,binding-java\runtime\src\main\java\org\apache\etch\bindings\java\support\Validator_string.java,0,0,0,0
org.apache.etch.bindings.java.support.Validator_void, 0, 0, 0, 0, 0, 0, 0, 0, 0, 0, 0, 0, 0, 0,0.5,0.0,0.5,0.0,0.0,0.0,0.0,0.0,0.0,0.0,0.0,0.0,0.0,29,binding-java\runtime\src\main\java\org\apache\etch\bindings\java\support\Validator_void.java,0,0,0,0
org.apache.etch.bindings.java.support._Etch_AuthException, 0, 0, 0, 0, 0, 0, 0, 0, 0, 0, 0, 0, 0, 0,0.0,0.0,0.3333333333333333,0.0,0.0,0.0,0.0,0.0,0.0,0.0,0.0,0.0,0.0,11,binding-java\runtime\src\main\java\org\apache\etch\bindings\java\support\_Etch_AuthException.java,0,0,0,0
org.apache.etch.bindings.java.support._Etch_RuntimeException, 0, 0, 1, 0, 0, 0, 0, 0, 0, 0, 0, 0, 0, 1,0.0,0.0,0.0,0.0,0.0,0.0,0.0,0.0,0.0,0.0,0.0,0.0,0.0,23,binding-java\runtime\src\main\java\org\apache\etch\bindings\java\support\_Etch_RuntimeException.java,0,0,0,0
org.apache.etch.bindings.java.transport.DefaultDeliveryService, 0, 0, 0, 0, 0, 0, 0, 0, 0, 0, 0, 0, 0, 0,0.0,0.0,0.0,0.0,0.0,0.25,0.0,0.0,0.0,0.0,0.0,0.0,0.0,144,binding-java\runtime\src\main\java\org\apache\etch\bindings\java\transport\DefaultDeliveryService.java,0,0,0,0
org.apache.etch.bindings.java.transport.MailboxManager, 0, 0, 0, 0, 0, 0, 0, 0, 0, 0, 0, 0, 0, 0,0.0,0.0,0.0,0.0,0.0,0.0,0.0,0.0,0.0,0.0,0.0,0.0,0.0,144,binding-java\runtime\src\main\java\org\apache\etch\bindings\java\transport\MailboxManager.java,0,0,0,0
org.apache.etch.bindings.java.transport.Messagizer, 0, 0, 0, 0, 0, 0, 0, 0, 0, 0, 0, 0, 0, 0,0.0,0.0,0.0,0.125,0.0,0.0,0.0,0.125,0.0,0.0,0.0,0.0,0.0,94,binding-java\runtime\src\main\java\org\apache\etch\bindings\java\transport\Messagizer.java,0,0,0,0
org.apache.etch.bindings.java.transport.PlainMailbox, 0, 0, 0, 0, 0, 0, 0, 0, 0, 0, 0, 0, 0, 0,0.0,0.0,0.0,0.3333333333333333,0.0,0.0,0.0,0.3333333333333333,0.0,0.0,0.0,0.0,0.0,143,binding-java\runtime\src\main\java\org\apache\etch\bindings\java\transport\PlainMailbox.java,0,0,0,0
org.apache.etch.bindings.java.transport.SessionMessage, 0, 0, 0, 0, 0, 0, 0, 0, 0, 0, 0, 0, 0, 0,0.0,0.0,0.0,0.0,0.0,0.0,0.0,0.0,0.0,0.0,0.0,0.0,0.0,143,binding-java\runtime\src\main\java\org\apache\etch\bindings\java\transport\SessionMessage.java,0,0,0,0
org.apache.etch.bindings.java.transport.TaggedDataInput, 0, 0, 0, 0, 0, 0, 0, 0, 0, 0, 0, 0, 0, 0,0.0,0.0,0.0,0.0,0.0,0.0,0.0,0.0,0.0,0.0,0.0,0.0,0.0,143,binding-java\runtime\src\main\java\org\apache\etch\bindings\java\transport\TaggedDataInput.java,0,0,0,0
org.apache.etch.bindings.java.transport.TaggedDataOutput, 0, 0, 0, 0, 0, 0, 0, 0, 0, 0, 0, 0, 0, 0,0.0,0.0,0.0,0.0,0.0,0.0,0.0,0.0,0.0,0.0,0.0,0.0,0.0,143,binding-java\runtime\src\main\java\org\apache\etch\bindings\java\transport\TaggedDataOutput.java,0,0,0,0
org.apache.etch.bindings.java.transport.Tcp2TransportFactory, 0, 0, 0, 0, 0, 0, 0, 0, 0, 0, 0, 0, 0, 0,0.0,0.0,0.0,0.25,0.0,0.0,0.0,0.0,0.0,0.0,0.0,0.0,0.0,100,binding-java\runtime\src\main\java\org\apache\etch\bindings\java\transport\Tcp2TransportFactory.java,0,0,0,0
org.apache.etch.bindings.java.transport.TcpTransportFactory, 0, 0, 0, 0, 0, 0, 0, 0, 0, 0, 0, 0, 0, 0,0.0,0.0,0.0,0.0,0.0,0.0,0.0,0.0,0.0,0.0,0.0,0.0,0.0,107,binding-java\runtime\src\main\java\org\apache\etch\bindings\java\transport\TcpTransportFactory.java,0,0,0,0
org.apache.etch.bindings.java.transport.TestArrayValue, 0, 0, 0, 0, 0, 0, 0, 0, 0, 0, 0, 0, 0, 0,0.0,0.0,0.0,0.0,0.0,0.0,0.0,0.0,0.0,0.0,0.0,0.0,0.0,65,binding-java\runtime\src\test\java\org\apache\etch\bindings\java\transport\TestArrayValue.java,0,0,0,0
org.apache.etch.bindings.java.transport.TestDefaultDeliveryService, 0, 0, 0, 0, 0, 1, 0, 0, 0, 0, 0, 0, 0, 1,0.0,0.0,0.0,0.0,0.0,0.0,0.0,0.0,0.0,0.0,0.0,0.0,0.0,8,binding-java\runtime\src\test\java\org\apache\etch\bindings\java\transport\TestDefaultDeliveryService.java,0,0,0,0
org.apache.etch.bindings.java.transport.TestFormatFactory, 0, 0, 0, 0, 0, 1, 0, 0, 0, 0, 0, 0, 0, 1,0.0,0.0,0.0,0.0,0.0,0.0,0.0,0.0,0.0,0.0,0.0,0.0,0.0,8,binding-java\runtime\src\test\java\org\apache\etch\bindings\java\transport\TestFormatFactory.java,0,0,0,0
org.apache.etch.bindings.java.transport.TestMessagizer, 0, 0, 0, 0, 0, 0, 0, 0, 0, 0, 0, 0, 0, 0,0.0,0.0,0.0,0.3333333333333333,0.0,0.0,0.0,0.0,0.0,0.0,0.0,0.0,0.0,319,binding-java\runtime\src\test\java\org\apache\etch\bindings\java\transport\TestMessagizer.java,0,0,0,0
org.apache.etch.bindings.java.transport.TestPlainMailbox, 0, 0, 0, 1, 0, 0, 0, 1, 0, 0, 0, 0, 0, 2,0.0,0.0,0.0,0.0,0.0,0.0,0.0,0.0,0.0,0.0,0.0,0.0,0.0,479,binding-java\runtime\src\test\java\org\apache\etch\bindings\java\transport\TestPlainMailbox.java,0,0,0,0
org.apache.etch.bindings.java.transport.TestPlainMailboxManager, 0, 0, 0, 0, 0, 0, 0, 0, 0, 0, 0, 0, 0, 0,0.0,0.0,0.0,0.0,0.0,0.0,0.0,0.0,0.0,0.0,0.0,0.0,0.0,472,binding-java\runtime\src\test\java\org\apache\etch\bindings\java\transport\TestPlainMailboxManager.java,0,0,0,0
org.apache.etch.bindings.java.transport.TestTcp2TransportFactory, 0, 0, 0, 0, 0, 1, 0, 0, 0, 0, 0, 0, 0, 1,0.0,0.0,0.0,0.0,0.0,0.0,0.0,0.0,0.0,0.0,0.0,0.0,0.0,7,binding-java\runtime\src\test\java\org\apache\etch\bindings\java\transport\TestTcp2TransportFactory.java,0,0,0,0
org.apache.etch.bindings.java.transport.TestTcpTransportFactory, 0, 0, 0, 0, 0, 1, 0, 0, 0, 0, 0, 0, 0, 1,0.0,0.0,0.0,0.0,0.0,0.0,0.0,0.0,0.0,0.0,0.0,0.0,0.0,8,binding-java\runtime\src\test\java\org\apache\etch\bindings\java\transport\TestTcpTransportFactory.java,0,0,0,0
org.apache.etch.bindings.java.transport.TestUnwantedMessage, 0, 0, 0, 0, 0, 1, 0, 0, 0, 0, 0, 0, 0, 1,0.0,0.0,0.0,0.0,0.0,0.0,0.0,0.0,0.0,0.0,0.0,0.0,0.0,8,binding-java\runtime\src\test\java\org\apache\etch\bindings\java\transport\TestUnwantedMessage.java,0,0,0,0
org.apache.etch.bindings.java.transport.TransportMessage, 0, 0, 0, 0, 0, 0, 0, 0, 0, 0, 0, 0, 0, 0,0.0,0.0,0.0,0.0,0.0,0.0,0.0,0.0,0.0,0.0,0.0,0.0,0.0,8,binding-java\runtime\src\main\java\org\apache\etch\bindings\java\transport\TransportMessage.java,0,0,0,0
org.apache.etch.bindings.java.transport.UdpTransportFactory, 0, 0, 0, 0, 0, 0, 0, 0, 0, 0, 0, 0, 0, 0,0.0,0.0,0.0,0.0,0.0,0.0,0.0,0.0,0.0,0.0,0.0,0.0,0.0,95,binding-java\runtime\src\main\java\org\apache\etch\bindings\java\transport\UdpTransportFactory.java,0,0,0,0
org.apache.etch.bindings.java.transport.UnwantedMessage, 0, 0, 0, 0, 0, 0, 0, 0, 0, 0, 0, 0, 0, 0,0.0,0.0,0.0,0.0,0.0,0.0,0.0,0.0,0.0,0.0,0.0,0.0,0.0,15,binding-java\runtime\src\main\java\org\apache\etch\bindings\java\transport\UnwantedMessage.java,0,0,0,0
org.apache.etch.bindings.java.transport.filters.AbstractMessageFilter, 0, 0, 0, 0, 0, 0, 0, 0, 0, 0, 0, 0, 0, 0,0.14285714285714285,0.0,0.14285714285714285,0.0,0.0,0.0,0.0,0.0,0.0,0.0,0.0,0.0,0.0,68,binding-java\runtime\src\main\java\org\apache\etch\bindings\java\transport\filters\AbstractMessageFilter.java,0,0,0,0
org.apache.etch.bindings.java.transport.filters.KeepAlive, 0, 0, 0, 0, 0, 0, 0, 0, 0, 0, 0, 0, 0, 0,0.0,0.0,0.0,0.0,0.0,0.14285714285714285,0.0,0.14285714285714285,0.0,0.0,0.0,0.0,0.0,189,binding-java\runtime\src\main\java\org\apache\etch\bindings\java\transport\filters\KeepAlive.java,0,0,0,0
org.apache.etch.bindings.java.transport.filters.Logger, 1, 0, 1, 0, 0, 0, 0, 0, 0, 0, 0, 0, 0, 2,0.0,0.0,0.0,0.0,0.0,0.0,0.0,0.0,0.0,0.0,0.0,0.0,0.0,128,binding-java\runtime\src\main\java\org\apache\etch\bindings\java\transport\filters\Logger.java,0,0,0,0
org.apache.etch.bindings.java.transport.filters.PwAuth, 0, 0, 0, 0, 0, 0, 0, 0, 0, 0, 0, 0, 0, 0,0.0,0.0,0.0,0.0,0.0,0.16666666666666666,0.0,0.0,0.0,0.0,0.0,0.0,0.0,224,binding-java\runtime\src\main\java\org\apache\etch\bindings\java\transport\filters\PwAuth.java,0,0,0,0
org.apache.etch.bindings.java.transport.filters.TestKeepAlive, 0, 0, 0, 0, 0, 0, 0, 0, 0, 0, 0, 0, 0, 0,0.0,0.0,0.0,0.0,0.0,0.16666666666666666,0.0,0.0,0.0,0.0,0.0,0.0,0.0,260,binding-java\runtime\src\test\java\org\apache\etch\bindings\java\transport\filters\TestKeepAlive.java,0,0,0,0
org.apache.etch.bindings.java.transport.filters.TestLogger, 0, 0, 0, 0, 0, 0, 0, 0, 0, 0, 0, 0, 0, 0,0.3333333333333333,0.0,0.3333333333333333,0.0,0.0,0.0,0.0,0.0,0.0,0.0,0.0,0.0,0.0,174,binding-java\runtime\src\test\java\org\apache\etch\bindings\java\transport\filters\TestLogger.java,0,0,0,0
org.apache.etch.bindings.java.transport.filters.TestPwAuth, 0, 0, 0, 0, 0, 0, 0, 0, 0, 0, 0, 0, 0, 0,0.0,0.0,0.0,0.0,0.0,0.25,0.0,0.0,0.0,0.0,0.0,0.0,0.0,340,binding-java\runtime\src\test\java\org\apache\etch\bindings\java\transport\filters\TestPwAuth.java,0,0,0,0
org.apache.etch.bindings.java.transport.fmt.TaggedData, 0, 0, 0, 0, 0, 0, 0, 0, 0, 0, 0, 0, 0, 0,0.0,0.0,0.0,0.0,0.0,0.0,0.0,0.0,0.0,0.0,0.0,0.0,0.0,96,binding-java\runtime\src\main\java\org\apache\etch\bindings\java\transport\fmt\TaggedData.java,0,0,0,0
org.apache.etch.bindings.java.transport.fmt.TypeCode, 0, 0, 0, 0, 0, 0, 0, 0, 0, 0, 0, 0, 0, 0,0.0,0.0,0.0,0.0,0.0,0.0,0.0,0.0,0.0,0.0,0.0,0.0,0.0,96,binding-java\runtime\src\main\java\org\apache\etch\bindings\java\transport\fmt\TypeCode.java,0,0,0,0
org.apache.etch.bindings.java.transport.fmt.binary.BinaryTaggedData, 0, 0, 0, 0, 0, 0, 0, 0, 0, 0, 0, 0, 0, 0,0.0,0.0,0.0,0.0,0.0,0.0,0.0,0.3333333333333333,0.0,0.0,0.0,0.0,0.0,139,binding-java\runtime\src\main\java\org\apache\etch\bindings\java\transport\fmt\binary\BinaryTaggedData.java,0,0,0,0
org.apache.etch.bindings.java.transport.fmt.binary.BinaryTaggedDataFormatFactory, 0, 0, 0, 0, 0, 0, 0, 0, 0, 0, 0, 0, 0, 0,0.0,0.0,0.0,0.0,0.0,0.0,0.0,0.0,0.0,0.0,0.0,0.0,0.0,12,binding-java\runtime\src\main\java\org\apache\etch\bindings\java\transport\fmt\binary\BinaryTaggedDataFormatFactory.java,0,0,0,0
org.apache.etch.bindings.java.transport.fmt.binary.BinaryTaggedDataInput, 0, 0, 0, 0, 0, 0, 0, 0, 0, 0, 0, 0, 0, 0,0.0,0.0,0.0,0.1111111111111111,0.0,0.1111111111111111,0.0,0.1111111111111111,0.0,0.0,0.0,0.0,0.0,241,binding-java\runtime\src\main\java\org\apache\etch\bindings\java\transport\fmt\binary\BinaryTaggedDataInput.java,0,0,0,0
org.apache.etch.bindings.java.transport.fmt.binary.TestBinaryTaggedDataInOut, 0, 0, 0, 0, 0, 0, 0, 1, 0, 0, 0, 0, 0, 1,0.0,0.0,0.0,0.06666666666666667,0.0,0.06666666666666667,0.0,0.0,0.0,0.0,0.0,0.0,0.0,556,binding-java\runtime\src\test\java\org\apache\etch\bindings\java\transport\fmt\binary\TestBinaryTaggedDataInOut.java,0,0,0,0
org.apache.etch.bindings.java.transport.fmt.binary.Validator_none, 0, 0, 0, 0, 0, 0, 0, 0, 0, 0, 0, 0, 0, 0,0.0,0.0,0.0,0.0,0.0,0.0,0.0,0.0,0.0,0.0,0.0,0.0,0.0,27,binding-java\runtime\src\main\java\org\apache\etch\bindings\java\transport\fmt\binary\Validator_none.java,0,0,0,0
org.apache.etch.bindings.java.transport.fmt.xml.XmlTaggedData, 0, 0, 0, 0, 0, 0, 0, 0, 0, 0, 0, 0, 0, 0,0.0,0.0,0.0,0.0,0.0,0.0,0.0,0.0,0.0,0.0,0.0,0.0,0.0,74,binding-java\runtime\src\main\java\org\apache\etch\bindings\java\transport\fmt\xml\XmlTaggedData.java,0,0,0,0
org.apache.etch.bindings.java.transport.fmt.xml.XmlTaggedDataInput, 0, 0, 0, 0, 0, 0, 0, 0, 0, 0, 0, 0, 0, 0,0.0,0.0,0.0,0.3333333333333333,0.0,0.0,0.0,0.0,0.0,0.0,0.0,0.0,0.0,168,binding-java\runtime\src\main\java\org\apache\etch\bindings\java\transport\fmt\xml\XmlTaggedDataInput.java,0,0,0,0
org.apache.etch.bindings.java.transport.fmt.xml.XmlTags, 0, 0, 0, 0, 0, 0, 0, 0, 0, 0, 0, 0, 0, 0,0.0,0.0,0.0,0.0,0.0,0.0,0.0,0.0,0.0,0.0,0.0,0.0,0.0,168,binding-java\runtime\src\main\java\org\apache\etch\bindings\java\transport\fmt\xml\XmlTags.java,0,0,0,0
org.apache.etch.bindings.java.util.DateSerializer, 0, 0, 0, 0, 0, 0, 0, 0, 0, 0, 0, 0, 0, 0,0.0,0.0,0.0,0.0,0.0,0.3333333333333333,0.0,0.0,0.0,0.0,0.0,0.0,0.0,30,binding-java\runtime\src\main\java\org\apache\etch\bindings\java\util\DateSerializer.java,0,0,0,0
org.apache.etch.bindings.java.util.ListSerializer, 0, 0, 0, 0, 0, 0, 0, 0, 0, 0, 0, 0, 0, 0,0.0,0.0,0.0,0.0,0.0,0.5,0.0,0.0,0.0,0.0,0.0,0.0,0.0,39,binding-java\runtime\src\main\java\org\apache\etch\bindings\java\util\ListSerializer.java,0,0,0,0
org.apache.etch.bindings.java.util.SetSerializer, 0, 0, 0, 0, 0, 0, 0, 0, 0, 0, 0, 0, 0, 0,0.0,0.0,0.0,0.0,0.0,0.5,0.0,0.0,0.0,0.0,0.0,0.0,0.0,39,binding-java\runtime\src\main\java\org\apache\etch\bindings\java\util\SetSerializer.java,0,0,0,0
org.apache.etch.bindings.java.util.TestDateSerializer, 0, 0, 0, 0, 0, 0, 0, 0, 0, 0, 0, 0, 0, 0,0.0,0.0,0.0,0.0,0.0,0.0,0.0,0.0,0.0,0.0,0.0,0.0,0.0,21,binding-java\runtime\src\test\java\org\apache\etch\bindings\java\util\TestDateSerializer.java,0,0,0,0
org.apache.etch.bindings.java.util.TestStrIntHashMapSerializer, 0, 0, 0, 0, 0, 0, 0, 0, 0, 0, 0, 0, 0, 0,0.0,0.0,0.0,0.0,0.0,0.0,0.0,0.0,0.0,0.0,0.0,0.0,0.0,72,binding-java\runtime\src\test\java\org\apache\etch\bindings\java\util\TestStrIntHashMapSerializer.java,0,0,0,0
org.apache.etch.bindings.java.util.TestStrStrHashMapSerializer, 0, 0, 0, 0, 0, 0, 0, 0, 0, 0, 0, 0, 0, 0,0.0,0.0,0.0,0.0,0.0,0.0,0.0,0.0,0.0,0.0,0.0,0.0,0.0,72,binding-java\runtime\src\test\java\org\apache\etch\bindings\java\util\TestStrStrHashMapSerializer.java,0,0,0,0
org.apache.etch.bindings.java.util.TestURLSerializer, 0, 0, 0, 0, 0, 0, 0, 0, 0, 0, 0, 0, 0, 0,0.0,0.0,0.0,0.0,0.0,0.0,0.0,0.0,0.0,0.0,0.0,0.0,0.0,21,binding-java\runtime\src\test\java\org\apache\etch\bindings\java\util\TestURLSerializer.java,0,0,0,0
org.apache.etch.bindings.java.util.URLSerializer, 0, 0, 0, 0, 0, 0, 0, 0, 0, 0, 0, 0, 0, 0,0.0,0.0,0.0,0.0,0.0,0.3333333333333333,0.0,0.0,0.0,0.0,0.0,0.0,0.0,30,binding-java\runtime\src\main\java\org\apache\etch\bindings\java\util\URLSerializer.java,0,0,0,0
org.apache.etch.bindings.python.compiler.CompilerVersion, 0, 0, 0, 0, 0, 0, 0, 0, 0, 0, 0, 0, 0, 0,0.0,0.0,0.0,0.0,0.0,0.0,0.0,0.0,0.0,0.0,0.0,0.0,0.0,30,binding-python\compiler\src\main\java\org\apache\etch\bindings\python\compiler\CompilerVersion.java,0,0,0,0
org.apache.etch.bindings.xml.compiler.CompilerVersion, 0, 0, 0, 0, 0, 0, 0, 0, 0, 0, 0, 0, 0, 0,0.0,0.0,0.0,0.0,0.0,0.0,0.0,0.0,0.0,0.0,0.0,0.0,0.0,30,binding-xml\compiler\src\main\java\org\apache\etch\bindings\xml\compiler\CompilerVersion.java,5,0,0,5
org.apache.etch.compiler.AbstractLogHandler, 0, 0, 0, 0, 0, 0, 0, 0, 0, 0, 0, 0, 0, 0,0.0,0.0,0.3333333333333333,0.0,0.0,0.0,0.0,0.0,0.0,0.0,0.0,0.0,0.0,127,compiler\src\main\java\org\apache\etch\compiler\AbstractLogHandler.java,0,0,0,0
org.apache.etch.compiler.CmdLineOptions, 1, 0, 1, 0, 0, 0, 0, 0, 0, 0, 0, 0, 0, 2,0.0,0.0,0.5,0.0,0.0,0.0,0.0,0.0,0.0,0.0,0.0,0.0,0.0,60,compiler\src\main\java\org\apache\etch\compiler\CmdLineOptions.java,0,0,0,0
org.apache.etch.compiler.ConsoleLogHandler, 0, 0, 0, 0, 0, 0, 0, 0, 0, 0, 0, 0, 0, 0,0.0,0.0,0.0,0.0,0.0,0.0,0.0,0.0,0.0,0.0,0.0,0.0,0.0,79,compiler\src\main\java\org\apache\etch\compiler\ConsoleLogHandler.java,0,0,0,0
org.apache.etch.compiler.EtchMain, 0, 0, 1, 0, 0, 0, 0, 0, 0, 0, 0, 0, 0, 1,0.25,0.0,0.25,0.0,0.0,0.0,0.0,0.25,0.0,0.0,0.0,0.0,0.0,174,compiler\src\main\java\org\apache\etch\compiler\EtchMain.java,0,0,0,0
org.apache.etch.compiler.ListLogHandler, 0, 0, 1, 0, 0, 0, 0, 0, 0, 0, 0, 0, 0, 1,0.0,0.0,0.0,0.0,0.0,0.0,0.0,0.0,0.0,0.0,0.0,0.0,0.0,9,compiler\src\main\java\org\apache\etch\compiler\ListLogHandler.java,0,0,0,0
org.apache.etch.compiler.LogHandler, 0, 0, 0, 0, 0, 0, 0, 0, 0, 0, 0, 0, 0, 0,0.0,0.0,0.0,0.0,0.0,0.0,0.0,0.0,0.0,0.0,0.0,0.0,0.0,9,compiler\src\main\java\org\apache\etch\compiler\LogHandler.java,0,0,0,0
org.apache.etch.compiler.NullCompiler, 0, 0, 0, 0, 0, 0, 0, 0, 0, 0, 0, 0, 0, 0,0.0,0.0,0.0,0.0,0.0,0.0,0.0,0.0,0.0,0.0,0.0,0.0,0.0,99,compiler\src\main\java\org\apache\etch\compiler\NullCompiler.java,0,0,0,0
org.apache.etch.compiler.NullOutput, 0, 0, 0, 0, 0, 0, 0, 0, 0, 0, 0, 0, 0, 0,0.0,0.0,0.0,0.0,0.0,0.0,0.0,0.0,0.0,0.0,0.0,0.0,0.0,24,compiler\src\main\java\org\apache\etch\compiler\NullOutput.java,0,0,0,0
org.apache.etch.compiler.Output, 0, 0, 0, 0, 0, 0, 0, 0, 0, 0, 0, 0, 0, 0,0.0,0.0,0.0,0.0,0.0,0.0,0.0,0.0,0.0,0.0,0.0,0.0,0.0,24,compiler\src\main\java\org\apache\etch\compiler\Output.java,0,0,0,0
org.apache.etch.compiler.StackInputStream, 1, 0, 0, 0, 0, 0, 0, 0, 0, 0, 0, 0, 0, 1,0.0,0.0,0.0,0.0,0.0,0.0,0.0,0.0,0.0,0.0,0.0,0.0,0.0,56,compiler\src\main\java\org\apache\etch\compiler\StackInputStream.java,0,0,0,0
org.apache.etch.compiler.TestEtchMain, 0, 0, 0, 0, 0, 0, 0, 0, 0, 0, 0, 0, 0, 0,0.0,0.0,1.0,0.0,0.0,0.0,0.0,0.0,0.0,0.0,0.0,0.0,0.0,237,compiler\src\test\java\org\apache\etch\compiler\TestEtchMain.java,0,0,0,0
org.apache.etch.compiler.Version, 0, 0, 0, 0, 0, 0, 0, 0, 0, 0, 0, 0, 0, 0,0.0,0.0,0.0,0.0,0.0,0.0,0.0,0.0,0.0,0.0,0.0,0.0,0.0,237,compiler\src\main\java\org\apache\etch\compiler\Version.java,0,0,1,2
org.apache.etch.compiler.ast.AbstractTreeWalker, 0, 0, 0, 0, 0, 0, 0, 0, 0, 0, 0, 0, 0, 0,0.0,0.0,0.0,0.0,0.0,0.0,0.0,0.0,0.0,0.0,0.0,0.0,0.0,66,compiler\src\main\java\org\apache\etch\compiler\ast\AbstractTreeWalker.java,0,0,0,0
org.apache.etch.compiler.ast.Builtin, 0, 0, 0, 0, 0, 0, 0, 0, 0, 0, 0, 0, 0, 0,0.0,0.0,0.0,0.0,0.0,0.0,0.0,0.0,0.0,0.0,0.0,0.0,0.0,57,compiler\src\main\java\org\apache\etch\compiler\ast\Builtin.java,0,0,0,0
org.apache.etch.compiler.ast.Item, 0, 0, 0, 0, 0, 0, 0, 0, 0, 0, 0, 0, 0, 0,0.0,0.0,0.0,0.0,0.0,0.0,0.0,0.0,0.0,0.0,0.0,0.0,0.0,42,compiler\src\main\java\org\apache\etch\compiler\ast\Item.java,0,0,0,0
org.apache.etch.compiler.ast.MsgDirHelper, 0, 0, 0, 0, 0, 1, 0, 0, 0, 0, 0, 0, 0, 1,0.0,0.0,0.0,0.0,0.0,0.0,0.0,0.0,0.0,0.0,0.0,0.0,0.0,13,compiler\src\main\java\org\apache\etch\compiler\ast\MsgDirHelper.java,0,0,0,0
org.apache.etch.compiler.ast.Name, 0, 0, 0, 0, 0, 0, 0, 0, 0, 0, 0, 0, 0, 0,0.0,0.0,0.0,0.0,0.0,0.0,0.0,0.07692307692307693,0.0,0.0,0.0,0.0,0.0,18,compiler\src\main\java\org\apache\etch\compiler\ast\Name.java,0,0,0,0
org.apache.etch.compiler.ast.Opt, 0, 0, 0, 0, 0, 0, 0, 0, 0, 0, 0, 0, 0, 0,0.0,0.0,0.0,0.0,0.0,0.0,0.0,0.14285714285714285,0.0,0.0,0.0,0.0,0.0,35,compiler\src\main\java\org\apache\etch\compiler\ast\Opt.java,0,0,0,0
org.apache.etch.compiler.ast.OptList, 0, 0, 0, 0, 0, 0, 0, 0, 0, 0, 0, 0, 0, 0,0.0,0.0,0.0,0.0,0.0,0.0,0.0,0.0,0.0,0.0,0.0,0.0,0.0,35,compiler\src\main\java\org\apache\etch\compiler\ast\OptList.java,0,0,0,0
org.apache.etch.compiler.ast.Parameter, 0, 0, 0, 0, 0, 0, 0, 0, 0, 0, 0, 0, 0, 0,0.0,0.0,0.0,0.0,0.0,0.0,0.0,0.2,0.0,0.0,0.0,0.0,0.0,50,compiler\src\main\java\org\apache\etch\compiler\ast\Parameter.java,0,0,0,0
org.apache.etch.compiler.ast.Thrown, 0, 0, 0, 0, 0, 0, 0, 0, 0, 0, 0, 0, 0, 0,0.0,0.0,0.0,0.0,0.0,0.0,0.0,0.0,0.0,0.0,0.0,0.0,0.0,52,compiler\src\main\java\org\apache\etch\compiler\ast\Thrown.java,0,0,0,0
org.apache.etch.compiler.ast.TreeWalker, 0, 0, 0, 0, 0, 0, 0, 0, 0, 0, 0, 0, 0, 0,0.0,0.0,0.0,0.0,0.0,0.0,0.0,0.0,0.0,0.0,0.0,0.0,0.0,52,compiler\src\main\java\org\apache\etch\compiler\ast\TreeWalker.java,0,0,0,0
org.apache.etch.compiler.opt.AsyncReceiver, 0, 0, 0, 0, 0, 0, 0, 0, 0, 0, 0, 0, 0, 0,0.0,0.0,0.0,0.0,0.0,0.0,0.0,0.0,0.0,0.0,0.0,0.0,0.0,47,compiler\src\main\java\org\apache\etch\compiler\opt\AsyncReceiver.java,0,0,0,0
org.apache.etch.compiler.opt.Authorize, 0, 0, 0, 0, 0, 0, 0, 1, 0, 0, 0, 0, 0, 1,0.0,0.0,0.0,0.0,0.0,0.0,0.0,0.0,0.0,0.0,0.0,0.0,0.0,472,compiler\src\main\java\org\apache\etch\compiler\opt\Authorize.java,0,0,0,0
org.apache.etch.compiler.opt.Direction, 0, 0, 0, 0, 0, 0, 0, 0, 0, 0, 0, 0, 0, 0,0.0,0.0,0.0,0.0,0.0,0.0,0.0,0.0,0.0,0.0,0.0,0.0,0.0,38,compiler\src\main\java\org\apache\etch\compiler\opt\Direction.java,0,0,0,0
org.apache.etch.compiler.opt.Extern, 0, 0, 0, 0, 0, 0, 0, 0, 0, 0, 0, 0, 0, 0,0.0,0.0,0.0,0.0,0.0,0.0,0.0,0.0,0.0,0.0,0.0,0.0,0.0,72,compiler\src\main\java\org\apache\etch\compiler\opt\Extern.java,0,0,0,0
org.apache.etch.compiler.opt.Oneway, 0, 0, 0, 0, 0, 0, 0, 0, 0, 0, 0, 0, 0, 0,0.0,0.0,0.0,0.0,0.0,0.0,0.0,0.0,0.0,0.0,0.0,0.0,0.0,42,compiler\src\main\java\org\apache\etch\compiler\opt\Oneway.java,0,0,0,0
org.apache.etch.compiler.opt.Timeout, 0, 0, 0, 0, 0, 0, 0, 0, 0, 0, 0, 0, 0, 0,0.0,0.0,0.0,0.0,0.0,0.0,0.0,0.0,0.0,0.0,0.0,0.0,0.0,33,compiler\src\main\java\org\apache\etch\compiler\opt\Timeout.java,0,0,0,0
org.apache.etch.compiler.opt.Unchecked, 0, 0, 0, 0, 0, 0, 0, 0, 0, 0, 0, 0, 0, 0,0.0,0.0,0.0,0.0,0.0,0.0,0.0,0.0,0.0,0.0,0.0,0.0,0.0,41,compiler\src\main\java\org\apache\etch\compiler\opt\Unchecked.java,0,0,0,0
org.apache.etch.examples.chat.ImplChatClient, 0, 0, 0, 0, 0, 0, 0, 0, 0, 0, 0, 0, 0, 0,0.0,0.0,0.0,0.0,0.0,0.0,0.0,0.0,0.0,0.0,0.0,0.0,0.0,56,examples\chat\src\main\java\org\apache\etch\examples\chat\ImplChatClient.java,0,0,0,0
org.apache.etch.examples.chat.MainChatClient, 0, 0, 0, 0, 0, 0, 0, 0, 0, 0, 0, 0, 0, 0,0.0,0.0,0.0,0.0,0.0,0.0,0.0,0.0,0.0,0.0,0.0,0.0,0.0,212,examples\chat\src\main\java\org\apache\etch\examples\chat\MainChatClient.java,0,0,0,0
org.apache.etch.examples.chat.TestRemoteChatServer, 0, 0, 0, 0, 0, 0, 0, 0, 0, 0, 0, 0, 0, 0,0.0,0.0,0.0,0.0,0.0,0.0,0.0,0.0,0.0,0.0,0.0,0.0,0.0,90,examples\chat\src\test\java\org\apache\etch\examples\chat\TestRemoteChatServer.java,0,0,0,0
org.apache.etch.examples.distmap.ImplDistributedHashTableClient, 0, 0, 0, 0, 0, 1, 0, 0, 0, 0, 0, 0, 0, 1,0.0,0.0,0.0,0.0,0.0,0.0,0.0,0.0,0.0,0.0,0.0,0.0,0.0,8,examples\distmap\src\main\java\org\apache\etch\examples\distmap\ImplDistributedHashTableClient.java,0,0,0,0
org.apache.etch.examples.distmap.MainDistributedHashTableClient, 0, 0, 0, 0, 0, 0, 0, 0, 0, 0, 0, 0, 0, 0,0.0,0.0,0.0,0.0,0.0,1.0,0.0,0.0,0.0,0.0,0.0,0.0,0.0,84,examples\distmap\src\main\java\org\apache\etch\examples\distmap\MainDistributedHashTableClient.java,0,0,0,0
org.apache.etch.examples.example.ImplExampleClient, 0, 0, 0, 0, 0, 1, 0, 0, 0, 0, 0, 0, 0, 1,0.0,0.0,0.0,0.0,0.0,0.0,0.0,0.0,0.0,0.0,0.0,0.0,0.0,8,examples\example\src\main\java\org\apache\etch\examples\example\ImplExampleClient.java,0,0,0,0
org.apache.etch.examples.example.ImplExampleServer, 0, 0, 0, 0, 0, 1, 0, 0, 0, 0, 0, 0, 0, 1,0.0,0.0,0.0,0.0,0.0,0.0,0.0,0.0,0.0,0.0,0.0,0.0,0.0,8,examples\example\src\main\java\org\apache\etch\examples\example\ImplExampleServer.java,0,0,0,0
org.apache.etch.examples.example.MainExampleClient, 0, 0, 0, 0, 0, 0, 0, 0, 0, 0, 0, 0, 0, 0,0.0,0.0,0.0,0.0,0.0,1.0,0.0,0.0,0.0,0.0,0.0,0.0,0.0,16,examples\example\src\main\java\org\apache\etch\examples\example\MainExampleClient.java,0,0,0,0
org.apache.etch.examples.example.MainExampleListener, 0, 0, 0, 0, 0, 0, 0, 0, 0, 0, 0, 0, 0, 0,0.0,0.0,0.0,0.0,0.0,1.0,0.0,0.0,0.0,0.0,0.0,0.0,0.0,14,examples\example\src\main\java\org\apache\etch\examples\example\MainExampleListener.java,0,0,0,0
org.apache.etch.examples.example.TestExampleServer, 1, 0, 1, 0, 0, 0, 0, 0, 0, 0, 0, 0, 0, 2,0.0,0.0,0.0,0.0,0.0,0.0,0.0,0.0,0.0,0.0,0.0,0.0,0.0,49,examples\example\src\test\java\org\apache\etch\examples\example\TestExampleServer.java,0,0,0,0
org.apache.etch.examples.helloworld.ImplHelloWorldClient, 0, 0, 0, 0, 0, 1, 0, 0, 0, 0, 0, 0, 0, 1,0.0,0.0,0.0,0.0,0.0,0.0,0.0,0.0,0.0,0.0,0.0,0.0,0.0,9,examples\helloworld\java\src\main\org\apache\etch\examples\helloworld\ImplHelloWorldClient.java,0,0,0,0
org.apache.etch.examples.helloworld.ImplHelloWorldServer, 0, 0, 0, 0, 0, 0, 0, 0, 0, 0, 0, 0, 0, 0,0.0,0.0,0.0,0.0,0.0,0.0,0.0,0.0,0.0,0.0,0.0,0.0,0.0,18,examples\helloworld\java\src\main\org\apache\etch\examples\helloworld\ImplHelloWorldServer.java,0,0,0,0
org.apache.etch.examples.helloworld.MainHelloWorldClient, 0, 0, 0, 0, 0, 0, 0, 0, 0, 0, 0, 0, 0, 0,0.0,0.0,0.0,0.0,0.0,1.0,0.0,0.0,0.0,0.0,0.0,0.0,0.0,18,examples\helloworld\java\src\main\org\apache\etch\examples\helloworld\MainHelloWorldClient.java,0,0,0,0
org.apache.etch.examples.helloworld.MainHelloWorldListener, 0, 0, 0, 0, 0, 0, 0, 0, 0, 0, 0, 0, 0, 0,0.0,0.0,0.0,0.0,0.0,0.0,0.0,0.0,0.0,0.0,0.0,0.0,0.0,14,examples\helloworld\java\src\main\org\apache\etch\examples\helloworld\MainHelloWorldListener.java,0,0,0,0
org.apache.etch.examples.helloworld.TestHelloWorldServer, 1, 0, 1, 0, 0, 0, 0, 0, 0, 0, 0, 0, 0, 2,0.0,0.0,0.0,0.0,0.0,0.0,0.0,0.0,0.0,0.0,0.0,0.0,0.0,56,examples\helloworld\java\src\test\org\apache\etch\examples\helloworld\TestHelloWorldServer.java,0,0,0,0
org.apache.etch.examples.mixin.ImplExampleClient, 0, 0, 0, 0, 0, 1, 0, 0, 0, 0, 0, 0, 0, 1,0.0,0.0,0.0,0.0,0.0,0.0,0.0,0.0,0.0,0.0,0.0,0.0,0.0,8,examples\example_mixin\src\main\java\org\apache\etch\examples\mixin\ImplExampleClient.java,0,0,0,0
org.apache.etch.examples.mixin.ImplExampleServer, 0, 0, 0, 0, 0, 0, 0, 0, 0, 0, 0, 0, 0, 0,0.0,0.0,0.0,0.0,0.0,0.0,0.0,0.0,0.0,0.0,0.0,0.0,0.0,16,examples\example_mixin\src\main\java\org\apache\etch\examples\mixin\ImplExampleServer.java,0,0,0,0
org.apache.etch.examples.mixin.MainExampleClient, 0, 0, 0, 0, 0, 0, 0, 0, 0, 0, 0, 0, 0, 0,0.0,0.0,0.0,0.0,0.0,1.0,0.0,0.0,0.0,0.0,0.0,0.0,0.0,21,examples\example_mixin\src\main\java\org\apache\etch\examples\mixin\MainExampleClient.java,0,0,0,0
org.apache.etch.examples.mixin.MainExampleListener, 0, 0, 0, 0, 0, 0, 0, 0, 0, 0, 0, 0, 0, 0,0.0,0.0,0.0,0.0,0.0,0.0,0.0,0.0,0.0,0.0,0.0,0.0,0.0,14,examples\example_mixin\src\main\java\org\apache\etch\examples\mixin\MainExampleListener.java,0,0,0,0
org.apache.etch.examples.mixin.TestExampleServer, 1, 0, 1, 0, 0, 0, 0, 0, 0, 0, 0, 0, 0, 2,0.0,0.0,0.0,0.0,0.0,0.0,0.0,0.0,0.0,0.0,0.0,0.0,0.0,61,examples\example_mixin\src\test\java\org\apache\etch\examples\mixin\TestExampleServer.java,0,0,0,0
org.apache.etch.examples.perf.ImplPerfClient, 0, 0, 0, 0, 0, 1, 0, 0, 0, 0, 0, 0, 0, 1,0.0,0.0,0.0,0.0,0.0,0.0,0.0,0.0,0.0,0.0,0.0,0.0,0.0,8,examples\perf\src\main\java\org\apache\etch\examples\perf\ImplPerfClient.java,0,0,0,0
org.apache.etch.examples.perf.ImplPerfServer, 0, 0, 0, 0, 0, 0, 0, 0, 0, 0, 0, 0, 0, 0,0.0,0.0,0.0,0.0,0.0,0.0,0.0,0.0,0.0,0.0,0.0,0.0,0.0,46,examples\perf\src\main\java\org\apache\etch\examples\perf\ImplPerfServer.java,0,0,0,0
org.apache.etch.examples.perf.MainPerfClient, 0, 0, 0, 0, 0, 0, 0, 0, 0, 0, 0, 0, 0, 0,0.0,0.0,0.0,0.0,0.0,0.25,0.0,0.0,0.0,0.0,0.0,0.0,0.0,230,examples\perf\src\main\java\org\apache\etch\examples\perf\MainPerfClient.java,0,0,0,0
org.apache.etch.examples.perf.MainPerfListener, 0, 0, 0, 0, 0, 0, 0, 0, 0, 0, 0, 0, 0, 0,0.0,0.0,0.0,0.0,0.0,0.0,0.0,0.0,0.0,0.0,0.0,0.0,0.0,17,examples\perf\src\main\java\org\apache\etch\examples\perf\MainPerfListener.java,0,0,0,0
org.apache.etch.examples.perf.TestPerfServer, 1, 0, 1, 0, 0, 0, 0, 0, 0, 0, 0, 0, 0, 2,0.0,0.0,0.0,0.0,0.0,0.0,0.0,0.0,0.0,0.0,0.0,0.0,0.0,79,examples\perf\src\test\java\org\apache\etch\examples\perf\TestPerfServer.java,0,0,0,0
org.apache.etch.interoptester.ChildWalker, 0, 0, 0, 0, 0, 0, 0, 0, 0, 0, 0, 0, 0, 0,0.0,0.0,0.0,0.0,0.0,0.0,0.0,0.0,0.0,0.0,0.0,0.0,0.0,29,interoptester\src\main\java\org\apache\etch\interoptester\ChildWalker.java,0,0,0,0
org.apache.etch.interoptester.RunningProg, 0, 0, 0, 0, 0, 0, 0, 0, 0, 0, 0, 0, 0, 0,0.0,0.0,0.0,0.0,0.0,0.0,0.0,0.0,0.0,0.0,0.0,0.0,0.0,29,interoptester\src\main\java\org\apache\etch\interoptester\RunningProg.java,0,0,0,0
org.apache.etch.interoptester.example.iot.ImplIOTClient, 0, 0, 0, 0, 0, 1, 0, 0, 0, 0, 0, 0, 0, 1,0.0,0.0,0.0,0.0,0.0,0.0,0.0,0.0,0.0,0.0,0.0,0.0,0.0,8,interoptester\example\src\main\java\org\apache\etch\interoptester\example\iot\ImplIOTClient.java,0,0,0,0
org.apache.etch.interoptester.example.iot.ImplIOTServer, 0, 0, 0, 0, 0, 0, 0, 0, 0, 0, 0, 0, 0, 0,0.0,0.0,0.0,0.0,0.0,0.0,0.0,0.0,0.0,0.0,0.0,0.0,0.0,21,interoptester\example\src\main\java\org\apache\etch\interoptester\example\iot\ImplIOTServer.java,0,0,0,0
org.apache.etch.interoptester.example.iot.MainIOTClient, 0, 0, 0, 0, 0, 0, 0, 0, 0, 0, 0, 0, 0, 0,0.0,0.0,0.0,0.0,0.0,0.5,0.0,0.0,0.0,0.0,0.0,0.0,0.0,109,interoptester\example\src\main\java\org\apache\etch\interoptester\example\iot\MainIOTClient.java,0,0,0,0
org.apache.etch.interoptester.example.iot.MainIOTListener, 0, 0, 0, 0, 0, 0, 0, 0, 0, 0, 0, 0, 0, 0,0.0,0.0,0.0,0.0,0.0,0.0,0.0,0.0,0.0,0.0,0.0,0.0,0.0,20,interoptester\example\src\main\java\org\apache\etch\interoptester\example\iot\MainIOTListener.java,0,0,0,0
org.apache.etch.tests.FakeTest1, 0, 0, 0, 1, 0, 0, 0, 0, 0, 0, 0, 0, 0, 1,0.0,0.0,0.0,0.0,0.0,0.0,0.0,0.0,0.0,0.0,0.0,0.0,0.0,304,tests\src\test\java\org\apache\etch\tests\FakeTest1.java,0,0,0,0
org.apache.etch.tests.ImplAsyncClient, 0, 0, 0, 0, 0, 0, 0, 0, 0, 0, 0, 0, 0, 0,0.0,0.0,0.0,0.0,0.0,0.0,0.0,0.0,0.0,0.0,0.0,0.0,0.0,22,tests\src\main\java\org\apache\etch\tests\ImplAsyncClient.java,0,0,0,0
org.apache.etch.tests.ImplAsyncServer, 0, 0, 0, 0, 0, 0, 0, 0, 0, 0, 0, 0, 0, 0,0.0,0.0,0.0,0.0,0.0,0.0,0.0,0.0,0.0,0.0,0.0,0.0,0.0,30,tests\src\main\java\org\apache\etch\tests\ImplAsyncServer.java,0,0,0,0
org.apache.etch.tests.ImplClosingClient, 0, 0, 0, 0, 0, 0, 0, 0, 0, 0, 0, 0, 0, 0,0.0,0.0,0.0,0.0,0.0,0.0,0.0,0.0,0.0,0.0,0.0,0.0,0.0,14,tests\src\main\java\org\apache\etch\tests\ImplClosingClient.java,0,0,0,0
org.apache.etch.tests.ImplClosingServer, 0, 0, 0, 0, 0, 0, 0, 0, 0, 0, 0, 0, 0, 0,0.0,0.0,0.0,0.0,0.0,0.0,0.0,0.0,0.0,0.0,0.0,0.0,0.0,27,tests\src\main\java\org\apache\etch\tests\ImplClosingServer.java,0,0,0,0
org.apache.etch.tests.ImplCuaeClient, 0, 0, 0, 0, 0, 0, 0, 0, 0, 0, 0, 0, 0, 0,0.0,0.0,0.0,0.0,0.0,0.0,0.0,0.0,0.0,0.0,0.0,0.0,0.0,19,tests\src\main\java\org\apache\etch\tests\ImplCuaeClient.java,0,0,0,0
org.apache.etch.tests.ImplCuaeServer, 0, 0, 0, 0, 0, 1, 0, 0, 0, 0, 0, 0, 0, 1,0.0,0.0,0.0,0.0,0.0,0.0,0.0,0.0,0.0,0.0,0.0,0.0,0.0,8,tests\src\main\java\org\apache\etch\tests\ImplCuaeServer.java,0,0,0,0
org.apache.etch.tests.ImplFooClient, 0, 0, 0, 0, 0, 0, 0, 0, 0, 0, 0, 0, 0, 0,0.0,0.0,0.0,0.0,0.0,0.0,0.0,0.0,0.0,0.0,0.0,0.0,0.0,33,tests\src\main\java\org\apache\etch\tests\ImplFooClient.java,0,0,0,0
org.apache.etch.tests.ImplFooServer, 0, 0, 0, 0, 0, 0, 0, 0, 0, 0, 0, 0, 0, 0,0.0,0.0,0.0,0.0,0.0,0.0,0.0,0.0,0.0,0.0,0.0,0.0,0.0,50,tests\src\main\java\org\apache\etch\tests\ImplFooServer.java,0,0,0,0
org.apache.etch.tests.ImplInheritanceClient, 0, 0, 0, 0, 0, 1, 0, 0, 0, 0, 0, 0, 0, 1,0.0,0.0,0.0,0.0,0.0,0.0,0.0,0.0,0.0,0.0,0.0,0.0,0.0,8,tests\src\main\java\org\apache\etch\tests\ImplInheritanceClient.java,0,0,0,0
org.apache.etch.tests.ImplInheritanceServer, 0, 0, 0, 0, 0, 0, 0, 0, 0, 0, 0, 0, 0, 0,1.0,0.0,1.0,0.0,0.0,0.0,0.0,0.0,0.0,0.0,0.0,0.0,0.0,48,tests\src\main\java\org\apache\etch\tests\ImplInheritanceServer.java,0,0,0,0
org.apache.etch.tests.ImplTypesClient, 0, 0, 0, 0, 0, 1, 0, 0, 0, 0, 0, 0, 0, 1,0.0,0.0,0.0,0.0,0.0,0.0,0.0,0.0,0.0,0.0,0.0,0.0,0.0,8,tests\src\main\java\org\apache\etch\tests\ImplTypesClient.java,0,0,0,0
org.apache.etch.tests.MainAsyncClient, 0, 0, 0, 0, 0, 0, 0, 0, 0, 0, 0, 0, 0, 0,0.0,0.0,0.0,0.0,0.0,0.0,0.0,0.0,0.0,0.0,0.0,0.0,0.0,19,tests\src\main\java\org\apache\etch\tests\MainAsyncClient.java,0,0,0,0
org.apache.etch.tests.MainAsyncListener, 0, 0, 0, 0, 0, 0, 0, 0, 0, 0, 0, 0, 0, 0,0.0,0.0,0.0,0.0,0.0,0.0,0.0,0.0,0.0,0.0,0.0,0.0,0.0,16,tests\src\main\java\org\apache\etch\tests\MainAsyncListener.java,0,0,0,0
org.apache.etch.tests.MainClosingClient, 0, 0, 0, 0, 0, 0, 0, 0, 0, 0, 0, 0, 0, 0,0.0,0.0,0.0,0.0,0.0,0.0,0.0,0.0,0.0,0.0,0.0,0.0,0.0,29,tests\src\main\java\org\apache\etch\tests\MainClosingClient.java,0,0,0,0
org.apache.etch.tests.MainClosingListener, 0, 0, 0, 0, 0, 0, 0, 0, 0, 0, 0, 0, 0, 0,0.0,0.0,0.0,0.0,0.0,0.0,0.0,0.0,0.0,0.0,0.0,0.0,0.0,27,tests\src\main\java\org\apache\etch\tests\MainClosingListener.java,0,0,0,0
org.apache.etch.tests.MainCuaeClient, 0, 0, 0, 0, 0, 0, 0, 0, 0, 0, 0, 0, 0, 0,0.0,0.0,0.0,0.0,0.0,0.0,0.0,0.0,0.0,0.0,0.0,0.0,0.0,35,tests\src\main\java\org\apache\etch\tests\MainCuaeClient.java,0,0,0,0
org.apache.etch.tests.MainCuaeListener, 0, 0, 0, 0, 0, 0, 0, 0, 0, 0, 0, 0, 0, 0,0.3333333333333333,0.0,0.3333333333333333,0.0,0.0,0.6666666666666666,0.0,0.0,0.0,0.0,0.0,0.0,0.0,14,tests\src\main\java\org\apache\etch\tests\MainCuaeListener.java,0,0,0,0
org.apache.etch.tests.MainFooClient, 0, 0, 0, 0, 0, 0, 0, 0, 0, 0, 0, 0, 0, 0,0.0,0.0,0.0,0.0,0.0,0.0,0.0,0.0,0.0,0.0,0.0,0.0,0.0,37,tests\src\main\java\org\apache\etch\tests\MainFooClient.java,0,0,0,0
org.apache.etch.tests.MainFooListener, 0, 0, 0, 0, 0, 0, 0, 0, 0, 0, 0, 0, 0, 0,0.0,0.0,0.0,0.0,0.0,0.0,0.0,0.0,0.0,0.0,0.0,0.0,0.0,17,tests\src\main\java\org\apache\etch\tests\MainFooListener.java,0,0,0,0
org.apache.etch.tests.MainInheritanceClient, 0, 0, 0, 0, 0, 0, 0, 0, 0, 0, 0, 0, 0, 0,0.0,0.0,0.0,0.0,0.0,1.0,0.0,0.0,0.0,0.0,0.0,0.0,0.0,19,tests\src\main\java\org\apache\etch\tests\MainInheritanceClient.java,0,0,0,0
org.apache.etch.tests.MainInheritanceListener, 1, 0, 1, 0, 0, 0, 0, 0, 0, 0, 0, 0, 0, 2,0.0,0.0,0.0,0.0,0.0,0.0,0.0,0.5,0.0,0.0,0.0,0.0,0.0,20,tests\src\main\java\org\apache\etch\tests\MainInheritanceListener.java,0,0,0,0
org.apache.etch.tests.MainTypesListener, 0, 0, 0, 0, 0, 0, 0, 0, 0, 0, 0, 0, 0, 0,0.0,0.0,0.0,0.0,0.0,0.0,0.0,0.0,0.0,0.0,0.0,0.0,0.0,14,tests\src\main\java\org\apache\etch\tests\MainTypesListener.java,0,0,0,0
org.apache.etch.tests.MakeBigIdl, 0, 0, 0, 0, 0, 1, 0, 0, 0, 0, 0, 0, 0, 1,0.0,0.0,0.0,0.0,0.0,0.0,0.0,0.0,0.0,0.0,0.0,0.0,0.0,15,tests\src\main\java\org\apache\etch\tests\MakeBigIdl.java,0,0,0,0
org.apache.etch.tests.MyCuaeHelper, 0, 0, 0, 0, 0, 1, 0, 0, 0, 0, 0, 0, 0, 1,0.0,0.0,0.0,0.0,0.0,0.0,0.0,0.0,0.0,0.0,0.0,0.0,0.0,31,tests\src\main\java\org\apache\etch\tests\MyCuaeHelper.java,0,0,0,0
org.apache.etch.tests.MyCuaeServerStub, 0, 0, 0, 0, 0, 1, 0, 0, 0, 0, 0, 0, 0, 1,0.25,0.0,0.25,0.0,0.0,0.25,0.0,0.0,0.0,0.0,0.0,0.0,0.0,206,tests\src\main\java\org\apache\etch\tests\MyCuaeServerStub.java,0,0,0,0
org.apache.etch.tests.MyValueFactoryCuae, 1, 0, 1, 0, 0, 0, 0, 0, 0, 0, 0, 0, 0, 2,0.0,0.0,0.0,0.0,0.0,0.3,0.0,0.0,0.0,0.0,0.0,0.0,0.0,141,tests\src\main\java\org\apache\etch\tests\MyValueFactoryCuae.java,0,0,0,0
org.apache.etch.tests.TestAsyncClient, 0, 0, 0, 0, 0, 0, 0, 0, 0, 0, 0, 0, 0, 0,0.0,0.0,0.0,0.0,0.0,0.0,0.0,0.0,0.0,0.0,0.0,0.0,0.0,58,tests\src\test\java\org\apache\etch\tests\TestAsyncClient.java,0,0,0,0
org.apache.etch.tests.TestImplIncludes, 0, 0, 0, 0, 0, 0, 0, 0, 0, 0, 0, 0, 0, 0,0.0,0.0,0.0,0.0,0.0,0.0,0.0,0.0,0.0,0.0,0.0,0.0,0.0,35,tests\src\test\java\org\apache\etch\tests\TestImplIncludes.java,0,0,0,0
org.apache.etch.tests.TestImplTest1, 0, 0, 0, 1, 0, 0, 0, 0, 0, 0, 0, 0, 0, 1,0.0,0.0,0.0,0.0,0.0,0.0,0.0,0.0,0.0,0.0,0.0,0.0,0.0,814,tests\src\test\java\org\apache\etch\tests\TestImplTest1.java,0,0,0,0
org.apache.etch.tests.TestInheritance, 0, 0, 0, 0, 0, 0, 0, 1, 0, 0, 0, 0, 0, 1,1.0,0.0,1.0,0.0,0.0,0.0,0.0,0.0,0.0,0.0,0.0,0.0,0.0,384,tests\src\test\java\org\apache\etch\tests\TestInheritance.java,0,0,0,0
org.apache.etch.tests.TestInheritanceXml, 0, 0, 0, 0, 0, 0, 0, 1, 0, 0, 0, 0, 0, 1,0.0,0.0,0.0,0.0,0.0,0.0,0.0,0.0,0.0,0.0,0.0,0.0,0.0,649,tests\src\test\java\org\apache\etch\tests\TestInheritanceXml.java,0,0,0,0
org.apache.etch.tests.TestMainTest1Client, 0, 0, 0, 1, 0, 0, 0, 0, 0, 0, 0, 0, 0, 1,0.0,0.0,0.0,0.0,0.0,0.0,0.0,0.0,0.0,0.0,0.0,0.0,0.0,630,tests\src\test\java\org\apache\etch\tests\TestMainTest1Client.java,0,0,0,0
org.apache.etch.tests.TestMainTest1Listener, 0, 0, 0, 0, 0, 1, 0, 0, 0, 0, 0, 0, 0, 1,0.0,0.0,0.0,0.0,0.0,0.0,0.0,0.0,0.0,0.0,0.0,0.0,0.0,12,tests\src\test\java\org\apache\etch\tests\TestMainTest1Listener.java,0,0,0,0
org.apache.etch.tests.TestMixin, 0, 0, 0, 0, 0, 0, 0, 0, 0, 0, 0, 0, 0, 0,0.0,0.0,0.0,0.0,0.0,0.0,0.0,0.0,0.0,0.0,0.0,0.0,0.0,256,tests\src\test\java\org\apache\etch\tests\TestMixin.java,0,0,0,0
org.apache.etch.tests.TestMixinXml, 0, 0, 0, 0, 0, 0, 0, 1, 0, 0, 0, 0, 0, 1,0.0,0.0,0.0,0.0,0.0,0.0,0.0,0.0,0.0,0.0,0.0,0.0,0.0,613,tests\src\test\java\org\apache\etch\tests\TestMixinXml.java,0,0,0,0
org.apache.etch.tests.TestRemoteTest1DotJava, 0, 0, 0, 1, 0, 0, 0, 1, 0, 0, 0, 0, 0, 2,0.0,0.0,0.0,0.0,0.0,1.0,0.0,0.0,0.0,0.0,0.0,0.0,0.0,1236,tests\src\test\java\org\apache\etch\tests\TestRemoteTest1DotJava.java,0,0,0,0
org.apache.etch.tests.TestStubTest1DotJava, 0, 0, 0, 0, 0, 0, 0, 0, 0, 0, 0, 0, 0, 0,0.0,0.0,0.0,0.5,0.0,0.0,0.0,0.0,0.0,0.0,0.0,0.0,0.0,440,tests\src\test\java\org\apache\etch\tests\TestStubTest1DotJava.java,0,0,0,0
org.apache.etch.tests.TestTest1DotJava, 0, 0, 0, 1, 0, 0, 0, 0, 0, 0, 0, 0, 0, 1,0.0,0.0,0.0,0.0,0.0,0.0,0.0,0.0,0.0,0.0,0.0,0.0,0.0,558,tests\src\test\java\org\apache\etch\tests\TestTest1DotJava.java,0,0,0,0
org.apache.etch.tests.TestTest1Helper, 0, 0, 0, 0, 0, 0, 0, 0, 0, 0, 0, 0, 0, 0,0.0,0.0,0.0,0.0,0.0,0.0,0.0,0.0,0.0,0.0,0.0,0.0,0.0,28,tests\src\test\java\org\apache\etch\tests\TestTest1Helper.java,0,0,0,0
org.apache.etch.tests.TestValueFactoryTest1DotJava, 0, 0, 0, 1, 0, 0, 0, 0, 0, 0, 0, 0, 0, 1,0.0,0.0,0.0,0.0,0.0,0.5,0.0,0.0,0.0,0.0,0.0,0.0,0.0,852,tests\src\test\java\org\apache\etch\tests\TestValueFactoryTest1DotJava.java,0,0,0,0
org.apache.etch.tests.TestXml, 0, 0, 0, 0, 0, 0, 0, 1, 0, 0, 0, 0, 0, 1,0.0,0.0,0.0,0.0,0.0,0.0,0.0,0.0,0.0,0.0,0.0,0.0,0.0,708,tests\src\test\java\org\apache\etch\tests\TestXml.java,0,0,0,0
org.apache.etch.tools.ant.EtchCompileTask, 0, 0, 0, 0, 0, 0, 0, 0, 0, 0, 0, 0, 0, 0,1.0,0.0,1.0,0.0,0.0,0.0,0.0,0.0,0.0,0.0,0.0,0.0,0.0,115,plugins\ant\src\main\java\org\apache\etch\tools\ant\EtchCompileTask.java,0,0,0,0
org.apache.etch.util.AbstractStartable, 0, 0, 0, 0, 0, 0, 0, 0, 0, 0, 0, 0, 0, 0,0.0,0.0,0.0,0.0,0.0,0.0,0.0,0.07692307692307693,0.0,0.0,0.0,0.0,0.0,46,util\src\main\java\org\apache\etch\util\AbstractStartable.java,0,0,0,0
org.apache.etch.util.AlarmListener, 0, 0, 0, 0, 0, 0, 0, 0, 0, 0, 0, 0, 0, 0,0.0,0.0,0.0,0.0,0.0,0.0,0.0,0.0,0.0,0.0,0.0,0.0,0.0,46,util\src\main\java\org\apache\etch\util\AlarmListener.java,0,0,0,0
org.apache.etch.util.Assertion, 0, 0, 0, 0, 0, 0, 0, 0, 0, 0, 0, 0, 0, 0,0.0,0.0,0.0,0.0,0.0,0.14285714285714285,0.0,0.14285714285714285,0.0,0.0,0.0,0.0,0.0,16,util\src\main\java\org\apache\etch\util\Assertion.java,0,0,0,0
org.apache.etch.util.AssertionException, 0, 0, 0, 0, 0, 1, 0, 0, 0, 0, 0, 0, 0, 1,0.0,0.0,0.0,0.0,0.0,0.0,0.0,0.0,0.0,0.0,0.0,0.0,0.0,8,util\src\main\java\org\apache\etch\util\AssertionException.java,0,0,0,0
org.apache.etch.util.ByteBuffer, 0, 0, 0, 0, 0, 0, 0, 0, 0, 0, 0, 0, 0, 0,0.0,0.0,0.0,0.0,0.0,0.0,0.0,0.0,0.0,0.0,0.0,0.0,0.0,90,util\src\main\java\org\apache\etch\util\ByteBuffer.java,0,0,0,0
org.apache.etch.util.CharIterator, 0, 0, 0, 0, 0, 0, 0, 0, 0, 0, 0, 0, 0, 0,0.0,0.0,0.0,0.0,0.0,0.0,0.0,0.0,0.0,0.0,0.0,0.0,0.0,19,util\src\main\java\org\apache\etch\util\CharIterator.java,0,0,0,0
org.apache.etch.util.CircularByteBuffer, 0, 0, 0, 0, 0, 0, 0, 0, 0, 0, 0, 0, 0, 0,0.0,0.0,0.0,0.0,0.0,0.0,0.0,0.0,0.0,0.0,0.0,0.0,0.0,50,util\src\main\java\org\apache\etch\util\CircularByteBuffer.java,0,0,0,0
org.apache.etch.util.CircularQueue, 0, 0, 0, 0, 0, 0, 0, 0, 0, 0, 0, 0, 0, 0,0.0,0.0,0.0,0.0,0.0,0.0,0.0,0.0,0.0,0.0,0.0,0.0,0.0,158,util\src\main\java\org\apache\etch\util\CircularQueue.java,0,0,0,0
org.apache.etch.util.FlexBuffer, 0, 0, 0, 1, 0, 0, 0, 0, 0, 0, 0, 0, 0, 1,0.0,0.0,0.0,0.125,0.0,0.0,0.0,0.0625,0.0,0.0,0.0,0.0,0.0,351,util\src\main\java\org\apache\etch\util\FlexBuffer.java,0,0,0,0
org.apache.etch.util.Hash, 0, 0, 0, 0, 0, 1, 0, 0, 0, 0, 0, 0, 0, 1,0.0,0.0,0.0,0.0,0.0,0.0,0.0,0.0,0.0,0.0,0.0,0.0,0.0,15,util\src\main\java\org\apache\etch\util\Hash.java,0,0,0,0
org.apache.etch.util.IdGenerator, 0, 0, 0, 0, 0, 0, 0, 0, 0, 0, 0, 0, 0, 0,0.0,0.0,0.0,0.0,0.0,0.0,0.0,0.0,0.0,0.0,0.0,0.0,0.0,26,util\src\main\java\org\apache\etch\util\IdGenerator.java,0,0,0,0
org.apache.etch.util.IntCounter, 0, 0, 0, 0, 0, 0, 0, 0, 0, 0, 0, 0, 0, 0,0.0,0.0,0.0,0.0,0.0,0.0,0.0,1.0,0.0,0.0,0.0,0.0,0.0,12,util\src\main\java\org\apache\etch\util\IntCounter.java,0,0,0,0
org.apache.etch.util.Monitor, 0, 0, 0, 0, 0, 0, 0, 0, 0, 0, 0, 0, 0, 0,0.0,0.0,0.0,0.08333333333333333,0.0,0.08333333333333333,0.0,0.0,0.0,0.0,0.0,0.0,0.0,116,util\src\main\java\org\apache\etch\util\Monitor.java,0,0,0,0
org.apache.etch.util.PerfTest, 0, 0, 0, 0, 0, 0, 0, 0, 0, 0, 0, 0, 0, 0,0.0,0.0,0.0,0.0,0.0,0.0,0.0,0.0,0.0,0.0,0.0,0.0,0.0,103,util\src\main\java\org\apache\etch\util\PerfTest.java,0,0,0,0
org.apache.etch.util.PlainByteBuffer, 0, 0, 0, 0, 0, 0, 0, 0, 0, 0, 0, 0, 0, 0,0.0,0.0,0.0,0.0,0.0,0.0,0.0,0.0,0.0,0.0,0.0,0.0,0.0,83,util\src\main\java\org\apache\etch\util\PlainByteBuffer.java,0,0,0,0
org.apache.etch.util.Runner, 0, 0, 0, 0, 0, 0, 0, 0, 0, 0, 0, 0, 0, 0,0.0,0.0,0.0,0.0,0.0,0.0,0.0,0.0,0.0,0.0,0.0,0.0,0.0,73,util\src\main\java\org\apache\etch\util\Runner.java,0,0,0,0
org.apache.etch.util.RunnerHandler, 0, 0, 0, 0, 0, 0, 0, 0, 0, 0, 0, 0, 0, 0,0.0,0.0,0.0,0.0,0.0,0.0,0.0,0.0,0.0,0.0,0.0,0.0,0.0,73,util\src\main\java\org\apache\etch\util\RunnerHandler.java,0,0,0,0
org.apache.etch.util.Startable, 0, 0, 0, 0, 0, 0, 0, 0, 0, 0, 0, 0, 0, 0,0.0,0.0,0.0,0.0,0.0,0.0,0.0,0.0,0.0,0.0,0.0,0.0,0.0,73,util\src\main\java\org\apache\etch\util\Startable.java,0,0,0,0
org.apache.etch.util.TestAlarmManager, 0, 0, 0, 0, 0, 0, 0, 0, 0, 0, 0, 0, 0, 0,0.0,0.0,0.0,0.0,0.0,0.0,0.0,0.0,0.0,0.0,0.0,0.0,0.0,281,util\src\test\java\org\apache\etch\util\TestAlarmManager.java,0,0,0,0
org.apache.etch.util.TestCircularQueue, 0, 0, 0, 0, 0, 0, 0, 0, 0, 0, 0, 0, 0, 0,0.0,0.0,0.0,0.0,0.0,0.25,0.0,0.0,0.0,0.0,0.0,0.0,0.0,500,util\src\test\java\org\apache\etch\util\TestCircularQueue.java,0,0,0,0
org.apache.etch.util.TestFlexBuffer, 0, 0, 0, 1, 0, 0, 0, 0, 0, 0, 0, 0, 0, 1,0.0,0.0,0.0,1.0,0.0,0.0,0.0,0.0,0.0,0.0,0.0,0.0,0.0,1111,util\src\test\java\org\apache\etch\util\TestFlexBuffer.java,0,0,0,0
org.apache.etch.util.TestHelp, 0, 0, 0, 0, 0, 0, 0, 0, 0, 0, 0, 0, 0, 0,0.0,0.0,0.0,0.0,0.0,0.0,0.0,0.0,0.0,0.0,0.0,0.0,0.0,88,util\src\test\java\org\apache\etch\util\TestHelp.java,0,0,0,0
org.apache.etch.util.TestMonitor, 0, 0, 0, 0, 0, 0, 0, 0, 0, 0, 0, 0, 0, 0,0.0,0.0,0.0,0.0,0.0,0.0,0.0,0.0,0.0,0.0,0.0,0.0,0.0,317,util\src\test\java\org\apache\etch\util\TestMonitor.java,0,0,0,0
org.apache.etch.util.TimeoutException, 0, 0, 0, 0, 0, 1, 0, 0, 0, 0, 0, 0, 0, 1,0.0,0.0,0.0,0.0,0.0,0.0,0.0,0.0,0.0,0.0,0.0,0.0,0.0,8,util\src\main\java\org\apache\etch\util\TimeoutException.java,0,0,0,0
org.apache.etch.util.Timer, 0, 0, 0, 0, 0, 0, 0, 0, 0, 0, 0, 0, 0, 0,0.0,0.0,0.0,0.0,0.0,0.0,0.0,0.0,0.0,0.0,0.0,0.0,0.0,78,util\src\main\java\org\apache\etch\util\Timer.java,0,0,0,0
org.apache.etch.util.Todo, 0, 0, 0, 0, 0, 0, 0, 0, 0, 0, 0, 0, 0, 0,0.0,0.0,0.0,0.0,0.0,0.0,0.0,0.0,0.0,0.0,0.0,0.0,0.0,78,util\src\main\java\org\apache\etch\util\Todo.java,0,0,0,0
org.apache.etch.util.TodoManager, 0, 0, 0, 0, 0, 0, 0, 1, 0, 0, 0, 0, 0, 1,0.0,0.0,0.0,0.125,0.0,0.0,0.0,0.125,0.0,0.0,0.0,0.0,0.0,191,util\src\main\java\org\apache\etch\util\TodoManager.java,0,0,0,0
org.apache.etch.util.cmd.AndConstraint, 0, 0, 0, 0, 0, 0, 0, 0, 0, 0, 0, 0, 0, 0,0.0,0.0,0.0,0.0,0.0,0.0,0.0,0.0,0.0,0.0,0.0,0.0,0.0,20,util\src\main\java\org\apache\etch\util\cmd\AndConstraint.java,0,0,0,0
org.apache.etch.util.cmd.BooleanOption, 0, 0, 0, 0, 0, 0, 0, 1, 0, 0, 0, 0, 0, 1,0.0,0.0,0.0,0.0,0.0,0.0,0.0,0.0,0.0,0.0,0.0,0.0,0.0,16,util\src\main\java\org\apache\etch\util\cmd\BooleanOption.java,0,0,0,0
org.apache.etch.util.cmd.BooleanParameter, 0, 0, 0, 0, 0, 0, 0, 1, 0, 0, 0, 0, 0, 1,0.0,0.0,0.0,0.0,0.0,0.0,0.0,1.0,0.0,0.0,0.0,0.0,0.0,15,util\src\main\java\org\apache\etch\util\cmd\BooleanParameter.java,0,0,0,0
org.apache.etch.util.cmd.Constraint, 0, 0, 0, 0, 0, 0, 0, 0, 0, 0, 0, 0, 0, 0,0.0,0.0,0.0,0.0,0.0,0.0,0.0,0.0,0.0,0.0,0.0,0.0,0.0,15,util\src\main\java\org\apache\etch\util\cmd\Constraint.java,0,0,0,0
org.apache.etch.util.cmd.DoubleOption, 0, 0, 0, 0, 0, 0, 0, 1, 0, 0, 0, 0, 0, 1,0.0,0.0,0.0,0.0,0.0,0.0,0.0,0.0,0.0,0.0,0.0,0.0,0.0,16,util\src\main\java\org\apache\etch\util\cmd\DoubleOption.java,0,0,0,0
org.apache.etch.util.cmd.DoubleParameter, 0, 0, 0, 0, 0, 0, 0, 1, 0, 0, 0, 0, 0, 1,0.0,0.0,0.0,0.0,0.0,0.0,0.0,1.0,0.0,0.0,0.0,0.0,0.0,15,util\src\main\java\org\apache\etch\util\cmd\DoubleParameter.java,0,0,0,0
org.apache.etch.util.cmd.FileOption, 0, 0, 0, 0, 0, 0, 0, 1, 0, 0, 0, 0, 0, 1,0.0,0.0,0.0,0.0,0.0,0.0,0.0,0.0,0.0,0.0,0.0,0.0,0.0,16,util\src\main\java\org\apache\etch\util\cmd\FileOption.java,0,0,0,0
org.apache.etch.util.cmd.FileParameter, 0, 0, 0, 0, 0, 0, 0, 1, 0, 0, 0, 0, 0, 1,0.0,0.0,0.0,0.0,0.0,0.0,0.0,1.0,0.0,0.0,0.0,0.0,0.0,15,util\src\main\java\org\apache\etch\util\cmd\FileParameter.java,0,0,0,0
org.apache.etch.util.cmd.IntRangeConstraint, 0, 0, 0, 0, 0, 0, 0, 0, 0, 0, 0, 0, 0, 0,0.0,0.0,0.0,0.0,0.0,0.0,0.0,0.0,0.0,0.0,0.0,0.0,0.0,23,util\src\main\java\org\apache\etch\util\cmd\IntRangeConstraint.java,0,0,0,0
org.apache.etch.util.cmd.IntegerOption, 0, 0, 0, 0, 0, 0, 0, 1, 0, 0, 0, 0, 0, 1,0.0,0.0,0.0,0.0,0.0,0.0,0.0,0.0,0.0,0.0,0.0,0.0,0.0,16,util\src\main\java\org\apache\etch\util\cmd\IntegerOption.java,0,0,0,0
org.apache.etch.util.cmd.IntegerParameter, 0, 0, 0, 0, 0, 0, 0, 1, 0, 0, 0, 0, 0, 1,0.0,0.0,0.0,0.0,0.0,0.0,0.0,1.0,0.0,0.0,0.0,0.0,0.0,15,util\src\main\java\org\apache\etch\util\cmd\IntegerParameter.java,0,0,0,0
org.apache.etch.util.cmd.NullOption, 0, 0, 0, 0, 0, 0, 0, 1, 0, 0, 0, 0, 0, 1,0.0,0.0,0.0,0.0,0.0,0.0,0.0,0.5,0.0,0.0,0.0,0.0,0.0,26,util\src\main\java\org\apache\etch\util\cmd\NullOption.java,0,0,0,0
org.apache.etch.util.cmd.OneOfConstraint, 0, 0, 0, 0, 0, 0, 0, 0, 0, 0, 0, 0, 0, 0,0.0,0.0,0.0,0.0,0.0,0.0,0.0,0.0,0.0,0.0,0.0,0.0,0.0,23,util\src\main\java\org\apache\etch\util\cmd\OneOfConstraint.java,0,0,0,0
org.apache.etch.util.cmd.OptParamBase, 0, 0, 0, 0, 0, 0, 0, 1, 0, 0, 0, 0, 0, 1,0.0,0.0,0.0,0.0,0.0,0.0,0.0,0.6666666666666666,0.0,0.0,0.0,0.0,0.0,134,util\src\main\java\org\apache\etch\util\cmd\OptParamBase.java,0,0,0,0
org.apache.etch.util.cmd.OrConstraint, 0, 0, 0, 0, 0, 0, 0, 0, 0, 0, 0, 0, 0, 0,0.0,0.0,0.0,0.0,0.0,0.0,0.0,0.0,0.0,0.0,0.0,0.0,0.0,34,util\src\main\java\org\apache\etch\util\cmd\OrConstraint.java,0,0,0,0
org.apache.etch.util.cmd.Parameter, 0, 0, 0, 0, 0, 0, 0, 1, 0, 0, 0, 0, 0, 1,0.0,0.0,0.1111111111111111,0.1111111111111111,0.0,0.0,0.0,0.7777777777777778,0.0,0.0,0.0,0.0,0.0,52,util\src\main\java\org\apache\etch\util\cmd\Parameter.java,0,0,0,0
org.apache.etch.util.cmd.ParityConstraint, 0, 0, 0, 0, 0, 0, 0, 0, 0, 0, 0, 0, 0, 0,0.0,0.0,0.0,0.0,0.0,0.0,0.0,0.0,0.0,0.0,0.0,0.0,0.0,20,util\src\main\java\org\apache\etch\util\cmd\ParityConstraint.java,0,0,0,0
org.apache.etch.util.cmd.Program, 0, 0, 0, 0, 0, 0, 0, 0, 0, 0, 0, 0, 0, 0,0.0,0.0,0.3333333333333333,0.3333333333333333,0.0,0.0,0.0,0.3333333333333333,0.0,0.0,0.0,0.0,0.0,59,util\src\main\java\org\apache\etch\util\cmd\Program.java,0,0,0,0
org.apache.etch.util.cmd.StringArrayOption, 0, 0, 0, 0, 0, 0, 0, 1, 0, 0, 0, 0, 0, 1,0.0,0.0,0.0,0.0,0.0,0.0,0.0,0.0,0.0,0.0,0.0,0.0,0.0,17,util\src\main\java\org\apache\etch\util\cmd\StringArrayOption.java,0,0,0,0
org.apache.etch.util.cmd.StringLengthConstraint, 0, 0, 0, 0, 0, 0, 0, 0, 0, 0, 0, 0, 0, 0,0.0,0.0,0.0,0.0,0.0,0.0,0.0,0.0,0.0,0.0,0.0,0.0,0.0,23,util\src\main\java\org\apache\etch\util\cmd\StringLengthConstraint.java,0,0,0,0
org.apache.etch.util.cmd.StringOption, 0, 0, 0, 0, 0, 0, 0, 1, 0, 0, 0, 0, 0, 1,0.0,0.0,0.0,0.0,0.0,0.0,0.0,0.0,0.0,0.0,0.0,0.0,0.0,17,util\src\main\java\org\apache\etch\util\cmd\StringOption.java,0,0,0,0
org.apache.etch.util.cmd.StringParameter, 0, 0, 0, 0, 0, 0, 0, 1, 0, 0, 0, 0, 0, 1,0.0,0.0,0.0,0.0,0.0,0.0,0.0,1.0,0.0,0.0,0.0,0.0,0.0,15,util\src\main\java\org\apache\etch\util\cmd\StringParameter.java,0,0,0,0
org.apache.etch.util.cmd.TestCommandParser, 0, 0, 0, 1, 0, 0, 0, 0, 0, 0, 0, 0, 0, 1,0.0,0.0,0.0,0.0,0.0,0.0,0.0,0.5,0.0,0.0,0.0,0.0,0.0,422,util\src\test\java\org\apache\etch\util\cmd\TestCommandParser.java,0,0,0,0
org.apache.etch.util.cmd.UrlOption, 0, 0, 0, 0, 0, 0, 0, 1, 0, 0, 0, 0, 0, 1,0.0,0.0,0.0,0.0,0.0,0.0,0.0,0.0,0.0,0.0,0.0,0.0,0.0,17,util\src\main\java\org\apache\etch\util\cmd\UrlOption.java,0,0,0,0
org.apache.etch.util.cmd.UrlParameter, 0, 0, 0, 0, 0, 0, 0, 1, 0, 0, 0, 0, 0, 1,0.0,0.0,0.0,0.0,0.0,0.0,0.0,1.0,0.0,0.0,0.0,0.0,0.0,15,util\src\main\java\org\apache\etch\util\cmd\UrlParameter.java,0,0,0,0
org.apache.etch.util.core.Who, 0, 0, 0, 0, 0, 0, 0, 0, 0, 0, 0, 0, 0, 0,0.0,0.0,0.0,0.0,0.0,0.0,0.0,0.0,0.0,0.0,0.0,0.0,0.0,15,util\src\main\java\org\apache\etch\util\core\Who.java,0,0,0,0
org.apache.etch.util.core.io.Connection, 0, 0, 0, 0, 0, 0, 0, 0, 0, 0, 0, 0, 0, 0,0.0,0.0,0.0,0.0,0.0,0.0,0.0,0.09090909090909091,0.0,0.0,0.0,0.0,0.0,191,util\src\main\java\org\apache\etch\util\core\io\Connection.java,0,0,0,0
org.apache.etch.util.core.io.InetWho, 0, 0, 0, 0, 0, 0, 0, 0, 0, 0, 0, 0, 0, 0,0.0,0.0,0.0,0.0,0.0,0.0,0.0,0.0,0.0,0.0,0.0,0.0,0.0,21,util\src\main\java\org\apache\etch\util\core\io\InetWho.java,0,0,0,0
org.apache.etch.util.core.io.Packetizer, 0, 0, 0, 0, 0, 0, 0, 0, 0, 0, 0, 0, 0, 0,0.0,0.0,0.0,0.25,0.0,0.0,0.0,0.0,0.0,0.0,0.0,0.0,0.0,161,util\src\main\java\org\apache\etch\util\core\io\Packetizer.java,0,0,0,0
org.apache.etch.util.core.io.Session, 0, 0, 0, 0, 0, 0, 0, 0, 0, 0, 0, 0, 0, 0,0.0,0.0,0.0,0.0,0.0,0.0,0.0,0.0,0.0,0.0,0.0,0.0,0.0,161,util\src\main\java\org\apache\etch\util\core\io\Session.java,0,0,0,0
org.apache.etch.util.core.io.SessionData, 0, 0, 0, 0, 0, 0, 0, 0, 0, 0, 0, 0, 0, 0,0.0,0.0,0.0,0.0,0.0,0.0,0.0,0.0,0.0,0.0,0.0,0.0,0.0,161,util\src\main\java\org\apache\etch\util\core\io\SessionData.java,0,0,0,0
org.apache.etch.util.core.io.SessionListener, 0, 0, 0, 0, 0, 0, 0, 0, 0, 0, 0, 0, 0, 0,0.0,0.0,0.0,0.0,0.0,0.0,0.0,0.0,0.0,0.0,0.0,0.0,0.0,161,util\src\main\java\org\apache\etch\util\core\io\SessionListener.java,0,0,0,0
org.apache.etch.util.core.io.SessionPacket, 0, 0, 0, 0, 0, 0, 0, 0, 0, 0, 0, 0, 0, 0,0.0,0.0,0.0,0.0,0.0,0.0,0.0,0.0,0.0,0.0,0.0,0.0,0.0,161,util\src\main\java\org\apache\etch\util\core\io\SessionPacket.java,0,0,0,0
org.apache.etch.util.core.io.TcpConnection, 0, 0, 0, 0, 0, 0, 0, 0, 0, 0, 0, 0, 0, 0,0.0,0.0,0.0,0.2,0.0,0.0,0.0,0.0,0.0,0.0,0.0,0.0,0.0,97,util\src\main\java\org\apache\etch\util\core\io\TcpConnection.java,0,0,0,0
org.apache.etch.util.core.io.TcpListener, 0, 0, 0, 0, 0, 0, 0, 0, 0, 0, 0, 0, 0, 0,0.0,0.0,0.0,0.0,0.0,0.0,0.0,0.0,0.0,0.0,0.0,0.0,0.0,128,util\src\main\java\org\apache\etch\util\core\io\TcpListener.java,0,0,0,0
org.apache.etch.util.core.io.TcpOptions, 0, 0, 0, 0, 0, 0, 0, 0, 0, 0, 0, 0, 0, 0,0.0,0.0,0.0,0.5,0.0,0.0,0.0,0.0,0.0,0.0,0.0,0.0,0.0,55,util\src\main\java\org\apache\etch\util\core\io\TcpOptions.java,0,0,0,0
org.apache.etch.util.core.io.TcpTransport, 0, 0, 0, 0, 0, 0, 0, 0, 0, 0, 0, 0, 0, 0,0.0,0.0,0.0,0.125,0.0,0.0,0.0,0.0,0.0,0.0,0.0,0.0,0.0,203,util\src\main\java\org\apache\etch\util\core\io\TcpTransport.java,0,0,0,0
org.apache.etch.util.core.io.TestPacketizer, 0, 0, 0, 0, 0, 0, 0, 0, 0, 0, 0, 0, 0, 0,0.0,0.0,0.0,0.5,0.0,0.0,0.0,0.0,0.0,0.0,0.0,0.0,0.0,631,util\src\test\java\org\apache\etch\util\core\io\TestPacketizer.java,0,0,0,0
org.apache.etch.util.core.io.TestTcpConnection, 0, 0, 0, 0, 0, 0, 0, 0, 0, 0, 0, 0, 0, 0,0.0,0.0,0.0,0.14285714285714285,0.0,0.0,0.0,0.0,0.0,0.0,0.0,0.0,0.0,498,util\src\test\java\org\apache\etch\util\core\io\TestTcpConnection.java,0,0,0,0
org.apache.etch.util.core.io.TestTcpListener, 0, 0, 0, 0, 0, 0, 0, 0, 0, 0, 0, 0, 0, 0,0.0,0.0,0.0,0.0,0.0,0.0,0.0,0.0,0.0,0.0,0.0,0.0,0.0,246,util\src\test\java\org\apache\etch\util\core\io\TestTcpListener.java,0,0,0,0
org.apache.etch.util.core.io.TestUdpConnection, 0, 0, 0, 0, 0, 0, 0, 0, 0, 0, 0, 0, 0, 0,0.0,0.0,0.0,0.25,0.0,0.0,0.0,0.0,0.0,0.0,0.0,0.0,0.0,95,util\src\test\java\org\apache\etch\util\core\io\TestUdpConnection.java,0,0,0,0
org.apache.etch.util.core.io.TlsConnection, 0, 0, 0, 0, 0, 0, 0, 0, 0, 0, 0, 0, 0, 0,0.0,0.0,0.0,0.25,0.0,0.0,0.0,0.0,0.0,0.0,0.0,0.0,0.0,141,util\src\main\java\org\apache\etch\util\core\io\TlsConnection.java,0,0,0,0
org.apache.etch.util.core.io.TlsListener, 0, 0, 0, 0, 0, 0, 0, 0, 0, 0, 0, 0, 0, 0,0.0,0.0,0.0,0.0,0.0,0.0,0.0,0.0,0.0,0.0,0.0,0.0,0.0,175,util\src\main\java\org\apache\etch\util\core\io\TlsListener.java,0,0,0,0
org.apache.etch.util.core.io.Transport, 0, 0, 0, 0, 0, 0, 0, 0, 0, 0, 0, 0, 0, 0,0.0,0.0,0.0,0.0,0.0,0.0,0.0,0.0,0.0,0.0,0.0,0.0,0.0,175,util\src\main\java\org\apache\etch\util\core\io\Transport.java,0,0,0,0
org.apache.etch.util.core.io.TransportData, 0, 0, 0, 0, 0, 0, 0, 0, 0, 0, 0, 0, 0, 0,0.0,0.0,0.0,0.0,0.0,0.0,0.0,0.0,0.0,0.0,0.0,0.0,0.0,175,util\src\main\java\org\apache\etch\util\core\io\TransportData.java,0,0,0,0
org.apache.etch.util.core.io.TransportPacket, 0, 0, 0, 0, 0, 0, 0, 0, 0, 0, 0, 0, 0, 0,0.0,0.0,0.0,0.0,0.0,0.0,0.0,0.0,0.0,0.0,0.0,0.0,0.0,175,util\src\main\java\org\apache\etch\util\core\io\TransportPacket.java,0,0,0,0
org.apache.etch.util.core.io.UdpConnection, 0, 0, 0, 0, 0, 0, 0, 0, 0, 0, 0, 0, 0, 0,0.0,0.0,0.0,0.14285714285714285,0.0,0.0,0.0,0.0,0.0,0.0,0.0,0.0,0.0,226,util\src\main\java\org\apache\etch\util\core\io\UdpConnection.java,0,0,0,0
org.apache.etch.util.core.nio.AbstractHandler, 0, 0, 0, 0, 0, 0, 0, 0, 0, 0, 0, 0, 0, 0,0.0,0.0,0.0,0.2,0.0,0.0,0.0,0.0,0.0,0.0,0.0,0.0,0.0,156,util\src\main\java\org\apache\etch\util\core\nio\AbstractHandler.java,0,0,0,0
org.apache.etch.util.core.nio.AcceptHandler, 0, 0, 0, 0, 0, 0, 0, 0, 0, 0, 0, 0, 0, 0,0.0,0.0,0.0,0.0,0.0,0.0,0.0,0.0,0.0,0.0,0.0,0.0,0.0,46,util\src\main\java\org\apache\etch\util\core\nio\AcceptHandler.java,0,0,0,0
org.apache.etch.util.core.nio.AcceptHandlerFactory, 0, 0, 0, 0, 0, 0, 0, 0, 0, 0, 0, 0, 0, 0,0.0,0.0,0.0,0.0,0.0,0.0,0.0,0.0,0.0,0.0,0.0,0.0,0.0,46,util\src\main\java\org\apache\etch\util\core\nio\AcceptHandlerFactory.java,0,0,0,0
org.apache.etch.util.core.nio.ByteBufferPool, 0, 0, 0, 0, 0, 0, 0, 1, 0, 0, 0, 0, 0, 1,0.0,0.0,0.0,0.2,0.0,0.0,0.0,0.2,0.0,0.0,0.0,0.0,0.0,216,util\src\main\java\org\apache\etch\util\core\nio\ByteBufferPool.java,0,0,0,0
org.apache.etch.util.core.nio.Handler, 0, 0, 0, 0, 0, 0, 0, 0, 0, 0, 0, 0, 0, 0,0.0,0.0,0.0,0.0,0.0,0.0,0.0,0.0,0.0,0.0,0.0,0.0,0.0,216,util\src\main\java\org\apache\etch\util\core\nio\Handler.java,0,0,0,0
org.apache.etch.util.core.nio.History, 0, 0, 0, 0, 0, 0, 0, 0, 0, 0, 0, 0, 0, 0,0.0,0.0,0.0,0.0,0.0,0.0,0.0,0.5,0.0,0.0,0.0,0.0,0.0,109,util\src\main\java\org\apache\etch\util\core\nio\History.java,0,0,0,0
org.apache.etch.util.core.nio.Selector, 0, 0, 0, 0, 0, 0, 0, 0, 0, 0, 0, 0, 0, 0,0.0,0.0,0.0,0.0,0.0,0.0,0.0,0.0,0.0,0.0,0.0,0.0,0.0,301,util\src\main\java\org\apache\etch\util\core\nio\Selector.java,0,0,0,0
org.apache.etch.util.core.nio.StreamHandler, 0, 0, 0, 0, 0, 0, 0, 0, 0, 0, 0, 0, 0, 0,0.0,0.0,0.0,0.5,0.0,0.0,0.0,0.0,0.0,0.0,0.0,0.0,0.0,47,util\src\main\java\org\apache\etch\util\core\nio\StreamHandler.java,0,0,0,0
org.apache.etch.util.core.nio.StreamHandlerFactory, 0, 0, 0, 0, 0, 0, 0, 0, 0, 0, 0, 0, 0, 0,0.0,0.0,0.0,0.0,0.0,0.0,0.0,0.0,0.0,0.0,0.0,0.0,0.0,47,util\src\main\java\org\apache\etch\util\core\nio\StreamHandlerFactory.java,0,0,0,0
org.apache.etch.util.core.nio.Tcp2Connection, 0, 0, 0, 1, 0, 0, 0, 0, 0, 0, 0, 0, 0, 1,0.0,0.0,0.0,0.1111111111111111,0.0,0.0,0.0,0.2222222222222222,0.0,0.0,0.0,0.0,0.0,423,util\src\main\java\org\apache\etch\util\core\nio\Tcp2Connection.java,0,0,0,0
org.apache.etch.util.core.nio.Tcp2Listener, 0, 0, 0, 0, 0, 0, 0, 0, 0, 0, 0, 0, 0, 0,0.0,0.0,0.0,0.0,0.0,0.0,0.0,0.14285714285714285,0.0,0.0,0.0,0.0,0.0,270,util\src\main\java\org\apache\etch\util\core\nio\Tcp2Listener.java,0,0,0,0
org.apache.etch.util.core.nio.TestByteBufferPool, 0, 0, 0, 0, 0, 0, 0, 0, 0, 0, 0, 0, 0, 0,0.0,0.0,0.0,0.0,0.0,0.0,0.0,1.0,0.0,0.0,0.0,0.0,0.0,194,util\src\test\java\org\apache\etch\util\core\nio\TestByteBufferPool.java,0,0,0,0
org.apache.etch.util.core.nio.TestHistory, 0, 0, 0, 0, 0, 0, 0, 0, 0, 0, 0, 0, 0, 0,0.0,0.0,0.0,0.0,0.0,0.0,0.0,0.0,0.0,0.0,0.0,0.0,0.0,323,util\src\test\java\org\apache\etch\util\core\nio\TestHistory.java,0,0,0,0
org.apache.etch.util.core.nio.TestTcp2Connection, 0, 0, 0, 0, 0, 0, 0, 0, 0, 0, 0, 0, 0, 0,0.0,0.0,0.0,0.4,0.0,0.0,0.0,0.2,0.0,0.0,0.0,0.0,0.0,545,util\src\test\java\org\apache\etch\util\core\nio\TestTcp2Connection.java,0,0,0,0
org.apache.etch.util.core.nio.TestTcp2Listener, 0, 0, 0, 0, 0, 0, 0, 0, 0, 0, 0, 0, 0, 0,0.0,0.0,0.0,0.0,0.0,0.0,0.0,0.0,0.0,0.0,0.0,0.0,0.0,291,util\src\test\java\org\apache\etch\util\core\nio\TestTcp2Listener.java,0,0,0,0
org.apache.etch.util.core.xml.ParseException, 0, 0, 0, 0, 0, 0, 0, 0, 0, 0, 0, 0, 0, 0,0.0,0.0,0.0,0.0,0.0,0.0,0.0,0.0,0.0,0.0,0.0,0.0,0.0,32,util\src\main\java\org\apache\etch\util\core\xml\ParseException.java,0,0,0,0
org.apache.etch.util.core.xml.StringBuf, 0, 0, 0, 0, 0, 0, 0, 0, 0, 0, 0, 0, 0, 0,0.0,0.0,0.0,0.0,0.0,0.0,0.0,0.0,0.0,0.0,0.0,0.0,0.0,32,util\src\main\java\org\apache\etch\util\core\xml\StringBuf.java,0,0,0,0
org.apache.etch.util.core.xml.testJaxp, 0, 0, 0, 0, 0, 0, 0, 0, 0, 0, 0, 0, 0, 0,0.0,0.0,0.0,0.0,0.0,0.0,0.0,0.0,0.0,0.0,0.0,0.0,0.0,77,util\src\test\java\org\apache\etch\util\core\xml\testJaxp.java,0,0,0,0
,0.0,0.0,0.0,0.0,0.0,0.0,0.0,0.0,0.0,0.0,0.0,0.0,0.0,77,binding-c\compiler\src\main\java\org\apache\etch\bindings\c\compiler\Compiler.java,0,0,0,0
