ClassName,AntiSingleton,Blob,ClassDataShouldBePrivate,ComplexClass,LargeClass,LazyClass,LongMethod,LongParameterList,MessageChains,RefusedParentBequest,SpaghettiCode,SpeculativeGenerality,SwissArmyKnife,NumOfAPs,AntiSingleton,Blob,ClassDataShouldBePrivate,ComplexClass,LargeClass,LazyClass,LongMethod,LongParameterList,MessageChains,RefusedParentBequest,SpaghettiCode,SpeculativeGenerality,SwissArmyKnife,LOC,name,deleted,added,changed,all
backtype.storm.Constants, 0, 0, 0, 0, 0, 0, 0, 0, 0, 0, 0, 0, 0, 0,0.0,0.0,0.0,0.0,0.0,0.0,0.0,0.0,0.0,0.0,0.0,0.0,0.0,10,storm-core\src\jvm\backtype\storm\Constants.java,0,0,0,0
backtype.storm.ILocalDRPC, 0, 0, 0, 0, 0, 0, 0, 0, 0, 0, 0, 0, 0, 0,0.0,0.0,0.0,0.0,0.0,0.0,0.0,0.0,0.0,0.0,0.0,0.0,0.0,10,storm-core\src\jvm\backtype\storm\ILocalDRPC.java,0,0,0,0
backtype.storm.coordination.BatchOutputCollector, 0, 0, 0, 0, 0, 0, 0, 0, 0, 0, 0, 0, 0, 0,0.0,0.0,0.0,0.2,0.0,0.0,0.0,0.2,0.0,0.0,0.0,0.0,0.0,11,storm-core\src\jvm\backtype\storm\coordination\BatchOutputCollector.java,0,0,0,0
backtype.storm.coordination.BatchOutputCollectorImpl, 0, 0, 0, 0, 0, 0, 0, 0, 0, 0, 0, 0, 0, 0,0.0,0.0,0.0,0.0,0.0,0.0,0.0,0.0,0.0,0.0,0.0,0.0,0.0,24,storm-core\src\jvm\backtype\storm\coordination\BatchOutputCollectorImpl.java,0,0,0,0
backtype.storm.daemon.Shutdownable, 0, 0, 0, 0, 0, 0, 0, 0, 0, 0, 0, 0, 0, 0,0.0,0.0,0.0,0.0,0.0,0.0,0.0,0.0,0.0,0.0,0.0,0.0,0.0,24,storm-core\src\jvm\backtype\storm\daemon\Shutdownable.java,0,0,0,0
backtype.storm.drpc.DRPCInvocationsClient, 0, 0, 0, 0, 0, 0, 0, 0, 0, 0, 0, 0, 0, 0,0.0,0.0,0.0,0.0,0.0,0.0,0.0,0.0,0.0,0.0,0.0,0.0,0.0,56,storm-core\src\jvm\backtype\storm\drpc\DRPCInvocationsClient.java,0,0,0,0
backtype.storm.drpc.LinearDRPCInputDeclarer, 0, 0, 0, 0, 0, 0, 0, 0, 0, 0, 0, 0, 0, 0,0.0,0.0,0.0,0.0,0.0,0.0,0.0,0.0,0.0,0.0,0.0,0.0,0.0,56,storm-core\src\jvm\backtype\storm\drpc\LinearDRPCInputDeclarer.java,0,0,0,0
backtype.storm.grouping.CustomStreamGrouping, 0, 0, 0, 0, 0, 0, 0, 0, 0, 0, 0, 0, 0, 0,0.0,0.0,0.0,0.0,0.0,0.0,0.0,0.0,0.0,0.0,0.0,0.0,0.0,56,storm-core\src\jvm\backtype\storm\grouping\CustomStreamGrouping.java,0,0,0,0
backtype.storm.hooks.info.BoltAckInfo, 0, 0, 1, 0, 0, 0, 0, 0, 0, 0, 0, 0, 0, 1,0.0,0.0,0.0,0.0,0.0,0.0,0.0,0.0,0.0,0.0,0.0,0.0,0.0,10,storm-core\src\jvm\backtype\storm\hooks\info\BoltAckInfo.java,0,0,0,0
backtype.storm.hooks.info.BoltExecuteInfo, 0, 0, 1, 0, 0, 0, 0, 0, 0, 0, 0, 0, 0, 1,0.0,0.0,0.0,0.0,0.0,0.0,0.0,0.0,0.0,0.0,0.0,0.0,0.0,10,storm-core\src\jvm\backtype\storm\hooks\info\BoltExecuteInfo.java,0,0,0,0
backtype.storm.hooks.info.BoltFailInfo, 0, 0, 1, 0, 0, 0, 0, 0, 0, 0, 0, 0, 0, 1,0.0,0.0,0.0,0.0,0.0,0.0,0.0,0.0,0.0,0.0,0.0,0.0,0.0,10,storm-core\src\jvm\backtype\storm\hooks\info\BoltFailInfo.java,0,0,0,0
backtype.storm.hooks.info.EmitInfo, 0, 0, 1, 0, 0, 0, 0, 0, 0, 0, 0, 0, 0, 1,0.0,0.0,0.0,0.0,0.0,0.0,0.0,0.0,0.0,0.0,0.0,0.0,0.0,12,storm-core\src\jvm\backtype\storm\hooks\info\EmitInfo.java,0,0,0,0
backtype.storm.hooks.info.SpoutAckInfo, 0, 0, 1, 0, 0, 0, 0, 0, 0, 0, 0, 0, 0, 1,0.0,0.0,0.0,0.0,0.0,0.0,0.0,0.0,0.0,0.0,0.0,0.0,0.0,10,storm-core\src\jvm\backtype\storm\hooks\info\SpoutAckInfo.java,0,0,0,0
backtype.storm.hooks.info.SpoutFailInfo, 0, 0, 1, 0, 0, 0, 0, 0, 0, 0, 0, 0, 0, 1,0.0,0.0,0.0,0.0,0.0,0.0,0.0,0.0,0.0,0.0,0.0,0.0,0.0,10,storm-core\src\jvm\backtype\storm\hooks\info\SpoutFailInfo.java,0,0,0,0
backtype.storm.messaging.ConnectionWithStatus, 0, 0, 0, 0, 0, 0, 0, 0, 0, 0, 0, 0, 0, 0,0.0,0.0,0.0,0.0,0.0,0.0,0.0,0.0,0.0,0.0,0.0,0.0,0.0,7,storm-core\src\jvm\backtype\storm\messaging\ConnectionWithStatus.java,0,0,0,0
backtype.storm.messaging.IConnection, 0, 0, 0, 0, 0, 0, 0, 0, 0, 0, 0, 0, 0, 0,0.0,0.0,0.0,0.0,0.0,0.0,0.0,0.0,0.0,0.0,0.0,0.0,0.0,7,storm-core\src\jvm\backtype\storm\messaging\IConnection.java,0,0,0,0
backtype.storm.messaging.TaskMessage, 0, 0, 0, 0, 0, 0, 0, 0, 0, 0, 0, 0, 0, 0,0.0,0.0,0.0,0.0,0.0,0.0,0.0,0.0,0.0,0.0,0.0,0.0,0.0,26,storm-core\src\jvm\backtype\storm\messaging\TaskMessage.java,0,0,0,0
backtype.storm.messaging.netty.MessageBatch, 0, 0, 0, 0, 0, 0, 0, 0, 0, 0, 0, 0, 0, 0,0.0,0.0,0.0,0.0,0.0,0.0,0.0,0.0,0.0,0.0,0.0,0.0,0.0,61,storm-core\src\jvm\backtype\storm\messaging\netty\MessageBatch.java,0,0,0,0
backtype.storm.messaging.netty.MessageDecoder, 0, 0, 0, 0, 0, 0, 0, 0, 0, 0, 0, 0, 0, 0,0.0,0.0,0.0,0.0,0.0,0.0,0.0,0.0,0.0,0.0,0.0,0.0,0.0,44,storm-core\src\jvm\backtype\storm\messaging\netty\MessageDecoder.java,0,0,0,0
backtype.storm.messaging.netty.MessageEncoder, 0, 0, 0, 0, 0, 0, 0, 0, 0, 0, 0, 0, 0, 0,0.0,0.0,0.0,0.0,0.0,0.0,0.0,0.0,0.0,0.0,0.0,0.0,0.0,12,storm-core\src\jvm\backtype\storm\messaging\netty\MessageEncoder.java,0,0,0,0
backtype.storm.messaging.netty.NettyRenameThreadFactory, 0, 0, 0, 0, 0, 0, 0, 0, 0, 0, 0, 0, 0, 0,0.0,0.0,0.0,0.0,0.0,0.0,0.0,0.0,0.0,0.0,0.0,0.0,0.0,22,storm-core\src\jvm\backtype\storm\messaging\netty\NettyRenameThreadFactory.java,0,0,0,0
backtype.storm.messaging.netty.StormClientErrorHandler, 0, 0, 0, 0, 0, 0, 0, 0, 0, 0, 0, 0, 0, 0,0.0,0.0,0.0,0.0,0.0,0.0,0.0,0.0,0.0,0.0,0.0,0.0,0.0,14,storm-core\src\jvm\backtype\storm\messaging\netty\StormClientErrorHandler.java,0,0,0,0
backtype.storm.messaging.netty.StormClientPipelineFactory, 0, 0, 0, 0, 0, 0, 0, 0, 0, 0, 0, 0, 0, 0,0.0,0.0,0.0,0.0,0.0,0.0,0.0,0.0,0.0,0.0,0.0,0.0,0.0,13,storm-core\src\jvm\backtype\storm\messaging\netty\StormClientPipelineFactory.java,0,0,0,0
backtype.storm.messaging.netty.StormServerHandler, 0, 0, 0, 0, 0, 0, 0, 0, 0, 0, 0, 0, 0, 0,0.0,0.0,0.0,0.0,0.0,0.0,0.0,0.0,0.0,0.0,0.0,0.0,0.0,31,storm-core\src\jvm\backtype\storm\messaging\netty\StormServerHandler.java,0,0,0,0
backtype.storm.messaging.netty.StormServerPipelineFactory, 0, 0, 0, 0, 0, 0, 0, 0, 0, 0, 0, 0, 0, 0,0.0,0.0,0.0,0.0,0.0,0.0,0.0,0.0,0.0,0.0,0.0,0.0,0.0,13,storm-core\src\jvm\backtype\storm\messaging\netty\StormServerPipelineFactory.java,0,0,0,0
backtype.storm.metric.api.AssignableMetric, 0, 0, 0, 0, 0, 0, 0, 0, 0, 0, 0, 0, 0, 0,0.0,0.0,0.0,0.0,0.0,0.0,0.0,0.0,0.0,0.0,0.0,0.0,0.0,12,storm-core\src\jvm\backtype\storm\metric\api\AssignableMetric.java,0,0,0,0
backtype.storm.metric.api.CombinedMetric, 0, 0, 0, 0, 0, 0, 0, 0, 0, 0, 0, 0, 0, 0,0.0,0.0,0.0,0.0,0.0,0.0,0.0,0.0,0.0,0.0,0.0,0.0,0.0,16,storm-core\src\jvm\backtype\storm\metric\api\CombinedMetric.java,0,0,0,0
backtype.storm.metric.api.CountMetric, 0, 0, 0, 0, 0, 0, 0, 0, 0, 0, 0, 0, 0, 0,0.0,0.0,0.0,0.0,0.0,0.0,0.0,0.0,0.0,0.0,0.0,0.0,0.0,16,storm-core\src\jvm\backtype\storm\metric\api\CountMetric.java,0,0,0,0
backtype.storm.metric.api.ICombiner, 0, 0, 0, 0, 0, 0, 0, 0, 0, 0, 0, 0, 0, 0,0.0,0.0,0.0,0.0,0.0,0.0,0.0,0.0,0.0,0.0,0.0,0.0,0.0,16,storm-core\src\jvm\backtype\storm\metric\api\ICombiner.java,0,0,0,0
backtype.storm.metric.api.IMetric, 0, 0, 0, 0, 0, 0, 0, 0, 0, 0, 0, 0, 0, 0,0.0,0.0,0.0,0.0,0.0,0.0,0.0,0.0,0.0,0.0,0.0,0.0,0.0,16,storm-core\src\jvm\backtype\storm\metric\api\IMetric.java,0,0,0,0
backtype.storm.metric.api.IReducer, 0, 0, 0, 0, 0, 0, 0, 0, 0, 0, 0, 0, 0, 0,0.0,0.0,0.0,0.0,0.0,0.0,0.0,0.0,0.0,0.0,0.0,0.0,0.0,16,storm-core\src\jvm\backtype\storm\metric\api\IReducer.java,0,0,0,0
backtype.storm.metric.api.IStatefulObject, 0, 0, 0, 0, 0, 0, 0, 0, 0, 0, 0, 0, 0, 0,0.0,0.0,0.0,0.0,0.0,0.0,0.0,0.0,0.0,0.0,0.0,0.0,0.0,16,storm-core\src\jvm\backtype\storm\metric\api\IStatefulObject.java,0,0,0,0
backtype.storm.metric.api.MeanReducer, 0, 0, 0, 0, 0, 0, 0, 0, 0, 0, 0, 0, 0, 0,0.0,0.0,1.0,0.0,0.0,0.0,0.0,0.0,0.0,0.0,0.0,0.0,0.0,26,storm-core\src\jvm\backtype\storm\metric\api\MeanReducer.java,0,0,0,0
backtype.storm.metric.api.MeanReducerState, 0, 0, 1, 0, 0, 0, 0, 0, 0, 0, 0, 0, 0, 1,0.0,0.0,0.0,0.0,0.0,0.0,0.0,0.0,0.0,0.0,0.0,0.0,0.0,4,storm-core\src\jvm\backtype\storm\metric\api\MeanReducer.java,0,0,0,0
backtype.storm.metric.api.ReducedMetric, 0, 0, 0, 0, 0, 0, 0, 0, 0, 0, 0, 0, 0, 0,0.0,0.0,0.0,0.0,0.0,0.0,0.0,0.0,0.0,0.0,0.0,0.0,0.0,16,storm-core\src\jvm\backtype\storm\metric\api\ReducedMetric.java,0,0,0,0
backtype.storm.metric.api.StateMetric, 0, 0, 0, 0, 0, 0, 0, 0, 0, 0, 0, 0, 0, 0,0.0,0.0,0.0,0.0,0.0,0.0,0.0,0.0,0.0,0.0,0.0,0.0,0.0,10,storm-core\src\jvm\backtype\storm\metric\api\StateMetric.java,0,0,0,0
backtype.storm.metric.api.rpc.AssignableShellMetric, 0, 0, 0, 0, 0, 0, 0, 0, 0, 0, 0, 0, 0, 0,0.0,0.0,0.0,0.0,0.0,0.0,0.0,0.0,0.0,0.0,0.0,0.0,0.0,8,storm-core\src\jvm\backtype\storm\metric\api\rpc\AssignableShellMetric.java,0,0,0,0
backtype.storm.metric.api.rpc.CombinedShellMetric, 0, 0, 0, 0, 0, 0, 0, 0, 0, 0, 0, 0, 0, 0,0.0,0.0,0.0,0.0,0.0,0.0,0.0,0.0,0.0,0.0,0.0,0.0,0.0,8,storm-core\src\jvm\backtype\storm\metric\api\rpc\CombinedShellMetric.java,0,0,0,0
backtype.storm.metric.api.rpc.CountShellMetric, 0, 0, 0, 0, 0, 0, 0, 0, 0, 0, 0, 0, 0, 0,0.0,0.0,0.0,0.0,0.0,0.0,0.0,0.0,0.0,0.0,0.0,0.0,0.0,11,storm-core\src\jvm\backtype\storm\metric\api\rpc\CountShellMetric.java,0,0,0,0
backtype.storm.metric.api.rpc.IShellMetric, 0, 0, 0, 0, 0, 0, 0, 0, 0, 0, 0, 0, 0, 0,0.0,0.0,0.0,0.0,0.0,0.0,0.0,0.0,0.0,0.0,0.0,0.0,0.0,11,storm-core\src\jvm\backtype\storm\metric\api\rpc\IShellMetric.java,0,0,0,0
backtype.storm.metric.api.rpc.ReducedShellMetric, 0, 0, 0, 0, 0, 0, 0, 0, 0, 0, 0, 0, 0, 0,0.0,0.0,0.0,0.0,0.0,0.0,0.0,0.0,0.0,0.0,0.0,0.0,0.0,8,storm-core\src\jvm\backtype\storm\metric\api\rpc\ReducedShellMetric.java,0,0,0,0
backtype.storm.multilang.BoltMsg, 0, 0, 0, 1, 0, 0, 0, 0, 0, 0, 0, 0, 0, 1,0.0,0.0,0.0,0.0,0.0,0.0,0.0,0.0,0.0,0.0,0.0,0.0,0.0,37,storm-core\src\jvm\backtype\storm\multilang\BoltMsg.java,0,0,0,0
backtype.storm.multilang.NoOutputException, 0, 0, 0, 0, 0, 0, 0, 0, 0, 0, 0, 0, 0, 0,0.0,0.0,0.0,0.0,0.0,0.0,0.0,0.0,0.0,0.0,0.0,0.0,0.0,14,storm-core\src\jvm\backtype\storm\multilang\NoOutputException.java,0,0,0,0
backtype.storm.multilang.ShellMsg, 0, 0, 0, 1, 0, 0, 0, 0, 0, 0, 0, 0, 0, 1,0.0,0.0,0.0,0.0,0.0,0.0,0.0,0.0,0.0,0.0,0.0,0.0,0.0,120,storm-core\src\jvm\backtype\storm\multilang\ShellMsg.java,0,0,0,0
backtype.storm.multilang.SpoutMsg, 0, 0, 0, 0, 0, 0, 0, 0, 0, 0, 0, 0, 0, 0,0.0,0.0,0.0,0.0,0.0,0.0,0.0,0.0,0.0,0.0,0.0,0.0,0.0,16,storm-core\src\jvm\backtype\storm\multilang\SpoutMsg.java,0,0,0,0
backtype.storm.planner.CompoundSpout, 0, 0, 0, 0, 0, 0, 0, 0, 0, 0, 0, 0, 0, 0,0.0,0.0,0.0,0.0,0.0,0.0,0.0,0.0,0.0,0.0,0.0,0.0,0.0,2,storm-core\src\jvm\backtype\storm\planner\CompoundSpout.java,0,0,0,0
backtype.storm.planner.CompoundTask, 0, 0, 0, 0, 0, 0, 0, 0, 0, 0, 0, 0, 0, 0,0.0,0.0,0.0,0.0,0.0,0.0,0.0,0.0,0.0,0.0,0.0,0.0,0.0,2,storm-core\src\jvm\backtype\storm\planner\CompoundTask.java,0,0,0,0
backtype.storm.planner.TaskBundle, 0, 0, 1, 0, 0, 0, 0, 0, 0, 0, 0, 0, 0, 1,0.0,0.0,0.0,0.0,0.0,0.0,0.0,0.0,0.0,0.0,0.0,0.0,0.0,7,storm-core\src\jvm\backtype\storm\planner\TaskBundle.java,0,0,0,0
backtype.storm.scheduler.ExecutorDetails, 0, 0, 0, 0, 0, 0, 0, 0, 0, 0, 0, 0, 0, 0,0.0,0.0,0.0,0.0,0.0,0.0,0.0,0.0,0.0,0.0,0.0,0.0,0.0,28,storm-core\src\jvm\backtype\storm\scheduler\ExecutorDetails.java,0,0,0,0
backtype.storm.scheduler.SupervisorDetails, 0, 0, 0, 1, 0, 0, 0, 0, 0, 0, 0, 0, 0, 1,0.0,0.0,0.0,0.0,0.0,0.0,0.0,0.0,0.0,0.0,0.0,0.0,0.0,46,storm-core\src\jvm\backtype\storm\scheduler\SupervisorDetails.java,0,0,0,0
backtype.storm.scheduler.WorkerSlot, 0, 0, 0, 0, 0, 0, 0, 0, 0, 0, 0, 0, 0, 0,0.0,0.0,0.0,0.0,0.0,0.0,0.0,0.0,0.0,0.0,0.0,0.0,0.0,27,storm-core\src\jvm\backtype\storm\scheduler\WorkerSlot.java,0,0,0,0
backtype.storm.serialization.GzipBridgeSerializationDelegateTest, 0, 0, 0, 0, 0, 0, 0, 0, 0, 0, 0, 0, 0, 0,0.0,0.0,0.0,0.0,0.0,0.0,0.0,0.0,0.0,0.0,0.0,0.0,0.0,41,storm-core\test\jvm\backtype\storm\serialization\GzipBridgeSerializationDelegateTest.java,0,0,0,0
backtype.storm.serialization.IKryoDecorator, 0, 0, 0, 0, 0, 0, 0, 0, 0, 0, 0, 0, 0, 0,0.0,0.0,0.0,0.0,0.0,0.0,0.0,0.0,0.0,0.0,0.0,0.0,0.0,41,storm-core\src\jvm\backtype\storm\serialization\IKryoDecorator.java,0,0,0,0
backtype.storm.serialization.ITupleDeserializer, 0, 0, 0, 0, 0, 0, 0, 0, 0, 0, 0, 0, 0, 0,0.0,0.0,0.0,0.0,0.0,0.0,0.0,0.0,0.0,0.0,0.0,0.0,0.0,41,storm-core\src\jvm\backtype\storm\serialization\ITupleDeserializer.java,0,0,0,0
backtype.storm.serialization.ITupleSerializer, 0, 0, 0, 0, 0, 0, 0, 0, 0, 0, 0, 0, 0, 0,0.0,0.0,0.0,0.0,0.0,0.0,0.0,0.0,0.0,0.0,0.0,0.0,0.0,41,storm-core\src\jvm\backtype\storm\serialization\ITupleSerializer.java,0,0,0,0
backtype.storm.serialization.SerializableSerializer, 0, 0, 0, 0, 0, 0, 0, 0, 0, 0, 0, 0, 0, 0,0.0,0.0,0.0,0.0,0.0,0.0,0.0,0.0,0.0,0.0,0.0,0.0,0.0,29,storm-core\src\jvm\backtype\storm\serialization\SerializableSerializer.java,0,0,0,0
backtype.storm.serialization.types.ArrayListSerializer, 0, 0, 0, 0, 0, 0, 0, 0, 0, 0, 0, 0, 0, 0,0.0,0.0,0.0,0.0,0.0,0.0,0.0,0.0,0.0,0.0,0.0,0.0,0.0,6,storm-core\src\jvm\backtype\storm\serialization\types\ArrayListSerializer.java,0,0,0,0
backtype.storm.serialization.types.HashSetSerializer, 0, 0, 0, 0, 0, 0, 0, 0, 0, 0, 0, 0, 0, 0,0.0,0.0,0.0,0.0,0.0,0.0,0.0,0.0,0.0,0.0,0.0,0.0,0.0,6,storm-core\src\jvm\backtype\storm\serialization\types\HashSetSerializer.java,0,0,0,0
backtype.storm.serialization.types.ListDelegateSerializer, 0, 0, 0, 0, 0, 0, 0, 0, 0, 0, 0, 0, 0, 0,0.0,0.0,0.0,0.0,0.0,0.0,0.0,0.0,0.0,0.0,0.0,0.0,0.0,6,storm-core\src\jvm\backtype\storm\serialization\types\ListDelegateSerializer.java,0,0,0,0
backtype.storm.spout.IMultiSchemableSpout, 0, 0, 0, 0, 0, 0, 0, 0, 0, 0, 0, 0, 0, 0,0.0,0.0,0.0,0.0,0.0,0.0,0.0,0.0,0.0,0.0,0.0,0.0,0.0,6,storm-core\src\jvm\backtype\storm\spout\IMultiSchemableSpout.java,0,0,0,0
backtype.storm.spout.ISchemableSpout, 0, 0, 0, 0, 0, 0, 0, 0, 0, 0, 0, 0, 0, 0,0.0,0.0,0.0,0.0,0.0,0.0,0.0,0.0,0.0,0.0,0.0,0.0,0.0,6,storm-core\src\jvm\backtype\storm\spout\ISchemableSpout.java,0,0,0,0
backtype.storm.spout.ISpoutOutputCollector, 0, 0, 0, 0, 0, 0, 0, 0, 0, 0, 0, 0, 0, 0,0.0,0.0,0.0,0.0,0.0,0.0,0.0,0.0,0.0,0.0,0.0,0.0,0.0,6,storm-core\src\jvm\backtype\storm\spout\ISpoutOutputCollector.java,0,0,0,0
backtype.storm.spout.MultiScheme, 0, 0, 0, 0, 0, 0, 0, 0, 0, 0, 0, 0, 0, 0,0.0,0.0,0.0,0.0,0.0,0.0,0.0,0.0,0.0,0.0,0.0,0.0,0.0,6,storm-core\src\jvm\backtype\storm\spout\MultiScheme.java,0,0,0,0
backtype.storm.spout.RawMultiScheme, 0, 0, 0, 0, 0, 0, 0, 0, 0, 0, 0, 0, 0, 0,0.0,0.0,0.0,0.0,0.0,0.0,0.0,0.0,0.0,0.0,0.0,0.0,0.0,10,storm-core\src\jvm\backtype\storm\spout\RawMultiScheme.java,0,0,0,0
backtype.storm.spout.RawScheme, 0, 0, 0, 0, 0, 0, 0, 0, 0, 0, 0, 0, 0, 0,0.0,0.0,0.0,0.0,0.0,0.0,0.0,0.0,0.0,0.0,0.0,0.0,0.0,8,storm-core\src\jvm\backtype\storm\spout\RawScheme.java,0,0,0,0
backtype.storm.spout.Scheme, 0, 0, 0, 0, 0, 0, 0, 0, 0, 0, 0, 0, 0, 0,0.0,0.0,0.0,0.0,0.0,0.0,0.0,0.0,0.0,0.0,0.0,0.0,0.0,8,storm-core\src\jvm\backtype\storm\spout\Scheme.java,0,0,0,0
backtype.storm.spout.SchemeAsMultiScheme, 0, 0, 0, 0, 0, 0, 0, 0, 0, 0, 0, 0, 0, 0,0.0,0.0,0.0,0.0,0.0,0.0,0.0,0.0,0.0,0.0,0.0,0.0,0.0,14,storm-core\src\jvm\backtype\storm\spout\SchemeAsMultiScheme.java,0,0,0,0
backtype.storm.spout.SpoutOutputCollector, 0, 0, 0, 0, 0, 0, 0, 0, 0, 0, 0, 0, 0, 0,0.0,0.0,0.0,0.0,0.0,0.0,0.0,0.0,0.0,0.0,0.0,0.0,0.0,34,storm-core\src\jvm\backtype\storm\spout\SpoutOutputCollector.java,0,0,0,0
backtype.storm.state.IStateSpoutOutputCollector, 0, 0, 0, 0, 0, 0, 0, 0, 0, 0, 0, 0, 0, 0,0.0,0.0,0.0,0.0,0.0,0.0,0.0,0.0,0.0,0.0,0.0,0.0,0.0,34,storm-core\src\jvm\backtype\storm\state\IStateSpoutOutputCollector.java,0,0,0,0
backtype.storm.state.ISubscribedState, 0, 0, 0, 0, 0, 0, 0, 0, 0, 0, 0, 0, 0, 0,0.0,0.0,0.0,0.0,0.0,0.0,0.0,0.0,0.0,0.0,0.0,0.0,0.0,34,storm-core\src\jvm\backtype\storm\state\ISubscribedState.java,0,0,0,0
backtype.storm.state.ISynchronizeOutputCollector, 0, 0, 0, 0, 0, 0, 0, 0, 0, 0, 0, 0, 0, 0,0.0,0.0,0.0,0.0,0.0,0.0,0.0,0.0,0.0,0.0,0.0,0.0,0.0,34,storm-core\src\jvm\backtype\storm\state\ISynchronizeOutputCollector.java,0,0,0,0
backtype.storm.state.StateSpoutOutputCollector, 0, 0, 0, 0, 0, 0, 0, 0, 0, 0, 0, 0, 0, 0,0.0,0.0,0.0,0.0,0.0,0.0,0.0,0.0,0.0,0.0,0.0,0.0,0.0,6,storm-core\src\jvm\backtype\storm\state\StateSpoutOutputCollector.java,0,0,0,0
backtype.storm.state.SynchronizeOutputCollector, 0, 0, 0, 0, 0, 0, 0, 0, 0, 0, 0, 0, 0, 0,0.0,0.0,0.0,0.0,0.0,0.0,0.0,0.0,0.0,0.0,0.0,0.0,0.0,6,storm-core\src\jvm\backtype\storm\state\SynchronizeOutputCollector.java,0,0,0,0
backtype.storm.task.IErrorReporter, 0, 0, 0, 0, 0, 0, 0, 0, 0, 0, 0, 0, 0, 0,0.0,0.0,0.0,0.0,0.0,0.0,0.0,0.0,0.0,0.0,0.0,0.0,0.0,6,storm-core\src\jvm\backtype\storm\task\IErrorReporter.java,0,0,0,0
backtype.storm.task.IMetricsContext, 0, 0, 0, 0, 0, 0, 0, 0, 0, 0, 0, 0, 0, 0,0.0,0.0,0.0,0.0,0.0,0.0,0.0,0.0,0.0,0.0,0.0,0.0,0.0,6,storm-core\src\jvm\backtype\storm\task\IMetricsContext.java,0,0,0,0
backtype.storm.task.IOutputCollector, 0, 0, 0, 0, 0, 0, 0, 0, 0, 0, 0, 0, 0, 0,0.0,0.0,0.0,0.0,0.0,0.0,0.0,0.0,0.0,0.0,0.0,0.0,0.0,6,storm-core\src\jvm\backtype\storm\task\IOutputCollector.java,0,0,0,0
backtype.storm.testing.AckFailDelegate, 0, 0, 0, 0, 0, 0, 0, 0, 0, 0, 0, 0, 0, 0,0.0,0.0,0.0,0.0,0.0,0.0,0.0,0.0,0.0,0.0,0.0,0.0,0.0,6,storm-core\src\jvm\backtype\storm\testing\AckFailDelegate.java,0,0,0,0
backtype.storm.testing.AckFailMapTracker, 0, 0, 0, 0, 0, 0, 0, 0, 0, 0, 0, 0, 0, 0,0.0,0.0,0.0,0.0,0.0,0.0,0.0,0.0,0.0,0.0,0.0,0.0,0.0,22,storm-core\src\jvm\backtype\storm\testing\AckFailMapTracker.java,0,0,0,0
backtype.storm.testing.BatchProcessWord, 0, 0, 0, 0, 0, 0, 0, 0, 0, 0, 0, 0, 0, 0,0.0,0.0,0.0,0.0,0.0,0.0,0.0,0.0,0.0,0.0,0.0,0.0,0.0,10,storm-core\src\jvm\backtype\storm\testing\BatchProcessWord.java,0,0,0,0
backtype.storm.testing.BatchRepeatA, 0, 0, 0, 0, 0, 0, 0, 0, 0, 0, 0, 0, 0, 0,0.0,0.0,0.0,0.0,0.0,0.0,0.0,0.0,0.0,0.0,0.0,0.0,0.0,18,storm-core\src\jvm\backtype\storm\testing\BatchRepeatA.java,0,0,0,0
backtype.storm.testing.CompleteTopologyParam, 0, 0, 0, 0, 0, 0, 0, 0, 0, 0, 0, 0, 0, 0,0.0,0.0,0.0,0.0,0.0,0.0,0.0,0.0,0.0,0.0,0.0,0.0,0.0,30,storm-core\src\jvm\backtype\storm\testing\CompleteTopologyParam.java,0,0,0,0
backtype.storm.testing.FixedTuple, 0, 0, 1, 0, 0, 0, 0, 0, 0, 0, 0, 0, 0, 1,0.0,0.0,0.0,0.0,0.0,0.0,0.0,0.0,0.0,0.0,0.0,0.0,0.0,15,storm-core\src\jvm\backtype\storm\testing\FixedTuple.java,0,0,0,0
backtype.storm.testing.IdentityBolt, 0, 0, 0, 0, 0, 0, 0, 0, 0, 0, 0, 0, 0, 0,0.0,0.0,0.0,0.0,0.0,0.0,0.0,0.0,0.0,0.0,0.0,0.0,0.0,14,storm-core\src\jvm\backtype\storm\testing\IdentityBolt.java,0,0,0,0
backtype.storm.testing.KeyedCountingCommitterBolt, 0, 0, 0, 0, 0, 0, 0, 0, 0, 0, 0, 0, 0, 0,0.0,0.0,0.0,0.0,0.0,0.0,0.0,0.0,0.0,0.0,0.0,0.0,0.0,2,storm-core\src\jvm\backtype\storm\testing\KeyedCountingCommitterBolt.java,0,0,0,0
backtype.storm.testing.MemoryTransactionalSpoutMeta, 0, 0, 0, 0, 0, 0, 0, 0, 0, 0, 0, 0, 0, 0,0.0,0.0,0.0,0.0,0.0,0.0,0.0,0.0,0.0,0.0,0.0,0.0,0.0,14,storm-core\src\jvm\backtype\storm\testing\MemoryTransactionalSpoutMeta.java,0,0,0,0
backtype.storm.testing.MkTupleParam, 0, 0, 0, 0, 0, 0, 0, 0, 0, 0, 0, 0, 0, 0,0.0,0.0,0.0,0.0,0.0,0.0,0.0,0.0,0.0,0.0,0.0,0.0,0.0,26,storm-core\src\jvm\backtype\storm\testing\MkTupleParam.java,0,0,0,0
backtype.storm.testing.NGrouping, 0, 0, 0, 0, 0, 0, 0, 0, 0, 0, 0, 0, 0, 0,0.0,0.0,0.0,0.0,0.0,0.0,0.0,0.0,0.0,0.0,0.0,0.0,0.0,20,storm-core\src\jvm\backtype\storm\testing\NGrouping.java,0,0,0,0
backtype.storm.testing.PrepareBatchBolt, 0, 0, 0, 0, 0, 0, 0, 0, 0, 0, 0, 0, 0, 0,0.0,0.0,0.0,0.0,0.0,0.0,0.0,0.0,0.0,0.0,0.0,0.0,0.0,18,storm-core\src\jvm\backtype\storm\testing\PrepareBatchBolt.java,0,0,0,0
backtype.storm.testing.TestJob, 0, 0, 0, 0, 0, 0, 0, 0, 0, 0, 0, 0, 0, 0,0.0,0.0,0.0,0.0,0.0,0.0,0.0,0.0,0.0,0.0,0.0,0.0,0.0,18,storm-core\src\jvm\backtype\storm\testing\TestJob.java,0,0,0,0
backtype.storm.testing.TestKryoDecorator, 0, 0, 0, 0, 0, 0, 0, 0, 0, 0, 0, 0, 0, 0,0.0,0.0,0.0,0.0,0.0,0.0,0.0,0.0,0.0,0.0,0.0,0.0,0.0,5,storm-core\src\jvm\backtype\storm\testing\TestKryoDecorator.java,0,0,0,0
backtype.storm.testing.TestSerObject, 0, 0, 1, 0, 0, 0, 0, 0, 0, 0, 0, 0, 0, 1,0.0,0.0,0.0,0.0,0.0,0.0,0.0,0.0,0.0,0.0,0.0,0.0,0.0,13,storm-core\src\jvm\backtype\storm\testing\TestSerObject.java,0,0,0,0
backtype.storm.topology.BasicOutputCollector, 0, 0, 0, 0, 0, 0, 0, 0, 0, 0, 0, 0, 0, 0,0.0,0.0,0.0,0.0,0.0,0.0,0.0,0.0,0.0,0.0,0.0,0.0,0.0,28,storm-core\src\jvm\backtype\storm\topology\BasicOutputCollector.java,0,0,0,0
backtype.storm.topology.BoltDeclarer, 0, 0, 0, 0, 0, 0, 0, 0, 0, 0, 0, 0, 0, 0,0.0,0.0,0.0,0.0,0.0,0.0,0.0,0.0,0.0,0.0,0.0,0.0,0.0,28,storm-core\src\jvm\backtype\storm\topology\BoltDeclarer.java,0,0,0,0
backtype.storm.topology.FailedException, 0, 0, 0, 0, 0, 0, 0, 0, 0, 0, 0, 0, 0, 0,0.0,0.0,0.0,0.0,0.0,0.0,0.0,0.0,0.0,0.0,0.0,0.0,0.0,14,storm-core\src\jvm\backtype\storm\topology\FailedException.java,0,0,0,0
backtype.storm.topology.IBasicOutputCollector, 0, 0, 0, 0, 0, 0, 0, 0, 0, 0, 0, 0, 0, 0,0.0,0.0,0.0,0.0,0.0,0.0,0.0,0.0,0.0,0.0,0.0,0.0,0.0,14,storm-core\src\jvm\backtype\storm\topology\IBasicOutputCollector.java,0,0,0,0
backtype.storm.topology.IRichBolt, 0, 0, 0, 0, 0, 0, 0, 0, 0, 0, 0, 0, 0, 0,0.0,0.0,0.0,0.0,0.0,0.0,0.0,0.0,0.0,0.0,0.0,0.0,0.0,14,storm-core\src\jvm\backtype\storm\topology\IRichBolt.java,0,0,0,0
backtype.storm.topology.IRichSpout, 0, 0, 0, 0, 0, 0, 0, 0, 0, 0, 0, 0, 0, 0,0.0,0.0,0.0,0.0,0.0,0.0,0.0,0.0,0.0,0.0,0.0,0.0,0.0,14,storm-core\src\jvm\backtype\storm\topology\IRichSpout.java,0,0,0,0
backtype.storm.topology.IRichStateSpout, 0, 0, 0, 0, 0, 0, 0, 0, 0, 0, 0, 0, 0, 0,0.0,0.0,0.0,0.0,0.0,0.0,0.0,0.0,0.0,0.0,0.0,0.0,0.0,14,storm-core\src\jvm\backtype\storm\topology\IRichStateSpout.java,0,0,0,0
backtype.storm.topology.InputDeclarer, 0, 0, 0, 0, 0, 0, 0, 0, 0, 0, 0, 0, 0, 0,0.0,0.0,0.0,0.0,0.0,0.0,0.0,0.0,0.0,0.0,0.0,0.0,0.0,14,storm-core\src\jvm\backtype\storm\topology\InputDeclarer.java,0,0,0,0
backtype.storm.topology.OutputFieldsDeclarer, 0, 0, 0, 0, 0, 0, 0, 0, 0, 0, 0, 0, 0, 0,0.0,0.0,0.0,0.0,0.0,0.0,0.0,0.0,0.0,0.0,0.0,0.0,0.0,14,storm-core\src\jvm\backtype\storm\topology\OutputFieldsDeclarer.java,0,0,0,0
backtype.storm.topology.ReportedFailedException, 0, 0, 0, 0, 0, 0, 0, 0, 0, 0, 0, 0, 0, 0,0.0,0.0,0.0,0.0,0.0,0.0,0.0,0.0,0.0,0.0,0.0,0.0,0.0,14,storm-core\src\jvm\backtype\storm\topology\ReportedFailedException.java,0,0,0,0
backtype.storm.topology.SpoutDeclarer, 0, 0, 0, 0, 0, 0, 0, 0, 0, 0, 0, 0, 0, 0,0.0,0.0,0.0,0.0,0.0,0.0,0.0,0.0,0.0,0.0,0.0,0.0,0.0,14,storm-core\src\jvm\backtype\storm\topology\SpoutDeclarer.java,0,0,0,0
backtype.storm.topology.base.BaseOpaquePartitionedTransactionalSpout, 0, 0, 0, 0, 0, 0, 0, 0, 0, 0, 0, 0, 0, 0,0.0,0.0,0.0,0.0,0.0,0.0,0.0,0.0,0.0,0.0,0.0,0.0,0.0,2,storm-core\src\jvm\backtype\storm\topology\base\BaseOpaquePartitionedTransactionalSpout.java,0,0,0,0
backtype.storm.topology.base.BaseRichBolt, 0, 0, 0, 0, 0, 0, 0, 0, 0, 0, 0, 0, 0, 0,0.0,0.0,0.0,0.0,0.0,0.0,0.0,0.0,0.0,0.0,0.0,0.0,0.0,5,storm-core\src\jvm\backtype\storm\topology\base\BaseRichBolt.java,0,0,0,0
backtype.storm.topology.base.BaseRichSpout, 0, 0, 0, 0, 0, 0, 0, 0, 0, 0, 0, 0, 0, 0,0.0,0.0,0.0,0.0,0.0,0.0,0.0,0.0,0.0,0.0,0.0,0.0,0.0,17,storm-core\src\jvm\backtype\storm\topology\base\BaseRichSpout.java,0,0,0,0
backtype.storm.topology.base.BaseTransactionalBolt, 0, 0, 0, 0, 0, 0, 0, 0, 0, 0, 0, 0, 0, 0,0.0,0.0,0.0,0.0,0.0,0.0,0.0,0.0,0.0,0.0,0.0,0.0,0.0,2,storm-core\src\jvm\backtype\storm\topology\base\BaseTransactionalBolt.java,0,0,0,0
backtype.storm.transactional.ICommitter, 0, 0, 0, 0, 0, 0, 0, 0, 0, 0, 0, 0, 0, 0,0.0,0.0,0.0,0.0,0.0,0.0,0.0,0.0,0.0,0.0,0.0,0.0,0.0,2,storm-core\src\jvm\backtype\storm\transactional\ICommitter.java,0,0,0,0
backtype.storm.transactional.TransactionAttempt, 0, 0, 0, 0, 0, 0, 0, 0, 0, 0, 0, 0, 0, 0,0.0,0.0,0.0,0.0,0.0,0.0,0.0,0.0,0.0,0.0,0.0,0.0,0.0,30,storm-core\src\jvm\backtype\storm\transactional\TransactionAttempt.java,0,0,0,0
backtype.storm.tuple.ITuple, 0, 0, 0, 0, 0, 0, 0, 0, 0, 0, 0, 0, 0, 0,0.0,0.0,0.0,0.0,0.0,0.0,0.0,0.0,0.0,0.0,0.0,0.0,0.0,30,storm-core\src\jvm\backtype\storm\tuple\ITuple.java,0,0,0,0
backtype.storm.tuple.Tuple, 0, 0, 0, 0, 0, 0, 0, 0, 0, 0, 0, 0, 0, 0,0.0,0.0,0.0,0.0,0.0,0.0,0.0,0.0,0.0,0.0,0.0,0.0,0.0,30,storm-core\src\jvm\backtype\storm\tuple\Tuple.java,0,0,0,0
backtype.storm.tuple.TupleImpl, 0, 0, 0, 1, 0, 0, 0, 1, 0, 0, 0, 0, 0, 2,0.0,0.0,0.0,0.0,0.0,0.0,0.0,0.0,0.0,0.0,0.0,0.0,0.0,246,storm-core\src\jvm\backtype\storm\tuple\TupleImpl.java,0,0,0,0
backtype.storm.ui.InvalidRequestException, 0, 0, 0, 0, 0, 0, 0, 0, 0, 0, 0, 0, 0, 0,0.0,0.0,0.0,0.0,0.0,0.0,0.0,0.0,0.0,0.0,0.0,0.0,0.0,14,storm-core\src\jvm\backtype\storm\ui\InvalidRequestException.java,0,0,0,0
backtype.storm.utils.BufferFileInputStream, 0, 0, 0, 0, 0, 0, 0, 0, 0, 0, 0, 0, 0, 0,0.0,0.0,0.0,0.0,0.0,0.0,0.0,0.0,0.0,0.0,0.0,0.0,0.0,25,storm-core\src\jvm\backtype\storm\utils\BufferFileInputStream.java,0,0,0,0
backtype.storm.utils.CRC32OutputStream, 0, 0, 0, 0, 0, 0, 0, 0, 0, 0, 0, 0, 0, 0,0.0,0.0,0.0,0.0,0.0,0.0,0.0,0.0,0.0,0.0,0.0,0.0,0.0,17,storm-core\src\jvm\backtype\storm\utils\CRC32OutputStream.java,0,0,0,0
backtype.storm.utils.ClojureTimerTask, 0, 0, 0, 0, 0, 0, 0, 0, 0, 0, 0, 0, 0, 0,0.0,0.0,0.0,0.0,0.0,0.0,0.0,0.0,0.0,0.0,0.0,0.0,0.0,11,storm-core\src\jvm\backtype\storm\utils\ClojureTimerTask.java,0,0,0,0
backtype.storm.utils.Container, 0, 0, 1, 0, 0, 0, 0, 0, 0, 0, 0, 0, 0, 1,0.0,0.0,0.0,0.0,0.0,0.0,0.0,0.0,0.0,0.0,0.0,0.0,0.0,2,storm-core\src\jvm\backtype\storm\utils\Container.java,0,0,0,0
backtype.storm.utils.DRPCClient, 0, 0, 0, 0, 0, 0, 0, 0, 0, 0, 0, 0, 0, 0,0.0,0.0,0.0,0.0,0.0,0.0,0.0,0.0,0.0,0.0,0.0,0.0,0.0,50,storm-core\src\jvm\backtype\storm\utils\DRPCClient.java,0,0,0,0
backtype.storm.utils.DisruptorQueueTest, 0, 0, 0, 0, 0, 0, 0, 0, 0, 0, 0, 0, 0, 0,0.0,0.0,0.0,0.0,0.0,0.0,0.0,0.0,0.0,0.0,0.0,0.0,0.0,97,storm-core\test\jvm\backtype\storm\utils\DisruptorQueueTest.java,0,0,0,0
backtype.storm.utils.MutableInt, 0, 0, 0, 0, 0, 0, 0, 0, 0, 0, 0, 0, 0, 0,0.0,0.0,0.0,0.0,0.0,0.0,0.0,0.0,0.0,0.0,0.0,0.0,0.0,19,storm-core\src\jvm\backtype\storm\utils\MutableInt.java,0,0,0,0
backtype.storm.utils.MutableLong, 0, 0, 0, 0, 0, 0, 0, 0, 0, 0, 0, 0, 0, 0,0.0,0.0,0.0,0.0,0.0,0.0,0.0,0.0,0.0,0.0,0.0,0.0,0.0,19,storm-core\src\jvm\backtype\storm\utils\MutableLong.java,0,0,0,0
backtype.storm.utils.MutableObject, 0, 0, 0, 0, 0, 0, 0, 0, 0, 0, 0, 0, 0, 0,0.0,0.0,0.0,0.0,0.0,0.0,0.0,0.0,0.0,0.0,0.0,0.0,0.0,14,storm-core\src\jvm\backtype\storm\utils\MutableObject.java,0,0,0,0
backtype.storm.utils.StormBoundedExponentialBackoffRetry, 0, 0, 0, 0, 0, 0, 0, 0, 0, 0, 0, 0, 0, 0,0.0,0.0,0.0,0.0,0.0,0.0,0.0,0.0,0.0,0.0,0.0,0.0,0.0,38,storm-core\src\jvm\backtype\storm\utils\StormBoundedExponentialBackoffRetry.java,0,0,0,0
backtype.storm.utils.StormBoundedExponentialBackoffRetryTest, 0, 0, 0, 0, 0, 0, 0, 0, 0, 0, 0, 0, 0, 0,0.0,0.0,0.0,0.0,0.0,0.0,0.0,0.0,0.0,0.0,0.0,0.0,0.0,69,storm-core\test\jvm\backtype\storm\utils\StormBoundedExponentialBackoffRetryTest.java,0,0,0,0
backtype.storm.utils.VersionedStore, 0, 0, 0, 1, 0, 0, 0, 0, 0, 0, 0, 0, 0, 1,0.0,0.0,0.0,0.0,0.0,0.0,0.0,0.0,0.0,0.0,0.0,0.0,0.0,130,storm-core\src\jvm\backtype\storm\utils\VersionedStore.java,0,0,0,0
backtype.storm.utils.WindowedTimeThrottler, 0, 0, 0, 0, 0, 0, 0, 0, 0, 0, 0, 0, 0, 0,0.0,0.0,0.0,0.0,0.0,0.0,0.0,0.0,0.0,0.0,0.0,0.0,0.0,26,storm-core\src\jvm\backtype\storm\utils\WindowedTimeThrottler.java,0,0,0,0
backtype.storm.utils.WritableUtils, 0, 0, 0, 1, 0, 0, 0, 0, 0, 0, 0, 0, 0, 1,0.0,0.0,0.0,0.0,0.0,0.0,0.0,0.0,0.0,0.0,0.0,0.0,0.0,187,storm-core\src\jvm\backtype\storm\utils\WritableUtils.java,0,0,0,0
org.apache.storm.hbase.bolt.HBaseBolt, 0, 0, 0, 0, 0, 0, 0, 0, 0, 0, 0, 0, 0, 0,0.0,0.0,0.0,0.0,0.0,0.0,0.0,0.0,0.0,0.0,0.0,0.0,0.0,32,external\storm-hbase\src\main\java\org\apache\storm\hbase\bolt\HBaseBolt.java,0,0,0,0
org.apache.storm.hbase.bolt.HBaseLookupBolt, 0, 0, 0, 0, 0, 0, 0, 0, 0, 0, 0, 0, 0, 0,0.0,0.0,0.0,0.0,0.0,0.0,0.0,0.0,0.0,0.0,0.0,0.0,0.0,37,external\storm-hbase\src\main\java\org\apache\storm\hbase\bolt\HBaseLookupBolt.java,0,0,0,0
org.apache.storm.hbase.bolt.mapper.HBaseMapper, 0, 0, 0, 0, 0, 0, 0, 0, 0, 0, 0, 0, 0, 0,0.0,0.0,0.0,0.0,0.0,0.0,0.0,0.0,0.0,0.0,0.0,0.0,0.0,37,external\storm-hbase\src\main\java\org\apache\storm\hbase\bolt\mapper\HBaseMapper.java,0,0,0,0
org.apache.storm.hbase.bolt.mapper.HBaseProjectionCriteria, 0, 0, 0, 0, 0, 0, 0, 0, 0, 0, 0, 0, 0, 0,0.0,0.0,0.0,0.0,0.0,0.0,0.0,0.0,0.0,0.0,0.0,0.0,0.0,36,external\storm-hbase\src\main\java\org\apache\storm\hbase\bolt\mapper\HBaseProjectionCriteria.java,0,0,0,0
org.apache.storm.hbase.bolt.mapper.HBaseValueMapper, 0, 0, 0, 0, 0, 0, 0, 0, 0, 0, 0, 0, 0, 0,0.0,0.0,0.0,0.0,0.0,0.0,0.0,0.0,0.0,0.0,0.0,0.0,0.0,36,external\storm-hbase\src\main\java\org\apache\storm\hbase\bolt\mapper\HBaseValueMapper.java,0,0,0,0
org.apache.storm.hbase.bolt.mapper.SimpleHBaseMapper, 0, 0, 0, 0, 0, 0, 0, 0, 0, 0, 0, 0, 0, 0,0.0,0.0,0.0,0.5,0.0,0.0,0.0,0.0,0.0,0.0,0.0,0.0,0.0,45,external\storm-hbase\src\main\java\org\apache\storm\hbase\bolt\mapper\SimpleHBaseMapper.java,0,0,0,0
org.apache.storm.hbase.common.ColumnList, 0, 0, 0, 1, 0, 0, 0, 0, 0, 0, 0, 0, 0, 1,0.0,0.0,0.0,0.0,0.0,0.0,0.0,0.0,0.0,0.0,0.0,0.0,0.0,84,external\storm-hbase\src\main\java\org\apache\storm\hbase\common\ColumnList.java,0,0,0,0
org.apache.storm.hbase.common.IColumn, 0, 0, 0, 0, 0, 0, 0, 0, 0, 0, 0, 0, 0, 0,0.0,0.0,0.0,0.0,0.0,0.0,0.0,0.0,0.0,0.0,0.0,0.0,0.0,84,external\storm-hbase\src\main\java\org\apache\storm\hbase\common\IColumn.java,0,0,0,0
org.apache.storm.hbase.common.ICounter, 0, 0, 0, 0, 0, 0, 0, 0, 0, 0, 0, 0, 0, 0,0.0,0.0,0.0,0.0,0.0,0.0,0.0,0.0,0.0,0.0,0.0,0.0,0.0,84,external\storm-hbase\src\main\java\org\apache\storm\hbase\common\ICounter.java,0,0,0,0
org.apache.storm.hbase.common.Utils, 0, 0, 0, 0, 0, 0, 0, 0, 0, 0, 0, 0, 0, 0,0.0,0.0,0.0,0.0,0.0,0.0,0.0,0.0,0.0,0.0,0.0,0.0,0.0,37,external\storm-hbase\src\main\java\org\apache\storm\hbase\common\Utils.java,0,0,0,0
org.apache.storm.hbase.topology.WordCountClient, 0, 0, 0, 0, 0, 0, 0, 0, 0, 0, 0, 0, 0, 0,0.0,0.0,0.0,0.0,0.0,0.0,0.0,0.0,0.0,0.0,0.0,0.0,0.0,19,external\storm-hbase\src\test\java\org\apache\storm\hbase\topology\WordCountClient.java,0,0,0,0
org.apache.storm.hbase.topology.WordCountValueMapper, 0, 0, 0, 0, 0, 0, 0, 0, 0, 0, 0, 0, 0, 0,0.0,0.0,0.0,0.0,0.0,0.0,0.0,0.0,0.0,0.0,0.0,0.0,0.0,16,external\storm-hbase\src\test\java\org\apache\storm\hbase\topology\WordCountValueMapper.java,0,0,0,0
org.apache.storm.hbase.trident.PrintFunction, 0, 0, 0, 0, 0, 0, 0, 0, 0, 0, 0, 0, 0, 0,0.0,0.0,0.0,0.0,0.0,0.0,0.0,0.0,0.0,0.0,0.0,0.0,0.0,10,external\storm-hbase\src\test\java\org\apache\storm\hbase\trident\PrintFunction.java,0,0,0,0
org.apache.storm.hbase.trident.WordCountTrident, 0, 0, 0, 0, 0, 0, 0, 0, 0, 0, 0, 0, 0, 0,0.0,0.0,0.0,0.3333333333333333,0.0,0.0,0.0,0.0,0.0,0.0,0.0,0.0,0.0,53,external\storm-hbase\src\test\java\org\apache\storm\hbase\trident\WordCountTrident.java,0,0,0,0
org.apache.storm.hbase.trident.mapper.SimpleTridentHBaseMapper, 0, 0, 0, 0, 0, 0, 0, 0, 0, 0, 0, 0, 0, 0,0.0,0.0,0.0,0.3333333333333333,0.0,0.0,0.0,0.0,0.0,0.0,0.0,0.0,0.0,45,external\storm-hbase\src\main\java\org\apache\storm\hbase\trident\mapper\SimpleTridentHBaseMapper.java,0,0,0,0
org.apache.storm.hbase.trident.mapper.TridentHBaseMapper, 0, 0, 0, 0, 0, 0, 0, 0, 0, 0, 0, 0, 0, 0,0.0,0.0,0.0,0.0,0.0,0.0,0.0,0.0,0.0,0.0,0.0,0.0,0.0,45,external\storm-hbase\src\main\java\org\apache\storm\hbase\trident\mapper\TridentHBaseMapper.java,0,0,0,0
org.apache.storm.hbase.trident.state.HBaseQuery, 0, 0, 0, 0, 0, 0, 0, 0, 0, 0, 0, 0, 0, 0,0.0,0.0,0.0,0.0,0.0,0.0,0.0,0.0,0.0,0.0,0.0,0.0,0.0,12,external\storm-hbase\src\main\java\org\apache\storm\hbase\trident\state\HBaseQuery.java,0,0,0,0
org.apache.storm.hbase.trident.state.HBaseUpdater, 0, 0, 0, 0, 0, 0, 0, 0, 0, 0, 0, 0, 0, 0,0.0,0.0,0.0,0.0,0.0,0.0,0.0,0.0,0.0,0.0,0.0,0.0,0.0,6,external\storm-hbase\src\main\java\org\apache\storm\hbase\trident\state\HBaseUpdater.java,0,0,0,0
org.apache.storm.hdfs.bolt.format.DefaultSequenceFormat, 0, 0, 0, 0, 0, 0, 0, 0, 0, 0, 0, 0, 0, 0,0.0,0.0,0.0,0.0,0.0,0.0,0.0,0.0,0.0,0.0,0.0,0.0,0.0,34,external\storm-hdfs\src\main\java\org\apache\storm\hdfs\bolt\format\DefaultSequenceFormat.java,0,0,0,0
org.apache.storm.hdfs.bolt.format.RecordFormat, 0, 0, 0, 0, 0, 0, 0, 0, 0, 0, 0, 0, 0, 0,0.0,0.0,0.0,0.0,0.0,0.0,0.0,0.0,0.0,0.0,0.0,0.0,0.0,34,external\storm-hdfs\src\main\java\org\apache\storm\hdfs\bolt\format\RecordFormat.java,0,0,0,0
org.apache.storm.hdfs.bolt.format.SequenceFormat, 0, 0, 0, 0, 0, 0, 0, 0, 0, 0, 0, 0, 0, 0,0.0,0.0,0.0,0.0,0.0,0.0,0.0,0.0,0.0,0.0,0.0,0.0,0.0,34,external\storm-hdfs\src\main\java\org\apache\storm\hdfs\bolt\format\SequenceFormat.java,0,0,0,0
org.apache.storm.hdfs.bolt.rotation.FileRotationPolicy, 0, 0, 0, 0, 0, 0, 0, 0, 0, 0, 0, 0, 0, 0,0.0,0.0,0.0,0.0,0.0,0.0,0.0,0.0,0.0,0.0,0.0,0.0,0.0,34,external\storm-hdfs\src\main\java\org\apache\storm\hdfs\bolt\rotation\FileRotationPolicy.java,0,0,0,0
org.apache.storm.hdfs.bolt.rotation.FileSizeRotationPolicy, 0, 0, 0, 0, 0, 0, 0, 0, 0, 0, 0, 0, 0, 0,0.0,0.0,0.0,0.0,0.0,0.0,0.0,0.0,0.0,0.0,0.0,0.0,0.0,34,external\storm-hdfs\src\main\java\org\apache\storm\hdfs\bolt\rotation\FileSizeRotationPolicy.java,0,0,0,0
org.apache.storm.hdfs.bolt.rotation.NoRotationPolicy, 0, 0, 0, 0, 0, 0, 0, 0, 0, 0, 0, 0, 0, 0,0.0,0.0,0.0,0.0,0.0,0.0,0.0,0.0,0.0,0.0,0.0,0.0,0.0,9,external\storm-hdfs\src\main\java\org\apache\storm\hdfs\bolt\rotation\NoRotationPolicy.java,0,0,0,0
org.apache.storm.hdfs.bolt.rotation.TimedRotationPolicy, 0, 0, 0, 0, 0, 0, 0, 0, 0, 0, 0, 0, 0, 0,0.0,0.0,0.0,0.0,0.0,0.0,0.0,0.0,0.0,0.0,0.0,0.0,0.0,29,external\storm-hdfs\src\main\java\org\apache\storm\hdfs\bolt\rotation\TimedRotationPolicy.java,0,0,0,0
org.apache.storm.hdfs.bolt.sync.CountSyncPolicy, 0, 0, 0, 0, 0, 0, 0, 0, 0, 0, 0, 0, 0, 0,0.0,0.0,0.0,0.0,0.0,0.0,0.0,0.0,0.0,0.0,0.0,0.0,0.0,16,external\storm-hdfs\src\main\java\org\apache\storm\hdfs\bolt\sync\CountSyncPolicy.java,0,0,0,0
org.apache.storm.hdfs.bolt.sync.SyncPolicy, 0, 0, 0, 0, 0, 0, 0, 0, 0, 0, 0, 0, 0, 0,0.0,0.0,0.0,0.0,0.0,0.0,0.0,0.0,0.0,0.0,0.0,0.0,0.0,16,external\storm-hdfs\src\main\java\org\apache\storm\hdfs\bolt\sync\SyncPolicy.java,0,0,0,0
org.apache.storm.hdfs.common.rotation.MoveFileAction, 0, 0, 0, 0, 0, 0, 0, 0, 0, 0, 0, 0, 0, 0,0.0,0.0,0.0,0.0,0.0,0.0,0.0,0.0,0.0,0.0,0.0,0.0,0.0,15,external\storm-hdfs\src\main\java\org\apache\storm\hdfs\common\rotation\MoveFileAction.java,0,0,0,0
org.apache.storm.hdfs.common.rotation.RotationAction, 0, 0, 0, 0, 0, 0, 0, 0, 0, 0, 0, 0, 0, 0,0.0,0.0,0.0,0.0,0.0,0.0,0.0,0.0,0.0,0.0,0.0,0.0,0.0,15,external\storm-hdfs\src\main\java\org\apache\storm\hdfs\common\rotation\RotationAction.java,0,0,0,0
org.apache.storm.hdfs.trident.HdfsUpdater, 0, 0, 0, 0, 0, 0, 0, 0, 0, 0, 0, 0, 0, 0,0.0,0.0,0.0,0.0,0.0,0.0,0.0,0.0,0.0,0.0,0.0,0.0,0.0,6,external\storm-hdfs\src\main\java\org\apache\storm\hdfs\trident\HdfsUpdater.java,0,0,0,0
org.apache.storm.hdfs.trident.TridentFileTopology, 0, 0, 0, 0, 0, 0, 0, 0, 0, 0, 0, 0, 0, 0,0.0,0.0,0.0,0.5,0.0,0.0,0.0,0.0,0.0,0.0,0.0,0.0,0.0,42,external\storm-hdfs\src\test\java\org\apache\storm\hdfs\trident\TridentFileTopology.java,0,0,0,0
org.apache.storm.hdfs.trident.TridentSequenceTopology, 0, 0, 0, 0, 0, 0, 0, 0, 0, 0, 0, 0, 0, 0,0.0,0.0,0.0,0.25,0.0,0.0,0.0,0.0,0.0,0.0,0.0,0.0,0.0,41,external\storm-hdfs\src\test\java\org\apache\storm\hdfs\trident\TridentSequenceTopology.java,0,0,0,0
org.apache.storm.hdfs.trident.format.DefaultSequenceFormat, 0, 0, 0, 0, 0, 0, 0, 0, 0, 0, 0, 0, 0, 0,0.0,0.0,0.0,0.0,0.0,0.0,0.0,0.0,0.0,0.0,0.0,0.0,0.0,34,external\storm-hdfs\src\main\java\org\apache\storm\hdfs\trident\format\DefaultSequenceFormat.java,0,0,0,0
org.apache.storm.hdfs.trident.format.RecordFormat, 0, 0, 0, 0, 0, 0, 0, 0, 0, 0, 0, 0, 0, 0,0.0,0.0,0.0,0.0,0.0,0.0,0.0,0.0,0.0,0.0,0.0,0.0,0.0,34,external\storm-hdfs\src\main\java\org\apache\storm\hdfs\trident\format\RecordFormat.java,0,0,0,0
org.apache.storm.hdfs.trident.format.SequenceFormat, 0, 0, 0, 0, 0, 0, 0, 0, 0, 0, 0, 0, 0, 0,0.0,0.0,0.0,0.0,0.0,0.0,0.0,0.0,0.0,0.0,0.0,0.0,0.0,34,external\storm-hdfs\src\main\java\org\apache\storm\hdfs\trident\format\SequenceFormat.java,0,0,0,0
org.apache.storm.hdfs.trident.rotation.FileRotationPolicy, 0, 0, 0, 0, 0, 0, 0, 0, 0, 0, 0, 0, 0, 0,0.0,0.0,0.0,0.0,0.0,0.0,0.0,0.0,0.0,0.0,0.0,0.0,0.0,34,external\storm-hdfs\src\main\java\org\apache\storm\hdfs\trident\rotation\FileRotationPolicy.java,0,0,0,0
org.apache.storm.hdfs.trident.rotation.FileSizeRotationPolicy, 0, 0, 0, 0, 0, 0, 0, 0, 0, 0, 0, 0, 0, 0,0.0,0.0,0.0,0.0,0.0,0.0,0.0,0.0,0.0,0.0,0.0,0.0,0.0,34,external\storm-hdfs\src\main\java\org\apache\storm\hdfs\trident\rotation\FileSizeRotationPolicy.java,0,0,0,0
org.apache.storm.hdfs.trident.rotation.NoRotationPolicy, 0, 0, 0, 0, 0, 0, 0, 0, 0, 0, 0, 0, 0, 0,0.0,0.0,0.0,0.0,0.0,0.0,0.0,0.0,0.0,0.0,0.0,0.0,0.0,9,external\storm-hdfs\src\main\java\org\apache\storm\hdfs\trident\rotation\NoRotationPolicy.java,0,0,0,0
org.apache.storm.hdfs.trident.rotation.TimedRotationPolicy, 0, 0, 0, 0, 0, 0, 0, 0, 0, 0, 0, 0, 0, 0,0.0,0.0,0.0,0.0,0.0,0.0,0.0,0.0,0.0,0.0,0.0,0.0,0.0,29,external\storm-hdfs\src\main\java\org\apache\storm\hdfs\trident\rotation\TimedRotationPolicy.java,0,0,0,0
org.apache.storm.hdfs.trident.sync.CountSyncPolicy, 0, 0, 0, 0, 0, 0, 0, 0, 0, 0, 0, 0, 0, 0,0.0,0.0,0.0,0.0,0.0,0.0,0.0,0.0,0.0,0.0,0.0,0.0,0.0,16,external\storm-hdfs\src\main\java\org\apache\storm\hdfs\trident\sync\CountSyncPolicy.java,0,0,0,0
org.apache.storm.hdfs.trident.sync.SyncPolicy, 0, 0, 0, 0, 0, 0, 0, 0, 0, 0, 0, 0, 0, 0,0.0,0.0,0.0,0.0,0.0,0.0,0.0,0.0,0.0,0.0,0.0,0.0,0.0,16,external\storm-hdfs\src\main\java\org\apache\storm\hdfs\trident\sync\SyncPolicy.java,0,0,0,0
storm.kafka.Broker, 0, 0, 1, 0, 0, 0, 0, 0, 0, 0, 0, 0, 0, 1,0.0,0.0,1.0,0.0,0.0,0.0,0.0,0.0,0.0,0.0,0.0,0.0,0.0,52,external\storm-kafka\src\jvm\storm\kafka\Broker.java,0,0,0,0
storm.kafka.BrokerHosts, 0, 0, 0, 0, 0, 0, 0, 0, 0, 0, 0, 0, 0, 0,0.0,0.0,0.0,0.0,0.0,0.0,0.0,0.0,0.0,0.0,0.0,0.0,0.0,52,external\storm-kafka\src\jvm\storm\kafka\BrokerHosts.java,0,0,0,0
storm.kafka.FailedFetchException, 0, 0, 0, 0, 0, 0, 0, 0, 0, 0, 0, 0, 0, 0,0.0,0.0,0.0,0.0,0.0,0.0,0.0,0.0,0.0,0.0,0.0,0.0,0.0,8,external\storm-kafka\src\jvm\storm\kafka\FailedFetchException.java,0,0,0,0
storm.kafka.KafkaConfig, 0, 0, 1, 1, 0, 0, 0, 0, 0, 0, 0, 0, 0, 2,0.0,0.0,0.5,0.0,0.0,0.0,0.0,0.0,0.0,0.0,0.0,0.0,0.0,23,external\storm-kafka\src\jvm\storm\kafka\KafkaConfig.java,0,0,0,0
storm.kafka.KafkaErrorTest, 0, 0, 0, 0, 0, 0, 0, 0, 0, 0, 0, 0, 0, 0,0.0,0.0,0.0,0.0,0.0,0.0,0.0,0.0,0.0,0.0,0.0,0.0,0.0,22,external\storm-kafka\src\test\storm\kafka\KafkaErrorTest.java,0,0,0,0
storm.kafka.KeyValueScheme, 0, 0, 0, 0, 0, 0, 0, 0, 0, 0, 0, 0, 0, 0,0.0,0.0,0.0,0.0,0.0,0.0,0.0,0.0,0.0,0.0,0.0,0.0,0.0,22,external\storm-kafka\src\jvm\storm\kafka\KeyValueScheme.java,0,0,0,0
storm.kafka.KeyValueSchemeAsMultiScheme, 0, 0, 0, 0, 0, 0, 0, 0, 0, 0, 0, 0, 0, 0,0.0,0.0,0.0,0.0,0.0,0.0,0.0,0.0,0.0,0.0,0.0,0.0,0.0,10,external\storm-kafka\src\jvm\storm\kafka\KeyValueSchemeAsMultiScheme.java,0,0,0,0
storm.kafka.Partition, 0, 0, 1, 0, 0, 0, 0, 0, 0, 0, 0, 0, 0, 1,0.0,0.0,1.0,0.0,0.0,0.0,0.0,0.0,0.0,0.0,0.0,0.0,0.0,36,external\storm-kafka\src\jvm\storm\kafka\Partition.java,0,0,0,0
storm.kafka.PartitionCoordinator, 0, 0, 0, 0, 0, 0, 0, 0, 0, 0, 0, 0, 0, 0,0.0,0.0,0.0,0.0,0.0,0.0,0.0,0.0,0.0,0.0,0.0,0.0,0.0,36,external\storm-kafka\src\jvm\storm\kafka\PartitionCoordinator.java,0,0,0,0
storm.kafka.SpoutConfig, 0, 0, 1, 0, 0, 0, 0, 0, 0, 0, 0, 0, 0, 1,0.0,0.0,1.0,1.0,0.0,0.0,0.0,0.0,0.0,0.0,0.0,0.0,0.0,12,external\storm-kafka\src\jvm\storm\kafka\SpoutConfig.java,0,0,0,0
storm.kafka.StaticHosts, 0, 0, 0, 0, 0, 0, 0, 0, 0, 0, 0, 0, 0, 0,0.0,0.0,0.0,0.0,0.0,0.0,0.0,0.0,0.0,0.0,0.0,0.0,0.0,9,external\storm-kafka\src\jvm\storm\kafka\StaticHosts.java,0,0,0,0
storm.kafka.StringKeyValueScheme, 0, 0, 0, 0, 0, 0, 0, 0, 0, 0, 0, 0, 0, 0,0.0,0.0,0.0,0.0,0.0,0.0,0.0,0.0,0.0,0.0,0.0,0.0,0.0,11,external\storm-kafka\src\jvm\storm\kafka\StringKeyValueScheme.java,0,0,0,0
storm.kafka.StringKeyValueSchemeTest, 0, 0, 0, 0, 0, 0, 0, 0, 0, 0, 0, 0, 0, 0,0.0,0.0,0.0,0.0,0.0,0.0,0.0,0.0,0.0,0.0,0.0,0.0,0.0,22,external\storm-kafka\src\test\storm\kafka\StringKeyValueSchemeTest.java,0,0,0,0
storm.kafka.StringScheme, 0, 0, 0, 0, 0, 0, 0, 0, 0, 0, 0, 0, 0, 0,0.0,0.0,0.0,0.0,0.0,0.0,0.0,0.0,0.0,0.0,0.0,0.0,0.0,16,external\storm-kafka\src\jvm\storm\kafka\StringScheme.java,0,0,0,0
storm.kafka.TridentKafkaTest, 0, 0, 0, 0, 0, 0, 0, 0, 0, 0, 0, 0, 0, 0,0.0,0.0,0.0,0.0,0.0,0.0,0.0,0.0,0.0,0.0,0.0,0.0,0.0,43,external\storm-kafka\src\test\storm\kafka\TridentKafkaTest.java,0,0,0,0
storm.kafka.UpdateOffsetException, 0, 0, 0, 0, 0, 0, 0, 0, 0, 0, 0, 0, 0, 0,0.0,0.0,0.0,0.0,0.0,0.0,0.0,0.0,0.0,0.0,0.0,0.0,0.0,2,external\storm-kafka\src\jvm\storm\kafka\UpdateOffsetException.java,0,0,0,0
storm.kafka.ZkHosts, 0, 0, 1, 0, 0, 0, 0, 0, 0, 0, 0, 0, 0, 1,0.0,0.0,0.0,0.0,0.0,0.0,0.0,0.0,0.0,0.0,0.0,0.0,0.0,13,external\storm-kafka\src\jvm\storm\kafka\ZkHosts.java,0,0,0,0
storm.kafka.bolt.mapper.FieldNameBasedTupleToKafkaMapper, 0, 0, 1, 0, 0, 0, 0, 0, 0, 0, 0, 0, 0, 1,0.0,0.0,0.0,0.0,0.0,0.0,0.0,0.0,0.0,0.0,0.0,0.0,0.0,21,external\storm-kafka\src\jvm\storm\kafka\bolt\mapper\FieldNameBasedTupleToKafkaMapper.java,0,0,0,0
storm.kafka.bolt.mapper.TupleToKafkaMapper, 0, 0, 0, 0, 0, 0, 0, 0, 0, 0, 0, 0, 0, 0,0.0,0.0,0.0,0.0,0.0,0.0,0.0,0.0,0.0,0.0,0.0,0.0,0.0,21,external\storm-kafka\src\jvm\storm\kafka\bolt\mapper\TupleToKafkaMapper.java,0,0,0,0
storm.kafka.bolt.selector.DefaultTopicSelector, 0, 0, 0, 0, 0, 0, 0, 0, 0, 0, 0, 0, 0, 0,0.0,0.0,0.0,0.0,0.0,0.0,0.0,0.0,0.0,0.0,0.0,0.0,0.0,10,external\storm-kafka\src\jvm\storm\kafka\bolt\selector\DefaultTopicSelector.java,0,0,0,0
storm.kafka.bolt.selector.KafkaTopicSelector, 0, 0, 0, 0, 0, 0, 0, 0, 0, 0, 0, 0, 0, 0,0.0,0.0,0.0,0.0,0.0,0.0,0.0,0.0,0.0,0.0,0.0,0.0,0.0,10,external\storm-kafka\src\jvm\storm\kafka\bolt\selector\KafkaTopicSelector.java,0,0,0,0
storm.kafka.trident.DefaultCoordinator, 0, 0, 0, 0, 0, 0, 0, 0, 0, 0, 0, 0, 0, 0,0.0,0.0,0.0,0.0,0.0,0.0,0.0,0.0,0.0,0.0,0.0,0.0,0.0,9,external\storm-kafka\src\jvm\storm\kafka\trident\DefaultCoordinator.java,0,0,0,0
storm.kafka.trident.IBatchCoordinator, 0, 0, 0, 0, 0, 0, 0, 0, 0, 0, 0, 0, 0, 0,0.0,0.0,0.0,0.0,0.0,0.0,0.0,0.0,0.0,0.0,0.0,0.0,0.0,9,external\storm-kafka\src\jvm\storm\kafka\trident\IBatchCoordinator.java,0,0,0,0
storm.kafka.trident.IBrokerReader, 0, 0, 0, 0, 0, 0, 0, 0, 0, 0, 0, 0, 0, 0,0.0,0.0,0.0,0.0,0.0,0.0,0.0,0.0,0.0,0.0,0.0,0.0,0.0,9,external\storm-kafka\src\jvm\storm\kafka\trident\IBrokerReader.java,0,0,0,0
storm.kafka.trident.MaxMetric, 0, 0, 0, 0, 0, 0, 0, 0, 0, 0, 0, 0, 0, 0,0.0,0.0,0.0,0.0,0.0,0.0,0.0,0.0,0.0,0.0,0.0,0.0,0.0,16,external\storm-kafka\src\jvm\storm\kafka\trident\MaxMetric.java,0,0,0,0
storm.kafka.trident.OpaqueTridentKafkaSpout, 0, 0, 0, 0, 0, 0, 0, 0, 0, 0, 0, 0, 0, 0,0.0,0.0,0.0,0.0,0.0,0.0,0.0,0.0,0.0,0.0,0.0,0.0,0.0,23,external\storm-kafka\src\jvm\storm\kafka\trident\OpaqueTridentKafkaSpout.java,0,0,0,0
storm.kafka.trident.StaticBrokerReader, 0, 0, 0, 0, 0, 0, 0, 0, 0, 0, 0, 0, 0, 0,0.0,0.0,0.0,0.0,0.0,0.0,0.0,0.0,0.0,0.0,0.0,0.0,0.0,13,external\storm-kafka\src\jvm\storm\kafka\trident\StaticBrokerReader.java,0,0,0,0
storm.kafka.trident.TransactionalTridentKafkaSpout, 0, 0, 0, 0, 0, 0, 0, 0, 0, 0, 0, 0, 0, 0,0.0,0.0,0.0,0.0,0.0,0.0,0.0,0.0,0.0,0.0,0.0,0.0,0.0,23,external\storm-kafka\src\jvm\storm\kafka\trident\TransactionalTridentKafkaSpout.java,0,0,0,0
storm.kafka.trident.TridentKafkaConfig, 0, 0, 0, 0, 0, 0, 0, 0, 0, 0, 0, 0, 0, 0,0.0,0.0,0.3333333333333333,0.3333333333333333,0.0,0.0,0.0,0.0,0.0,0.0,0.0,0.0,0.0,9,external\storm-kafka\src\jvm\storm\kafka\trident\TridentKafkaConfig.java,0,0,0,0
storm.kafka.trident.TridentKafkaUpdater, 0, 0, 0, 0, 0, 0, 0, 0, 0, 0, 0, 0, 0, 0,0.0,0.0,0.0,0.0,0.0,0.0,0.0,0.0,0.0,0.0,0.0,0.0,0.0,6,external\storm-kafka\src\jvm\storm\kafka\trident\TridentKafkaUpdater.java,0,0,0,0
storm.kafka.trident.mapper.FieldNameBasedTupleToKafkaMapper, 0, 0, 0, 0, 0, 0, 0, 0, 0, 0, 0, 0, 0, 0,0.0,0.0,0.0,0.0,0.0,0.0,0.0,0.0,0.0,0.0,0.0,0.0,0.0,16,external\storm-kafka\src\jvm\storm\kafka\trident\mapper\FieldNameBasedTupleToKafkaMapper.java,0,0,0,0
storm.kafka.trident.mapper.TridentTupleToKafkaMapper, 0, 0, 0, 0, 0, 0, 0, 0, 0, 0, 0, 0, 0, 0,0.0,0.0,0.0,0.0,0.0,0.0,0.0,0.0,0.0,0.0,0.0,0.0,0.0,16,external\storm-kafka\src\jvm\storm\kafka\trident\mapper\TridentTupleToKafkaMapper.java,0,0,0,0
storm.kafka.trident.selector.DefaultTopicSelector, 0, 0, 0, 0, 0, 0, 0, 0, 0, 0, 0, 0, 0, 0,0.0,0.0,0.0,0.0,0.0,0.0,0.0,0.0,0.0,0.0,0.0,0.0,0.0,10,external\storm-kafka\src\jvm\storm\kafka\trident\selector\DefaultTopicSelector.java,0,0,0,0
storm.kafka.trident.selector.KafkaTopicSelector, 0, 0, 0, 0, 0, 0, 0, 0, 0, 0, 0, 0, 0, 0,0.0,0.0,0.0,0.0,0.0,0.0,0.0,0.0,0.0,0.0,0.0,0.0,0.0,10,external\storm-kafka\src\jvm\storm\kafka\trident\selector\KafkaTopicSelector.java,0,0,0,0
storm.starter.BasicDRPCTopology, 0, 0, 0, 0, 0, 0, 0, 0, 0, 0, 0, 0, 0, 0,0.0,0.0,0.0,0.0,0.0,0.0,0.0,0.0,0.0,0.0,0.0,0.0,0.0,32,examples\storm-starter\src\jvm\storm\starter\BasicDRPCTopology.java,0,0,0,0
storm.starter.ManualDRPC, 0, 0, 0, 0, 0, 0, 0, 0, 0, 0, 0, 0, 0, 0,0.0,0.0,0.0,0.0,0.0,0.0,0.0,0.0,0.0,0.0,0.0,0.0,0.0,27,examples\storm-starter\src\jvm\storm\starter\ManualDRPC.java,0,0,0,0
storm.starter.PrintSampleStream, 0, 0, 0, 0, 0, 0, 0, 0, 0, 0, 0, 0, 0, 0,0.0,0.0,0.0,0.0,0.0,0.0,0.0,0.0,0.0,0.0,0.0,0.0,0.0,20,examples\storm-starter\src\jvm\storm\starter\PrintSampleStream.java,0,0,0,0
storm.starter.RollingTopWords, 0, 0, 0, 0, 0, 0, 0, 0, 0, 0, 0, 0, 0, 0,0.0,0.0,0.0,0.0,0.0,0.0,0.0,0.0,0.0,0.0,0.0,0.0,0.0,58,examples\storm-starter\src\jvm\storm\starter\RollingTopWords.java,0,0,0,0
storm.starter.SingleJoinExample, 0, 0, 0, 0, 0, 0, 0, 0, 0, 0, 0, 0, 0, 0,0.0,0.0,0.0,0.0,0.0,0.0,0.0,0.0,0.0,0.0,0.0,0.0,0.0,30,examples\storm-starter\src\jvm\storm\starter\SingleJoinExample.java,0,0,0,0
storm.starter.bolt.IntermediateRankingsBolt, 0, 0, 0, 0, 0, 0, 0, 0, 0, 0, 0, 0, 0, 0,0.0,0.0,0.0,0.5,0.0,0.0,0.0,0.0,0.0,0.0,0.0,0.0,0.0,22,examples\storm-starter\src\jvm\storm\starter\bolt\IntermediateRankingsBolt.java,0,0,0,0
storm.starter.bolt.PrinterBolt, 0, 0, 0, 0, 0, 0, 0, 0, 0, 0, 0, 0, 0, 0,0.0,0.0,0.0,0.0,0.0,0.0,0.0,0.0,0.0,0.0,0.0,0.0,0.0,9,examples\storm-starter\src\jvm\storm\starter\bolt\PrinterBolt.java,0,0,0,0
storm.starter.bolt.SingleJoinBolt, 0, 0, 0, 0, 0, 0, 0, 0, 0, 0, 0, 0, 0, 0,0.0,0.0,0.0,0.0,0.0,0.0,0.0,0.0,0.0,0.0,0.0,0.0,0.0,75,examples\storm-starter\src\jvm\storm\starter\bolt\SingleJoinBolt.java,0,0,0,0
storm.starter.bolt.TotalRankingsBolt, 0, 0, 0, 0, 0, 0, 0, 0, 0, 0, 0, 0, 0, 0,0.0,0.0,0.0,0.5,0.0,0.0,0.0,0.0,0.0,0.0,0.0,0.0,0.0,23,examples\storm-starter\src\jvm\storm\starter\bolt\TotalRankingsBolt.java,0,0,0,0
storm.starter.tools.MockTupleHelpers, 0, 0, 0, 0, 0, 0, 0, 0, 0, 0, 0, 0, 0, 0,0.0,0.0,0.0,0.0,0.0,0.0,0.0,0.0,0.0,0.0,0.0,0.0,0.0,13,examples\storm-starter\test\jvm\storm\starter\tools\MockTupleHelpers.java,0,0,0,0
storm.starter.tools.NthLastModifiedTimeTracker, 0, 0, 0, 0, 0, 0, 0, 0, 0, 0, 0, 0, 0, 0,0.0,0.0,0.0,0.0,0.0,0.0,0.0,0.0,0.0,0.0,0.0,0.0,0.0,31,examples\storm-starter\src\jvm\storm\starter\tools\NthLastModifiedTimeTracker.java,0,0,0,0
storm.starter.tools.NthLastModifiedTimeTrackerTest, 0, 0, 0, 0, 0, 0, 0, 0, 0, 0, 0, 0, 0, 0,0.0,0.0,0.0,0.0,0.0,0.0,0.0,0.0,0.0,0.0,0.0,0.0,0.0,75,examples\storm-starter\test\jvm\storm\starter\tools\NthLastModifiedTimeTrackerTest.java,0,0,0,0
storm.starter.tools.Rankable, 0, 0, 0, 0, 0, 0, 0, 0, 0, 0, 0, 0, 0, 0,0.0,0.0,0.0,0.0,0.0,0.0,0.0,0.0,0.0,0.0,0.0,0.0,0.0,75,examples\storm-starter\src\jvm\storm\starter\tools\Rankable.java,0,0,0,0
storm.starter.tools.RankableObjectWithFieldsTest, 0, 0, 0, 1, 0, 0, 0, 0, 0, 0, 0, 0, 0, 1,0.0,0.0,0.0,0.0,0.0,0.0,0.0,0.0,0.0,0.0,0.0,0.0,0.0,154,examples\storm-starter\test\jvm\storm\starter\tools\RankableObjectWithFieldsTest.java,0,0,0,0
storm.starter.tools.Rankings, 0, 0, 0, 1, 0, 0, 0, 0, 0, 0, 0, 0, 0, 1,0.0,0.0,0.0,0.3333333333333333,0.0,0.0,0.0,0.0,0.0,0.0,0.0,0.0,0.0,88,examples\storm-starter\src\jvm\storm\starter\tools\Rankings.java,0,0,0,0
storm.starter.tools.RankingsTest, 0, 0, 0, 1, 0, 0, 0, 0, 0, 0, 0, 0, 0, 1,0.0,0.0,0.0,1.0,0.0,0.0,0.0,0.0,0.0,0.0,0.0,0.0,0.0,237,examples\storm-starter\test\jvm\storm\starter\tools\RankingsTest.java,0,0,0,0
storm.starter.trident.TridentWordCount, 0, 0, 0, 0, 0, 0, 0, 0, 0, 0, 0, 0, 0, 0,0.0,0.0,0.0,0.6666666666666666,0.0,0.0,0.0,0.0,0.0,0.0,0.0,0.0,0.0,42,examples\storm-starter\src\jvm\storm\starter\trident\TridentWordCount.java,0,0,0,0
storm.starter.util.StormRunner, 0, 0, 0, 0, 0, 0, 0, 0, 0, 0, 0, 0, 0, 0,0.0,0.0,0.0,0.0,0.0,0.0,0.0,0.0,0.0,0.0,0.0,0.0,0.0,17,examples\storm-starter\src\jvm\storm\starter\util\StormRunner.java,0,0,0,0
storm.starter.util.TupleHelpers, 0, 0, 0, 0, 0, 0, 0, 0, 0, 0, 0, 0, 0, 0,0.0,0.0,0.0,0.0,0.0,0.0,0.0,0.0,0.0,0.0,0.0,0.0,0.0,8,examples\storm-starter\src\jvm\storm\starter\util\TupleHelpers.java,0,0,0,0
storm.trident.Stream, 0, 0, 0, 1, 0, 0, 0, 0, 0, 0, 0, 0, 0, 1,0.0,0.0,0.38461538461538464,0.15384615384615385,0.0,0.0,0.0,0.07692307692307693,0.0,0.0,0.0,0.0,0.0,252,storm-core\src\jvm\storm\trident\Stream.java,0,0,0,0
storm.trident.TridentState, 0, 0, 0, 0, 0, 0, 0, 0, 0, 0, 0, 0, 0, 0,0.0,0.0,0.25,0.5,0.0,0.0,0.0,0.0,0.0,0.0,0.0,0.0,0.0,15,storm-core\src\jvm\storm\trident\TridentState.java,0,0,0,0
storm.trident.fluent.ChainedAggregatorDeclarer, 0, 0, 0, 1, 0, 0, 0, 0, 0, 0, 0, 0, 0, 1,0.0,0.0,0.0,1.0,0.0,0.0,0.0,0.0,0.0,0.0,0.0,0.0,0.0,120,storm-core\src\jvm\storm\trident\fluent\ChainedAggregatorDeclarer.java,0,0,0,0
storm.trident.fluent.ChainedFullAggregatorDeclarer, 0, 0, 0, 0, 0, 0, 0, 0, 0, 0, 0, 0, 0, 0,0.0,0.0,0.0,0.0,0.0,0.0,0.0,0.0,0.0,0.0,0.0,0.0,0.0,120,storm-core\src\jvm\storm\trident\fluent\ChainedFullAggregatorDeclarer.java,0,0,0,0
storm.trident.fluent.ChainedPartitionAggregatorDeclarer, 0, 0, 0, 0, 0, 0, 0, 0, 0, 0, 0, 0, 0, 0,0.0,0.0,0.0,0.0,0.0,0.0,0.0,0.0,0.0,0.0,0.0,0.0,0.0,120,storm-core\src\jvm\storm\trident\fluent\ChainedPartitionAggregatorDeclarer.java,0,0,0,0
storm.trident.fluent.GlobalAggregationScheme, 0, 0, 0, 0, 0, 0, 0, 0, 0, 0, 0, 0, 0, 0,0.0,0.0,0.0,0.0,0.0,0.0,0.0,0.0,0.0,0.0,0.0,0.0,0.0,120,storm-core\src\jvm\storm\trident\fluent\GlobalAggregationScheme.java,0,0,0,0
storm.trident.fluent.GroupedStream, 0, 0, 0, 1, 0, 0, 0, 0, 0, 0, 0, 0, 0, 1,0.0,0.0,0.2,0.4,0.0,0.0,0.0,0.0,0.0,0.0,0.0,0.0,0.0,112,storm-core\src\jvm\storm\trident\fluent\GroupedStream.java,0,0,0,0
storm.trident.fluent.IAggregatableStream, 0, 0, 0, 0, 0, 0, 0, 0, 0, 0, 0, 0, 0, 0,0.0,0.0,0.0,0.0,0.0,0.0,0.0,0.0,0.0,0.0,0.0,0.0,0.0,112,storm-core\src\jvm\storm\trident\fluent\IAggregatableStream.java,0,0,0,0
storm.trident.fluent.IChainedAggregatorDeclarer, 0, 0, 0, 0, 0, 0, 0, 0, 0, 0, 0, 0, 0, 0,0.0,0.0,0.0,0.0,0.0,0.0,0.0,0.0,0.0,0.0,0.0,0.0,0.0,112,storm-core\src\jvm\storm\trident\fluent\IChainedAggregatorDeclarer.java,0,0,0,0
storm.trident.fluent.UniqueIdGen, 0, 0, 0, 0, 0, 0, 0, 0, 0, 0, 0, 0, 0, 0,0.0,0.0,0.0,0.0,0.0,0.0,0.0,0.0,0.0,0.0,0.0,0.0,0.0,12,storm-core\src\jvm\storm\trident\fluent\UniqueIdGen.java,0,0,0,0
storm.trident.graph.Group, 0, 0, 1, 0, 0, 0, 0, 0, 0, 0, 0, 0, 0, 1,0.0,0.0,1.0,0.0,0.0,0.0,0.0,0.0,0.0,0.0,0.0,0.0,0.0,48,storm-core\src\jvm\storm\trident\graph\Group.java,0,0,0,0
storm.trident.operation.Aggregator, 0, 0, 0, 0, 0, 0, 0, 0, 0, 0, 0, 0, 0, 0,0.0,0.0,0.0,0.0,0.0,0.0,0.0,0.0,0.0,0.0,0.0,0.0,0.0,48,storm-core\src\jvm\storm\trident\operation\Aggregator.java,0,0,0,0
storm.trident.operation.Assembly, 0, 0, 0, 0, 0, 0, 0, 0, 0, 0, 0, 0, 0, 0,0.0,0.0,0.0,0.0,0.0,0.0,0.0,0.0,0.0,0.0,0.0,0.0,0.0,48,storm-core\src\jvm\storm\trident\operation\Assembly.java,0,0,0,0
storm.trident.operation.BaseAggregator, 0, 0, 0, 0, 0, 0, 0, 0, 0, 0, 0, 0, 0, 0,0.0,0.0,0.0,0.0,0.0,0.0,0.0,0.0,0.0,0.0,0.0,0.0,0.0,2,storm-core\src\jvm\storm\trident\operation\BaseAggregator.java,0,0,0,0
storm.trident.operation.BaseFilter, 0, 0, 0, 0, 0, 0, 0, 0, 0, 0, 0, 0, 0, 0,0.0,0.0,0.0,0.0,0.0,0.0,0.0,0.0,0.0,0.0,0.0,0.0,0.0,2,storm-core\src\jvm\storm\trident\operation\BaseFilter.java,0,0,0,0
storm.trident.operation.BaseFunction, 0, 0, 0, 0, 0, 0, 0, 0, 0, 0, 0, 0, 0, 0,0.0,0.0,0.0,0.0,0.0,0.0,0.0,0.0,0.0,0.0,0.0,0.0,0.0,2,storm-core\src\jvm\storm\trident\operation\BaseFunction.java,0,0,0,0
storm.trident.operation.CombinerAggregator, 0, 0, 0, 0, 0, 0, 0, 0, 0, 0, 0, 0, 0, 0,0.0,0.0,0.0,0.0,0.0,0.0,0.0,0.0,0.0,0.0,0.0,0.0,0.0,2,storm-core\src\jvm\storm\trident\operation\CombinerAggregator.java,0,0,0,0
storm.trident.operation.EachOperation, 0, 0, 0, 0, 0, 0, 0, 0, 0, 0, 0, 0, 0, 0,0.0,0.0,0.0,0.0,0.0,0.0,0.0,0.0,0.0,0.0,0.0,0.0,0.0,2,storm-core\src\jvm\storm\trident\operation\EachOperation.java,0,0,0,0
storm.trident.operation.Filter, 0, 0, 0, 0, 0, 0, 0, 0, 0, 0, 0, 0, 0, 0,0.0,0.0,0.0,0.0,0.0,0.0,0.0,0.0,0.0,0.0,0.0,0.0,0.0,2,storm-core\src\jvm\storm\trident\operation\Filter.java,0,0,0,0
storm.trident.operation.Function, 0, 0, 0, 0, 0, 0, 0, 0, 0, 0, 0, 0, 0, 0,0.0,0.0,0.0,0.0,0.0,0.0,0.0,0.0,0.0,0.0,0.0,0.0,0.0,2,storm-core\src\jvm\storm\trident\operation\Function.java,0,0,0,0
storm.trident.operation.ReducerAggregator, 0, 0, 0, 0, 0, 0, 0, 0, 0, 0, 0, 0, 0, 0,0.0,0.0,0.0,0.0,0.0,0.0,0.0,0.0,0.0,0.0,0.0,0.0,0.0,2,storm-core\src\jvm\storm\trident\operation\ReducerAggregator.java,0,0,0,0
storm.trident.operation.TridentCollector, 0, 0, 0, 0, 0, 0, 0, 0, 0, 0, 0, 0, 0, 0,0.0,0.0,0.0,0.0,0.0,0.0,0.0,0.0,0.0,0.0,0.0,0.0,0.0,2,storm-core\src\jvm\storm\trident\operation\TridentCollector.java,0,0,0,0
storm.trident.operation.TridentMultiReducerContext, 0, 0, 0, 0, 0, 0, 0, 0, 0, 0, 0, 0, 0, 0,0.0,0.0,0.0,0.0,0.0,0.0,0.0,0.0,0.0,0.0,0.0,0.0,0.0,9,storm-core\src\jvm\storm\trident\operation\TridentMultiReducerContext.java,0,0,0,0
storm.trident.operation.TridentOperationContext, 0, 0, 0, 0, 0, 0, 0, 0, 0, 0, 0, 0, 0, 0,0.0,0.0,0.0,0.0,0.0,0.0,0.0,0.0,0.0,0.0,0.0,0.0,0.0,29,storm-core\src\jvm\storm\trident\operation\TridentOperationContext.java,0,0,0,0
storm.trident.operation.builtin.Count, 0, 0, 0, 0, 0, 0, 0, 0, 0, 0, 0, 0, 0, 0,0.0,0.0,0.0,0.0,0.0,0.0,0.0,0.0,0.0,0.0,0.0,0.0,0.0,14,storm-core\src\jvm\storm\trident\operation\builtin\Count.java,0,0,0,0
storm.trident.operation.builtin.Debug, 0, 0, 0, 0, 0, 0, 0, 0, 0, 0, 0, 0, 0, 0,0.0,0.0,0.0,0.0,0.0,0.0,0.0,0.0,0.0,0.0,0.0,0.0,0.0,14,storm-core\src\jvm\storm\trident\operation\builtin\Debug.java,0,0,0,0
storm.trident.operation.builtin.Equals, 0, 0, 0, 0, 0, 0, 0, 0, 0, 0, 0, 0, 0, 0,0.0,0.0,0.0,0.0,0.0,0.0,0.0,0.0,0.0,0.0,0.0,0.0,0.0,13,storm-core\src\jvm\storm\trident\operation\builtin\Equals.java,0,0,0,0
storm.trident.operation.builtin.FilterNull, 0, 0, 0, 0, 0, 0, 0, 0, 0, 0, 0, 0, 0, 0,0.0,0.0,0.0,0.0,0.0,0.0,0.0,0.0,0.0,0.0,0.0,0.0,0.0,9,storm-core\src\jvm\storm\trident\operation\builtin\FilterNull.java,0,0,0,0
storm.trident.operation.builtin.MapGet, 0, 0, 0, 0, 0, 0, 0, 0, 0, 0, 0, 0, 0, 0,0.0,0.0,0.0,0.0,0.0,0.0,0.0,0.0,0.0,0.0,0.0,0.0,0.0,10,storm-core\src\jvm\storm\trident\operation\builtin\MapGet.java,0,0,0,0
storm.trident.operation.builtin.SnapshotGet, 0, 0, 0, 0, 0, 0, 0, 0, 0, 0, 0, 0, 0, 0,0.0,0.0,0.0,0.0,0.0,0.0,0.0,0.0,0.0,0.0,0.0,0.0,0.0,15,storm-core\src\jvm\storm\trident\operation\builtin\SnapshotGet.java,0,0,0,0
storm.trident.operation.builtin.Sum, 0, 0, 0, 0, 0, 0, 0, 0, 0, 0, 0, 0, 0, 0,0.0,0.0,0.0,0.0,0.0,0.0,0.0,0.0,0.0,0.0,0.0,0.0,0.0,14,storm-core\src\jvm\storm\trident\operation\builtin\Sum.java,0,0,0,0
storm.trident.operation.builtin.TupleCollectionGet, 0, 0, 0, 0, 0, 0, 0, 0, 0, 0, 0, 0, 0, 0,0.0,0.0,0.0,0.0,0.0,0.0,0.0,0.0,0.0,0.0,0.0,0.0,0.0,16,storm-core\src\jvm\storm\trident\operation\builtin\TupleCollectionGet.java,0,0,0,0
storm.trident.operation.impl.CaptureCollector, 0, 0, 1, 0, 0, 0, 0, 0, 0, 0, 0, 0, 0, 1,0.0,0.0,0.0,0.0,0.0,0.0,0.0,0.0,0.0,0.0,0.0,0.0,0.0,15,storm-core\src\jvm\storm\trident\operation\impl\CaptureCollector.java,0,0,0,0
storm.trident.operation.impl.ChainedResult, 0, 0, 0, 0, 0, 0, 0, 0, 0, 0, 0, 0, 0, 0,0.0,0.0,1.0,0.0,0.0,0.0,0.0,0.0,0.0,0.0,0.0,0.0,0.0,26,storm-core\src\jvm\storm\trident\operation\impl\ChainedResult.java,0,0,0,0
storm.trident.operation.impl.GlobalBatchToPartition, 0, 0, 0, 0, 0, 0, 0, 0, 0, 0, 0, 0, 0, 0,0.0,0.0,0.0,0.0,0.0,0.0,0.0,0.0,0.0,0.0,0.0,0.0,0.0,6,storm-core\src\jvm\storm\trident\operation\impl\GlobalBatchToPartition.java,0,0,0,0
storm.trident.operation.impl.GroupCollector, 0, 0, 1, 0, 0, 0, 0, 0, 0, 0, 0, 0, 0, 1,0.0,0.0,0.0,0.0,0.0,0.0,0.0,0.0,0.0,0.0,0.0,0.0,0.0,20,storm-core\src\jvm\storm\trident\operation\impl\GroupCollector.java,0,0,0,0
storm.trident.operation.impl.GroupedMultiReducerExecutor, 0, 0, 0, 0, 0, 0, 0, 0, 0, 0, 0, 0, 0, 0,0.0,0.0,0.0,0.0,0.0,0.0,0.0,0.0,0.0,0.0,0.0,0.0,0.0,54,storm-core\src\jvm\storm\trident\operation\impl\GroupedMultiReducerExecutor.java,0,0,0,0
storm.trident.operation.impl.IndexHashBatchToPartition, 0, 0, 0, 0, 0, 0, 0, 0, 0, 0, 0, 0, 0, 0,0.0,0.0,0.0,0.0,0.0,0.0,0.0,0.0,0.0,0.0,0.0,0.0,0.0,6,storm-core\src\jvm\storm\trident\operation\impl\IndexHashBatchToPartition.java,0,0,0,0
storm.trident.operation.impl.Result, 0, 0, 1, 0, 0, 0, 0, 0, 0, 0, 0, 0, 0, 1,0.0,0.0,0.0,0.0,0.0,0.0,0.0,0.0,0.0,0.0,0.0,0.0,0.0,7,storm-core\src\jvm\storm\trident\operation\impl\Result.java,0,0,0,0
storm.trident.partition.GlobalGrouping, 0, 0, 0, 0, 0, 0, 0, 0, 0, 0, 0, 0, 0, 0,0.0,0.0,0.0,0.0,0.0,0.0,0.0,0.0,0.0,0.0,0.0,0.0,0.0,13,storm-core\src\jvm\storm\trident\partition\GlobalGrouping.java,0,0,0,0
storm.trident.partition.IndexHashGrouping, 0, 0, 0, 0, 0, 0, 0, 0, 0, 0, 0, 0, 0, 0,0.0,0.0,0.0,0.5,0.0,0.0,0.0,0.0,0.0,0.0,0.0,0.0,0.0,22,storm-core\src\jvm\storm\trident\partition\IndexHashGrouping.java,0,0,0,0
storm.trident.planner.BridgeReceiver, 0, 0, 0, 0, 0, 0, 0, 0, 0, 0, 0, 0, 0, 0,0.0,0.0,0.5,0.0,0.0,0.0,0.0,0.0,0.0,0.0,0.0,0.0,0.0,10,storm-core\src\jvm\storm\trident\planner\BridgeReceiver.java,0,0,0,0
storm.trident.planner.Node, 0, 0, 1, 0, 0, 0, 0, 0, 0, 0, 0, 0, 0, 1,0.0,0.0,0.7142857142857143,0.14285714285714285,0.0,0.0,0.0,0.2857142857142857,0.0,0.0,0.0,0.0,0.0,29,storm-core\src\jvm\storm\trident\planner\Node.java,0,0,0,0
storm.trident.planner.NodeStateInfo, 0, 0, 1, 0, 0, 0, 0, 0, 0, 0, 0, 0, 0, 1,0.0,0.0,0.6666666666666666,0.3333333333333333,0.0,0.0,0.0,0.0,0.0,0.0,0.0,0.0,0.0,8,storm-core\src\jvm\storm\trident\planner\NodeStateInfo.java,0,0,0,0
storm.trident.planner.PartitionNode, 0, 0, 1, 0, 0, 0, 0, 0, 0, 0, 0, 0, 0, 1,0.0,0.0,0.5,0.5,0.0,0.0,0.0,0.0,0.0,0.0,0.0,0.0,0.0,19,storm-core\src\jvm\storm\trident\planner\PartitionNode.java,0,0,0,0
storm.trident.planner.ProcessorContext, 0, 0, 1, 0, 0, 0, 0, 0, 0, 0, 0, 0, 0, 1,0.0,0.0,0.0,0.0,0.0,0.0,0.0,0.0,0.0,0.0,0.0,0.0,0.0,8,storm-core\src\jvm\storm\trident\planner\ProcessorContext.java,0,0,0,0
storm.trident.planner.ProcessorNode, 0, 0, 1, 0, 0, 0, 0, 1, 0, 0, 0, 0, 0, 2,0.0,0.0,0.5,0.5,0.0,0.0,0.0,0.0,0.0,0.0,0.0,0.0,0.0,10,storm-core\src\jvm\storm\trident\planner\ProcessorNode.java,0,0,0,0
storm.trident.planner.SpoutNode, 0, 0, 1, 0, 0, 0, 0, 1, 0, 0, 0, 0, 0, 2,0.0,0.0,1.0,0.0,0.0,0.0,0.0,0.0,0.0,0.0,0.0,0.0,0.0,15,storm-core\src\jvm\storm\trident\planner\SpoutNode.java,0,0,0,0
storm.trident.planner.TupleReceiver, 0, 0, 0, 0, 0, 0, 0, 0, 0, 0, 0, 0, 0, 0,0.0,0.0,0.0,0.0,0.0,0.0,0.0,0.0,0.0,0.0,0.0,0.0,0.0,15,storm-core\src\jvm\storm\trident\planner\TupleReceiver.java,0,0,0,0
storm.trident.planner.processor.AppendCollector, 0, 0, 0, 0, 0, 0, 0, 0, 0, 0, 0, 0, 0, 0,0.0,0.0,0.3333333333333333,0.3333333333333333,0.0,0.0,0.0,0.3333333333333333,0.0,0.0,0.0,0.0,0.0,28,storm-core\src\jvm\storm\trident\planner\processor\AppendCollector.java,0,0,0,0
storm.trident.planner.processor.FreshCollector, 0, 0, 0, 0, 0, 0, 0, 0, 0, 0, 0, 0, 0, 0,0.0,0.0,0.3333333333333333,0.3333333333333333,0.0,0.0,0.0,0.3333333333333333,0.0,0.0,0.0,0.0,0.0,26,storm-core\src\jvm\storm\trident\planner\processor\FreshCollector.java,0,0,0,0
storm.trident.planner.processor.TridentContext, 0, 0, 0, 1, 0, 0, 0, 1, 0, 0, 0, 0, 0, 2,0.0,0.0,0.0,0.0,0.0,0.0,0.0,0.0,0.0,0.0,0.0,0.0,0.0,41,storm-core\src\jvm\storm\trident\planner\processor\TridentContext.java,0,0,0,0
storm.trident.spout.IBatchID, 0, 0, 0, 0, 0, 0, 0, 0, 0, 0, 0, 0, 0, 0,0.0,0.0,0.0,0.0,0.0,0.0,0.0,0.0,0.0,0.0,0.0,0.0,0.0,41,storm-core\src\jvm\storm\trident\spout\IBatchID.java,0,0,0,0
storm.trident.spout.ISpoutPartition, 0, 0, 0, 0, 0, 0, 0, 0, 0, 0, 0, 0, 0, 0,0.0,0.0,0.0,0.0,0.0,0.0,0.0,0.0,0.0,0.0,0.0,0.0,0.0,41,storm-core\src\jvm\storm\trident\spout\ISpoutPartition.java,0,0,0,0
storm.trident.spout.RichSpoutBatchId, 0, 0, 0, 0, 0, 0, 0, 0, 0, 0, 0, 0, 0, 0,0.0,0.0,0.0,0.0,0.0,0.0,0.0,0.0,0.0,0.0,0.0,0.0,0.0,24,storm-core\src\jvm\storm\trident\spout\RichSpoutBatchId.java,0,0,0,0
storm.trident.spout.RichSpoutBatchIdSerializer, 0, 0, 0, 0, 0, 0, 0, 0, 0, 0, 0, 0, 0, 0,0.0,0.0,0.0,0.0,0.0,0.0,0.0,0.0,0.0,0.0,0.0,0.0,0.0,11,storm-core\src\jvm\storm\trident\spout\RichSpoutBatchIdSerializer.java,0,0,0,0
storm.trident.state.BaseQueryFunction, 0, 0, 0, 0, 0, 0, 0, 0, 0, 0, 0, 0, 0, 0,0.0,0.0,0.0,0.0,0.0,0.0,0.0,0.0,0.0,0.0,0.0,0.0,0.0,2,storm-core\src\jvm\storm\trident\state\BaseQueryFunction.java,0,0,0,0
storm.trident.state.BaseStateUpdater, 0, 0, 0, 0, 0, 0, 0, 0, 0, 0, 0, 0, 0, 0,0.0,0.0,0.0,0.0,0.0,0.0,0.0,0.0,0.0,0.0,0.0,0.0,0.0,2,storm-core\src\jvm\storm\trident\state\BaseStateUpdater.java,0,0,0,0
storm.trident.state.CombinerValueUpdater, 0, 0, 0, 0, 0, 0, 0, 0, 0, 0, 0, 0, 0, 0,0.0,0.0,0.0,0.0,0.0,0.0,0.0,0.0,0.0,0.0,0.0,0.0,0.0,13,storm-core\src\jvm\storm\trident\state\CombinerValueUpdater.java,0,0,0,0
storm.trident.state.ITupleCollection, 0, 0, 0, 0, 0, 0, 0, 0, 0, 0, 0, 0, 0, 0,0.0,0.0,0.0,0.0,0.0,0.0,0.0,0.0,0.0,0.0,0.0,0.0,0.0,13,storm-core\src\jvm\storm\trident\state\ITupleCollection.java,0,0,0,0
storm.trident.state.JSONNonTransactionalSerializer, 0, 0, 0, 0, 0, 0, 0, 0, 0, 0, 0, 0, 0, 0,0.0,0.0,0.0,0.0,0.0,0.0,0.0,0.0,0.0,0.0,0.0,0.0,0.0,18,storm-core\src\jvm\storm\trident\state\JSONNonTransactionalSerializer.java,0,0,0,0
storm.trident.state.JSONOpaqueSerializer, 0, 0, 0, 0, 0, 0, 0, 0, 0, 0, 0, 0, 0, 0,0.0,0.0,0.0,0.0,0.0,0.0,0.0,0.0,0.0,0.0,0.0,0.0,0.0,24,storm-core\src\jvm\storm\trident\state\JSONOpaqueSerializer.java,0,0,0,0
storm.trident.state.JSONTransactionalSerializer, 0, 0, 0, 0, 0, 0, 0, 0, 0, 0, 0, 0, 0, 0,0.0,0.0,0.0,0.0,0.0,0.0,0.0,0.0,0.0,0.0,0.0,0.0,0.0,23,storm-core\src\jvm\storm\trident\state\JSONTransactionalSerializer.java,0,0,0,0
storm.trident.state.OpaqueValue, 0, 0, 0, 0, 0, 0, 0, 0, 0, 0, 0, 0, 0, 0,0.0,0.0,0.0,0.0,0.0,0.0,0.0,0.0,0.0,0.0,0.0,0.0,0.0,46,storm-core\src\jvm\storm\trident\state\OpaqueValue.java,0,0,0,0
storm.trident.state.QueryFunction, 0, 0, 0, 0, 0, 0, 0, 0, 0, 0, 0, 0, 0, 0,0.0,0.0,0.0,0.0,0.0,0.0,0.0,0.0,0.0,0.0,0.0,0.0,0.0,46,storm-core\src\jvm\storm\trident\state\QueryFunction.java,0,0,0,0
storm.trident.state.ReadOnlyState, 0, 0, 0, 0, 0, 0, 0, 0, 0, 0, 0, 0, 0, 0,0.0,0.0,0.0,0.0,0.0,0.0,0.0,0.0,0.0,0.0,0.0,0.0,0.0,10,storm-core\src\jvm\storm\trident\state\ReadOnlyState.java,0,0,0,0
storm.trident.state.ReducerValueUpdater, 0, 0, 0, 0, 0, 0, 0, 0, 0, 0, 0, 0, 0, 0,0.0,0.0,0.0,0.0,0.0,0.0,0.0,0.0,0.0,0.0,0.0,0.0,0.0,16,storm-core\src\jvm\storm\trident\state\ReducerValueUpdater.java,0,0,0,0
storm.trident.state.Serializer, 0, 0, 0, 0, 0, 0, 0, 0, 0, 0, 0, 0, 0, 0,0.0,0.0,0.0,0.0,0.0,0.0,0.0,0.0,0.0,0.0,0.0,0.0,0.0,16,storm-core\src\jvm\storm\trident\state\Serializer.java,0,0,0,0
storm.trident.state.State, 0, 0, 0, 0, 0, 0, 0, 0, 0, 0, 0, 0, 0, 0,0.0,0.0,0.0,0.0,0.0,0.0,0.0,0.0,0.0,0.0,0.0,0.0,0.0,16,storm-core\src\jvm\storm\trident\state\State.java,0,0,0,0
storm.trident.state.StateSpec, 0, 0, 1, 0, 0, 0, 0, 0, 0, 0, 0, 0, 0, 1,0.0,0.0,0.3333333333333333,0.6666666666666666,0.0,0.0,0.0,0.0,0.0,0.0,0.0,0.0,0.0,7,storm-core\src\jvm\storm\trident\state\StateSpec.java,0,0,0,0
storm.trident.state.StateUpdater, 0, 0, 0, 0, 0, 0, 0, 0, 0, 0, 0, 0, 0, 0,0.0,0.0,0.0,0.0,0.0,0.0,0.0,0.0,0.0,0.0,0.0,0.0,0.0,7,storm-core\src\jvm\storm\trident\state\StateUpdater.java,0,0,0,0
storm.trident.state.TransactionalValue, 0, 0, 0, 0, 0, 0, 0, 0, 0, 0, 0, 0, 0, 0,0.0,0.0,0.0,0.0,0.0,0.0,0.0,0.0,0.0,0.0,0.0,0.0,0.0,18,storm-core\src\jvm\storm\trident\state\TransactionalValue.java,0,0,0,0
storm.trident.state.ValueUpdater, 0, 0, 0, 0, 0, 0, 0, 0, 0, 0, 0, 0, 0, 0,0.0,0.0,0.0,0.0,0.0,0.0,0.0,0.0,0.0,0.0,0.0,0.0,0.0,18,storm-core\src\jvm\storm\trident\state\ValueUpdater.java,0,0,0,0
storm.trident.state.map.IBackingMap, 0, 0, 0, 0, 0, 0, 0, 0, 0, 0, 0, 0, 0, 0,0.0,0.0,0.0,0.0,0.0,0.0,0.0,0.0,0.0,0.0,0.0,0.0,0.0,18,storm-core\src\jvm\storm\trident\state\map\IBackingMap.java,0,0,0,0
storm.trident.state.map.MapState, 0, 0, 0, 0, 0, 0, 0, 0, 0, 0, 0, 0, 0, 0,0.0,0.0,0.0,0.0,0.0,0.0,0.0,0.0,0.0,0.0,0.0,0.0,0.0,18,storm-core\src\jvm\storm\trident\state\map\MapState.java,0,0,0,0
storm.trident.state.map.MicroBatchIBackingMap, 0, 0, 0, 0, 0, 0, 0, 0, 0, 0, 0, 0, 0, 0,0.0,0.0,0.0,0.0,0.0,0.0,0.0,0.0,0.0,0.0,0.0,0.0,0.0,48,storm-core\src\jvm\storm\trident\state\map\MicroBatchIBackingMap.java,0,0,0,0
storm.trident.state.map.NonTransactionalMap, 0, 0, 0, 0, 0, 0, 0, 0, 0, 0, 0, 0, 0, 0,0.0,0.0,0.0,0.0,0.0,0.0,0.0,0.0,0.0,0.0,0.0,0.0,0.0,35,storm-core\src\jvm\storm\trident\state\map\NonTransactionalMap.java,0,0,0,0
storm.trident.state.map.OpaqueMap, 0, 0, 0, 0, 0, 0, 0, 0, 0, 0, 0, 0, 0, 0,0.0,0.0,0.0,0.0,0.0,0.0,0.0,0.0,0.0,0.0,0.0,0.0,0.0,88,storm-core\src\jvm\storm\trident\state\map\OpaqueMap.java,0,0,0,0
storm.trident.state.map.ReadOnlyMapState, 0, 0, 0, 0, 0, 0, 0, 0, 0, 0, 0, 0, 0, 0,0.0,0.0,0.0,0.0,0.0,0.0,0.0,0.0,0.0,0.0,0.0,0.0,0.0,88,storm-core\src\jvm\storm\trident\state\map\ReadOnlyMapState.java,0,0,0,0
storm.trident.state.map.RemovableMapState, 0, 0, 0, 0, 0, 0, 0, 0, 0, 0, 0, 0, 0, 0,0.0,0.0,0.0,0.0,0.0,0.0,0.0,0.0,0.0,0.0,0.0,0.0,0.0,88,storm-core\src\jvm\storm\trident\state\map\RemovableMapState.java,0,0,0,0
storm.trident.state.map.SnapshottableMap, 0, 0, 0, 0, 0, 0, 0, 0, 0, 0, 0, 0, 0, 0,0.0,0.0,0.0,0.0,0.0,0.0,0.0,0.0,0.0,0.0,0.0,0.0,0.0,41,storm-core\src\jvm\storm\trident\state\map\SnapshottableMap.java,0,0,0,0
storm.trident.state.map.TransactionalMap, 0, 0, 0, 0, 0, 0, 0, 0, 0, 0, 0, 0, 0, 0,0.0,0.0,0.0,0.0,0.0,0.0,0.0,0.0,0.0,0.0,0.0,0.0,0.0,76,storm-core\src\jvm\storm\trident\state\map\TransactionalMap.java,0,0,0,0
storm.trident.state.snapshot.ReadOnlySnapshottable, 0, 0, 0, 0, 0, 0, 0, 0, 0, 0, 0, 0, 0, 0,0.0,0.0,0.0,0.0,0.0,0.0,0.0,0.0,0.0,0.0,0.0,0.0,0.0,76,storm-core\src\jvm\storm\trident\state\snapshot\ReadOnlySnapshottable.java,0,0,0,0
storm.trident.state.snapshot.Snapshottable, 0, 0, 0, 0, 0, 0, 0, 0, 0, 0, 0, 0, 0, 0,0.0,0.0,0.0,0.0,0.0,0.0,0.0,0.0,0.0,0.0,0.0,0.0,0.0,76,storm-core\src\jvm\storm\trident\state\snapshot\Snapshottable.java,0,0,0,0
storm.trident.testing.CountAsAggregator, 0, 0, 0, 0, 0, 0, 0, 0, 0, 0, 0, 0, 0, 0,0.0,0.0,0.0,0.0,0.0,0.0,0.0,0.0,0.0,0.0,0.0,0.0,0.0,17,storm-core\src\jvm\storm\trident\testing\CountAsAggregator.java,0,0,0,0
storm.trident.testing.FeederBatchSpout, 0, 0, 0, 0, 0, 0, 0, 0, 0, 0, 0, 0, 0, 0,0.0,0.0,0.0,0.0,0.0,0.0,0.0,0.0,0.0,0.0,0.0,0.0,0.0,123,storm-core\src\jvm\storm\trident\testing\FeederBatchSpout.java,0,0,0,0
storm.trident.testing.IFeeder, 0, 0, 0, 0, 0, 0, 0, 0, 0, 0, 0, 0, 0, 0,0.0,0.0,0.0,0.0,0.0,0.0,0.0,0.0,0.0,0.0,0.0,0.0,0.0,123,storm-core\src\jvm\storm\trident\testing\IFeeder.java,0,0,0,0
storm.trident.testing.Split, 0, 0, 0, 0, 0, 0, 0, 0, 0, 0, 0, 0, 0, 0,0.0,0.0,0.0,0.0,0.0,0.0,0.0,0.0,0.0,0.0,0.0,0.0,0.0,10,storm-core\src\jvm\storm\trident\testing\Split.java,0,0,0,0
storm.trident.testing.StringLength, 0, 0, 0, 0, 0, 0, 0, 0, 0, 0, 0, 0, 0, 0,0.0,0.0,0.0,0.0,0.0,0.0,0.0,0.0,0.0,0.0,0.0,0.0,0.0,6,storm-core\src\jvm\storm\trident\testing\StringLength.java,0,0,0,0
storm.trident.testing.TrueFilter, 0, 0, 0, 0, 0, 0, 0, 0, 0, 0, 0, 0, 0, 0,0.0,0.0,0.0,0.0,0.0,0.0,0.0,0.0,0.0,0.0,0.0,0.0,0.0,6,storm-core\src\jvm\storm\trident\testing\TrueFilter.java,0,0,0,0
storm.trident.testing.TuplifyArgs, 0, 0, 0, 0, 0, 0, 0, 0, 0, 0, 0, 0, 0, 0,0.0,0.0,0.0,0.0,0.0,0.0,0.0,0.0,0.0,0.0,0.0,0.0,0.0,10,storm-core\src\jvm\storm\trident\testing\TuplifyArgs.java,0,0,0,0
storm.trident.topology.BatchInfo, 0, 0, 1, 0, 0, 0, 0, 0, 0, 0, 0, 0, 0, 1,0.0,0.0,0.0,0.0,0.0,0.0,0.0,0.0,0.0,0.0,0.0,0.0,0.0,10,storm-core\src\jvm\storm\trident\topology\BatchInfo.java,0,0,0,0
storm.trident.topology.TransactionAttempt, 0, 0, 0, 0, 0, 0, 0, 0, 0, 0, 0, 0, 0, 0,0.0,0.0,0.0,0.0,0.0,0.0,0.0,0.0,0.0,0.0,0.0,0.0,0.0,32,storm-core\src\jvm\storm\trident\topology\TransactionAttempt.java,0,0,0,0
storm.trident.util.ErrorEdgeFactory, 0, 0, 0, 0, 0, 0, 0, 0, 0, 0, 0, 0, 0, 0,0.0,0.0,0.0,0.0,0.0,0.0,0.0,0.0,0.0,0.0,0.0,0.0,0.0,6,storm-core\src\jvm\storm\trident\util\ErrorEdgeFactory.java,0,0,0,0
storm.trident.util.IndexedEdge, 0, 0, 1, 0, 0, 0, 0, 0, 0, 0, 0, 0, 0, 1,0.0,0.0,0.0,0.0,0.0,0.0,0.0,0.0,0.0,0.0,0.0,0.0,0.0,24,storm-core\src\jvm\storm\trident\util\IndexedEdge.java,0,0,0,0
