ClassName,AntiSingleton,Blob,ClassDataShouldBePrivate,ComplexClass,LargeClass,LazyClass,LongMethod,LongParameterList,MessageChains,RefusedParentBequest,SpaghettiCode,SpeculativeGenerality,SwissArmyKnife,NumOfAPs,AntiSingleton,Blob,ClassDataShouldBePrivate,ComplexClass,LargeClass,LazyClass,LongMethod,LongParameterList,MessageChains,RefusedParentBequest,SpaghettiCode,SpeculativeGenerality,SwissArmyKnife,LOC,name,deleted,added,changed,all
org.apache.ace.agent.connection.UrlCredentials, 0, 0, 0, 0, 0, 0, 0, 0, 0, 0, 0, 0, 0, 0,0.0,0.0,0.0,0.0,0.0,0.0,0.0,0.0,0.0,0.0,0.0,0.0,0.0,67,org.apache.ace.agent\src\org\apache\ace\agent\connection\UrlCredentials.java,70,0,0,70
org.apache.ace.agent.connection.UrlCredentialsFactory, 0, 0, 0, 0, 0, 0, 0, 0, 0, 0, 0, 0, 0, 0,0.0,0.0,0.0,0.0,0.0,0.0,0.0,0.0,0.0,0.0,0.0,0.0,0.0,169,org.apache.ace.agent\src\org\apache\ace\agent\connection\UrlCredentialsFactory.java,186,0,0,186
org.apache.ace.agent.deployment.DeploymentAdminDeployer, 0, 0, 0, 0, 0, 0, 0, 0, 0, 0, 0, 0, 0, 0,0.0,0.0,0.0,0.0,0.0,0.0,0.0,0.0,0.0,0.0,0.0,0.0,0.0,23,org.apache.ace.agent\src\org\apache\ace\agent\deployment\DeploymentAdminDeployer.java,31,0,0,31
org.apache.ace.agent.deployment.DeploymentUpdateTask, 0, 0, 0, 0, 0, 0, 0, 0, 0, 0, 0, 0, 0, 0,0.0,0.0,0.0,0.0,0.0,0.0,0.0,0.0,0.0,0.0,0.0,0.0,0.0,26,org.apache.ace.agent\src\org\apache\ace\agent\deployment\DeploymentUpdateTask.java,33,0,0,33
org.apache.ace.agent.identification.IfconfigIdentification, 0, 0, 0, 0, 0, 0, 0, 0, 0, 0, 0, 0, 0, 0,0.0,0.0,0.0,0.0,0.0,0.0,0.0,0.0,0.0,0.0,0.0,0.0,0.0,71,org.apache.ace.agent\src\org\apache\ace\agent\identification\IfconfigIdentification.java,79,0,0,79
org.apache.ace.agent.impl.Activator, 0, 0, 0, 0, 0, 0, 0, 0, 0, 0, 0, 0, 0, 0,0.0,0.0,0.0,0.0,0.0,0.0,0.0,0.0,0.0,0.0,0.0,0.0,0.0,40,org.apache.ace.agent\src\org\apache\ace\agent\impl\Activator.java,2,116,37,192
org.apache.ace.agent.logging.LogStoreImpl, 0, 0, 0, 0, 0, 0, 0, 0, 0, 0, 0, 0, 0, 0,0.0,0.0,0.0,0.0,0.0,0.0,0.0,0.0,0.0,0.0,0.0,0.0,0.0,288,org.apache.ace.agent\src\org\apache\ace\agent\logging\LogStoreImpl.java,301,0,0,301
org.apache.ace.agent.logging.LogSyncTask, 0, 0, 0, 0, 0, 0, 0, 0, 0, 0, 0, 0, 0, 0,0.0,0.0,0.0,0.0,0.0,0.0,0.0,0.0,0.0,0.0,0.0,0.0,0.0,109,org.apache.ace.agent\src\org\apache\ace\agent\logging\LogSyncTask.java,131,0,0,131
org.apache.ace.agent.scheduler.impl.Executer, 0, 0, 0, 0, 0, 0, 0, 0, 0, 0, 0, 0, 0, 0,0.0,0.0,0.0,0.0,0.0,0.0,0.0,0.0,0.0,0.0,0.0,0.0,0.0,53,org.apache.ace.agent\src\org\apache\ace\agent\scheduler\impl\Executer.java,57,0,0,57
org.apache.ace.agent.scheduler.impl.SchedulerTask, 0, 0, 0, 0, 0, 0, 0, 0, 0, 0, 0, 0, 0, 0,0.0,0.0,0.0,0.0,0.0,0.0,0.0,0.0,0.0,0.0,0.0,0.0,0.0,97,org.apache.ace.agent\src\org\apache\ace\agent\scheduler\impl\SchedulerTask.java,99,0,0,99
org.apache.ace.ant.deploymentpackage.DeploymentPackageTask, 0, 0, 0, 0, 0, 0, 0, 0, 0, 0, 0, 0, 0, 0,0.0,0.0,0.0,0.0,0.0,0.0,0.0,0.0,0.0,0.0,0.0,0.0,0.0,100,org.apache.ace.ant.tasks\src\org\apache\ace\ant\deploymentpackage\DeploymentPackageTask.java,1,0,0,1
org.apache.ace.authentication.api.AuthenticationProcessor, 0, 0, 0, 0, 0, 0, 0, 0, 0, 0, 0, 0, 0, 0,0.0,0.0,0.0,0.0,0.0,0.0,0.0,0.0,0.0,0.0,0.0,0.0,0.0,100,org.apache.ace.authentication\src\org\apache\ace\authentication\api\AuthenticationProcessor.java,0,2,0,2
org.apache.ace.authentication.api.AuthenticationService, 0, 0, 0, 0, 0, 0, 0, 0, 0, 0, 0, 0, 0, 0,0.0,0.0,0.0,0.0,0.0,0.0,0.0,0.0,0.0,0.0,0.0,0.0,0.0,100,org.apache.ace.authentication\src\org\apache\ace\authentication\api\AuthenticationService.java,0,2,0,2
org.apache.ace.authentication.impl.Activator, 0, 0, 0, 0, 0, 0, 0, 0, 0, 0, 0, 0, 0, 0,0.0,0.0,0.0,0.0,0.0,0.0,0.0,0.0,0.0,0.0,0.0,0.0,0.0,22,org.apache.ace.authentication\src\org\apache\ace\authentication\impl\Activator.java,0,0,0,0
org.apache.ace.authentication.impl.AuthenticationServiceImpl, 0, 0, 0, 0, 0, 0, 0, 0, 0, 0, 0, 0, 0, 0,0.0,0.0,0.0,0.0,0.0,0.0,0.0,0.0,0.0,0.0,0.0,0.0,0.0,89,org.apache.ace.authentication\src\org\apache\ace\authentication\impl\AuthenticationServiceImpl.java,0,0,0,0
org.apache.ace.authentication.impl.AuthenticationServiceImplTest, 0, 0, 0, 0, 0, 0, 0, 0, 0, 0, 0, 0, 0, 0,0.0,0.0,0.0,0.0,0.0,0.0,0.0,0.0,0.0,0.0,0.0,0.0,0.0,109,org.apache.ace.authentication\test\org\apache\ace\authentication\impl\AuthenticationServiceImplTest.java,0,0,0,0
org.apache.ace.authentication.processor.basicauth.BasicHttpAuthenticationProcessor, 0, 0, 0, 0, 0, 0, 0, 0, 0, 0, 0, 0, 0, 0,0.0,0.0,0.0,0.0,0.0,0.0,0.0,0.0,0.0,0.0,0.0,0.0,0.0,76,org.apache.ace.authentication\src\org\apache\ace\authentication\processor\basicauth\BasicHttpAuthenticationProcessor.java,0,0,0,0
org.apache.ace.authentication.processor.clientcert.ClientCertAuthenticationProcessor, 0, 0, 0, 0, 0, 0, 0, 0, 0, 0, 0, 0, 0, 0,0.0,0.0,0.0,0.0,0.0,0.0,0.0,0.0,0.0,0.0,0.0,0.0,0.0,131,org.apache.ace.authentication\src\org\apache\ace\authentication\processor\clientcert\ClientCertAuthenticationProcessor.java,0,0,0,0
org.apache.ace.authentication.processor.clientcert.MemoryKeyStore, 0, 0, 0, 0, 0, 0, 0, 1, 0, 0, 0, 0, 0, 1,0.0,0.0,0.0,0.0,0.0,0.0,0.0,0.0,0.0,0.0,0.0,0.0,0.0,67,org.apache.ace.authentication\test\org\apache\ace\authentication\processor\clientcert\MemoryKeyStore.java,1,1,1,4
org.apache.ace.authentication.processor.password.PasswordAuthenticationProcessor, 0, 0, 0, 0, 0, 0, 0, 0, 0, 0, 0, 0, 0, 0,0.0,0.0,0.0,0.0,0.0,0.0,0.0,0.0,0.0,0.0,0.0,0.0,0.0,110,org.apache.ace.authentication\src\org\apache\ace\authentication\processor\password\PasswordAuthenticationProcessor.java,0,0,0,0
org.apache.ace.builder.ArtifactData, 0, 0, 0, 0, 0, 0, 0, 1, 0, 0, 0, 0, 0, 1,0.0,0.0,0.0,0.0,0.0,0.0,0.0,0.0,0.0,0.0,0.0,0.0,0.0,62,org.apache.ace.builder\src\org\apache\ace\builder\ArtifactData.java,1,9,4,18
org.apache.ace.client.automation.Activator, 0, 0, 0, 0, 0, 0, 0, 0, 0, 0, 0, 0, 0, 0,0.0,0.0,0.0,0.0,0.0,0.0,0.0,0.0,0.0,0.0,0.0,0.0,0.0,17,org.apache.ace.client.automation\src\org\apache\ace\client\automation\Activator.java,0,0,0,0
org.apache.ace.client.repository.Associatable, 0, 0, 0, 0, 0, 0, 0, 0, 0, 0, 0, 0, 0, 0,0.0,0.0,0.0,0.0,0.0,0.0,0.0,0.0,0.0,0.0,0.0,0.0,0.0,17,org.apache.ace.client.repository\src\org\apache\ace\client\repository\Associatable.java,3,2,0,5
org.apache.ace.client.repository.Association, 0, 0, 0, 0, 0, 0, 0, 0, 0, 0, 0, 0, 0, 0,0.0,0.0,0.0,0.0,0.0,0.0,0.0,0.0,0.0,0.0,0.0,0.0,0.0,17,org.apache.ace.client.repository\src\org\apache\ace\client\repository\Association.java,0,2,0,2
org.apache.ace.client.repository.RepositoryAdmin, 0, 0, 0, 0, 0, 0, 0, 0, 0, 0, 0, 0, 0, 0,0.0,0.0,0.0,0.0,0.0,0.0,0.0,0.0,0.0,0.0,0.0,0.0,0.0,17,org.apache.ace.client.repository\src\org\apache\ace\client\repository\RepositoryAdmin.java,0,10,0,10
org.apache.ace.client.repository.RepositoryAdminLoginContext, 0, 0, 0, 0, 0, 0, 0, 0, 0, 0, 0, 0, 0, 0,0.0,0.0,0.0,0.0,0.0,0.0,0.0,0.0,0.0,0.0,0.0,0.0,0.0,17,org.apache.ace.client.repository\src\org\apache\ace\client\repository\RepositoryAdminLoginContext.java,1,2,0,3
org.apache.ace.client.repository.RepositoryUtil, 0, 0, 0, 0, 0, 0, 0, 0, 0, 0, 0, 0, 0, 0,0.0,0.0,0.0,0.0,0.0,0.0,0.0,0.0,0.0,0.0,0.0,0.0,0.0,8,org.apache.ace.client.repository\src\org\apache\ace\client\repository\RepositoryUtil.java,0,2,0,2
org.apache.ace.client.repository.SessionFactory, 0, 0, 0, 0, 0, 0, 0, 0, 0, 0, 0, 0, 0, 0,0.0,0.0,0.0,0.0,0.0,0.0,0.0,0.0,0.0,0.0,0.0,0.0,0.0,8,org.apache.ace.client.repository\src\org\apache\ace\client\repository\SessionFactory.java,1,3,2,8
org.apache.ace.client.repository.helper.ArtifactPreprocessor, 0, 0, 0, 0, 0, 0, 0, 0, 0, 0, 0, 0, 0, 0,0.0,0.0,0.0,0.0,0.0,0.0,0.0,0.0,0.0,0.0,0.0,0.0,0.0,8,org.apache.ace.client.repository\src\org\apache\ace\client\repository\helper\ArtifactPreprocessor.java,0,2,0,2
org.apache.ace.client.repository.helper.ArtifactResource, 0, 0, 0, 0, 0, 0, 0, 0, 0, 0, 0, 0, 0, 0,0.0,0.0,0.0,0.0,0.0,0.0,0.0,0.0,0.0,0.0,0.0,0.0,0.0,8,org.apache.ace.client.repository\src\org\apache\ace\client\repository\helper\ArtifactResource.java,0,3,0,3
org.apache.ace.client.repository.helper.PropertyResolver, 0, 0, 0, 0, 0, 0, 0, 0, 0, 0, 0, 0, 0, 0,0.0,0.0,0.0,0.0,0.0,0.0,0.0,0.0,0.0,0.0,0.0,0.0,0.0,8,org.apache.ace.client.repository\src\org\apache\ace\client\repository\helper\PropertyResolver.java,0,2,0,2
org.apache.ace.client.repository.helper.base.ArtifactPreprocessorBase, 0, 0, 0, 0, 0, 0, 0, 0, 0, 0, 0, 0, 0, 0,0.0,0.0,0.0,0.0,0.0,0.0,0.0,0.0,0.0,0.0,0.0,0.0,0.0,65,org.apache.ace.client.repository\src\org\apache\ace\client\repository\helper\base\ArtifactPreprocessorBase.java,1,5,6,18
org.apache.ace.client.repository.helper.base.VelocityArtifactPreprocessorTest, 0, 0, 0, 0, 0, 0, 0, 0, 0, 0, 0, 0, 0, 0,0.0,0.0,0.0,0.0,0.0,0.0,0.0,0.0,0.0,0.0,0.0,0.0,0.0,99,org.apache.ace.client.repository\test\org\apache\ace\client\repository\helper\base\VelocityArtifactPreprocessorTest.java,0,0,0,0
org.apache.ace.client.repository.helper.bundle.BundleHelper, 0, 0, 0, 0, 0, 0, 0, 0, 0, 0, 0, 0, 0, 0,0.0,0.0,0.0,0.0,0.0,0.0,0.0,0.0,0.0,0.0,0.0,0.0,0.0,99,org.apache.ace.client.repository\src\org\apache\ace\client\repository\helper\bundle\BundleHelper.java,0,2,0,2
org.apache.ace.client.repository.helper.configuration.ConfigurationHelper, 0, 0, 0, 0, 0, 0, 0, 0, 0, 0, 0, 0, 0, 0,0.0,0.0,0.0,0.0,0.0,0.0,0.0,0.0,0.0,0.0,0.0,0.0,0.0,99,org.apache.ace.client.repository\src\org\apache\ace\client\repository\helper\configuration\ConfigurationHelper.java,0,2,0,2
org.apache.ace.client.repository.helper.configuration.impl.ConfigurationHelperImplTest, 0, 0, 0, 0, 0, 0, 0, 0, 0, 0, 0, 0, 0, 0,0.0,0.0,0.0,0.0,0.0,0.0,0.0,0.0,0.0,0.0,0.0,0.0,0.0,45,org.apache.ace.client.repository\test\org\apache\ace\client\repository\helper\configuration\impl\ConfigurationHelperImplTest.java,0,41,8,57
org.apache.ace.client.repository.helper.user.UserAdminHelper, 0, 0, 0, 0, 0, 0, 0, 0, 0, 0, 0, 0, 0, 0,0.0,0.0,0.0,0.0,0.0,0.0,0.0,0.0,0.0,0.0,0.0,0.0,0.0,45,org.apache.ace.client.repository\src\org\apache\ace\client\repository\helper\user\UserAdminHelper.java,0,2,0,2
org.apache.ace.client.repository.impl.ACE308Test, 0, 0, 0, 0, 0, 0, 0, 0, 0, 0, 0, 0, 0, 0,0.0,0.0,0.0,0.0,0.0,0.0,0.0,0.0,0.0,0.0,0.0,0.0,0.0,10,org.apache.ace.client.repository\test\org\apache\ace\client\repository\impl\ACE308Test.java,0,0,3,6
org.apache.ace.client.repository.impl.AdminTestUtil, 0, 0, 0, 0, 0, 0, 0, 0, 0, 0, 0, 0, 0, 0,0.0,0.0,0.0,0.0,0.0,0.0,0.0,0.0,0.0,0.0,0.0,0.0,0.0,25,org.apache.ace.client.repository\test\org\apache\ace\client\repository\impl\AdminTestUtil.java,0,0,0,0
org.apache.ace.client.repository.impl.CachedRepositoryImplTest, 0, 0, 0, 0, 0, 0, 0, 0, 0, 0, 0, 0, 0, 0,0.0,0.0,0.0,0.0,0.0,0.0,0.0,0.0,0.0,0.0,0.0,0.0,0.0,59,org.apache.ace.client.repository\test\org\apache\ace\client\repository\impl\CachedRepositoryImplTest.java,0,0,0,0
org.apache.ace.client.repository.impl.ChangeNotifier, 0, 0, 0, 0, 0, 0, 0, 0, 0, 0, 0, 0, 0, 0,0.0,0.0,0.0,0.0,0.0,0.0,0.0,0.0,0.0,0.0,0.0,0.0,0.0,59,org.apache.ace.client.repository\src\org\apache\ace\client\repository\impl\ChangeNotifier.java,0,0,0,0
org.apache.ace.client.repository.impl.ChangeNotifierManager, 0, 0, 0, 0, 0, 0, 0, 0, 0, 0, 0, 0, 0, 0,0.0,0.0,0.0,0.0,0.0,0.0,0.0,0.0,0.0,0.0,0.0,0.0,0.0,12,org.apache.ace.client.repository\src\org\apache\ace\client\repository\impl\ChangeNotifierManager.java,0,4,0,4
org.apache.ace.client.repository.impl.FilebasedBackupRepositoryTest, 0, 0, 0, 0, 0, 0, 0, 0, 0, 0, 0, 0, 0, 0,0.0,0.0,0.0,0.0,0.0,0.0,0.0,0.0,0.0,0.0,0.0,0.0,0.0,25,org.apache.ace.client.repository\test\org\apache\ace\client\repository\impl\FilebasedBackupRepositoryTest.java,0,0,0,0
org.apache.ace.client.repository.impl.MockBackupRepository, 0, 0, 0, 0, 0, 0, 0, 0, 0, 0, 0, 0, 0, 0,0.0,0.0,0.0,0.0,0.0,0.0,0.0,0.0,0.0,0.0,0.0,0.0,0.0,28,org.apache.ace.client.repository\test\org\apache\ace\client\repository\impl\MockBackupRepository.java,0,0,0,0
org.apache.ace.client.repository.impl.MockCachedRepository, 0, 0, 0, 0, 0, 0, 0, 0, 0, 0, 0, 0, 0, 0,0.0,0.0,0.0,0.0,0.0,0.0,0.0,0.0,0.0,0.0,0.0,0.0,0.0,37,org.apache.ace.client.repository\test\org\apache\ace\client\repository\impl\MockCachedRepository.java,0,0,0,0
org.apache.ace.client.repository.impl.MockRepository, 0, 0, 0, 0, 0, 0, 0, 0, 0, 0, 0, 0, 0, 0,0.0,0.0,0.0,0.0,0.0,0.0,0.0,0.0,0.0,0.0,0.0,0.0,0.0,21,org.apache.ace.client.repository\test\org\apache\ace\client\repository\impl\MockRepository.java,0,0,0,0
org.apache.ace.client.repository.impl.RepositoryAdminLoginContextImpl, 0, 0, 0, 0, 0, 0, 0, 0, 0, 0, 0, 0, 0, 0,0.0,0.0,0.0,0.0,0.0,0.0,0.0,0.0,0.0,0.0,0.0,0.0,0.0,158,org.apache.ace.client.repository\src\org\apache\ace\client\repository\impl\RepositoryAdminLoginContextImpl.java,10,1,0,11
org.apache.ace.client.repository.impl.RepositoryAdminLoginContextImplTest, 0, 0, 0, 0, 0, 0, 0, 0, 0, 0, 0, 0, 0, 0,0.0,0.0,0.0,0.0,0.0,0.0,0.0,0.0,0.0,0.0,0.0,0.0,0.0,28,org.apache.ace.client.repository\test\org\apache\ace\client\repository\impl\RepositoryAdminLoginContextImplTest.java,0,1,0,1
org.apache.ace.client.repository.impl.RepositoryPropertyResolver, 0, 0, 0, 0, 0, 0, 0, 0, 0, 0, 0, 0, 0, 0,0.0,0.0,0.0,0.0,0.0,0.0,0.0,0.0,0.0,0.0,0.0,0.0,0.0,54,org.apache.ace.client.repository\src\org\apache\ace\client\repository\impl\RepositoryPropertyResolver.java,0,0,0,0
org.apache.ace.client.repository.impl.TargetPropertyResolver, 0, 0, 0, 0, 0, 0, 0, 0, 0, 0, 0, 0, 0, 0,0.0,0.0,0.0,0.0,0.0,0.0,0.0,0.0,0.0,0.0,0.0,0.0,0.0,39,org.apache.ace.client.repository\src\org\apache\ace\client\repository\impl\TargetPropertyResolver.java,0,1,0,1
org.apache.ace.client.repository.object.Artifact2FeatureAssociation, 0, 0, 0, 0, 0, 0, 0, 0, 0, 0, 0, 0, 0, 0,0.0,0.0,0.0,0.0,0.0,0.0,0.0,0.0,0.0,0.0,0.0,0.0,0.0,39,org.apache.ace.client.repository\src\org\apache\ace\client\repository\object\Artifact2FeatureAssociation.java,0,6,0,6
org.apache.ace.client.repository.object.ArtifactObject, 0, 0, 0, 0, 0, 0, 0, 0, 0, 0, 0, 0, 0, 0,0.0,0.0,0.0,0.0,0.0,0.0,0.0,0.0,0.0,0.0,0.0,0.0,0.0,39,org.apache.ace.client.repository\src\org\apache\ace\client\repository\object\ArtifactObject.java,0,8,0,8
org.apache.ace.client.repository.object.DeploymentArtifact, 0, 0, 0, 0, 0, 0, 0, 0, 0, 0, 0, 0, 0, 0,0.0,0.0,0.0,0.0,0.0,0.0,0.0,0.0,0.0,0.0,0.0,0.0,0.0,39,org.apache.ace.client.repository\src\org\apache\ace\client\repository\object\DeploymentArtifact.java,0,3,0,3
org.apache.ace.client.repository.object.DeploymentVersionObject, 0, 0, 0, 0, 0, 0, 0, 0, 0, 0, 0, 0, 0, 0,0.0,0.0,0.0,0.0,0.0,0.0,0.0,0.0,0.0,0.0,0.0,0.0,0.0,39,org.apache.ace.client.repository\src\org\apache\ace\client\repository\object\DeploymentVersionObject.java,0,6,0,6
org.apache.ace.client.repository.object.Distribution2TargetAssociation, 0, 0, 0, 0, 0, 0, 0, 0, 0, 0, 0, 0, 0, 0,0.0,0.0,0.0,0.0,0.0,0.0,0.0,0.0,0.0,0.0,0.0,0.0,0.0,39,org.apache.ace.client.repository\src\org\apache\ace\client\repository\object\Distribution2TargetAssociation.java,0,6,0,6
org.apache.ace.client.repository.object.DistributionObject, 0, 0, 0, 0, 0, 0, 0, 0, 0, 0, 0, 0, 0, 0,0.0,0.0,0.0,0.0,0.0,0.0,0.0,0.0,0.0,0.0,0.0,0.0,0.0,39,org.apache.ace.client.repository\src\org\apache\ace\client\repository\object\DistributionObject.java,0,6,0,6
org.apache.ace.client.repository.object.Feature2DistributionAssociation, 0, 0, 0, 0, 0, 0, 0, 0, 0, 0, 0, 0, 0, 0,0.0,0.0,0.0,0.0,0.0,0.0,0.0,0.0,0.0,0.0,0.0,0.0,0.0,39,org.apache.ace.client.repository\src\org\apache\ace\client\repository\object\Feature2DistributionAssociation.java,0,6,0,6
org.apache.ace.client.repository.object.FeatureObject, 0, 0, 0, 0, 0, 0, 0, 0, 0, 0, 0, 0, 0, 0,0.0,0.0,0.0,0.0,0.0,0.0,0.0,0.0,0.0,0.0,0.0,0.0,0.0,39,org.apache.ace.client.repository\src\org\apache\ace\client\repository\object\FeatureObject.java,0,6,0,6
org.apache.ace.client.repository.object.TargetObject, 0, 0, 0, 0, 0, 0, 0, 0, 0, 0, 0, 0, 0, 0,0.0,0.0,0.0,0.0,0.0,0.0,0.0,0.0,0.0,0.0,0.0,0.0,0.0,39,org.apache.ace.client.repository\src\org\apache\ace\client\repository\object\TargetObject.java,0,6,0,6
org.apache.ace.client.repository.repository.Artifact2FeatureAssociationRepository, 0, 0, 0, 0, 0, 0, 0, 0, 0, 0, 0, 0, 0, 0,0.0,0.0,0.0,0.0,0.0,0.0,0.0,0.0,0.0,0.0,0.0,0.0,0.0,39,org.apache.ace.client.repository\src\org\apache\ace\client\repository\repository\Artifact2FeatureAssociationRepository.java,0,2,0,2
org.apache.ace.client.repository.repository.ArtifactRepository, 0, 0, 0, 0, 0, 0, 0, 0, 0, 0, 0, 0, 0, 0,0.0,0.0,0.0,0.0,0.0,0.0,0.0,0.0,0.0,0.0,0.0,0.0,0.0,39,org.apache.ace.client.repository\src\org\apache\ace\client\repository\repository\ArtifactRepository.java,2,16,0,18
org.apache.ace.client.repository.repository.Distribution2TargetAssociationRepository, 0, 0, 0, 0, 0, 0, 0, 0, 0, 0, 0, 0, 0, 0,0.0,0.0,0.0,0.0,0.0,0.0,0.0,0.0,0.0,0.0,0.0,0.0,0.0,39,org.apache.ace.client.repository\src\org\apache\ace\client\repository\repository\Distribution2TargetAssociationRepository.java,0,2,0,2
org.apache.ace.client.repository.repository.DistributionRepository, 0, 0, 0, 0, 0, 0, 0, 0, 0, 0, 0, 0, 0, 0,0.0,0.0,0.0,0.0,0.0,0.0,0.0,0.0,0.0,0.0,0.0,0.0,0.0,39,org.apache.ace.client.repository\src\org\apache\ace\client\repository\repository\DistributionRepository.java,0,2,0,2
org.apache.ace.client.repository.repository.Feature2DistributionAssociationRepository, 0, 0, 0, 0, 0, 0, 0, 0, 0, 0, 0, 0, 0, 0,0.0,0.0,0.0,0.0,0.0,0.0,0.0,0.0,0.0,0.0,0.0,0.0,0.0,39,org.apache.ace.client.repository\src\org\apache\ace\client\repository\repository\Feature2DistributionAssociationRepository.java,0,2,0,2
org.apache.ace.client.repository.repository.FeatureRepository, 0, 0, 0, 0, 0, 0, 0, 0, 0, 0, 0, 0, 0, 0,0.0,0.0,0.0,0.0,0.0,0.0,0.0,0.0,0.0,0.0,0.0,0.0,0.0,39,org.apache.ace.client.repository\src\org\apache\ace\client\repository\repository\FeatureRepository.java,0,2,0,2
org.apache.ace.client.repository.repository.TargetRepository, 0, 0, 0, 0, 0, 0, 0, 0, 0, 0, 0, 0, 0, 0,0.0,0.0,0.0,0.0,0.0,0.0,0.0,0.0,0.0,0.0,0.0,0.0,0.0,39,org.apache.ace.client.repository\src\org\apache\ace\client\repository\repository\TargetRepository.java,0,2,0,2
org.apache.ace.client.repository.stateful.StatefulTargetObject, 0, 0, 0, 0, 0, 0, 0, 0, 0, 0, 0, 0, 0, 0,0.0,0.0,0.0,0.0,0.0,0.0,0.0,0.0,0.0,0.0,0.0,0.0,0.0,39,org.apache.ace.client.repository\src\org\apache\ace\client\repository\stateful\StatefulTargetObject.java,0,8,2,12
org.apache.ace.client.repository.stateful.impl.LogEventComparator, 0, 0, 0, 0, 0, 0, 0, 0, 0, 0, 0, 0, 0, 0,0.0,0.0,0.0,0.0,0.0,0.0,0.0,0.0,0.0,0.0,0.0,0.0,0.0,18,org.apache.ace.client.repository\src\org\apache\ace\client\repository\stateful\impl\LogEventComparator.java,0,0,5,10
org.apache.ace.client.rest.Activator, 0, 0, 0, 0, 0, 0, 0, 0, 0, 0, 0, 0, 0, 0,0.0,0.0,0.0,0.0,0.0,0.0,0.0,0.0,0.0,0.0,0.0,0.0,0.0,25,org.apache.ace.client.rest\src\org\apache\ace\client\rest\Activator.java,0,10,3,16
org.apache.ace.client.rest.LogEventSerializer, 0, 0, 0, 0, 0, 0, 0, 0, 0, 0, 0, 0, 0, 0,0.0,0.0,0.0,0.0,0.0,0.0,0.0,0.0,0.0,0.0,0.0,0.0,0.0,43,org.apache.ace.client.rest\src\org\apache\ace\client\rest\LogEventSerializer.java,3,0,9,21
org.apache.ace.client.rest.RepositoryObjectSerializer, 0, 0, 0, 0, 0, 0, 0, 0, 0, 0, 0, 0, 0, 0,0.0,0.0,0.0,0.0,0.0,0.0,0.0,0.0,0.0,0.0,0.0,0.0,0.0,94,org.apache.ace.client.rest\src\org\apache\ace\client\rest\RepositoryObjectSerializer.java,0,0,0,0
org.apache.ace.configurator.Activator, 0, 0, 0, 0, 0, 0, 0, 0, 0, 0, 0, 0, 0, 0,0.0,0.0,0.0,0.0,0.0,0.0,0.0,0.0,0.0,0.0,0.0,0.0,0.0,25,org.apache.ace.configurator\src\org\apache\ace\configurator\Activator.java,0,0,0,0
org.apache.ace.configurator.MockConfigAdmin, 0, 0, 0, 0, 0, 0, 0, 0, 0, 0, 0, 0, 0, 0,0.0,0.0,0.0,0.0,0.0,0.0,0.0,0.0,0.0,0.0,0.0,0.0,0.0,18,org.apache.ace.configurator\test\org\apache\ace\configurator\MockConfigAdmin.java,1,17,13,44
org.apache.ace.configurator.MockConfiguration, 0, 0, 0, 0, 0, 0, 0, 0, 0, 0, 0, 0, 0, 0,0.0,0.0,0.0,0.0,0.0,0.0,0.0,0.0,0.0,0.0,0.0,0.0,0.0,32,org.apache.ace.configurator\test\org\apache\ace\configurator\MockConfiguration.java,6,6,5,22
org.apache.ace.configurator.serveruseradmin.Activator, 0, 0, 0, 0, 0, 0, 0, 0, 0, 0, 0, 0, 0, 0,0.0,0.0,0.0,0.0,0.0,0.0,0.0,0.0,0.0,0.0,0.0,0.0,0.0,48,org.apache.ace.configurator\src\org\apache\ace\configurator\serveruseradmin\Activator.java,58,0,0,58
org.apache.ace.connectionfactory.ConnectionFactory, 0, 0, 0, 0, 0, 0, 0, 0, 0, 0, 0, 0, 0, 0,0.0,0.0,0.0,0.0,0.0,0.0,0.0,0.0,0.0,0.0,0.0,0.0,0.0,48,org.apache.ace.connectionfactory\src\org\apache\ace\connectionfactory\ConnectionFactory.java,0,2,0,2
org.apache.ace.connectionfactory.impl.UrlCredentials, 0, 0, 0, 0, 0, 0, 0, 0, 0, 0, 0, 0, 0, 0,0.0,0.0,0.0,0.0,0.0,0.0,0.0,0.0,0.0,0.0,0.0,0.0,0.0,67,org.apache.ace.connectionfactory\src\org\apache\ace\connectionfactory\impl\UrlCredentials.java,0,0,0,0
org.apache.ace.connectionfactory.impl.UrlCredentialsFactory, 0, 0, 0, 0, 0, 0, 0, 0, 0, 0, 0, 0, 0, 0,0.0,0.0,0.0,0.0,0.0,0.0,0.0,0.0,0.0,0.0,0.0,0.0,0.0,164,org.apache.ace.connectionfactory\src\org\apache\ace\connectionfactory\impl\UrlCredentialsFactory.java,0,0,0,0
org.apache.ace.connectionfactory.impl.UrlCredentialsTest, 0, 0, 0, 0, 0, 0, 0, 0, 0, 0, 0, 0, 0, 0,0.0,0.0,0.0,0.0,0.0,0.0,0.0,0.0,0.0,0.0,0.0,0.0,0.0,48,org.apache.ace.connectionfactory\test\org\apache\ace\connectionfactory\impl\UrlCredentialsTest.java,0,0,0,0
org.apache.ace.consolelogger.Activator, 0, 0, 0, 0, 0, 0, 0, 0, 0, 0, 0, 0, 0, 0,0.0,0.0,0.0,0.0,0.0,0.0,0.0,0.0,0.0,0.0,0.0,0.0,0.0,9,org.apache.ace.consolelogger\src\org\apache\ace\consolelogger\Activator.java,0,0,0,0
org.apache.ace.deployment.Deployment, 0, 0, 0, 0, 0, 0, 0, 0, 0, 0, 0, 0, 0, 0,0.0,0.0,0.0,0.0,0.0,0.0,0.0,0.0,0.0,0.0,0.0,0.0,0.0,9,org.apache.ace.deployment\src\org\apache\ace\deployment\Deployment.java,0,2,0,2
org.apache.ace.deployment.DeploymentTest, 0, 0, 0, 0, 0, 0, 0, 0, 0, 0, 0, 0, 0, 0,0.0,0.0,0.0,0.0,0.0,0.0,0.0,0.0,0.0,0.0,0.0,0.0,0.0,51,org.apache.ace.deployment\test\org\apache\ace\deployment\DeploymentTest.java,0,2,0,2
org.apache.ace.deployment.deploymentadmin.Activator, 0, 0, 0, 0, 0, 0, 0, 0, 0, 0, 0, 0, 0, 0,0.0,0.0,0.0,0.0,0.0,0.0,0.0,0.0,0.0,0.0,0.0,0.0,0.0,10,org.apache.ace.deployment\src\org\apache\ace\deployment\deploymentadmin\Activator.java,0,0,0,0
org.apache.ace.deployment.deploymentadmin.DeploymentAdminDeployer, 0, 0, 0, 0, 0, 0, 0, 0, 0, 0, 0, 0, 0, 0,0.0,0.0,0.0,0.0,0.0,0.0,0.0,0.0,0.0,0.0,0.0,0.0,0.0,23,org.apache.ace.deployment\src\org\apache\ace\deployment\deploymentadmin\DeploymentAdminDeployer.java,0,0,0,0
org.apache.ace.deployment.processor.DeploymentProcessor, 0, 0, 0, 0, 0, 0, 0, 0, 0, 0, 0, 0, 0, 0,0.0,0.0,0.0,0.0,0.0,0.0,0.0,0.0,0.0,0.0,0.0,0.0,0.0,23,org.apache.ace.deployment\src\org\apache\ace\deployment\processor\DeploymentProcessor.java,0,2,0,2
org.apache.ace.deployment.provider.DeploymentProvider, 0, 0, 0, 0, 0, 0, 0, 0, 0, 0, 0, 0, 0, 0,0.0,0.0,0.0,0.0,0.0,0.0,0.0,0.0,0.0,0.0,0.0,0.0,0.0,23,org.apache.ace.deployment\src\org\apache\ace\deployment\provider\DeploymentProvider.java,0,2,3,8
org.apache.ace.deployment.provider.filebased.Activator, 0, 0, 0, 0, 0, 0, 0, 0, 0, 0, 0, 0, 0, 0,0.0,0.0,0.0,0.0,0.0,0.0,0.0,0.0,0.0,0.0,0.0,0.0,0.0,17,org.apache.ace.deployment\src\org\apache\ace\deployment\provider\filebased\Activator.java,0,0,0,0
org.apache.ace.deployment.provider.repositorybased.Activator, 0, 0, 0, 0, 0, 0, 0, 0, 0, 0, 0, 0, 0, 0,0.0,0.0,0.0,0.0,0.0,0.0,0.0,0.0,0.0,0.0,0.0,0.0,0.0,17,org.apache.ace.deployment\src\org\apache\ace\deployment\provider\repositorybased\Activator.java,0,0,0,0
org.apache.ace.deployment.provider.repositorybased.BaseRepositoryHandlerTest, 0, 0, 0, 1, 0, 0, 0, 0, 0, 0, 0, 0, 0, 1,0.0,0.0,0.0,0.0,0.0,0.0,0.0,0.0,0.0,0.0,0.0,0.0,0.0,203,org.apache.ace.deployment\test\org\apache\ace\deployment\provider\repositorybased\BaseRepositoryHandlerTest.java,0,0,0,0
org.apache.ace.deployment.provider.repositorybased.CacheTest, 0, 0, 0, 0, 0, 0, 0, 0, 0, 0, 0, 0, 0, 0,0.0,0.0,0.0,0.0,0.0,0.0,0.0,0.0,0.0,0.0,0.0,0.0,0.0,35,org.apache.ace.deployment\test\org\apache\ace\deployment\provider\repositorybased\CacheTest.java,0,0,0,0
org.apache.ace.deployment.provider.repositorybased.DeploymentPackageVersionCollector, 0, 0, 0, 0, 0, 0, 0, 0, 0, 0, 0, 0, 0, 0,0.0,0.0,0.0,1.0,0.0,0.0,0.0,0.0,0.0,0.0,0.0,0.0,0.0,14,org.apache.ace.deployment\src\org\apache\ace\deployment\provider\repositorybased\DeploymentPackageVersionCollector.java,0,0,0,0
org.apache.ace.deployment.provider.repositorybased.MockDeploymentRepository, 0, 0, 0, 0, 0, 0, 0, 0, 0, 0, 0, 0, 0, 0,0.0,0.0,0.0,0.0,0.0,0.0,0.0,0.0,0.0,0.0,0.0,0.0,0.0,27,org.apache.ace.deployment\test\org\apache\ace\deployment\provider\repositorybased\MockDeploymentRepository.java,0,30,1,32
org.apache.ace.deployment.provider.repositorybased.RepositoryBasedProviderPerformanceTest, 0, 0, 0, 0, 0, 0, 0, 0, 0, 0, 0, 0, 0, 0,0.0,0.0,0.0,0.0,0.0,0.0,0.0,0.0,0.0,0.0,0.0,0.0,0.0,109,org.apache.ace.deployment\test\org\apache\ace\deployment\provider\repositorybased\RepositoryBasedProviderPerformanceTest.java,0,0,1,2
org.apache.ace.deployment.rp.autoconf.AutoConfTest, 0, 0, 0, 0, 0, 0, 0, 0, 0, 0, 0, 0, 0, 0,0.0,0.0,0.0,0.0,0.0,0.0,0.0,0.0,0.0,0.0,0.0,0.0,0.0,6,org.apache.ace.deployment.rp.autoconf.itest\src\org\apache\ace\deployment\rp\autoconf\AutoConfTest.java,10,0,0,10
org.apache.ace.deployment.service.DeploymentService, 0, 0, 0, 0, 0, 0, 0, 0, 0, 0, 0, 0, 0, 0,0.0,0.0,0.0,0.0,0.0,0.0,0.0,0.0,0.0,0.0,0.0,0.0,0.0,6,org.apache.ace.deployment\src\org\apache\ace\deployment\service\DeploymentService.java,0,2,0,2
org.apache.ace.deployment.service.impl.DeploymentServiceImplTest, 0, 0, 0, 0, 0, 0, 0, 0, 0, 0, 0, 0, 0, 0,0.0,0.0,0.0,0.0,0.0,0.0,0.0,0.0,0.0,0.0,0.0,0.0,0.0,169,org.apache.ace.deployment\test\org\apache\ace\deployment\service\impl\DeploymentServiceImplTest.java,0,0,0,0
org.apache.ace.deployment.servlet.AceRestException, 0, 0, 0, 0, 0, 0, 0, 0, 0, 0, 0, 0, 0, 0,0.0,0.0,0.0,0.0,0.0,0.0,0.0,0.0,0.0,0.0,0.0,0.0,0.0,11,org.apache.ace.deployment\src\org\apache\ace\deployment\servlet\AceRestException.java,0,5,1,7
org.apache.ace.deployment.servlet.Activator, 0, 0, 0, 0, 0, 0, 0, 0, 0, 0, 0, 0, 0, 0,0.0,0.0,0.0,0.0,0.0,0.0,0.0,0.0,0.0,0.0,0.0,0.0,0.0,17,org.apache.ace.deployment\src\org\apache\ace\deployment\servlet\Activator.java,0,17,2,21
org.apache.ace.deployment.servlet.DeploymentServletTest, 0, 0, 0, 0, 0, 0, 0, 0, 0, 0, 0, 0, 0, 0,0.0,0.0,0.0,0.0,0.0,0.0,0.0,0.0,0.0,0.0,0.0,0.0,0.0,155,org.apache.ace.deployment\test\org\apache\ace\deployment\servlet\DeploymentServletTest.java,47,280,31,389
org.apache.ace.deployment.streamgenerator.StreamGenerator, 0, 0, 0, 0, 0, 0, 0, 0, 0, 0, 0, 0, 0, 0,0.0,0.0,0.0,0.0,0.0,0.0,0.0,0.0,0.0,0.0,0.0,0.0,0.0,155,org.apache.ace.deployment\src\org\apache\ace\deployment\streamgenerator\StreamGenerator.java,0,3,2,7
org.apache.ace.deployment.streamgenerator.impl.Activator, 0, 0, 0, 0, 0, 0, 0, 0, 0, 0, 0, 0, 0, 0,0.0,0.0,0.0,0.0,0.0,0.0,0.0,0.0,0.0,0.0,0.0,0.0,0.0,19,org.apache.ace.deployment\src\org\apache\ace\deployment\streamgenerator\impl\Activator.java,0,0,0,0
org.apache.ace.deployment.task.DeploymentUpdateTask, 0, 0, 0, 0, 0, 0, 0, 0, 0, 0, 0, 0, 0, 0,0.0,0.0,0.0,0.0,0.0,0.0,0.0,0.0,0.0,0.0,0.0,0.0,0.0,26,org.apache.ace.deployment\src\org\apache\ace\deployment\task\DeploymentUpdateTask.java,0,0,0,0
org.apache.ace.deployment.verifier.impl.Activator, 0, 0, 0, 0, 0, 0, 0, 0, 0, 0, 0, 0, 0, 0,0.0,0.0,0.0,0.0,0.0,0.0,0.0,0.0,0.0,0.0,0.0,0.0,0.0,7,org.apache.ace.verifier\src\org\apache\ace\deployment\verifier\impl\Activator.java,0,0,0,0
org.apache.ace.discovery.Discovery, 0, 0, 0, 0, 0, 0, 0, 0, 0, 0, 0, 0, 0, 0,0.0,0.0,0.0,0.0,0.0,0.0,0.0,0.0,0.0,0.0,0.0,0.0,0.0,7,org.apache.ace.discovery\src\org\apache\ace\discovery\Discovery.java,0,2,0,2
org.apache.ace.discovery.property.PropertyBasedDiscovery, 0, 0, 1, 0, 0, 0, 0, 0, 0, 0, 0, 0, 0, 1,0.0,0.0,0.0,0.0,0.0,0.0,0.0,0.0,0.0,0.0,0.0,0.0,0.0,40,org.apache.ace.discovery\src\org\apache\ace\discovery\property\PropertyBasedDiscovery.java,0,0,1,2
org.apache.ace.discovery.property.constants.DiscoveryConstants, 0, 0, 0, 0, 0, 0, 0, 0, 0, 0, 0, 0, 0, 0,0.0,0.0,0.0,0.0,0.0,0.0,0.0,0.0,0.0,0.0,0.0,0.0,0.0,40,org.apache.ace.discovery\src\org\apache\ace\discovery\property\constants\DiscoveryConstants.java,6,0,0,6
org.apache.ace.discovery.upnp.UPnPBasedDiscovery, 0, 0, 1, 0, 0, 0, 0, 0, 0, 0, 0, 0, 0, 1,0.0,0.0,0.0,0.0,0.0,0.0,0.0,0.0,0.0,0.0,0.0,0.0,0.0,71,org.apache.ace.discovery\src\org\apache\ace\discovery\upnp\UPnPBasedDiscovery.java,0,2,3,8
org.apache.ace.http.listener.constants.HttpConstants, 0, 0, 0, 0, 0, 0, 0, 0, 0, 0, 0, 0, 0, 0,0.0,0.0,0.0,0.0,0.0,0.0,0.0,0.0,0.0,0.0,0.0,0.0,0.0,71,org.apache.ace.http\src\org\apache\ace\http\listener\constants\HttpConstants.java,0,2,0,2
org.apache.ace.http.redirector.RedirectServlet, 0, 0, 0, 0, 0, 0, 0, 0, 0, 0, 0, 0, 0, 0,0.0,0.0,0.0,0.0,0.0,0.0,0.0,0.0,0.0,0.0,0.0,0.0,0.0,42,org.apache.ace.http\src\org\apache\ace\http\redirector\RedirectServlet.java,0,1,0,1
org.apache.ace.identification.Identification, 0, 0, 0, 0, 0, 0, 0, 0, 0, 0, 0, 0, 0, 0,0.0,0.0,0.0,0.0,0.0,0.0,0.0,0.0,0.0,0.0,0.0,0.0,0.0,42,org.apache.ace.identification\src\org\apache\ace\identification\Identification.java,0,2,0,2
org.apache.ace.identification.ifconfig.Activator, 0, 0, 0, 0, 0, 0, 0, 0, 0, 0, 0, 0, 0, 0,0.0,0.0,0.0,0.0,0.0,0.0,0.0,0.0,0.0,0.0,0.0,0.0,0.0,10,org.apache.ace.identification\src\org\apache\ace\identification\ifconfig\Activator.java,0,0,0,0
org.apache.ace.identification.ifconfig.IfconfigIdentification, 0, 0, 0, 0, 0, 0, 0, 0, 0, 0, 0, 0, 0, 0,0.0,0.0,0.0,0.0,0.0,0.0,0.0,0.0,0.0,0.0,0.0,0.0,0.0,71,org.apache.ace.identification\src\org\apache\ace\identification\ifconfig\IfconfigIdentification.java,0,0,0,0
org.apache.ace.identification.ifconfig.IfconfigIdentificationTest, 0, 0, 0, 0, 0, 0, 0, 0, 0, 0, 0, 0, 0, 0,0.0,0.0,0.0,0.0,0.0,0.0,0.0,0.0,0.0,0.0,0.0,0.0,0.0,23,org.apache.ace.identification\test\org\apache\ace\identification\ifconfig\IfconfigIdentificationTest.java,0,0,0,0
org.apache.ace.identification.property.PropertyBasedIdentification, 0, 0, 0, 0, 0, 0, 0, 0, 0, 0, 0, 0, 0, 0,0.0,0.0,0.0,0.0,0.0,0.0,0.0,0.0,0.0,0.0,0.0,0.0,0.0,31,org.apache.ace.identification\src\org\apache\ace\identification\property\PropertyBasedIdentification.java,0,0,1,2
org.apache.ace.identification.property.constants.IdentificationConstants, 0, 0, 0, 0, 0, 0, 0, 0, 0, 0, 0, 0, 0, 0,0.0,0.0,0.0,0.0,0.0,0.0,0.0,0.0,0.0,0.0,0.0,0.0,0.0,31,org.apache.ace.identification\src\org\apache\ace\identification\property\constants\IdentificationConstants.java,6,0,0,6
org.apache.ace.it.ExampleTest, 0, 0, 0, 0, 0, 0, 0, 0, 0, 0, 0, 0, 0, 0,0.0,0.0,0.0,0.0,0.0,0.0,0.0,0.0,0.0,0.0,0.0,0.0,0.0,19,org.apache.ace.test\src\org\apache\ace\it\ExampleTest.java,0,0,0,0
org.apache.ace.it.authentication.AuthenticationTestBase, 0, 0, 0, 0, 0, 0, 0, 0, 0, 0, 0, 0, 0, 0,0.0,0.0,0.0,0.0,0.0,0.0,0.0,0.0,0.0,0.0,0.0,0.0,0.0,48,org.apache.ace.authentication.itest\src\org\apache\ace\it\authentication\AuthenticationTestBase.java,3,16,4,27
org.apache.ace.it.http.EchoServlet, 0, 0, 0, 0, 0, 0, 0, 0, 0, 0, 0, 0, 0, 0,0.0,0.0,0.0,0.0,0.0,0.0,0.0,0.0,0.0,0.0,0.0,0.0,0.0,21,org.apache.ace.http.itest\src\org\apache\ace\it\http\EchoServlet.java,0,0,0,0
org.apache.ace.it.http.MockHttpService, 0, 0, 0, 0, 0, 0, 0, 0, 0, 0, 0, 0, 0, 0,0.0,0.0,0.0,0.0,0.0,0.0,0.0,0.0,0.0,0.0,0.0,0.0,0.0,22,org.apache.ace.http.itest\src\org\apache\ace\it\http\MockHttpService.java,1,0,0,1
org.apache.ace.it.repository.Utils, 0, 0, 0, 0, 0, 0, 0, 1, 0, 0, 0, 0, 0, 1,0.0,0.0,0.0,0.0,0.0,0.0,0.0,0.0,0.0,0.0,0.0,0.0,0.0,71,org.apache.ace.repository.itest\src\org\apache\ace\it\repository\Utils.java,8,95,17,137
org.apache.ace.it.useradminconfigurator.ConfiguratorTest, 0, 0, 0, 0, 0, 0, 0, 0, 0, 0, 0, 0, 0, 0,0.0,0.0,0.0,0.0,0.0,0.0,0.0,0.0,0.0,0.0,0.0,0.0,0.0,67,org.apache.ace.configurator.useradmin.itest\src\org\apache\ace\it\useradminconfigurator\ConfiguratorTest.java,0,0,1,2
org.apache.ace.location.LocationService, 0, 0, 0, 0, 0, 0, 0, 0, 0, 0, 0, 0, 0, 0,0.0,0.0,0.0,0.0,0.0,0.0,0.0,0.0,0.0,0.0,0.0,0.0,0.0,67,org.apache.ace.location.upnp\src\org\apache\ace\location\LocationService.java,0,2,0,2
org.apache.ace.location.upnp.Activator, 0, 0, 0, 0, 0, 0, 0, 0, 0, 0, 0, 0, 0, 0,0.0,0.0,0.0,0.0,0.0,0.0,0.0,0.0,0.0,0.0,0.0,0.0,0.0,23,org.apache.ace.location.upnp\src\org\apache\ace\location\upnp\Activator.java,0,0,0,0
org.apache.ace.location.upnp.LocationServiceImpl, 0, 0, 0, 0, 0, 0, 0, 0, 0, 0, 0, 0, 0, 0,0.0,0.0,0.0,0.0,0.0,0.0,0.0,0.0,0.0,0.0,0.0,0.0,0.0,49,org.apache.ace.location.upnp\src\org\apache\ace\location\upnp\LocationServiceImpl.java,0,0,0,0
org.apache.ace.location.upnp.UPnPConstants, 0, 0, 0, 0, 0, 0, 0, 0, 0, 0, 0, 0, 0, 0,0.0,0.0,0.0,0.0,0.0,0.0,0.0,0.0,0.0,0.0,0.0,0.0,0.0,49,org.apache.ace.location.upnp\src\org\apache\ace\location\upnp\UPnPConstants.java,0,0,0,0
org.apache.ace.location.upnp.actions.StateVar, 0, 0, 0, 0, 0, 0, 0, 0, 0, 0, 0, 0, 0, 0,0.0,0.0,0.0,0.0,0.0,0.0,0.0,0.0,0.0,0.0,0.0,0.0,0.0,19,org.apache.ace.location.upnp\src\org\apache\ace\location\upnp\actions\StateVar.java,0,0,0,0
org.apache.ace.location.upnp.util.HostUtil, 0, 0, 0, 0, 0, 0, 0, 0, 0, 0, 0, 0, 0, 0,0.0,0.0,0.0,0.0,0.0,0.0,0.0,0.0,0.0,0.0,0.0,0.0,0.0,16,org.apache.ace.location.upnp\src\org\apache\ace\location\upnp\util\HostUtil.java,0,0,0,0
org.apache.ace.log.AuditEvent, 0, 0, 0, 0, 0, 0, 0, 0, 0, 0, 0, 0, 0, 0,0.0,0.0,0.0,0.0,0.0,0.0,0.0,0.0,0.0,0.0,0.0,0.0,0.0,16,org.apache.ace.log\src\org\apache\ace\log\AuditEvent.java,34,0,0,34
org.apache.ace.log.Log, 0, 0, 0, 0, 0, 0, 0, 0, 0, 0, 0, 0, 0, 0,0.0,0.0,0.0,0.0,0.0,0.0,0.0,0.0,0.0,0.0,0.0,0.0,0.0,16,org.apache.ace.log\src\org\apache\ace\log\Log.java,0,2,0,2
org.apache.ace.log.LogDescriptorTest, 0, 0, 0, 0, 0, 0, 0, 0, 0, 0, 0, 0, 0, 0,0.0,0.0,0.0,0.0,0.0,0.0,0.0,0.0,0.0,0.0,0.0,0.0,0.0,36,org.apache.ace.log\test\org\apache\ace\log\LogDescriptorTest.java,0,1,8,17
org.apache.ace.log.LogSync, 0, 0, 0, 0, 0, 0, 0, 0, 0, 0, 0, 0, 0, 0,0.0,0.0,0.0,0.0,0.0,0.0,0.0,0.0,0.0,0.0,0.0,0.0,0.0,36,org.apache.ace.log\src\org\apache\ace\log\LogSync.java,0,2,0,2
org.apache.ace.log.listener.LogCache, 0, 0, 0, 0, 0, 0, 0, 0, 0, 0, 0, 0, 0, 0,0.0,0.0,0.0,0.0,0.0,0.0,0.0,0.0,0.0,0.0,0.0,0.0,0.0,30,org.apache.ace.log\src\org\apache\ace\log\listener\LogCache.java,0,0,0,0
org.apache.ace.log.listener.LogProxy, 0, 0, 0, 0, 0, 0, 0, 0, 0, 0, 0, 0, 0, 0,0.0,0.0,0.0,0.0,0.0,0.0,0.0,0.0,0.0,0.0,0.0,0.0,0.0,18,org.apache.ace.log\src\org\apache\ace\log\listener\LogProxy.java,0,0,0,0
org.apache.ace.log.listener.LogTracker, 0, 0, 0, 0, 0, 0, 0, 0, 0, 0, 0, 0, 0, 0,0.0,0.0,0.0,0.0,0.0,0.0,0.0,0.0,0.0,0.0,0.0,0.0,0.0,18,org.apache.ace.log\src\org\apache\ace\log\listener\LogTracker.java,0,0,0,0
org.apache.ace.log.listener.MockLog, 0, 0, 0, 0, 0, 0, 0, 0, 0, 0, 0, 0, 0, 0,0.0,0.0,0.0,0.0,0.0,0.0,0.0,0.0,0.0,0.0,0.0,0.0,0.0,36,org.apache.ace.log\test\org\apache\ace\log\listener\MockLog.java,3,0,1,5
org.apache.ace.log.server.servlet.LogServlet, 0, 0, 0, 0, 0, 0, 0, 1, 0, 0, 0, 0, 0, 1,0.0,0.0,0.0,0.0,0.0,0.0,0.0,0.0,0.0,0.0,0.0,0.0,0.0,175,org.apache.ace.log\src\org\apache\ace\log\server\servlet\LogServlet.java,0,0,17,34
org.apache.ace.log.server.servlet.LogServletTest, 0, 0, 0, 0, 0, 0, 0, 0, 0, 0, 0, 0, 0, 0,0.0,0.0,0.0,0.0,0.0,0.0,0.0,0.5,0.0,0.0,0.0,0.0,0.0,109,org.apache.ace.log\test\org\apache\ace\log\server\servlet\LogServletTest.java,2,3,18,41
org.apache.ace.log.server.store.LogStore, 0, 0, 0, 0, 0, 0, 0, 0, 0, 0, 0, 0, 0, 0,0.0,0.0,0.0,0.0,0.0,0.0,0.0,0.0,0.0,0.0,0.0,0.0,0.0,109,org.apache.ace.log\src\org\apache\ace\log\server\store\LogStore.java,0,3,9,21
org.apache.ace.log.server.task.LogSyncTask, 0, 0, 0, 0, 0, 0, 0, 0, 0, 0, 0, 0, 0, 0,0.0,0.0,0.0,0.0,0.0,0.0,0.0,0.0,0.0,0.0,0.0,0.0,0.0,207,org.apache.ace.log\src\org\apache\ace\log\server\task\LogSyncTask.java,111,161,27,326
org.apache.ace.log.server.task.LogTaskTest, 0, 0, 0, 0, 0, 0, 0, 0, 0, 0, 0, 0, 0, 0,0.0,0.0,0.0,0.0,0.0,0.0,0.0,0.0,0.0,0.0,0.0,0.0,0.0,59,org.apache.ace.log\test\org\apache\ace\log\server\task\LogTaskTest.java,0,15,42,99
org.apache.ace.log.target.LogImpl, 0, 0, 0, 0, 0, 0, 0, 0, 0, 0, 0, 0, 0, 0,0.0,0.0,0.0,0.0,0.0,0.0,0.0,0.0,0.0,0.0,0.0,0.0,0.0,14,org.apache.ace.log\src\org\apache\ace\log\target\LogImpl.java,0,0,3,6
org.apache.ace.log.target.store.LogStore, 0, 0, 0, 0, 0, 0, 0, 0, 0, 0, 0, 0, 0, 0,0.0,0.0,0.0,0.0,0.0,0.0,0.0,0.0,0.0,0.0,0.0,0.0,0.0,14,org.apache.ace.log\src\org\apache\ace\log\target\store\LogStore.java,0,2,2,6
org.apache.ace.log.target.store.impl.LogStoreImpl, 0, 0, 0, 0, 0, 0, 0, 0, 0, 0, 0, 0, 0, 0,0.0,0.0,0.0,0.0,0.0,0.0,0.0,0.0,0.0,0.0,0.0,0.0,0.0,288,org.apache.ace.log\src\org\apache\ace\log\target\store\impl\LogStoreImpl.java,1,10,3,17
org.apache.ace.log.target.task.LogSyncTask, 0, 0, 0, 0, 0, 0, 0, 0, 0, 0, 0, 0, 0, 0,0.0,0.0,0.0,0.0,0.0,0.0,0.0,0.0,0.0,0.0,0.0,0.0,0.0,109,org.apache.ace.log\src\org\apache\ace\log\target\task\LogSyncTask.java,0,0,6,12
org.apache.ace.log.target.task.LogSyncTaskTest, 0, 0, 0, 0, 0, 0, 0, 0, 0, 0, 0, 0, 0, 0,0.0,0.0,0.0,0.0,0.0,0.0,0.0,0.0,0.0,0.0,0.0,0.0,0.0,108,org.apache.ace.log\test\org\apache\ace\log\target\task\LogSyncTaskTest.java,5,2,5,17
org.apache.ace.nodelauncher.NodeLauncher, 0, 0, 0, 0, 0, 0, 0, 0, 0, 0, 0, 0, 0, 0,0.0,0.0,0.0,0.0,0.0,0.0,0.0,0.0,0.0,0.0,0.0,0.0,0.0,108,org.apache.ace.nodelauncher\src\org\apache\ace\nodelauncher\NodeLauncher.java,0,2,0,2
org.apache.ace.nodelauncher.NodeLauncherConfig, 0, 0, 0, 0, 0, 0, 0, 0, 0, 0, 0, 0, 0, 0,0.0,0.0,0.0,0.0,0.0,0.0,0.0,0.0,0.0,0.0,0.0,0.0,0.0,108,org.apache.ace.nodelauncher\src\org\apache\ace\nodelauncher\NodeLauncherConfig.java,0,2,0,2
org.apache.ace.nodelauncher.amazon.PortParseTest, 0, 0, 0, 0, 0, 0, 0, 0, 0, 0, 0, 0, 0, 0,0.0,0.0,0.0,0.0,0.0,0.0,0.0,0.0,0.0,0.0,0.0,0.0,0.0,34,org.apache.ace.nodelauncher\test\org\apache\ace\nodelauncher\amazon\PortParseTest.java,0,1,0,1
org.apache.ace.obr.metadata.MetadataGenerator, 0, 0, 0, 0, 0, 0, 0, 0, 0, 0, 0, 0, 0, 0,0.0,0.0,0.0,0.0,0.0,0.0,0.0,0.0,0.0,0.0,0.0,0.0,0.0,34,org.apache.ace.obr\src\org\apache\ace\obr\metadata\MetadataGenerator.java,0,2,0,2
org.apache.ace.obr.metadata.bindex.Activator, 0, 0, 0, 0, 0, 0, 0, 0, 0, 0, 0, 0, 0, 0,0.0,0.0,0.0,0.0,0.0,0.0,0.0,0.0,0.0,0.0,0.0,0.0,0.0,13,org.apache.ace.obr\src\org\apache\ace\obr\metadata\bindex\Activator.java,0,0,0,0
org.apache.ace.obr.metadata.bindex.BIndexMetadataGenerator, 0, 0, 0, 0, 0, 0, 0, 0, 0, 0, 0, 0, 0, 0,0.0,0.0,0.0,0.0,0.0,0.0,0.0,0.0,0.0,0.0,0.0,0.0,0.0,93,org.apache.ace.obr\src\org\apache\ace\obr\metadata\bindex\BIndexMetadataGenerator.java,0,0,0,0
org.apache.ace.obr.metadata.bindeximpl.VersionRangeTest, 0, 0, 0, 0, 0, 0, 0, 0, 0, 0, 0, 0, 0, 0,0.0,0.0,0.0,0.0,0.0,0.0,0.0,0.0,0.0,0.0,0.0,0.0,0.0,6,org.apache.ace.obr\test\org\apache\ace\obr\metadata\bindeximpl\VersionRangeTest.java,0,0,0,0
org.apache.ace.obr.servlet.Activator, 0, 0, 0, 0, 0, 0, 0, 0, 0, 0, 0, 0, 0, 0,0.0,0.0,0.0,0.0,0.0,0.0,0.0,0.0,0.0,0.0,0.0,0.0,0.0,20,org.apache.ace.obr\src\org\apache\ace\obr\servlet\Activator.java,0,0,0,0
org.apache.ace.obr.servlet.MockBundleStore, 0, 0, 0, 0, 0, 0, 0, 0, 0, 0, 0, 0, 0, 0,0.0,0.0,0.0,0.0,0.0,0.0,0.0,0.0,0.0,0.0,0.0,0.0,0.0,33,org.apache.ace.obr\test\org\apache\ace\obr\servlet\MockBundleStore.java,1,0,1,3
org.apache.ace.obr.storage.BundleStore, 0, 0, 0, 0, 0, 0, 0, 0, 0, 0, 0, 0, 0, 0,0.0,0.0,0.0,0.0,0.0,0.0,0.0,0.0,0.0,0.0,0.0,0.0,0.0,33,org.apache.ace.obr\src\org\apache\ace\obr\storage\BundleStore.java,0,2,2,6
org.apache.ace.obr.storage.file.Activator, 0, 0, 0, 0, 0, 0, 0, 0, 0, 0, 0, 0, 0, 0,0.0,0.0,0.0,0.0,0.0,0.0,0.0,0.0,0.0,0.0,0.0,0.0,0.0,19,org.apache.ace.obr\src\org\apache\ace\obr\storage\file\Activator.java,0,0,0,0
org.apache.ace.obr.storage.file.MockMetadataGenerator, 0, 0, 0, 0, 0, 0, 0, 0, 0, 0, 0, 0, 0, 0,0.0,0.0,0.0,0.0,0.0,0.0,0.0,0.0,0.0,0.0,0.0,0.0,0.0,14,org.apache.ace.obr\test\org\apache\ace\obr\storage\file\MockMetadataGenerator.java,0,0,0,0
org.apache.ace.obr.storage.file.constants.OBRFileStoreConstants, 0, 0, 0, 0, 0, 0, 0, 0, 0, 0, 0, 0, 0, 0,0.0,0.0,0.0,0.0,0.0,0.0,0.0,0.0,0.0,0.0,0.0,0.0,0.0,14,org.apache.ace.obr\src\org\apache\ace\obr\storage\file\constants\OBRFileStoreConstants.java,5,0,0,5
org.apache.ace.processlauncher.LaunchConfiguration, 0, 0, 0, 0, 0, 0, 0, 0, 0, 0, 0, 0, 0, 0,0.0,0.0,0.0,0.0,0.0,0.0,0.0,0.0,0.0,0.0,0.0,0.0,0.0,14,org.apache.ace.processlauncher\src\org\apache\ace\processlauncher\LaunchConfiguration.java,0,2,0,2
org.apache.ace.processlauncher.ProcessLauncherService, 0, 0, 0, 0, 0, 0, 0, 0, 0, 0, 0, 0, 0, 0,0.0,0.0,0.0,0.0,0.0,0.0,0.0,0.0,0.0,0.0,0.0,0.0,0.0,14,org.apache.ace.processlauncher\src\org\apache\ace\processlauncher\ProcessLauncherService.java,0,2,0,2
org.apache.ace.processlauncher.ProcessLifecycleListener, 0, 0, 0, 0, 0, 0, 0, 0, 0, 0, 0, 0, 0, 0,0.0,0.0,0.0,0.0,0.0,0.0,0.0,0.0,0.0,0.0,0.0,0.0,0.0,14,org.apache.ace.processlauncher\src\org\apache\ace\processlauncher\ProcessLifecycleListener.java,0,2,0,2
org.apache.ace.processlauncher.ProcessStreamListener, 0, 0, 0, 0, 0, 0, 0, 0, 0, 0, 0, 0, 0, 0,0.0,0.0,0.0,0.0,0.0,0.0,0.0,0.0,0.0,0.0,0.0,0.0,0.0,14,org.apache.ace.processlauncher\src\org\apache\ace\processlauncher\ProcessStreamListener.java,0,2,0,2
org.apache.ace.processlauncher.impl.LaunchConfigurationFactory, 0, 0, 0, 0, 0, 0, 0, 0, 0, 0, 0, 0, 0, 0,0.0,0.0,0.0,0.0,0.0,0.0,0.0,1.0,0.0,0.0,0.0,0.0,0.0,108,org.apache.ace.processlauncher\src\org\apache\ace\processlauncher\impl\LaunchConfigurationFactory.java,0,0,0,0
org.apache.ace.processlauncher.impl.LaunchConfigurationImpl, 0, 0, 0, 0, 0, 0, 0, 1, 0, 0, 0, 0, 0, 1,0.0,0.0,0.0,0.0,0.0,0.0,0.0,0.0,0.0,0.0,0.0,0.0,0.0,71,org.apache.ace.processlauncher\src\org\apache\ace\processlauncher\impl\LaunchConfigurationImpl.java,0,0,0,0
org.apache.ace.processlauncher.impl.ProcessManager, 0, 0, 0, 0, 0, 0, 0, 0, 0, 0, 0, 0, 0, 0,0.0,0.0,0.0,0.0,0.0,0.0,0.0,0.0,0.0,0.0,0.0,0.0,0.0,71,org.apache.ace.processlauncher\src\org\apache\ace\processlauncher\impl\ProcessManager.java,0,0,0,0
org.apache.ace.processlauncher.test.impl.LaunchConfigurationTest, 0, 0, 0, 0, 0, 0, 0, 0, 0, 0, 0, 0, 0, 0,0.0,0.0,0.0,0.0,0.0,0.0,0.0,1.0,0.0,0.0,0.0,0.0,0.0,78,org.apache.ace.processlauncher\test\org\apache\ace\processlauncher\test\impl\LaunchConfigurationTest.java,0,0,0,0
org.apache.ace.processlauncher.test.impl.ProcessManagerImplTest, 0, 0, 0, 0, 0, 0, 0, 0, 0, 0, 0, 0, 0, 0,0.0,0.0,0.0,0.0,0.0,0.0,0.0,0.5,0.0,0.0,0.0,0.0,0.0,124,org.apache.ace.processlauncher\test\org\apache\ace\processlauncher\test\impl\ProcessManagerImplTest.java,0,0,0,0
org.apache.ace.processlauncher.test.impl.StringSplitterTest, 0, 0, 0, 0, 0, 0, 0, 0, 0, 0, 0, 0, 0, 0,0.0,0.0,0.0,0.0,0.0,0.0,0.0,0.0,0.0,0.0,0.0,0.0,0.0,118,org.apache.ace.processlauncher\test\org\apache\ace\processlauncher\test\impl\StringSplitterTest.java,0,0,0,0
org.apache.ace.processlauncher.util.InputStreamRedirector, 0, 0, 0, 0, 0, 0, 0, 0, 0, 0, 0, 0, 0, 0,0.0,0.0,0.0,0.0,0.0,0.0,0.0,0.0,0.0,0.0,0.0,0.0,0.0,57,org.apache.ace.processlauncher\src\org\apache\ace\processlauncher\util\InputStreamRedirector.java,0,0,0,0
org.apache.ace.range.Range, 0, 0, 0, 0, 0, 0, 0, 0, 0, 0, 0, 0, 0, 0,0.0,0.0,0.0,0.0,0.0,0.0,0.0,0.0,0.0,0.0,0.0,0.0,0.0,62,org.apache.ace.range.api\src\org\apache\ace\range\Range.java,1,6,1,9
org.apache.ace.range.RangeIterator, 0, 0, 0, 0, 0, 0, 0, 0, 0, 0, 0, 0, 0, 0,0.0,0.0,0.0,0.0,0.0,0.0,0.0,0.0,0.0,0.0,0.0,0.0,0.0,42,org.apache.ace.range.api\src\org\apache\ace\range\RangeIterator.java,1,44,5,55
org.apache.ace.range.SortedRangeSetTest, 0, 0, 0, 0, 0, 0, 0, 0, 0, 0, 0, 0, 0, 0,0.0,0.0,0.0,0.0,0.0,0.0,0.0,0.0,0.0,0.0,0.0,0.0,0.0,65,org.apache.ace.range.api\test\org\apache\ace\range\SortedRangeSetTest.java,0,48,0,48
org.apache.ace.repository.Repository, 0, 0, 0, 0, 0, 0, 0, 0, 0, 0, 0, 0, 0, 0,0.0,0.0,0.0,0.0,0.0,0.0,0.0,0.0,0.0,0.0,0.0,0.0,0.0,65,org.apache.ace.repository\src\org\apache\ace\repository\Repository.java,0,2,0,2
org.apache.ace.repository.RepositoryReplication, 0, 0, 0, 0, 0, 0, 0, 0, 0, 0, 0, 0, 0, 0,0.0,0.0,0.0,0.0,0.0,0.0,0.0,0.0,0.0,0.0,0.0,0.0,0.0,65,org.apache.ace.repository\src\org\apache\ace\repository\RepositoryReplication.java,0,3,0,3
org.apache.ace.repository.ext.BackupRepository, 0, 0, 0, 0, 0, 0, 0, 0, 0, 0, 0, 0, 0, 0,0.0,0.0,0.0,0.0,0.0,0.0,0.0,0.0,0.0,0.0,0.0,0.0,0.0,65,org.apache.ace.repository\src\org\apache\ace\repository\ext\BackupRepository.java,0,2,0,2
org.apache.ace.repository.ext.CachedRepository, 0, 0, 0, 0, 0, 0, 0, 0, 0, 0, 0, 0, 0, 0,0.0,0.0,0.0,0.0,0.0,0.0,0.0,0.0,0.0,0.0,0.0,0.0,0.0,65,org.apache.ace.repository\src\org\apache\ace\repository\ext\CachedRepository.java,0,2,0,2
org.apache.ace.repository.ext.impl.CachedRepositoryImpl, 0, 0, 0, 0, 0, 0, 0, 0, 0, 0, 0, 0, 0, 0,0.0,0.0,0.0,0.0,0.0,0.0,0.0,0.0,0.0,0.0,0.0,0.0,0.0,77,org.apache.ace.repository\src\org\apache\ace\repository\ext\impl\CachedRepositoryImpl.java,3,6,4,17
org.apache.ace.repository.ext.impl.FilebasedBackupRepository, 0, 0, 0, 0, 0, 0, 0, 0, 0, 0, 0, 0, 0, 0,0.0,0.0,0.0,0.0,0.0,0.0,0.0,0.0,0.0,0.0,0.0,0.0,0.0,95,org.apache.ace.repository\src\org\apache\ace\repository\ext\impl\FilebasedBackupRepository.java,1,3,2,8
org.apache.ace.repository.impl.RepositoryImpl, 0, 0, 0, 0, 0, 0, 0, 0, 0, 0, 0, 0, 0, 0,0.0,0.0,0.0,0.0,0.0,0.0,0.0,0.0,0.0,0.0,0.0,0.0,0.0,175,org.apache.ace.repository\src\org\apache\ace\repository\impl\RepositoryImpl.java,30,134,29,222
org.apache.ace.repository.impl.RepositoryImplTest, 0, 0, 0, 0, 0, 0, 0, 0, 0, 0, 0, 0, 0, 0,0.0,0.0,0.0,0.0,0.0,0.0,0.0,0.0,0.0,0.0,0.0,0.0,0.0,78,org.apache.ace.repository\test\org\apache\ace\repository\impl\RepositoryImplTest.java,8,135,49,241
org.apache.ace.repository.impl.constants.RepositoryConstants, 0, 0, 0, 0, 0, 0, 0, 0, 0, 0, 0, 0, 0, 0,0.0,0.0,0.0,0.0,0.0,0.0,0.0,0.0,0.0,0.0,0.0,0.0,0.0,78,org.apache.ace.repository\src\org\apache\ace\repository\impl\constants\RepositoryConstants.java,8,0,0,8
org.apache.ace.repository.servlet.Activator, 0, 0, 0, 0, 0, 0, 0, 0, 0, 0, 0, 0, 0, 0,0.0,0.0,0.0,0.0,0.0,0.0,0.0,0.0,0.0,0.0,0.0,0.0,0.0,27,org.apache.ace.repository\src\org\apache\ace\repository\servlet\Activator.java,0,0,0,0
org.apache.ace.repository.servlet.RepositoryReplicationServlet, 0, 0, 0, 0, 0, 0, 0, 0, 0, 0, 0, 0, 0, 0,0.0,0.0,0.0,0.0,0.0,0.0,0.0,0.0,0.0,0.0,0.0,0.0,0.0,43,org.apache.ace.repository\src\org\apache\ace\repository\servlet\RepositoryReplicationServlet.java,0,0,0,0
org.apache.ace.repository.servlet.RepositoryServlet, 0, 0, 0, 0, 0, 0, 0, 0, 0, 0, 0, 0, 0, 0,0.0,0.0,0.0,0.0,0.0,0.0,0.0,0.0,0.0,0.0,0.0,0.0,0.0,43,org.apache.ace.repository\src\org\apache\ace\repository\servlet\RepositoryServlet.java,0,0,0,0
org.apache.ace.repository.task.RepositoryReplicationTask, 0, 0, 0, 0, 0, 0, 0, 0, 0, 0, 0, 0, 0, 0,0.0,0.0,0.0,0.0,0.0,0.0,0.0,0.0,0.0,0.0,0.0,0.0,0.0,56,org.apache.ace.repository\src\org\apache\ace\repository\task\RepositoryReplicationTask.java,4,63,29,125
org.apache.ace.resourceprocessor.useradmin.UserAdminConfigurator, 0, 0, 0, 0, 0, 0, 0, 0, 0, 0, 0, 0, 0, 0,0.0,0.0,0.0,0.0,0.0,0.0,0.0,0.0,0.0,0.0,0.0,0.0,0.0,56,org.apache.ace.resourceprocessor.useradmin\src\org\apache\ace\resourceprocessor\useradmin\UserAdminConfigurator.java,5,1,1,8
org.apache.ace.resourceprocessor.useradmin.impl.Processor, 0, 0, 0, 0, 0, 0, 0, 0, 0, 0, 0, 0, 0, 0,0.0,0.0,0.0,0.0,0.0,0.0,0.0,0.0,0.0,0.0,0.0,0.0,0.0,94,org.apache.ace.resourceprocessor.useradmin\src\org\apache\ace\resourceprocessor\useradmin\impl\Processor.java,0,0,2,4
org.apache.ace.scheduler.Executer, 0, 0, 0, 0, 0, 0, 0, 0, 0, 0, 0, 0, 0, 0,0.0,0.0,0.0,0.0,0.0,0.0,0.0,0.0,0.0,0.0,0.0,0.0,0.0,53,org.apache.ace.scheduler\src\org\apache\ace\scheduler\Executer.java,0,0,0,0
org.apache.ace.scheduler.ExecuterTest, 0, 0, 0, 0, 0, 0, 0, 0, 0, 0, 0, 0, 0, 0,0.0,0.0,0.0,0.0,0.0,0.0,0.0,0.0,0.0,0.0,0.0,0.0,0.0,53,org.apache.ace.scheduler\test\org\apache\ace\scheduler\ExecuterTest.java,0,0,0,0
org.apache.ace.scheduler.SchedulerTask, 0, 0, 0, 0, 0, 0, 0, 0, 0, 0, 0, 0, 0, 0,0.0,0.0,0.0,0.0,0.0,0.0,0.0,0.0,0.0,0.0,0.0,0.0,0.0,97,org.apache.ace.scheduler\src\org\apache\ace\scheduler\SchedulerTask.java,0,0,0,0
org.apache.ace.scheduler.constants.SchedulerConstants, 0, 0, 0, 0, 0, 0, 0, 0, 0, 0, 0, 0, 0, 0,0.0,0.0,0.0,0.0,0.0,0.0,0.0,0.0,0.0,0.0,0.0,0.0,0.0,97,org.apache.ace.scheduler\src\org\apache\ace\scheduler\constants\SchedulerConstants.java,0,2,0,2
org.apache.ace.tageditor.TagTableEntry, 0, 0, 0, 0, 0, 0, 0, 0, 0, 0, 0, 0, 0, 0,0.0,0.0,0.0,0.0,0.0,0.0,0.0,0.0,0.0,0.0,0.0,0.0,0.0,91,org.apache.ace.tageditor\src\org\apache\ace\tageditor\TagTableEntry.java,0,0,1,2
org.apache.ace.test.constants.TestConstants, 0, 0, 0, 0, 0, 0, 0, 0, 0, 0, 0, 0, 0, 0,0.0,0.0,0.0,0.0,0.0,0.0,0.0,0.0,0.0,0.0,0.0,0.0,0.0,91,org.apache.ace.test\src\org\apache\ace\test\constants\TestConstants.java,0,2,1,4
org.apache.ace.test.utils.FileUtils, 0, 0, 0, 0, 0, 0, 0, 0, 0, 0, 0, 0, 0, 0,0.0,0.0,0.0,0.0,0.0,0.0,0.0,0.0,0.0,0.0,0.0,0.0,0.0,24,org.apache.ace.test\src\org\apache\ace\test\utils\FileUtils.java,0,22,0,22
org.apache.ace.test.utils.NetUtils, 0, 0, 0, 0, 0, 0, 0, 0, 0, 0, 0, 0, 0, 0,0.0,0.0,0.0,0.0,0.0,0.0,0.0,0.0,0.0,0.0,0.0,0.0,0.0,25,org.apache.ace.test\src\org\apache\ace\test\utils\NetUtils.java,0,6,3,12
org.apache.ace.test.utils.TestUtils, 0, 0, 0, 0, 0, 0, 0, 0, 0, 0, 0, 0, 0, 0,0.0,0.0,0.0,0.0,0.0,0.0,0.0,0.0,0.0,0.0,0.0,0.0,0.0,92,org.apache.ace.test\src\org\apache\ace\test\utils\TestUtils.java,2,0,0,2
org.apache.ace.useradmin.ui.editor.GroupNotFoundException, 0, 0, 0, 0, 0, 1, 0, 0, 0, 0, 0, 0, 0, 1,0.0,0.0,0.0,0.0,0.0,0.0,0.0,0.0,0.0,0.0,0.0,0.0,0.0,5,org.apache.ace.useradmin.ui\src\org\apache\ace\useradmin\ui\editor\GroupNotFoundException.java,0,0,0,0
org.apache.ace.useradmin.ui.editor.UserAlreadyExistsException, 0, 0, 0, 0, 0, 1, 0, 0, 0, 0, 0, 0, 0, 1,0.0,0.0,0.0,0.0,0.0,0.0,0.0,0.0,0.0,0.0,0.0,0.0,0.0,5,org.apache.ace.useradmin.ui\src\org\apache\ace\useradmin\ui\editor\UserAlreadyExistsException.java,0,0,0,0
org.apache.ace.useradmin.ui.editor.UserDTO, 0, 0, 0, 0, 0, 0, 0, 0, 0, 0, 0, 0, 0, 0,0.0,0.0,0.0,0.3333333333333333,0.0,0.0,0.0,0.0,0.0,0.0,0.0,0.0,0.0,86,org.apache.ace.useradmin.ui\src\org\apache\ace\useradmin\ui\editor\UserDTO.java,7,5,4,20
org.apache.ace.useradmin.ui.editor.UserEditor, 0, 0, 0, 0, 0, 0, 0, 0, 0, 0, 0, 0, 0, 0,0.0,0.0,0.0,0.0,0.0,0.0,0.0,0.0,0.0,0.0,0.0,0.0,0.0,86,org.apache.ace.useradmin.ui\src\org\apache\ace\useradmin\ui\editor\UserEditor.java,0,0,1,2
org.apache.ace.useradmin.ui.editor.UserNotFoundException, 0, 0, 0, 0, 0, 1, 0, 0, 0, 0, 0, 0, 0, 1,0.0,0.0,0.0,0.0,0.0,0.0,0.0,0.0,0.0,0.0,0.0,0.0,0.0,5,org.apache.ace.useradmin.ui\src\org\apache\ace\useradmin\ui\editor\UserNotFoundException.java,0,0,0,0
org.apache.ace.useradmin.ui.editor.impl.UserEditorImpl, 0, 0, 0, 0, 0, 0, 0, 0, 0, 0, 0, 0, 0, 0,0.0,0.0,0.0,0.0,0.0,0.75,0.0,0.0,0.0,0.0,0.0,0.0,0.0,191,org.apache.ace.useradmin.ui\src\org\apache\ace\useradmin\ui\editor\impl\UserEditorImpl.java,81,96,10,197
org.apache.ace.useradmin.ui.test.UserEditorTest, 0, 0, 0, 0, 0, 0, 0, 0, 0, 0, 0, 0, 0, 0,0.0,0.0,0.0,0.0,0.0,0.0,0.0,0.0,0.0,0.0,0.0,0.0,0.0,249,org.apache.ace.useradmin.ui.itest\src\org\apache\ace\useradmin\ui\test\UserEditorTest.java,202,189,33,457
org.apache.ace.useradmin.ui.vaadin.UserAdminButton, 0, 0, 0, 0, 0, 0, 0, 0, 0, 0, 0, 0, 0, 0,0.0,0.0,0.0,1.0,0.0,0.0,0.0,0.0,0.0,0.0,0.0,0.0,0.0,42,org.apache.ace.useradmin.ui\src\org\apache\ace\useradmin\ui\vaadin\UserAdminButton.java,19,11,13,56
org.apache.ace.useradmin.ui.vaadin.UserAdminWindow, 0, 0, 0, 1, 0, 0, 0, 0, 0, 0, 0, 0, 0, 1,0.0,0.0,0.0,0.0,0.0,0.0,0.0,0.0,0.0,0.0,0.0,0.0,0.0,429,org.apache.ace.useradmin.ui\src\org\apache\ace\useradmin\ui\vaadin\UserAdminWindow.java,310,146,97,650
org.apache.ace.webui.NamedObject, 0, 0, 0, 0, 0, 0, 0, 0, 0, 0, 0, 0, 0, 0,0.0,0.0,0.0,0.0,0.0,0.0,0.0,0.0,0.0,0.0,0.0,0.0,0.0,429,org.apache.ace.webui.vaadin\src\org\apache\ace\webui\NamedObject.java,0,2,0,2
org.apache.ace.webui.domain.NamedArtifactObject, 0, 0, 0, 0, 0, 0, 0, 0, 0, 0, 0, 0, 0, 0,0.0,0.0,0.0,0.0,0.0,0.0,0.0,1.0,0.0,0.0,0.0,0.0,0.0,20,org.apache.ace.webui.vaadin\src\org\apache\ace\webui\domain\NamedArtifactObject.java,0,0,0,0
org.apache.ace.webui.domain.NamedDistributionObject, 0, 0, 0, 0, 0, 0, 0, 0, 0, 0, 0, 0, 0, 0,0.0,0.0,0.0,0.0,0.0,0.0,0.0,1.0,0.0,0.0,0.0,0.0,0.0,20,org.apache.ace.webui.vaadin\src\org\apache\ace\webui\domain\NamedDistributionObject.java,0,0,0,0
org.apache.ace.webui.domain.NamedFeatureObject, 0, 0, 0, 0, 0, 0, 0, 0, 0, 0, 0, 0, 0, 0,0.0,0.0,0.0,0.0,0.0,0.0,0.0,1.0,0.0,0.0,0.0,0.0,0.0,20,org.apache.ace.webui.vaadin\src\org\apache\ace\webui\domain\NamedFeatureObject.java,0,0,0,0
org.apache.ace.webui.domain.NamedTargetObject, 0, 0, 0, 0, 0, 0, 0, 0, 0, 0, 0, 0, 0, 0,0.0,0.0,0.0,0.0,0.0,0.0,0.0,1.0,0.0,0.0,0.0,0.0,0.0,29,org.apache.ace.webui.vaadin\src\org\apache\ace\webui\domain\NamedTargetObject.java,10,0,2,14
org.apache.ace.webui.domain.OBREntry, 0, 0, 0, 0, 0, 0, 0, 0, 0, 0, 0, 0, 0, 0,0.0,0.0,0.0,0.0,0.0,0.0,0.0,0.0,0.0,0.0,0.0,0.0,0.0,31,org.apache.ace.webui.vaadin\src\org\apache\ace\webui\domain\OBREntry.java,0,0,0,0
org.apache.ace.webui.vaadin.AddArtifactWindow, 0, 0, 0, 0, 0, 0, 0, 0, 0, 0, 0, 0, 0, 0,0.0,0.0,0.0,0.0,0.0,0.0,0.0,0.0,0.0,0.0,0.0,0.0,0.0,432,org.apache.ace.webui.vaadin\src\org\apache\ace\webui\vaadin\AddArtifactWindow.java,269,34,80,463
org.apache.ace.webui.vaadin.ArtifactTable, 0, 0, 0, 0, 0, 0, 0, 0, 0, 0, 0, 0, 0, 0,0.0,0.0,0.0,0.0,0.0,0.0,0.0,0.0,0.0,0.0,0.0,0.0,0.0,13,org.apache.ace.webui.vaadin\src\org\apache\ace\webui\vaadin\ArtifactTable.java,16,0,0,16
org.apache.ace.webui.vaadin.AssociationRemover, 0, 0, 0, 0, 0, 0, 0, 0, 0, 0, 0, 0, 0, 0,0.0,0.0,0.0,0.0,0.0,0.0,0.0,0.0,0.0,0.0,0.0,0.0,0.0,13,org.apache.ace.webui.vaadin\src\org\apache\ace\webui\vaadin\AssociationRemover.java,9,0,0,9
org.apache.ace.webui.vaadin.Associations, 0, 0, 0, 0, 0, 0, 0, 1, 0, 0, 0, 0, 0, 1,0.0,0.0,0.0,0.1111111111111111,0.0,0.0,0.0,0.1111111111111111,0.0,0.0,0.0,0.0,0.0,164,org.apache.ace.webui.vaadin\src\org\apache\ace\webui\vaadin\Associations.java,183,0,0,183
org.apache.ace.webui.vaadin.GenericAddWindow, 0, 0, 0, 0, 0, 0, 0, 0, 0, 0, 0, 0, 0, 0,0.0,0.0,0.0,0.0,0.0,0.0,0.0,0.0,0.0,0.0,0.0,0.0,0.0,64,org.apache.ace.webui.vaadin\src\org\apache\ace\webui\vaadin\GenericAddWindow.java,3,22,4,33
org.apache.ace.webui.vaadin.LoginWindow, 0, 0, 0, 0, 0, 0, 0, 0, 0, 0, 0, 0, 0, 0,0.0,0.0,0.0,0.0,0.0,0.0,0.0,0.0,0.0,0.0,0.0,0.0,0.0,64,org.apache.ace.webui.vaadin\src\org\apache\ace\webui\vaadin\LoginWindow.java,1,31,31,94
org.apache.ace.webui.vaadin.ResourceTable, 0, 0, 0, 0, 0, 0, 0, 0, 0, 0, 0, 0, 0, 0,0.0,0.0,0.0,0.0,0.0,0.0,0.0,0.0,0.0,0.0,0.0,0.0,0.0,16,org.apache.ace.webui.vaadin\src\org\apache\ace\webui\vaadin\ResourceTable.java,19,0,0,19
org.apache.ace.webui.vaadin.VaadinServlet, 0, 0, 0, 0, 0, 0, 0, 0, 0, 0, 0, 0, 0, 0,0.0,0.0,0.0,0.0,0.0,0.0,0.0,0.0,0.0,0.0,0.0,0.0,0.0,68,org.apache.ace.webui.vaadin\src\org\apache\ace\webui\vaadin\VaadinServlet.java,10,127,34,205
org.apache.ace.webui.vaadin.component.ArtifactsPanel, 0, 0, 0, 0, 0, 0, 0, 0, 0, 0, 0, 0, 0, 0,0.0,0.0,0.0,0.5,0.0,0.0,0.0,1.0,0.0,0.0,0.0,0.0,0.0,39,org.apache.ace.webui.vaadin\src\org\apache\ace\webui\vaadin\component\ArtifactsPanel.java,1,53,12,78
org.apache.ace.webui.vaadin.component.BaseObjectPanel, 0, 0, 0, 1, 0, 0, 0, 1, 0, 0, 0, 0, 0, 2,0.0,0.0,0.0,0.0,0.0,0.0,0.0,0.2,0.0,0.0,0.0,0.0,0.0,279,org.apache.ace.webui.vaadin\src\org\apache\ace\webui\vaadin\component\BaseObjectPanel.java,33,287,80,480
org.apache.ace.webui.vaadin.component.ConfirmationDialog, 0, 0, 0, 0, 0, 0, 0, 0, 0, 0, 0, 0, 0, 0,0.0,0.0,0.0,0.0,0.0,0.0,0.0,0.0,0.0,0.0,0.0,0.0,0.0,52,org.apache.ace.webui.vaadin\src\org\apache\ace\webui\vaadin\component\ConfirmationDialog.java,0,8,4,16
org.apache.ace.webui.vaadin.component.DistributionsPanel, 0, 0, 0, 0, 0, 0, 0, 0, 0, 0, 0, 0, 0, 0,0.0,0.0,0.0,0.5,0.0,0.0,0.0,1.0,0.0,0.0,0.0,0.0,0.0,45,org.apache.ace.webui.vaadin\src\org\apache\ace\webui\vaadin\component\DistributionsPanel.java,3,11,16,46
org.apache.ace.webui.vaadin.component.FeaturesPanel, 0, 0, 0, 0, 0, 0, 0, 0, 0, 0, 0, 0, 0, 0,0.0,0.0,0.0,0.5,0.0,0.0,0.0,1.0,0.0,0.0,0.0,0.0,0.0,44,org.apache.ace.webui.vaadin\src\org\apache\ace\webui\vaadin\component\FeaturesPanel.java,2,11,16,45
org.apache.ace.webui.vaadin.component.TargetsPanel, 0, 0, 0, 0, 0, 0, 0, 0, 0, 0, 0, 0, 0, 0,0.0,0.0,0.0,0.5,0.0,0.0,0.0,1.0,0.0,0.0,0.0,0.0,0.0,87,org.apache.ace.webui.vaadin\src\org\apache\ace\webui\vaadin\component\TargetsPanel.java,2,125,39,205
org.apache.felix.framework.Logger, 0, 0, 0, 0, 0, 0, 0, 1, 0, 0, 0, 0, 0, 1,0.0,0.0,0.0,0.0,0.0,0.0,0.0,0.0,0.0,0.0,0.0,0.0,0.0,211,org.apache.ace.verifier\src\org\apache\felix\framework\Logger.java,0,2,0,2
org.apache.felix.framework.resolver.CandidateComparator, 0, 0, 0, 0, 0, 0, 0, 0, 0, 0, 0, 0, 0, 0,0.0,0.0,0.0,0.0,0.0,0.0,0.0,0.0,0.0,0.0,0.0,0.0,0.0,88,org.apache.ace.verifier\src\org\apache\felix\framework\resolver\CandidateComparator.java,0,1,0,1
org.apache.felix.framework.resolver.HostBundleRevision, 0, 0, 0, 0, 0, 0, 0, 0, 0, 0, 0, 0, 0, 0,0.0,0.0,0.0,0.0,0.0,0.0,0.0,0.0,0.0,0.0,0.0,0.0,0.0,92,org.apache.ace.verifier\src\org\apache\felix\framework\resolver\HostBundleRevision.java,0,0,0,0
org.apache.felix.framework.resolver.ResolveException, 0, 0, 0, 0, 0, 0, 0, 0, 0, 0, 0, 0, 0, 0,0.0,0.0,0.0,0.0,0.0,0.0,0.0,0.0,0.0,0.0,0.0,0.0,0.0,18,org.apache.ace.verifier\src\org\apache\felix\framework\resolver\ResolveException.java,0,0,0,0
org.apache.felix.framework.resolver.ResolverWire, 0, 0, 0, 0, 0, 0, 0, 0, 0, 0, 0, 0, 0, 0,0.0,0.0,0.0,0.0,0.0,0.0,0.0,0.0,0.0,0.0,0.0,0.0,0.0,18,org.apache.ace.verifier\src\org\apache\felix\framework\resolver\ResolverWire.java,0,0,0,0
org.apache.felix.framework.resolver.ResolverWireImpl, 0, 0, 0, 0, 0, 0, 0, 0, 0, 0, 0, 0, 0, 0,0.0,0.0,0.0,0.0,0.0,0.0,0.0,0.0,0.0,0.0,0.0,0.0,0.0,37,org.apache.ace.verifier\src\org\apache\felix\framework\resolver\ResolverWireImpl.java,0,0,0,0
org.apache.felix.framework.resolver.ResourceNotFoundException, 0, 0, 0, 0, 0, 0, 0, 0, 0, 0, 0, 0, 0, 0,0.0,0.0,0.0,0.0,0.0,0.0,0.0,0.0,0.0,0.0,0.0,0.0,0.0,10,org.apache.ace.verifier\src\org\apache\felix\framework\resolver\ResourceNotFoundException.java,0,0,0,0
org.apache.felix.framework.util.FelixConstants, 0, 0, 0, 0, 0, 0, 0, 0, 0, 0, 0, 0, 0, 0,0.0,0.0,0.0,0.0,0.0,0.0,0.0,0.0,0.0,0.0,0.0,0.0,0.0,10,org.apache.ace.verifier\src\org\apache\felix\framework\util\FelixConstants.java,0,0,0,0
org.apache.felix.framework.wiring.BundleWireImpl, 0, 0, 0, 0, 0, 0, 0, 0, 0, 0, 0, 0, 0, 0,0.0,0.0,0.0,0.0,0.0,0.0,0.0,0.0,0.0,0.0,0.0,0.0,0.0,44,org.apache.ace.verifier\src\org\apache\felix\framework\wiring\BundleWireImpl.java,0,0,0,0
org.osgi.service.obr.CapabilityProvider, 0, 0, 0, 0, 0, 0, 0, 0, 0, 0, 0, 0, 0, 0,0.0,0.0,0.0,0.0,0.0,0.0,0.0,0.0,0.0,0.0,0.0,0.0,0.0,44,org.apache.ace.obr\src\org\osgi\service\obr\CapabilityProvider.java,0,0,0,0
org.osgi.service.obr.Repository, 0, 0, 0, 0, 0, 0, 0, 0, 0, 0, 0, 0, 0, 0,0.0,0.0,0.0,0.0,0.0,0.0,0.0,0.0,0.0,0.0,0.0,0.0,0.0,44,org.apache.ace.obr\src\org\osgi\service\obr\Repository.java,0,0,0,0
org.osgi.service.obr.RepositoryAdmin, 0, 0, 0, 0, 0, 0, 0, 0, 0, 0, 0, 0, 0, 0,0.0,0.0,0.0,0.0,0.0,0.0,0.0,0.0,0.0,0.0,0.0,0.0,0.0,44,org.apache.ace.obr\src\org\osgi\service\obr\RepositoryAdmin.java,0,0,0,0
org.osgi.service.obr.RepositoryPermission, 0, 0, 0, 0, 0, 1, 0, 0, 0, 0, 0, 0, 0, 1,0.0,0.0,0.0,0.0,0.0,0.0,0.0,0.0,0.0,0.0,0.0,0.0,0.0,6,org.apache.ace.obr\src\org\osgi\service\obr\RepositoryPermission.java,0,0,0,0
org.osgi.service.obr.Requirement, 0, 0, 0, 0, 0, 0, 0, 0, 0, 0, 0, 0, 0, 0,0.0,0.0,0.0,0.0,0.0,0.0,0.0,0.0,0.0,0.0,0.0,0.0,0.0,6,org.apache.ace.obr\src\org\osgi\service\obr\Requirement.java,0,0,0,0
org.osgi.service.obr.Resolver, 0, 0, 0, 0, 0, 0, 0, 0, 0, 0, 0, 0, 0, 0,0.0,0.0,0.0,0.0,0.0,0.0,0.0,0.0,0.0,0.0,0.0,0.0,0.0,6,org.apache.ace.obr\src\org\osgi\service\obr\Resolver.java,0,0,0,0
