ClassName,AntiSingleton,Blob,ClassDataShouldBePrivate,ComplexClass,LargeClass,LazyClass,LongMethod,LongParameterList,MessageChains,RefusedParentBequest,SpaghettiCode,SpeculativeGenerality,SwissArmyKnife,NumOfAPs,AntiSingleton,Blob,ClassDataShouldBePrivate,ComplexClass,LargeClass,LazyClass,LongMethod,LongParameterList,MessageChains,RefusedParentBequest,SpaghettiCode,SpeculativeGenerality,SwissArmyKnife,LOC,name,deleted,added,changed,all
org.apache.flume.ChannelException, 0, 0, 0, 0, 0, 0, 0, 0, 0, 0, 0, 0, 0, 0,0.0,0.0,0.0,0.0,0.0,0.0,0.0,0.0,0.0,0.0,0.0,0.0,0.0,12,flume-ng-core\src\main\java\org\apache\flume\ChannelException.java,0,0,0,0
org.apache.flume.ChannelFactory, 0, 0, 0, 0, 0, 0, 0, 0, 0, 0, 0, 0, 0, 0,0.0,0.0,0.0,0.0,0.0,0.0,0.0,0.0,0.0,0.0,0.0,0.0,0.0,12,flume-ng-core\src\main\java\org\apache\flume\ChannelFactory.java,0,0,0,0
org.apache.flume.ChannelFullException, 0, 0, 0, 0, 0, 0, 0, 0, 0, 0, 0, 0, 0, 0,0.0,0.0,0.0,0.0,0.0,0.0,0.0,0.0,0.0,0.0,0.0,0.0,0.0,12,flume-ng-core\src\main\java\org\apache\flume\ChannelFullException.java,0,0,0,0
org.apache.flume.ChannelSelector, 0, 0, 0, 0, 0, 0, 0, 0, 0, 0, 0, 0, 0, 0,0.0,0.0,0.0,0.0,0.0,0.0,0.0,0.0,0.0,0.0,0.0,0.0,0.0,12,flume-ng-core\src\main\java\org\apache\flume\ChannelSelector.java,0,0,0,0
org.apache.flume.Clock, 0, 0, 0, 0, 0, 0, 0, 0, 0, 0, 0, 0, 0, 0,0.0,0.0,0.0,0.0,0.0,0.0,0.0,0.0,0.0,0.0,0.0,0.0,0.0,12,flume-ng-core\src\main\java\org\apache\flume\Clock.java,0,0,0,0
org.apache.flume.Constants, 0, 0, 0, 0, 0, 0, 0, 0, 0, 0, 0, 0, 0, 0,0.0,0.0,0.0,0.0,0.0,0.0,0.0,0.0,0.0,0.0,0.0,0.0,0.0,6,flume-ng-core\src\main\java\org\apache\flume\Constants.java,0,0,0,0
org.apache.flume.Dummy, 0, 0, 0, 0, 0, 1, 0, 0, 0, 0, 0, 0, 0, 1,0.0,0.0,0.0,0.0,0.0,0.0,0.0,0.0,0.0,0.0,0.0,0.0,0.0,5,flume-ng-tests\src\main\java\org\apache\flume\Dummy.java,0,0,0,0
org.apache.flume.EventDeliveryException, 0, 0, 0, 0, 0, 0, 0, 0, 0, 0, 0, 0, 0, 0,0.0,0.0,0.1111111111111111,0.0,0.0,0.0,0.0,0.0,0.0,0.0,0.0,0.0,0.0,15,flume-ng-sdk\src\main\java\org\apache\flume\EventDeliveryException.java,0,0,0,0
org.apache.flume.EventDrivenSource, 0, 0, 0, 0, 0, 0, 0, 0, 0, 0, 0, 0, 0, 0,0.0,0.0,0.0,0.0,0.0,0.0,0.0,0.0,0.0,0.0,0.0,0.0,0.0,15,flume-ng-core\src\main\java\org\apache\flume\EventDrivenSource.java,0,0,0,0
org.apache.flume.FlumeException, 0, 0, 0, 0, 0, 0, 0, 0, 0, 0, 0, 0, 0, 0,0.043478260869565216,0.0,0.043478260869565216,0.08695652173913043,0.0,0.0,0.0,0.043478260869565216,0.0,0.0,0.0,0.0,0.0,12,flume-ng-sdk\src\main\java\org\apache\flume\FlumeException.java,0,0,0,0
org.apache.flume.NamedComponent, 0, 0, 0, 0, 0, 0, 0, 0, 0, 0, 0, 0, 0, 0,0.0,0.0,0.0,0.0,0.0,0.0,0.0,0.0,0.0,0.0,0.0,0.0,0.0,12,flume-ng-core\src\main\java\org\apache\flume\NamedComponent.java,0,0,0,0
org.apache.flume.PollableSource, 0, 0, 0, 0, 0, 0, 0, 0, 0, 0, 0, 0, 0, 0,0.0,0.0,0.0,0.0,0.0,0.0,0.0,0.0,0.0,0.0,0.0,0.0,0.0,12,flume-ng-core\src\main\java\org\apache\flume\PollableSource.java,0,0,0,0
org.apache.flume.Sink, 0, 0, 0, 0, 0, 0, 0, 0, 0, 0, 0, 0, 0, 0,0.0,0.0,0.0,0.0,0.0,0.0,0.0,0.0,0.0,0.0,0.0,0.0,0.0,12,flume-ng-core\src\main\java\org\apache\flume\Sink.java,0,0,0,0
org.apache.flume.SinkFactory, 0, 0, 0, 0, 0, 0, 0, 0, 0, 0, 0, 0, 0, 0,0.0,0.0,0.0,0.0,0.0,0.0,0.0,0.0,0.0,0.0,0.0,0.0,0.0,12,flume-ng-core\src\main\java\org\apache\flume\SinkFactory.java,0,0,0,0
org.apache.flume.SinkProcessor, 0, 0, 0, 0, 0, 0, 0, 0, 0, 0, 0, 0, 0, 0,0.0,0.0,0.0,0.0,0.0,0.0,0.0,0.0,0.0,0.0,0.0,0.0,0.0,12,flume-ng-core\src\main\java\org\apache\flume\SinkProcessor.java,0,0,0,0
org.apache.flume.SinkRunner, 0, 0, 0, 0, 0, 0, 0, 0, 0, 0, 0, 0, 0, 0,0.0,0.0,0.0,0.0,0.0,0.0,0.0,0.0,0.0,0.0,0.0,0.0,0.0,105,flume-ng-core\src\main\java\org\apache\flume\SinkRunner.java,0,0,0,0
org.apache.flume.Source, 0, 0, 0, 0, 0, 0, 0, 0, 0, 0, 0, 0, 0, 0,0.0,0.0,0.0,0.0,0.0,0.0,0.0,0.0,0.0,0.0,0.0,0.0,0.0,105,flume-ng-core\src\main\java\org\apache\flume\Source.java,0,0,0,0
org.apache.flume.SourceFactory, 0, 0, 0, 0, 0, 0, 0, 0, 0, 0, 0, 0, 0, 0,0.0,0.0,0.0,0.0,0.0,0.0,0.0,0.0,0.0,0.0,0.0,0.0,0.0,105,flume-ng-core\src\main\java\org\apache\flume\SourceFactory.java,0,0,0,0
org.apache.flume.SourceRunner, 0, 0, 0, 0, 0, 0, 0, 0, 0, 0, 0, 0, 0, 0,0.0,0.0,0.0,0.0,0.0,0.0,0.0,0.0,0.0,0.0,0.0,0.0,0.0,23,flume-ng-core\src\main\java\org\apache\flume\SourceRunner.java,0,0,0,0
org.apache.flume.SystemClock, 0, 0, 0, 0, 0, 0, 0, 0, 0, 0, 0, 0, 0, 0,0.0,0.0,0.0,0.0,0.0,0.0,0.0,0.0,0.0,0.0,0.0,0.0,0.0,5,flume-ng-core\src\main\java\org\apache\flume\SystemClock.java,0,0,0,0
org.apache.flume.TestContext, 0, 0, 0, 0, 0, 0, 0, 0, 0, 0, 0, 0, 0, 0,0.0,0.0,0.0,0.0,0.0,0.0,0.0,0.0,0.0,0.0,0.0,0.0,0.0,48,flume-ng-core\src\test\java\org\apache\flume\TestContext.java,0,0,0,0
org.apache.flume.TestCounterGroup, 0, 0, 0, 0, 0, 0, 0, 0, 0, 0, 0, 0, 0, 0,0.0,0.0,0.0,0.0,0.0,0.0,0.0,0.0,0.0,0.0,0.0,0.0,0.0,28,flume-ng-core\src\test\java\org\apache\flume\TestCounterGroup.java,0,0,0,0
org.apache.flume.Transaction, 0, 0, 0, 0, 0, 0, 0, 0, 0, 0, 0, 0, 0, 0,0.0,0.0,0.0,0.0,0.0,0.0,0.0,0.0,0.0,0.0,0.0,0.0,0.0,28,flume-ng-core\src\main\java\org\apache\flume\Transaction.java,0,0,0,0
org.apache.flume.agent.embedded.EmbeddedSource, 0, 0, 0, 0, 0, 0, 0, 0, 0, 0, 0, 0, 0, 0,0.0,0.0,0.0,0.0,0.0,0.0,0.0,0.0,0.0,0.0,0.0,0.0,0.0,12,flume-ng-embedded-agent\src\main\java\org\apache\flume\agent\embedded\EmbeddedSource.java,0,0,0,0
org.apache.flume.annotations.InterfaceAudience, 0, 0, 0, 0, 0, 1, 0, 0, 0, 0, 0, 0, 0, 1,0.0,0.0,0.0,0.0,0.0,0.0,0.0,0.0,0.0,0.0,0.0,0.0,0.0,8,flume-ng-core\src\main\java\org\apache\flume\annotations\InterfaceAudience.java,0,0,0,0
org.apache.flume.annotations.InterfaceStability, 0, 0, 0, 0, 0, 1, 0, 0, 0, 0, 0, 0, 0, 1,0.0,0.0,0.0,0.0,0.0,0.0,0.0,0.0,0.0,0.0,0.0,0.0,0.0,7,flume-ng-core\src\main\java\org\apache\flume\annotations\InterfaceStability.java,0,0,0,0
org.apache.flume.api.AbstractRpcClient, 0, 0, 0, 0, 0, 0, 0, 0, 0, 0, 0, 0, 0, 0,0.0,0.0,0.0,0.0,0.0,0.0,0.0,0.0,0.0,0.0,0.0,0.0,0.0,23,flume-ng-sdk\src\main\java\org\apache\flume\api\AbstractRpcClient.java,0,0,0,0
org.apache.flume.api.RpcClient, 0, 0, 0, 0, 0, 0, 0, 0, 0, 0, 0, 0, 0, 0,0.0,0.0,0.0,0.0,0.0,0.0,0.0,0.0,0.0,0.0,0.0,0.0,0.0,23,flume-ng-sdk\src\main\java\org\apache\flume\api\RpcClient.java,0,0,0,0
org.apache.flume.api.RpcClientConfigurationConstants, 0, 0, 0, 1, 0, 0, 0, 0, 0, 0, 0, 0, 0, 1,0.0,0.0,0.0,0.0,0.0,0.0,0.0,0.0,0.0,0.0,0.0,0.0,0.0,36,flume-ng-sdk\src\main\java\org\apache\flume\api\RpcClientConfigurationConstants.java,0,1,0,1
org.apache.flume.api.ThriftTestingSource, 0, 0, 1, 0, 0, 0, 0, 0, 0, 0, 0, 0, 0, 1,0.0,0.0,0.0,0.0,0.0,0.0,0.0,0.0,0.0,0.0,0.0,0.0,0.0,159,flume-ng-sdk\src\test\java\org\apache\flume\api\ThriftTestingSource.java,0,0,0,0
org.apache.flume.channel.AbstractBasicChannelSemanticsTest, 1, 0, 0, 0, 0, 0, 0, 0, 0, 0, 0, 0, 0, 1,0.0,0.0,0.0,0.5,0.0,0.0,0.0,0.0,0.0,0.0,0.0,0.0,0.0,217,flume-ng-core\src\test\java\org\apache\flume\channel\AbstractBasicChannelSemanticsTest.java,0,0,0,0
org.apache.flume.channel.BasicChannelSemantics, 0, 0, 0, 0, 0, 0, 0, 0, 0, 0, 0, 0, 0, 0,0.14285714285714285,0.0,0.0,0.42857142857142855,0.0,0.0,0.0,0.0,0.0,0.0,0.0,0.0,0.0,39,flume-ng-core\src\main\java\org\apache\flume\channel\BasicChannelSemantics.java,0,0,0,0
org.apache.flume.channel.ChannelUtils, 0, 0, 0, 0, 0, 0, 0, 0, 0, 0, 0, 0, 0, 0,0.0,0.0,0.0,0.0,0.0,0.0,0.0,0.0,0.0,0.0,0.0,0.0,0.0,105,flume-ng-core\src\main\java\org\apache\flume\channel\ChannelUtils.java,0,0,0,0
org.apache.flume.channel.DefaultChannelFactory, 0, 0, 0, 0, 0, 0, 0, 0, 0, 0, 0, 0, 0, 0,0.0,0.0,0.0,0.0,0.0,0.0,0.0,0.0,0.0,0.0,0.0,0.0,0.0,38,flume-ng-core\src\main\java\org\apache\flume\channel\DefaultChannelFactory.java,0,0,0,0
org.apache.flume.channel.MemoryChannel, 0, 0, 0, 1, 0, 0, 0, 0, 0, 0, 0, 0, 0, 1,0.09090909090909091,0.0,0.09090909090909091,0.0,0.0,0.0,0.0,0.0,0.0,0.0,0.0,0.0,0.0,268,flume-ng-core\src\main\java\org\apache\flume\channel\MemoryChannel.java,0,0,0,0
org.apache.flume.channel.MockChannel, 0, 0, 0, 0, 0, 0, 0, 0, 0, 0, 0, 0, 0, 0,0.0,0.0,0.0,0.0,0.0,0.0,0.0,0.0,0.0,0.0,0.0,0.0,0.0,34,flume-ng-core\src\test\java\org\apache\flume\channel\MockChannel.java,0,0,0,0
org.apache.flume.channel.PseudoTxnMemoryChannel, 0, 0, 0, 0, 0, 0, 0, 0, 0, 0, 0, 0, 0, 0,0.0,0.0,0.0,0.0,0.0,0.0,0.0,0.0,0.0,0.0,0.0,0.0,0.0,88,flume-ng-core\src\main\java\org\apache\flume\channel\PseudoTxnMemoryChannel.java,0,0,0,0
org.apache.flume.channel.TestBasicChannelSemantics, 0, 0, 0, 1, 0, 0, 0, 0, 0, 0, 0, 0, 0, 1,0.5,0.0,0.0,0.0,0.0,0.0,0.0,0.0,0.0,0.0,0.0,0.0,0.0,643,flume-ng-core\src\test\java\org\apache\flume\channel\TestBasicChannelSemantics.java,0,0,0,0
org.apache.flume.channel.TestChannelProcessor, 0, 0, 0, 0, 0, 0, 0, 0, 0, 0, 0, 0, 0, 0,0.0,0.0,0.0,0.0,0.0,0.0,0.0,0.0,0.0,0.0,0.0,0.0,0.0,31,flume-ng-core\src\test\java\org\apache\flume\channel\TestChannelProcessor.java,0,0,0,0
org.apache.flume.channel.TestChannelUtils, 0, 0, 0, 0, 0, 0, 0, 0, 0, 0, 0, 0, 0, 0,0.5,0.0,0.0,0.0,0.0,0.0,0.0,0.0,0.0,0.0,0.0,0.0,0.0,98,flume-ng-core\src\test\java\org\apache\flume\channel\TestChannelUtils.java,0,0,0,0
org.apache.flume.channel.TestMemoryChannelTransaction, 0, 0, 0, 0, 0, 0, 0, 0, 0, 0, 0, 0, 0, 0,0.0,0.0,0.0,0.5,0.0,0.0,0.0,0.0,0.0,0.0,0.0,0.0,0.0,185,flume-ng-core\src\test\java\org\apache\flume\channel\TestMemoryChannelTransaction.java,0,0,0,0
org.apache.flume.channel.file.BadCheckpointException, 0, 0, 0, 0, 0, 0, 0, 0, 0, 0, 0, 0, 0, 0,0.0,0.0,0.0,0.0,0.0,0.0,0.0,0.3333333333333333,0.0,0.0,0.0,0.0,0.0,9,flume-ng-channels\flume-file-channel\src\main\java\org\apache\flume\channel\file\BadCheckpointException.java,0,0,0,0
org.apache.flume.channel.file.CheckpointRebuilder, 0, 0, 0, 0, 0, 0, 0, 0, 0, 0, 0, 0, 0, 0,0.0,0.0,0.0,0.0,0.0,0.0,0.0,0.2857142857142857,0.0,0.0,0.0,0.0,0.0,216,flume-ng-channels\flume-file-channel\src\main\java\org\apache\flume\channel\file\CheckpointRebuilder.java,0,0,0,0
org.apache.flume.channel.file.CorruptEventException, 0, 0, 0, 0, 0, 0, 0, 0, 0, 0, 0, 0, 0, 0,0.0,0.0,0.0,0.0,0.0,0.0,0.0,0.0,0.0,0.0,0.0,0.0,0.0,12,flume-ng-channels\flume-file-channel\src\main\java\org\apache\flume\channel\file\CorruptEventException.java,0,0,0,0
org.apache.flume.channel.file.CountingSinkRunner, 0, 0, 0, 0, 0, 0, 0, 0, 0, 0, 0, 0, 0, 0,0.0,0.0,0.0,0.0,0.0,0.0,0.0,0.0,0.0,0.0,0.0,0.0,0.0,42,flume-ng-channels\flume-file-channel\src\test\java\org\apache\flume\channel\file\CountingSinkRunner.java,0,0,0,0
org.apache.flume.channel.file.CountingSourceRunner, 0, 0, 0, 0, 0, 0, 0, 0, 0, 0, 0, 0, 0, 0,0.0,0.0,0.0,0.0,0.0,0.0,0.0,0.0,0.0,0.0,0.0,0.0,0.0,56,flume-ng-channels\flume-file-channel\src\test\java\org\apache\flume\channel\file\CountingSourceRunner.java,0,0,0,0
org.apache.flume.channel.file.EventQueueBackingStore, 0, 0, 0, 1, 0, 0, 0, 0, 0, 0, 0, 0, 0, 1,0.0,0.0,0.0,0.25,0.0,0.0,0.0,0.25,0.0,0.0,0.0,0.0,0.0,48,flume-ng-channels\flume-file-channel\src\main\java\org\apache\flume\channel\file\EventQueueBackingStore.java,0,0,0,0
org.apache.flume.channel.file.EventQueueBackingStoreFactory, 0, 0, 0, 0, 0, 0, 0, 1, 0, 0, 0, 0, 0, 1,0.0,0.0,0.0,0.2,0.0,0.0,0.0,0.0,0.0,0.0,0.0,0.0,0.0,83,flume-ng-channels\flume-file-channel\src\main\java\org\apache\flume\channel\file\EventQueueBackingStoreFactory.java,0,0,0,0
org.apache.flume.channel.file.EventQueueBackingStoreFileV2, 0, 0, 0, 0, 0, 0, 0, 0, 0, 0, 0, 0, 0, 0,0.0,0.0,0.0,0.4,0.0,0.0,0.0,0.2,0.0,0.0,0.0,0.0,0.0,64,flume-ng-channels\flume-file-channel\src\main\java\org\apache\flume\channel\file\EventQueueBackingStoreFileV2.java,0,0,0,0
org.apache.flume.channel.file.FileChannel, 0, 0, 0, 1, 0, 0, 0, 0, 0, 0, 0, 0, 0, 1,0.0,0.0,0.0,0.0,0.0,0.0,0.0,0.0,0.0,0.0,0.0,0.0,0.0,473,flume-ng-channels\flume-file-channel\src\main\java\org\apache\flume\channel\file\FileChannel.java,0,0,0,0
org.apache.flume.channel.file.FileChannelConfiguration, 0, 0, 0, 1, 0, 0, 0, 0, 0, 0, 0, 0, 0, 1,0.0,0.0,0.0,0.0,0.0,0.0,0.0,0.0,0.0,0.0,0.0,0.0,0.0,29,flume-ng-channels\flume-file-channel\src\main\java\org\apache\flume\channel\file\FileChannelConfiguration.java,0,0,0,0
org.apache.flume.channel.file.FlumeEventPointer, 0, 0, 0, 0, 0, 0, 0, 0, 0, 0, 0, 0, 0, 0,0.0,0.0,0.0,0.16666666666666666,0.0,0.0,0.0,0.0,0.0,0.0,0.0,0.0,0.0,62,flume-ng-channels\flume-file-channel\src\main\java\org\apache\flume\channel\file\FlumeEventPointer.java,0,0,0,0
org.apache.flume.channel.file.LogFile, 0, 0, 0, 0, 0, 0, 0, 0, 0, 0, 0, 0, 0, 0,0.0,0.0,0.0,0.0,0.0,0.0,0.0,0.14285714285714285,0.0,0.0,0.0,0.0,0.0,624,flume-ng-channels\flume-file-channel\src\main\java\org\apache\flume\channel\file\LogFile.java,0,0,0,0
org.apache.flume.channel.file.LogFileFactory, 0, 0, 0, 0, 0, 0, 0, 1, 0, 0, 0, 0, 0, 1,0.0,0.0,0.0,0.0,0.0,0.0,0.0,0.0,0.0,0.0,0.0,0.0,0.0,132,flume-ng-channels\flume-file-channel\src\main\java\org\apache\flume\channel\file\LogFileFactory.java,0,0,0,0
org.apache.flume.channel.file.LogFileRetryableIOException, 0, 0, 0, 0, 0, 0, 0, 0, 0, 0, 0, 0, 0, 0,0.0,0.0,0.0,0.0,0.0,0.0,0.0,0.0,0.0,0.0,0.0,0.0,0.0,12,flume-ng-channels\flume-file-channel\src\main\java\org\apache\flume\channel\file\LogFileRetryableIOException.java,0,0,0,0
org.apache.flume.channel.file.LogFileV2, 0, 0, 0, 0, 0, 0, 0, 0, 0, 0, 0, 0, 0, 0,0.0,0.0,0.0,0.0,0.0,0.0,0.0,0.0,0.0,0.0,0.0,0.0,0.0,112,flume-ng-channels\flume-file-channel\src\main\java\org\apache\flume\channel\file\LogFileV2.java,0,0,0,0
org.apache.flume.channel.file.LogFileV3, 0, 0, 0, 0, 0, 0, 0, 0, 0, 0, 0, 0, 0, 0,0.0,0.0,0.0,0.0,0.0,0.0,0.0,0.0,0.0,0.0,0.0,0.0,0.0,305,flume-ng-channels\flume-file-channel\src\main\java\org\apache\flume\channel\file\LogFileV3.java,0,0,0,0
org.apache.flume.channel.file.LogRecord, 0, 0, 0, 0, 0, 0, 0, 0, 0, 0, 0, 0, 0, 0,0.0,0.0,0.0,0.0,0.0,0.0,0.0,0.0,0.0,0.0,0.0,0.0,0.0,41,flume-ng-channels\flume-file-channel\src\main\java\org\apache\flume\channel\file\LogRecord.java,0,0,0,0
org.apache.flume.channel.file.NoopRecordException, 0, 0, 0, 0, 0, 0, 0, 0, 0, 0, 0, 0, 0, 0,0.0,0.0,0.0,0.0,0.0,0.0,0.0,0.0,0.0,0.0,0.0,0.0,0.0,12,flume-ng-channels\flume-file-channel\src\main\java\org\apache\flume\channel\file\NoopRecordException.java,0,0,0,0
org.apache.flume.channel.file.Pair, 0, 0, 0, 0, 0, 0, 0, 0, 0, 0, 0, 0, 0, 0,0.0,0.0,0.0,0.0,0.0,0.0,0.0,0.0,0.0,0.0,0.0,0.0,0.0,17,flume-ng-channels\flume-file-channel\src\main\java\org\apache\flume\channel\file\Pair.java,0,0,0,0
org.apache.flume.channel.file.TestCheckpoint, 0, 0, 0, 0, 0, 0, 0, 0, 0, 0, 0, 0, 0, 0,0.0,0.0,0.0,0.0,0.0,0.0,0.0,0.0,0.0,0.0,0.0,0.0,0.0,37,flume-ng-channels\flume-file-channel\src\test\java\org\apache\flume\channel\file\TestCheckpoint.java,0,0,0,0
org.apache.flume.channel.file.TestEventQueueBackingStoreFactory, 0, 0, 0, 0, 0, 0, 0, 0, 0, 0, 0, 0, 0, 0,0.0,0.0,0.0,0.25,0.0,0.0,0.0,0.25,0.0,0.0,0.0,0.0,0.0,231,flume-ng-channels\flume-file-channel\src\test\java\org\apache\flume\channel\file\TestEventQueueBackingStoreFactory.java,0,0,0,0
org.apache.flume.channel.file.TestFileChannelRollback, 0, 0, 0, 0, 0, 0, 0, 0, 0, 0, 0, 0, 0, 0,0.0,0.0,0.0,0.25,0.0,0.0,0.0,0.0,0.0,0.0,0.0,0.0,0.0,84,flume-ng-channels\flume-file-channel\src\test\java\org\apache\flume\channel\file\TestFileChannelRollback.java,0,0,0,0
org.apache.flume.channel.file.TestFlumeEventPointer, 0, 0, 0, 0, 0, 0, 0, 0, 0, 0, 0, 0, 0, 0,0.0,0.0,0.0,0.0,0.0,0.0,0.0,0.0,0.0,0.0,0.0,0.0,0.0,37,flume-ng-channels\flume-file-channel\src\test\java\org\apache\flume\channel\file\TestFlumeEventPointer.java,0,0,0,0
org.apache.flume.channel.file.TestFlumeEventQueue, 0, 0, 0, 1, 0, 0, 0, 0, 0, 0, 0, 0, 0, 1,0.0,0.0,0.0,0.3333333333333333,0.0,0.0,0.0,0.0,0.0,0.0,0.0,0.0,0.0,418,flume-ng-channels\flume-file-channel\src\test\java\org\apache\flume\channel\file\TestFlumeEventQueue.java,0,0,0,0
org.apache.flume.channel.file.TestIntegration, 0, 0, 0, 0, 0, 0, 0, 0, 0, 0, 0, 0, 0, 0,0.0,0.0,0.0,0.14285714285714285,0.0,0.0,0.0,0.0,0.0,0.0,0.0,0.0,0.0,82,flume-ng-channels\flume-file-channel\src\test\java\org\apache\flume\channel\file\TestIntegration.java,0,0,0,0
org.apache.flume.channel.file.TestLogRecord, 0, 0, 0, 0, 0, 0, 0, 0, 0, 0, 0, 0, 0, 0,0.0,0.0,0.0,0.0,0.0,0.0,0.0,0.0,0.0,0.0,0.0,0.0,0.0,36,flume-ng-channels\flume-file-channel\src\test\java\org\apache\flume\channel\file\TestLogRecord.java,0,0,0,0
org.apache.flume.channel.file.TestTransactionIDOracle, 0, 0, 0, 0, 0, 0, 0, 0, 0, 0, 0, 0, 0, 0,0.0,0.0,0.0,0.0,0.0,0.0,0.0,0.0,0.0,0.0,0.0,0.0,0.0,9,flume-ng-channels\flume-file-channel\src\test\java\org\apache\flume\channel\file\TestTransactionIDOracle.java,0,0,0,0
org.apache.flume.channel.file.TestWriteOrderOracle, 0, 0, 0, 0, 0, 0, 0, 0, 0, 0, 0, 0, 0, 0,0.0,0.0,0.0,0.0,0.0,0.0,0.0,0.0,0.0,0.0,0.0,0.0,0.0,9,flume-ng-channels\flume-file-channel\src\test\java\org\apache\flume\channel\file\TestWriteOrderOracle.java,0,0,0,0
org.apache.flume.channel.file.TransactionEventRecord, 0, 0, 0, 0, 0, 0, 0, 0, 0, 0, 0, 0, 0, 0,0.0,0.0,0.0,0.0,0.0,0.0,0.0,0.0,0.0,0.0,0.0,0.0,0.0,169,flume-ng-channels\flume-file-channel\src\main\java\org\apache\flume\channel\file\TransactionEventRecord.java,0,0,0,0
org.apache.flume.channel.file.TransactionIDOracle, 0, 0, 0, 0, 0, 0, 0, 0, 0, 0, 0, 0, 0, 0,0.0,0.0,0.0,0.3333333333333333,0.0,0.0,0.0,0.0,0.0,0.0,0.0,0.0,0.0,14,flume-ng-channels\flume-file-channel\src\main\java\org\apache\flume\channel\file\TransactionIDOracle.java,0,0,0,0
org.apache.flume.channel.file.Writable, 0, 0, 0, 0, 0, 0, 0, 0, 0, 0, 0, 0, 0, 0,0.0,0.0,0.0,0.0,0.0,0.0,0.0,0.0,0.0,0.0,0.0,0.0,0.0,14,flume-ng-channels\flume-file-channel\src\main\java\org\apache\flume\channel\file\Writable.java,0,0,0,0
org.apache.flume.channel.file.WritableUtils, 0, 0, 0, 0, 0, 0, 0, 0, 0, 0, 0, 0, 0, 0,0.0,0.0,0.0,0.0,0.0,0.0,0.0,0.0,0.0,0.0,0.0,0.0,0.0,60,flume-ng-channels\flume-file-channel\src\main\java\org\apache\flume\channel\file\WritableUtils.java,0,0,0,0
org.apache.flume.channel.file.WriteOrderOracle, 0, 0, 0, 0, 0, 0, 0, 0, 0, 0, 0, 0, 0, 0,0.0,0.0,0.0,0.0,0.0,0.0,0.0,0.0,0.0,0.0,0.0,0.0,0.0,14,flume-ng-channels\flume-file-channel\src\main\java\org\apache\flume\channel\file\WriteOrderOracle.java,0,0,0,0
org.apache.flume.channel.file.encryption.AESCTRNoPaddingProvider, 0, 0, 0, 0, 0, 0, 0, 0, 0, 0, 0, 0, 0, 0,0.0,0.0,0.0,0.0,0.0,0.0,0.0,0.0,0.0,0.0,0.0,0.0,0.0,99,flume-ng-channels\flume-file-channel\src\main\java\org\apache\flume\channel\file\encryption\AESCTRNoPaddingProvider.java,0,0,0,0
org.apache.flume.channel.file.encryption.CipherProvider, 0, 0, 0, 0, 0, 0, 0, 0, 0, 0, 0, 0, 0, 0,0.0,0.0,0.0,0.0,0.0,0.0,0.0,0.0,0.0,0.0,0.0,0.0,0.0,34,flume-ng-channels\flume-file-channel\src\main\java\org\apache\flume\channel\file\encryption\CipherProvider.java,0,0,0,0
org.apache.flume.channel.file.encryption.CipherProviderFactory, 0, 0, 0, 0, 0, 0, 0, 0, 0, 0, 0, 0, 0, 0,0.0,0.0,0.0,0.0,0.0,0.0,0.0,0.0,0.0,0.0,0.0,0.0,0.0,57,flume-ng-channels\flume-file-channel\src\main\java\org\apache\flume\channel\file\encryption\CipherProviderFactory.java,0,0,0,0
org.apache.flume.channel.file.encryption.CipherProviderTestSuite, 0, 0, 0, 0, 0, 0, 0, 0, 0, 0, 0, 0, 0, 0,0.0,0.0,0.0,0.0,0.0,0.0,0.0,0.0,0.0,0.0,0.0,0.0,0.0,41,flume-ng-channels\flume-file-channel\src\test\java\org\apache\flume\channel\file\encryption\CipherProviderTestSuite.java,0,0,0,0
org.apache.flume.channel.file.encryption.DecryptionFailureException, 0, 0, 0, 0, 0, 0, 0, 0, 0, 0, 0, 0, 0, 0,0.0,0.0,0.0,0.0,0.0,0.0,0.0,0.0,0.0,0.0,0.0,0.0,0.0,9,flume-ng-channels\flume-file-channel\src\main\java\org\apache\flume\channel\file\encryption\DecryptionFailureException.java,0,0,0,0
org.apache.flume.channel.file.encryption.EncryptionConfiguration, 0, 0, 0, 0, 0, 0, 0, 0, 0, 0, 0, 0, 0, 0,0.0,0.0,0.0,0.0,0.0,0.0,0.0,0.0,0.0,0.0,0.0,0.0,0.0,11,flume-ng-channels\flume-file-channel\src\main\java\org\apache\flume\channel\file\encryption\EncryptionConfiguration.java,0,0,0,0
org.apache.flume.channel.file.encryption.KeyProvider, 0, 0, 0, 0, 0, 0, 0, 0, 0, 0, 0, 0, 0, 0,0.0,0.0,0.0,0.3333333333333333,0.0,0.0,0.0,0.3333333333333333,0.0,0.0,0.0,0.0,0.0,6,flume-ng-channels\flume-file-channel\src\main\java\org\apache\flume\channel\file\encryption\KeyProvider.java,0,0,0,0
org.apache.flume.channel.file.encryption.KeyProviderFactory, 0, 0, 0, 0, 0, 0, 0, 0, 0, 0, 0, 0, 0, 0,0.0,0.0,0.0,0.3333333333333333,0.0,0.0,0.0,0.0,0.0,0.0,0.0,0.0,0.0,47,flume-ng-channels\flume-file-channel\src\main\java\org\apache\flume\channel\file\encryption\KeyProviderFactory.java,0,0,0,0
org.apache.flume.channel.file.encryption.TestAESCTRNoPaddingProvider, 0, 0, 0, 0, 0, 0, 0, 0, 0, 0, 0, 0, 0, 0,0.0,0.0,0.0,0.0,0.0,0.0,0.0,0.0,0.0,0.0,0.0,0.0,0.0,21,flume-ng-channels\flume-file-channel\src\test\java\org\apache\flume\channel\file\encryption\TestAESCTRNoPaddingProvider.java,0,0,0,0
org.apache.flume.channel.file.proto.ProtosFactory, 0, 0, 0, 1, 0, 0, 0, 0, 0, 0, 0, 0, 0, 1,0.0,0.0,0.0,0.0,0.0,0.0,0.0,0.0,0.0,0.0,0.0,0.0,0.0,5996,flume-ng-channels\flume-file-channel\src\main\java\org\apache\flume\channel\file\proto\ProtosFactory.java,0,0,0,0
org.apache.flume.channel.jdbc.ConfigurationConstants, 1, 0, 1, 1, 0, 0, 0, 0, 0, 0, 0, 0, 0, 3,0.0,0.0,0.0,0.0,0.0,0.0,0.0,0.0,0.0,0.0,0.0,0.0,0.0,52,flume-ng-channels\flume-jdbc-channel\src\main\java\org\apache\flume\channel\jdbc\ConfigurationConstants.java,0,0,0,0
org.apache.flume.channel.jdbc.JdbcChannel, 0, 0, 0, 0, 0, 0, 0, 0, 0, 0, 0, 0, 0, 0,0.0,0.0,0.0,0.0,0.0,0.0,0.0,0.0,0.0,0.0,0.0,0.0,0.0,32,flume-ng-channels\flume-jdbc-channel\src\main\java\org\apache\flume\channel\jdbc\JdbcChannel.java,0,0,0,0
org.apache.flume.channel.jdbc.JdbcChannelException, 0, 0, 0, 0, 0, 0, 0, 0, 0, 0, 0, 0, 0, 0,0.0,0.0,0.0,0.0,0.0,0.0,0.0,0.0,0.0,0.0,0.0,0.0,0.0,12,flume-ng-channels\flume-jdbc-channel\src\main\java\org\apache\flume\channel\jdbc\JdbcChannelException.java,0,0,0,0
org.apache.flume.channel.jdbc.JdbcChannelProvider, 0, 0, 0, 0, 0, 0, 0, 0, 0, 0, 0, 0, 0, 0,0.0,0.0,0.0,0.0,0.0,0.0,0.0,0.0,0.0,0.0,0.0,0.0,0.0,12,flume-ng-channels\flume-jdbc-channel\src\main\java\org\apache\flume\channel\jdbc\JdbcChannelProvider.java,0,0,0,0
org.apache.flume.channel.jdbc.JdbcChannelProviderFactory, 0, 0, 0, 0, 0, 0, 0, 0, 0, 0, 0, 0, 0, 0,0.0,0.0,0.0,0.0,0.0,0.0,0.0,0.0,0.0,0.0,0.0,0.0,0.0,28,flume-ng-channels\flume-jdbc-channel\src\main\java\org\apache\flume\channel\jdbc\JdbcChannelProviderFactory.java,0,0,0,0
org.apache.flume.channel.jdbc.TestDerbySchemaHandlerQueries, 0, 0, 0, 1, 0, 0, 0, 0, 0, 0, 0, 0, 0, 1,0.0,0.0,0.0,0.0,0.0,0.0,0.0,0.0,0.0,0.0,0.0,0.0,0.0,160,flume-ng-channels\flume-jdbc-channel\src\test\java\org\apache\flume\channel\jdbc\TestDerbySchemaHandlerQueries.java,0,0,0,0
org.apache.flume.channel.jdbc.TestJdbcChannelProvider, 0, 0, 0, 0, 0, 0, 0, 0, 0, 0, 0, 0, 0, 0,0.0,0.0,0.0,0.0,0.0,0.0,0.0,0.0,0.0,0.0,0.0,0.0,0.0,5,flume-ng-channels\flume-jdbc-channel\src\test\java\org\apache\flume\channel\jdbc\TestJdbcChannelProvider.java,0,0,0,0
org.apache.flume.channel.jdbc.TestJdbcChannelProviderNoFK, 0, 0, 0, 0, 0, 0, 0, 0, 0, 0, 0, 0, 0, 0,0.0,0.0,0.0,0.0,0.0,0.0,0.0,0.0,0.0,0.0,0.0,0.0,0.0,6,flume-ng-channels\flume-jdbc-channel\src\test\java\org\apache\flume\channel\jdbc\TestJdbcChannelProviderNoFK.java,0,0,0,0
org.apache.flume.channel.jdbc.impl.JdbcTransactionFactory, 0, 0, 0, 0, 0, 0, 0, 0, 0, 0, 0, 0, 0, 0,0.0,0.0,0.0,0.0,0.0,0.0,0.0,0.0,0.0,0.0,0.0,0.0,0.0,14,flume-ng-channels\flume-jdbc-channel\src\main\java\org\apache\flume\channel\jdbc\impl\JdbcTransactionFactory.java,0,0,0,0
org.apache.flume.channel.jdbc.impl.MySQLSchemaHandler, 0, 0, 0, 0, 0, 0, 0, 0, 0, 0, 0, 0, 0, 0,0.0,0.0,0.0,0.0,0.0,0.0,0.0,0.0,0.0,0.0,0.0,0.0,0.0,28,flume-ng-channels\flume-jdbc-channel\src\main\java\org\apache\flume\channel\jdbc\impl\MySQLSchemaHandler.java,0,0,0,0
org.apache.flume.channel.jdbc.impl.SchemaHandler, 0, 0, 0, 0, 0, 0, 0, 0, 0, 0, 0, 0, 0, 0,0.0,0.0,0.0,0.0,0.0,0.0,0.0,0.0,0.0,0.0,0.0,0.0,0.0,28,flume-ng-channels\flume-jdbc-channel\src\main\java\org\apache\flume\channel\jdbc\impl\SchemaHandler.java,0,0,0,0
org.apache.flume.channel.jdbc.impl.SchemaHandlerFactory, 0, 0, 0, 0, 0, 0, 0, 0, 0, 0, 0, 0, 0, 0,0.0,0.0,0.0,0.0,0.0,0.0,0.0,0.0,0.0,0.0,0.0,0.0,0.0,20,flume-ng-channels\flume-jdbc-channel\src\main\java\org\apache\flume\channel\jdbc\impl\SchemaHandlerFactory.java,0,0,0,0
org.apache.flume.client.avro.EventReader, 0, 0, 0, 0, 0, 0, 0, 0, 0, 0, 0, 0, 0, 0,0.0,0.0,0.0,0.0,0.0,0.0,0.0,0.0,0.0,0.0,0.0,0.0,0.0,20,flume-ng-core\src\main\java\org\apache\flume\client\avro\EventReader.java,0,0,0,0
org.apache.flume.client.avro.ReliableEventReader, 0, 0, 0, 0, 0, 0, 0, 0, 0, 0, 0, 0, 0, 0,0.0,0.0,0.0,0.0,0.0,0.0,0.0,0.0,0.0,0.0,0.0,0.0,0.0,20,flume-ng-core\src\main\java\org\apache\flume\client\avro\ReliableEventReader.java,0,0,0,0
org.apache.flume.client.avro.ReliableSpoolingFileEventReader, 0, 0, 0, 1, 0, 0, 0, 1, 0, 0, 0, 0, 0, 2,0.0,0.0,0.0,0.3333333333333333,0.0,0.0,0.0,0.0,0.0,0.0,0.0,0.0,0.0,430,flume-ng-core\src\main\java\org\apache\flume\client\avro\ReliableSpoolingFileEventReader.java,0,0,0,0
org.apache.flume.client.avro.SimpleTextLineEventReader, 0, 0, 0, 0, 0, 0, 0, 0, 0, 0, 0, 0, 0, 0,0.0,0.0,0.0,0.0,0.0,0.0,0.0,0.0,0.0,0.0,0.0,0.0,0.0,32,flume-ng-core\src\main\java\org\apache\flume\client\avro\SimpleTextLineEventReader.java,0,0,0,0
org.apache.flume.client.avro.TestBufferedLineReader, 0, 0, 0, 0, 0, 0, 0, 0, 0, 0, 0, 0, 0, 0,0.0,0.0,0.0,0.5,0.0,0.0,0.0,0.0,0.0,0.0,0.0,0.0,0.0,64,flume-ng-core\src\test\java\org\apache\flume\client\avro\TestBufferedLineReader.java,0,0,0,0
org.apache.flume.client.avro.TestSpoolingFileLineReader, 0, 0, 0, 1, 0, 0, 0, 0, 0, 0, 0, 0, 0, 1,0.0,0.0,0.0,0.5,0.0,0.0,0.0,0.5,0.0,0.0,0.0,0.0,0.0,427,flume-ng-core\src\test\java\org\apache\flume\client\avro\TestSpoolingFileLineReader.java,0,0,0,0
org.apache.flume.conf.BasicConfigurationConstants, 0, 0, 0, 0, 0, 0, 0, 0, 0, 0, 0, 0, 0, 0,0.0,0.0,0.0,0.0,0.0,0.0,0.0,0.0,0.0,0.0,0.0,0.0,0.0,17,flume-ng-configuration\src\main\java\org\apache\flume\conf\BasicConfigurationConstants.java,0,0,0,0
org.apache.flume.conf.ComponentConfigurationFactory, 0, 0, 0, 0, 0, 0, 0, 0, 0, 0, 0, 0, 0, 0,0.0,0.0,0.0,0.0,0.0,0.0,0.0,0.0,0.0,0.0,0.0,0.0,0.0,49,flume-ng-configuration\src\main\java\org\apache\flume\conf\ComponentConfigurationFactory.java,0,0,0,0
org.apache.flume.conf.Configurable, 0, 0, 0, 0, 0, 0, 0, 0, 0, 0, 0, 0, 0, 0,0.0,0.0,0.0,0.0,0.0,0.0,0.0,0.0,0.0,0.0,0.0,0.0,0.0,49,flume-ng-core\src\main\java\org\apache\flume\conf\Configurable.java,0,0,0,0
org.apache.flume.conf.ConfigurableComponent, 0, 0, 0, 0, 0, 0, 0, 0, 0, 0, 0, 0, 0, 0,0.0,0.0,0.0,0.0,0.0,0.0,0.0,0.0,0.0,0.0,0.0,0.0,0.0,49,flume-ng-core\src\main\java\org\apache\flume\conf\ConfigurableComponent.java,0,0,0,0
org.apache.flume.conf.Configurables, 0, 0, 0, 0, 0, 0, 0, 0, 0, 0, 0, 0, 0, 0,0.08333333333333333,0.0,0.08333333333333333,0.0,0.0,0.0,0.0,0.0,0.0,0.0,0.0,0.0,0.0,34,flume-ng-core\src\main\java\org\apache\flume\conf\Configurables.java,0,0,0,0
org.apache.flume.conf.ConfigurationException, 0, 0, 0, 0, 0, 0, 0, 0, 0, 0, 0, 0, 0, 0,0.0,0.0,0.0,0.0,0.0,0.0,0.0,0.0,0.0,0.0,0.0,0.0,0.0,12,flume-ng-configuration\src\main\java\org\apache\flume\conf\ConfigurationException.java,0,0,0,0
org.apache.flume.conf.FlumeConfigurationError, 0, 0, 0, 0, 0, 0, 0, 0, 0, 0, 0, 0, 0, 0,0.0,0.0,0.0,0.0,0.0,0.0,0.0,0.0,0.0,0.0,0.0,0.0,0.0,37,flume-ng-configuration\src\main\java\org\apache\flume\conf\FlumeConfigurationError.java,0,0,0,0
org.apache.flume.conf.channel.ChannelConfiguration, 0, 0, 0, 0, 0, 0, 0, 0, 0, 0, 0, 0, 0, 0,0.0,0.0,0.0,0.0,0.0,0.0,0.0,0.0,0.0,0.0,0.0,0.0,0.0,48,flume-ng-configuration\src\main\java\org\apache\flume\conf\channel\ChannelConfiguration.java,0,0,0,0
org.apache.flume.conf.channel.ChannelSelectorConfiguration, 0, 0, 0, 0, 0, 0, 0, 0, 0, 0, 0, 0, 0, 0,0.0,0.0,0.0,0.0,0.0,0.0,0.0,0.0,0.0,0.0,0.0,0.0,0.0,58,flume-ng-configuration\src\main\java\org\apache\flume\conf\channel\ChannelSelectorConfiguration.java,0,0,0,0
org.apache.flume.conf.sink.SinkProcessorConfiguration, 0, 0, 0, 0, 0, 0, 0, 0, 0, 0, 0, 0, 0, 0,0.0,0.0,0.0,0.0,0.0,0.0,0.0,0.0,0.0,0.0,0.0,0.0,0.0,50,flume-ng-configuration\src\main\java\org\apache\flume\conf\sink\SinkProcessorConfiguration.java,0,0,0,0
org.apache.flume.conf.source.TestSourceConfiguration, 0, 0, 0, 0, 0, 0, 0, 0, 0, 0, 0, 0, 0, 0,0.0,0.0,0.0,0.0,0.0,0.0,0.0,0.0,0.0,0.0,0.0,0.0,0.0,9,flume-ng-configuration\src\test\java\org\apache\flume\conf\source\TestSourceConfiguration.java,0,0,0,0
org.apache.flume.formatter.output.EventFormatter, 0, 0, 0, 0, 0, 0, 0, 0, 0, 0, 0, 0, 0, 0,0.0,0.0,0.0,0.0,0.0,0.0,0.0,0.0,0.0,0.0,0.0,0.0,0.0,9,flume-ng-core\src\main\java\org\apache\flume\formatter\output\EventFormatter.java,0,0,0,0
org.apache.flume.formatter.output.PathManager, 0, 0, 0, 0, 0, 0, 0, 0, 0, 0, 0, 0, 0, 0,0.0,0.0,0.0,0.0,0.0,0.0,0.0,0.0,0.0,0.0,0.0,0.0,0.0,36,flume-ng-core\src\main\java\org\apache\flume\formatter\output\PathManager.java,0,0,0,0
org.apache.flume.formatter.output.TextDelimitedOutputFormatter, 0, 0, 0, 0, 0, 0, 0, 0, 0, 0, 0, 0, 0, 0,0.0,0.0,0.0,0.0,0.0,0.0,0.0,0.0,0.0,0.0,0.0,0.0,0.0,7,flume-ng-core\src\main\java\org\apache\flume\formatter\output\TextDelimitedOutputFormatter.java,0,0,0,0
org.apache.flume.instrumentation.ChannelCounter, 0, 0, 0, 0, 0, 0, 0, 0, 0, 0, 0, 0, 0, 0,0.0,0.0,0.0,0.75,0.0,0.0,0.0,0.25,0.0,0.0,0.0,0.0,0.0,72,flume-ng-core\src\main\java\org\apache\flume\instrumentation\ChannelCounter.java,0,0,0,0
org.apache.flume.instrumentation.ChannelCounterMBean, 0, 0, 0, 0, 0, 0, 0, 0, 0, 0, 0, 0, 0, 0,0.0,0.0,0.0,0.0,0.0,0.0,0.0,0.0,0.0,0.0,0.0,0.0,0.0,72,flume-ng-core\src\main\java\org\apache\flume\instrumentation\ChannelCounterMBean.java,0,0,0,0
org.apache.flume.instrumentation.ChannelProcessorCounter, 0, 0, 0, 0, 0, 1, 0, 0, 0, 0, 0, 0, 0, 1,0.0,0.0,0.0,0.0,0.0,0.0,0.0,0.0,0.0,0.0,0.0,0.0,0.0,5,flume-ng-core\src\main\java\org\apache\flume\instrumentation\ChannelProcessorCounter.java,0,0,0,0
org.apache.flume.instrumentation.MonitorService, 0, 0, 0, 0, 0, 0, 0, 0, 0, 0, 0, 0, 0, 0,0.0,0.0,0.0,0.0,0.0,0.0,0.0,0.0,0.0,0.0,0.0,0.0,0.0,5,flume-ng-core\src\main\java\org\apache\flume\instrumentation\MonitorService.java,0,0,0,0
org.apache.flume.instrumentation.SinkCounter, 0, 0, 0, 1, 0, 0, 0, 0, 0, 0, 0, 0, 0, 1,0.0,0.0,0.0,0.4,0.0,0.0,0.0,0.4,0.0,0.0,0.0,0.0,0.0,90,flume-ng-core\src\main\java\org\apache\flume\instrumentation\SinkCounter.java,0,0,0,0
org.apache.flume.instrumentation.SinkCounterMBean, 0, 0, 0, 0, 0, 0, 0, 0, 0, 0, 0, 0, 0, 0,0.0,0.0,0.0,0.0,0.0,0.0,0.0,0.0,0.0,0.0,0.0,0.0,0.0,90,flume-ng-core\src\main\java\org\apache\flume\instrumentation\SinkCounterMBean.java,0,0,0,0
org.apache.flume.instrumentation.SinkProcessorCounter, 0, 0, 0, 0, 0, 1, 0, 0, 0, 0, 0, 0, 0, 1,0.0,0.0,0.0,0.0,0.0,0.0,0.0,0.0,0.0,0.0,0.0,0.0,0.0,5,flume-ng-core\src\main\java\org\apache\flume\instrumentation\SinkProcessorCounter.java,0,0,0,0
org.apache.flume.instrumentation.SourceCounter, 0, 0, 0, 1, 0, 0, 0, 0, 0, 0, 0, 0, 0, 1,0.16666666666666666,0.0,0.0,0.3333333333333333,0.0,0.0,0.0,0.16666666666666666,0.0,0.0,0.0,0.0,0.0,81,flume-ng-core\src\main\java\org\apache\flume\instrumentation\SourceCounter.java,0,0,0,0
org.apache.flume.instrumentation.SourceCounterMBean, 0, 0, 0, 0, 0, 0, 0, 0, 0, 0, 0, 0, 0, 0,0.0,0.0,0.0,0.0,0.0,0.0,0.0,0.0,0.0,0.0,0.0,0.0,0.0,81,flume-ng-core\src\main\java\org\apache\flume\instrumentation\SourceCounterMBean.java,0,0,0,0
org.apache.flume.instrumentation.TestMonitoredCounterGroup, 0, 0, 0, 1, 0, 0, 0, 1, 0, 0, 0, 0, 0, 2,0.0,0.0,0.0,0.6666666666666666,0.0,0.0,0.0,0.0,0.0,0.0,0.0,0.0,0.0,381,flume-ng-core\src\test\java\org\apache\flume\instrumentation\TestMonitoredCounterGroup.java,0,0,0,0
org.apache.flume.interceptor.Interceptor, 0, 0, 0, 0, 0, 0, 0, 0, 0, 0, 0, 0, 0, 0,0.0,0.0,0.0,0.0,0.0,0.0,0.0,0.0,0.0,0.0,0.0,0.0,0.0,381,flume-ng-core\src\main\java\org\apache\flume\interceptor\Interceptor.java,0,0,0,0
org.apache.flume.interceptor.InterceptorBuilderFactory, 0, 0, 0, 0, 0, 0, 0, 0, 0, 0, 0, 0, 0, 0,0.0,0.0,0.0,0.0,0.0,0.0,0.0,0.0,0.0,0.0,0.0,0.0,0.0,18,flume-ng-core\src\main\java\org\apache\flume\interceptor\InterceptorBuilderFactory.java,0,0,0,0
org.apache.flume.interceptor.InterceptorChain, 0, 0, 0, 0, 0, 0, 0, 0, 0, 0, 0, 0, 0, 0,0.0,0.0,0.0,0.0,0.0,0.0,0.0,0.0,0.0,0.0,0.0,0.0,0.0,47,flume-ng-core\src\main\java\org\apache\flume\interceptor\InterceptorChain.java,0,0,0,0
org.apache.flume.interceptor.RegexExtractorInterceptorMillisSerializer, 0, 0, 0, 0, 0, 0, 0, 0, 0, 0, 0, 0, 0, 0,0.0,0.0,0.0,0.0,0.0,0.0,0.0,0.0,0.0,0.0,0.0,0.0,0.0,19,flume-ng-core\src\main\java\org\apache\flume\interceptor\RegexExtractorInterceptorMillisSerializer.java,0,0,0,0
org.apache.flume.interceptor.RegexExtractorInterceptorPassThroughSerializer, 0, 0, 0, 0, 0, 0, 0, 0, 0, 0, 0, 0, 0, 0,0.0,0.0,0.0,0.0,0.0,0.0,0.0,0.0,0.0,0.0,0.0,0.0,0.0,13,flume-ng-core\src\main\java\org\apache\flume\interceptor\RegexExtractorInterceptorPassThroughSerializer.java,0,0,0,0
org.apache.flume.interceptor.RegexExtractorInterceptorSerializer, 0, 0, 0, 0, 0, 0, 0, 0, 0, 0, 0, 0, 0, 0,0.0,0.0,0.0,0.0,0.0,0.0,0.0,0.0,0.0,0.0,0.0,0.0,0.0,13,flume-ng-core\src\main\java\org\apache\flume\interceptor\RegexExtractorInterceptorSerializer.java,0,0,0,0
org.apache.flume.interceptor.RegexFilteringInterceptor, 0, 0, 0, 0, 0, 0, 0, 0, 0, 0, 0, 0, 0, 0,0.0,0.0,0.0,0.0,0.0,0.0,0.0,0.0,0.0,0.0,0.0,0.0,0.0,67,flume-ng-core\src\main\java\org\apache\flume\interceptor\RegexFilteringInterceptor.java,0,0,0,0
org.apache.flume.interceptor.TestHostInterceptor, 0, 0, 0, 0, 0, 0, 0, 0, 0, 0, 0, 0, 0, 0,0.0,0.0,0.0,0.0,0.0,0.0,0.0,0.0,0.0,0.0,0.0,0.0,0.0,112,flume-ng-core\src\test\java\org\apache\flume\interceptor\TestHostInterceptor.java,0,0,0,0
org.apache.flume.interceptor.TestRegexExtractorInterceptor, 0, 0, 0, 0, 0, 0, 0, 0, 0, 0, 0, 0, 0, 0,0.0,0.0,0.0,0.0,0.0,0.0,0.0,0.0,0.0,0.0,0.0,0.0,0.0,130,flume-ng-core\src\test\java\org\apache\flume\interceptor\TestRegexExtractorInterceptor.java,0,0,0,0
org.apache.flume.interceptor.TestRegexExtractorInterceptorMillisSerializer, 0, 0, 0, 0, 0, 0, 0, 0, 0, 0, 0, 0, 0, 0,0.0,0.0,0.0,0.0,0.0,0.0,0.0,0.0,0.0,0.0,0.0,0.0,0.0,34,flume-ng-core\src\test\java\org\apache\flume\interceptor\TestRegexExtractorInterceptorMillisSerializer.java,0,0,0,0
org.apache.flume.interceptor.TestRegexExtractorInterceptorPassThroughSerializer, 0, 0, 0, 0, 0, 0, 0, 0, 0, 0, 0, 0, 0, 0,0.0,0.0,0.0,0.0,0.0,0.0,0.0,0.0,0.0,0.0,0.0,0.0,0.0,9,flume-ng-core\src\test\java\org\apache\flume\interceptor\TestRegexExtractorInterceptorPassThroughSerializer.java,0,0,0,0
org.apache.flume.interceptor.TestRegexFilteringInterceptor, 0, 0, 0, 0, 0, 0, 0, 0, 0, 0, 0, 0, 0, 0,0.0,0.0,0.0,0.0,0.0,0.0,0.0,0.0,0.0,0.0,0.0,0.0,0.0,55,flume-ng-core\src\test\java\org\apache\flume\interceptor\TestRegexFilteringInterceptor.java,0,0,0,0
org.apache.flume.interceptor.TestStaticInterceptor, 0, 0, 0, 0, 0, 0, 0, 0, 0, 0, 0, 0, 0, 0,0.0,0.0,0.0,0.0,0.0,0.0,0.0,0.0,0.0,0.0,0.0,0.0,0.0,68,flume-ng-core\src\test\java\org\apache\flume\interceptor\TestStaticInterceptor.java,0,0,0,0
org.apache.flume.interceptor.TestTimestampInterceptor, 0, 0, 0, 0, 0, 0, 0, 0, 0, 0, 0, 0, 0, 0,0.0,0.0,0.0,0.0,0.0,0.0,0.0,0.0,0.0,0.0,0.0,0.0,0.0,59,flume-ng-core\src\test\java\org\apache\flume\interceptor\TestTimestampInterceptor.java,0,0,0,0
org.apache.flume.lifecycle.LifecycleAware, 0, 0, 0, 0, 0, 0, 0, 0, 0, 0, 0, 0, 0, 0,0.0,0.0,0.0,0.0,0.0,0.0,0.0,0.0,0.0,0.0,0.0,0.0,0.0,59,flume-ng-core\src\main\java\org\apache\flume\lifecycle\LifecycleAware.java,0,0,0,0
org.apache.flume.lifecycle.LifecycleController, 0, 0, 0, 0, 0, 0, 0, 0, 0, 0, 0, 0, 0, 0,0.3333333333333333,0.0,0.0,0.0,0.0,0.0,0.0,0.0,0.0,0.0,0.0,0.0,0.0,44,flume-ng-core\src\main\java\org\apache\flume\lifecycle\LifecycleController.java,0,0,0,0
org.apache.flume.lifecycle.LifecycleException, 0, 0, 0, 0, 0, 0, 0, 0, 0, 0, 0, 0, 0, 0,0.0,0.0,0.0,0.0,0.0,0.0,0.0,0.0,0.0,0.0,0.0,0.0,0.0,15,flume-ng-core\src\main\java\org\apache\flume\lifecycle\LifecycleException.java,0,0,0,0
org.apache.flume.lifecycle.TestLifecycleController, 0, 0, 0, 0, 0, 0, 0, 0, 0, 0, 0, 0, 0, 0,0.0,0.0,0.0,0.0,0.0,0.0,0.0,0.0,0.0,0.0,0.0,0.0,0.0,69,flume-ng-core\src\test\java\org\apache\flume\lifecycle\TestLifecycleController.java,0,0,0,0
org.apache.flume.lifecycle.TestLifecycleSupervisor, 0, 0, 0, 0, 0, 0, 0, 0, 0, 0, 0, 0, 0, 0,0.0,0.0,0.0,0.0,0.0,0.0,0.0,0.0,0.0,0.0,0.0,0.0,0.0,110,flume-ng-core\src\test\java\org\apache\flume\lifecycle\TestLifecycleSupervisor.java,0,0,0,0
org.apache.flume.node.ConfigurationProvider, 0, 0, 0, 0, 0, 0, 0, 0, 0, 0, 0, 0, 0, 0,0.0,0.0,0.0,0.0,0.0,0.0,0.0,0.0,0.0,0.0,0.0,0.0,0.0,110,flume-ng-node\src\main\java\org\apache\flume\node\ConfigurationProvider.java,0,0,0,0
org.apache.flume.node.MaterializedConfiguration, 0, 0, 0, 0, 0, 0, 0, 0, 0, 0, 0, 0, 0, 0,0.0,0.0,0.0,0.0,0.0,0.0,0.0,0.0,0.0,0.0,0.0,0.0,0.0,110,flume-ng-node\src\main\java\org\apache\flume\node\MaterializedConfiguration.java,0,0,0,0
org.apache.flume.node.PollingPropertiesFileConfigurationProvider, 0, 0, 0, 0, 0, 0, 0, 0, 0, 0, 0, 0, 0, 0,0.0,0.0,0.0,0.0,0.0,0.0,0.0,0.0,0.0,0.0,0.0,0.0,0.0,92,flume-ng-node\src\main\java\org\apache\flume\node\PollingPropertiesFileConfigurationProvider.java,0,0,0,0
org.apache.flume.node.TestApplication, 0, 0, 0, 0, 0, 0, 0, 0, 0, 0, 0, 0, 0, 0,0.0,0.0,0.0,0.0,0.0,0.0,0.0,0.0,0.0,0.0,0.0,0.0,0.0,86,flume-ng-node\src\test\java\org\apache\flume\node\TestApplication.java,0,0,0,0
org.apache.flume.node.TestPollingPropertiesFileConfigurationProvider, 0, 0, 0, 0, 0, 0, 0, 0, 0, 0, 0, 0, 0, 0,0.0,0.0,0.0,0.0,0.0,0.0,0.0,0.0,0.0,0.0,0.0,0.0,0.0,45,flume-ng-node\src\test\java\org\apache\flume\node\TestPollingPropertiesFileConfigurationProvider.java,0,0,0,0
org.apache.flume.serialization.AbstractAvroEventSerializer, 0, 0, 0, 0, 0, 0, 0, 0, 0, 0, 0, 0, 0, 0,0.0,0.0,0.0,0.0,0.0,0.0,0.0,0.0,0.0,0.0,0.0,0.0,0.0,51,flume-ng-core\src\main\java\org\apache\flume\serialization\AbstractAvroEventSerializer.java,0,0,0,0
org.apache.flume.serialization.AvroEventDeserializer, 0, 0, 0, 0, 0, 0, 0, 0, 0, 0, 0, 0, 0, 0,0.0,0.0,0.0,0.0,0.0,0.0,0.0,0.0,0.0,0.0,0.0,0.0,0.0,141,flume-ng-core\src\main\java\org\apache\flume\serialization\AvroEventDeserializer.java,0,0,0,0
org.apache.flume.serialization.AvroEventSerializerConfigurationConstants, 0, 0, 0, 0, 0, 0, 0, 0, 0, 0, 0, 0, 0, 0,0.0,0.0,0.0,0.0,0.0,0.0,0.0,0.0,0.0,0.0,0.0,0.0,0.0,6,flume-ng-core\src\main\java\org\apache\flume\serialization\AvroEventSerializerConfigurationConstants.java,0,0,0,0
org.apache.flume.serialization.BodyTextEventSerializer, 0, 0, 0, 0, 0, 0, 0, 0, 0, 0, 0, 0, 0, 0,0.0,0.0,0.0,0.0,0.0,0.0,0.0,0.0,0.0,0.0,0.0,0.0,0.0,42,flume-ng-core\src\main\java\org\apache\flume\serialization\BodyTextEventSerializer.java,0,0,0,0
org.apache.flume.serialization.DurablePositionTracker, 0, 0, 0, 0, 0, 0, 0, 0, 0, 0, 0, 0, 0, 0,0.0,0.0,0.0,0.3333333333333333,0.0,0.0,0.0,0.3333333333333333,0.0,0.0,0.0,0.0,0.0,97,flume-ng-core\src\main\java\org\apache\flume\serialization\DurablePositionTracker.java,0,0,0,0
org.apache.flume.serialization.EventDeserializer, 0, 0, 0, 0, 0, 0, 0, 0, 0, 0, 0, 0, 0, 0,0.0,0.0,0.0,0.0,0.0,0.0,0.0,0.0,0.0,0.0,0.0,0.0,0.0,97,flume-ng-core\src\main\java\org\apache\flume\serialization\EventDeserializer.java,0,0,0,0
org.apache.flume.serialization.EventDeserializerFactory, 0, 0, 0, 0, 0, 0, 0, 0, 0, 0, 0, 0, 0, 0,0.0,0.0,0.0,0.3333333333333333,0.0,0.0,0.0,0.3333333333333333,0.0,0.0,0.0,0.0,0.0,47,flume-ng-core\src\main\java\org\apache\flume\serialization\EventDeserializerFactory.java,0,0,0,0
org.apache.flume.serialization.EventSerDe, 0, 0, 0, 0, 0, 0, 0, 0, 0, 0, 0, 0, 0, 0,0.0,0.0,0.0,0.0,0.0,0.0,0.0,0.0,0.0,0.0,0.0,0.0,0.0,47,flume-ng-core\src\main\java\org\apache\flume\serialization\EventSerDe.java,0,0,0,0
org.apache.flume.serialization.EventSerializer, 0, 0, 0, 0, 0, 0, 0, 0, 0, 0, 0, 0, 0, 0,0.0,0.0,0.0,0.0,0.0,0.0,0.0,0.0,0.0,0.0,0.0,0.0,0.0,47,flume-ng-core\src\main\java\org\apache\flume\serialization\EventSerializer.java,0,0,0,0
org.apache.flume.serialization.EventSerializerFactory, 0, 0, 0, 0, 0, 0, 0, 0, 0, 0, 0, 0, 0, 0,0.0,0.0,0.0,0.0,0.0,0.0,0.0,0.0,0.0,0.0,0.0,0.0,0.0,47,flume-ng-core\src\main\java\org\apache\flume\serialization\EventSerializerFactory.java,0,0,0,0
org.apache.flume.serialization.FlumeEventAvroEventSerializer, 0, 0, 0, 0, 0, 0, 0, 0, 0, 0, 0, 0, 0, 0,0.0,0.0,0.0,0.0,0.0,0.0,0.0,0.0,0.0,0.0,0.0,0.0,0.0,30,flume-ng-core\src\main\java\org\apache\flume\serialization\FlumeEventAvroEventSerializer.java,0,0,0,0
org.apache.flume.serialization.HeaderAndBodyTextEventSerializer, 0, 0, 0, 0, 0, 0, 0, 0, 0, 0, 0, 0, 0, 0,0.0,0.0,0.0,0.0,0.0,0.0,0.0,0.0,0.0,0.0,0.0,0.0,0.0,43,flume-ng-core\src\main\java\org\apache\flume\serialization\HeaderAndBodyTextEventSerializer.java,0,0,0,0
org.apache.flume.serialization.LengthMeasurable, 0, 0, 0, 0, 0, 0, 0, 0, 0, 0, 0, 0, 0, 0,0.0,0.0,0.0,0.0,0.0,0.0,0.0,0.0,0.0,0.0,0.0,0.0,0.0,43,flume-ng-core\src\main\java\org\apache\flume\serialization\LengthMeasurable.java,0,0,0,0
org.apache.flume.serialization.PositionTracker, 0, 0, 0, 0, 0, 0, 0, 0, 0, 0, 0, 0, 0, 0,0.0,0.0,0.0,0.0,0.0,0.0,0.0,0.0,0.0,0.0,0.0,0.0,0.0,43,flume-ng-core\src\main\java\org\apache\flume\serialization\PositionTracker.java,0,0,0,0
org.apache.flume.serialization.RemoteMarkable, 0, 0, 0, 0, 0, 0, 0, 0, 0, 0, 0, 0, 0, 0,0.0,0.0,0.0,0.0,0.0,0.0,0.0,0.0,0.0,0.0,0.0,0.0,0.0,43,flume-ng-core\src\main\java\org\apache\flume\serialization\RemoteMarkable.java,0,0,0,0
org.apache.flume.serialization.Resettable, 0, 0, 0, 0, 0, 0, 0, 0, 0, 0, 0, 0, 0, 0,0.0,0.0,0.0,0.0,0.0,0.0,0.0,0.0,0.0,0.0,0.0,0.0,0.0,43,flume-ng-core\src\main\java\org\apache\flume\serialization\Resettable.java,0,0,0,0
org.apache.flume.serialization.ResettableInputStream, 0, 0, 0, 0, 0, 0, 0, 0, 0, 0, 0, 0, 0, 0,0.0,0.0,0.0,0.0,0.0,0.0,0.0,0.0,0.0,0.0,0.0,0.0,0.0,16,flume-ng-core\src\main\java\org\apache\flume\serialization\ResettableInputStream.java,0,0,0,0
org.apache.flume.serialization.ResettableTestStringInputStream, 0, 0, 0, 0, 0, 0, 0, 0, 0, 0, 0, 0, 0, 0,0.0,0.0,0.0,0.0,0.0,0.0,0.0,0.0,0.0,0.0,0.0,0.0,0.0,44,flume-ng-core\src\test\java\org\apache\flume\serialization\ResettableTestStringInputStream.java,0,0,0,0
org.apache.flume.serialization.Seekable, 0, 0, 0, 0, 0, 0, 0, 0, 0, 0, 0, 0, 0, 0,0.0,0.0,0.0,0.0,0.0,0.0,0.0,0.0,0.0,0.0,0.0,0.0,0.0,44,flume-ng-core\src\main\java\org\apache\flume\serialization\Seekable.java,0,0,0,0
org.apache.flume.serialization.TestAvroEventDeserializer, 0, 0, 0, 0, 0, 0, 0, 0, 0, 0, 0, 0, 0, 0,0.0,0.0,0.0,0.0,0.0,0.0,0.0,0.0,0.0,0.0,0.0,0.0,0.0,103,flume-ng-core\src\test\java\org\apache\flume\serialization\TestAvroEventDeserializer.java,0,0,0,0
org.apache.flume.serialization.TestBodyTextEventSerializer, 0, 0, 0, 0, 0, 0, 0, 0, 0, 0, 0, 0, 0, 0,0.0,0.0,0.0,0.0,0.0,0.0,0.0,0.0,0.0,0.0,0.0,0.0,0.0,48,flume-ng-core\src\test\java\org\apache\flume\serialization\TestBodyTextEventSerializer.java,0,0,0,0
org.apache.flume.serialization.TestDurablePositionTracker, 0, 0, 0, 0, 0, 0, 0, 0, 0, 0, 0, 0, 0, 0,0.0,0.0,0.0,0.0,0.0,0.0,0.0,0.0,0.0,0.0,0.0,0.0,0.0,39,flume-ng-core\src\test\java\org\apache\flume\serialization\TestDurablePositionTracker.java,0,0,0,0
org.apache.flume.serialization.TestSyslogAvroEventSerializer, 0, 0, 0, 0, 0, 0, 0, 0, 0, 0, 0, 0, 0, 0,0.0,0.0,0.0,0.0,0.0,0.0,0.0,0.0,0.0,0.0,0.0,0.0,0.0,59,flume-ng-core\src\test\java\org\apache\flume\serialization\TestSyslogAvroEventSerializer.java,0,0,0,0
org.apache.flume.serialization.TransientPositionTracker, 0, 0, 0, 0, 0, 0, 0, 0, 0, 0, 0, 0, 0, 0,0.0,0.0,0.0,0.0,0.0,0.0,0.0,0.0,0.0,0.0,0.0,0.0,0.0,22,flume-ng-core\src\test\java\org\apache\flume\serialization\TransientPositionTracker.java,0,0,0,0
org.apache.flume.sink.AbstractSink, 0, 0, 0, 0, 0, 0, 0, 0, 0, 0, 0, 0, 0, 0,0.0,0.0,0.0,0.0,0.0,0.0,0.0,0.0,0.0,0.0,0.0,0.0,0.0,40,flume-ng-core\src\main\java\org\apache\flume\sink\AbstractSink.java,0,0,0,0
org.apache.flume.sink.AbstractSinkProcessor, 0, 0, 0, 0, 0, 0, 0, 0, 0, 0, 0, 0, 0, 0,0.0,0.0,0.0,0.0,0.0,0.0,0.0,0.0,0.0,0.0,0.0,0.0,0.0,31,flume-ng-core\src\main\java\org\apache\flume\sink\AbstractSinkProcessor.java,0,0,0,0
org.apache.flume.sink.AbstractSinkSelector, 0, 0, 0, 0, 0, 0, 0, 0, 0, 0, 0, 0, 0, 0,0.0,0.0,0.0,0.0,0.0,0.0,0.0,0.0,0.0,0.0,0.0,0.0,0.0,35,flume-ng-core\src\main\java\org\apache\flume\sink\AbstractSinkSelector.java,0,0,0,0
org.apache.flume.sink.AvroSink, 0, 0, 0, 0, 0, 0, 0, 0, 0, 0, 0, 0, 0, 0,0.0,0.0,0.0,0.0,0.0,0.0,0.0,0.0,0.0,0.0,0.0,0.0,0.0,8,flume-ng-core\src\main\java\org\apache\flume\sink\AvroSink.java,0,0,0,0
org.apache.flume.sink.DefaultSinkFactory, 0, 0, 0, 0, 0, 0, 0, 0, 0, 0, 0, 0, 0, 0,0.0,0.0,0.0,0.0,0.0,0.0,0.0,0.0,0.0,0.0,0.0,0.0,0.0,40,flume-ng-core\src\main\java\org\apache\flume\sink\DefaultSinkFactory.java,0,0,0,0
org.apache.flume.sink.DefaultSinkProcessor, 0, 0, 0, 0, 0, 0, 0, 0, 0, 0, 0, 0, 0, 0,0.0,0.0,0.0,0.0,0.0,0.0,0.0,0.0,0.0,0.0,0.0,0.0,0.0,39,flume-ng-core\src\main\java\org\apache\flume\sink\DefaultSinkProcessor.java,0,0,0,0
org.apache.flume.sink.FixedOrderSelector, 0, 0, 0, 0, 0, 0, 0, 0, 0, 0, 0, 0, 0, 0,0.0,0.0,0.0,0.0,0.0,0.0,0.0,0.0,0.0,0.0,0.0,0.0,0.0,14,flume-ng-core\src\test\java\org\apache\flume\sink\FixedOrderSelector.java,0,0,0,0
org.apache.flume.sink.LoadBalancingSinkProcessor, 0, 0, 0, 0, 0, 0, 0, 0, 0, 0, 0, 0, 0, 0,0.0,0.0,0.0,0.0,0.0,0.0,0.0,0.0,0.0,0.0,0.0,0.0,0.0,126,flume-ng-core\src\main\java\org\apache\flume\sink\LoadBalancingSinkProcessor.java,0,0,0,0
org.apache.flume.sink.LoggerSink, 0, 0, 0, 0, 0, 0, 0, 0, 0, 0, 0, 0, 0, 0,0.0,0.0,0.0,0.0,0.0,0.0,0.0,0.0,0.0,0.0,0.0,0.0,0.0,29,flume-ng-core\src\main\java\org\apache\flume\sink\LoggerSink.java,0,0,0,0
org.apache.flume.sink.NullSink, 0, 0, 0, 0, 0, 0, 0, 0, 0, 0, 0, 0, 0, 0,0.0,0.0,0.0,0.0,0.0,0.0,0.0,0.0,0.0,0.0,0.0,0.0,0.0,73,flume-ng-core\src\main\java\org\apache\flume\sink\NullSink.java,0,0,0,0
org.apache.flume.sink.RollingFileSink, 0, 0, 0, 0, 0, 0, 0, 0, 0, 0, 0, 0, 0, 0,0.0,0.0,0.0,0.16666666666666666,0.0,0.0,0.0,0.0,0.0,0.0,0.0,0.0,0.0,184,flume-ng-core\src\main\java\org\apache\flume\sink\RollingFileSink.java,0,0,0,0
org.apache.flume.sink.SinkProcessorFactoryTest, 0, 0, 0, 0, 0, 0, 0, 0, 0, 0, 0, 0, 0, 0,0.0,0.0,0.0,0.0,0.0,0.0,0.0,0.0,0.0,0.0,0.0,0.0,0.0,31,flume-ng-core\src\test\java\org\apache\flume\sink\SinkProcessorFactoryTest.java,0,0,0,0
org.apache.flume.sink.TestDefaultSinkFactory, 0, 0, 0, 0, 0, 0, 0, 0, 0, 0, 0, 0, 0, 0,0.0,0.0,0.0,0.0,0.0,0.0,0.0,0.0,0.0,0.0,0.0,0.0,0.0,34,flume-ng-core\src\test\java\org\apache\flume\sink\TestDefaultSinkFactory.java,0,0,0,0
org.apache.flume.sink.TestLoggerSink, 0, 0, 0, 0, 0, 0, 0, 0, 0, 0, 0, 0, 0, 0,0.0,0.0,0.0,0.0,0.0,0.0,0.0,0.0,0.0,0.0,0.0,0.0,0.0,23,flume-ng-core\src\test\java\org\apache\flume\sink\TestLoggerSink.java,0,0,0,0
org.apache.flume.sink.TestRollingFileSink, 0, 0, 0, 0, 0, 0, 0, 0, 0, 0, 0, 0, 0, 0,0.0,0.0,0.0,0.25,0.0,0.0,0.0,0.0,0.0,0.0,0.0,0.0,0.0,90,flume-ng-core\src\test\java\org\apache\flume\sink\TestRollingFileSink.java,0,0,0,0
org.apache.flume.sink.TestThriftSink, 0, 0, 0, 0, 0, 0, 0, 0, 0, 0, 0, 0, 0, 0,0.0,0.0,0.16666666666666666,0.16666666666666666,0.0,0.0,0.0,0.0,0.0,0.0,0.0,0.0,0.0,121,flume-ng-core\src\test\java\org\apache\flume\sink\TestThriftSink.java,0,0,0,0
org.apache.flume.sink.elasticsearch.ContentBuilderUtil, 0, 0, 0, 0, 0, 0, 0, 0, 0, 0, 0, 0, 0, 0,0.0,0.0,0.0,0.0,0.0,0.0,0.0,0.0,0.0,0.0,0.0,0.0,0.0,35,flume-ng-sinks\flume-ng-elasticsearch-sink\src\main\java\org\apache\flume\sink\elasticsearch\ContentBuilderUtil.java,0,0,0,0
org.apache.flume.sink.elasticsearch.ElasticSearchEventSerializer, 0, 0, 0, 0, 0, 0, 0, 0, 0, 0, 0, 0, 0, 0,0.0,0.0,0.0,0.0,0.0,0.0,0.0,0.0,0.0,0.0,0.0,0.0,0.0,35,flume-ng-sinks\flume-ng-elasticsearch-sink\src\main\java\org\apache\flume\sink\elasticsearch\ElasticSearchEventSerializer.java,0,0,0,0
org.apache.flume.sink.elasticsearch.ElasticSearchIndexRequestBuilderFactory, 0, 0, 0, 0, 0, 0, 0, 0, 0, 0, 0, 0, 0, 0,0.0,0.0,0.0,0.0,0.0,0.0,0.0,0.0,0.0,0.0,0.0,0.0,0.0,35,flume-ng-sinks\flume-ng-elasticsearch-sink\src\main\java\org\apache\flume\sink\elasticsearch\ElasticSearchIndexRequestBuilderFactory.java,0,0,0,0
org.apache.flume.sink.elasticsearch.ElasticSearchSinkConstants, 0, 0, 0, 0, 0, 0, 0, 0, 0, 0, 0, 0, 0, 0,0.0,0.0,0.0,0.0,0.0,0.0,0.0,0.0,0.0,0.0,0.0,0.0,0.0,26,flume-ng-sinks\flume-ng-elasticsearch-sink\src\main\java\org\apache\flume\sink\elasticsearch\ElasticSearchSinkConstants.java,0,0,0,0
org.apache.flume.sink.elasticsearch.EventSerializerIndexRequestBuilderFactory, 0, 0, 0, 0, 0, 0, 0, 0, 0, 0, 0, 0, 0, 0,0.0,0.0,0.0,0.0,0.0,0.0,0.0,0.0,0.0,0.0,0.0,0.0,0.0,29,flume-ng-sinks\flume-ng-elasticsearch-sink\src\main\java\org\apache\flume\sink\elasticsearch\EventSerializerIndexRequestBuilderFactory.java,0,0,0,0
org.apache.flume.sink.elasticsearch.IndexNameBuilder, 0, 0, 0, 0, 0, 0, 0, 0, 0, 0, 0, 0, 0, 0,0.0,0.0,0.0,0.0,0.0,0.0,0.0,0.0,0.0,0.0,0.0,0.0,0.0,29,flume-ng-sinks\flume-ng-elasticsearch-sink\src\main\java\org\apache\flume\sink\elasticsearch\IndexNameBuilder.java,0,0,0,0
org.apache.flume.sink.elasticsearch.SimpleIndexNameBuilder, 0, 0, 0, 0, 0, 0, 0, 0, 0, 0, 0, 0, 0, 0,0.0,0.0,0.0,0.0,0.0,0.0,0.0,0.0,0.0,0.0,0.0,0.0,0.0,18,flume-ng-sinks\flume-ng-elasticsearch-sink\src\main\java\org\apache\flume\sink\elasticsearch\SimpleIndexNameBuilder.java,0,0,0,0
org.apache.flume.sink.elasticsearch.TestElasticSearchSinkCreation, 0, 0, 0, 0, 0, 0, 0, 0, 0, 0, 0, 0, 0, 0,0.0,0.0,0.0,0.0,0.0,0.0,0.0,0.0,0.0,0.0,0.0,0.0,0.0,17,flume-ng-sinks\flume-ng-elasticsearch-sink\src\test\java\org\apache\flume\sink\elasticsearch\TestElasticSearchSinkCreation.java,0,0,0,0
org.apache.flume.sink.elasticsearch.client.ElasticSearchClient, 0, 0, 0, 0, 0, 0, 0, 0, 0, 0, 0, 0, 0, 0,0.0,0.0,0.0,0.0,0.0,0.0,0.0,0.0,0.0,0.0,0.0,0.0,0.0,17,flume-ng-sinks\flume-ng-elasticsearch-sink\src\main\java\org\apache\flume\sink\elasticsearch\client\ElasticSearchClient.java,0,0,0,0
org.apache.flume.sink.elasticsearch.client.ElasticSearchClientFactory, 0, 0, 0, 0, 0, 0, 0, 1, 0, 0, 0, 0, 0, 1,0.0,0.0,0.0,0.0,0.0,0.0,0.0,0.0,0.0,0.0,0.0,0.0,0.0,26,flume-ng-sinks\flume-ng-elasticsearch-sink\src\main\java\org\apache\flume\sink\elasticsearch\client\ElasticSearchClientFactory.java,0,0,0,0
org.apache.flume.sink.elasticsearch.client.ElasticSearchTransportClient, 0, 0, 0, 0, 0, 0, 0, 0, 0, 0, 0, 0, 0, 0,0.0,0.0,0.0,0.0,0.0,0.0,0.0,0.5,0.0,0.0,0.0,0.0,0.0,122,flume-ng-sinks\flume-ng-elasticsearch-sink\src\main\java\org\apache\flume\sink\elasticsearch\client\ElasticSearchTransportClient.java,0,0,0,0
org.apache.flume.sink.elasticsearch.client.NoSuchClientTypeException, 0, 0, 0, 0, 0, 1, 0, 0, 0, 0, 0, 0, 0, 1,0.0,0.0,0.0,0.0,0.0,0.0,0.0,0.0,0.0,0.0,0.0,0.0,0.0,2,flume-ng-sinks\flume-ng-elasticsearch-sink\src\main\java\org\apache\flume\sink\elasticsearch\client\NoSuchClientTypeException.java,0,0,0,0
org.apache.flume.sink.elasticsearch.client.RoundRobinList, 0, 0, 0, 0, 0, 0, 0, 0, 0, 0, 0, 0, 0, 0,0.0,0.0,0.0,0.0,0.0,0.0,0.0,0.0,0.0,0.0,0.0,0.0,0.0,19,flume-ng-sinks\flume-ng-elasticsearch-sink\src\main\java\org\apache\flume\sink\elasticsearch\client\RoundRobinList.java,0,0,0,0
org.apache.flume.sink.elasticsearch.client.RoundRobinListTest, 0, 0, 0, 0, 0, 0, 0, 0, 0, 0, 0, 0, 0, 0,0.0,0.0,0.0,0.0,0.0,0.0,0.0,0.0,0.0,0.0,0.0,0.0,0.0,15,flume-ng-sinks\flume-ng-elasticsearch-sink\src\test\java\org\apache\flume\sink\elasticsearch\client\RoundRobinListTest.java,0,0,0,0
org.apache.flume.sink.elasticsearch.client.TestElasticSearchClientFactory, 0, 0, 0, 0, 0, 0, 0, 0, 0, 0, 0, 0, 0, 0,0.0,0.0,0.0,0.0,0.0,0.0,0.0,1.0,0.0,0.0,0.0,0.0,0.0,29,flume-ng-sinks\flume-ng-elasticsearch-sink\src\test\java\org\apache\flume\sink\elasticsearch\client\TestElasticSearchClientFactory.java,0,0,0,0
org.apache.flume.sink.elasticsearch.client.TestElasticSearchRestClient, 0, 0, 0, 0, 0, 0, 0, 0, 0, 0, 0, 0, 0, 0,0.0,0.0,0.0,0.0,0.0,0.0,0.0,0.0,0.0,0.0,0.0,0.0,0.0,82,flume-ng-sinks\flume-ng-elasticsearch-sink\src\test\java\org\apache\flume\sink\elasticsearch\client\TestElasticSearchRestClient.java,0,0,0,0
org.apache.flume.sink.elasticsearch.client.TestElasticSearchTransportClient, 0, 0, 0, 0, 0, 0, 0, 0, 0, 0, 0, 0, 0, 0,0.0,0.0,0.0,0.0,0.0,0.0,0.0,0.0,0.0,0.0,0.0,0.0,0.0,69,flume-ng-sinks\flume-ng-elasticsearch-sink\src\test\java\org\apache\flume\sink\elasticsearch\client\TestElasticSearchTransportClient.java,0,0,0,0
org.apache.flume.sink.hbase.AsyncHbaseEventSerializer, 0, 0, 0, 0, 0, 0, 0, 0, 0, 0, 0, 0, 0, 0,0.0,0.0,0.0,0.0,0.0,0.0,0.0,0.0,0.0,0.0,0.0,0.0,0.0,69,flume-ng-sinks\flume-ng-hbase-sink\src\main\java\org\apache\flume\sink\hbase\AsyncHbaseEventSerializer.java,0,0,0,0
org.apache.flume.sink.hbase.BatchAware, 0, 0, 0, 0, 0, 0, 0, 0, 0, 0, 0, 0, 0, 0,0.0,0.0,0.0,0.0,0.0,0.0,0.0,0.0,0.0,0.0,0.0,0.0,0.0,69,flume-ng-sinks\flume-ng-hbase-sink\src\main\java\org\apache\flume\sink\hbase\BatchAware.java,0,0,0,0
org.apache.flume.sink.hbase.HBaseSinkConfigurationConstants, 0, 0, 0, 0, 0, 0, 0, 0, 0, 0, 0, 0, 0, 0,0.0,0.0,0.0,0.0,0.0,0.0,0.0,0.0,0.0,0.0,0.0,0.0,0.0,19,flume-ng-sinks\flume-ng-hbase-sink\src\main\java\org\apache\flume\sink\hbase\HBaseSinkConfigurationConstants.java,0,0,0,0
org.apache.flume.sink.hbase.HBaseSinkSecurityManager, 0, 0, 0, 0, 0, 0, 0, 0, 0, 0, 0, 0, 0, 0,0.0,0.0,0.0,0.0,0.0,0.0,0.0,0.0,0.0,0.0,0.0,0.0,0.0,66,flume-ng-sinks\flume-ng-hbase-sink\src\main\java\org\apache\flume\sink\hbase\HBaseSinkSecurityManager.java,0,0,0,0
org.apache.flume.sink.hbase.HbaseEventSerializer, 0, 0, 0, 0, 0, 0, 0, 0, 0, 0, 0, 0, 0, 0,0.0,0.0,0.0,0.0,0.0,0.0,0.0,0.0,0.0,0.0,0.0,0.0,0.0,66,flume-ng-sinks\flume-ng-hbase-sink\src\main\java\org\apache\flume\sink\hbase\HbaseEventSerializer.java,0,0,0,0
org.apache.flume.sink.hbase.IncrementAsyncHBaseSerializer, 0, 0, 0, 0, 0, 0, 0, 0, 0, 0, 0, 0, 0, 0,0.0,0.0,0.0,0.0,0.0,0.0,0.0,0.0,0.0,0.0,0.0,0.0,0.0,38,flume-ng-sinks\flume-ng-hbase-sink\src\test\java\org\apache\flume\sink\hbase\IncrementAsyncHBaseSerializer.java,0,0,0,0
org.apache.flume.sink.hbase.IncrementHBaseSerializer, 0, 0, 0, 0, 0, 0, 0, 0, 0, 0, 0, 0, 0, 0,0.0,0.0,0.0,0.0,0.0,0.0,0.0,0.0,0.0,0.0,0.0,0.0,0.0,37,flume-ng-sinks\flume-ng-hbase-sink\src\test\java\org\apache\flume\sink\hbase\IncrementHBaseSerializer.java,0,0,0,0
org.apache.flume.sink.hbase.MockSimpleHbaseEventSerializer, 1, 0, 1, 0, 0, 0, 0, 0, 0, 0, 0, 0, 0, 2,0.0,0.0,0.0,0.0,0.0,0.0,0.0,0.0,0.0,0.0,0.0,0.0,0.0,9,flume-ng-sinks\flume-ng-hbase-sink\src\test\java\org\apache\flume\sink\hbase\MockSimpleHbaseEventSerializer.java,0,0,0,0
org.apache.flume.sink.hbase.SimpleAsyncHbaseEventSerializer, 0, 0, 0, 0, 0, 0, 0, 0, 0, 0, 0, 0, 0, 0,0.0,0.0,0.0,0.0,0.0,0.0,0.0,0.0,0.0,0.0,0.0,0.0,0.0,88,flume-ng-sinks\flume-ng-hbase-sink\src\main\java\org\apache\flume\sink\hbase\SimpleAsyncHbaseEventSerializer.java,0,0,0,0
org.apache.flume.sink.hbase.SimpleHbaseEventSerializer, 0, 0, 0, 0, 0, 0, 0, 0, 0, 0, 0, 0, 0, 0,0.3333333333333333,0.0,0.3333333333333333,0.0,0.0,0.0,0.0,0.0,0.0,0.0,0.0,0.0,0.0,86,flume-ng-sinks\flume-ng-hbase-sink\src\main\java\org\apache\flume\sink\hbase\SimpleHbaseEventSerializer.java,0,0,0,0
org.apache.flume.sink.hbase.SimpleRowKeyGenerator, 0, 0, 0, 0, 0, 0, 0, 0, 0, 0, 0, 0, 0, 0,0.0,0.0,0.0,0.0,0.0,0.0,0.0,0.0,0.0,0.0,0.0,0.0,0.0,20,flume-ng-sinks\flume-ng-hbase-sink\src\main\java\org\apache\flume\sink\hbase\SimpleRowKeyGenerator.java,0,0,0,0
org.apache.flume.sink.hbase.TestHBaseSinkCreation, 0, 0, 0, 0, 0, 0, 0, 0, 0, 0, 0, 0, 0, 0,0.0,0.0,0.0,0.0,0.0,0.0,0.0,0.0,0.0,0.0,0.0,0.0,0.0,18,flume-ng-sinks\flume-ng-hbase-sink\src\test\java\org\apache\flume\sink\hbase\TestHBaseSinkCreation.java,0,0,0,0
org.apache.flume.sink.hdfs.AbstractHDFSWriter, 0, 0, 0, 0, 0, 0, 0, 0, 0, 0, 0, 0, 0, 0,0.0,0.0,0.0,0.0,0.0,0.0,0.0,0.3333333333333333,0.0,0.0,0.0,0.0,0.0,150,flume-ng-sinks\flume-hdfs-sink\src\main\java\org\apache\flume\sink\hdfs\AbstractHDFSWriter.java,0,0,0,0
org.apache.flume.sink.hdfs.BucketClosedException, 0, 0, 0, 0, 0, 0, 0, 0, 0, 0, 0, 0, 0, 0,0.0,0.0,0.0,0.5,0.0,0.0,0.0,0.5,0.0,0.0,0.0,0.0,0.0,6,flume-ng-sinks\flume-hdfs-sink\src\main\java\org\apache\flume\sink\hdfs\BucketClosedException.java,0,0,0,0
org.apache.flume.sink.hdfs.BucketWriter, 0, 0, 0, 1, 0, 0, 0, 1, 0, 0, 0, 0, 0, 2,0.0,0.0,0.0,0.3333333333333333,0.0,0.0,0.0,0.0,0.0,0.0,0.0,0.0,0.0,521,flume-ng-sinks\flume-hdfs-sink\src\main\java\org\apache\flume\sink\hdfs\BucketWriter.java,0,0,0,0
org.apache.flume.sink.hdfs.HDFSBadDataStream, 0, 0, 0, 0, 0, 1, 0, 0, 0, 0, 0, 0, 0, 1,0.0,0.0,0.0,0.0,0.0,0.0,0.0,0.0,0.0,0.0,0.0,0.0,0.0,18,flume-ng-sinks\flume-hdfs-sink\src\test\java\org\apache\flume\sink\hdfs\HDFSBadDataStream.java,0,0,0,0
org.apache.flume.sink.hdfs.HDFSCompressedDataStream, 0, 0, 0, 0, 0, 0, 0, 0, 0, 0, 0, 0, 0, 0,0.0,0.0,0.0,0.0,0.0,0.0,0.0,0.0,0.0,0.0,0.0,0.0,0.0,98,flume-ng-sinks\flume-hdfs-sink\src\main\java\org\apache\flume\sink\hdfs\HDFSCompressedDataStream.java,0,0,0,0
org.apache.flume.sink.hdfs.HDFSDataStream, 0, 0, 0, 0, 0, 0, 0, 0, 0, 0, 0, 0, 0, 0,0.0,0.0,0.0,0.0,0.0,0.2,0.0,0.0,0.0,0.0,0.0,0.0,0.0,90,flume-ng-sinks\flume-hdfs-sink\src\main\java\org\apache\flume\sink\hdfs\HDFSDataStream.java,0,0,0,0
org.apache.flume.sink.hdfs.HDFSSequenceFile, 0, 0, 0, 0, 0, 0, 0, 1, 0, 0, 0, 0, 0, 1,0.0,0.0,0.0,0.0,0.0,0.0,0.0,0.0,0.0,0.0,0.0,0.0,0.0,76,flume-ng-sinks\flume-hdfs-sink\src\main\java\org\apache\flume\sink\hdfs\HDFSSequenceFile.java,0,0,0,0
org.apache.flume.sink.hdfs.HDFSTestSeqWriter, 0, 0, 0, 0, 0, 0, 0, 0, 0, 0, 0, 0, 0, 0,0.0,0.0,0.0,0.0,0.0,0.0,0.0,0.5,0.0,0.0,0.0,0.0,0.0,41,flume-ng-sinks\flume-hdfs-sink\src\test\java\org\apache\flume\sink\hdfs\HDFSTestSeqWriter.java,0,0,0,0
org.apache.flume.sink.hdfs.HDFSTestWriterFactory, 0, 0, 0, 0, 0, 0, 0, 0, 0, 0, 0, 0, 0, 0,0.0,0.0,0.0,0.0,0.0,0.0,0.0,0.0,0.0,0.0,0.0,0.0,0.0,15,flume-ng-sinks\flume-hdfs-sink\src\test\java\org\apache\flume\sink\hdfs\HDFSTestWriterFactory.java,0,0,0,0
org.apache.flume.sink.hdfs.HDFSTextSerializer, 0, 0, 0, 0, 0, 0, 0, 0, 0, 0, 0, 0, 0, 0,0.0,0.0,0.0,0.0,0.0,0.0,0.0,0.0,0.0,0.0,0.0,0.0,0.0,40,flume-ng-sinks\flume-hdfs-sink\src\main\java\org\apache\flume\sink\hdfs\HDFSTextSerializer.java,0,0,0,0
org.apache.flume.sink.hdfs.HDFSWritableSerializer, 0, 0, 0, 0, 0, 0, 0, 0, 0, 0, 0, 0, 0, 0,0.0,0.0,0.0,0.0,0.0,0.0,0.0,0.0,0.0,0.0,0.0,0.0,0.0,40,flume-ng-sinks\flume-hdfs-sink\src\main\java\org\apache\flume\sink\hdfs\HDFSWritableSerializer.java,0,0,0,0
org.apache.flume.sink.hdfs.HDFSWriter, 0, 0, 0, 0, 0, 0, 0, 0, 0, 0, 0, 0, 0, 0,0.0,0.0,0.0,0.0,0.0,0.0,0.0,0.0,0.0,0.0,0.0,0.0,0.0,40,flume-ng-sinks\flume-hdfs-sink\src\main\java\org\apache\flume\sink\hdfs\HDFSWriter.java,0,0,0,0
org.apache.flume.sink.hdfs.HDFSWriterFactory, 0, 0, 0, 0, 0, 0, 0, 0, 0, 0, 0, 0, 0, 0,0.0,0.0,0.0,0.0,0.0,0.0,0.0,0.5,0.0,0.0,0.0,0.0,0.0,18,flume-ng-sinks\flume-hdfs-sink\src\main\java\org\apache\flume\sink\hdfs\HDFSWriterFactory.java,0,0,0,0
org.apache.flume.sink.hdfs.KerberosUser, 0, 0, 0, 0, 0, 0, 0, 0, 0, 0, 0, 0, 0, 0,0.0,0.0,0.0,0.0,0.0,0.0,0.0,0.0,0.0,0.0,0.0,0.0,0.0,42,flume-ng-sinks\flume-hdfs-sink\src\main\java\org\apache\flume\sink\hdfs\KerberosUser.java,0,0,0,0
org.apache.flume.sink.hdfs.MockDataStream, 0, 0, 0, 0, 0, 0, 0, 0, 0, 0, 0, 0, 0, 0,0.0,0.0,0.0,0.0,0.0,0.0,0.0,0.0,0.0,0.0,0.0,0.0,0.0,11,flume-ng-sinks\flume-hdfs-sink\src\test\java\org\apache\flume\sink\hdfs\MockDataStream.java,0,0,0,0
org.apache.flume.sink.hdfs.MockFileSystem, 0, 0, 0, 0, 0, 0, 0, 1, 0, 0, 0, 0, 0, 1,0.0,0.0,0.0,0.0,0.0,0.0,0.0,0.0,0.0,0.0,0.0,0.0,0.0,79,flume-ng-sinks\flume-hdfs-sink\src\test\java\org\apache\flume\sink\hdfs\MockFileSystem.java,0,0,0,0
org.apache.flume.sink.hdfs.MockFsDataOutputStream, 0, 0, 0, 0, 0, 0, 0, 0, 0, 0, 0, 0, 0, 0,0.0,0.0,0.0,0.0,0.0,0.0,0.0,1.0,0.0,0.0,0.0,0.0,0.0,29,flume-ng-sinks\flume-hdfs-sink\src\test\java\org\apache\flume\sink\hdfs\MockFsDataOutputStream.java,0,0,0,0
org.apache.flume.sink.hdfs.MockHDFSWriter, 0, 0, 0, 0, 0, 0, 0, 0, 0, 0, 0, 0, 0, 0,0.0,0.0,0.0,0.0,0.0,0.0,0.0,0.0,0.0,0.0,0.0,0.0,0.0,51,flume-ng-sinks\flume-hdfs-sink\src\test\java\org\apache\flume\sink\hdfs\MockHDFSWriter.java,0,0,0,0
org.apache.flume.sink.hdfs.MyCustomSerializer, 0, 0, 0, 0, 0, 0, 0, 0, 0, 0, 0, 0, 0, 0,0.0,0.0,0.0,0.0,0.0,0.0,0.0,0.0,0.0,0.0,0.0,0.0,0.0,23,flume-ng-sinks\flume-hdfs-sink\src\test\java\org\apache\flume\sink\hdfs\MyCustomSerializer.java,0,0,0,0
org.apache.flume.sink.hdfs.SequenceFileSerializer, 0, 0, 0, 0, 0, 0, 0, 0, 0, 0, 0, 0, 0, 0,0.0,0.0,0.0,0.0,0.0,0.0,0.0,0.0,0.0,0.0,0.0,0.0,0.0,23,flume-ng-sinks\flume-hdfs-sink\src\main\java\org\apache\flume\sink\hdfs\SequenceFileSerializer.java,0,0,0,0
org.apache.flume.sink.hdfs.SequenceFileSerializerFactory, 0, 0, 0, 0, 0, 0, 0, 0, 0, 0, 0, 0, 0, 0,0.0,0.0,0.0,0.0,0.0,0.0,0.0,0.5,0.0,0.0,0.0,0.0,0.0,50,flume-ng-sinks\flume-hdfs-sink\src\main\java\org\apache\flume\sink\hdfs\SequenceFileSerializerFactory.java,0,0,0,0
org.apache.flume.sink.hdfs.TestAvroEventSerializer, 0, 0, 0, 0, 0, 0, 0, 0, 0, 0, 0, 0, 0, 0,0.0,0.0,0.0,0.0,0.0,0.0,0.0,0.0,0.0,0.0,0.0,0.0,0.0,93,flume-ng-sinks\flume-hdfs-sink\src\test\java\org\apache\flume\sink\hdfs\TestAvroEventSerializer.java,0,0,0,0
org.apache.flume.sink.hdfs.TestBucketWriter, 0, 0, 0, 0, 0, 0, 0, 0, 0, 0, 0, 0, 0, 0,0.0,0.0,0.0,0.4,0.0,0.0,0.0,0.4,0.0,0.0,0.0,0.0,0.0,327,flume-ng-sinks\flume-hdfs-sink\src\test\java\org\apache\flume\sink\hdfs\TestBucketWriter.java,0,0,0,0
org.apache.flume.sink.hdfs.TestHDFSEventSinkOnMiniCluster, 0, 0, 0, 0, 0, 0, 0, 0, 0, 0, 0, 0, 0, 0,0.0,0.0,0.0,0.3333333333333333,0.0,0.0,0.0,0.0,0.0,0.0,0.0,0.0,0.0,299,flume-ng-sinks\flume-hdfs-sink\src\test\java\org\apache\flume\sink\hdfs\TestHDFSEventSinkOnMiniCluster.java,0,0,0,0
org.apache.flume.sink.hdfs.TestSequenceFileSerializerFactory, 0, 0, 0, 0, 0, 0, 0, 0, 0, 0, 0, 0, 0, 0,0.0,0.0,0.0,0.0,0.0,0.0,0.0,0.0,0.0,0.0,0.0,0.0,0.0,27,flume-ng-sinks\flume-hdfs-sink\src\test\java\org\apache\flume\sink\hdfs\TestSequenceFileSerializerFactory.java,0,0,0,0
org.apache.flume.sink.hdfs.TestUseRawLocalFileSystem, 0, 0, 0, 0, 0, 0, 0, 0, 0, 0, 0, 0, 0, 0,0.0,0.0,0.0,0.0,0.0,0.0,0.0,0.3333333333333333,0.0,0.0,0.0,0.0,0.0,51,flume-ng-sinks\flume-hdfs-sink\src\test\java\org\apache\flume\sink\hdfs\TestUseRawLocalFileSystem.java,0,0,0,0
org.apache.flume.sink.irc.IRCSink, 0, 0, 0, 0, 0, 0, 0, 0, 0, 0, 0, 0, 0, 0,0.0,0.0,0.3333333333333333,0.0,0.0,0.0,0.0,0.0,0.0,0.0,0.0,0.0,0.0,172,flume-ng-sinks\flume-irc-sink\src\main\java\org\apache\flume\sink\irc\IRCSink.java,0,0,0,0
org.apache.flume.sink.irc.TestIRCSink, 0, 0, 1, 0, 0, 0, 0, 0, 0, 0, 0, 0, 0, 1,0.0,0.0,0.0,0.25,0.0,0.0,0.0,0.0,0.0,0.0,0.0,0.0,0.0,92,flume-ng-sinks\flume-irc-sink\src\test\java\org\apache\flume\sink\irc\TestIRCSink.java,0,0,0,0
org.apache.flume.sink.kite.DatasetSinkConstants, 1, 0, 1, 0, 0, 0, 0, 0, 0, 0, 0, 0, 0, 2,0.0,0.0,0.0,0.0,0.0,0.0,0.0,0.0,0.0,0.0,0.0,0.0,0.0,14,flume-ng-sinks\flume-dataset-sink\src\main\java\org\apache\flume\sink\kite\DatasetSinkConstants.java,0,0,0,0
org.apache.flume.sink.kite.KerberosUtil, 0, 0, 0, 0, 0, 0, 0, 0, 0, 0, 0, 0, 0, 0,0.0,0.0,0.0,0.0,0.0,0.0,0.0,0.0,0.0,0.0,0.0,0.0,0.0,85,flume-ng-sinks\flume-dataset-sink\src\main\java\org\apache\flume\sink\kite\KerberosUtil.java,0,0,0,0
org.apache.flume.sink.solr.morphline.BlobDeserializer, 0, 0, 0, 0, 0, 0, 0, 0, 0, 0, 0, 0, 0, 0,0.0,0.0,0.0,0.0,0.0,0.0,0.0,0.0,0.0,0.0,0.0,0.0,0.0,86,flume-ng-sinks\flume-ng-morphline-solr-sink\src\main\java\org\apache\flume\sink\solr\morphline\BlobDeserializer.java,0,0,0,0
org.apache.flume.sink.solr.morphline.EmbeddedSource, 0, 0, 0, 0, 0, 0, 0, 0, 0, 0, 0, 0, 0, 0,0.0,0.0,0.0,0.0,0.0,0.0,0.0,0.0,0.0,0.0,0.0,0.0,0.0,14,flume-ng-sinks\flume-ng-morphline-solr-sink\src\test\java\org\apache\flume\sink\solr\morphline\EmbeddedSource.java,0,0,0,0
org.apache.flume.sink.solr.morphline.MorphlineHandler, 0, 0, 0, 0, 0, 0, 0, 0, 0, 0, 0, 0, 0, 0,0.0,0.0,0.0,0.0,0.0,0.0,0.0,0.0,0.0,0.0,0.0,0.0,0.0,14,flume-ng-sinks\flume-ng-morphline-solr-sink\src\main\java\org\apache\flume\sink\solr\morphline\MorphlineHandler.java,0,0,0,0
org.apache.flume.sink.solr.morphline.MorphlineSink, 0, 0, 0, 0, 0, 0, 0, 0, 0, 0, 0, 0, 0, 0,0.0,0.0,0.0,0.25,0.0,0.0,0.0,0.0,0.0,0.0,0.0,0.0,0.0,137,flume-ng-sinks\flume-ng-morphline-solr-sink\src\main\java\org\apache\flume\sink\solr\morphline\MorphlineSink.java,0,0,0,0
org.apache.flume.sink.solr.morphline.MorphlineSolrSink, 0, 0, 0, 0, 0, 0, 0, 0, 0, 0, 0, 0, 0, 0,0.0,0.0,0.0,0.0,0.0,0.0,0.0,0.0,0.0,0.0,0.0,0.0,0.0,16,flume-ng-sinks\flume-ng-morphline-solr-sink\src\main\java\org\apache\flume\sink\solr\morphline\MorphlineSolrSink.java,0,0,0,0
org.apache.flume.sink.solr.morphline.ResettableTestStringInputStream, 0, 0, 0, 0, 0, 0, 0, 0, 0, 0, 0, 0, 0, 0,0.0,0.0,0.0,0.0,0.0,0.0,0.0,0.0,0.0,0.0,0.0,0.0,0.0,52,flume-ng-sinks\flume-ng-morphline-solr-sink\src\test\java\org\apache\flume\sink\solr\morphline\ResettableTestStringInputStream.java,0,0,0,0
org.apache.flume.sink.solr.morphline.TestBlobHandler, 0, 0, 0, 0, 0, 0, 0, 0, 0, 0, 0, 0, 0, 0,0.0,0.0,0.0,0.0,0.0,0.0,0.0,0.0,0.0,0.0,0.0,0.0,0.0,27,flume-ng-sinks\flume-ng-morphline-solr-sink\src\test\java\org\apache\flume\sink\solr\morphline\TestBlobHandler.java,0,0,0,0
org.apache.flume.sink.solr.morphline.TestEnvironment, 0, 0, 0, 0, 0, 0, 0, 0, 0, 0, 0, 0, 0, 0,0.0,0.0,0.0,0.0,0.0,0.0,0.0,0.0,0.0,0.0,0.0,0.0,0.0,6,flume-ng-sinks\flume-ng-morphline-solr-sink\src\test\java\org\apache\flume\sink\solr\morphline\TestEnvironment.java,0,0,0,0
org.apache.flume.sink.solr.morphline.TestUUIDInterceptor, 0, 0, 0, 0, 0, 0, 0, 0, 0, 0, 0, 0, 0, 0,0.0,0.0,0.0,0.0,0.0,0.0,0.0,0.0,0.0,0.0,0.0,0.0,0.0,33,flume-ng-sinks\flume-ng-morphline-solr-sink\src\test\java\org\apache\flume\sink\solr\morphline\TestUUIDInterceptor.java,0,0,0,0
org.apache.flume.source.AbstractEventDrivenSource, 0, 0, 0, 0, 0, 1, 0, 0, 0, 0, 0, 0, 0, 1,0.0,0.0,0.0,0.0,0.0,0.0,0.0,0.0,0.0,0.0,0.0,0.0,0.0,6,flume-ng-core\src\main\java\org\apache\flume\source\AbstractEventDrivenSource.java,0,0,0,0
org.apache.flume.source.AbstractPollableSource, 0, 0, 0, 0, 0, 0, 0, 0, 0, 0, 0, 0, 0, 0,0.0,0.0,0.0,0.0,0.0,0.0,0.0,0.0,0.0,0.0,0.0,0.0,0.0,18,flume-ng-core\src\main\java\org\apache\flume\source\AbstractPollableSource.java,0,0,0,0
org.apache.flume.source.AbstractSource, 0, 0, 0, 0, 0, 0, 0, 0, 0, 0, 0, 0, 0, 0,0.08333333333333333,0.0,0.0,0.16666666666666666,0.0,0.0,0.0,0.0,0.0,0.0,0.0,0.0,0.0,41,flume-ng-core\src\main\java\org\apache\flume\source\AbstractSource.java,0,0,0,0
org.apache.flume.source.BasicSourceSemantics, 0, 0, 0, 0, 0, 0, 0, 0, 0, 0, 0, 0, 0, 0,0.0,0.0,0.0,0.0,0.0,0.25,0.0,0.0,0.0,0.0,0.0,0.0,0.0,92,flume-ng-core\src\main\java\org\apache\flume\source\BasicSourceSemantics.java,0,0,0,0
org.apache.flume.source.DefaultSourceFactory, 0, 0, 0, 0, 0, 0, 0, 0, 0, 0, 0, 0, 0, 0,0.0,0.0,0.0,0.0,0.0,0.0,0.0,0.0,0.0,0.0,0.0,0.0,0.0,40,flume-ng-core\src\main\java\org\apache\flume\source\DefaultSourceFactory.java,0,0,0,0
org.apache.flume.source.EventDrivenSourceRunner, 0, 0, 0, 0, 0, 0, 0, 0, 0, 0, 0, 0, 0, 0,0.0,0.0,0.0,0.0,0.0,0.0,0.0,0.0,0.0,0.0,0.0,0.0,0.0,30,flume-ng-core\src\main\java\org\apache\flume\source\EventDrivenSourceRunner.java,0,0,0,0
org.apache.flume.source.ExecSource, 0, 0, 0, 0, 0, 0, 0, 0, 0, 0, 0, 0, 0, 0,0.0,0.0,0.0,0.5,0.0,0.0,0.0,0.0,0.0,0.0,0.0,0.0,0.0,274,flume-ng-core\src\main\java\org\apache\flume\source\ExecSource.java,0,0,0,0
org.apache.flume.source.ExecSourceConfigurationConstants, 0, 0, 0, 0, 0, 0, 0, 0, 0, 0, 0, 0, 0, 0,0.0,0.0,0.0,0.0,0.0,0.0,0.0,0.0,0.0,0.0,0.0,0.0,0.0,15,flume-ng-core\src\main\java\org\apache\flume\source\ExecSourceConfigurationConstants.java,0,0,0,0
org.apache.flume.source.MockSource, 0, 0, 0, 0, 0, 0, 0, 0, 0, 0, 0, 0, 0, 0,0.0,0.0,0.0,0.0,0.0,0.0,0.0,0.0,0.0,0.0,0.0,0.0,0.0,30,flume-ng-core\src\test\java\org\apache\flume\source\MockSource.java,0,0,0,0
org.apache.flume.source.NetcatSourceConfigurationConstants, 0, 0, 0, 0, 0, 0, 0, 0, 0, 0, 0, 0, 0, 0,0.0,0.0,0.0,0.0,0.0,0.0,0.0,0.0,0.0,0.0,0.0,0.0,0.0,7,flume-ng-core\src\main\java\org\apache\flume\source\NetcatSourceConfigurationConstants.java,0,0,0,0
org.apache.flume.source.PollableSourceRunner, 0, 0, 0, 0, 0, 0, 0, 0, 0, 0, 0, 0, 0, 0,0.0,0.0,0.0,0.0,0.0,0.0,0.0,0.0,0.0,0.0,0.0,0.0,0.0,98,flume-ng-core\src\main\java\org\apache\flume\source\PollableSourceRunner.java,0,0,0,0
org.apache.flume.source.SequenceGeneratorSource, 0, 0, 0, 0, 0, 0, 0, 0, 0, 0, 0, 0, 0, 0,0.0,0.0,0.0,0.2,0.0,0.0,0.0,0.0,0.0,0.0,0.0,0.0,0.0,76,flume-ng-core\src\main\java\org\apache\flume\source\SequenceGeneratorSource.java,0,0,0,0
org.apache.flume.source.SpoolDirectorySource, 0, 0, 0, 1, 0, 0, 0, 0, 0, 0, 0, 0, 0, 1,0.2,0.0,0.0,0.4,0.0,0.0,0.0,0.2,0.0,0.0,0.0,0.0,0.0,186,flume-ng-core\src\main\java\org\apache\flume\source\SpoolDirectorySource.java,0,0,0,0
org.apache.flume.source.SpoolDirectorySourceConfigurationConstants, 0, 0, 0, 1, 0, 0, 0, 0, 0, 0, 0, 0, 0, 1,0.0,0.0,0.0,0.0,0.0,0.0,0.0,0.0,0.0,0.0,0.0,0.0,0.0,43,flume-ng-core\src\main\java\org\apache\flume\source\SpoolDirectorySourceConfigurationConstants.java,0,0,0,0
org.apache.flume.source.StressSource, 0, 0, 0, 0, 0, 0, 0, 0, 0, 0, 0, 0, 0, 0,0.0,0.0,0.0,0.0,0.0,0.0,0.0,0.0,0.0,0.0,0.0,0.0,0.0,80,flume-ng-core\src\main\java\org\apache\flume\source\StressSource.java,0,0,0,0
org.apache.flume.source.SyslogSourceConfigurationConstants, 0, 0, 0, 0, 0, 0, 0, 0, 0, 0, 0, 0, 0, 0,0.0,0.0,0.0,0.0,0.0,0.0,0.0,0.0,0.0,0.0,0.0,0.0,0.0,25,flume-ng-core\src\main\java\org\apache\flume\source\SyslogSourceConfigurationConstants.java,0,0,0,0
org.apache.flume.source.TestAbstractPollableSource, 0, 0, 0, 0, 0, 0, 0, 0, 0, 0, 0, 0, 0, 0,0.0,0.0,0.0,0.0,0.0,0.0,0.0,0.0,0.0,0.0,0.0,0.0,0.0,30,flume-ng-core\src\test\java\org\apache\flume\source\TestAbstractPollableSource.java,0,0,0,0
org.apache.flume.source.TestBasicSourceSemantics, 0, 0, 0, 0, 0, 0, 0, 0, 0, 0, 0, 0, 0, 0,0.0,0.0,0.0,0.0,0.0,0.0,0.0,0.0,0.0,0.0,0.0,0.0,0.0,83,flume-ng-core\src\test\java\org\apache\flume\source\TestBasicSourceSemantics.java,0,0,0,0
org.apache.flume.source.TestDefaultSourceFactory, 0, 0, 0, 0, 0, 0, 0, 0, 0, 0, 0, 0, 0, 0,0.0,0.0,0.0,0.0,0.0,0.0,0.0,0.0,0.0,0.0,0.0,0.0,0.0,44,flume-ng-core\src\test\java\org\apache\flume\source\TestDefaultSourceFactory.java,0,0,0,0
org.apache.flume.source.TestExecSource, 0, 0, 0, 0, 0, 0, 0, 0, 0, 0, 0, 0, 0, 0,0.0,0.0,0.0,0.0,0.0,0.0,0.0,0.0,0.0,0.0,0.0,0.0,0.0,342,flume-ng-core\src\test\java\org\apache\flume\source\TestExecSource.java,0,0,0,0
org.apache.flume.source.TestNetcatSource, 0, 0, 0, 0, 0, 0, 0, 0, 0, 0, 0, 0, 0, 0,0.0,0.0,0.0,0.3333333333333333,0.0,0.0,0.0,0.0,0.0,0.0,0.0,0.0,0.0,85,flume-ng-node\src\test\java\org\apache\flume\source\TestNetcatSource.java,0,0,0,0
org.apache.flume.source.TestPollableSourceRunner, 0, 0, 0, 0, 0, 0, 0, 0, 0, 0, 0, 0, 0, 0,0.0,0.0,0.0,0.25,0.0,0.0,0.0,0.0,0.0,0.0,0.0,0.0,0.0,73,flume-ng-core\src\test\java\org\apache\flume\source\TestPollableSourceRunner.java,0,0,0,0
org.apache.flume.source.TestSequenceGeneratorSource, 0, 0, 0, 0, 0, 0, 0, 0, 0, 0, 0, 0, 0, 0,0.0,0.0,0.0,0.0,0.0,0.0,0.0,0.0,0.0,0.0,0.0,0.0,0.0,77,flume-ng-core\src\test\java\org\apache\flume\source\TestSequenceGeneratorSource.java,0,0,0,0
org.apache.flume.source.TestSpoolDirectorySource, 1, 0, 0, 0, 0, 0, 0, 0, 0, 0, 0, 0, 0, 1,0.0,0.0,0.0,0.42857142857142855,0.0,0.0,0.0,0.0,0.0,0.0,0.0,0.0,0.0,204,flume-ng-core\src\test\java\org\apache\flume\source\TestSpoolDirectorySource.java,0,0,0,0
org.apache.flume.source.TestStressSource, 0, 0, 0, 0, 0, 0, 0, 0, 0, 0, 0, 0, 0, 0,0.0,0.0,0.0,0.0,0.0,0.0,0.0,0.0,0.0,0.0,0.0,0.0,0.0,109,flume-ng-core\src\test\java\org\apache\flume\source\TestStressSource.java,0,0,0,0
org.apache.flume.source.TestSyslogParser, 0, 0, 0, 0, 0, 0, 0, 0, 0, 0, 0, 0, 0, 0,0.0,0.0,0.0,0.0,0.0,0.0,0.0,0.0,0.0,0.0,0.0,0.0,0.0,51,flume-ng-core\src\test\java\org\apache\flume\source\TestSyslogParser.java,0,0,0,0
org.apache.flume.source.TestSyslogTcpSource, 0, 0, 0, 0, 0, 0, 0, 0, 0, 0, 0, 0, 0, 0,0.0,0.0,0.0,0.3333333333333333,0.0,0.0,0.0,0.0,0.0,0.0,0.0,0.0,0.0,75,flume-ng-core\src\test\java\org\apache\flume\source\TestSyslogTcpSource.java,0,0,0,0
org.apache.flume.source.ThriftSource, 0, 0, 0, 0, 0, 0, 0, 0, 0, 0, 0, 0, 0, 0,0.0,0.0,0.0,0.3333333333333333,0.0,0.0,0.0,0.0,0.0,0.0,0.0,0.0,0.0,181,flume-ng-core\src\main\java\org\apache\flume\source\ThriftSource.java,0,0,0,0
org.apache.flume.source.http.HTTPBadRequestException, 0, 0, 0, 0, 0, 0, 0, 0, 0, 0, 0, 0, 0, 0,0.0,0.0,0.0,0.0,0.0,0.0,0.0,0.0,0.0,0.0,0.0,0.0,0.0,12,flume-ng-core\src\main\java\org\apache\flume\source\http\HTTPBadRequestException.java,0,0,0,0
org.apache.flume.source.http.HTTPSourceConfigurationConstants, 0, 0, 0, 0, 0, 0, 0, 0, 0, 0, 0, 0, 0, 0,0.0,0.0,0.0,0.0,0.0,0.0,0.0,0.0,0.0,0.0,0.0,0.0,0.0,13,flume-ng-core\src\main\java\org\apache\flume\source\http\HTTPSourceConfigurationConstants.java,0,1,0,1
org.apache.flume.source.http.HTTPSourceHandler, 0, 0, 0, 0, 0, 0, 0, 0, 0, 0, 0, 0, 0, 0,0.0,0.0,0.0,0.0,0.0,0.0,0.0,0.0,0.0,0.0,0.0,0.0,0.0,13,flume-ng-core\src\main\java\org\apache\flume\source\http\HTTPSourceHandler.java,0,0,0,0
org.apache.flume.source.http.JSONHandler, 0, 0, 0, 0, 0, 0, 0, 0, 0, 0, 0, 0, 0, 0,0.0,0.0,0.0,0.0,0.0,0.0,0.0,0.0,0.0,0.0,0.0,0.0,0.0,47,flume-ng-core\src\main\java\org\apache\flume\source\http\JSONHandler.java,0,0,0,0
org.apache.flume.source.jms.JMSMessageConsumerFactory, 0, 0, 0, 0, 0, 0, 0, 1, 0, 0, 0, 0, 0, 1,0.0,0.0,0.0,0.0,0.0,0.0,0.0,0.0,0.0,0.0,0.0,0.0,0.0,10,flume-ng-sources\flume-jms-source\src\main\java\org\apache\flume\source\jms\JMSMessageConsumerFactory.java,0,0,0,0
org.apache.flume.source.jms.JMSMessageConsumerTestBase, 0, 0, 0, 1, 0, 0, 0, 0, 0, 0, 0, 0, 0, 1,0.0,0.0,0.0,0.0,0.0,0.0,0.0,0.0,0.0,0.0,0.0,0.0,0.0,96,flume-ng-sources\flume-jms-source\src\test\java\org\apache\flume\source\jms\JMSMessageConsumerTestBase.java,0,0,0,0
org.apache.flume.source.jms.JMSMessageConverter, 0, 0, 0, 0, 0, 0, 0, 0, 0, 0, 0, 0, 0, 0,0.0,0.0,0.0,0.0,0.0,0.0,0.0,0.0,0.0,0.0,0.0,0.0,0.0,96,flume-ng-sources\flume-jms-source\src\main\java\org\apache\flume\source\jms\JMSMessageConverter.java,0,0,0,0
org.apache.flume.source.jms.JMSSourceConfiguration, 0, 0, 0, 1, 0, 0, 0, 0, 0, 0, 0, 0, 0, 1,0.0,0.0,0.0,0.0,0.0,0.0,0.0,0.0,0.0,0.0,0.0,0.0,0.0,26,flume-ng-sources\flume-jms-source\src\main\java\org\apache\flume\source\jms\JMSSourceConfiguration.java,0,0,0,0
org.apache.flume.source.jms.TestJMSMessageConsumer, 0, 0, 0, 0, 0, 0, 0, 0, 0, 0, 0, 0, 0, 0,0.0,0.0,0.0,1.0,0.0,0.0,0.0,0.0,0.0,0.0,0.0,0.0,0.0,123,flume-ng-sources\flume-jms-source\src\test\java\org\apache\flume\source\jms\TestJMSMessageConsumer.java,0,0,0,0
org.apache.flume.source.jms.TestJMSSourceCreation, 0, 0, 0, 0, 0, 0, 0, 0, 0, 0, 0, 0, 0, 0,0.0,0.0,0.0,0.0,0.0,0.0,0.0,0.0,0.0,0.0,0.0,0.0,0.0,17,flume-ng-sources\flume-jms-source\src\test\java\org\apache\flume\source\jms\TestJMSSourceCreation.java,0,0,0,0
org.apache.flume.source.twitter.TwitterSource, 0, 0, 0, 1, 0, 0, 0, 0, 0, 0, 0, 0, 0, 1,0.0,0.0,0.0,0.0,0.0,0.0,0.0,0.0,0.0,0.0,0.0,0.0,0.0,227,flume-ng-sources\flume-twitter-source\src\main\java\org\apache\flume\source\twitter\TwitterSource.java,0,0,0,0
org.apache.flume.test.agent.TestRpcClient, 0, 0, 0, 0, 0, 0, 0, 0, 0, 0, 0, 0, 0, 0,0.0,0.0,0.0,0.0,0.0,0.0,0.0,0.0,0.0,0.0,0.0,0.0,0.0,22,flume-ng-tests\src\test\java\org\apache\flume\test\agent\TestRpcClient.java,0,0,0,0
org.apache.flume.test.agent.TestRpcClientCommunicationFailure, 0, 0, 0, 0, 0, 0, 0, 0, 0, 0, 0, 0, 0, 0,0.0,0.0,0.0,0.0,0.0,0.0,0.0,0.0,0.0,0.0,0.0,0.0,0.0,30,flume-ng-tests\src\test\java\org\apache\flume\test\agent\TestRpcClientCommunicationFailure.java,0,0,0,0
org.apache.flume.tools.FileChannelIntegrityTool, 0, 0, 0, 0, 0, 0, 0, 0, 0, 0, 0, 0, 0, 0,0.0,0.0,0.0,0.0,0.0,0.0,0.0,0.0,0.0,0.0,0.0,0.0,0.0,91,flume-tools\src\main\java\org\apache\flume\tools\FileChannelIntegrityTool.java,0,0,0,0
org.apache.flume.tools.FlumeTool, 0, 0, 0, 0, 0, 0, 0, 0, 0, 0, 0, 0, 0, 0,0.0,0.0,0.0,0.0,0.0,0.0,0.0,0.0,0.0,0.0,0.0,0.0,0.0,91,flume-tools\src\main\java\org\apache\flume\tools\FlumeTool.java,0,0,0,0
org.apache.flume.tools.HTTPServerConstraintUtil, 0, 0, 0, 0, 0, 0, 0, 0, 0, 0, 0, 0, 0, 0,0.0,0.0,0.0,0.0,0.0,0.0,0.0,0.0,0.0,0.0,0.0,0.0,0.0,19,flume-ng-core\src\main\java\org\apache\flume\tools\HTTPServerConstraintUtil.java,0,0,0,0
org.apache.flume.tools.PlatformDetect, 0, 0, 0, 0, 0, 0, 0, 0, 0, 0, 0, 0, 0, 0,0.0,0.0,0.0,0.5,0.0,0.0,0.0,0.5,0.0,0.0,0.0,0.0,0.0,7,flume-ng-core\src\main\java\org\apache\flume\tools\PlatformDetect.java,0,0,0,0
org.apache.flume.tools.TestTimestampRoundDownUtil, 0, 0, 0, 0, 0, 0, 0, 0, 0, 0, 0, 0, 0, 0,0.0,0.0,0.0,0.0,0.0,0.0,0.0,0.0,0.0,0.0,0.0,0.0,0.0,53,flume-ng-core\src\test\java\org\apache\flume\tools\TestTimestampRoundDownUtil.java,0,0,0,0
org.apache.flume.tools.TestVersionInfo, 0, 0, 0, 0, 0, 0, 0, 0, 0, 0, 0, 0, 0, 0,0.0,0.0,0.0,0.0,0.0,0.0,0.0,0.0,0.0,0.0,0.0,0.0,0.0,24,flume-ng-core\src\test\java\org\apache\flume\tools\TestVersionInfo.java,0,0,0,0
org.apache.flume.tools.TimestampRoundDownUtil, 0, 0, 0, 0, 0, 0, 0, 0, 0, 0, 0, 0, 0, 0,0.0,0.0,0.0,0.0,0.0,0.0,0.0,0.0,0.0,0.0,0.0,0.0,0.0,40,flume-ng-core\src\main\java\org\apache\flume\tools\TimestampRoundDownUtil.java,0,0,0,0
org.apache.flume.util.RandomOrderSelector, 0, 0, 0, 0, 0, 0, 0, 0, 0, 0, 0, 0, 0, 0,0.0,0.0,0.0,0.0,0.0,0.0,0.0,0.0,0.0,0.0,0.0,0.0,0.0,18,flume-ng-sdk\src\main\java\org\apache\flume\util\RandomOrderSelector.java,0,0,0,0
org.apache.flume.util.RoundRobinOrderSelector, 0, 0, 0, 0, 0, 0, 0, 0, 0, 0, 0, 0, 0, 0,0.0,0.0,0.0,0.0,0.0,0.0,0.0,0.0,0.0,0.0,0.0,0.0,0.0,23,flume-ng-sdk\src\main\java\org\apache\flume\util\RoundRobinOrderSelector.java,0,0,0,0
