ClassName,AntiSingleton,Blob,ClassDataShouldBePrivate,ComplexClass,LargeClass,LazyClass,LongMethod,LongParameterList,MessageChains,RefusedParentBequest,SpaghettiCode,SpeculativeGenerality,SwissArmyKnife,NumOfAPs,AntiSingleton,Blob,ClassDataShouldBePrivate,ComplexClass,LargeClass,LazyClass,LongMethod,LongParameterList,MessageChains,RefusedParentBequest,SpaghettiCode,SpeculativeGenerality,SwissArmyKnife,LOC,name,deleted,added,changed,all
org.apache.roller.RollerException, 0, 0, 0, 0, 0, 0, 0, 0, 0, 0, 0, 0, 0, 0,0.09090909090909091,0.0,0.09090909090909091,0.0,0.0,0.0,0.0,0.09090909090909091,0.0,0.0,0.0,0.0,0.0,54,app\src\main\java\org\apache\roller\RollerException.java,0,0,0,0
org.apache.roller.planet.business.AbstractManagerImpl, 0, 0, 0, 0, 0, 0, 0, 0, 0, 0, 0, 0, 0, 0,0.0,0.0,0.0,0.0,0.0,0.0,0.0,1.0,0.0,0.0,0.0,0.0,0.0,8,app\src\main\java\org\apache\roller\planet\business\AbstractManagerImpl.java,0,0,0,0
org.apache.roller.planet.business.BootstrapException, 0, 0, 0, 0, 0, 0, 0, 0, 0, 0, 0, 0, 0, 0,0.0,0.0,0.0,0.0,0.0,0.0,0.0,0.0,0.0,0.0,0.0,0.0,0.0,8,app\src\main\java\org\apache\roller\planet\business\BootstrapException.java,0,0,0,0
org.apache.roller.planet.business.EntryBasicTests, 0, 0, 0, 0, 0, 0, 0, 0, 0, 0, 0, 0, 0, 0,0.0,0.0,0.0,0.5,0.0,0.0,0.0,0.5,0.0,0.0,0.0,0.0,0.0,37,app\src\test\java\org\apache\roller\planet\business\EntryBasicTests.java,0,0,0,0
org.apache.roller.planet.business.EntryFunctionalTests, 1, 0, 1, 0, 0, 0, 0, 0, 0, 0, 0, 0, 0, 2,0.0,0.0,0.0,0.5,0.0,0.0,0.0,0.5,0.0,0.0,0.0,0.0,0.0,57,app\src\test\java\org\apache\roller\planet\business\EntryFunctionalTests.java,0,0,0,0
org.apache.roller.planet.business.GroupBasicTests, 0, 0, 0, 0, 0, 0, 0, 0, 0, 0, 0, 0, 0, 0,0.0,0.0,0.0,0.5,0.0,0.0,0.0,0.5,0.0,0.0,0.0,0.0,0.0,39,app\src\test\java\org\apache\roller\planet\business\GroupBasicTests.java,0,0,0,0
org.apache.roller.planet.business.GroupFunctionalTests, 0, 0, 0, 0, 0, 0, 0, 0, 0, 0, 0, 0, 0, 0,0.0,0.0,0.0,0.5,0.0,0.0,0.0,0.5,0.0,0.0,0.0,0.0,0.0,30,app\src\test\java\org\apache\roller\planet\business\GroupFunctionalTests.java,0,0,0,0
org.apache.roller.planet.business.InitializationException, 0, 0, 0, 0, 0, 0, 0, 0, 0, 0, 0, 0, 0, 0,0.0,0.0,0.0,0.0,0.0,0.0,0.0,0.0,0.0,0.0,0.0,0.0,0.0,8,app\src\main\java\org\apache\roller\planet\business\InitializationException.java,0,0,0,0
org.apache.roller.planet.business.Manager, 0, 0, 0, 0, 0, 0, 0, 0, 0, 0, 0, 0, 0, 0,0.0,0.0,0.0,0.0,0.0,0.0,0.0,0.0,0.0,0.0,0.0,0.0,0.0,8,app\src\main\java\org\apache\roller\planet\business\Manager.java,0,0,0,0
org.apache.roller.planet.business.Planet, 0, 0, 0, 0, 0, 0, 0, 0, 0, 0, 0, 0, 0, 0,0.0,0.0,0.0,0.0,0.0,0.0,0.0,0.0,0.0,0.0,0.0,0.0,0.0,8,app\src\main\java\org\apache\roller\planet\business\Planet.java,0,0,0,0
org.apache.roller.planet.business.PlanetBasicTests, 1, 0, 1, 0, 0, 0, 0, 0, 0, 0, 0, 0, 0, 2,0.0,0.0,0.0,0.5,0.0,0.0,0.0,0.5,0.0,0.0,0.0,0.0,0.0,29,app\src\test\java\org\apache\roller\planet\business\PlanetBasicTests.java,0,0,0,0
org.apache.roller.planet.business.PlanetFunctionalTests, 1, 0, 1, 0, 0, 0, 0, 0, 0, 0, 0, 0, 0, 2,0.0,0.0,0.0,0.5,0.0,0.0,0.0,0.5,0.0,0.0,0.0,0.0,0.0,25,app\src\test\java\org\apache\roller\planet\business\PlanetFunctionalTests.java,0,0,0,0
org.apache.roller.planet.business.PlanetManager, 0, 0, 0, 0, 0, 0, 0, 0, 0, 0, 0, 0, 0, 0,0.0,0.0,0.0,0.0,0.0,0.0,0.0,0.0,0.0,0.0,0.0,0.0,0.0,25,app\src\main\java\org\apache\roller\planet\business\PlanetManager.java,0,0,0,0
org.apache.roller.planet.business.PlanetProvider, 0, 0, 0, 0, 0, 0, 0, 0, 0, 0, 0, 0, 0, 0,0.0,0.0,0.0,0.0,0.0,0.0,0.0,0.0,0.0,0.0,0.0,0.0,0.0,25,app\src\main\java\org\apache\roller\planet\business\PlanetProvider.java,0,0,0,0
org.apache.roller.planet.business.PlanetTestSuite, 0, 0, 0, 0, 0, 0, 0, 0, 0, 0, 0, 0, 0, 0,0.0,0.0,0.0,0.0,0.0,0.0,0.0,0.0,0.0,0.0,0.0,0.0,0.0,17,app\src\test\java\org\apache\roller\planet\business\PlanetTestSuite.java,0,0,0,0
org.apache.roller.planet.business.RomeFeedFetcherTest, 1, 0, 1, 0, 0, 0, 0, 0, 0, 0, 0, 0, 0, 2,0.0,0.0,0.0,0.3333333333333333,0.0,0.0,0.0,0.3333333333333333,0.0,0.0,0.0,0.0,0.0,41,app\src\test\java\org\apache\roller\planet\business\RomeFeedFetcherTest.java,0,0,0,0
org.apache.roller.planet.business.SingleThreadedFeedUpdaterTest, 1, 0, 1, 0, 0, 0, 0, 0, 0, 0, 0, 0, 0, 2,0.0,0.0,0.0,0.3333333333333333,0.0,0.0,0.0,0.3333333333333333,0.0,0.0,0.0,0.0,0.0,31,app\src\test\java\org\apache\roller\planet\business\SingleThreadedFeedUpdaterTest.java,0,0,0,0
org.apache.roller.planet.business.SubscriptionBasicTests, 0, 0, 0, 0, 0, 0, 0, 0, 0, 0, 0, 0, 0, 0,0.0,0.0,0.0,0.5,0.0,0.0,0.0,0.5,0.0,0.0,0.0,0.0,0.0,29,app\src\test\java\org\apache\roller\planet\business\SubscriptionBasicTests.java,0,0,0,0
org.apache.roller.planet.business.SubscriptionFunctionalTests, 0, 0, 0, 0, 0, 0, 0, 0, 0, 0, 0, 0, 0, 0,0.0,0.0,0.0,0.5,0.0,0.0,0.0,0.5,0.0,0.0,0.0,0.0,0.0,60,app\src\test\java\org\apache\roller\planet\business\SubscriptionFunctionalTests.java,0,0,0,0
org.apache.roller.planet.business.fetcher.FeedFetcher, 0, 0, 0, 0, 0, 0, 0, 0, 0, 0, 0, 0, 0, 0,0.0,0.0,0.0,0.0,0.0,0.0,0.0,0.0,0.0,0.0,0.0,0.0,0.0,60,app\src\main\java\org\apache\roller\planet\business\fetcher\FeedFetcher.java,0,0,0,0
org.apache.roller.planet.business.fetcher.FetcherException, 0, 0, 0, 0, 0, 0, 0, 0, 0, 0, 0, 0, 0, 0,0.25,0.0,0.25,0.0,0.0,0.0,0.0,0.0,0.0,0.0,0.0,0.0,0.0,32,app\src\main\java\org\apache\roller\planet\business\fetcher\FetcherException.java,0,0,0,0
org.apache.roller.planet.business.fetcher.RomeFeedFetcher, 0, 0, 0, 0, 0, 0, 0, 0, 0, 0, 0, 0, 0, 0,0.0,0.0,0.0,0.0,0.0,0.0,0.0,0.0,0.0,0.0,0.0,0.0,0.0,161,app\src\main\java\org\apache\roller\planet\business\fetcher\RomeFeedFetcher.java,0,0,0,0
org.apache.roller.planet.business.jpa.JPAPlanetImpl, 0, 0, 0, 0, 0, 0, 0, 1, 0, 0, 0, 0, 0, 1,0.0,0.0,0.0,0.0,0.0,0.0,0.0,0.0,0.0,0.0,0.0,0.0,0.0,56,app\src\main\java\org\apache\roller\planet\business\jpa\JPAPlanetImpl.java,0,0,0,0
org.apache.roller.planet.business.updater.FeedUpdater, 0, 0, 0, 0, 0, 0, 0, 0, 0, 0, 0, 0, 0, 0,0.0,0.0,0.0,0.0,0.0,0.0,0.0,0.0,0.0,0.0,0.0,0.0,0.0,56,app\src\main\java\org\apache\roller\planet\business\updater\FeedUpdater.java,0,0,0,0
org.apache.roller.planet.business.updater.SingleThreadedFeedUpdater, 0, 0, 0, 0, 0, 0, 0, 0, 0, 0, 0, 0, 0, 0,0.16666666666666666,0.0,0.16666666666666666,0.0,0.0,0.0,0.0,0.0,0.0,0.0,0.0,0.0,0.0,126,app\src\main\java\org\apache\roller\planet\business\updater\SingleThreadedFeedUpdater.java,0,0,0,0
org.apache.roller.planet.business.updater.UpdaterException, 0, 0, 0, 0, 0, 0, 0, 0, 0, 0, 0, 0, 0, 0,0.0,0.0,0.0,0.0,0.0,0.0,0.0,0.0,0.0,0.0,0.0,0.0,0.0,8,app\src\main\java\org\apache\roller\planet\business\updater\UpdaterException.java,0,0,0,0
org.apache.roller.planet.pojos.Author, 0, 0, 0, 0, 0, 0, 0, 0, 0, 0, 0, 0, 0, 0,0.0,0.0,0.0,0.0,0.0,0.0,0.0,0.0,0.0,0.0,0.0,0.0,0.0,16,app\src\main\java\org\apache\roller\planet\pojos\Author.java,0,0,0,0
org.apache.roller.planet.pojos.Category, 0, 0, 0, 0, 0, 0, 0, 0, 0, 0, 0, 0, 0, 0,0.0,0.0,0.0,0.0,0.0,0.0,0.0,0.0,0.0,0.0,0.0,0.0,0.0,9,app\src\main\java\org\apache\roller\planet\pojos\Category.java,0,0,0,0
org.apache.roller.planet.pojos.StaticTemplate, 0, 0, 0, 0, 0, 0, 0, 1, 0, 0, 0, 0, 0, 1,0.0,0.0,0.0,0.0,0.0,0.0,0.0,0.0,0.0,0.0,0.0,0.0,0.0,77,app\src\main\java\org\apache\roller\planet\pojos\StaticTemplate.java,0,0,0,0
org.apache.roller.planet.pojos.Template, 0, 0, 0, 0, 0, 0, 0, 0, 0, 0, 0, 0, 0, 0,0.0,0.0,0.0,0.0,0.0,0.0,0.0,0.0,0.0,0.0,0.0,0.0,0.0,77,app\src\main\java\org\apache\roller\planet\pojos\Template.java,0,0,0,0
org.apache.roller.planet.tasks.GeneratePlanetTask, 0, 0, 0, 0, 0, 0, 0, 0, 0, 0, 0, 0, 0, 0,0.0,0.0,0.0,0.0,0.0,0.0,0.0,0.0,0.0,0.0,0.0,0.0,0.0,46,app\src\main\java\org\apache\roller\planet\tasks\GeneratePlanetTask.java,0,0,0,0
org.apache.roller.planet.tasks.PlanetTask, 0, 0, 0, 0, 0, 0, 0, 0, 0, 0, 0, 0, 0, 0,0.0,0.0,0.0,0.0,0.0,0.0,0.0,0.0,0.0,0.0,0.0,0.0,0.0,4,app\src\main\java\org\apache\roller\planet\tasks\PlanetTask.java,0,0,0,0
org.apache.roller.planet.tasks.RefreshPlanetTask, 0, 0, 0, 0, 0, 0, 0, 0, 0, 0, 0, 0, 0, 0,0.0,0.0,0.0,0.0,0.0,0.0,0.0,0.0,0.0,0.0,0.0,0.0,0.0,20,app\src\main\java\org\apache\roller\planet\tasks\RefreshPlanetTask.java,0,0,0,0
org.apache.roller.planet.tasks.StaticPlanetModel, 0, 0, 0, 0, 0, 0, 0, 0, 0, 0, 0, 0, 0, 0,0.0,0.0,0.0,0.0,0.0,0.0,0.0,0.0,0.0,0.0,0.0,0.0,0.0,30,app\src\main\java\org\apache\roller\planet\tasks\StaticPlanetModel.java,0,0,0,0
org.apache.roller.planet.util.MailUtil, 0, 0, 0, 0, 0, 0, 0, 1, 0, 0, 0, 0, 0, 1,0.0,0.0,0.0,0.0,0.0,0.0,0.0,0.0,0.0,0.0,0.0,0.0,0.0,185,app\src\main\java\org\apache\roller\planet\util\MailUtil.java,0,0,0,0
org.apache.roller.planet.util.rome.ContentModule, 0, 0, 0, 0, 0, 0, 0, 0, 0, 0, 0, 0, 0, 0,0.0,0.0,0.0,0.0,0.0,0.0,0.0,0.0,0.0,0.0,0.0,0.0,0.0,185,app\src\main\java\org\apache\roller\planet\util\rome\ContentModule.java,0,0,0,0
org.apache.roller.planet.util.rome.ContentModuleGenerator, 0, 0, 0, 0, 0, 0, 0, 0, 0, 0, 0, 0, 0, 0,0.0,0.0,0.0,0.0,0.0,0.0,0.0,0.0,0.0,0.0,0.0,0.0,0.0,27,app\src\main\java\org\apache\roller\planet\util\rome\ContentModuleGenerator.java,0,0,0,0
org.apache.roller.planet.util.rome.ContentModuleImpl, 0, 0, 0, 0, 0, 0, 0, 0, 0, 0, 0, 0, 0, 0,0.0,0.0,0.0,0.0,0.0,0.0,0.0,0.0,0.0,0.0,0.0,0.0,0.0,23,app\src\main\java\org\apache\roller\planet\util\rome\ContentModuleImpl.java,0,0,0,0
org.apache.roller.planet.util.rome.ContentModuleParser, 0, 0, 0, 0, 0, 0, 0, 0, 0, 0, 0, 0, 0, 0,0.0,0.0,0.0,0.0,0.0,0.0,0.0,0.0,0.0,0.0,0.0,0.0,0.0,18,app\src\main\java\org\apache\roller\planet\util\rome\ContentModuleParser.java,0,0,0,0
org.apache.roller.planet.util.rome.DiskFeedInfoCacheTest, 0, 0, 0, 0, 0, 0, 0, 0, 0, 0, 0, 0, 0, 0,0.0,0.0,0.0,0.0,0.0,0.0,0.0,0.0,0.0,0.0,0.0,0.0,0.0,24,app\src\test\java\org\apache\roller\planet\util\rome\DiskFeedInfoCacheTest.java,0,0,0,0
org.apache.roller.planet.util.rome.PlanetConverterForRSS091N, 0, 0, 0, 0, 0, 0, 0, 0, 0, 0, 0, 0, 0, 0,0.0,0.0,0.0,0.0,0.0,0.0,0.0,0.0,0.0,0.0,0.0,0.0,0.0,13,app\src\main\java\org\apache\roller\planet\util\rome\PlanetConverterForRSS091N.java,0,0,0,0
org.apache.roller.planet.util.rome.PlanetConverterForRSS091U, 0, 0, 0, 0, 0, 0, 0, 0, 0, 0, 0, 0, 0, 0,0.0,0.0,0.0,0.0,0.0,0.0,0.0,0.0,0.0,0.0,0.0,0.0,0.0,13,app\src\main\java\org\apache\roller\planet\util\rome\PlanetConverterForRSS091U.java,0,0,0,0
org.apache.roller.planet.util.rome.PlanetConverterForRSS20, 0, 0, 0, 0, 0, 0, 0, 0, 0, 0, 0, 0, 0, 0,0.0,0.0,0.0,0.0,0.0,0.0,0.0,0.0,0.0,0.0,0.0,0.0,0.0,18,app\src\main\java\org\apache\roller\planet\util\rome\PlanetConverterForRSS20.java,0,0,0,0
org.apache.roller.planet.util.rome.PlanetRSS091NParser, 0, 0, 0, 0, 0, 0, 0, 1, 0, 0, 0, 0, 0, 1,0.0,0.0,0.0,0.0,0.0,0.0,0.0,0.0,0.0,0.0,0.0,0.0,0.0,17,app\src\main\java\org\apache\roller\planet\util\rome\PlanetRSS091NParser.java,0,0,0,0
org.apache.roller.planet.util.rome.PlanetRSS091UParser, 0, 0, 0, 0, 0, 0, 0, 1, 0, 0, 0, 0, 0, 1,0.0,0.0,0.0,0.0,0.0,0.0,0.0,0.0,0.0,0.0,0.0,0.0,0.0,17,app\src\main\java\org\apache\roller\planet\util\rome\PlanetRSS091UParser.java,0,0,0,0
org.apache.roller.scripting.BSFRendererFactory, 0, 0, 0, 0, 0, 0, 0, 0, 0, 0, 0, 0, 0, 0,0.0,0.0,0.0,0.0,0.0,0.0,0.0,0.0,0.0,0.0,0.0,0.0,0.0,25,docs\examples\scripting\bsf\src\org\apache\roller\scripting\BSFRendererFactory.java,0,0,0,0
org.apache.roller.scripting.GSPRendererFactory, 0, 0, 0, 0, 0, 0, 0, 0, 0, 0, 0, 0, 0, 0,0.0,0.0,0.0,0.0,0.0,0.0,0.0,0.0,0.0,0.0,0.0,0.0,0.0,18,docs\examples\scripting\groovy\src\org\apache\roller\scripting\GSPRendererFactory.java,0,0,0,0
org.apache.roller.scripting.GroovletRendererFactory, 0, 0, 0, 0, 0, 0, 0, 0, 0, 0, 0, 0, 0, 0,0.0,0.0,0.0,0.0,0.0,0.0,0.0,0.0,0.0,0.0,0.0,0.0,0.0,17,docs\examples\scripting\groovy\src\org\apache\roller\scripting\GroovletRendererFactory.java,0,0,0,0
org.apache.roller.scripting.GroovyRunner, 0, 0, 0, 0, 0, 0, 0, 0, 0, 0, 0, 0, 0, 0,1.0,0.0,1.0,0.0,0.0,0.0,0.0,1.0,0.0,0.0,0.0,0.0,0.0,33,docs\examples\scripting\groovy\src\org\apache\roller\scripting\GroovyRunner.java,0,0,0,0
org.apache.roller.util.ISO8601DateParser, 0, 0, 0, 0, 0, 0, 0, 0, 0, 0, 0, 0, 0, 0,0.0,0.0,0.0,0.0,0.0,0.0,0.0,0.0,0.0,0.0,0.0,0.0,0.0,27,app\src\main\java\org\apache\roller\util\ISO8601DateParser.java,0,0,0,0
org.apache.roller.util.RegexUtilTest, 0, 0, 0, 0, 0, 0, 0, 0, 0, 0, 0, 0, 0, 0,0.0,0.0,0.0,0.0,0.0,0.0,0.0,0.0,0.0,0.0,0.0,0.0,0.0,35,app\src\test\java\org\apache\roller\util\RegexUtilTest.java,0,0,0,0
org.apache.roller.util.RollerConstants, 0, 0, 0, 0, 0, 0, 0, 0, 0, 0, 0, 0, 0, 0,0.0,0.0,0.0,0.0,0.0,0.0,0.0,0.0,0.0,0.0,0.0,0.0,0.0,17,app\src\main\java\org\apache\roller\util\RollerConstants.java,0,0,0,0
org.apache.roller.util.UUIDGenerator, 0, 0, 0, 0, 0, 0, 0, 0, 0, 0, 0, 0, 0, 0,0.0,0.0,0.0,0.0,0.0,0.0,0.0,0.5,0.0,0.0,0.0,0.0,0.0,6,app\src\main\java\org\apache\roller\util\UUIDGenerator.java,0,0,0,0
org.apache.roller.util.UtilitiesTestSuite, 0, 0, 0, 0, 0, 0, 0, 0, 0, 0, 0, 0, 0, 0,0.0,0.0,0.0,0.0,0.0,0.0,0.0,0.0,0.0,0.0,0.0,0.0,0.0,8,app\src\test\java\org\apache\roller\util\UtilitiesTestSuite.java,0,0,0,0
org.apache.roller.weblogger.TestUtils, 0, 0, 0, 1, 0, 0, 0, 1, 0, 0, 0, 0, 0, 2,0.6764705882352942,0.0,0.6764705882352942,0.0,0.0,0.0,0.0,0.029411764705882353,0.0,0.0,0.0,0.0,0.0,409,app\src\main\java\org\apache\roller\weblogger\TestUtils.java,2,2,8,20
org.apache.roller.weblogger.WebloggerException, 0, 0, 0, 0, 0, 0, 0, 0, 0, 0, 0, 0, 0, 0,0.0410958904109589,0.0,0.0136986301369863,0.0410958904109589,0.0,0.0136986301369863,0.0,0.1506849315068493,0.0,0.0,0.0,0.0,0.0,14,app\src\main\java\org\apache\roller\weblogger\WebloggerException.java,0,0,0,0
org.apache.roller.weblogger.business.BookmarkManager, 0, 0, 0, 0, 0, 0, 0, 0, 0, 0, 0, 0, 0, 0,0.0,0.0,0.0,0.0,0.0,0.0,0.0,0.0,0.0,0.0,0.0,0.0,0.0,14,app\src\main\java\org\apache\roller\weblogger\business\BookmarkManager.java,0,0,0,0
org.apache.roller.weblogger.business.BootstrapException, 0, 0, 0, 0, 0, 0, 0, 0, 0, 0, 0, 0, 0, 0,0.0,0.0,0.0,0.0,0.0,0.0,0.0,0.0,0.0,0.0,0.0,0.0,0.0,8,app\src\main\java\org\apache\roller\weblogger\business\BootstrapException.java,0,0,0,0
org.apache.roller.weblogger.business.CommentTest, 1, 0, 1, 0, 0, 0, 0, 0, 0, 0, 0, 0, 0, 2,0.0,0.0,0.0,0.2,0.0,0.0,0.0,0.2,0.0,0.0,0.0,0.0,0.0,154,app\src\test\java\org\apache\roller\weblogger\business\CommentTest.java,0,0,0,0
org.apache.roller.weblogger.business.CustomTemplateRenditionTest, 1, 0, 1, 0, 0, 0, 0, 0, 0, 0, 0, 0, 0, 2,0.0,0.0,0.0,0.5,0.0,0.0,0.0,0.25,0.0,0.0,0.0,0.0,0.0,82,app\src\test\java\org\apache\roller\weblogger\business\CustomTemplateRenditionTest.java,0,0,0,0
org.apache.roller.weblogger.business.FileContentManager, 0, 0, 0, 0, 0, 0, 0, 0, 0, 0, 0, 0, 0, 0,0.0,0.0,0.0,0.0,0.0,0.0,0.0,0.0,0.0,0.0,0.0,0.0,0.0,82,app\src\main\java\org\apache\roller\weblogger\business\FileContentManager.java,0,0,0,0
org.apache.roller.weblogger.business.FileContentManagerImpl, 0, 0, 0, 0, 0, 0, 0, 1, 0, 0, 0, 0, 0, 1,0.0,0.0,0.0,0.0,0.0,0.0,0.0,0.25,0.0,0.0,0.0,0.0,0.0,235,app\src\main\java\org\apache\roller\weblogger\business\FileContentManagerImpl.java,5,13,30,78
org.apache.roller.weblogger.business.FileIOException, 0, 0, 0, 0, 0, 0, 0, 0, 0, 0, 0, 0, 0, 0,0.0,0.0,0.0,0.0,0.0,0.0,0.0,0.3333333333333333,0.0,0.0,0.0,0.0,0.0,11,app\src\main\java\org\apache\roller\weblogger\business\FileIOException.java,0,0,0,0
org.apache.roller.weblogger.business.FileNotFoundException, 0, 0, 0, 0, 0, 0, 0, 0, 0, 0, 0, 0, 0, 0,0.0,0.0,0.0,0.0,0.0,0.0,0.0,0.5,0.0,0.0,0.0,0.0,0.0,11,app\src\main\java\org\apache\roller\weblogger\business\FileNotFoundException.java,0,0,0,0
org.apache.roller.weblogger.business.FilePathException, 0, 0, 0, 0, 0, 0, 0, 0, 0, 0, 0, 0, 0, 0,0.0,0.0,0.0,0.0,0.0,0.0,0.0,0.5,0.0,0.0,0.0,0.0,0.0,11,app\src\main\java\org\apache\roller\weblogger\business\FilePathException.java,0,0,0,0
org.apache.roller.weblogger.business.FolderCRUDTest, 1, 0, 1, 0, 0, 0, 0, 0, 0, 0, 0, 0, 0, 2,0.0,0.0,0.0,0.5,0.0,0.0,0.0,0.5,0.0,0.0,0.0,0.0,0.0,58,app\src\test\java\org\apache\roller\weblogger\business\FolderCRUDTest.java,0,0,0,0
org.apache.roller.weblogger.business.FolderFunctionalityTest, 1, 0, 1, 0, 0, 0, 0, 0, 0, 0, 0, 0, 0, 2,0.0,0.0,0.0,0.5,0.0,0.0,0.0,0.5,0.0,0.0,0.0,0.0,0.0,99,app\src\test\java\org\apache\roller\weblogger\business\FolderFunctionalityTest.java,0,0,0,0
org.apache.roller.weblogger.business.GuiceWebloggerProvider, 0, 0, 0, 0, 0, 0, 0, 0, 0, 0, 0, 0, 0, 0,0.0,0.0,0.0,0.0,0.0,0.0,0.0,0.0,0.0,0.0,0.0,0.0,0.0,39,app\src\main\java\org\apache\roller\weblogger\business\GuiceWebloggerProvider.java,0,0,0,0
org.apache.roller.weblogger.business.HitCountQueue, 0, 0, 0, 0, 0, 0, 0, 0, 0, 0, 0, 0, 0, 0,0.0,0.0,0.0,0.0,0.0,0.0,0.0,0.5,0.0,0.0,0.0,0.0,0.0,42,app\src\main\java\org\apache\roller\weblogger\business\HitCountQueue.java,0,0,0,0
org.apache.roller.weblogger.business.HitCountTest, 1, 0, 1, 0, 0, 0, 0, 0, 0, 0, 0, 0, 0, 2,0.0,0.0,0.0,0.5,0.0,0.0,0.0,0.5,0.0,0.0,0.0,0.0,0.0,183,app\src\test\java\org\apache\roller\weblogger\business\HitCountTest.java,0,0,0,0
org.apache.roller.weblogger.business.IndexManagerTest, 1, 0, 1, 0, 0, 0, 0, 0, 0, 0, 0, 0, 0, 2,0.0,0.0,0.0,0.2,0.0,0.0,0.0,0.6,0.0,0.0,0.0,0.0,0.0,89,app\src\test\java\org\apache\roller\weblogger\business\IndexManagerTest.java,0,0,0,0
org.apache.roller.weblogger.business.InitializationException, 0, 0, 0, 0, 0, 0, 0, 0, 0, 0, 0, 0, 0, 0,0.0,0.0,0.0,0.0,0.0,0.0,0.0,0.5,0.0,0.0,0.0,0.0,0.0,8,app\src\main\java\org\apache\roller\weblogger\business\InitializationException.java,0,0,0,0
org.apache.roller.weblogger.business.MediaFileManager, 0, 0, 0, 0, 0, 0, 0, 0, 0, 0, 0, 0, 0, 0,0.0,0.0,0.0,0.0,0.0,0.0,0.0,0.0,0.0,0.0,0.0,0.0,0.0,8,app\src\main\java\org\apache\roller\weblogger\business\MediaFileManager.java,0,0,0,0
org.apache.roller.weblogger.business.OAuthManager, 0, 0, 0, 0, 0, 0, 0, 0, 0, 0, 0, 0, 0, 0,0.0,0.0,0.0,0.0,0.0,0.0,0.0,0.0,0.0,0.0,0.0,0.0,0.0,8,app\src\main\java\org\apache\roller\weblogger\business\OAuthManager.java,0,0,0,0
org.apache.roller.weblogger.business.PermissionTest, 1, 0, 1, 0, 0, 0, 0, 0, 0, 0, 0, 0, 0, 2,0.0,0.0,0.0,0.3333333333333333,0.0,0.0,0.0,0.3333333333333333,0.0,0.0,0.0,0.0,0.0,178,app\src\test\java\org\apache\roller\weblogger\business\PermissionTest.java,0,0,0,0
org.apache.roller.weblogger.business.PingsTest, 1, 0, 1, 0, 0, 0, 0, 0, 0, 0, 0, 0, 0, 2,0.0,0.0,0.0,0.5,0.0,0.0,0.0,0.5,0.0,0.0,0.0,0.0,0.0,195,app\src\test\java\org\apache\roller\weblogger\business\PingsTest.java,0,0,0,0
org.apache.roller.weblogger.business.PlanetManagerLocalTest, 1, 0, 1, 0, 0, 0, 0, 0, 0, 0, 0, 0, 0, 2,0.0,0.0,0.0,0.5,0.0,0.0,0.0,0.5,0.0,0.0,0.0,0.0,0.0,93,app\src\test\java\org\apache\roller\weblogger\business\PlanetManagerLocalTest.java,0,0,0,0
org.apache.roller.weblogger.business.SQLScriptRunnerTest, 1, 0, 1, 0, 0, 0, 0, 0, 0, 0, 0, 0, 0, 2,0.0,0.0,0.0,0.5,0.0,0.0,0.0,0.5,0.0,0.0,0.0,0.0,0.0,54,app\src\test\java\org\apache\roller\weblogger\business\SQLScriptRunnerTest.java,0,0,0,0
org.apache.roller.weblogger.business.TaskLockTest, 1, 0, 1, 0, 0, 0, 0, 0, 0, 0, 0, 0, 0, 2,0.3333333333333333,0.0,0.3333333333333333,0.3333333333333333,0.0,0.0,0.0,0.3333333333333333,0.0,0.0,0.0,0.0,0.0,27,app\src\test\java\org\apache\roller\weblogger\business\TaskLockTest.java,0,0,0,0
org.apache.roller.weblogger.business.TestTask, 1, 0, 1, 0, 0, 0, 0, 0, 0, 0, 0, 0, 0, 2,0.5,0.0,0.5,0.0,0.0,0.0,0.0,0.0,0.0,0.0,0.0,0.0,0.0,24,app\src\main\java\org\apache\roller\weblogger\business\TestTask.java,0,0,0,0
org.apache.roller.weblogger.business.UserTest, 1, 0, 1, 0, 0, 0, 0, 0, 0, 0, 0, 0, 0, 2,0.0,0.0,0.0,0.5,0.0,0.0,0.0,0.5,0.0,0.0,0.0,0.0,0.0,136,app\src\test\java\org\apache\roller\weblogger\business\UserTest.java,0,0,0,0
org.apache.roller.weblogger.business.WeblogCategoryCRUDTest, 1, 0, 1, 0, 0, 0, 0, 0, 0, 0, 0, 0, 0, 2,0.0,0.0,0.0,0.3333333333333333,0.0,0.0,0.0,0.6666666666666666,0.0,0.0,0.0,0.0,0.0,89,app\src\test\java\org\apache\roller\weblogger\business\WeblogCategoryCRUDTest.java,0,0,0,0
org.apache.roller.weblogger.business.WeblogCategoryFunctionalityTest, 1, 0, 1, 0, 0, 0, 0, 0, 0, 0, 0, 0, 0, 2,0.0,0.0,0.0,0.3333333333333333,0.0,0.0,0.0,0.6666666666666666,0.0,0.0,0.0,0.0,0.0,113,app\src\test\java\org\apache\roller\weblogger\business\WeblogCategoryFunctionalityTest.java,0,0,0,0
org.apache.roller.weblogger.business.WeblogPageTest, 1, 0, 1, 0, 0, 0, 0, 0, 0, 0, 0, 0, 0, 2,0.0,0.0,0.0,0.6666666666666666,0.0,0.0,0.0,0.3333333333333333,0.0,0.0,0.0,0.0,0.0,82,app\src\test\java\org\apache\roller\weblogger\business\WeblogPageTest.java,0,0,0,0
org.apache.roller.weblogger.business.WeblogTest, 1, 0, 1, 0, 0, 0, 0, 0, 0, 0, 0, 0, 0, 2,0.0,0.0,0.0,0.5,0.0,0.0,0.0,0.5,0.0,0.0,0.0,0.0,0.0,132,app\src\test\java\org\apache\roller\weblogger\business\WeblogTest.java,0,0,0,0
org.apache.roller.weblogger.business.Weblogger, 0, 0, 0, 0, 0, 0, 0, 0, 0, 0, 0, 0, 0, 0,0.0,0.0,0.0,0.0,0.0,0.0,0.0,0.0,0.0,0.0,0.0,0.0,0.0,132,app\src\main\java\org\apache\roller\weblogger\business\Weblogger.java,0,0,0,0
org.apache.roller.weblogger.business.WebloggerFactory, 0, 0, 0, 0, 0, 0, 0, 0, 0, 0, 0, 0, 0, 0,0.23853211009174313,0.0,0.2018348623853211,0.027522935779816515,0.0,0.0,0.0,0.11009174311926606,0.0,0.0,0.0,0.0,0.0,52,app\src\main\java\org\apache\roller\weblogger\business\WebloggerFactory.java,0,0,0,0
org.apache.roller.weblogger.business.WebloggerProvider, 0, 0, 0, 0, 0, 0, 0, 0, 0, 0, 0, 0, 0, 0,0.0,0.0,0.0,0.0,0.0,0.0,0.0,0.0,0.0,0.0,0.0,0.0,0.0,52,app\src\main\java\org\apache\roller\weblogger\business\WebloggerProvider.java,0,0,0,0
org.apache.roller.weblogger.business.jpa.JPAAutoPingManagerImpl, 0, 0, 0, 0, 0, 0, 0, 0, 0, 0, 0, 0, 0, 0,0.0,0.0,0.0,0.0,0.0,0.0,0.0,0.0,0.0,0.0,0.0,0.0,0.0,59,app\src\main\java\org\apache\roller\weblogger\business\jpa\JPAAutoPingManagerImpl.java,0,0,0,0
org.apache.roller.weblogger.business.jpa.JPABookmarkManagerImpl, 0, 0, 0, 0, 0, 0, 0, 1, 0, 0, 0, 0, 0, 1,0.0,0.0,0.0,0.0,0.0,0.0,0.0,0.0,0.0,0.0,0.0,0.0,0.0,163,app\src\main\java\org\apache\roller\weblogger\business\jpa\JPABookmarkManagerImpl.java,0,0,0,0
org.apache.roller.weblogger.business.jpa.JPAOAuthManagerImpl, 0, 0, 0, 0, 0, 0, 0, 1, 0, 0, 0, 0, 0, 1,0.5,0.0,0.5,0.0,0.0,0.0,0.0,0.0,0.0,0.0,0.0,0.0,0.0,263,app\src\main\java\org\apache\roller\weblogger\business\jpa\JPAOAuthManagerImpl.java,0,0,0,0
org.apache.roller.weblogger.business.jpa.JPAOAuthManagerTest, 1, 0, 1, 0, 0, 0, 0, 0, 0, 0, 0, 0, 0, 2,0.0,0.0,0.0,0.3333333333333333,0.0,0.0,0.0,0.6666666666666666,0.0,0.0,0.0,0.0,0.0,42,app\src\test\java\org\apache\roller\weblogger\business\jpa\JPAOAuthManagerTest.java,0,0,0,0
org.apache.roller.weblogger.business.jpa.JPAPingQueueManagerImpl, 0, 0, 0, 0, 0, 0, 0, 0, 0, 0, 0, 0, 0, 0,0.0,0.0,0.0,0.0,0.0,0.0,0.0,0.0,0.0,0.0,0.0,0.0,0.0,53,app\src\main\java\org\apache\roller\weblogger\business\jpa\JPAPingQueueManagerImpl.java,0,0,0,0
org.apache.roller.weblogger.business.jpa.JPAPingTargetManagerImpl, 0, 0, 0, 0, 0, 0, 0, 0, 0, 0, 0, 0, 0, 0,0.0,0.0,0.0,0.0,0.0,0.0,0.0,0.0,0.0,0.0,0.0,0.0,0.0,79,app\src\main\java\org\apache\roller\weblogger\business\jpa\JPAPingTargetManagerImpl.java,0,0,0,0
org.apache.roller.weblogger.business.jpa.JPAThreadManagerImpl, 0, 0, 0, 0, 0, 0, 0, 0, 0, 0, 0, 0, 0, 0,0.0,0.0,0.0,0.0,0.0,0.0,0.0,0.0,0.0,0.0,0.0,0.0,0.0,111,app\src\main\java\org\apache\roller\weblogger\business\jpa\JPAThreadManagerImpl.java,0,0,0,0
org.apache.roller.weblogger.business.jpa.JPAWebloggerImpl, 0, 0, 0, 0, 0, 0, 0, 1, 0, 0, 0, 0, 0, 1,0.0,0.0,0.0,0.0,0.0,0.0,0.0,0.0,0.0,0.0,0.0,0.0,0.0,58,app\src\main\java\org\apache\roller\weblogger\business\jpa\JPAWebloggerImpl.java,0,0,0,0
org.apache.roller.weblogger.business.jpa.JPAWebloggerModule, 0, 0, 0, 0, 0, 0, 0, 0, 0, 0, 0, 0, 0, 0,0.0,0.0,0.0,0.0,0.0,0.0,0.0,0.0,0.0,0.0,0.0,0.0,0.0,27,app\src\main\java\org\apache\roller\weblogger\business\jpa\JPAWebloggerModule.java,0,0,0,0
org.apache.roller.weblogger.business.pings.AutoPingManager, 0, 0, 0, 0, 0, 0, 0, 0, 0, 0, 0, 0, 0, 0,0.0,0.0,0.0,0.0,0.0,0.0,0.0,0.0,0.0,0.0,0.0,0.0,0.0,27,app\src\main\java\org\apache\roller\weblogger\business\pings\AutoPingManager.java,0,0,0,0
org.apache.roller.weblogger.business.pings.PingQueueManager, 0, 0, 0, 0, 0, 0, 0, 0, 0, 0, 0, 0, 0, 0,0.0,0.0,0.0,0.0,0.0,0.0,0.0,0.0,0.0,0.0,0.0,0.0,0.0,27,app\src\main\java\org\apache\roller\weblogger\business\pings\PingQueueManager.java,0,0,0,0
org.apache.roller.weblogger.business.pings.PingQueueProcessor, 0, 0, 0, 0, 0, 0, 0, 0, 0, 0, 0, 0, 0, 0,0.0,0.0,0.0,0.0,0.0,0.0,0.0,0.0,0.0,0.0,0.0,0.0,0.0,83,app\src\main\java\org\apache\roller\weblogger\business\pings\PingQueueProcessor.java,0,0,0,0
org.apache.roller.weblogger.business.pings.PingTargetManager, 0, 0, 0, 0, 0, 0, 0, 0, 0, 0, 0, 0, 0, 0,0.0,0.0,0.0,0.0,0.0,0.0,0.0,0.0,0.0,0.0,0.0,0.0,0.0,83,app\src\main\java\org\apache\roller\weblogger\business\pings\PingTargetManager.java,0,0,0,0
org.apache.roller.weblogger.business.plugins.CommentPluginsTest, 0, 0, 0, 0, 0, 0, 0, 0, 0, 0, 0, 0, 0, 0,0.0,0.0,0.0,0.5,0.0,0.0,0.0,0.5,0.0,0.0,0.0,0.0,0.0,17,app\src\test\java\org\apache\roller\weblogger\business\plugins\CommentPluginsTest.java,0,0,0,0
org.apache.roller.weblogger.business.plugins.comment.HTMLSubsetPlugin, 0, 0, 0, 0, 0, 0, 0, 0, 0, 0, 0, 0, 0, 0,0.0,0.0,0.0,0.0,0.0,0.0,0.0,0.0,0.0,0.0,0.0,0.0,0.0,25,app\src\main\java\org\apache\roller\weblogger\business\plugins\comment\HTMLSubsetPlugin.java,0,0,0,0
org.apache.roller.weblogger.business.plugins.comment.WeblogEntryCommentPlugin, 0, 0, 0, 0, 0, 0, 0, 0, 0, 0, 0, 0, 0, 0,0.0,0.0,0.0,0.0,0.0,0.0,0.0,0.0,0.0,0.0,0.0,0.0,0.0,25,app\src\main\java\org\apache\roller\weblogger\business\plugins\comment\WeblogEntryCommentPlugin.java,0,0,0,0
org.apache.roller.weblogger.business.plugins.entry.ObfuscateEmailPlugin, 0, 0, 0, 0, 0, 0, 0, 0, 0, 0, 0, 0, 0, 0,0.0,0.0,0.0,0.0,0.0,0.0,0.0,0.0,0.0,0.0,0.0,0.0,0.0,19,app\src\main\java\org\apache\roller\weblogger\business\plugins\entry\ObfuscateEmailPlugin.java,0,0,0,0
org.apache.roller.weblogger.business.plugins.entry.WeblogEntryPlugin, 0, 0, 0, 0, 0, 0, 0, 0, 0, 0, 0, 0, 0, 0,0.0,0.0,0.0,0.0,0.0,0.0,0.0,0.0,0.0,0.0,0.0,0.0,0.0,19,app\src\main\java\org\apache\roller\weblogger\business\plugins\entry\WeblogEntryPlugin.java,0,0,0,0
org.apache.roller.weblogger.business.runnable.ContinuousWorkerThread, 0, 0, 0, 0, 0, 0, 0, 1, 0, 0, 0, 0, 0, 1,0.0,0.0,0.0,0.0,0.0,0.0,0.0,0.0,0.0,0.0,0.0,0.0,0.0,32,app\src\main\java\org\apache\roller\weblogger\business\runnable\ContinuousWorkerThread.java,0,0,0,0
org.apache.roller.weblogger.business.runnable.RollerTaskWithLeasing, 0, 0, 0, 0, 0, 0, 0, 0, 0, 0, 0, 0, 0, 0,0.5,0.0,0.5,0.0,0.0,0.0,0.0,0.0,0.0,0.0,0.0,0.0,0.0,33,app\src\main\java\org\apache\roller\weblogger\business\runnable\RollerTaskWithLeasing.java,0,0,0,0
org.apache.roller.weblogger.business.runnable.TaskRunner, 0, 0, 0, 0, 0, 0, 0, 0, 0, 0, 0, 0, 0, 0,1.0,0.0,1.0,0.0,0.0,0.0,0.0,1.0,0.0,0.0,0.0,0.0,0.0,31,app\src\main\java\org\apache\roller\weblogger\business\runnable\TaskRunner.java,0,0,0,0
org.apache.roller.weblogger.business.runnable.TaskScheduler, 0, 0, 0, 0, 0, 0, 0, 0, 0, 0, 0, 0, 0, 0,0.0,0.0,0.0,0.0,0.0,0.0,0.0,0.0,0.0,0.0,0.0,0.0,0.0,90,app\src\main\java\org\apache\roller\weblogger\business\runnable\TaskScheduler.java,0,0,0,0
org.apache.roller.weblogger.business.runnable.ThreadManager, 0, 0, 0, 0, 0, 0, 0, 0, 0, 0, 0, 0, 0, 0,0.0,0.0,0.0,0.0,0.0,0.0,0.0,0.0,0.0,0.0,0.0,0.0,0.0,90,app\src\main\java\org\apache\roller\weblogger\business\runnable\ThreadManager.java,0,0,0,0
org.apache.roller.weblogger.business.runnable.WorkerThread, 0, 0, 0, 0, 0, 0, 0, 0, 0, 0, 0, 0, 0, 0,0.0,0.0,0.0,0.0,0.0,0.0,0.0,0.3333333333333333,0.0,0.0,0.0,0.0,0.0,32,app\src\main\java\org\apache\roller\weblogger\business\runnable\WorkerThread.java,0,0,0,0
org.apache.roller.weblogger.business.search.FieldConstants, 0, 0, 0, 0, 0, 0, 0, 0, 0, 0, 0, 0, 0, 0,0.0,0.0,0.0,0.0,0.0,0.0,0.0,0.0,0.0,0.0,0.0,0.0,0.0,19,app\src\main\java\org\apache\roller\weblogger\business\search\FieldConstants.java,0,0,0,0
org.apache.roller.weblogger.business.search.IndexManager, 0, 0, 0, 0, 0, 0, 0, 0, 0, 0, 0, 0, 0, 0,0.0,0.0,0.0,0.0,0.0,0.0,0.0,0.0,0.0,0.0,0.0,0.0,0.0,19,app\src\main\java\org\apache\roller\weblogger\business\search\IndexManager.java,0,0,0,0
org.apache.roller.weblogger.business.search.IndexManagerImpl, 1, 0, 0, 1, 0, 0, 0, 0, 0, 0, 0, 0, 0, 2,0.0,0.0,0.0,0.0,0.0,0.0,0.0,0.5,0.0,0.0,0.0,0.0,0.0,245,app\src\main\java\org\apache\roller\weblogger\business\search\IndexManagerImpl.java,0,0,0,0
org.apache.roller.weblogger.business.search.IndexUtil, 0, 0, 0, 0, 0, 0, 0, 0, 0, 0, 0, 0, 0, 0,0.25,0.0,0.0,0.25,0.0,0.0,0.0,0.5,0.0,0.0,0.0,0.0,0.0,21,app\src\main\java\org\apache\roller\weblogger\business\search\IndexUtil.java,0,0,0,0
org.apache.roller.weblogger.business.search.operations.AddEntryOperation, 0, 0, 0, 0, 0, 0, 0, 1, 0, 0, 0, 0, 0, 1,0.5,0.0,0.25,0.25,0.0,0.0,0.0,0.0,0.0,0.0,0.0,0.0,0.0,33,app\src\main\java\org\apache\roller\weblogger\business\search\operations\AddEntryOperation.java,0,0,0,0
org.apache.roller.weblogger.business.search.operations.ReIndexEntryOperation, 0, 0, 0, 0, 0, 0, 0, 1, 0, 0, 0, 0, 0, 1,0.3333333333333333,0.0,0.0,0.3333333333333333,0.0,0.0,0.0,0.0,0.0,0.0,0.0,0.0,0.0,36,app\src\main\java\org\apache\roller\weblogger\business\search\operations\ReIndexEntryOperation.java,0,0,0,0
org.apache.roller.weblogger.business.search.operations.ReadFromIndexOperation, 0, 0, 0, 0, 0, 0, 0, 0, 0, 0, 0, 0, 0, 0,0.5,0.0,0.0,0.5,0.0,0.0,0.0,0.0,0.0,0.0,0.0,0.0,0.0,17,app\src\main\java\org\apache\roller\weblogger\business\search\operations\ReadFromIndexOperation.java,0,0,0,0
org.apache.roller.weblogger.business.search.operations.RebuildWebsiteIndexOperation, 0, 0, 0, 0, 0, 0, 0, 1, 0, 0, 0, 0, 0, 1,0.2,0.0,0.0,0.4,0.0,0.0,0.0,0.0,0.0,0.0,0.0,0.0,0.0,74,app\src\main\java\org\apache\roller\weblogger\business\search\operations\RebuildWebsiteIndexOperation.java,0,0,0,0
org.apache.roller.weblogger.business.search.operations.RemoveEntryOperation, 0, 0, 0, 0, 0, 0, 0, 1, 0, 0, 0, 0, 0, 1,0.3333333333333333,0.0,0.0,0.3333333333333333,0.0,0.0,0.0,0.0,0.0,0.0,0.0,0.0,0.0,32,app\src\main\java\org\apache\roller\weblogger\business\search\operations\RemoveEntryOperation.java,0,0,0,0
org.apache.roller.weblogger.business.search.operations.RemoveWebsiteIndexOperation, 0, 0, 0, 0, 0, 0, 0, 1, 0, 0, 0, 0, 0, 1,0.25,0.0,0.0,0.25,0.0,0.0,0.0,0.0,0.0,0.0,0.0,0.0,0.0,46,app\src\main\java\org\apache\roller\weblogger\business\search\operations\RemoveWebsiteIndexOperation.java,0,0,0,0
org.apache.roller.weblogger.business.search.operations.SearchOperation, 0, 0, 0, 0, 0, 0, 0, 0, 0, 0, 0, 0, 0, 0,0.5,0.0,0.25,0.25,0.0,0.0,0.0,0.0,0.0,0.0,0.0,0.0,0.0,93,app\src\main\java\org\apache\roller\weblogger\business\search\operations\SearchOperation.java,0,0,0,0
org.apache.roller.weblogger.business.search.operations.WriteToIndexOperation, 0, 0, 0, 0, 0, 0, 0, 0, 0, 0, 0, 0, 0, 0,0.16666666666666666,0.0,0.0,0.16666666666666666,0.0,0.0,0.0,0.8333333333333334,0.0,0.0,0.0,0.0,0.0,20,app\src\main\java\org\apache\roller\weblogger\business\search\operations\WriteToIndexOperation.java,0,0,0,0
org.apache.roller.weblogger.business.startup.ClasspathDatabaseScriptProvider, 0, 0, 0, 0, 0, 0, 0, 0, 0, 0, 0, 0, 0, 0,0.0,0.0,0.0,1.0,0.0,0.0,0.0,1.0,0.0,0.0,0.0,0.0,0.0,10,app\src\main\java\org\apache\roller\weblogger\business\startup\ClasspathDatabaseScriptProvider.java,0,0,0,0
org.apache.roller.weblogger.business.startup.DatabaseScriptProvider, 0, 0, 0, 0, 0, 0, 0, 0, 0, 0, 0, 0, 0, 0,0.0,0.0,0.0,0.0,0.0,0.0,0.0,0.0,0.0,0.0,0.0,0.0,0.0,10,app\src\main\java\org\apache\roller\weblogger\business\startup\DatabaseScriptProvider.java,0,0,0,0
org.apache.roller.weblogger.business.startup.StartupException, 0, 0, 0, 0, 0, 0, 0, 1, 0, 0, 0, 0, 0, 1,0.0,0.0,0.0,0.0,0.0,0.0,0.0,0.0,0.0,0.0,0.0,0.0,0.0,30,app\src\main\java\org\apache\roller\weblogger\business\startup\StartupException.java,0,0,0,0
org.apache.roller.weblogger.business.startup.WebloggerStartup, 0, 0, 0, 0, 0, 0, 0, 0, 0, 0, 0, 0, 0, 0,0.14285714285714285,0.0,0.14285714285714285,0.14285714285714285,0.0,0.0,0.0,0.2857142857142857,0.0,0.0,0.0,0.0,0.0,80,app\src\main\java\org\apache\roller\weblogger\business\startup\WebloggerStartup.java,0,0,0,0
org.apache.roller.weblogger.business.themes.SharedTheme, 0, 0, 0, 0, 0, 0, 0, 0, 0, 0, 0, 0, 0, 0,0.0,0.0,0.0,0.0,0.0,0.0,0.0,0.0,0.0,0.0,0.0,0.0,0.0,49,app\src\main\java\org\apache\roller\weblogger\business\themes\SharedTheme.java,0,0,0,0
org.apache.roller.weblogger.business.themes.SharedThemeResourceFromDir, 0, 0, 0, 0, 0, 0, 0, 0, 0, 0, 0, 0, 0, 0,0.0,0.0,0.0,0.0,0.0,0.0,0.0,0.0,0.0,0.0,0.0,0.0,0.0,40,app\src\main\java\org\apache\roller\weblogger\business\themes\SharedThemeResourceFromDir.java,0,0,0,0
org.apache.roller.weblogger.business.themes.SharedThemeTemplateRendition, 0, 0, 0, 0, 0, 0, 0, 0, 0, 0, 0, 0, 0, 0,0.0,0.0,0.0,0.0,0.0,0.0,0.0,0.0,0.0,0.0,0.0,0.0,0.0,53,app\src\main\java\org\apache\roller\weblogger\business\themes\SharedThemeTemplateRendition.java,0,0,0,0
org.apache.roller.weblogger.business.themes.ThemeInitializationException, 0, 0, 0, 0, 0, 0, 0, 0, 0, 0, 0, 0, 0, 0,0.0,0.0,0.0,0.0,0.0,0.0,0.0,0.0,0.0,0.0,0.0,0.0,0.0,14,app\src\main\java\org\apache\roller\weblogger\business\themes\ThemeInitializationException.java,0,0,0,0
org.apache.roller.weblogger.business.themes.ThemeManager, 0, 0, 0, 0, 0, 0, 0, 0, 0, 0, 0, 0, 0, 0,0.0,0.0,0.0,0.0,0.0,0.0,0.0,0.0,0.0,0.0,0.0,0.0,0.0,14,app\src\main\java\org\apache\roller\weblogger\business\themes\ThemeManager.java,0,0,0,0
org.apache.roller.weblogger.business.themes.ThemeMetadata, 0, 0, 0, 0, 0, 0, 0, 0, 0, 0, 0, 0, 0, 0,0.0,0.0,0.0,0.0,0.0,0.0,0.0,0.0,0.0,0.0,0.0,0.0,0.0,73,app\src\main\java\org\apache\roller\weblogger\business\themes\ThemeMetadata.java,0,0,0,0
org.apache.roller.weblogger.business.themes.ThemeMetadataParser, 0, 0, 0, 0, 0, 0, 0, 0, 0, 0, 0, 0, 0, 0,0.0,0.0,0.0,0.0,0.0,0.0,0.0,0.0,0.0,0.0,0.0,0.0,0.0,151,app\src\main\java\org\apache\roller\weblogger\business\themes\ThemeMetadataParser.java,0,0,0,0
org.apache.roller.weblogger.business.themes.ThemeMetadataTemplateRendition, 0, 0, 0, 0, 0, 0, 0, 0, 0, 0, 0, 0, 0, 0,0.0,0.0,0.0,0.0,0.0,0.0,0.0,0.0,0.0,0.0,0.0,0.0,0.0,23,app\src\main\java\org\apache\roller\weblogger\business\themes\ThemeMetadataTemplateRendition.java,0,0,0,0
org.apache.roller.weblogger.business.themes.ThemeNotFoundException, 0, 0, 0, 0, 0, 0, 0, 0, 0, 0, 0, 0, 0, 0,0.0,0.0,0.0,0.0,0.0,0.0,0.0,0.0,0.0,0.0,0.0,0.0,0.0,14,app\src\main\java\org\apache\roller\weblogger\business\themes\ThemeNotFoundException.java,0,0,0,0
org.apache.roller.weblogger.business.themes.ThemeParsingException, 0, 0, 0, 0, 0, 0, 0, 0, 0, 0, 0, 0, 0, 0,0.0,0.0,0.0,0.0,0.0,0.0,0.0,0.0,0.0,0.0,0.0,0.0,0.0,14,app\src\main\java\org\apache\roller\weblogger\business\themes\ThemeParsingException.java,0,0,0,0
org.apache.roller.weblogger.business.themes.WeblogCustomTheme, 0, 0, 0, 0, 0, 0, 0, 0, 0, 0, 0, 0, 0, 0,0.0,0.0,0.0,0.0,0.0,0.0,0.0,0.0,0.0,0.0,0.0,0.0,0.0,68,app\src\main\java\org\apache\roller\weblogger\business\themes\WeblogCustomTheme.java,0,0,0,0
org.apache.roller.weblogger.config.runtime.ConfigDef, 0, 0, 0, 0, 0, 0, 0, 0, 0, 0, 0, 0, 0, 0,0.0,0.0,0.0,0.0,0.0,0.0,0.0,0.0,0.0,0.0,0.0,0.0,0.0,31,app\src\main\java\org\apache\roller\weblogger\config\runtime\ConfigDef.java,0,0,0,0
org.apache.roller.weblogger.config.runtime.DisplayGroup, 0, 0, 0, 0, 0, 0, 0, 0, 0, 0, 0, 0, 0, 0,0.0,0.0,0.0,0.0,0.0,0.0,0.0,0.0,0.0,0.0,0.0,0.0,0.0,38,app\src\main\java\org\apache\roller\weblogger\config\runtime\DisplayGroup.java,0,0,0,0
org.apache.roller.weblogger.config.runtime.PropertyDef, 0, 0, 0, 0, 0, 0, 0, 0, 0, 0, 0, 0, 0, 0,0.0,0.0,0.0,0.0,0.0,0.0,0.0,0.0,0.0,0.0,0.0,0.0,0.0,62,app\src\main\java\org\apache\roller\weblogger\config\runtime\PropertyDef.java,0,0,0,0
org.apache.roller.weblogger.config.runtime.RuntimeConfigDefs, 0, 0, 0, 0, 0, 0, 0, 0, 0, 0, 0, 0, 0, 0,0.0,0.0,0.0,0.0,0.0,0.0,0.0,0.0,0.0,0.0,0.0,0.0,0.0,21,app\src\main\java\org\apache\roller\weblogger\config\runtime\RuntimeConfigDefs.java,0,0,0,0
org.apache.roller.weblogger.config.runtime.RuntimeConfigDefsParser, 0, 0, 0, 0, 0, 0, 0, 0, 0, 0, 0, 0, 0, 0,0.0,0.0,0.0,0.0,0.0,0.0,0.0,0.0,0.0,0.0,0.0,0.0,0.0,51,app\src\main\java\org\apache\roller\weblogger\config\runtime\RuntimeConfigDefsParser.java,0,0,0,0
org.apache.roller.weblogger.planet.business.WebloggerRomeFeedFetcherTest, 1, 0, 1, 0, 0, 0, 0, 0, 0, 0, 0, 0, 0, 2,0.0,0.0,0.0,0.5,0.0,0.0,0.0,0.5,0.0,0.0,0.0,0.0,0.0,34,app\src\test\java\org\apache\roller\weblogger\planet\business\WebloggerRomeFeedFetcherTest.java,0,0,0,0
org.apache.roller.weblogger.planet.ui.PlanetGroups, 0, 0, 0, 0, 0, 0, 0, 0, 0, 0, 0, 0, 0, 0,0.0,0.0,0.0,0.0,0.0,0.0,0.0,0.0,0.0,0.0,0.0,0.0,0.0,101,app\src\main\java\org\apache\roller\weblogger\planet\ui\PlanetGroups.java,0,0,0,0
org.apache.roller.weblogger.planet.ui.PlanetGroupsBean, 0, 0, 0, 0, 0, 0, 0, 0, 0, 0, 0, 0, 0, 0,0.0,0.0,0.0,0.0,0.0,0.0,0.0,0.0,0.0,0.0,0.0,0.0,0.0,32,app\src\main\java\org\apache\roller\weblogger\planet\ui\PlanetGroupsBean.java,0,0,0,0
org.apache.roller.weblogger.planet.ui.PlanetSubscriptions, 0, 0, 0, 0, 0, 0, 0, 0, 0, 0, 0, 0, 0, 0,0.0,0.0,0.0,0.0,0.0,0.0,0.0,0.0,0.0,0.0,0.0,0.0,0.0,116,app\src\main\java\org\apache\roller\weblogger\planet\ui\PlanetSubscriptions.java,0,0,0,0
org.apache.roller.weblogger.planet.ui.PlanetUIAction, 0, 0, 0, 0, 0, 0, 0, 0, 0, 0, 0, 0, 0, 0,0.0,0.0,0.0,0.0,0.0,0.0,0.0,0.0,0.0,0.0,0.0,0.0,0.0,16,app\src\main\java\org\apache\roller\weblogger\planet\ui\PlanetUIAction.java,0,0,0,0
org.apache.roller.weblogger.pojos.CommentSearchCriteria, 0, 0, 0, 0, 0, 0, 0, 0, 0, 0, 0, 0, 0, 0,0.5,0.0,0.5,0.0,0.0,0.0,0.0,0.5,0.0,0.0,0.0,0.0,0.0,65,app\src\main\java\org\apache\roller\weblogger\pojos\CommentSearchCriteria.java,0,0,0,0
org.apache.roller.weblogger.pojos.CustomTemplateRendition, 0, 0, 0, 0, 0, 0, 0, 0, 0, 0, 0, 0, 0, 0,0.25,0.0,0.25,0.5,0.0,0.0,0.0,0.0,0.0,0.0,0.0,0.0,0.0,68,app\src\main\java\org\apache\roller\weblogger\pojos\CustomTemplateRendition.java,0,0,0,0
org.apache.roller.weblogger.pojos.FileContent, 0, 0, 0, 0, 0, 0, 0, 1, 0, 0, 0, 0, 0, 1,0.0,0.0,0.0,0.0,0.0,0.0,0.0,1.0,0.0,0.0,0.0,0.0,0.0,32,app\src\main\java\org\apache\roller\weblogger\pojos\FileContent.java,0,0,0,0
org.apache.roller.weblogger.pojos.MediaFileComparator, 0, 0, 0, 0, 0, 0, 0, 0, 0, 0, 0, 0, 0, 0,0.0,0.0,0.0,0.0,0.0,0.0,0.0,0.0,0.0,0.0,0.0,0.0,0.0,15,app\src\main\java\org\apache\roller\weblogger\pojos\MediaFileComparator.java,0,0,0,0
org.apache.roller.weblogger.pojos.MediaFileDirectory, 0, 0, 0, 0, 0, 0, 0, 1, 0, 0, 0, 0, 0, 1,0.0,0.0,0.0,0.25,0.0,0.0,0.0,0.0,0.0,0.0,0.0,0.0,0.0,91,app\src\main\java\org\apache\roller\weblogger\pojos\MediaFileDirectory.java,0,0,0,0
org.apache.roller.weblogger.pojos.MediaFileDirectoryComparator, 0, 0, 0, 0, 0, 0, 0, 0, 0, 0, 0, 0, 0, 0,0.0,0.0,0.0,0.0,0.0,0.0,0.0,1.0,0.0,0.0,0.0,0.0,0.0,13,app\src\main\java\org\apache\roller\weblogger\pojos\MediaFileDirectoryComparator.java,0,0,0,0
org.apache.roller.weblogger.pojos.MediaFileFilter, 0, 0, 0, 0, 0, 0, 0, 0, 0, 0, 0, 0, 0, 0,0.0,0.0,0.0,0.0,0.0,0.0,0.0,0.0,0.0,0.0,0.0,0.0,0.0,60,app\src\main\java\org\apache\roller\weblogger\pojos\MediaFileFilter.java,0,0,0,0
org.apache.roller.weblogger.pojos.MediaFileTag, 0, 0, 0, 0, 0, 0, 0, 0, 0, 0, 0, 0, 0, 0,0.0,0.0,0.0,0.0,0.0,0.0,0.0,0.0,0.0,0.0,0.0,0.0,0.0,49,app\src\main\java\org\apache\roller\weblogger\pojos\MediaFileTag.java,0,0,0,0
org.apache.roller.weblogger.pojos.ObjectPermission, 0, 0, 0, 0, 0, 0, 0, 0, 0, 0, 0, 0, 0, 0,0.0,0.0,0.0,0.0,0.0,0.0,0.0,0.0,0.0,0.0,0.0,0.0,0.0,53,app\src\main\java\org\apache\roller\weblogger\pojos\ObjectPermission.java,0,0,0,0
org.apache.roller.weblogger.pojos.Resource, 0, 0, 0, 0, 0, 0, 0, 0, 0, 0, 0, 0, 0, 0,0.0,0.0,0.0,0.0,0.0,0.0,0.0,0.0,0.0,0.0,0.0,0.0,0.0,53,app\src\main\java\org\apache\roller\weblogger\pojos\Resource.java,0,0,0,0
org.apache.roller.weblogger.pojos.RollerPermission, 0, 0, 0, 0, 0, 0, 0, 0, 0, 0, 0, 0, 0, 0,0.5,0.0,0.5,0.0,0.0,0.0,0.0,0.0,0.0,0.0,0.0,0.0,0.0,57,app\src\main\java\org\apache\roller\weblogger\pojos\RollerPermission.java,0,0,0,0
org.apache.roller.weblogger.pojos.RuntimeConfigProperty, 0, 0, 0, 0, 0, 0, 0, 0, 0, 0, 0, 0, 0, 0,0.0,0.0,0.0,0.0,0.0,0.0,0.0,0.0,0.0,0.0,0.0,0.0,0.0,42,app\src\main\java\org\apache\roller\weblogger\pojos\RuntimeConfigProperty.java,0,0,0,0
org.apache.roller.weblogger.pojos.StatCountCountComparator, 0, 0, 0, 0, 0, 0, 0, 0, 0, 0, 0, 0, 0, 0,0.0,0.0,0.0,0.0,0.0,0.0,0.0,0.0,0.0,0.0,0.0,0.0,0.0,19,app\src\main\java\org\apache\roller\weblogger\pojos\StatCountCountComparator.java,0,0,0,0
org.apache.roller.weblogger.pojos.StaticTemplate, 0, 0, 0, 0, 0, 0, 0, 0, 0, 0, 0, 0, 0, 0,0.0,0.0,0.0,0.0,0.0,0.0,0.0,0.0,0.0,0.0,0.0,0.0,0.0,49,app\src\main\java\org\apache\roller\weblogger\pojos\StaticTemplate.java,0,0,0,0
org.apache.roller.weblogger.pojos.StaticThemeTemplate, 0, 0, 0, 1, 0, 0, 0, 0, 0, 0, 0, 0, 0, 1,0.0,0.0,0.0,0.0,0.0,0.0,0.0,0.0,0.0,0.0,0.0,0.0,0.0,96,app\src\main\java\org\apache\roller\weblogger\pojos\StaticThemeTemplate.java,0,0,0,0
org.apache.roller.weblogger.pojos.TagStatComparator, 0, 0, 0, 0, 0, 0, 0, 0, 0, 0, 0, 0, 0, 0,0.0,0.0,0.0,0.0,0.0,0.0,0.0,0.0,0.0,0.0,0.0,0.0,0.0,8,app\src\main\java\org\apache\roller\weblogger\pojos\TagStatComparator.java,0,0,0,0
org.apache.roller.weblogger.pojos.TagStatCountComparator, 0, 0, 0, 0, 0, 0, 0, 0, 0, 0, 0, 0, 0, 0,0.0,0.0,0.0,0.0,0.0,0.0,0.0,0.0,0.0,0.0,0.0,0.0,0.0,17,app\src\main\java\org\apache\roller\weblogger\pojos\TagStatCountComparator.java,0,0,0,0
org.apache.roller.weblogger.pojos.Template, 0, 0, 0, 0, 0, 0, 0, 0, 0, 0, 0, 0, 0, 0,0.0,0.0,0.0,0.0,0.0,0.0,0.0,0.0,0.0,0.0,0.0,0.0,0.0,17,app\src\main\java\org\apache\roller\weblogger\pojos\Template.java,0,0,0,0
org.apache.roller.weblogger.pojos.TemplateRendition, 0, 0, 0, 0, 0, 0, 0, 0, 0, 0, 0, 0, 0, 0,0.0,0.0,0.0,0.0,0.0,0.0,0.0,0.0,0.0,0.0,0.0,0.0,0.0,17,app\src\main\java\org\apache\roller\weblogger\pojos\TemplateRendition.java,0,0,0,0
org.apache.roller.weblogger.pojos.Theme, 0, 0, 0, 0, 0, 0, 0, 0, 0, 0, 0, 0, 0, 0,0.0,0.0,0.0,0.0,0.0,0.0,0.0,0.0,0.0,0.0,0.0,0.0,0.0,17,app\src\main\java\org\apache\roller\weblogger\pojos\Theme.java,0,0,0,0
org.apache.roller.weblogger.pojos.ThemeResource, 0, 0, 0, 0, 0, 0, 0, 0, 0, 0, 0, 0, 0, 0,0.0,0.0,0.0,0.0,0.0,0.0,0.0,0.0,0.0,0.0,0.0,0.0,0.0,17,app\src\main\java\org\apache\roller\weblogger\pojos\ThemeResource.java,0,0,0,0
org.apache.roller.weblogger.pojos.ThemeTemplate, 0, 0, 0, 0, 0, 0, 0, 0, 0, 0, 0, 0, 0, 0,0.0,0.0,0.0,0.0,0.0,0.0,0.0,0.0,0.0,0.0,0.0,0.0,0.0,17,app\src\main\java\org\apache\roller\weblogger\pojos\ThemeTemplate.java,0,0,0,0
org.apache.roller.weblogger.pojos.WeblogCategory, 0, 0, 0, 0, 0, 0, 0, 1, 0, 0, 0, 0, 0, 1,0.21428571428571427,0.0,0.21428571428571427,0.21428571428571427,0.0,0.0,0.0,0.07142857142857142,0.0,0.0,0.0,0.0,0.0,111,app\src\main\java\org\apache\roller\weblogger\pojos\WeblogCategory.java,0,0,0,0
org.apache.roller.weblogger.pojos.WeblogEntrySearchCriteria, 0, 0, 0, 1, 0, 0, 0, 0, 0, 0, 0, 0, 0, 1,0.0,0.0,0.0,0.0,0.0,0.0,0.0,1.0,0.0,0.0,0.0,0.0,0.0,95,app\src\main\java\org\apache\roller\weblogger\pojos\WeblogEntrySearchCriteria.java,0,0,0,0
org.apache.roller.weblogger.pojos.WeblogEntryTagComparator, 0, 0, 0, 0, 0, 0, 0, 0, 0, 0, 0, 0, 0, 0,0.0,0.0,0.0,0.0,0.0,0.0,0.0,0.0,0.0,0.0,0.0,0.0,0.0,9,app\src\main\java\org\apache\roller\weblogger\pojos\WeblogEntryTagComparator.java,0,0,0,0
org.apache.roller.weblogger.pojos.WeblogEntryWrapperComparator, 0, 0, 0, 0, 0, 0, 0, 0, 0, 0, 0, 0, 0, 0,0.0,0.0,0.0,0.0,0.0,0.0,0.0,0.0,0.0,0.0,0.0,0.0,0.0,17,app\src\main\java\org\apache\roller\weblogger\pojos\WeblogEntryWrapperComparator.java,0,0,0,0
org.apache.roller.weblogger.pojos.WeblogTemplate, 0, 0, 0, 1, 0, 0, 0, 0, 0, 0, 0, 0, 0, 1,0.2857142857142857,0.0,0.2857142857142857,0.14285714285714285,0.0,0.0,0.0,0.0,0.0,0.0,0.0,0.0,0.0,139,app\src\main\java\org\apache\roller\weblogger\pojos\WeblogTemplate.java,0,0,0,0
org.apache.roller.weblogger.pojos.WeblogTheme, 0, 0, 0, 0, 0, 0, 0, 0, 0, 0, 0, 0, 0, 0,0.0,0.0,0.0,0.0,0.0,0.0,0.0,0.0,0.0,0.0,0.0,0.0,0.0,10,app\src\main\java\org\apache\roller\weblogger\pojos\WeblogTheme.java,0,0,0,0
org.apache.roller.weblogger.pojos.wrapper.ThemeTemplateWrapper, 0, 0, 0, 0, 0, 0, 0, 0, 0, 0, 0, 0, 0, 0,0.0,0.0,0.0,1.0,0.0,0.0,0.0,0.0,0.0,0.0,0.0,0.0,0.0,33,app\src\main\java\org\apache\roller\weblogger\pojos\wrapper\ThemeTemplateWrapper.java,0,0,0,0
org.apache.roller.weblogger.pojos.wrapper.UserWrapper, 0, 0, 0, 0, 0, 0, 0, 0, 0, 0, 0, 0, 0, 0,0.0,0.0,0.0,0.5,0.0,0.0,0.0,0.0,0.0,0.0,0.0,0.0,0.0,36,app\src\main\java\org\apache\roller\weblogger\pojos\wrapper\UserWrapper.java,0,0,0,0
org.apache.roller.weblogger.pojos.wrapper.WeblogBookmarkFolderWrapper, 0, 0, 0, 0, 0, 0, 0, 0, 0, 0, 0, 0, 0, 0,0.0,0.0,0.0,0.5,0.0,0.0,0.0,0.0,0.0,0.0,0.0,0.0,0.0,25,app\src\main\java\org\apache\roller\weblogger\pojos\wrapper\WeblogBookmarkFolderWrapper.java,0,0,0,0
org.apache.roller.weblogger.pojos.wrapper.WeblogBookmarkWrapper, 0, 0, 0, 0, 0, 0, 0, 0, 0, 0, 0, 0, 0, 0,0.0,0.0,0.0,0.0,0.0,0.0,0.0,0.0,0.0,0.0,0.0,0.0,0.0,36,app\src\main\java\org\apache\roller\weblogger\pojos\wrapper\WeblogBookmarkWrapper.java,0,0,0,0
org.apache.roller.weblogger.pojos.wrapper.WeblogCategoryWrapper, 0, 0, 0, 0, 0, 0, 0, 0, 0, 0, 0, 0, 0, 0,0.0,0.0,0.0,0.5,0.0,0.0,0.0,0.5,0.0,0.0,0.0,0.0,0.0,44,app\src\main\java\org\apache\roller\weblogger\pojos\wrapper\WeblogCategoryWrapper.java,0,0,0,0
org.apache.roller.weblogger.pojos.wrapper.WeblogEntryAttributeWrapper, 0, 0, 0, 0, 0, 0, 0, 0, 0, 0, 0, 0, 0, 0,0.0,0.0,0.0,0.0,0.0,0.0,0.0,0.0,0.0,0.0,0.0,0.0,0.0,18,app\src\main\java\org\apache\roller\weblogger\pojos\wrapper\WeblogEntryAttributeWrapper.java,0,0,0,0
org.apache.roller.weblogger.pojos.wrapper.WeblogEntryCommentWrapper, 0, 0, 0, 0, 0, 0, 0, 0, 0, 0, 0, 0, 0, 0,0.0,0.0,0.0,0.25,0.0,0.0,0.0,0.25,0.0,0.0,0.0,0.0,0.0,69,app\src\main\java\org\apache\roller\weblogger\pojos\wrapper\WeblogEntryCommentWrapper.java,0,0,0,0
org.apache.roller.weblogger.pojos.wrapper.WeblogEntryTagWrapper, 0, 0, 0, 0, 0, 0, 0, 0, 0, 0, 0, 0, 0, 0,0.0,0.0,0.0,0.0,0.0,0.0,0.0,0.0,0.0,0.0,0.0,0.0,0.0,21,app\src\main\java\org\apache\roller\weblogger\pojos\wrapper\WeblogEntryTagWrapper.java,0,0,0,0
org.apache.roller.weblogger.pojos.wrapper.WeblogWrapper, 0, 0, 0, 1, 0, 0, 0, 0, 0, 0, 0, 0, 0, 1,0.0,0.0,0.0,0.0,0.0,0.0,0.0,0.0,0.0,0.0,0.0,0.0,0.0,219,app\src\main\java\org\apache\roller\weblogger\pojos\wrapper\WeblogWrapper.java,0,0,0,0
org.apache.roller.weblogger.ui.UIPluginManagerTest, 0, 0, 0, 0, 0, 0, 0, 0, 0, 0, 0, 0, 0, 0,0.0,0.0,0.0,0.0,0.0,0.0,0.0,0.0,0.0,0.0,0.0,0.0,0.0,19,app\src\test\java\org\apache\roller\weblogger\ui\UIPluginManagerTest.java,0,0,0,0
org.apache.roller.weblogger.ui.UITestSuite, 0, 0, 0, 0, 0, 0, 0, 0, 0, 0, 0, 0, 0, 0,0.0,0.0,0.0,0.0,0.0,0.0,0.0,0.0,0.0,0.0,0.0,0.0,0.0,8,app\src\test\java\org\apache\roller\weblogger\ui\UITestSuite.java,0,0,0,0
org.apache.roller.weblogger.ui.core.CmaRollerContext, 0, 0, 0, 0, 0, 0, 0, 0, 0, 0, 0, 0, 0, 0,0.0,0.0,0.0,0.0,0.0,0.0,0.0,0.0,0.0,0.0,0.0,0.0,0.0,7,app\src\main\java\org\apache\roller\weblogger\ui\core\CmaRollerContext.java,0,0,0,0
org.apache.roller.weblogger.ui.core.RollerSession, 0, 0, 0, 0, 0, 0, 0, 0, 0, 0, 0, 0, 0, 0,0.0,0.0,0.0,0.0,0.0,0.0,0.0,0.0,0.0,0.0,0.0,0.0,0.0,86,app\src\main\java\org\apache\roller\weblogger\ui\core\RollerSession.java,0,0,0,0
org.apache.roller.weblogger.ui.core.filters.BootstrapFilter, 0, 0, 0, 0, 0, 0, 0, 1, 0, 0, 0, 0, 0, 1,0.0,0.0,0.0,0.0,0.0,0.0,0.0,0.0,0.0,0.0,0.0,0.0,0.0,33,app\src\main\java\org\apache\roller\weblogger\ui\core\filters\BootstrapFilter.java,0,0,0,0
org.apache.roller.weblogger.ui.core.filters.CharEncodingFilter, 0, 0, 0, 0, 0, 0, 0, 1, 0, 0, 0, 0, 0, 1,0.0,0.0,0.0,0.0,0.0,0.0,0.0,0.0,0.0,0.0,0.0,0.0,0.0,25,app\src\main\java\org\apache\roller\weblogger\ui\core\filters\CharEncodingFilter.java,0,0,0,0
org.apache.roller.weblogger.ui.core.filters.DebugFilter, 0, 0, 0, 0, 0, 0, 0, 1, 0, 0, 0, 0, 0, 1,0.0,0.0,0.0,0.0,0.0,0.0,0.0,0.0,0.0,0.0,0.0,0.0,0.0,21,app\src\main\java\org\apache\roller\weblogger\ui\core\filters\DebugFilter.java,0,0,0,0
org.apache.roller.weblogger.ui.core.filters.IPBanFilter, 0, 0, 0, 0, 0, 0, 0, 1, 0, 0, 0, 0, 0, 1,0.0,0.0,0.0,0.0,0.0,0.0,0.0,0.0,0.0,0.0,0.0,0.0,0.0,19,app\src\main\java\org\apache\roller\weblogger\ui\core\filters\IPBanFilter.java,0,0,0,0
org.apache.roller.weblogger.ui.core.filters.LoadSaltFilter, 0, 0, 0, 0, 0, 0, 0, 1, 0, 0, 0, 0, 0, 1,0.0,0.0,0.0,0.0,0.0,0.0,0.0,0.0,0.0,0.0,0.0,0.0,0.0,14,app\src\main\java\org\apache\roller\weblogger\ui\core\filters\LoadSaltFilter.java,0,0,0,0
org.apache.roller.weblogger.ui.core.filters.PersistenceSessionFilter, 0, 0, 0, 0, 0, 0, 0, 1, 0, 0, 0, 0, 0, 1,0.0,0.0,0.0,0.0,0.0,0.0,0.0,0.0,0.0,0.0,0.0,0.0,0.0,20,app\src\main\java\org\apache\roller\weblogger\ui\core\filters\PersistenceSessionFilter.java,0,0,0,0
org.apache.roller.weblogger.ui.core.filters.RoleAssignmentFilter, 0, 0, 0, 0, 0, 0, 0, 1, 0, 0, 0, 0, 0, 1,0.0,0.0,0.0,0.0,0.0,0.0,0.0,0.0,0.0,0.0,0.0,0.0,0.0,12,app\src\main\java\org\apache\roller\weblogger\ui\core\filters\RoleAssignmentFilter.java,0,0,0,0
org.apache.roller.weblogger.ui.core.filters.RoleAssignmentRequestWrapper, 0, 0, 0, 0, 0, 0, 0, 0, 0, 0, 0, 0, 0, 0,0.0,0.0,0.0,0.0,0.0,0.0,0.0,0.3333333333333333,0.0,0.0,0.0,0.0,0.0,18,app\src\main\java\org\apache\roller\weblogger\ui\core\filters\RoleAssignmentFilter.java,0,0,0,0
org.apache.roller.weblogger.ui.core.filters.SchemeEnforcementFilter, 0, 0, 0, 0, 0, 0, 0, 1, 0, 0, 0, 0, 0, 1,0.0,0.0,0.0,0.0,0.0,0.0,0.0,0.0,0.0,0.0,0.0,0.0,0.0,95,app\src\main\java\org\apache\roller\weblogger\ui\core\filters\SchemeEnforcementFilter.java,0,0,0,0
org.apache.roller.weblogger.ui.core.filters.ValidateSaltFilter, 0, 0, 0, 0, 0, 0, 0, 1, 0, 0, 0, 0, 0, 1,0.0,0.0,0.0,0.0,0.0,0.0,0.0,0.0,0.0,0.0,0.0,0.0,0.0,37,app\src\main\java\org\apache\roller\weblogger\ui\core\filters\ValidateSaltFilter.java,0,0,0,0
org.apache.roller.weblogger.ui.core.plugins.TextEditor, 0, 0, 0, 0, 0, 0, 0, 0, 0, 0, 0, 0, 0, 0,0.0,0.0,0.0,0.0,0.0,0.0,0.0,0.0,0.0,0.0,0.0,0.0,0.0,12,app\src\main\java\org\apache\roller\weblogger\ui\core\plugins\TextEditor.java,0,0,0,0
org.apache.roller.weblogger.ui.core.plugins.UIPluginManager, 0, 0, 0, 0, 0, 0, 0, 0, 0, 0, 0, 0, 0, 0,0.0,0.0,0.0,0.0,0.0,0.0,0.0,0.0,0.0,0.0,0.0,0.0,0.0,12,app\src\main\java\org\apache\roller\weblogger\ui\core\plugins\UIPluginManager.java,0,0,0,0
org.apache.roller.weblogger.ui.core.plugins.WeblogEntryEditor, 0, 0, 0, 0, 0, 0, 0, 0, 0, 0, 0, 0, 0, 0,0.0,0.0,0.0,0.0,0.0,0.0,0.0,0.0,0.0,0.0,0.0,0.0,0.0,12,app\src\main\java\org\apache\roller\weblogger\ui\core\plugins\WeblogEntryEditor.java,0,0,0,0
org.apache.roller.weblogger.ui.core.plugins.XinhaEditor, 0, 0, 0, 0, 0, 0, 0, 0, 0, 0, 0, 0, 0, 0,0.0,0.0,0.0,0.0,0.0,0.0,0.0,0.0,0.0,0.0,0.0,0.0,0.0,12,app\src\main\java\org\apache\roller\weblogger\ui\core\plugins\XinhaEditor.java,0,0,0,0
org.apache.roller.weblogger.ui.core.security.AuthoritiesPopulator, 0, 0, 0, 0, 0, 0, 0, 0, 0, 0, 0, 0, 0, 0,0.0,0.0,0.0,0.0,0.0,0.0,0.0,0.0,0.0,0.0,0.0,0.0,0.0,36,app\src\main\java\org\apache\roller\weblogger\ui\core\security\AuthoritiesPopulator.java,0,0,0,0
org.apache.roller.weblogger.ui.core.security.AutoProvision, 0, 0, 0, 0, 0, 0, 0, 0, 0, 0, 0, 0, 0, 0,0.0,0.0,0.0,0.0,0.0,0.0,0.0,0.0,0.0,0.0,0.0,0.0,0.0,36,app\src\main\java\org\apache\roller\weblogger\ui\core\security\AutoProvision.java,0,0,0,0
org.apache.roller.weblogger.ui.core.security.BasicUserAutoProvision, 0, 0, 0, 0, 0, 0, 0, 0, 0, 0, 0, 0, 0, 0,0.0,0.0,0.0,0.0,0.0,0.0,0.0,0.0,0.0,0.0,0.0,0.0,0.0,31,app\src\main\java\org\apache\roller\weblogger\ui\core\security\BasicUserAutoProvision.java,0,0,0,0
org.apache.roller.weblogger.ui.core.security.CustomUserRegistry, 0, 0, 0, 0, 0, 0, 0, 0, 0, 0, 0, 0, 0, 0,0.0,0.0,0.0,0.0,0.0,0.0,0.0,0.0,0.0,0.0,0.0,0.0,0.0,119,app\src\main\java\org\apache\roller\weblogger\ui\core\security\CustomUserRegistry.java,0,0,0,0
org.apache.roller.weblogger.ui.core.security.RollerUserDetails, 0, 0, 0, 0, 0, 0, 0, 0, 0, 0, 0, 0, 0, 0,0.0,0.0,0.0,0.0,0.0,0.0,0.0,0.0,0.0,0.0,0.0,0.0,0.0,119,app\src\main\java\org\apache\roller\weblogger\ui\core\security\RollerUserDetails.java,0,0,0,0
org.apache.roller.weblogger.ui.core.security.RollerUserDetailsService, 0, 0, 0, 0, 0, 0, 0, 0, 0, 0, 0, 0, 0, 0,0.0,0.0,0.0,0.0,0.0,0.0,0.0,0.0,0.0,0.0,0.0,0.0,0.0,68,app\src\main\java\org\apache\roller\weblogger\ui\core\security\RollerUserDetailsService.java,0,0,0,0
org.apache.roller.weblogger.ui.core.tags.calendar.CalendarModel, 0, 0, 0, 0, 0, 0, 0, 0, 0, 0, 0, 0, 0, 0,0.0,0.0,0.0,0.0,0.0,0.0,0.0,0.0,0.0,0.0,0.0,0.0,0.0,68,app\src\main\java\org\apache\roller\weblogger\ui\core\tags\calendar\CalendarModel.java,0,0,0,0
org.apache.roller.weblogger.ui.core.tags.calendar.CalendarTag, 0, 0, 0, 0, 0, 0, 0, 1, 0, 0, 0, 0, 0, 1,0.0,0.0,0.0,0.0,0.0,0.0,0.0,0.0,0.0,0.0,0.0,0.0,0.0,214,app\src\main\java\org\apache\roller\weblogger\ui\core\tags\calendar\CalendarTag.java,0,0,0,0
org.apache.roller.weblogger.ui.core.util.menu.Menu, 0, 0, 0, 0, 0, 0, 0, 0, 0, 0, 0, 0, 0, 0,0.0,0.0,0.0,0.0,0.0,0.0,0.0,0.0,0.0,0.0,0.0,0.0,0.0,12,app\src\main\java\org\apache\roller\weblogger\ui\core\util\menu\Menu.java,0,0,0,0
org.apache.roller.weblogger.ui.core.util.menu.MenuTab, 0, 0, 0, 0, 0, 0, 0, 0, 0, 0, 0, 0, 0, 0,0.0,0.0,0.0,0.0,0.0,0.0,0.0,0.0,0.0,0.0,0.0,0.0,0.0,33,app\src\main\java\org\apache\roller\weblogger\ui\core\util\menu\MenuTab.java,0,0,0,0
org.apache.roller.weblogger.ui.core.util.menu.MenuTabItem, 0, 0, 0, 0, 0, 0, 0, 0, 0, 0, 0, 0, 0, 0,0.0,0.0,0.0,0.0,0.0,0.0,0.0,0.0,0.0,0.0,0.0,0.0,0.0,23,app\src\main\java\org\apache\roller\weblogger\ui\core\util\menu\MenuTabItem.java,0,0,0,0
org.apache.roller.weblogger.ui.core.util.menu.ParsedMenu, 0, 0, 0, 0, 0, 0, 0, 0, 0, 0, 0, 0, 0, 0,0.0,0.0,0.0,0.0,0.0,0.0,0.0,0.0,0.0,0.0,0.0,0.0,0.0,12,app\src\main\java\org\apache\roller\weblogger\ui\core\util\menu\ParsedMenu.java,0,0,0,0
org.apache.roller.weblogger.ui.core.util.menu.ParsedTab, 0, 0, 0, 0, 0, 0, 0, 0, 0, 0, 0, 0, 0, 0,0.0,0.0,0.0,0.0,0.0,0.0,0.0,0.0,0.0,0.0,0.0,0.0,0.0,47,app\src\main\java\org\apache\roller\weblogger\ui\core\util\menu\ParsedTab.java,0,0,0,0
org.apache.roller.weblogger.ui.core.util.menu.ParsedTabItem, 0, 0, 0, 0, 0, 0, 0, 0, 0, 0, 0, 0, 0, 0,0.0,0.0,0.0,0.0,0.0,0.0,0.0,0.0,0.0,0.0,0.0,0.0,0.0,51,app\src\main\java\org\apache\roller\weblogger\ui\core\util\menu\ParsedTabItem.java,0,0,0,0
org.apache.roller.weblogger.ui.rendering.RendererFactory, 0, 0, 0, 0, 0, 0, 0, 0, 0, 0, 0, 0, 0, 0,0.0,0.0,0.0,0.0,0.0,0.0,0.0,0.0,0.0,0.0,0.0,0.0,0.0,51,app\src\main\java\org\apache\roller\weblogger\ui\rendering\RendererFactory.java,0,0,0,0
org.apache.roller.weblogger.ui.rendering.RendererManager, 0, 0, 0, 0, 0, 0, 0, 0, 0, 0, 0, 0, 0, 0,0.0,0.0,0.0,0.0,0.0,0.0,0.0,0.0,0.0,0.0,0.0,0.0,0.0,59,app\src\main\java\org\apache\roller\weblogger\ui\rendering\RendererManager.java,0,0,0,0
org.apache.roller.weblogger.ui.rendering.RenderingException, 0, 0, 0, 0, 0, 0, 0, 0, 0, 0, 0, 0, 0, 0,0.0,0.0,0.0,0.0,0.0,0.0,0.0,0.0,0.0,0.0,0.0,0.0,0.0,11,app\src\main\java\org\apache\roller\weblogger\ui\rendering\RenderingException.java,0,0,0,0
org.apache.roller.weblogger.ui.rendering.RequestMapper, 0, 0, 0, 0, 0, 0, 0, 0, 0, 0, 0, 0, 0, 0,0.0,0.0,0.0,0.0,0.0,0.0,0.0,0.0,0.0,0.0,0.0,0.0,0.0,11,app\src\main\java\org\apache\roller\weblogger\ui\rendering\RequestMapper.java,0,0,0,0
org.apache.roller.weblogger.ui.rendering.filters.DeviceResolverRequestFilter, 0, 0, 0, 0, 0, 0, 0, 1, 0, 0, 0, 0, 0, 1,0.0,0.0,0.0,0.0,0.0,0.0,0.0,0.0,0.0,0.0,0.0,0.0,0.0,17,app\src\main\java\org\apache\roller\weblogger\ui\rendering\filters\DeviceResolverRequestFilter.java,0,0,0,0
org.apache.roller.weblogger.ui.rendering.filters.RequestMappingFilter, 0, 0, 0, 0, 0, 0, 0, 1, 0, 0, 0, 0, 0, 1,0.0,0.0,0.0,0.0,0.0,0.0,0.0,0.0,0.0,0.0,0.0,0.0,0.0,65,app\src\main\java\org\apache\roller\weblogger\ui\rendering\filters\RequestMappingFilter.java,0,0,0,0
org.apache.roller.weblogger.ui.rendering.mobile.MobileDeviceRepository, 0, 0, 0, 0, 0, 0, 0, 1, 0, 0, 0, 0, 0, 1,0.0,0.0,0.0,0.0,0.0,0.0,0.0,0.0,0.0,0.0,0.0,0.0,0.0,74,app\src\main\java\org\apache\roller\weblogger\ui\rendering\mobile\MobileDeviceRepository.java,0,0,0,0
org.apache.roller.weblogger.ui.rendering.pagers.AbstractWeblogEntriesPager, 0, 0, 0, 0, 0, 0, 0, 1, 0, 0, 0, 0, 0, 1,0.0,0.0,0.0,0.0,0.0,0.0,0.0,0.0,0.0,0.0,0.0,0.0,0.0,156,app\src\main\java\org\apache\roller\weblogger\ui\rendering\pagers\AbstractWeblogEntriesPager.java,0,0,0,0
org.apache.roller.weblogger.ui.rendering.pagers.CommentsPager, 0, 0, 0, 0, 0, 0, 0, 1, 0, 0, 0, 0, 0, 1,0.0,0.0,0.0,0.0,0.0,0.0,0.0,0.0,0.0,0.0,0.0,0.0,0.0,79,app\src\main\java\org\apache\roller\weblogger\ui\rendering\pagers\CommentsPager.java,0,0,0,0
org.apache.roller.weblogger.ui.rendering.pagers.MediaFilesPager, 0, 0, 0, 0, 0, 0, 0, 1, 0, 0, 0, 0, 0, 1,0.0,0.0,0.0,0.0,0.0,0.0,0.0,0.0,0.0,0.0,0.0,0.0,0.0,48,app\src\main\java\org\apache\roller\weblogger\ui\rendering\pagers\MediaFilesPager.java,0,0,0,0
org.apache.roller.weblogger.ui.rendering.pagers.Pager, 0, 0, 0, 0, 0, 0, 0, 0, 0, 0, 0, 0, 0, 0,0.0,0.0,0.0,0.0,0.0,0.0,0.0,0.0,0.0,0.0,0.0,0.0,0.0,48,app\src\main\java\org\apache\roller\weblogger\ui\rendering\pagers\Pager.java,0,0,0,0
org.apache.roller.weblogger.ui.rendering.pagers.PlanetEntriesPager, 0, 0, 0, 0, 0, 0, 0, 1, 0, 0, 0, 0, 0, 1,0.0,0.0,0.0,0.0,0.0,0.0,0.0,0.0,0.0,0.0,0.0,0.0,0.0,67,app\src\main\java\org\apache\roller\weblogger\ui\rendering\pagers\PlanetEntriesPager.java,0,0,0,0
org.apache.roller.weblogger.ui.rendering.pagers.WeblogEntriesListPager, 0, 0, 0, 0, 0, 0, 0, 1, 0, 0, 0, 0, 0, 1,0.0,0.0,0.0,0.5,0.0,0.0,0.0,0.0,0.0,0.0,0.0,0.0,0.0,94,app\src\main\java\org\apache\roller\weblogger\ui\rendering\pagers\WeblogEntriesListPager.java,0,0,0,0
org.apache.roller.weblogger.ui.rendering.plugins.comments.BlacklistCommentValidator, 0, 0, 0, 0, 0, 0, 0, 0, 0, 0, 0, 0, 0, 0,0.0,0.0,0.0,0.0,0.0,0.0,0.0,0.0,0.0,0.0,0.0,0.0,0.0,13,app\src\main\java\org\apache\roller\weblogger\ui\rendering\plugins\comments\BlacklistCommentValidator.java,0,0,0,0
org.apache.roller.weblogger.ui.rendering.plugins.comments.CommentAuthenticator, 0, 0, 0, 0, 0, 0, 0, 0, 0, 0, 0, 0, 0, 0,0.0,0.0,0.0,0.0,0.0,0.0,0.0,0.0,0.0,0.0,0.0,0.0,0.0,13,app\src\main\java\org\apache\roller\weblogger\ui\rendering\plugins\comments\CommentAuthenticator.java,0,0,0,0
org.apache.roller.weblogger.ui.rendering.plugins.comments.CommentValidationManager, 0, 0, 0, 0, 0, 0, 0, 0, 0, 0, 0, 0, 0, 0,0.0,0.0,0.0,0.0,0.0,0.0,0.0,0.0,0.0,0.0,0.0,0.0,0.0,43,app\src\main\java\org\apache\roller\weblogger\ui\rendering\plugins\comments\CommentValidationManager.java,0,0,0,0
org.apache.roller.weblogger.ui.rendering.plugins.comments.CommentValidator, 0, 0, 0, 0, 0, 0, 0, 0, 0, 0, 0, 0, 0, 0,0.0,0.0,0.0,0.0,0.0,0.0,0.0,0.0,0.0,0.0,0.0,0.0,0.0,43,app\src\main\java\org\apache\roller\weblogger\ui\rendering\plugins\comments\CommentValidator.java,0,0,0,0
org.apache.roller.weblogger.ui.rendering.plugins.comments.DefaultCommentAuthenticator, 0, 0, 0, 0, 0, 0, 0, 0, 0, 0, 0, 0, 0, 0,0.0,0.0,0.0,0.0,0.0,0.0,0.0,0.0,0.0,0.0,0.0,0.0,0.0,8,app\src\main\java\org\apache\roller\weblogger\ui\rendering\plugins\comments\DefaultCommentAuthenticator.java,0,0,0,0
org.apache.roller.weblogger.ui.rendering.plugins.comments.ExcessSizeCommentValidator, 0, 0, 0, 0, 0, 0, 0, 0, 0, 0, 0, 0, 0, 0,0.0,0.0,0.0,0.0,0.0,0.0,0.0,0.0,0.0,0.0,0.0,0.0,0.0,17,app\src\main\java\org\apache\roller\weblogger\ui\rendering\plugins\comments\ExcessSizeCommentValidator.java,0,0,0,0
org.apache.roller.weblogger.ui.rendering.plugins.comments.TrackbackLinkbackCommentValidator, 0, 0, 0, 0, 0, 0, 0, 0, 0, 0, 0, 0, 0, 0,0.0,0.0,0.0,0.0,0.0,0.0,0.0,0.0,0.0,0.0,0.0,0.0,0.0,29,app\src\main\java\org\apache\roller\weblogger\ui\rendering\plugins\comments\TrackbackLinkbackCommentValidator.java,0,0,0,0
org.apache.roller.weblogger.ui.rendering.servlets.CommentAuthenticatorServlet, 0, 0, 0, 0, 0, 0, 0, 0, 0, 0, 0, 0, 0, 0,0.0,0.0,0.0,0.0,0.0,0.0,0.0,0.0,0.0,0.0,0.0,0.0,0.0,26,app\src\main\java\org\apache\roller\weblogger\ui\rendering\servlets\CommentAuthenticatorServlet.java,0,0,0,0
org.apache.roller.weblogger.ui.rendering.servlets.MediaResourceServlet, 0, 0, 0, 0, 0, 0, 0, 0, 0, 0, 0, 0, 0, 0,0.0,0.0,0.0,0.0,0.0,0.0,0.0,0.16666666666666666,0.0,0.0,0.0,0.0,0.0,81,app\src\main\java\org\apache\roller\weblogger\ui\rendering\servlets\MediaResourceServlet.java,0,0,0,0
org.apache.roller.weblogger.ui.rendering.servlets.PreviewResourceServlet, 0, 0, 0, 0, 0, 0, 0, 0, 0, 0, 0, 0, 0, 0,0.0,0.0,0.0,0.0,0.0,0.0,0.0,0.14285714285714285,0.0,0.0,0.0,0.0,0.0,95,app\src\main\java\org\apache\roller\weblogger\ui\rendering\servlets\PreviewResourceServlet.java,0,0,0,0
org.apache.roller.weblogger.ui.rendering.servlets.ResourceServlet, 0, 0, 0, 0, 0, 0, 0, 0, 0, 0, 0, 0, 0, 0,0.0,0.0,0.0,0.0,0.0,0.0,0.0,0.16666666666666666,0.0,0.0,0.0,0.0,0.0,94,app\src\main\java\org\apache\roller\weblogger\ui\rendering\servlets\ResourceServlet.java,0,0,0,0
org.apache.roller.weblogger.ui.rendering.util.InvalidRequestException, 0, 0, 0, 0, 0, 0, 0, 0, 0, 0, 0, 0, 0, 0,0.0,0.0,0.0,0.0,0.0,0.0,0.0,0.0,0.0,0.0,0.0,0.0,0.0,8,app\src\main\java\org\apache\roller\weblogger\ui\rendering\util\InvalidRequestException.java,0,0,0,0
org.apache.roller.weblogger.ui.rendering.util.ModDateHeaderUtil, 0, 0, 0, 0, 0, 0, 0, 1, 0, 0, 0, 0, 0, 1,0.0,0.0,0.0,0.0,0.0,0.0,0.0,0.0,0.0,0.0,0.0,0.0,0.0,54,app\src\main\java\org\apache\roller\weblogger\ui\rendering\util\ModDateHeaderUtil.java,0,0,0,0
org.apache.roller.weblogger.ui.rendering.util.ParsedRequest, 0, 0, 0, 0, 0, 0, 0, 0, 0, 0, 0, 0, 0, 0,0.0,0.0,0.0,0.0,0.0,0.0,0.0,0.1111111111111111,0.0,0.0,0.0,0.0,0.0,46,app\src\main\java\org\apache\roller\weblogger\ui\rendering\util\ParsedRequest.java,0,0,0,0
org.apache.roller.weblogger.ui.rendering.util.PlanetRequest, 0, 0, 0, 0, 0, 0, 0, 0, 0, 0, 0, 0, 0, 0,0.0,0.0,0.0,0.0,0.0,0.0,0.0,0.0,0.0,0.0,0.0,0.0,0.0,57,app\src\main\java\org\apache\roller\weblogger\ui\rendering\util\PlanetRequest.java,0,0,0,0
org.apache.roller.weblogger.ui.rendering.util.WeblogCommentRequest, 0, 0, 0, 0, 0, 0, 0, 0, 0, 0, 0, 0, 0, 0,0.0,0.0,0.0,0.0,0.0,0.0,0.0,0.0,0.0,0.0,0.0,0.0,0.0,118,app\src\main\java\org\apache\roller\weblogger\ui\rendering\util\WeblogCommentRequest.java,0,0,0,0
org.apache.roller.weblogger.ui.rendering.util.WeblogEntryCommentForm, 0, 0, 0, 0, 0, 0, 0, 0, 0, 0, 0, 0, 0, 0,0.0,0.0,0.0,0.0,0.0,0.0,0.0,0.0,0.0,0.0,0.0,0.0,0.0,74,app\src\main\java\org\apache\roller\weblogger\ui\rendering\util\WeblogEntryCommentForm.java,0,0,0,0
org.apache.roller.weblogger.ui.rendering.util.WeblogFeedRequest, 0, 0, 0, 0, 0, 0, 0, 0, 0, 0, 0, 0, 0, 0,0.0,0.0,0.0,0.0,0.0,0.0,0.0,0.2,0.0,0.0,0.0,0.0,0.0,128,app\src\main\java\org\apache\roller\weblogger\ui\rendering\util\WeblogFeedRequest.java,0,0,0,0
org.apache.roller.weblogger.ui.rendering.util.WeblogMediaResourceRequest, 0, 0, 0, 0, 0, 0, 0, 0, 0, 0, 0, 0, 0, 0,0.0,0.0,0.0,0.0,0.0,0.0,0.0,0.0,0.0,0.0,0.0,0.0,0.0,42,app\src\main\java\org\apache\roller\weblogger\ui\rendering\util\WeblogMediaResourceRequest.java,0,0,0,0
org.apache.roller.weblogger.ui.rendering.util.WeblogPreviewRequest, 0, 0, 0, 0, 0, 0, 0, 0, 0, 0, 0, 0, 0, 0,0.0,0.0,0.0,0.0,0.0,0.0,0.0,0.0,0.0,0.0,0.0,0.0,0.0,86,app\src\main\java\org\apache\roller\weblogger\ui\rendering\util\WeblogPreviewRequest.java,0,0,0,0
org.apache.roller.weblogger.ui.rendering.util.WeblogPreviewResourceRequest, 0, 0, 0, 0, 0, 0, 0, 0, 0, 0, 0, 0, 0, 0,0.0,0.0,0.0,0.0,0.0,0.0,0.0,0.0,0.0,0.0,0.0,0.0,0.0,43,app\src\main\java\org\apache\roller\weblogger\ui\rendering\util\WeblogPreviewResourceRequest.java,0,0,0,0
org.apache.roller.weblogger.ui.rendering.util.WeblogRequest, 0, 0, 0, 0, 0, 0, 0, 0, 0, 0, 0, 0, 0, 0,0.0,0.0,0.0,0.0,0.0,0.0,0.0,0.0,0.0,0.0,0.0,0.0,0.0,113,app\src\main\java\org\apache\roller\weblogger\ui\rendering\util\WeblogRequest.java,0,0,0,0
org.apache.roller.weblogger.ui.rendering.util.WeblogResourceRequest, 0, 0, 0, 0, 0, 0, 0, 0, 0, 0, 0, 0, 0, 0,0.0,0.0,0.0,0.0,0.0,0.0,0.0,0.0,0.0,0.0,0.0,0.0,0.0,34,app\src\main\java\org\apache\roller\weblogger\ui\rendering\util\WeblogResourceRequest.java,0,0,0,0
org.apache.roller.weblogger.ui.rendering.util.WeblogSearchRequest, 0, 0, 0, 0, 0, 0, 0, 0, 0, 0, 0, 0, 0, 0,0.0,0.0,0.0,0.0,0.0,0.0,0.0,0.2,0.0,0.0,0.0,0.0,0.0,71,app\src\main\java\org\apache\roller\weblogger\ui\rendering\util\WeblogSearchRequest.java,0,0,0,0
org.apache.roller.weblogger.ui.rendering.util.WeblogTrackbackRequest, 0, 0, 0, 0, 0, 0, 0, 0, 0, 0, 0, 0, 0, 0,0.0,0.0,0.0,0.0,0.0,0.0,0.0,0.0,0.0,0.0,0.0,0.0,0.0,112,app\src\main\java\org\apache\roller\weblogger\ui\rendering\util\WeblogTrackbackRequest.java,0,0,0,0
org.apache.roller.weblogger.ui.rendering.util.mobile.Device, 0, 0, 0, 0, 0, 0, 0, 0, 0, 0, 0, 0, 0, 0,0.0,0.0,0.0,0.0,0.0,0.0,0.0,0.0,0.0,0.0,0.0,0.0,0.0,112,app\src\main\java\org\apache\roller\weblogger\ui\rendering\util\mobile\Device.java,0,0,0,0
org.apache.roller.weblogger.ui.rendering.util.mobile.DeviceResolver, 0, 0, 0, 0, 0, 0, 0, 0, 0, 0, 0, 0, 0, 0,0.0,0.0,0.0,0.0,0.0,0.0,0.0,0.0,0.0,0.0,0.0,0.0,0.0,112,app\src\main\java\org\apache\roller\weblogger\ui\rendering\util\mobile\DeviceResolver.java,0,0,0,0
org.apache.roller.weblogger.ui.rendering.util.mobile.DeviceUtils, 0, 0, 0, 0, 0, 0, 0, 0, 0, 0, 0, 0, 0, 0,0.0,0.0,0.0,0.0,0.0,0.0,0.0,0.0,0.0,0.0,0.0,0.0,0.0,18,app\src\main\java\org\apache\roller\weblogger\ui\rendering\util\mobile\DeviceUtils.java,0,0,0,0
org.apache.roller.weblogger.ui.rendering.util.mobile.MobileDeviceRepository, 0, 0, 0, 0, 0, 0, 0, 0, 0, 0, 0, 0, 0, 0,0.0,0.0,0.0,0.0,0.0,0.0,0.0,0.0,0.0,0.0,0.0,0.0,0.0,26,app\src\main\java\org\apache\roller\weblogger\ui\rendering\util\mobile\MobileDeviceRepository.java,0,0,0,0
org.apache.roller.weblogger.ui.rendering.velocity.VelocityRendererFactory, 0, 0, 0, 0, 0, 0, 0, 0, 0, 0, 0, 0, 0, 0,0.0,0.0,0.0,0.0,0.0,0.0,0.0,0.0,0.0,0.0,0.0,0.0,0.0,28,app\src\main\java\org\apache\roller\weblogger\ui\rendering\velocity\VelocityRendererFactory.java,0,0,0,0
org.apache.roller.weblogger.ui.struts2.admin.CreateUserBean, 0, 0, 0, 1, 0, 0, 0, 0, 0, 0, 0, 0, 0, 1,0.0,0.0,0.0,0.0,0.0,0.0,0.0,0.0,0.0,0.0,0.0,0.0,0.0,115,app\src\main\java\org\apache\roller\weblogger\ui\struts2\admin\CreateUserBean.java,0,0,0,0
org.apache.roller.weblogger.ui.struts2.admin.GlobalCommentManagementBean, 0, 0, 0, 0, 0, 0, 0, 0, 0, 0, 0, 0, 0, 0,0.0,0.0,0.0,0.0,0.0,0.0,0.0,0.0,0.0,0.0,0.0,0.0,0.0,109,app\src\main\java\org\apache\roller\weblogger\ui\struts2\admin\GlobalCommentManagementBean.java,0,0,0,0
org.apache.roller.weblogger.ui.struts2.admin.PingTargetBean, 0, 0, 0, 0, 0, 0, 0, 0, 0, 0, 0, 0, 0, 0,0.0,0.0,0.0,0.0,0.0,0.0,0.0,0.0,0.0,0.0,0.0,0.0,0.0,32,app\src\main\java\org\apache\roller\weblogger\ui\struts2\admin\PingTargetBean.java,0,0,0,0
org.apache.roller.weblogger.ui.struts2.admin.PingTargetEdit, 0, 0, 0, 0, 0, 0, 0, 0, 0, 0, 0, 0, 0, 0,0.0,0.0,0.0,0.0,0.0,0.0,0.0,0.0,0.0,0.0,0.0,0.0,0.0,91,app\src\main\java\org\apache\roller\weblogger\ui\struts2\admin\PingTargetEdit.java,0,0,0,0
org.apache.roller.weblogger.ui.struts2.admin.PingTargets, 0, 0, 0, 0, 0, 0, 0, 0, 0, 0, 0, 0, 0, 0,0.0,0.0,0.0,0.0,0.0,0.0,0.0,0.0,0.0,0.0,0.0,0.0,0.0,113,app\src\main\java\org\apache\roller\weblogger\ui\struts2\admin\PingTargets.java,0,0,0,0
org.apache.roller.weblogger.ui.struts2.admin.UserAdmin, 0, 0, 0, 0, 0, 0, 0, 0, 0, 0, 0, 0, 0, 0,0.0,0.0,0.0,0.0,0.0,0.0,0.0,0.0,0.0,0.0,0.0,0.0,0.0,20,app\src\main\java\org\apache\roller\weblogger\ui\struts2\admin\UserAdmin.java,0,0,0,0
org.apache.roller.weblogger.ui.struts2.admin.UserEdit, 0, 0, 0, 0, 0, 0, 0, 0, 0, 0, 0, 0, 0, 0,0.0,0.0,0.0,0.3333333333333333,0.0,0.0,0.0,0.0,0.0,0.0,0.0,0.0,0.0,183,app\src\main\java\org\apache\roller\weblogger\ui\struts2\admin\UserEdit.java,0,0,0,0
org.apache.roller.weblogger.ui.struts2.ajax.CommentDataServlet, 0, 0, 0, 0, 0, 0, 0, 0, 0, 0, 0, 0, 0, 0,0.0,0.0,0.0,0.0,0.0,0.0,0.0,0.0,0.0,0.0,0.0,0.0,0.0,78,app\src\main\java\org\apache\roller\weblogger\ui\struts2\ajax\CommentDataServlet.java,0,0,0,0
org.apache.roller.weblogger.ui.struts2.ajax.ThemeDataServlet, 0, 0, 0, 0, 0, 0, 0, 0, 0, 0, 0, 0, 0, 0,0.0,0.0,0.0,0.0,0.0,0.0,0.0,0.0,0.0,0.0,0.0,0.0,0.0,55,app\src\main\java\org\apache\roller\weblogger\ui\struts2\ajax\ThemeDataServlet.java,0,0,0,0
org.apache.roller.weblogger.ui.struts2.ajax.UserDataServlet, 0, 0, 0, 0, 0, 0, 0, 0, 0, 0, 0, 0, 0, 0,0.0,0.0,0.0,0.0,0.0,0.0,0.0,0.0,0.0,0.0,0.0,0.0,0.0,59,app\src\main\java\org\apache\roller\weblogger\ui\struts2\ajax\UserDataServlet.java,0,0,0,0
org.apache.roller.weblogger.ui.struts2.core.CreateWeblog, 0, 0, 0, 0, 0, 0, 0, 0, 0, 0, 0, 0, 0, 0,0.0,0.0,0.0,0.0,0.0,0.0,0.0,0.0,0.0,0.0,0.0,0.0,0.0,109,app\src\main\java\org\apache\roller\weblogger\ui\struts2\core\CreateWeblog.java,0,0,0,0
org.apache.roller.weblogger.ui.struts2.core.CreateWeblogBean, 0, 0, 0, 0, 0, 0, 0, 0, 0, 0, 0, 0, 0, 0,0.0,0.0,0.0,0.0,0.0,0.0,0.0,0.0,0.0,0.0,0.0,0.0,0.0,51,app\src\main\java\org\apache\roller\weblogger\ui\struts2\core\CreateWeblogBean.java,0,0,0,0
org.apache.roller.weblogger.ui.struts2.core.Install, 0, 0, 0, 0, 0, 0, 0, 0, 0, 0, 0, 0, 0, 0,0.0,0.0,0.0,0.0,0.0,0.0,0.0,0.2,0.0,0.0,0.0,0.0,0.0,157,app\src\main\java\org\apache\roller\weblogger\ui\struts2\core\Install.java,0,0,0,0
org.apache.roller.weblogger.ui.struts2.core.Login, 0, 0, 0, 0, 0, 0, 0, 0, 0, 0, 0, 0, 0, 0,0.0,0.0,0.0,0.0,0.0,0.0,0.0,0.0,0.0,0.0,0.0,0.0,0.0,32,app\src\main\java\org\apache\roller\weblogger\ui\struts2\core\Login.java,0,0,0,0
org.apache.roller.weblogger.ui.struts2.core.MainMenu, 0, 0, 0, 0, 0, 0, 0, 0, 0, 0, 0, 0, 0, 0,0.0,0.0,0.0,0.0,0.0,0.0,0.0,0.0,0.0,0.0,0.0,0.0,0.0,70,app\src\main\java\org\apache\roller\weblogger\ui\struts2\core\MainMenu.java,0,0,0,0
org.apache.roller.weblogger.ui.struts2.core.OAuthAuthorize, 0, 0, 0, 0, 0, 0, 0, 0, 0, 0, 0, 0, 0, 0,0.0,0.0,0.0,0.0,0.0,0.0,0.0,0.0,0.0,0.0,0.0,0.0,0.0,43,app\src\main\java\org\apache\roller\weblogger\ui\struts2\core\OAuthAuthorize.java,0,0,0,0
org.apache.roller.weblogger.ui.struts2.core.OAuthKeys, 0, 0, 0, 0, 0, 0, 0, 0, 0, 0, 0, 0, 0, 0,0.0,0.0,0.0,0.0,0.0,0.0,0.0,0.0,0.0,0.0,0.0,0.0,0.0,55,app\src\main\java\org\apache\roller\weblogger\ui\struts2\core\OAuthKeys.java,0,0,0,0
org.apache.roller.weblogger.ui.struts2.core.Profile, 0, 0, 0, 0, 0, 0, 0, 0, 0, 0, 0, 0, 0, 0,0.0,0.0,0.0,0.3333333333333333,0.0,0.0,0.0,0.0,0.0,0.0,0.0,0.0,0.0,107,app\src\main\java\org\apache\roller\weblogger\ui\struts2\core\Profile.java,0,0,0,0
org.apache.roller.weblogger.ui.struts2.core.ProfileBean, 0, 0, 0, 1, 0, 0, 0, 0, 0, 0, 0, 0, 0, 1,0.0,0.0,0.0,0.0,0.0,0.0,0.0,0.0,0.0,0.0,0.0,0.0,0.0,97,app\src\main\java\org\apache\roller\weblogger\ui\struts2\core\ProfileBean.java,0,0,0,0
org.apache.roller.weblogger.ui.struts2.core.Register, 0, 0, 0, 0, 0, 0, 0, 0, 0, 0, 0, 0, 0, 0,0.0,0.0,0.0,0.25,0.0,0.0,0.0,0.0,0.0,0.0,0.0,0.0,0.0,245,app\src\main\java\org\apache\roller\weblogger\ui\struts2\core\Register.java,0,0,0,0
org.apache.roller.weblogger.ui.struts2.core.Setup, 0, 0, 0, 0, 0, 0, 0, 0, 0, 0, 0, 0, 0, 0,0.0,0.0,0.0,0.0,0.0,0.0,0.0,0.0,0.0,0.0,0.0,0.0,0.0,82,app\src\main\java\org\apache\roller\weblogger\ui\struts2\core\Setup.java,0,0,0,0
org.apache.roller.weblogger.ui.struts2.editor.BookmarkBean, 0, 0, 0, 0, 0, 0, 0, 0, 0, 0, 0, 0, 0, 0,0.0,0.0,0.0,0.0,0.0,0.0,0.0,0.0,0.0,0.0,0.0,0.0,0.0,59,app\src\main\java\org\apache\roller\weblogger\ui\struts2\editor\BookmarkBean.java,0,0,0,0
org.apache.roller.weblogger.ui.struts2.editor.BookmarkEdit, 0, 0, 0, 0, 0, 0, 0, 0, 0, 0, 0, 0, 0, 0,0.0,0.0,0.0,0.0,0.0,0.0,0.0,0.0,0.0,0.0,0.0,0.0,0.0,85,app\src\main\java\org\apache\roller\weblogger\ui\struts2\editor\BookmarkEdit.java,0,0,0,0
org.apache.roller.weblogger.ui.struts2.editor.Bookmarks, 0, 0, 0, 0, 0, 0, 0, 0, 0, 0, 0, 0, 0, 0,0.0,0.0,0.0,0.0,0.0,0.0,0.0,0.0,0.0,0.0,0.0,0.0,0.0,173,app\src\main\java\org\apache\roller\weblogger\ui\struts2\editor\Bookmarks.java,0,0,0,0
org.apache.roller.weblogger.ui.struts2.editor.BookmarksImport, 0, 0, 0, 0, 0, 0, 0, 0, 0, 0, 0, 0, 0, 0,0.0,0.0,0.0,0.0,0.0,0.0,0.0,0.0,0.0,0.0,0.0,0.0,0.0,81,app\src\main\java\org\apache\roller\weblogger\ui\struts2\editor\BookmarksImport.java,0,0,0,0
org.apache.roller.weblogger.ui.struts2.editor.Categories, 0, 0, 0, 0, 0, 0, 0, 0, 0, 0, 0, 0, 0, 0,0.0,0.0,0.0,0.0,0.0,0.0,0.0,0.0,0.0,0.0,0.0,0.0,0.0,32,app\src\main\java\org\apache\roller\weblogger\ui\struts2\editor\Categories.java,0,0,0,0
org.apache.roller.weblogger.ui.struts2.editor.CategoryBean, 0, 0, 0, 0, 0, 0, 0, 0, 0, 0, 0, 0, 0, 0,0.0,0.0,0.0,0.0,0.0,0.0,0.0,0.5,0.0,0.0,0.0,0.0,0.0,41,app\src\main\java\org\apache\roller\weblogger\ui\struts2\editor\CategoryBean.java,0,0,0,0
org.apache.roller.weblogger.ui.struts2.editor.CategoryEdit, 0, 0, 0, 0, 0, 0, 0, 0, 0, 0, 0, 0, 0, 0,0.0,0.0,0.0,0.0,0.0,0.0,0.0,0.25,0.0,0.0,0.0,0.0,0.0,75,app\src\main\java\org\apache\roller\weblogger\ui\struts2\editor\CategoryEdit.java,0,0,0,0
org.apache.roller.weblogger.ui.struts2.editor.CategoryRemove, 0, 0, 0, 0, 0, 0, 0, 0, 0, 0, 0, 0, 0, 0,0.0,0.0,0.0,0.0,0.0,0.0,0.0,0.3333333333333333,0.0,0.0,0.0,0.0,0.0,89,app\src\main\java\org\apache\roller\weblogger\ui\struts2\editor\CategoryRemove.java,0,0,0,0
org.apache.roller.weblogger.ui.struts2.editor.CommentsBean, 0, 0, 0, 1, 0, 0, 0, 0, 0, 0, 0, 0, 0, 1,0.0,0.0,0.0,0.0,0.0,0.0,0.0,0.0,0.0,0.0,0.0,0.0,0.0,121,app\src\main\java\org\apache\roller\weblogger\ui\struts2\editor\CommentsBean.java,0,0,0,0
org.apache.roller.weblogger.ui.struts2.editor.EntryRemove, 0, 0, 0, 0, 0, 0, 0, 0, 0, 0, 0, 0, 0, 0,0.0,0.0,0.0,0.0,0.0,0.0,0.0,0.0,0.0,0.0,0.0,0.0,0.0,72,app\src\main\java\org\apache\roller\weblogger\ui\struts2\editor\EntryRemove.java,0,0,0,0
org.apache.roller.weblogger.ui.struts2.editor.FolderBean, 0, 0, 0, 0, 0, 0, 0, 0, 0, 0, 0, 0, 0, 0,0.0,0.0,0.0,0.0,0.0,0.0,0.0,0.0,0.0,0.0,0.0,0.0,0.0,23,app\src\main\java\org\apache\roller\weblogger\ui\struts2\editor\FolderBean.java,0,0,0,0
org.apache.roller.weblogger.ui.struts2.editor.FolderEdit, 0, 0, 0, 0, 0, 0, 0, 0, 0, 0, 0, 0, 0, 0,0.0,0.0,0.0,0.0,0.0,0.0,0.0,0.0,0.0,0.0,0.0,0.0,0.0,77,app\src\main\java\org\apache\roller\weblogger\ui\struts2\editor\FolderEdit.java,0,0,0,0
org.apache.roller.weblogger.ui.struts2.editor.Maintenance, 0, 0, 0, 0, 0, 0, 0, 0, 0, 0, 0, 0, 0, 0,0.0,0.0,0.0,0.0,0.0,0.0,0.0,0.0,0.0,0.0,0.0,0.0,0.0,58,app\src\main\java\org\apache\roller\weblogger\ui\struts2\editor\Maintenance.java,0,0,0,0
org.apache.roller.weblogger.ui.struts2.editor.MediaFileBean, 0, 0, 0, 1, 0, 0, 0, 0, 0, 0, 0, 0, 0, 1,0.0,0.0,0.0,0.0,0.0,0.0,0.0,0.3333333333333333,0.0,0.0,0.0,0.0,0.0,132,app\src\main\java\org\apache\roller\weblogger\ui\struts2\editor\MediaFileBean.java,0,0,1,2
org.apache.roller.weblogger.ui.struts2.editor.MediaFileEdit, 0, 0, 0, 0, 0, 0, 0, 0, 0, 0, 0, 0, 0, 0,0.0,0.0,0.0,0.2,0.0,0.0,0.0,0.2,0.0,0.0,0.0,0.0,0.0,113,app\src\main\java\org\apache\roller\weblogger\ui\struts2\editor\MediaFileEdit.java,0,0,0,0
org.apache.roller.weblogger.ui.struts2.editor.MediaFileImageDim, 0, 0, 0, 0, 0, 0, 0, 0, 0, 0, 0, 0, 0, 0,0.0,0.0,0.0,0.3333333333333333,0.0,0.0,0.0,0.0,0.0,0.0,0.0,0.0,0.0,24,app\src\main\java\org\apache\roller\weblogger\ui\struts2\editor\MediaFileImageDim.java,0,0,0,0
org.apache.roller.weblogger.ui.struts2.editor.MediaFileSearchBean, 0, 0, 0, 0, 0, 0, 0, 0, 0, 0, 0, 0, 0, 0,0.0,0.0,0.0,0.0,0.0,0.0,0.0,0.0,0.0,0.0,0.0,0.0,0.0,132,app\src\main\java\org\apache\roller\weblogger\ui\struts2\editor\MediaFileSearchBean.java,0,0,0,0
org.apache.roller.weblogger.ui.struts2.editor.MemberResign, 0, 0, 0, 0, 0, 0, 0, 0, 0, 0, 0, 0, 0, 0,0.0,0.0,0.0,0.0,0.0,0.0,0.0,0.0,0.0,0.0,0.0,0.0,0.0,30,app\src\main\java\org\apache\roller\weblogger\ui\struts2\editor\MemberResign.java,0,0,0,0
org.apache.roller.weblogger.ui.struts2.editor.MembersInvite, 0, 0, 0, 0, 0, 0, 0, 0, 0, 0, 0, 0, 0, 0,0.0,0.0,0.0,0.0,0.0,0.0,0.0,0.0,0.0,0.0,0.0,0.0,0.0,87,app\src\main\java\org\apache\roller\weblogger\ui\struts2\editor\MembersInvite.java,0,0,0,0
org.apache.roller.weblogger.ui.struts2.editor.StylesheetEdit, 0, 0, 0, 0, 0, 0, 0, 0, 0, 0, 0, 0, 0, 0,0.0,0.0,0.0,0.25,0.0,0.0,0.0,0.0,0.0,0.0,0.0,0.0,0.0,238,app\src\main\java\org\apache\roller\weblogger\ui\struts2\editor\StylesheetEdit.java,0,0,0,0
org.apache.roller.weblogger.ui.struts2.editor.TemplateEditBean, 0, 0, 0, 1, 0, 0, 0, 0, 0, 0, 0, 0, 0, 1,0.0,0.0,0.0,0.3333333333333333,0.0,0.0,0.0,0.0,0.0,0.0,0.0,0.0,0.0,157,app\src\main\java\org\apache\roller\weblogger\ui\struts2\editor\TemplateEditBean.java,0,0,0,0
org.apache.roller.weblogger.ui.struts2.editor.TemplateRemove, 0, 0, 0, 0, 0, 0, 0, 0, 0, 0, 0, 0, 0, 0,0.0,0.0,0.0,0.3333333333333333,0.0,0.0,0.0,0.0,0.0,0.0,0.0,0.0,0.0,79,app\src\main\java\org\apache\roller\weblogger\ui\struts2\editor\TemplateRemove.java,0,0,0,0
org.apache.roller.weblogger.ui.struts2.editor.TemplatesRemove, 0, 0, 0, 0, 0, 0, 0, 0, 0, 0, 0, 0, 0, 0,0.0,0.0,0.0,0.5,0.0,0.0,0.0,0.0,0.0,0.0,0.0,0.0,0.0,121,app\src\main\java\org\apache\roller\weblogger\ui\struts2\editor\TemplatesRemove.java,0,0,0,0
org.apache.roller.weblogger.ui.struts2.editor.ThemeEdit, 0, 0, 0, 0, 0, 0, 0, 0, 0, 0, 0, 0, 0, 0,0.0,0.0,0.0,0.0,0.0,0.0,0.0,0.0,0.0,0.0,0.0,0.0,0.0,166,app\src\main\java\org\apache\roller\weblogger\ui\struts2\editor\ThemeEdit.java,0,0,0,0
org.apache.roller.weblogger.ui.struts2.editor.WeblogConfigBean, 0, 0, 0, 1, 0, 0, 0, 0, 0, 0, 0, 0, 0, 1,0.0,0.0,0.0,0.0,0.0,0.0,0.0,1.0,0.0,0.0,0.0,0.0,0.0,233,app\src\main\java\org\apache\roller\weblogger\ui\struts2\editor\WeblogConfigBean.java,0,0,0,0
org.apache.roller.weblogger.ui.struts2.editor.WeblogRemove, 0, 0, 0, 0, 0, 0, 0, 0, 0, 0, 0, 0, 0, 0,0.0,0.0,0.0,0.0,0.0,0.0,0.0,0.0,0.0,0.0,0.0,0.0,0.0,24,app\src\main\java\org\apache\roller\weblogger\ui\struts2\editor\WeblogRemove.java,0,0,0,0
org.apache.roller.weblogger.ui.struts2.pagers.MediaFilePager, 0, 0, 0, 0, 0, 0, 0, 1, 0, 0, 0, 0, 0, 1,0.0,0.0,0.0,0.0,0.0,0.0,0.0,0.0,0.0,0.0,0.0,0.0,0.0,25,app\src\main\java\org\apache\roller\weblogger\ui\struts2\pagers\MediaFilePager.java,0,0,0,0
org.apache.roller.weblogger.ui.struts2.util.KeyValueObject, 0, 0, 0, 0, 0, 0, 0, 0, 0, 0, 0, 0, 0, 0,0.0,0.0,0.0,0.0,0.0,0.0,0.0,0.0,0.0,0.0,0.0,0.0,0.0,21,app\src\main\java\org\apache\roller\weblogger\ui\struts2\util\KeyValueObject.java,0,0,0,0
org.apache.roller.weblogger.ui.struts2.util.UIActionInterceptor, 0, 0, 0, 0, 0, 0, 0, 0, 0, 0, 0, 0, 0, 0,0.0,0.0,0.0,0.0,0.0,0.0,0.0,0.0,0.0,0.0,0.0,0.0,0.0,39,app\src\main\java\org\apache\roller\weblogger\ui\struts2\util\UIActionInterceptor.java,0,0,0,0
org.apache.roller.weblogger.ui.struts2.util.UIActionPreparable, 0, 0, 0, 0, 0, 0, 0, 0, 0, 0, 0, 0, 0, 0,0.0,0.0,0.0,0.0,0.0,0.0,0.0,0.0,0.0,0.0,0.0,0.0,0.0,39,app\src\main\java\org\apache\roller\weblogger\ui\struts2\util\UIActionPreparable.java,0,0,0,0
org.apache.roller.weblogger.ui.struts2.util.UIActionPrepareInterceptor, 0, 0, 0, 0, 0, 0, 0, 0, 0, 0, 0, 0, 0, 0,0.0,0.0,0.0,0.0,0.0,0.0,0.0,0.0,0.0,0.0,0.0,0.0,0.0,19,app\src\main\java\org\apache\roller\weblogger\ui\struts2\util\UIActionPrepareInterceptor.java,0,0,0,0
org.apache.roller.weblogger.ui.struts2.util.UIActionTest, 0, 0, 0, 0, 0, 0, 0, 0, 0, 0, 0, 0, 0, 0,0.0,0.0,0.0,0.0,0.0,0.0,0.0,0.0,0.0,0.0,0.0,0.0,0.0,34,app\src\test\java\org\apache\roller\weblogger\ui\struts2\util\UIActionTest.java,0,0,0,0
org.apache.roller.weblogger.ui.struts2.util.UISecurityEnforced, 0, 0, 0, 0, 0, 0, 0, 0, 0, 0, 0, 0, 0, 0,0.0,0.0,0.0,0.0,0.0,0.0,0.0,0.0,0.0,0.0,0.0,0.0,0.0,34,app\src\main\java\org\apache\roller\weblogger\ui\struts2\util\UISecurityEnforced.java,0,0,0,0
org.apache.roller.weblogger.ui.struts2.util.UISecurityInterceptor, 0, 0, 0, 0, 0, 0, 0, 0, 0, 0, 0, 0, 0, 0,0.0,0.0,0.0,0.0,0.0,0.0,0.0,0.0,0.0,0.0,0.0,0.0,0.0,68,app\src\main\java\org\apache\roller\weblogger\ui\struts2\util\UISecurityInterceptor.java,0,0,0,0
org.apache.roller.weblogger.ui.tags.StringTagSupport, 0, 0, 0, 0, 0, 0, 0, 0, 0, 0, 0, 0, 0, 0,0.0,0.0,0.0,0.0,0.0,0.0,0.0,0.0,0.0,0.0,0.0,0.0,0.0,48,app\src\main\java\org\apache\roller\weblogger\ui\tags\StringTagSupport.java,0,0,0,0
org.apache.roller.weblogger.util.BlacklistChecker, 0, 0, 0, 0, 0, 0, 0, 0, 0, 0, 0, 0, 0, 0,0.0,0.0,0.0,0.0,0.0,0.0,0.0,0.0,0.0,0.0,0.0,0.0,0.0,48,app\src\main\java\org\apache\roller\weblogger\util\BlacklistChecker.java,0,0,0,0
org.apache.roller.weblogger.util.BlacklistTest, 1, 0, 1, 0, 0, 0, 0, 0, 0, 0, 0, 0, 0, 2,0.0,0.0,0.0,0.0,0.0,0.0,0.0,0.0,0.0,0.0,0.0,0.0,0.0,43,app\src\test\java\org\apache\roller\weblogger\util\BlacklistTest.java,0,0,0,0
org.apache.roller.weblogger.util.I18nUtils, 0, 0, 0, 0, 0, 0, 0, 0, 0, 0, 0, 0, 0, 0,0.0,0.0,0.0,0.0,0.0,0.0,0.0,0.0,0.0,0.0,0.0,0.0,0.0,33,app\src\main\java\org\apache\roller\weblogger\util\I18nUtils.java,0,0,0,0
org.apache.roller.weblogger.util.IPBanList, 0, 0, 0, 0, 0, 0, 0, 0, 0, 0, 0, 0, 0, 0,0.0,0.0,0.0,0.0,0.0,0.0,0.0,1.0,0.0,0.0,0.0,0.0,0.0,89,app\src\main\java\org\apache\roller\weblogger\util\IPBanList.java,0,0,0,0
org.apache.roller.weblogger.util.LRUCache2Test, 0, 0, 0, 0, 0, 0, 0, 0, 0, 0, 0, 0, 0, 0,0.0,0.0,0.0,0.0,0.0,0.0,0.0,0.0,0.0,0.0,0.0,0.0,0.0,63,app\src\test\java\org\apache\roller\weblogger\util\LRUCache2Test.java,0,0,0,0
org.apache.roller.weblogger.util.LinkbackExtractorTest, 0, 0, 0, 0, 0, 0, 0, 0, 0, 0, 0, 0, 0, 0,0.0,0.0,0.0,0.0,0.0,0.0,0.0,0.0,0.0,0.0,0.0,0.0,0.0,33,app\src\test\java\org\apache\roller\weblogger\util\LinkbackExtractorTest.java,0,0,0,0
org.apache.roller.weblogger.util.MediacastException, 0, 0, 0, 0, 0, 0, 0, 1, 0, 0, 0, 0, 0, 1,0.0,0.0,0.0,0.0,0.0,0.0,0.0,0.0,0.0,0.0,0.0,0.0,0.0,25,app\src\main\java\org\apache\roller\weblogger\util\MediacastException.java,0,0,0,0
org.apache.roller.weblogger.util.MediacastUtil, 0, 0, 0, 0, 0, 0, 0, 0, 0, 0, 0, 0, 0, 0,0.0,0.0,0.0,0.0,0.0,0.0,0.0,1.0,0.0,0.0,0.0,0.0,0.0,41,app\src\main\java\org\apache\roller\weblogger\util\MediacastUtil.java,0,0,0,0
org.apache.roller.weblogger.util.StandaloneWebappClassLoader, 1, 0, 1, 0, 0, 0, 0, 1, 0, 0, 0, 0, 0, 3,0.0,0.0,0.0,0.0,0.0,0.0,0.0,0.0,0.0,0.0,0.0,0.0,0.0,33,app\src\main\java\org\apache\roller\weblogger\util\StandaloneWebappClassLoader.java,0,0,0,0
org.apache.roller.weblogger.util.TrackbackNotAllowedException, 0, 0, 0, 0, 0, 1, 0, 0, 0, 0, 0, 0, 0, 1,0.0,0.0,0.0,0.0,0.0,0.0,0.0,0.0,0.0,0.0,0.0,0.0,0.0,5,app\src\main\java\org\apache\roller\weblogger\util\TrackbackNotAllowedException.java,0,0,0,0
org.apache.roller.weblogger.util.UtilitiesTest, 0, 0, 0, 0, 0, 0, 0, 0, 0, 0, 0, 0, 0, 0,0.0,0.0,0.0,0.0,0.0,0.0,0.0,0.0,0.0,0.0,0.0,0.0,0.0,40,app\src\test\java\org\apache\roller\weblogger\util\UtilitiesTest.java,0,0,0,0
org.apache.roller.weblogger.util.cache.CacheHandler, 0, 0, 0, 0, 0, 0, 0, 0, 0, 0, 0, 0, 0, 0,0.0,0.0,0.0,0.0,0.0,0.0,0.0,0.0,0.0,0.0,0.0,0.0,0.0,40,app\src\main\java\org\apache\roller\weblogger\util\cache\CacheHandler.java,0,0,0,0
org.apache.roller.weblogger.util.cache.CachedContent, 0, 0, 0, 0, 0, 0, 0, 0, 0, 0, 0, 0, 0, 0,0.0,0.0,0.0,0.0,0.0,0.0,0.0,0.0,0.0,0.0,0.0,0.0,0.0,61,app\src\main\java\org\apache\roller\weblogger\util\cache\CachedContent.java,0,0,0,0
org.apache.roller.weblogger.util.cache.ExpiringCacheEntry, 0, 0, 0, 0, 0, 0, 0, 0, 0, 0, 0, 0, 0, 0,0.0,0.0,0.0,0.0,0.0,0.0,0.0,1.0,0.0,0.0,0.0,0.0,0.0,29,app\src\main\java\org\apache\roller\weblogger\util\cache\ExpiringCacheEntry.java,0,0,0,0
org.apache.roller.weblogger.util.cache.ExpiringLRUCacheImpl, 0, 0, 0, 0, 0, 0, 0, 1, 0, 0, 0, 0, 0, 1,0.0,0.0,0.0,0.0,0.0,0.0,0.0,0.0,0.0,0.0,0.0,0.0,0.0,36,app\src\main\java\org\apache\roller\weblogger\util\cache\ExpiringLRUCacheImpl.java,0,0,0,0
org.apache.roller.weblogger.util.cache.LazyExpiringCacheEntry, 0, 0, 0, 0, 0, 0, 0, 0, 0, 0, 0, 0, 0, 0,0.0,0.0,0.0,0.0,0.0,0.0,0.0,0.0,0.0,0.0,0.0,0.0,0.0,21,app\src\main\java\org\apache\roller\weblogger\util\cache\LazyExpiringCacheEntry.java,0,0,0,0
org.apache.roller.weblogger.webservices.atomprotocol.RollerAtomHandler, 1, 0, 0, 0, 0, 0, 0, 0, 0, 0, 0, 0, 0, 1,0.0,0.0,0.0,0.0,0.0,0.0,0.0,0.0,0.0,0.0,0.0,0.0,0.0,283,app\src\main\java\org\apache\roller\weblogger\webservices\atomprotocol\RollerAtomHandler.java,0,0,1,2
org.apache.roller.weblogger.webservices.atomprotocol.RollerAtomHandlerFactory, 0, 0, 0, 0, 0, 0, 0, 0, 0, 0, 0, 0, 0, 0,1.0,0.0,0.0,0.0,0.0,0.0,0.0,0.0,0.0,0.0,0.0,0.0,0.0,6,app\src\main\java\org\apache\roller\weblogger\webservices\atomprotocol\RollerAtomHandlerFactory.java,0,0,0,0
org.apache.roller.weblogger.webservices.oauth.AccessTokenServlet, 1, 0, 0, 0, 0, 0, 0, 1, 0, 0, 0, 0, 0, 2,0.0,0.0,0.0,0.0,0.0,0.0,0.0,0.0,0.0,0.0,0.0,0.0,0.0,47,app\src\main\java\org\apache\roller\weblogger\webservices\oauth\AccessTokenServlet.java,0,0,0,0
org.apache.roller.weblogger.webservices.oauth.AuthorizationServlet, 1, 0, 0, 0, 0, 0, 0, 1, 0, 0, 0, 0, 0, 2,0.0,0.0,0.0,0.0,0.0,0.0,0.0,0.0,0.0,0.0,0.0,0.0,0.0,96,app\src\main\java\org\apache\roller\weblogger\webservices\oauth\AuthorizationServlet.java,0,0,0,0
org.apache.roller.weblogger.webservices.oauth.RequestTokenServlet, 1, 0, 0, 0, 0, 0, 0, 1, 0, 0, 0, 0, 0, 2,0.0,0.0,0.0,0.0,0.0,0.0,0.0,0.0,0.0,0.0,0.0,0.0,0.0,53,app\src\main\java\org\apache\roller\weblogger\webservices\oauth\RequestTokenServlet.java,0,0,0,0
org.apache.roller.weblogger.webservices.opensearch.OpenSearchServlet, 0, 0, 0, 0, 0, 0, 0, 0, 0, 0, 0, 0, 0, 0,0.0,0.0,0.0,0.0,0.0,0.0,0.0,0.0,0.0,0.0,0.0,0.0,0.0,62,app\src\main\java\org\apache\roller\weblogger\webservices\opensearch\OpenSearchServlet.java,0,0,0,0
org.apache.roller.weblogger.webservices.tagdata.TagDataServlet, 0, 0, 0, 0, 0, 0, 0, 0, 0, 0, 0, 0, 0, 0,0.0,0.0,0.0,0.0,0.0,0.0,0.0,0.0,0.0,0.0,0.0,0.0,0.0,110,app\src\main\java\org\apache\roller\weblogger\webservices\tagdata\TagDataServlet.java,0,0,0,0
org.apache.roller.weblogger.webservices.xmlrpc.BaseAPIHandler, 0, 0, 0, 0, 0, 0, 0, 1, 0, 0, 0, 0, 0, 1,0.0,0.0,0.0,0.0,0.0,0.0,0.0,0.0,0.0,0.0,0.0,0.0,0.0,124,app\src\main\java\org\apache\roller\weblogger\webservices\xmlrpc\BaseAPIHandler.java,0,0,0,0
