ClassName,AntiSingleton,Blob,ClassDataShouldBePrivate,ComplexClass,LargeClass,LazyClass,LongMethod,LongParameterList,MessageChains,RefusedParentBequest,SpaghettiCode,SpeculativeGenerality,SwissArmyKnife,NumOfAPs,AntiSingleton,Blob,ClassDataShouldBePrivate,ComplexClass,LargeClass,LazyClass,LongMethod,LongParameterList,MessageChains,RefusedParentBequest,SpaghettiCode,SpeculativeGenerality,SwissArmyKnife,LOC,name,deleted,added,changed,all
org.apache.java.lang.Bytes, 0, 0, 0, 0, 0, 0, 0, 1, 0, 0, 0, 0, 0, 1,1.0,0.0,0.0,1.0,0.0,0.0,0.0,1.0,0.0,0.0,0.0,0.0,0.0,149,src\java\org\apache\java\lang\Bytes.java,0,0,0,0
org.apache.java.security.MD5, 1, 0, 0, 1, 0, 0, 0, 1, 0, 0, 0, 0, 0, 3,0.0,0.0,0.0,0.0,0.0,0.0,0.0,1.0,0.0,0.0,0.0,0.0,0.0,309,src\java\org\apache\java\security\MD5.java,0,0,0,0
org.apache.java.security.MessageDigest, 0, 0, 0, 0, 0, 0, 0, 1, 0, 0, 0, 0, 0, 1,1.0,0.0,0.0,1.0,0.0,0.0,0.0,1.0,0.0,0.0,0.0,0.0,0.0,32,src\java\org\apache\java\security\MessageDigest.java,0,0,0,0
org.apache.turbine.ConfigurationTest, 0, 0, 0, 0, 0, 0, 0, 0, 0, 0, 0, 0, 0, 0,0.0,0.0,0.0,0.0,0.0,0.0,0.0,0.0,0.0,0.0,0.0,0.0,0.0,59,src\test\org\apache\turbine\ConfigurationTest.java,1,0,0,1
org.apache.turbine.DestroyTest, 0, 0, 0, 0, 0, 0, 0, 0, 0, 0, 0, 0, 0, 0,0.0,0.0,0.0,0.0,0.0,0.0,0.0,0.0,0.0,0.0,0.0,0.0,0.0,27,src\test\org\apache\turbine\DestroyTest.java,0,0,0,0
org.apache.turbine.TestTurbine, 0, 0, 0, 0, 0, 0, 0, 0, 0, 0, 0, 0, 0, 0,0.0,0.0,0.0,0.0,0.0,0.0,0.0,0.0,0.0,0.0,0.0,0.0,0.0,16,src\test\org\apache\turbine\TestTurbine.java,0,0,0,0
org.apache.turbine.TorqueLoadTest, 0, 0, 0, 0, 0, 0, 0, 0, 0, 0, 0, 0, 0, 0,0.0,0.0,0.0,0.0,0.0,0.0,0.0,0.0,0.0,0.0,0.0,0.0,0.0,50,src\test\org\apache\turbine\TorqueLoadTest.java,0,0,0,0
org.apache.turbine.TurbineConfigTest, 0, 0, 0, 0, 0, 0, 0, 0, 0, 0, 0, 0, 0, 0,0.0,0.0,0.0,0.0,0.0,0.0,0.0,0.0,0.0,0.0,0.0,0.0,0.0,37,src\test\org\apache\turbine\TurbineConfigTest.java,0,0,0,0
org.apache.turbine.TurbineConstants, 0, 0, 0, 0, 0, 0, 0, 0, 0, 0, 0, 0, 0, 0,0.0,0.0,0.0,0.0,0.0,0.0,0.0,0.0,0.0,0.0,0.0,0.0,0.0,37,src\java\org\apache\turbine\TurbineConstants.java,0,2,0,2
org.apache.turbine.modules.Action, 0, 0, 0, 0, 0, 0, 0, 0, 0, 0, 0, 0, 0, 0,0.0,0.0,0.0,0.0,0.0,0.25,0.0,0.0,0.0,0.0,0.0,0.0,0.0,8,src\java\org\apache\turbine\modules\Action.java,0,0,0,0
org.apache.turbine.modules.ActionEvent, 0, 0, 0, 0, 0, 0, 0, 0, 0, 0, 0, 0, 0, 0,0.0,0.0,0.0,0.0,0.0,0.0,0.0,0.0,0.0,0.0,0.0,0.0,0.0,135,src\java\org\apache\turbine\modules\ActionEvent.java,1,7,3,14
org.apache.turbine.modules.ActionLoader, 0, 0, 0, 0, 0, 0, 0, 0, 0, 0, 0, 0, 0, 0,0.0,0.0,0.0,0.0,0.0,0.0,0.0,0.0,0.0,0.0,0.0,0.0,0.0,72,src\java\org\apache\turbine\modules\ActionLoader.java,0,1,0,1
org.apache.turbine.modules.Assembler, 0, 0, 0, 0, 0, 1, 0, 0, 0, 0, 0, 0, 0, 1,0.0,0.0,0.0,0.0,0.0,0.0,0.0,0.0,0.0,0.0,0.0,0.0,0.0,3,src\java\org\apache\turbine\modules\Assembler.java,0,0,0,0
org.apache.turbine.modules.GenericLoaderTest, 0, 0, 0, 0, 0, 0, 0, 0, 0, 0, 0, 0, 0, 0,0.0,0.0,0.0,0.0,0.0,0.0,0.0,0.0,0.0,0.0,0.0,0.0,0.0,15,src\test\org\apache\turbine\modules\GenericLoaderTest.java,0,0,0,0
org.apache.turbine.modules.Layout, 0, 0, 0, 0, 0, 0, 0, 0, 0, 0, 0, 0, 0, 0,0.0,0.0,0.0,0.0,0.0,0.1111111111111111,0.0,0.0,0.0,0.0,0.0,0.0,0.0,11,src\java\org\apache\turbine\modules\Layout.java,0,0,0,0
org.apache.turbine.modules.LayoutLoader, 0, 0, 0, 0, 0, 0, 0, 0, 0, 0, 0, 0, 0, 0,0.0,0.0,0.0,0.0,0.0,0.3333333333333333,0.0,0.0,0.0,0.0,0.0,0.0,0.0,82,src\java\org\apache\turbine\modules\LayoutLoader.java,0,1,0,1
org.apache.turbine.modules.Loader, 0, 0, 0, 0, 0, 0, 0, 0, 0, 0, 0, 0, 0, 0,0.0,0.0,0.0,0.0,0.0,0.0,0.0,0.0,0.0,0.0,0.0,0.0,0.0,82,src\java\org\apache\turbine\modules\Loader.java,0,0,1,2
org.apache.turbine.modules.Navigation, 0, 0, 0, 0, 0, 0, 0, 0, 0, 0, 0, 0, 0, 0,0.0,0.0,0.0,0.0,0.0,0.2,0.0,0.0,0.0,0.0,0.0,0.0,0.0,15,src\java\org\apache\turbine\modules\Navigation.java,0,0,0,0
org.apache.turbine.modules.NavigationLoader, 0, 0, 0, 0, 0, 0, 0, 0, 0, 0, 0, 0, 0, 0,0.0,0.0,0.0,0.0,0.0,0.16666666666666666,0.0,0.0,0.0,0.0,0.0,0.0,0.0,87,src\java\org\apache\turbine\modules\NavigationLoader.java,0,1,0,1
org.apache.turbine.modules.Page, 0, 0, 0, 0, 0, 0, 0, 0, 0, 0, 0, 0, 0, 0,0.0,0.0,0.0,0.0,0.0,0.3333333333333333,0.0,0.0,0.0,0.0,0.0,0.0,0.0,11,src\java\org\apache\turbine\modules\Page.java,0,0,0,0
org.apache.turbine.modules.PageLoader, 0, 0, 0, 0, 0, 0, 0, 0, 0, 0, 0, 0, 0, 0,0.0,0.0,0.0,0.0,0.0,0.5,0.0,0.0,0.0,0.0,0.0,0.0,0.0,82,src\java\org\apache\turbine\modules\PageLoader.java,0,1,0,1
org.apache.turbine.modules.ScheduledJob, 0, 0, 0, 0, 0, 0, 0, 0, 0, 0, 0, 0, 0, 0,0.0,0.0,0.0,0.0,0.0,0.25,0.0,0.25,0.0,0.0,0.0,0.0,0.0,5,src\java\org\apache\turbine\modules\ScheduledJob.java,0,0,0,0
org.apache.turbine.modules.ScheduledJobLoader, 0, 0, 0, 0, 0, 0, 0, 0, 0, 0, 0, 0, 0, 0,0.0,0.0,0.0,0.0,0.0,0.0,0.0,0.3333333333333333,0.0,0.0,0.0,0.0,0.0,80,src\java\org\apache\turbine\modules\ScheduledJobLoader.java,0,1,0,1
org.apache.turbine.modules.Screen, 0, 0, 0, 0, 0, 0, 0, 0, 0, 0, 0, 0, 0, 0,0.0,0.0,0.0,0.0,0.0,0.125,0.0,0.125,0.0,0.0,0.0,0.0,0.0,27,src\java\org\apache\turbine\modules\Screen.java,0,0,0,0
org.apache.turbine.modules.ScreenLoader, 0, 0, 0, 0, 0, 0, 0, 0, 0, 0, 0, 0, 0, 0,0.0,0.0,0.0,0.0,0.0,0.08333333333333333,0.0,0.08333333333333333,0.0,0.0,0.0,0.0,0.0,87,src\java\org\apache\turbine\modules\ScreenLoader.java,0,1,0,1
org.apache.turbine.modules.actions.AccessController, 0, 0, 0, 0, 0, 0, 0, 0, 0, 0, 0, 0, 0, 0,0.0,0.0,0.0,0.5,0.0,0.0,0.0,0.5,0.0,0.0,0.0,0.0,0.0,27,src\java\org\apache\turbine\modules\actions\AccessController.java,0,0,0,0
org.apache.turbine.modules.actions.DefaultAction, 0, 0, 0, 0, 0, 0, 0, 0, 0, 0, 0, 0, 0, 0,0.0,0.0,0.0,0.0,0.0,0.0,0.0,0.0,0.0,0.0,0.0,0.0,0.0,8,src\java\org\apache\turbine\modules\actions\DefaultAction.java,0,0,0,0
org.apache.turbine.modules.actions.JspAction, 0, 0, 0, 0, 0, 0, 0, 0, 0, 0, 0, 0, 0, 0,0.0,0.0,0.0,0.0,0.0,0.0,0.0,0.3333333333333333,0.0,0.0,0.0,0.0,0.0,25,proposals\henning\jsp-tags\src\java\org\apache\turbine\modules\actions\JspAction.java,31,0,0,31
org.apache.turbine.modules.actions.LoginUser, 0, 0, 0, 0, 0, 0, 0, 0, 0, 0, 0, 0, 0, 0,0.0,0.0,0.0,0.5,0.0,0.0,0.0,0.5,0.0,0.0,0.0,0.0,0.0,46,src\java\org\apache\turbine\modules\actions\LoginUser.java,0,0,0,0
org.apache.turbine.modules.actions.LogoutUser, 0, 0, 0, 0, 0, 0, 0, 0, 0, 0, 0, 0, 0, 0,0.0,0.0,0.0,0.5,0.0,0.0,0.0,0.5,0.0,0.0,0.0,0.0,0.0,30,src\java\org\apache\turbine\modules\actions\LogoutUser.java,0,0,0,0
org.apache.turbine.modules.actions.VelocityAction, 0, 0, 0, 0, 0, 0, 0, 0, 0, 0, 0, 0, 0, 0,0.0,0.0,0.0,0.0,0.0,0.0,0.0,0.5,0.0,0.0,0.0,0.0,0.0,25,src\java\org\apache\turbine\modules\actions\VelocityAction.java,0,0,0,0
org.apache.turbine.modules.actions.VelocitySecureAction, 0, 0, 0, 0, 0, 0, 0, 0, 0, 0, 0, 0, 0, 0,0.0,0.0,0.0,0.0,0.0,0.0,0.0,0.0,0.0,0.0,0.0,0.0,0.0,14,src\java\org\apache\turbine\modules\actions\VelocitySecureAction.java,0,0,0,0
org.apache.turbine.modules.actions.sessionvalidator.DefaultSessionValidator, 0, 0, 0, 0, 0, 0, 0, 0, 0, 0, 0, 0, 0, 0,0.0,0.0,0.0,0.5,0.0,0.5,0.0,0.5,0.0,0.0,0.0,0.0,0.0,45,src\java\org\apache\turbine\modules\actions\sessionvalidator\DefaultSessionValidator.java,0,0,0,0
org.apache.turbine.modules.actions.sessionvalidator.SessionValidator, 0, 0, 0, 0, 0, 1, 0, 0, 0, 0, 0, 0, 0, 1,0.0,0.0,0.0,0.0,0.0,0.0,0.0,0.0,0.0,0.0,0.0,0.0,0.0,3,src\java\org\apache\turbine\modules\actions\sessionvalidator\SessionValidator.java,0,0,0,0
org.apache.turbine.modules.actions.sessionvalidator.TemplateSecureSessionValidator, 0, 0, 0, 0, 0, 0, 0, 0, 0, 0, 0, 0, 0, 0,0.0,0.0,0.0,0.5,0.0,0.5,0.0,0.5,0.0,0.0,0.0,0.0,0.0,78,src\java\org\apache\turbine\modules\actions\sessionvalidator\TemplateSecureSessionValidator.java,0,0,0,0
org.apache.turbine.modules.actions.sessionvalidator.TemplateSessionValidator, 0, 0, 0, 0, 0, 0, 0, 0, 0, 0, 0, 0, 0, 0,0.0,0.0,0.0,0.5,0.0,0.5,0.0,0.5,0.0,0.0,0.0,0.0,0.0,62,src\java\org\apache\turbine\modules\actions\sessionvalidator\TemplateSessionValidator.java,0,0,0,0
org.apache.turbine.modules.layouts.DefaultLayout, 0, 0, 0, 0, 0, 0, 0, 0, 0, 0, 0, 0, 0, 0,0.0,0.0,0.0,0.0,0.0,0.0,0.0,0.0,0.0,0.0,0.0,0.0,0.0,32,src\java\org\apache\turbine\modules\layouts\DefaultLayout.java,0,0,0,0
org.apache.turbine.modules.layouts.DirectResponseLayout, 0, 0, 0, 0, 0, 0, 0, 0, 0, 0, 0, 0, 0, 0,0.0,0.0,0.0,0.0,0.0,0.0,0.0,0.0,0.0,0.0,0.0,0.0,0.0,12,src\java\org\apache\turbine\modules\layouts\DirectResponseLayout.java,0,0,0,0
org.apache.turbine.modules.layouts.JspLayout, 0, 0, 0, 0, 0, 0, 0, 0, 0, 0, 0, 0, 0, 0,0.0,0.0,0.0,0.0,0.0,0.0,0.0,0.0,0.0,0.0,0.0,0.0,0.0,19,src\java\org\apache\turbine\modules\layouts\JspLayout.java,0,0,0,0
org.apache.turbine.modules.layouts.VelocityDirectLayout, 0, 0, 0, 0, 0, 0, 0, 0, 0, 0, 0, 0, 0, 0,0.0,0.0,0.0,0.0,0.0,0.0,0.0,0.25,0.0,0.0,0.0,0.0,0.0,21,src\java\org\apache\turbine\modules\layouts\VelocityDirectLayout.java,0,0,0,0
org.apache.turbine.modules.layouts.VelocityECSLayout, 0, 0, 0, 0, 0, 0, 0, 0, 0, 0, 0, 0, 0, 0,0.0,0.0,0.0,0.0,0.0,0.0,0.0,0.25,0.0,0.0,0.0,0.0,0.0,33,src\java\org\apache\turbine\modules\layouts\VelocityECSLayout.java,0,0,0,0
org.apache.turbine.modules.layouts.VelocityOnlyLayout, 0, 0, 0, 0, 0, 0, 0, 0, 0, 0, 0, 0, 0, 0,0.0,0.0,0.0,0.0,0.0,0.42857142857142855,0.0,0.14285714285714285,0.0,0.0,0.0,0.0,0.0,25,src\java\org\apache\turbine\modules\layouts\VelocityOnlyLayout.java,0,0,0,0
org.apache.turbine.modules.layouts.VelocityXslLayout, 0, 0, 0, 0, 0, 0, 0, 0, 0, 0, 0, 0, 0, 0,0.0,0.0,0.0,0.0,0.0,0.0,0.0,0.25,0.0,0.0,0.0,0.0,0.0,26,src\java\org\apache\turbine\modules\layouts\VelocityXslLayout.java,0,0,0,0
org.apache.turbine.modules.navigations.BaseJspNavigation, 0, 0, 0, 0, 0, 0, 0, 0, 0, 0, 0, 0, 0, 0,0.0,0.0,0.0,0.0,0.0,0.0,0.0,0.0,0.0,0.0,0.0,0.0,0.0,16,src\java\org\apache\turbine\modules\navigations\BaseJspNavigation.java,0,0,0,0
org.apache.turbine.modules.navigations.DefaultTopNavigation, 0, 0, 0, 0, 0, 0, 0, 0, 0, 0, 0, 0, 0, 0,0.0,0.0,0.0,0.0,0.0,0.0,0.0,0.0,0.0,0.0,0.0,0.0,0.0,16,src\java\org\apache\turbine\modules\navigations\DefaultTopNavigation.java,0,0,0,0
org.apache.turbine.modules.navigations.TemplateNavigation, 0, 0, 0, 0, 0, 0, 0, 0, 0, 0, 0, 0, 0, 0,0.0,0.0,0.0,0.0,0.0,0.0,0.0,0.0,0.0,0.0,0.0,0.0,0.0,14,src\java\org\apache\turbine\modules\navigations\TemplateNavigation.java,0,0,0,0
org.apache.turbine.modules.navigations.VelocityNavigation, 0, 0, 0, 0, 0, 0, 0, 0, 0, 0, 0, 0, 0, 0,0.0,0.0,0.0,0.16666666666666666,0.0,0.5,0.0,0.16666666666666666,0.0,0.0,0.0,0.0,0.0,29,src\java\org\apache\turbine\modules\navigations\VelocityNavigation.java,3,0,0,3
org.apache.turbine.modules.pages.DefaultPage, 0, 0, 0, 0, 0, 0, 0, 0, 0, 0, 0, 0, 0, 0,0.0,0.0,0.0,0.0,0.0,0.0,0.0,0.0,0.0,0.0,0.0,0.0,0.0,97,src\java\org\apache\turbine\modules\pages\DefaultPage.java,0,0,0,0
org.apache.turbine.modules.pages.JspPage, 0, 0, 0, 0, 0, 0, 0, 0, 0, 0, 0, 0, 0, 0,0.0,0.0,0.0,0.0,0.0,0.0,0.0,0.0,0.0,0.0,0.0,0.0,0.0,16,src\java\org\apache\turbine\modules\pages\JspPage.java,0,0,0,0
org.apache.turbine.modules.pages.TemplatePage, 0, 0, 0, 0, 0, 0, 0, 0, 0, 0, 0, 0, 0, 0,0.0,0.0,0.0,0.2,0.0,0.0,0.0,0.0,0.0,0.0,0.0,0.0,0.0,24,src\java\org\apache\turbine\modules\pages\TemplatePage.java,0,0,0,0
org.apache.turbine.modules.pages.VelocityPage, 0, 0, 0, 0, 0, 0, 0, 0, 0, 0, 0, 0, 0, 0,0.0,0.0,0.0,0.0,0.0,0.0,0.0,0.5,0.0,0.0,0.0,0.0,0.0,17,src\java\org\apache\turbine\modules\pages\VelocityPage.java,0,0,0,0
org.apache.turbine.modules.scheduledjob.SimpleJob, 0, 0, 0, 0, 0, 0, 0, 0, 0, 0, 0, 0, 0, 0,0.0,0.0,0.0,0.0,0.0,0.0,0.0,0.0,0.0,0.0,0.0,0.0,0.0,19,src\test\org\apache\turbine\modules\scheduledjob\SimpleJob.java,0,0,0,0
org.apache.turbine.modules.screens.BaseJspScreen, 0, 0, 0, 0, 0, 0, 0, 0, 0, 0, 0, 0, 0, 0,0.0,0.0,0.0,0.2,0.0,0.0,0.0,0.2,0.0,0.0,0.0,0.0,0.0,24,src\java\org\apache\turbine\modules\screens\BaseJspScreen.java,0,0,0,0
org.apache.turbine.modules.screens.ErrorTest, 0, 0, 0, 0, 0, 0, 0, 0, 0, 0, 0, 0, 0, 0,0.0,0.0,0.0,0.0,0.0,0.0,0.0,0.0,0.0,0.0,0.0,0.0,0.0,43,src\test-cactus\org\apache\turbine\modules\screens\ErrorTest.java,0,0,0,0
org.apache.turbine.modules.screens.JspErrorScreen, 0, 0, 0, 0, 0, 0, 0, 0, 0, 0, 0, 0, 0, 0,0.0,0.0,0.0,0.0,0.0,0.0,0.0,0.5,0.0,0.0,0.0,0.0,0.0,12,src\java\org\apache\turbine\modules\screens\JspErrorScreen.java,0,0,0,0
org.apache.turbine.modules.screens.JspScreen, 0, 0, 0, 0, 0, 0, 0, 0, 0, 0, 0, 0, 0, 0,0.0,0.0,0.0,0.0,0.0,0.0,0.0,0.0,0.0,0.0,0.0,0.0,0.0,16,proposals\henning\jsp-tags\src\java\org\apache\turbine\modules\screens\JspScreen.java,24,0,0,24
org.apache.turbine.modules.screens.RawScreen, 0, 0, 0, 0, 0, 0, 0, 0, 0, 0, 0, 0, 0, 0,0.0,0.0,0.0,0.0,0.0,0.0,0.0,0.0,0.0,0.0,0.0,0.0,0.0,18,src\java\org\apache\turbine\modules\screens\RawScreen.java,0,0,0,0
org.apache.turbine.modules.screens.TemplateScreen, 0, 0, 0, 0, 0, 0, 0, 1, 0, 0, 0, 0, 0, 1,0.0,0.0,0.0,0.1111111111111111,0.0,0.0,0.0,0.0,0.0,0.0,0.0,0.0,0.0,52,src\java\org\apache\turbine\modules\screens\TemplateScreen.java,0,0,0,0
org.apache.turbine.modules.screens.VelocityDirectScreen, 0, 0, 0, 0, 0, 0, 0, 0, 0, 0, 0, 0, 0, 0,0.0,0.0,0.0,0.3333333333333333,0.0,0.0,0.0,0.3333333333333333,0.0,0.0,0.0,0.0,0.0,36,src\java\org\apache\turbine\modules\screens\VelocityDirectScreen.java,0,0,0,0
org.apache.turbine.modules.screens.VelocityErrorScreen, 0, 0, 0, 0, 0, 0, 0, 0, 0, 0, 0, 0, 0, 0,0.0,0.0,0.0,0.0,0.0,0.0,0.0,0.5,0.0,0.0,0.0,0.0,0.0,16,src\java\org\apache\turbine\modules\screens\VelocityErrorScreen.java,0,0,0,0
org.apache.turbine.modules.screens.VelocityScreen, 0, 0, 0, 0, 0, 0, 0, 0, 0, 0, 0, 0, 0, 0,0.0,0.0,0.0,0.1,0.0,0.3,0.0,0.2,0.0,0.0,0.0,0.0,0.0,64,src\java\org\apache\turbine\modules\screens\VelocityScreen.java,0,0,0,0
org.apache.turbine.modules.screens.VelocitySecureScreen, 0, 0, 0, 0, 0, 0, 0, 0, 0, 0, 0, 0, 0, 0,0.0,0.0,0.0,0.0,0.0,0.0,0.0,0.5,0.0,0.0,0.0,0.0,0.0,17,src\java\org\apache\turbine\modules\screens\VelocitySecureScreen.java,0,0,0,0
org.apache.turbine.om.Retrievable, 0, 0, 0, 0, 0, 0, 0, 0, 0, 0, 0, 0, 0, 0,0.0,0.0,0.0,0.0,0.0,0.0,0.0,0.0,0.0,0.0,0.0,0.0,0.0,17,src\java\org\apache\turbine\om\Retrievable.java,0,0,0,0
org.apache.turbine.om.Retriever, 0, 0, 0, 0, 0, 0, 0, 0, 0, 0, 0, 0, 0, 0,0.0,0.0,0.0,0.0,0.0,0.0,0.0,0.0,0.0,0.0,0.0,0.0,0.0,17,src\java\org\apache\turbine\om\Retriever.java,0,0,0,0
org.apache.turbine.om.RetrieverFactory, 0, 0, 0, 0, 0, 0, 0, 0, 0, 0, 0, 0, 0, 0,0.0,0.0,0.0,0.0,0.0,0.0,0.0,0.0,0.0,0.0,0.0,0.0,0.0,17,src\java\org\apache\turbine\om\RetrieverFactory.java,0,0,0,0
org.apache.turbine.om.security.Group, 0, 0, 0, 0, 0, 0, 0, 0, 0, 0, 0, 0, 0, 0,0.0,0.0,0.0,0.0,0.0,0.0,0.0,0.0,0.0,0.0,0.0,0.0,0.0,17,src\java\org\apache\turbine\om\security\Group.java,0,0,0,0
org.apache.turbine.om.security.Permission, 0, 0, 0, 0, 0, 0, 0, 0, 0, 0, 0, 0, 0, 0,0.0,0.0,0.0,0.0,0.0,0.0,0.0,0.0,0.0,0.0,0.0,0.0,0.0,17,src\java\org\apache\turbine\om\security\Permission.java,0,0,0,0
org.apache.turbine.om.security.Role, 0, 0, 0, 0, 0, 0, 0, 0, 0, 0, 0, 0, 0, 0,0.0,0.0,0.0,0.0,0.0,0.0,0.0,0.0,0.0,0.0,0.0,0.0,0.0,17,src\java\org\apache\turbine\om\security\Role.java,0,0,0,0
org.apache.turbine.om.security.SecurityEntity, 0, 0, 0, 0, 0, 0, 0, 0, 0, 0, 0, 0, 0, 0,0.0,0.0,0.0,0.0,0.0,0.0,0.0,0.0,0.0,0.0,0.0,0.0,0.0,17,src\java\org\apache\turbine\om\security\SecurityEntity.java,0,0,0,0
org.apache.turbine.om.security.TurbineGroup, 0, 0, 0, 0, 0, 0, 0, 0, 0, 0, 0, 0, 0, 0,0.0,0.0,0.0,1.0,0.0,0.0,0.0,1.0,0.0,0.0,0.0,0.0,0.0,55,src\java\org\apache\turbine\om\security\TurbineGroup.java,0,1,0,1
org.apache.turbine.om.security.TurbinePermission, 0, 0, 0, 0, 0, 0, 0, 0, 0, 0, 0, 0, 0, 0,0.0,0.0,0.0,1.0,0.0,0.0,0.0,1.0,0.0,0.0,0.0,0.0,0.0,31,src\java\org\apache\turbine\om\security\TurbinePermission.java,0,1,0,1
org.apache.turbine.om.security.TurbineRole, 0, 0, 0, 0, 0, 0, 0, 0, 0, 0, 0, 0, 0, 0,0.0,0.0,0.0,1.0,0.0,0.0,0.0,1.0,0.0,0.0,0.0,0.0,0.0,77,src\java\org\apache\turbine\om\security\TurbineRole.java,0,1,0,1
org.apache.turbine.om.security.peer.RolePermissionPeer, 0, 0, 0, 0, 0, 0, 0, 0, 0, 0, 0, 0, 0, 0,0.0,0.0,0.0,0.0,0.0,0.0,0.0,0.0,0.0,0.0,0.0,0.0,0.0,21,src\java\org\apache\turbine\om\security\peer\RolePermissionPeer.java,0,1,0,1
org.apache.turbine.om.security.peer.UserPeer, 0, 0, 0, 0, 0, 0, 0, 0, 0, 0, 0, 0, 0, 0,0.0,0.0,0.0,0.0,0.0,0.0,0.0,0.0,0.0,0.0,0.0,0.0,0.0,21,src\java\org\apache\turbine\om\security\peer\UserPeer.java,0,0,2,4
org.apache.turbine.services.BaseInitable, 0, 0, 0, 0, 0, 0, 0, 0, 0, 0, 0, 0, 0, 0,0.06666666666666667,0.0,0.0,0.26666666666666666,0.0,0.0,0.0,0.4,0.0,0.0,0.0,0.0,0.0,35,src\java\org\apache\turbine\services\BaseInitable.java,0,0,0,0
org.apache.turbine.services.BaseService, 0, 0, 0, 0, 0, 0, 0, 0, 0, 0, 0, 0, 0, 0,0.0,0.0,0.0,0.3076923076923077,0.0,0.0,0.0,0.46153846153846156,0.0,0.0,0.0,0.0,0.0,40,src\java\org\apache\turbine\services\BaseService.java,0,0,0,0
org.apache.turbine.services.BaseUnicastRemoteService, 0, 0, 0, 0, 0, 0, 0, 0, 0, 0, 0, 0, 0, 0,0.0,0.0,0.0,0.0,0.0,0.0,0.0,0.0,0.0,0.0,0.0,0.0,0.0,86,src\java\org\apache\turbine\services\BaseUnicastRemoteService.java,0,1,0,1
org.apache.turbine.services.Initable, 0, 0, 0, 0, 0, 0, 0, 0, 0, 0, 0, 0, 0, 0,0.0,0.0,0.0,0.0,0.0,0.0,0.0,0.0,0.0,0.0,0.0,0.0,0.0,86,src\java\org\apache\turbine\services\Initable.java,0,0,0,0
org.apache.turbine.services.InitableBroker, 0, 0, 0, 0, 0, 0, 0, 0, 0, 0, 0, 0, 0, 0,0.0,0.0,0.0,0.0,0.0,0.0,0.0,0.0,0.0,0.0,0.0,0.0,0.0,86,src\java\org\apache\turbine\services\InitableBroker.java,0,0,0,0
org.apache.turbine.services.InitializationException, 0, 0, 0, 0, 0, 0, 0, 0, 0, 0, 0, 0, 0, 0,0.08333333333333333,0.0,0.0,0.3333333333333333,0.0,0.0,0.0,0.4166666666666667,0.0,0.0,0.0,0.0,0.0,11,src\java\org\apache\turbine\services\InitializationException.java,0,1,0,1
org.apache.turbine.services.InstantiationException, 0, 0, 0, 0, 0, 0, 0, 0, 0, 0, 0, 0, 0, 0,0.0,0.0,0.0,0.0,0.0,0.0,0.0,0.5,0.0,0.0,0.0,0.0,0.0,11,src\java\org\apache\turbine\services\InstantiationException.java,0,1,0,1
org.apache.turbine.services.Service, 0, 0, 0, 0, 0, 0, 0, 0, 0, 0, 0, 0, 0, 0,0.0,0.0,0.0,0.0,0.0,0.0,0.0,0.0,0.0,0.0,0.0,0.0,0.0,11,src\java\org\apache\turbine\services\Service.java,0,0,0,0
org.apache.turbine.services.ServiceBroker, 0, 0, 0, 0, 0, 0, 0, 0, 0, 0, 0, 0, 0, 0,0.0,0.0,0.0,0.0,0.0,0.0,0.0,0.0,0.0,0.0,0.0,0.0,0.0,11,src\java\org\apache\turbine\services\ServiceBroker.java,0,0,0,0
org.apache.turbine.services.ServiceManager, 0, 0, 0, 0, 0, 0, 0, 0, 0, 0, 0, 0, 0, 0,0.0,0.0,0.0,0.0,0.0,0.0,0.0,0.0,0.0,0.0,0.0,0.0,0.0,11,src\java\org\apache\turbine\services\ServiceManager.java,0,0,0,0
org.apache.turbine.services.TurbineBaseService, 0, 0, 0, 0, 0, 0, 0, 0, 0, 0, 0, 0, 0, 0,0.08333333333333333,0.0,0.0,0.25,0.0,0.0,0.0,0.3333333333333333,0.0,0.0,0.0,0.0,0.0,30,src\java\org\apache\turbine\services\TurbineBaseService.java,0,0,0,0
org.apache.turbine.services.TurbineServices, 0, 0, 0, 0, 0, 0, 0, 0, 0, 0, 0, 0, 0, 0,0.0,0.0,0.0,0.07317073170731707,0.0,0.0,0.0,0.24390243902439024,0.0,0.0,0.0,0.0,0.0,23,src\java\org\apache\turbine\services\TurbineServices.java,0,0,0,0
org.apache.turbine.services.assemblerbroker.AssemblerBrokerService, 0, 0, 0, 0, 0, 0, 0, 0, 0, 0, 0, 0, 0, 0,0.0,0.0,0.0,0.0,0.0,0.0,0.0,0.0,0.0,0.0,0.0,0.0,0.0,23,src\java\org\apache\turbine\services\assemblerbroker\AssemblerBrokerService.java,0,0,0,0
org.apache.turbine.services.assemblerbroker.TurbineAssemblerBroker, 0, 0, 0, 0, 0, 0, 0, 0, 0, 0, 0, 0, 0, 0,0.0,0.0,0.0,0.0,0.0,0.5,0.0,0.0,0.0,0.0,0.0,0.0,0.0,17,src\java\org\apache\turbine\services\assemblerbroker\TurbineAssemblerBroker.java,0,0,0,0
org.apache.turbine.services.assemblerbroker.util.AssemblerFactory, 0, 0, 0, 0, 0, 0, 0, 0, 0, 0, 0, 0, 0, 0,0.0,0.0,0.0,0.0,0.0,0.0,0.0,0.0,0.0,0.0,0.0,0.0,0.0,17,src\java\org\apache\turbine\services\assemblerbroker\util\AssemblerFactory.java,0,0,0,0
org.apache.turbine.services.assemblerbroker.util.java.JavaActionFactory, 0, 0, 0, 0, 0, 0, 0, 0, 0, 0, 0, 0, 0, 0,0.0,0.0,0.0,0.0,0.0,1.0,0.0,0.0,0.0,0.0,0.0,0.0,0.0,8,src\java\org\apache\turbine\services\assemblerbroker\util\java\JavaActionFactory.java,0,0,0,0
org.apache.turbine.services.assemblerbroker.util.java.JavaLayoutFactory, 0, 0, 0, 0, 0, 0, 0, 0, 0, 0, 0, 0, 0, 0,0.0,0.0,0.0,0.0,0.0,1.0,0.0,0.0,0.0,0.0,0.0,0.0,0.0,8,src\java\org\apache\turbine\services\assemblerbroker\util\java\JavaLayoutFactory.java,0,0,0,0
org.apache.turbine.services.assemblerbroker.util.java.JavaNavigationFactory, 0, 0, 0, 0, 0, 0, 0, 0, 0, 0, 0, 0, 0, 0,0.0,0.0,0.0,0.0,0.0,1.0,0.0,0.0,0.0,0.0,0.0,0.0,0.0,8,src\java\org\apache\turbine\services\assemblerbroker\util\java\JavaNavigationFactory.java,0,0,0,0
org.apache.turbine.services.assemblerbroker.util.java.JavaPageFactory, 0, 0, 0, 0, 0, 0, 0, 0, 0, 0, 0, 0, 0, 0,0.0,0.0,0.0,0.0,0.0,1.0,0.0,0.0,0.0,0.0,0.0,0.0,0.0,8,src\java\org\apache\turbine\services\assemblerbroker\util\java\JavaPageFactory.java,0,0,0,0
org.apache.turbine.services.assemblerbroker.util.java.JavaScheduledJobFactory, 0, 0, 0, 0, 0, 0, 0, 0, 0, 0, 0, 0, 0, 0,0.0,0.0,0.0,0.0,0.0,1.0,0.0,0.0,0.0,0.0,0.0,0.0,0.0,8,src\java\org\apache\turbine\services\assemblerbroker\util\java\JavaScheduledJobFactory.java,0,0,0,0
org.apache.turbine.services.assemblerbroker.util.java.JavaScreenFactory, 0, 0, 0, 0, 0, 0, 0, 0, 0, 0, 0, 0, 0, 0,0.0,0.0,0.0,0.0,0.0,1.0,0.0,0.0,0.0,0.0,0.0,0.0,0.0,8,src\java\org\apache\turbine\services\assemblerbroker\util\java\JavaScreenFactory.java,0,0,0,0
org.apache.turbine.services.assemblerbroker.util.python.PythonActionFactory, 0, 0, 0, 0, 0, 0, 0, 0, 0, 0, 0, 0, 0, 0,0.0,0.0,0.0,0.0,0.0,1.0,0.0,0.0,0.0,0.0,0.0,0.0,0.0,9,src\java\org\apache\turbine\services\assemblerbroker\util\python\PythonActionFactory.java,0,0,0,0
org.apache.turbine.services.assemblerbroker.util.python.PythonLayoutFactory, 0, 0, 0, 0, 0, 0, 0, 0, 0, 0, 0, 0, 0, 0,0.0,0.0,0.0,0.0,0.0,1.0,0.0,0.0,0.0,0.0,0.0,0.0,0.0,9,src\java\org\apache\turbine\services\assemblerbroker\util\python\PythonLayoutFactory.java,0,0,0,0
org.apache.turbine.services.assemblerbroker.util.python.PythonNavigationFactory, 0, 0, 0, 0, 0, 0, 0, 0, 0, 0, 0, 0, 0, 0,0.0,0.0,0.0,0.0,0.0,1.0,0.0,0.0,0.0,0.0,0.0,0.0,0.0,9,src\java\org\apache\turbine\services\assemblerbroker\util\python\PythonNavigationFactory.java,0,0,0,0
org.apache.turbine.services.assemblerbroker.util.python.PythonPageFactory, 0, 0, 0, 0, 0, 0, 0, 0, 0, 0, 0, 0, 0, 0,0.0,0.0,0.0,0.0,0.0,1.0,0.0,0.0,0.0,0.0,0.0,0.0,0.0,9,src\java\org\apache\turbine\services\assemblerbroker\util\python\PythonPageFactory.java,0,0,0,0
org.apache.turbine.services.assemblerbroker.util.python.PythonScreenFactory, 0, 0, 0, 0, 0, 0, 0, 0, 0, 0, 0, 0, 0, 0,0.0,0.0,0.0,0.0,0.0,1.0,0.0,0.0,0.0,0.0,0.0,0.0,0.0,9,src\java\org\apache\turbine\services\assemblerbroker\util\python\PythonScreenFactory.java,0,0,0,0
org.apache.turbine.services.avaloncomponent.AvalonComponentService, 0, 0, 0, 0, 0, 0, 0, 0, 0, 0, 0, 0, 0, 0,0.0,0.0,0.0,0.0,0.0,0.0,0.0,0.0,0.0,0.0,0.0,0.0,0.0,9,src\java\org\apache\turbine\services\avaloncomponent\AvalonComponentService.java,0,0,0,0
org.apache.turbine.services.avaloncomponent.TurbineAvalonComponentService, 0, 0, 0, 0, 0, 0, 0, 0, 0, 0, 0, 0, 0, 0,0.0,0.0,0.0,0.0,0.0,0.0,0.0,0.0,0.0,0.0,0.0,0.0,0.0,86,src\java\org\apache\turbine\services\avaloncomponent\TurbineAvalonComponentService.java,0,0,0,0
org.apache.turbine.services.avaloncomponent.TurbineAvalonComponentServiceTest, 0, 0, 0, 0, 0, 0, 0, 0, 0, 0, 0, 0, 0, 0,0.0,0.0,0.0,0.0,0.0,0.0,0.0,0.0,0.0,0.0,0.0,0.0,0.0,46,src\test\org\apache\turbine\services\avaloncomponent\TurbineAvalonComponentServiceTest.java,0,0,0,0
org.apache.turbine.services.cache.CachedObject, 0, 0, 0, 0, 0, 0, 0, 0, 0, 0, 0, 0, 0, 0,0.0,0.0,0.0,0.0,0.0,0.0,0.0,0.0,0.0,0.0,0.0,0.0,0.0,77,src\java\org\apache\turbine\services\cache\CachedObject.java,0,1,0,1
org.apache.turbine.services.cache.GlobalCacheService, 0, 0, 0, 0, 0, 0, 0, 0, 0, 0, 0, 0, 0, 0,0.0,0.0,0.0,0.0,0.0,0.0,0.0,0.0,0.0,0.0,0.0,0.0,0.0,77,src\java\org\apache\turbine\services\cache\GlobalCacheService.java,0,0,0,0
org.apache.turbine.services.cache.ObjectExpiredException, 0, 0, 0, 0, 0, 1, 0, 0, 0, 0, 0, 0, 0, 1,0.0,0.0,0.0,0.0,0.0,0.0,0.0,0.0,0.0,0.0,0.0,0.0,0.0,4,src\java\org\apache\turbine\services\cache\ObjectExpiredException.java,0,1,0,1
org.apache.turbine.services.cache.Refreshable, 0, 0, 0, 0, 0, 0, 0, 0, 0, 0, 0, 0, 0, 0,0.0,0.0,0.0,0.0,0.0,0.0,0.0,0.0,0.0,0.0,0.0,0.0,0.0,4,src\java\org\apache\turbine\services\cache\Refreshable.java,0,0,0,0
org.apache.turbine.services.cache.RefreshableCachedObject, 0, 0, 0, 0, 0, 0, 0, 0, 0, 0, 0, 0, 0, 0,0.0,0.0,0.0,0.0,0.0,0.0,0.0,0.0,0.0,0.0,0.0,0.0,0.0,47,src\java\org\apache\turbine\services\cache\RefreshableCachedObject.java,0,1,0,1
org.apache.turbine.services.cache.TurbineCacheTest, 0, 0, 0, 0, 0, 0, 0, 0, 0, 0, 0, 0, 0, 0,0.0,0.0,0.0,0.0,0.0,0.25,0.0,0.0,0.0,0.0,0.0,0.0,0.0,327,src\rttest\org\apache\turbine\services\cache\TurbineCacheTest.java,0,0,0,0
org.apache.turbine.services.cache.TurbineGlobalCache, 0, 0, 0, 0, 0, 0, 0, 0, 0, 0, 0, 0, 0, 0,0.0,0.0,0.0,0.0,0.0,0.0,0.0,0.0,0.0,0.0,0.0,0.0,0.0,31,src\java\org\apache\turbine\services\cache\TurbineGlobalCache.java,0,0,0,0
org.apache.turbine.services.component.ComponentService, 0, 0, 0, 0, 0, 0, 0, 0, 0, 0, 0, 0, 0, 0,0.0,0.0,0.0,0.0,0.0,0.0,0.0,0.0,0.0,0.0,0.0,0.0,0.0,31,src\java\org\apache\turbine\services\component\ComponentService.java,0,0,0,0
org.apache.turbine.services.component.TurbineComponentService, 0, 0, 0, 0, 0, 0, 0, 0, 0, 0, 0, 0, 0, 0,0.0,0.0,0.0,0.0,0.0,0.0,0.0,0.0,0.0,0.0,0.0,0.0,0.0,80,src\java\org\apache\turbine\services\component\TurbineComponentService.java,0,0,0,0
org.apache.turbine.services.crypto.CryptoAlgorithm, 0, 0, 0, 0, 0, 0, 0, 0, 0, 0, 0, 0, 0, 0,0.0,0.0,0.0,0.0,0.0,0.0,0.0,0.0,0.0,0.0,0.0,0.0,0.0,80,src\java\org\apache\turbine\services\crypto\CryptoAlgorithm.java,0,0,0,0
org.apache.turbine.services.crypto.CryptoDefaultTest, 0, 0, 0, 0, 0, 0, 0, 0, 0, 0, 0, 0, 0, 0,0.0,0.0,0.0,0.0,0.0,0.0,0.0,0.0,0.0,0.0,0.0,0.0,0.0,69,src\test\org\apache\turbine\services\crypto\CryptoDefaultTest.java,0,0,0,0
org.apache.turbine.services.crypto.CryptoService, 0, 0, 0, 0, 0, 0, 0, 0, 0, 0, 0, 0, 0, 0,0.0,0.0,0.0,0.0,0.0,0.0,0.0,0.0,0.0,0.0,0.0,0.0,0.0,69,src\java\org\apache\turbine\services\crypto\CryptoService.java,0,0,0,0
org.apache.turbine.services.crypto.CryptoTest, 0, 0, 0, 0, 0, 0, 0, 0, 0, 0, 0, 0, 0, 0,0.0,0.0,0.0,0.0,0.0,0.0,0.0,0.0,0.0,0.0,0.0,0.0,0.0,158,src\test\org\apache\turbine\services\crypto\CryptoTest.java,0,0,0,0
org.apache.turbine.services.crypto.TurbineCrypto, 0, 0, 0, 0, 0, 0, 0, 0, 0, 0, 0, 0, 0, 0,0.0,0.0,0.0,0.0,0.0,0.0,0.0,0.0,0.0,0.0,0.0,0.0,0.0,13,src\java\org\apache\turbine\services\crypto\TurbineCrypto.java,0,0,0,0
org.apache.turbine.services.crypto.provider.ClearCrypt, 0, 0, 0, 0, 0, 0, 0, 0, 0, 0, 0, 0, 0, 0,0.0,0.0,0.0,0.0,0.0,0.0,0.0,0.0,0.0,0.0,0.0,0.0,0.0,18,src\java\org\apache\turbine\services\crypto\provider\ClearCrypt.java,0,0,0,0
org.apache.turbine.services.crypto.provider.JavaCrypt, 0, 0, 0, 0, 0, 0, 0, 0, 0, 0, 0, 0, 0, 0,0.0,0.0,0.0,0.0,0.0,0.0,0.0,0.0,0.0,0.0,0.0,0.0,0.0,25,src\java\org\apache\turbine\services\crypto\provider\JavaCrypt.java,0,0,2,4
org.apache.turbine.services.crypto.provider.OldJavaCrypt, 0, 0, 0, 0, 0, 0, 0, 0, 0, 0, 0, 0, 0, 0,0.0,0.0,0.0,0.0,0.0,0.0,0.0,0.0,0.0,0.0,0.0,0.0,0.0,28,src\java\org\apache\turbine\services\crypto\provider\OldJavaCrypt.java,0,0,0,0
org.apache.turbine.services.db.TurbineDB, 0, 0, 0, 0, 0, 0, 0, 0, 0, 0, 0, 0, 0, 0,0.0,0.0,0.0,0.0,0.0,0.0,0.0,0.0,0.0,0.0,0.0,0.0,0.0,54,src\java\org\apache\turbine\services\db\TurbineDB.java,0,0,0,0
org.apache.turbine.services.factory.Factory, 0, 0, 0, 0, 0, 0, 0, 0, 0, 0, 0, 0, 0, 0,0.0,0.0,0.0,0.0,0.0,0.0,0.0,0.0,0.0,0.0,0.0,0.0,0.0,54,src\java\org\apache\turbine\services\factory\Factory.java,0,0,0,0
org.apache.turbine.services.factory.FactoryService, 0, 0, 0, 0, 0, 0, 0, 0, 0, 0, 0, 0, 0, 0,0.0,0.0,0.0,0.0,0.0,0.0,0.0,0.0,0.0,0.0,0.0,0.0,0.0,54,src\java\org\apache\turbine\services\factory\FactoryService.java,0,0,0,0
org.apache.turbine.services.factory.TurbineFactory, 0, 0, 0, 0, 0, 0, 0, 1, 0, 0, 0, 0, 0, 1,0.0,0.0,0.0,0.0,0.0,0.0,0.0,0.0,0.0,0.0,0.0,0.0,0.0,52,src\java\org\apache\turbine\services\factory\TurbineFactory.java,0,0,0,0
org.apache.turbine.services.intake.IntakeException, 0, 0, 0, 0, 0, 0, 0, 0, 0, 0, 0, 0, 0, 0,0.0,0.0,0.0,0.25,0.0,0.25,0.0,0.25,0.0,0.0,0.0,0.0,0.0,18,src\java\org\apache\turbine\services\intake\IntakeException.java,0,1,0,1
org.apache.turbine.services.intake.IntakeService, 0, 0, 0, 0, 0, 0, 0, 0, 0, 0, 0, 0, 0, 0,0.0,0.0,0.0,0.0,0.0,0.0,0.0,0.0,0.0,0.0,0.0,0.0,0.0,18,src\java\org\apache\turbine\services\intake\IntakeService.java,0,0,0,0
org.apache.turbine.services.intake.TurbineIntake, 0, 0, 0, 0, 0, 0, 0, 0, 0, 0, 0, 0, 0, 0,0.0,0.0,0.0,0.5,0.0,0.0,0.0,0.5,0.0,0.0,0.0,0.0,0.0,50,src\java\org\apache\turbine\services\intake\TurbineIntake.java,0,0,0,0
org.apache.turbine.services.intake.model.BigDecimalField, 0, 0, 0, 0, 0, 0, 0, 0, 0, 0, 0, 0, 0, 0,0.0,0.0,0.0,0.5,0.0,0.0,0.0,0.5,0.0,0.0,0.0,0.0,0.0,64,src\java\org\apache\turbine\services\intake\model\BigDecimalField.java,0,0,0,0
org.apache.turbine.services.intake.model.BooleanField, 0, 0, 0, 0, 0, 0, 0, 0, 0, 0, 0, 0, 0, 0,0.0,0.0,0.0,1.0,0.0,0.0,0.0,1.0,0.0,0.0,0.0,0.0,0.0,95,src\java\org\apache\turbine\services\intake\model\BooleanField.java,0,0,3,6
org.apache.turbine.services.intake.model.ComboKeyField, 0, 0, 0, 0, 0, 0, 0, 0, 0, 0, 0, 0, 0, 0,0.0,0.0,0.0,1.0,0.0,0.0,0.0,1.0,0.0,0.0,0.0,0.0,0.0,46,src\java\org\apache\turbine\services\intake\model\ComboKeyField.java,0,0,0,0
org.apache.turbine.services.intake.model.DateStringField, 0, 0, 0, 0, 0, 0, 0, 0, 0, 0, 0, 0, 0, 0,0.0,0.0,0.0,0.5,0.0,0.0,0.0,0.5,0.0,0.0,0.0,0.0,0.0,122,src\java\org\apache\turbine\services\intake\model\DateStringField.java,5,5,1,12
org.apache.turbine.services.intake.model.DoubleField, 0, 0, 0, 0, 0, 0, 0, 0, 0, 0, 0, 0, 0, 0,0.0,0.0,0.0,1.0,0.0,0.0,0.0,1.0,0.0,0.0,0.0,0.0,0.0,64,src\java\org\apache\turbine\services\intake\model\DoubleField.java,0,0,0,0
org.apache.turbine.services.intake.model.Field, 0, 0, 0, 1, 0, 0, 0, 1, 0, 0, 0, 0, 0, 2,0.0,0.0,0.0,0.0,0.0,0.05555555555555555,0.0,0.05555555555555555,0.0,0.0,0.0,0.0,0.0,543,src\java\org\apache\turbine\services\intake\model\Field.java,0,0,1,2
org.apache.turbine.services.intake.model.FileItemField, 0, 0, 0, 0, 0, 0, 0, 0, 0, 0, 0, 0, 0, 0,0.0,0.0,0.0,1.0,0.0,0.0,0.0,1.0,0.0,0.0,0.0,0.0,0.0,124,src\java\org\apache\turbine\services\intake\model\FileItemField.java,0,2,1,4
org.apache.turbine.services.intake.model.FloatField, 0, 0, 0, 0, 0, 0, 0, 0, 0, 0, 0, 0, 0, 0,0.0,0.0,0.0,1.0,0.0,0.0,0.0,1.0,0.0,0.0,0.0,0.0,0.0,64,src\java\org\apache\turbine\services\intake\model\FloatField.java,0,0,0,0
org.apache.turbine.services.intake.model.IntegerField, 0, 0, 0, 0, 0, 0, 0, 0, 0, 0, 0, 0, 0, 0,0.0,0.0,0.0,1.0,0.0,0.0,0.0,1.0,0.0,0.0,0.0,0.0,0.0,63,src\java\org\apache\turbine\services\intake\model\IntegerField.java,0,0,0,0
org.apache.turbine.services.intake.model.LongField, 0, 0, 0, 0, 0, 0, 0, 0, 0, 0, 0, 0, 0, 0,0.0,0.0,0.0,1.0,0.0,0.0,0.0,1.0,0.0,0.0,0.0,0.0,0.0,63,src\java\org\apache\turbine\services\intake\model\LongField.java,0,0,0,0
org.apache.turbine.services.intake.model.NumberKeyField, 0, 0, 0, 0, 0, 0, 0, 0, 0, 0, 0, 0, 0, 0,0.0,0.0,0.0,0.5,0.0,0.0,0.0,0.5,0.0,0.0,0.0,0.0,0.0,55,src\java\org\apache\turbine\services\intake\model\NumberKeyField.java,0,0,0,0
org.apache.turbine.services.intake.model.ShortField, 0, 0, 0, 0, 0, 0, 0, 0, 0, 0, 0, 0, 0, 0,0.0,0.0,0.0,1.0,0.0,0.0,0.0,1.0,0.0,0.0,0.0,0.0,0.0,64,src\java\org\apache\turbine\services\intake\model\ShortField.java,0,0,0,0
org.apache.turbine.services.intake.model.StringField, 0, 0, 0, 0, 0, 0, 0, 0, 0, 0, 0, 0, 0, 0,0.0,0.0,0.0,1.0,0.0,0.0,0.0,1.0,0.0,0.0,0.0,0.0,0.0,80,src\java\org\apache\turbine\services\intake\model\StringField.java,0,0,0,0
org.apache.turbine.services.intake.model.StringKeyField, 0, 0, 0, 0, 0, 0, 0, 0, 0, 0, 0, 0, 0, 0,0.0,0.0,0.0,1.0,0.0,0.0,0.0,1.0,0.0,0.0,0.0,0.0,0.0,49,src\java\org\apache\turbine\services\intake\model\StringKeyField.java,0,0,0,0
org.apache.turbine.services.intake.transform.DTDResolver, 0, 0, 0, 0, 0, 0, 0, 0, 0, 0, 0, 0, 0, 0,0.0,0.0,0.0,0.0,0.0,0.0,0.0,0.0,0.0,0.0,0.0,0.0,0.0,61,src\java\org\apache\turbine\services\intake\transform\DTDResolver.java,0,0,0,0
org.apache.turbine.services.intake.validator.Constraint, 0, 0, 0, 0, 0, 0, 0, 0, 0, 0, 0, 0, 0, 0,0.0,0.0,0.0,0.0,0.0,0.0,0.0,0.0,0.0,0.0,0.0,0.0,0.0,61,src\java\org\apache\turbine\services\intake\validator\Constraint.java,0,0,0,0
org.apache.turbine.services.intake.validator.InvalidMaskException, 0, 0, 0, 0, 0, 0, 0, 0, 0, 0, 0, 0, 0, 0,0.0,0.0,0.0,0.0,0.0,0.0,0.0,0.0,0.0,0.0,0.0,0.0,0.0,12,src\java\org\apache\turbine\services\intake\validator\InvalidMaskException.java,0,1,0,1
org.apache.turbine.services.intake.validator.ValidationException, 0, 0, 0, 0, 0, 1, 0, 0, 0, 0, 0, 0, 0, 1,0.0,0.0,0.0,0.5,0.0,0.0,0.0,0.5,0.0,0.0,0.0,0.0,0.0,8,src\java\org\apache\turbine\services\intake\validator\ValidationException.java,0,1,0,1
org.apache.turbine.services.intake.validator.Validator, 0, 0, 0, 0, 0, 0, 0, 0, 0, 0, 0, 0, 0, 0,0.0,0.0,0.0,0.0,0.0,0.0,0.0,0.0,0.0,0.0,0.0,0.0,0.0,8,src\java\org\apache\turbine\services\intake\validator\Validator.java,0,0,0,0
org.apache.turbine.services.jsp.JspService, 0, 0, 0, 0, 0, 0, 0, 0, 0, 0, 0, 0, 0, 0,0.0,0.0,0.0,0.0,0.0,0.0,0.0,0.0,0.0,0.0,0.0,0.0,0.0,8,src\java\org\apache\turbine\services\jsp\JspService.java,0,0,0,0
org.apache.turbine.services.jsp.TurbineJsp, 0, 0, 0, 0, 0, 0, 0, 0, 0, 0, 0, 0, 0, 0,0.0,0.0,0.0,0.0,0.0,0.0,0.0,0.0,0.0,0.0,0.0,0.0,0.0,16,proposals\henning\jsp-tags\src\java\org\apache\turbine\services\jsp\TurbineJsp.java,22,0,0,22
org.apache.turbine.services.jsp.TurbineJspService, 0, 0, 0, 0, 0, 0, 0, 1, 0, 0, 0, 0, 0, 1,0.0,0.0,0.0,0.2,0.0,0.0,0.0,0.0,0.0,0.0,0.0,0.0,0.0,135,src\java\org\apache\turbine\services\jsp\TurbineJspService.java,0,0,0,0
org.apache.turbine.services.jsp.tags.BodyAttributesTag, 0, 0, 0, 0, 0, 0, 0, 0, 0, 0, 0, 0, 0, 0,0.0,0.0,0.0,0.0,0.0,0.0,0.0,0.0,0.0,0.0,0.0,0.0,0.0,29,proposals\henning\jsp-tags\src\java\org\apache\turbine\services\jsp\tags\BodyAttributesTag.java,34,0,0,34
org.apache.turbine.services.jsp.tags.BodyTag, 0, 0, 0, 0, 0, 0, 0, 0, 0, 0, 0, 0, 0, 0,0.0,0.0,0.0,0.0,0.0,0.0,0.0,0.0,0.0,0.0,0.0,0.0,0.0,26,proposals\henning\jsp-tags\src\java\org\apache\turbine\services\jsp\tags\BodyTag.java,30,0,0,30
org.apache.turbine.services.jsp.tags.HeadTag, 0, 0, 0, 0, 0, 0, 0, 0, 0, 0, 0, 0, 0, 0,0.0,0.0,0.0,0.0,0.0,0.0,0.0,0.0,0.0,0.0,0.0,0.0,0.0,18,proposals\henning\jsp-tags\src\java\org\apache\turbine\services\jsp\tags\HeadTag.java,22,0,0,22
org.apache.turbine.services.jsp.tags.NavigationTag, 0, 0, 0, 0, 0, 0, 0, 0, 0, 0, 0, 0, 0, 0,0.0,0.0,0.0,0.0,0.0,0.0,0.0,0.0,0.0,0.0,0.0,0.0,0.0,35,proposals\henning\jsp-tags\src\java\org\apache\turbine\services\jsp\tags\NavigationTag.java,47,0,0,47
org.apache.turbine.services.jsp.tags.ScreenTag, 0, 0, 0, 0, 0, 0, 0, 0, 0, 0, 0, 0, 0, 0,0.0,0.0,0.0,0.0,0.0,0.0,0.0,0.0,0.0,0.0,0.0,0.0,0.0,60,proposals\henning\jsp-tags\src\java\org\apache\turbine\services\jsp\tags\ScreenTag.java,72,0,0,72
org.apache.turbine.services.jsp.tags.TemplateLinkTag, 0, 0, 0, 0, 0, 0, 0, 0, 0, 0, 0, 0, 0, 0,0.0,0.0,0.0,0.0,0.0,0.0,0.0,0.0,0.0,0.0,0.0,0.0,0.0,41,proposals\henning\jsp-tags\src\java\org\apache\turbine\services\jsp\tags\TemplateLinkTag.java,51,0,0,51
org.apache.turbine.services.jsp.util.JspLink, 0, 0, 0, 0, 0, 0, 0, 0, 0, 0, 0, 0, 0, 0,0.0,0.0,0.0,0.0,0.0,0.0,0.0,0.0,0.0,0.0,0.0,0.0,0.0,19,src\java\org\apache\turbine\services\jsp\util\JspLink.java,0,0,0,0
org.apache.turbine.services.jsp.util.JspNavigation, 0, 0, 0, 0, 0, 0, 0, 0, 0, 0, 0, 0, 0, 0,0.0,0.0,0.0,0.3333333333333333,0.0,0.0,0.0,0.0,0.0,0.0,0.0,0.0,0.0,33,src\java\org\apache\turbine\services\jsp\util\JspNavigation.java,0,0,0,0
org.apache.turbine.services.jsp.util.JspScreenPlaceholder, 0, 0, 0, 0, 0, 0, 0, 0, 0, 0, 0, 0, 0, 0,0.0,0.0,0.0,0.3333333333333333,0.0,0.0,0.0,0.0,0.0,0.0,0.0,0.0,0.0,34,src\java\org\apache\turbine\services\jsp\util\JspScreenPlaceholder.java,0,0,0,0
org.apache.turbine.services.localization.LocaleDetector, 0, 0, 0, 0, 0, 0, 0, 0, 0, 0, 0, 0, 0, 0,0.0,0.0,0.0,0.0,0.0,0.0,0.0,0.0,0.0,0.0,0.0,0.0,0.0,44,src\java\org\apache\turbine\services\localization\LocaleDetector.java,0,0,0,0
org.apache.turbine.services.localization.Localization, 0, 0, 0, 0, 0, 0, 0, 1, 0, 0, 0, 0, 0, 1,0.0,0.0,0.0,0.3333333333333333,0.0,0.0,0.0,0.3333333333333333,0.0,0.0,0.0,0.0,0.0,75,src\java\org\apache\turbine\services\localization\Localization.java,0,0,1,2
org.apache.turbine.services.localization.LocalizationService, 0, 0, 0, 0, 0, 0, 0, 0, 0, 0, 0, 0, 0, 0,0.0,0.0,0.0,0.0,0.0,0.0,0.0,0.0,0.0,0.0,0.0,0.0,0.0,75,src\java\org\apache\turbine\services\localization\LocalizationService.java,0,0,0,0
org.apache.turbine.services.localization.LocalizationTool, 0, 0, 0, 0, 0, 0, 0, 0, 0, 0, 0, 0, 0, 0,0.0,0.0,0.0,0.0,0.0,0.0,0.0,1.0,0.0,0.0,0.0,0.0,0.0,45,src\java\org\apache\turbine\services\localization\LocalizationTool.java,0,0,0,0
org.apache.turbine.services.mimetype.MimeTypeService, 0, 0, 0, 0, 0, 0, 0, 0, 0, 0, 0, 0, 0, 0,0.0,0.0,0.0,0.0,0.0,0.0,0.0,0.0,0.0,0.0,0.0,0.0,0.0,45,src\java\org\apache\turbine\services\mimetype\MimeTypeService.java,0,0,0,0
org.apache.turbine.services.mimetype.TurbineMimeTypeService, 0, 0, 0, 0, 0, 0, 0, 0, 0, 0, 0, 0, 0, 0,0.0,0.0,0.0,0.16666666666666666,0.0,0.0,0.0,0.0,0.0,0.0,0.0,0.0,0.0,126,src\java\org\apache\turbine\services\mimetype\TurbineMimeTypeService.java,0,0,0,0
org.apache.turbine.services.mimetype.TurbineMimeTypes, 0, 0, 0, 0, 0, 0, 0, 0, 0, 0, 0, 0, 0, 0,0.0,0.0,0.0,0.0,0.0,0.0,0.0,0.0,0.0,0.0,0.0,0.0,0.0,56,src\java\org\apache\turbine\services\mimetype\TurbineMimeTypes.java,0,0,0,0
org.apache.turbine.services.mimetype.util.MimeTypeMap, 0, 0, 0, 1, 0, 0, 0, 0, 0, 0, 0, 0, 0, 1,0.0,0.0,0.0,0.0,0.0,0.0,0.0,0.0,0.0,0.0,0.0,0.0,0.0,229,src\java\org\apache\turbine\services\mimetype\util\MimeTypeMap.java,0,0,0,0
org.apache.turbine.services.naming.NamingService, 0, 0, 0, 0, 0, 0, 0, 0, 0, 0, 0, 0, 0, 0,0.0,0.0,0.0,0.0,0.0,0.0,0.0,0.0,0.0,0.0,0.0,0.0,0.0,229,src\java\org\apache\turbine\services\naming\NamingService.java,0,0,0,0
org.apache.turbine.services.pool.PoolService, 0, 0, 0, 0, 0, 0, 0, 0, 0, 0, 0, 0, 0, 0,0.0,0.0,0.0,0.0,0.0,0.0,0.0,0.0,0.0,0.0,0.0,0.0,0.0,229,src\java\org\apache\turbine\services\pool\PoolService.java,0,0,0,0
org.apache.turbine.services.pool.TurbinePool, 0, 0, 0, 0, 0, 0, 0, 1, 0, 0, 0, 0, 0, 1,0.0,0.0,0.0,0.25,0.0,0.0,0.0,0.5,0.0,0.0,0.0,0.0,0.0,50,src\java\org\apache\turbine\services\pool\TurbinePool.java,0,0,0,0
org.apache.turbine.services.pull.ApplicationTool, 0, 0, 0, 0, 0, 0, 0, 0, 0, 0, 0, 0, 0, 0,0.0,0.0,0.0,0.0,0.0,0.0,0.0,0.0,0.0,0.0,0.0,0.0,0.0,50,src\java\org\apache\turbine\services\pull\ApplicationTool.java,0,0,0,0
org.apache.turbine.services.pull.PullService, 0, 0, 0, 0, 0, 0, 0, 0, 0, 0, 0, 0, 0, 0,0.0,0.0,0.0,0.0,0.0,0.0,0.0,0.0,0.0,0.0,0.0,0.0,0.0,50,src\java\org\apache\turbine\services\pull\PullService.java,0,0,0,0
org.apache.turbine.services.pull.RunDataApplicationTool, 0, 0, 0, 0, 0, 0, 0, 0, 0, 0, 0, 0, 0, 0,0.0,0.0,0.0,0.0,0.0,0.0,0.0,0.0,0.0,0.0,0.0,0.0,0.0,50,src\java\org\apache\turbine\services\pull\RunDataApplicationTool.java,0,0,2,4
org.apache.turbine.services.pull.TurbinePull, 0, 0, 0, 0, 0, 0, 0, 0, 0, 0, 0, 0, 0, 0,0.0,0.0,0.0,0.5,0.0,0.0,0.0,0.5,0.0,0.0,0.0,0.0,0.0,53,src\java\org\apache\turbine\services\pull\TurbinePull.java,0,0,0,0
org.apache.turbine.services.pull.TurbinePullService, 0, 0, 0, 1, 0, 0, 0, 1, 0, 0, 0, 0, 0, 2,0.0,0.0,0.0,0.14285714285714285,0.0,0.0,0.0,0.42857142857142855,0.0,0.0,0.0,0.0,0.0,326,src\java\org\apache\turbine\services\pull\TurbinePullService.java,0,0,0,0
org.apache.turbine.services.pull.tools.ContentTool, 0, 0, 0, 0, 0, 0, 0, 0, 0, 0, 0, 0, 0, 0,0.0,0.0,0.0,0.0,0.0,0.0,0.0,0.0,0.0,0.0,0.0,0.0,0.0,51,src\java\org\apache\turbine\services\pull\tools\ContentTool.java,0,0,0,0
org.apache.turbine.services.pull.tools.RelativeTemplateLink, 0, 0, 0, 0, 0, 0, 0, 0, 0, 0, 0, 0, 0, 0,0.0,0.0,0.0,1.0,0.0,0.0,0.0,0.0,0.0,0.0,0.0,0.0,0.0,13,src\java\org\apache\turbine\services\pull\tools\RelativeTemplateLink.java,2,0,0,2
org.apache.turbine.services.pull.tools.TemplateLink, 0, 0, 0, 1, 0, 0, 0, 0, 0, 0, 0, 0, 0, 1,0.0,0.0,0.0,0.0,0.0,0.0,0.0,0.5,0.0,0.0,0.0,0.0,0.0,193,src\java\org\apache\turbine\services\pull\tools\TemplateLink.java,0,0,0,0
org.apache.turbine.services.pull.tools.TemplateLinkWithSlash, 0, 0, 0, 0, 0, 0, 0, 0, 0, 0, 0, 0, 0, 0,0.0,0.0,0.0,1.0,0.0,0.0,0.0,0.0,0.0,0.0,0.0,0.0,0.0,14,src\java\org\apache\turbine\services\pull\tools\TemplateLinkWithSlash.java,2,0,0,2
org.apache.turbine.services.pull.util.DateFormatter, 0, 0, 0, 0, 0, 0, 0, 0, 0, 0, 0, 0, 0, 0,0.0,0.0,0.0,0.0,0.0,0.0,0.0,0.0,0.0,0.0,0.0,0.0,0.0,34,src\java\org\apache\turbine\services\pull\util\DateFormatter.java,3,1,1,6
org.apache.turbine.services.resources.TurbineResources, 0, 0, 0, 1, 0, 0, 0, 0, 0, 0, 0, 0, 0, 1,0.0,0.0,0.0,0.0,0.0,0.0,0.0,0.0,0.0,0.0,0.0,0.0,0.0,105,src\java\org\apache\turbine\services\resources\TurbineResources.java,0,0,0,0
org.apache.turbine.services.rundata.RunDataService, 0, 0, 0, 0, 0, 0, 0, 0, 0, 0, 0, 0, 0, 0,0.0,0.0,0.0,0.0,0.0,0.0,0.0,0.0,0.0,0.0,0.0,0.0,0.0,105,src\java\org\apache\turbine\services\rundata\RunDataService.java,0,0,0,0
org.apache.turbine.services.rundata.TurbineRunData, 0, 0, 0, 0, 0, 0, 0, 0, 0, 0, 0, 0, 0, 0,0.0,0.0,0.0,0.0,0.0,0.0,0.0,0.0,0.0,0.0,0.0,0.0,0.0,105,src\java\org\apache\turbine\services\rundata\TurbineRunData.java,0,0,0,0
org.apache.turbine.services.rundata.TurbineRunDataFacade, 0, 0, 0, 0, 0, 0, 0, 1, 0, 0, 0, 0, 0, 1,0.0,0.0,0.0,0.0,0.0,0.0,0.0,0.5,0.0,0.0,0.0,0.0,0.0,27,src\java\org\apache\turbine\services\rundata\TurbineRunDataFacade.java,0,0,0,0
org.apache.turbine.services.schedule.JobEntry, 0, 0, 0, 0, 0, 0, 0, 1, 0, 0, 0, 0, 0, 1,0.0,0.0,0.0,0.1111111111111111,0.0,0.0,0.0,0.0,0.0,0.0,0.0,0.0,0.0,173,src\java\org\apache\turbine\services\schedule\JobEntry.java,0,0,0,0
org.apache.turbine.services.schedule.JobEntryTest, 0, 0, 0, 0, 0, 0, 0, 0, 0, 0, 0, 0, 0, 0,0.0,0.0,0.0,0.0,0.0,0.0,0.0,1.0,0.0,0.0,0.0,0.0,0.0,36,src\test\org\apache\turbine\services\schedule\JobEntryTest.java,0,0,0,0
org.apache.turbine.services.schedule.ScheduleService, 0, 0, 0, 0, 0, 0, 0, 0, 0, 0, 0, 0, 0, 0,0.0,0.0,0.0,0.0,0.0,0.0,0.0,0.0,0.0,0.0,0.0,0.0,0.0,36,src\java\org\apache\turbine\services\schedule\ScheduleService.java,0,0,0,0
org.apache.turbine.services.schedule.SchedulerTool, 0, 0, 0, 0, 0, 0, 0, 0, 0, 0, 0, 0, 0, 0,0.0,0.0,0.0,0.0,0.0,0.0,0.0,0.25,0.0,0.0,0.0,0.0,0.0,37,src\java\org\apache\turbine\services\schedule\SchedulerTool.java,0,0,0,0
org.apache.turbine.services.schedule.TurbineNonPersistentSchedulerService, 0, 0, 0, 0, 0, 0, 0, 0, 0, 0, 0, 0, 0, 0,0.0,0.0,0.0,0.16666666666666666,0.0,0.0,0.0,0.16666666666666666,0.0,0.0,0.0,0.0,0.0,102,src\java\org\apache\turbine\services\schedule\TurbineNonPersistentSchedulerService.java,0,0,0,0
org.apache.turbine.services.schedule.TurbineNonPersistentSchedulerServiceTest, 0, 0, 0, 0, 0, 0, 0, 0, 0, 0, 0, 0, 0, 0,0.0,0.0,0.0,0.0,0.0,0.0,0.0,0.25,0.0,0.0,0.0,0.0,0.0,108,src\test\org\apache\turbine\services\schedule\TurbineNonPersistentSchedulerServiceTest.java,0,0,0,0
org.apache.turbine.services.schedule.TurbineScheduler, 0, 0, 0, 0, 0, 0, 0, 0, 0, 0, 0, 0, 0, 0,0.0,0.0,0.0,0.0,0.0,0.0,0.0,0.25,0.0,0.0,0.0,0.0,0.0,44,src\java\org\apache\turbine\services\schedule\TurbineScheduler.java,0,0,0,0
org.apache.turbine.services.schedule.TurbineSchedulerService, 0, 0, 0, 1, 0, 0, 0, 0, 0, 0, 0, 0, 0, 1,0.0,0.0,0.0,0.0,0.0,0.0,0.0,0.14285714285714285,0.0,0.0,0.0,0.0,0.0,235,src\java\org\apache\turbine\services\schedule\TurbineSchedulerService.java,0,0,0,0
org.apache.turbine.services.schedule.WorkerThread, 0, 0, 0, 0, 0, 0, 0, 0, 0, 0, 0, 0, 0, 0,0.0,0.0,0.0,0.0,0.0,0.0,0.0,0.5,0.0,0.0,0.0,0.0,0.0,44,src\java\org\apache\turbine\services\schedule\WorkerThread.java,0,0,0,0
org.apache.turbine.services.security.TestSecurity, 0, 0, 0, 0, 0, 0, 0, 0, 0, 0, 0, 0, 0, 0,0.0,0.0,0.0,1.0,0.0,0.0,0.0,1.0,0.0,0.0,0.0,0.0,0.0,177,src\test\org\apache\turbine\services\security\TestSecurity.java,0,0,0,0
org.apache.turbine.services.security.TestSecurityACL, 0, 0, 0, 0, 0, 0, 0, 0, 0, 0, 0, 0, 0, 0,0.0,0.0,0.0,0.5,0.0,0.0,0.0,0.5,0.0,0.0,0.0,0.0,0.0,71,src\test\org\apache\turbine\services\security\TestSecurityACL.java,0,0,0,0
org.apache.turbine.services.security.TestSecurityGroup, 0, 0, 0, 0, 0, 0, 0, 0, 0, 0, 0, 0, 0, 0,0.0,0.0,0.0,0.5,0.0,0.0,0.0,0.5,0.0,0.0,0.0,0.0,0.0,121,src\test\org\apache\turbine\services\security\TestSecurityGroup.java,0,0,0,0
org.apache.turbine.services.security.TestSecurityPermission, 0, 0, 0, 0, 0, 0, 0, 0, 0, 0, 0, 0, 0, 0,0.0,0.0,0.0,0.5,0.0,0.0,0.0,0.5,0.0,0.0,0.0,0.0,0.0,198,src\test\org\apache\turbine\services\security\TestSecurityPermission.java,0,0,0,0
org.apache.turbine.services.security.TestSecurityRole, 0, 0, 0, 0, 0, 0, 0, 0, 0, 0, 0, 0, 0, 0,0.0,0.0,0.0,0.5,0.0,0.0,0.0,0.5,0.0,0.0,0.0,0.0,0.0,227,src\test\org\apache\turbine\services\security\TestSecurityRole.java,0,0,0,0
org.apache.turbine.services.security.TestSecurityUserManager, 0, 0, 0, 0, 0, 0, 0, 0, 0, 0, 0, 0, 0, 0,0.0,0.0,0.0,0.5,0.0,0.0,0.0,0.5,0.0,0.0,0.0,0.0,0.0,232,src\test\org\apache\turbine\services\security\TestSecurityUserManager.java,0,0,0,0
org.apache.turbine.services.security.TurbineSecurity, 0, 0, 0, 1, 0, 0, 0, 1, 0, 0, 0, 0, 0, 2,0.0,0.0,0.0,0.04,0.0,0.0,0.0,0.16,0.0,0.0,0.0,0.0,0.0,352,src\java\org\apache\turbine\services\security\TurbineSecurity.java,0,0,0,0
org.apache.turbine.services.security.UserManager, 0, 0, 0, 0, 0, 0, 0, 0, 0, 0, 0, 0, 0, 0,0.0,0.0,0.0,0.0,0.0,0.0,0.0,0.0,0.0,0.0,0.0,0.0,0.0,352,src\java\org\apache\turbine\services\security\UserManager.java,0,0,1,2
org.apache.turbine.services.security.passive.PassiveUserManager, 0, 0, 0, 0, 0, 0, 0, 1, 0, 0, 0, 0, 0, 1,0.0,0.0,0.0,0.0,0.0,0.0,0.0,0.0,0.0,0.0,0.0,0.0,0.0,81,src\java\org\apache\turbine\services\security\passive\PassiveUserManager.java,0,0,0,0
org.apache.turbine.services.security.torque.GroupPeerManagerConstants, 0, 0, 0, 0, 0, 0, 0, 0, 0, 0, 0, 0, 0, 0,0.0,0.0,0.0,0.0,0.0,0.0,0.0,0.0,0.0,0.0,0.0,0.0,0.0,81,src\java\org\apache\turbine\services\security\torque\GroupPeerManagerConstants.java,0,0,0,0
org.apache.turbine.services.security.torque.PermissionPeerManagerConstants, 0, 0, 0, 0, 0, 0, 0, 0, 0, 0, 0, 0, 0, 0,0.0,0.0,0.0,0.0,0.0,0.0,0.0,0.0,0.0,0.0,0.0,0.0,0.0,81,src\java\org\apache\turbine\services\security\torque\PermissionPeerManagerConstants.java,0,0,0,0
org.apache.turbine.services.security.torque.RolePeerManagerConstants, 0, 0, 0, 0, 0, 0, 0, 0, 0, 0, 0, 0, 0, 0,0.0,0.0,0.0,0.0,0.0,0.0,0.0,0.0,0.0,0.0,0.0,0.0,0.0,81,src\java\org\apache\turbine\services\security\torque\RolePeerManagerConstants.java,0,0,11,22
org.apache.turbine.services.security.torque.TestTorqueSecurity, 0, 0, 0, 0, 0, 0, 0, 0, 0, 0, 0, 0, 0, 0,0.0,0.0,0.0,1.0,0.0,0.0,0.0,1.0,0.0,0.0,0.0,0.0,0.0,23,src\test\org\apache\turbine\services\security\torque\TestTorqueSecurity.java,0,0,0,0
org.apache.turbine.services.security.torque.TorqueGroup, 0, 0, 0, 0, 0, 0, 0, 0, 0, 0, 0, 0, 0, 0,0.0,0.0,0.0,1.0,0.0,0.0,0.0,0.5,0.0,0.0,0.0,0.0,0.0,99,src\java\org\apache\turbine\services\security\torque\TorqueGroup.java,1,0,1,3
org.apache.turbine.services.security.torque.TorqueObject, 0, 0, 0, 1, 0, 0, 0, 0, 0, 0, 0, 0, 0, 1,0.0,0.0,0.0,0.0,0.0,0.0,0.0,0.0,0.0,0.0,0.0,0.0,0.0,120,src\java\org\apache\turbine\services\security\torque\TorqueObject.java,0,0,0,0
org.apache.turbine.services.security.torque.TorquePermission, 0, 0, 0, 0, 0, 0, 0, 0, 0, 0, 0, 0, 0, 0,0.0,0.0,0.0,1.0,0.0,0.0,0.0,0.5,0.0,0.0,0.0,0.0,0.0,67,src\java\org\apache\turbine\services\security\torque\TorquePermission.java,1,0,1,3
org.apache.turbine.services.security.torque.TorqueRole, 0, 0, 0, 0, 0, 0, 0, 0, 0, 0, 0, 0, 0, 0,0.0,0.0,0.0,1.0,0.0,0.0,0.0,0.5,0.0,0.0,0.0,0.0,0.0,105,src\java\org\apache\turbine\services\security\torque\TorqueRole.java,1,0,1,3
org.apache.turbine.services.security.torque.TorqueUserManager, 0, 0, 0, 0, 0, 0, 0, 1, 0, 0, 0, 0, 0, 1,0.0,0.0,0.0,0.2,0.0,0.4,0.0,0.2,0.0,0.0,0.0,0.0,0.0,229,src\java\org\apache\turbine\services\security\torque\TorqueUserManager.java,4,0,0,4
org.apache.turbine.services.security.torque.UserPeerManagerConstants, 0, 0, 0, 0, 0, 0, 0, 0, 0, 0, 0, 0, 0, 0,0.0,0.0,0.0,0.0,0.0,0.0,0.0,0.0,0.0,0.0,0.0,0.0,0.0,229,src\java\org\apache\turbine\services\security\torque\UserPeerManagerConstants.java,0,0,43,86
org.apache.turbine.services.servlet.ServletService, 0, 0, 0, 0, 0, 0, 0, 0, 0, 0, 0, 0, 0, 0,0.0,0.0,0.0,0.0,0.0,0.0,0.0,0.0,0.0,0.0,0.0,0.0,0.0,229,src\java\org\apache\turbine\services\servlet\ServletService.java,0,0,0,0
org.apache.turbine.services.servlet.TurbineServlet, 0, 0, 0, 0, 0, 0, 0, 0, 0, 0, 0, 0, 0, 0,0.0,0.0,0.0,0.0,0.0,0.0,0.0,0.3333333333333333,0.0,0.0,0.0,0.0,0.0,44,src\java\org\apache\turbine\services\servlet\TurbineServlet.java,0,0,0,0
org.apache.turbine.services.servlet.TurbineServletService, 0, 0, 0, 0, 0, 0, 0, 0, 0, 0, 0, 0, 0, 0,0.0,0.0,0.0,0.0,0.0,0.0,0.0,0.0,0.0,0.0,0.0,0.0,0.0,98,src\java\org\apache\turbine\services\servlet\TurbineServletService.java,0,0,0,0
org.apache.turbine.services.session.SessionListener, 0, 0, 0, 0, 0, 0, 0, 0, 0, 0, 0, 0, 0, 0,0.0,0.0,0.0,0.0,0.0,0.0,0.0,0.0,0.0,0.0,0.0,0.0,0.0,21,src\java\org\apache\turbine\services\session\SessionListener.java,0,1,0,1
org.apache.turbine.services.session.SessionService, 0, 0, 0, 0, 0, 0, 0, 0, 0, 0, 0, 0, 0, 0,0.0,0.0,0.0,0.0,0.0,0.0,0.0,0.0,0.0,0.0,0.0,0.0,0.0,21,src\java\org\apache\turbine\services\session\SessionService.java,0,0,1,2
org.apache.turbine.services.session.SessionTool, 0, 0, 0, 0, 0, 0, 0, 0, 0, 0, 0, 0, 0, 0,0.0,0.0,0.0,0.0,0.0,0.0,0.0,0.0,0.0,0.0,0.0,0.0,0.0,38,src\java\org\apache\turbine\services\session\SessionTool.java,0,0,0,0
org.apache.turbine.services.session.TurbineSession, 0, 0, 0, 0, 0, 0, 0, 0, 0, 0, 0, 0, 0, 0,0.0,0.0,0.0,0.0,0.0,0.0,0.0,0.0,0.0,0.0,0.0,0.0,0.0,40,src\java\org\apache\turbine\services\session\TurbineSession.java,0,0,0,0
org.apache.turbine.services.template.ClassTest, 0, 0, 0, 0, 0, 0, 0, 0, 0, 0, 0, 0, 0, 0,0.0,0.0,0.0,0.0,0.0,0.0,0.0,0.0,0.0,0.0,0.0,0.0,0.0,101,src\test\org\apache\turbine\services\template\ClassTest.java,0,0,0,0
org.apache.turbine.services.template.DefaultsTest, 0, 0, 0, 0, 0, 0, 0, 0, 0, 0, 0, 0, 0, 0,0.0,0.0,0.0,0.0,0.0,0.0,0.0,0.0,0.0,0.0,0.0,0.0,0.0,37,src\test\org\apache\turbine\services\template\DefaultsTest.java,0,0,0,0
org.apache.turbine.services.template.InitTest, 0, 0, 0, 0, 0, 0, 0, 0, 0, 0, 0, 0, 0, 0,0.0,0.0,0.0,0.0,0.0,0.0,0.0,0.0,0.0,0.0,0.0,0.0,0.0,27,src\test\org\apache\turbine\services\template\InitTest.java,0,0,0,0
org.apache.turbine.services.template.TemplateService, 0, 0, 0, 0, 0, 0, 0, 0, 0, 0, 0, 0, 0, 0,0.0,0.0,0.0,0.0,0.0,0.0,0.0,0.0,0.0,0.0,0.0,0.0,0.0,27,src\java\org\apache\turbine\services\template\TemplateService.java,0,0,0,0
org.apache.turbine.services.template.TemplateTest, 0, 0, 0, 0, 0, 0, 0, 0, 0, 0, 0, 0, 0, 0,0.0,0.0,0.0,0.0,0.0,0.0,0.0,0.0,0.0,0.0,0.0,0.0,0.0,72,src\test\org\apache\turbine\services\template\TemplateTest.java,0,0,0,0
org.apache.turbine.services.template.TurbineTemplate, 0, 0, 0, 1, 0, 0, 0, 0, 0, 0, 0, 0, 0, 1,0.0,0.0,0.0,0.0,0.0,0.0,0.0,0.1,0.0,0.0,0.0,0.0,0.0,118,src\java\org\apache\turbine\services\template\TurbineTemplate.java,0,0,0,0
org.apache.turbine.services.template.mapper.DirectMapper, 0, 0, 0, 0, 0, 0, 0, 0, 0, 0, 0, 0, 0, 0,0.0,0.0,0.0,0.0,0.0,0.0,0.0,0.0,0.0,0.0,0.0,0.0,0.0,18,src\java\org\apache\turbine\services\template\mapper\DirectMapper.java,0,0,0,0
org.apache.turbine.services.template.mapper.DirectTemplateMapper, 0, 0, 0, 0, 0, 0, 0, 0, 0, 0, 0, 0, 0, 0,0.0,0.0,0.0,0.0,0.0,0.0,0.0,0.0,0.0,0.0,0.0,0.0,0.0,14,src\java\org\apache\turbine\services\template\mapper\DirectTemplateMapper.java,0,0,0,0
org.apache.turbine.services.template.mapper.Mapper, 0, 0, 0, 0, 0, 0, 0, 0, 0, 0, 0, 0, 0, 0,0.0,0.0,0.0,0.0,0.0,0.0,0.0,0.0,0.0,0.0,0.0,0.0,0.0,14,src\java\org\apache\turbine\services\template\mapper\Mapper.java,0,0,0,0
org.apache.turbine.services.template.modules.layouts.ExistPageWithClass, 0, 0, 0, 0, 0, 1, 0, 0, 0, 0, 0, 0, 0, 1,0.0,0.0,0.0,0.0,0.0,0.0,0.0,0.0,0.0,0.0,0.0,0.0,0.0,4,src\test\org\apache\turbine\services\template\modules\layouts\ExistPageWithClass.java,0,0,0,0
org.apache.turbine.services.template.modules.layouts.existing.PageWithClass, 0, 0, 0, 0, 0, 1, 0, 0, 0, 0, 0, 0, 0, 1,0.0,0.0,0.0,0.0,0.0,0.0,0.0,0.0,0.0,0.0,0.0,0.0,0.0,4,src\test\org\apache\turbine\services\template\modules\layouts\existing\PageWithClass.java,0,0,0,0
org.apache.turbine.services.template.modules.layouts.existing.dflt.Default, 0, 0, 0, 0, 0, 1, 0, 0, 0, 0, 0, 0, 0, 1,0.0,0.0,0.0,0.0,0.0,0.0,0.0,0.0,0.0,0.0,0.0,0.0,0.0,4,src\test\org\apache\turbine\services\template\modules\layouts\existing\dflt\Default.java,0,0,0,0
org.apache.turbine.services.template.modules.navigations.ExistPageWithClass, 0, 0, 0, 0, 0, 1, 0, 0, 0, 0, 0, 0, 0, 1,0.0,0.0,0.0,0.0,0.0,0.0,0.0,0.0,0.0,0.0,0.0,0.0,0.0,4,src\test\org\apache\turbine\services\template\modules\navigations\ExistPageWithClass.java,0,0,0,0
org.apache.turbine.services.template.modules.navigations.existing.PageWithClass, 0, 0, 0, 0, 0, 1, 0, 0, 0, 0, 0, 0, 0, 1,0.0,0.0,0.0,0.0,0.0,0.0,0.0,0.0,0.0,0.0,0.0,0.0,0.0,4,src\test\org\apache\turbine\services\template\modules\navigations\existing\PageWithClass.java,0,0,0,0
org.apache.turbine.services.template.modules.navigations.existing.dflt.Default, 0, 0, 0, 0, 0, 1, 0, 0, 0, 0, 0, 0, 0, 1,0.0,0.0,0.0,0.0,0.0,0.0,0.0,0.0,0.0,0.0,0.0,0.0,0.0,4,src\test\org\apache\turbine\services\template\modules\navigations\existing\dflt\Default.java,0,0,0,0
org.apache.turbine.services.template.modules.screens.ExistPageWithClass, 0, 0, 0, 0, 0, 1, 0, 0, 0, 0, 0, 0, 0, 1,0.0,0.0,0.0,0.0,0.0,0.0,0.0,0.0,0.0,0.0,0.0,0.0,0.0,4,src\test\org\apache\turbine\services\template\modules\screens\ExistPageWithClass.java,0,0,0,0
org.apache.turbine.services.template.modules.screens.existing.PageWithClass, 0, 0, 0, 0, 0, 1, 0, 0, 0, 0, 0, 0, 0, 1,0.0,0.0,0.0,0.0,0.0,0.0,0.0,0.0,0.0,0.0,0.0,0.0,0.0,4,src\test\org\apache\turbine\services\template\modules\screens\existing\PageWithClass.java,0,0,0,0
org.apache.turbine.services.template.modules.screens.existing.dflt.Default, 0, 0, 0, 0, 0, 1, 0, 0, 0, 0, 0, 0, 0, 1,0.0,0.0,0.0,0.0,0.0,0.0,0.0,0.0,0.0,0.0,0.0,0.0,0.0,4,src\test\org\apache\turbine\services\template\modules\screens\existing\dflt\Default.java,0,0,0,0
org.apache.turbine.services.uniqueid.TurbineUniqueId, 0, 0, 0, 0, 0, 0, 0, 0, 0, 0, 0, 0, 0, 0,0.0,0.0,0.0,0.5,0.0,0.0,0.0,0.5,0.0,0.0,0.0,0.0,0.0,20,src\java\org\apache\turbine\services\uniqueid\TurbineUniqueId.java,0,0,0,0
org.apache.turbine.services.uniqueid.TurbineUniqueIdService, 1, 0, 0, 0, 0, 0, 0, 0, 0, 0, 0, 0, 0, 1,0.0,0.0,0.0,0.0,0.0,0.0,0.0,0.0,0.0,0.0,0.0,0.0,0.0,59,src\java\org\apache\turbine\services\uniqueid\TurbineUniqueIdService.java,0,0,2,4
org.apache.turbine.services.uniqueid.UniqueIdService, 0, 0, 0, 0, 0, 0, 0, 0, 0, 0, 0, 0, 0, 0,0.0,0.0,0.0,0.0,0.0,0.0,0.0,0.0,0.0,0.0,0.0,0.0,0.0,59,src\java\org\apache\turbine\services\uniqueid\UniqueIdService.java,0,0,0,0
org.apache.turbine.services.upload.BaseUploadService, 0, 0, 0, 0, 0, 0, 0, 1, 0, 0, 0, 0, 0, 1,0.0,0.0,0.0,0.0,0.0,0.0,0.0,0.0,0.0,0.0,0.0,0.0,0.0,52,src\java\org\apache\turbine\services\upload\BaseUploadService.java,0,0,0,0
org.apache.turbine.services.upload.TurbineUpload, 0, 0, 0, 0, 0, 0, 0, 1, 0, 0, 0, 0, 0, 1,0.0,0.0,0.0,0.3333333333333333,0.0,0.0,0.0,0.3333333333333333,0.0,0.0,0.0,0.0,0.0,51,src\java\org\apache\turbine\services\upload\TurbineUpload.java,0,0,0,0
org.apache.turbine.services.upload.TurbineUploadService, 0, 0, 0, 0, 0, 0, 0, 1, 0, 0, 0, 0, 0, 1,0.0,0.0,0.0,0.0,0.0,0.0,0.0,0.0,0.0,0.0,0.0,0.0,0.0,131,src\java\org\apache\turbine\services\upload\TurbineUploadService.java,0,0,2,4
org.apache.turbine.services.upload.UploadService, 0, 0, 0, 0, 0, 0, 0, 0, 0, 0, 0, 0, 0, 0,0.0,0.0,0.0,0.0,0.0,0.0,0.0,0.0,0.0,0.0,0.0,0.0,0.0,131,src\java\org\apache\turbine\services\upload\UploadService.java,0,0,0,0
org.apache.turbine.services.velocity.PathConverterTest, 0, 0, 0, 0, 0, 0, 0, 0, 0, 0, 0, 0, 0, 0,0.0,0.0,0.0,0.5,0.0,0.0,0.0,0.5,0.0,0.0,0.0,0.0,0.0,59,src\test\org\apache\turbine\services\velocity\PathConverterTest.java,0,0,0,0
org.apache.turbine.services.velocity.TurbineVelocity, 0, 0, 0, 0, 0, 0, 0, 1, 0, 0, 0, 0, 0, 1,0.0,0.0,0.0,0.07142857142857142,0.0,0.0,0.0,0.07142857142857142,0.0,0.0,0.0,0.0,0.0,42,src\java\org\apache\turbine\services\velocity\TurbineVelocity.java,0,0,0,0
org.apache.turbine.services.velocity.TurbineVelocityService, 0, 0, 0, 1, 0, 0, 0, 1, 0, 0, 0, 0, 0, 2,0.0,0.0,0.0,0.0,0.0,0.0,0.0,0.0,0.0,0.0,0.0,0.0,0.0,297,src\java\org\apache\turbine\services\velocity\TurbineVelocityService.java,0,0,1,2
org.apache.turbine.services.velocity.VelocityService, 0, 0, 0, 0, 0, 0, 0, 0, 0, 0, 0, 0, 0, 0,0.0,0.0,0.0,0.0,0.0,0.0,0.0,0.0,0.0,0.0,0.0,0.0,0.0,297,src\java\org\apache\turbine\services\velocity\VelocityService.java,0,0,0,0
org.apache.turbine.services.xmlrpc.TurbineXmlRpc, 0, 0, 0, 0, 0, 0, 0, 1, 0, 0, 0, 0, 0, 1,0.0,0.0,0.0,0.0,0.0,0.0,0.0,0.5,0.0,0.0,0.0,0.0,0.0,134,src\java\org\apache\turbine\services\xmlrpc\TurbineXmlRpc.java,0,0,0,0
org.apache.turbine.services.xmlrpc.TurbineXmlRpcService, 0, 0, 0, 1, 0, 0, 0, 1, 0, 0, 0, 0, 0, 2,0.0,0.0,0.0,0.0,0.0,0.0,0.0,0.16666666666666666,0.0,0.0,0.0,0.0,0.0,332,src\java\org\apache\turbine\services\xmlrpc\TurbineXmlRpcService.java,4,5,3,15
org.apache.turbine.services.xmlrpc.XmlRpcService, 0, 0, 0, 0, 0, 0, 0, 0, 0, 0, 0, 0, 0, 0,0.0,0.0,0.0,0.0,0.0,0.0,0.0,0.0,0.0,0.0,0.0,0.0,0.0,332,src\java\org\apache\turbine\services\xmlrpc\XmlRpcService.java,0,0,0,0
org.apache.turbine.services.xmlrpc.util.AuthenticatedFileHandler, 0, 0, 0, 0, 0, 0, 0, 1, 0, 0, 0, 0, 0, 1,0.0,0.0,0.0,1.0,0.0,0.0,0.0,1.0,0.0,0.0,0.0,0.0,0.0,40,src\java\org\apache\turbine\services\xmlrpc\util\AuthenticatedFileHandler.java,0,0,2,4
org.apache.turbine.services.xmlrpc.util.FileHandlerTest, 0, 0, 0, 0, 0, 0, 0, 0, 0, 0, 0, 0, 0, 0,0.0,0.0,0.0,0.0,0.0,0.0,0.0,1.0,0.0,0.0,0.0,0.0,0.0,33,src\rttest\org\apache\turbine\services\xmlrpc\util\FileHandlerTest.java,0,0,0,0
org.apache.turbine.services.xmlrpc.util.FileTransfer, 0, 0, 0, 0, 0, 0, 0, 1, 0, 0, 0, 0, 0, 1,0.0,0.0,0.0,0.3333333333333333,0.0,0.0,0.0,0.6666666666666666,0.0,0.0,0.0,0.0,0.0,150,src\java\org\apache\turbine\services\xmlrpc\util\FileTransfer.java,0,0,0,0
org.apache.turbine.services.xslt.TurbineXSLT, 0, 0, 0, 0, 0, 0, 0, 1, 0, 0, 0, 0, 0, 1,0.0,0.0,0.0,0.0,0.0,0.0,0.0,0.0,0.0,0.0,0.0,0.0,0.0,28,src\java\org\apache\turbine\services\xslt\TurbineXSLT.java,0,21,0,21
org.apache.turbine.services.xslt.XSLTService, 0, 0, 0, 0, 0, 0, 0, 0, 0, 0, 0, 0, 0, 0,0.0,0.0,0.0,0.0,0.0,0.0,0.0,0.0,0.0,0.0,0.0,0.0,0.0,28,src\java\org\apache\turbine\services\xslt\XSLTService.java,0,7,0,7
org.apache.turbine.test.BaseTurbineHsqlTest, 0, 0, 0, 0, 0, 0, 0, 0, 0, 0, 0, 0, 0, 0,0.0,0.0,0.0,0.0,0.0,0.0,0.0,0.0,0.0,0.0,0.0,0.0,0.0,14,src\test\org\apache\turbine\test\BaseTurbineHsqlTest.java,0,0,0,0
org.apache.turbine.test.TestComponent, 0, 0, 0, 0, 0, 0, 0, 0, 0, 0, 0, 0, 0, 0,0.0,0.0,0.0,0.0,0.0,0.0,0.0,0.0,0.0,0.0,0.0,0.0,0.0,14,src\test\org\apache\turbine\test\TestComponent.java,0,0,0,0
org.apache.turbine.test.TestComponentImpl, 0, 0, 0, 0, 0, 0, 0, 0, 0, 0, 0, 0, 0, 0,0.0,0.0,0.0,0.0,0.0,0.0,0.0,0.0,0.0,0.0,0.0,0.0,0.0,22,src\test\org\apache\turbine\test\TestComponentImpl.java,0,0,0,0
org.apache.turbine.util.BaseValueParserTest, 0, 0, 0, 0, 0, 0, 0, 0, 0, 0, 0, 0, 0, 0,0.0,0.0,0.0,0.0,0.0,0.0,0.0,0.0,0.0,0.0,0.0,0.0,0.0,430,src\test\org\apache\turbine\util\BaseValueParserTest.java,0,0,0,0
org.apache.turbine.util.BrowserDetector, 0, 0, 0, 1, 0, 0, 0, 0, 0, 0, 0, 0, 0, 1,0.0,0.0,0.0,0.0,0.0,0.0,0.0,0.0,0.0,0.0,0.0,0.0,0.0,202,src\java\org\apache\turbine\util\BrowserDetector.java,0,0,1,2
org.apache.turbine.util.BufferCache, 0, 0, 0, 0, 0, 0, 0, 0, 0, 0, 0, 0, 0, 0,0.0,0.0,0.0,0.0,0.0,0.0,0.0,0.0,0.0,0.0,0.0,0.0,0.0,28,src\java\org\apache\turbine\util\BufferCache.java,0,1,0,1
org.apache.turbine.util.CSVParser, 0, 0, 0, 0, 0, 0, 0, 1, 0, 1, 0, 0, 0, 2,0.0,0.0,0.0,0.0,0.0,0.0,0.0,1.0,0.0,1.0,0.0,0.0,0.0,16,src\java\org\apache\turbine\util\CSVParser.java,0,0,0,0
org.apache.turbine.util.CSVParserTest, 0, 0, 0, 0, 0, 0, 0, 0, 0, 0, 0, 0, 0, 0,0.0,0.0,0.0,0.0,0.0,0.0,0.0,0.0,0.0,0.0,0.0,0.0,0.0,125,src\rttest\org\apache\turbine\util\CSVParserTest.java,0,0,0,0
org.apache.turbine.util.Comparable, 0, 0, 0, 0, 0, 0, 0, 0, 0, 0, 0, 0, 0, 0,0.0,0.0,0.0,0.0,0.0,0.0,0.0,0.0,0.0,0.0,0.0,0.0,0.0,125,src\java\org\apache\turbine\util\Comparable.java,0,0,0,0
org.apache.turbine.util.CookieParser, 0, 0, 0, 0, 0, 0, 0, 0, 0, 0, 0, 0, 0, 0,0.0,0.0,0.0,0.0,0.0,0.0,0.0,0.0,0.0,0.0,0.0,0.0,0.0,125,src\java\org\apache\turbine\util\CookieParser.java,0,0,0,0
org.apache.turbine.util.DataStreamParser, 0, 0, 0, 0, 0, 1, 0, 1, 0, 0, 0, 0, 0, 2,0.0,0.0,0.0,0.0,0.0,0.0,0.0,0.0,0.0,0.0,0.0,0.0,0.0,9,src\java\org\apache\turbine\util\DataStreamParser.java,0,0,0,0
org.apache.turbine.util.DateSelector, 0, 0, 0, 1, 0, 0, 0, 1, 0, 0, 0, 0, 0, 2,0.0,0.0,0.0,0.0,0.0,0.0,0.0,0.0,0.0,0.0,0.0,0.0,0.0,204,src\java\org\apache\turbine\util\DateSelector.java,0,0,0,0
org.apache.turbine.util.DynamicURITest, 0, 0, 0, 0, 0, 0, 0, 0, 0, 0, 0, 0, 0, 0,0.0,0.0,0.0,0.0,0.0,0.0,0.0,0.0,0.0,0.0,0.0,0.0,0.0,35,src\test\org\apache\turbine\util\DynamicURITest.java,0,0,0,0
org.apache.turbine.util.FileUtils, 0, 0, 0, 0, 0, 0, 0, 0, 0, 0, 0, 0, 0, 0,0.0,0.0,0.0,0.0,0.0,0.0,0.0,0.0,0.0,0.0,0.0,0.0,0.0,27,src\java\org\apache\turbine\util\FileUtils.java,0,0,0,0
org.apache.turbine.util.FormMessageTest, 0, 0, 0, 0, 0, 0, 0, 0, 0, 0, 0, 0, 0, 0,0.0,0.0,0.0,0.0,0.0,0.0,0.0,0.0,0.0,0.0,0.0,0.0,0.0,27,src\test\org\apache\turbine\util\FormMessageTest.java,0,0,0,0
org.apache.turbine.util.HttpUtils, 0, 0, 0, 0, 0, 0, 0, 0, 0, 0, 0, 0, 0, 0,0.0,0.0,0.0,0.0,0.0,0.0,0.0,0.0,0.0,0.0,0.0,0.0,0.0,33,src\java\org\apache\turbine\util\HttpUtils.java,0,0,0,0
org.apache.turbine.util.InputFilterUtils, 0, 0, 0, 0, 0, 0, 0, 0, 0, 0, 0, 0, 0, 0,0.0,0.0,0.0,0.0,0.0,0.0,0.0,0.0,0.0,0.0,0.0,0.0,0.0,33,src\java\org\apache\turbine\util\InputFilterUtils.java,0,0,0,0
org.apache.turbine.util.Log, 0, 0, 0, 0, 0, 0, 0, 1, 0, 0, 0, 0, 0, 1,0.0,0.0,0.0,0.0,0.0,0.0,0.0,0.0,0.0,0.0,0.0,0.0,0.0,84,src\java\org\apache\turbine\util\Log.java,0,0,0,0
org.apache.turbine.util.ParameterParser, 0, 0, 0, 0, 0, 0, 0, 0, 0, 0, 0, 0, 0, 0,0.0,0.0,0.0,0.0,0.0,0.0,0.0,0.0,0.0,0.0,0.0,0.0,0.0,84,src\java\org\apache\turbine\util\ParameterParser.java,0,0,0,0
org.apache.turbine.util.QuickSort, 0, 0, 0, 0, 0, 0, 0, 1, 0, 0, 0, 0, 0, 1,0.0,0.0,0.0,0.0,0.0,0.0,0.0,0.0,0.0,0.0,0.0,0.0,0.0,62,src\java\org\apache\turbine\util\QuickSort.java,0,0,0,0
org.apache.turbine.util.RunDataFactory, 0, 0, 0, 0, 0, 0, 0, 1, 0, 0, 0, 0, 0, 1,0.0,0.0,0.0,0.0,0.0,0.0,0.0,1.0,0.0,0.0,0.0,0.0,0.0,63,src\java\org\apache\turbine\util\RunDataFactory.java,0,0,0,0
org.apache.turbine.util.SecurityCheck, 0, 0, 0, 0, 0, 0, 0, 1, 0, 0, 0, 0, 0, 1,0.0,0.0,0.0,1.0,0.0,0.0,0.0,1.0,0.0,0.0,0.0,0.0,0.0,64,src\java\org\apache\turbine\util\SecurityCheck.java,0,0,0,0
org.apache.turbine.util.SystemError, 0, 0, 0, 0, 0, 0, 0, 0, 0, 0, 0, 0, 0, 0,0.0,0.0,0.0,0.0,0.0,0.0,0.0,0.0,0.0,0.0,0.0,0.0,0.0,23,src\java\org\apache\turbine\util\SystemError.java,0,1,0,1
org.apache.turbine.util.TSVParser, 0, 0, 0, 0, 0, 0, 0, 1, 0, 1, 0, 0, 0, 2,0.0,0.0,0.0,0.0,0.0,0.0,0.0,1.0,0.0,1.0,0.0,0.0,0.0,16,src\java\org\apache\turbine\util\TSVParser.java,0,0,0,0
org.apache.turbine.util.TSVParserTest, 0, 0, 0, 0, 0, 0, 0, 0, 0, 0, 0, 0, 0, 0,0.0,0.0,0.0,0.0,0.0,0.0,0.0,0.0,0.0,0.0,0.0,0.0,0.0,123,src\rttest\org\apache\turbine\util\TSVParserTest.java,0,0,0,0
org.apache.turbine.util.TimeSelector, 0, 0, 0, 1, 0, 0, 0, 1, 0, 0, 0, 0, 0, 2,0.0,0.0,0.0,0.0,0.0,0.0,0.0,0.0,0.0,0.0,0.0,0.0,0.0,302,src\java\org\apache\turbine\util\TimeSelector.java,0,0,0,0
org.apache.turbine.util.TurbineException, 0, 0, 0, 0, 0, 0, 0, 0, 0, 0, 0, 0, 0, 0,0.0,0.0,0.0,0.25,0.0,0.0,0.0,0.25,0.0,0.0,0.0,0.0,0.0,18,src\java\org\apache\turbine\util\TurbineException.java,0,1,0,1
org.apache.turbine.util.TurbineRuntimeException, 0, 0, 0, 0, 0, 0, 0, 0, 0, 0, 0, 0, 0, 0,0.0,0.0,0.0,0.0,0.0,0.0,0.0,0.0,0.0,0.0,0.0,0.0,0.0,18,src\java\org\apache\turbine\util\TurbineRuntimeException.java,0,1,0,1
org.apache.turbine.util.ValueParser, 0, 0, 0, 0, 0, 0, 0, 0, 0, 0, 0, 0, 0, 0,0.0,0.0,0.0,0.0,0.0,0.0,0.0,0.0,0.0,0.0,0.0,0.0,0.0,18,src\java\org\apache\turbine\util\ValueParser.java,0,0,0,0
org.apache.turbine.util.db.TableColumn, 0, 0, 0, 0, 0, 0, 0, 0, 0, 0, 0, 0, 0, 0,0.0,0.0,0.0,0.0,0.0,0.0,0.0,0.0,0.0,0.0,0.0,0.0,0.0,37,src\java\org\apache\turbine\util\db\TableColumn.java,0,0,0,0
org.apache.turbine.util.hibernate.HibernateFilter, 0, 0, 0, 0, 0, 0, 0, 1, 0, 0, 0, 0, 0, 1,0.0,0.0,0.0,0.0,0.0,0.0,0.0,0.0,0.0,0.0,0.0,0.0,0.0,48,proposals\epugh\hibernate\org\apache\turbine\util\hibernate\HibernateFilter.java,62,0,0,62
org.apache.turbine.util.hibernate.HibernateUtils, 0, 0, 0, 0, 0, 0, 0, 0, 0, 0, 0, 0, 0, 0,0.0,0.0,0.0,0.0,0.0,0.0,0.0,1.0,0.0,0.0,0.0,0.0,0.0,56,proposals\epugh\hibernate\org\apache\turbine\util\hibernate\HibernateUtils.java,63,0,0,63
org.apache.turbine.util.hibernate.PersistenceException, 0, 0, 0, 0, 0, 0, 0, 0, 0, 0, 0, 0, 0, 0,0.0,0.0,0.0,0.0,0.0,0.0,0.0,1.0,0.0,0.0,0.0,0.0,0.0,19,proposals\epugh\hibernate\org\apache\turbine\util\hibernate\PersistenceException.java,21,0,0,21
org.apache.turbine.util.jsp.JspActionEvent, 0, 0, 0, 0, 0, 0, 0, 0, 0, 0, 0, 0, 0, 0,0.0,0.0,0.0,0.0,0.0,0.0,0.0,0.0,0.0,0.0,0.0,0.0,0.0,49,proposals\henning\jsp-tags\src\java\org\apache\turbine\util\jsp\JspActionEvent.java,57,0,0,57
org.apache.turbine.util.mail.ByteArrayDataSource, 0, 0, 0, 0, 0, 0, 0, 0, 0, 0, 0, 0, 0, 0,0.0,0.0,0.0,0.0,0.0,0.0,0.0,0.0,0.0,0.0,0.0,0.0,0.0,69,src\java\org\apache\turbine\util\mail\ByteArrayDataSource.java,0,0,0,0
org.apache.turbine.util.mail.EmailAttachment, 0, 0, 0, 0, 0, 0, 0, 0, 0, 0, 0, 0, 0, 0,0.0,0.0,0.0,0.0,0.0,0.0,0.0,1.0,0.0,0.0,0.0,0.0,0.0,50,src\java\org\apache\turbine\util\mail\EmailAttachment.java,0,0,0,0
org.apache.turbine.util.mail.HtmlEmail, 0, 0, 0, 0, 0, 0, 0, 0, 0, 0, 0, 0, 0, 0,0.0,0.0,0.0,0.0,0.0,0.0,0.0,1.0,0.0,0.0,0.0,0.0,0.0,108,src\java\org\apache\turbine\util\mail\HtmlEmail.java,0,0,0,0
org.apache.turbine.util.mail.MultiPartEmail, 0, 0, 0, 0, 0, 0, 0, 1, 0, 0, 0, 0, 0, 1,0.0,0.0,0.0,0.0,0.0,0.0,0.0,0.0,0.0,0.0,0.0,0.0,0.0,126,src\java\org\apache\turbine\util\mail\MultiPartEmail.java,0,0,0,0
org.apache.turbine.util.mail.SimpleEmail, 0, 0, 0, 0, 0, 0, 0, 0, 0, 0, 0, 0, 0, 0,0.0,0.0,0.0,0.0,0.0,0.0,0.0,0.0,0.0,0.0,0.0,0.0,0.0,41,src\java\org\apache\turbine\util\mail\SimpleEmail.java,0,0,0,0
org.apache.turbine.util.parser.BaseValueParserTest, 0, 0, 0, 0, 0, 0, 0, 1, 0, 0, 0, 0, 0, 1,0.0,0.0,0.0,0.0,0.0,0.0,0.0,0.0,0.0,0.0,0.0,0.0,0.0,74,src\rttest\org\apache\turbine\util\parser\BaseValueParserTest.java,0,0,0,0
org.apache.turbine.util.parser.CSVParser, 0, 0, 0, 0, 0, 0, 0, 1, 0, 1, 0, 0, 0, 2,0.0,0.0,0.0,0.0,0.0,0.0,0.0,0.5,0.0,0.5,0.0,0.0,0.0,20,src\java\org\apache\turbine\util\parser\CSVParser.java,0,0,0,0
org.apache.turbine.util.parser.CSVParserTest, 0, 0, 0, 0, 0, 0, 0, 0, 0, 0, 0, 0, 0, 0,0.0,0.0,0.0,0.0,0.0,0.0,0.0,1.0,0.0,1.0,0.0,0.0,0.0,125,src\test\org\apache\turbine\util\parser\CSVParserTest.java,0,612,0,612
org.apache.turbine.util.parser.CookieParser, 0, 0, 0, 0, 0, 0, 0, 0, 0, 0, 0, 0, 0, 0,0.0,0.0,0.0,0.0,0.0,0.0,0.0,0.0,0.0,0.0,0.0,0.0,0.0,125,src\java\org\apache\turbine\util\parser\CookieParser.java,0,0,0,0
org.apache.turbine.util.parser.DefaultCookieParser, 0, 0, 0, 0, 0, 0, 0, 1, 0, 0, 0, 0, 0, 1,0.0,0.0,0.0,0.0,0.0,0.0,0.0,1.0,0.0,0.0,0.0,0.0,0.0,82,src\java\org\apache\turbine\util\parser\DefaultCookieParser.java,0,0,0,0
org.apache.turbine.util.parser.ParameterParser, 0, 0, 0, 0, 0, 0, 0, 0, 0, 0, 0, 0, 0, 0,0.0,0.0,0.0,0.0,0.0,0.0,0.0,0.0,0.0,0.0,0.0,0.0,0.0,82,src\java\org\apache\turbine\util\parser\ParameterParser.java,0,1,1,3
org.apache.turbine.util.parser.ParserUtils, 0, 0, 0, 0, 0, 0, 0, 0, 0, 0, 0, 0, 0, 0,0.0,0.0,0.0,0.0,0.0,0.0,0.0,0.0,0.0,0.0,0.0,0.0,0.0,75,src\java\org\apache\turbine\util\parser\ParserUtils.java,0,4,1,6
org.apache.turbine.util.parser.TSVParser, 0, 0, 0, 0, 0, 0, 0, 1, 0, 1, 0, 0, 0, 2,0.0,0.0,0.0,0.0,0.0,0.0,0.0,0.5,0.0,0.5,0.0,0.0,0.0,20,src\java\org\apache\turbine\util\parser\TSVParser.java,0,0,0,0
org.apache.turbine.util.parser.TSVParserTest, 0, 0, 0, 0, 0, 0, 0, 0, 0, 0, 0, 0, 0, 0,0.0,0.0,0.0,0.0,0.0,0.0,0.0,1.0,0.0,1.0,0.0,0.0,0.0,123,src\test-cactus\org\apache\turbine\util\parser\TSVParserTest.java,0,0,0,0
org.apache.turbine.util.parser.ValueParser, 0, 0, 0, 0, 0, 0, 0, 0, 0, 0, 0, 0, 0, 0,0.0,0.0,0.0,0.0,0.0,0.0,0.0,0.0,0.0,0.0,0.0,0.0,0.0,123,src\java\org\apache\turbine\util\parser\ValueParser.java,0,0,0,0
org.apache.turbine.util.pool.ArrayCtorRecyclable, 0, 0, 0, 0, 0, 0, 0, 0, 0, 0, 0, 0, 0, 0,0.0,0.0,0.0,0.0,0.0,0.0,0.0,0.0,0.0,0.0,0.0,0.0,0.0,123,src\java\org\apache\turbine\util\pool\ArrayCtorRecyclable.java,0,0,0,0
org.apache.turbine.util.pool.BoundedBuffer, 0, 0, 0, 0, 0, 0, 0, 0, 0, 0, 0, 0, 0, 0,0.0,0.0,0.0,0.0,0.0,0.0,0.0,0.0,0.0,0.0,0.0,0.0,0.0,78,src\java\org\apache\turbine\util\pool\BoundedBuffer.java,0,0,0,0
org.apache.turbine.util.pool.InitableRecyclable, 0, 0, 0, 0, 0, 0, 0, 0, 0, 0, 0, 0, 0, 0,0.0,0.0,0.0,0.0,0.0,0.0,0.0,0.0,0.0,0.0,0.0,0.0,0.0,78,src\java\org\apache\turbine\util\pool\InitableRecyclable.java,0,0,0,0
org.apache.turbine.util.pool.Recyclable, 0, 0, 0, 0, 0, 0, 0, 0, 0, 0, 0, 0, 0, 0,0.0,0.0,0.0,0.0,0.0,0.0,0.0,0.0,0.0,0.0,0.0,0.0,0.0,78,src\java\org\apache\turbine\util\pool\Recyclable.java,0,0,0,0
org.apache.turbine.util.pool.RecyclableSupport, 0, 0, 0, 0, 0, 0, 0, 0, 0, 0, 0, 0, 0, 0,0.0,0.0,0.0,0.0,0.0,0.0,0.0,1.0,0.0,0.0,0.0,0.0,0.0,31,src\java\org\apache\turbine\util\pool\RecyclableSupport.java,0,0,0,0
org.apache.turbine.util.security.AccessControlException, 0, 0, 0, 0, 0, 1, 0, 0, 0, 0, 0, 0, 0, 1,0.0,0.0,0.0,0.0,0.0,0.0,0.0,0.0,0.0,0.0,0.0,0.0,0.0,8,src\java\org\apache\turbine\util\security\AccessControlException.java,0,1,0,1
org.apache.turbine.util.security.AccessControlList, 0, 0, 0, 0, 0, 0, 0, 0, 0, 0, 0, 0, 0, 0,0.0,0.0,0.0,0.0,0.0,0.0,0.0,0.0,0.0,0.0,0.0,0.0,0.0,8,src\java\org\apache\turbine\util\security\AccessControlList.java,0,0,1,2
org.apache.turbine.util.security.DataBackendException, 0, 0, 0, 0, 0, 0, 0, 0, 0, 0, 0, 0, 0, 0,0.0,0.0,0.0,0.0,0.0,0.0,0.0,0.6666666666666666,0.0,0.0,0.0,0.0,0.0,12,src\java\org\apache\turbine\util\security\DataBackendException.java,0,1,0,1
org.apache.turbine.util.security.EntityExistsException, 0, 0, 0, 0, 0, 1, 0, 0, 0, 0, 0, 0, 0, 1,0.0,0.0,0.0,0.0,0.0,0.0,0.0,0.5,0.0,0.0,0.0,0.0,0.0,8,src\java\org\apache\turbine\util\security\EntityExistsException.java,0,1,0,1
org.apache.turbine.util.security.PasswordMismatchException, 0, 0, 0, 0, 0, 1, 0, 0, 0, 0, 0, 0, 0, 1,0.0,0.0,0.0,0.0,0.0,0.0,0.0,0.5,0.0,0.0,0.0,0.0,0.0,8,src\java\org\apache\turbine\util\security\PasswordMismatchException.java,0,1,0,1
org.apache.turbine.util.security.TurbineSecurityException, 0, 0, 0, 0, 0, 0, 0, 0, 0, 0, 0, 0, 0, 0,0.0,0.0,0.0,0.0,0.0,0.5,0.0,0.0,0.0,0.0,0.0,0.0,0.0,12,src\java\org\apache\turbine\util\security\TurbineSecurityException.java,0,1,0,1
org.apache.turbine.util.security.UnknownEntityException, 0, 0, 0, 0, 0, 0, 0, 0, 0, 0, 0, 0, 0, 0,0.0,0.0,0.0,0.0,0.0,0.0,0.0,0.5,0.0,0.0,0.0,0.0,0.0,12,src\java\org\apache\turbine\util\security\UnknownEntityException.java,0,1,0,1
org.apache.turbine.util.template.RelativeTemplateLink, 0, 0, 0, 0, 0, 0, 0, 0, 0, 0, 0, 0, 0, 0,0.0,0.0,0.0,0.0,0.0,0.0,0.0,0.0,0.0,0.0,0.0,0.0,0.0,47,src\java\org\apache\turbine\util\template\RelativeTemplateLink.java,0,0,0,0
org.apache.turbine.util.template.SelectorBox, 0, 0, 0, 0, 0, 0, 0, 1, 0, 0, 0, 0, 0, 1,0.0,0.0,0.0,0.0,0.0,0.0,0.0,0.0,0.0,0.0,0.0,0.0,0.0,120,src\java\org\apache\turbine\util\template\SelectorBox.java,0,0,0,0
org.apache.turbine.util.template.TemplateLink, 0, 0, 0, 0, 0, 0, 0, 0, 0, 0, 0, 0, 0, 0,0.0,0.0,0.0,0.0,0.0,0.0,0.0,0.0,0.0,0.0,0.0,0.0,0.0,57,src\java\org\apache\turbine\util\template\TemplateLink.java,0,0,0,0
org.apache.turbine.util.template.TemplateLinkWithSlash, 0, 0, 0, 0, 0, 0, 0, 0, 0, 0, 0, 0, 0, 0,0.0,0.0,0.0,0.0,0.0,0.0,0.0,0.0,0.0,0.0,0.0,0.0,0.0,16,src\java\org\apache\turbine\util\template\TemplateLinkWithSlash.java,0,0,0,0
org.apache.turbine.util.template.TemplateNavigation, 0, 0, 0, 0, 0, 0, 0, 0, 0, 0, 0, 0, 0, 0,0.0,0.0,0.0,0.16666666666666666,0.0,0.0,0.0,0.0,0.0,0.0,0.0,0.0,0.0,49,src\java\org\apache\turbine\util\template\TemplateNavigation.java,0,0,0,0
org.apache.turbine.util.template.TemplatePageAttributes, 0, 0, 0, 1, 0, 0, 0, 0, 0, 0, 0, 0, 0, 1,0.0,0.0,0.0,0.0,0.0,0.0,0.0,0.0,0.0,0.0,0.0,0.0,0.0,140,src\java\org\apache\turbine\util\template\TemplatePageAttributes.java,0,0,0,0
org.apache.turbine.util.template.TemplateScreen, 0, 0, 0, 0, 0, 0, 0, 0, 0, 0, 0, 0, 0, 0,0.0,0.0,0.0,0.0,0.0,0.0,0.0,0.0,0.0,0.0,0.0,0.0,0.0,34,src\java\org\apache\turbine\util\template\TemplateScreen.java,0,0,0,0
org.apache.turbine.util.template.TemplateSecurityCheck, 0, 0, 0, 0, 0, 0, 0, 0, 0, 0, 0, 0, 0, 0,0.0,0.0,0.0,1.0,0.0,0.0,0.0,1.0,0.0,0.0,0.0,0.0,0.0,84,src\java\org\apache\turbine\util\template\TemplateSecurityCheck.java,0,0,0,0
org.apache.turbine.util.upload.FileItem, 0, 0, 0, 1, 0, 0, 0, 1, 0, 0, 0, 0, 0, 2,0.0,0.0,0.0,0.0,0.0,0.0,0.0,0.5,0.0,0.0,0.0,0.0,0.0,205,src\java\org\apache\turbine\util\upload\FileItem.java,0,0,0,0
org.apache.turbine.util.uri.TemplateURI, 0, 0, 0, 0, 0, 0, 0, 1, 0, 0, 0, 0, 0, 1,0.0,0.0,0.0,1.0,0.0,0.0,0.0,0.0,0.0,0.0,0.0,0.0,0.0,103,src\java\org\apache\turbine\util\uri\TemplateURI.java,0,0,0,0
org.apache.turbine.util.uri.TurbineURITest, 0, 0, 0, 0, 0, 0, 0, 0, 0, 0, 0, 0, 0, 0,0.0,0.0,0.0,0.0,0.0,0.0,0.0,0.0,0.0,0.0,0.0,0.0,0.0,50,src\test\org\apache\turbine\util\uri\TurbineURITest.java,0,0,0,0
org.apache.turbine.util.uri.URI, 0, 0, 0, 0, 0, 0, 0, 0, 0, 0, 0, 0, 0, 0,0.0,0.0,0.0,0.0,0.0,0.0,0.0,0.0,0.0,0.0,0.0,0.0,0.0,50,src\java\org\apache\turbine\util\uri\URI.java,0,0,0,0
org.apache.turbine.util.uri.URIConstants, 0, 0, 0, 0, 0, 0, 0, 0, 0, 0, 0, 0, 0, 0,0.0,0.0,0.0,0.0,0.0,0.0,0.0,0.0,0.0,0.0,0.0,0.0,0.0,50,src\java\org\apache\turbine\util\uri\URIConstants.java,0,0,0,0
org.apache.turbine.util.uri.URIParam, 0, 0, 0, 0, 0, 0, 0, 0, 0, 0, 0, 0, 0, 0,0.0,0.0,0.0,0.0,0.0,0.0,0.0,0.0,0.0,0.0,0.0,0.0,0.0,18,src\java\org\apache\turbine\util\uri\URIParam.java,0,0,0,0
org.apache.turbine.util.uri.URIUtils, 0, 0, 0, 0, 0, 0, 0, 0, 0, 0, 0, 0, 0, 0,0.0,0.0,0.0,0.0,0.0,0.0,0.0,0.0,0.0,0.0,0.0,0.0,0.0,9,src\java\org\apache\turbine\util\uri\URIUtils.java,0,0,0,0
org.apache.turbine.util.validation.AlwaysTrueValidator, 0, 0, 0, 0, 0, 0, 0, 0, 0, 0, 0, 0, 0, 0,0.0,0.0,0.0,0.0,0.0,0.0,0.0,1.0,0.0,0.0,0.0,0.0,0.0,15,src\java\org\apache\turbine\util\validation\AlwaysTrueValidator.java,0,0,0,0
org.apache.turbine.util.validation.EmailValidator, 0, 0, 0, 0, 0, 0, 0, 0, 0, 0, 0, 0, 0, 0,0.0,0.0,0.0,0.0,0.0,0.0,0.0,1.0,0.0,0.0,0.0,0.0,0.0,30,src\java\org\apache\turbine\util\validation\EmailValidator.java,0,0,0,0
org.apache.turbine.util.validation.InputValidator, 0, 0, 0, 0, 0, 0, 0, 1, 0, 0, 0, 0, 0, 1,0.0,0.0,0.0,0.0,0.0,0.0,0.0,0.0,0.0,0.0,0.0,0.0,0.0,81,src\java\org\apache\turbine\util\validation\InputValidator.java,0,0,0,0
org.apache.turbine.util.validation.NotEmpty, 0, 0, 0, 0, 0, 0, 0, 0, 0, 0, 0, 0, 0, 0,0.0,0.0,0.0,0.0,0.0,0.0,0.0,1.0,0.0,0.0,0.0,0.0,0.0,24,src\java\org\apache\turbine\util\validation\NotEmpty.java,0,0,0,0
org.apache.turbine.util.velocity.VelocityActionEvent, 0, 0, 0, 0, 0, 0, 0, 0, 0, 0, 0, 0, 0, 0,0.0,0.0,0.0,0.0,0.0,0.0,0.0,0.3333333333333333,0.0,0.0,0.0,0.0,0.0,74,src\java\org\apache\turbine\util\velocity\VelocityActionEvent.java,1,7,2,12
org.apache.turbine.util.velocity.VelocityEmail, 0, 0, 0, 0, 0, 0, 0, 0, 0, 0, 0, 0, 0, 0,0.0,0.0,0.0,0.0,0.0,0.0,0.0,1.0,0.0,0.0,0.0,0.0,0.0,84,src\java\org\apache\turbine\util\velocity\VelocityEmail.java,1,0,8,17
org.apache.turbine.util.velocity.VelocityEmailException, 0, 0, 0, 0, 0, 0, 0, 0, 0, 0, 0, 0, 0, 0,0.0,0.0,0.0,0.0,0.0,0.0,0.0,0.0,0.0,0.0,0.0,0.0,0.0,18,src\java\org\apache\turbine\util\velocity\VelocityEmailException.java,0,1,0,1
