ClassName,AntiSingleton,Blob,ClassDataShouldBePrivate,ComplexClass,LargeClass,LazyClass,LongMethod,LongParameterList,MessageChains,RefusedParentBequest,SpaghettiCode,SpeculativeGenerality,SwissArmyKnife,NumOfAPs,AntiSingleton,Blob,ClassDataShouldBePrivate,ComplexClass,LargeClass,LazyClass,LongMethod,LongParameterList,MessageChains,RefusedParentBequest,SpaghettiCode,SpeculativeGenerality,SwissArmyKnife,LOC,name,deleted,added,changed,all
discovery.ExampleServer, 0, 0, 0, 0, 0, 0, 0, 0, 0, 0, 0, 0, 0, 0,0.0,0.0,0.0,0.0,0.0,0.0,0.0,0.0,0.0,0.0,0.0,0.0,0.0,35,curator-examples\src\main\java\discovery\ExampleServer.java,0,0,0,0
discovery.InstanceDetails, 0, 0, 0, 0, 0, 0, 0, 0, 0, 0, 0, 0, 0, 0,0.0,0.0,0.0,0.0,0.0,0.0,0.0,0.0,0.0,0.0,0.0,0.0,0.0,20,curator-examples\src\main\java\discovery\InstanceDetails.java,0,0,0,0
framework.CreateClientExamples, 0, 0, 0, 0, 0, 0, 0, 0, 0, 0, 0, 0, 0, 0,0.0,0.0,0.0,0.0,0.0,0.0,0.0,0.0,0.0,0.0,0.0,0.0,0.0,17,curator-examples\src\main\java\framework\CreateClientExamples.java,0,0,0,0
framework.CrudExamples, 0, 0, 0, 0, 0, 0, 0, 0, 0, 0, 0, 0, 0, 0,0.0,0.0,0.0,0.0,0.0,0.0,0.0,0.0,0.0,0.0,0.0,0.0,0.0,51,curator-examples\src\main\java\framework\CrudExamples.java,0,0,0,0
framework.TransactionExamples, 0, 0, 0, 0, 0, 0, 0, 0, 0, 0, 0, 0, 0, 0,0.0,0.0,0.0,0.0,0.0,0.0,0.0,0.0,0.0,0.0,0.0,0.0,0.0,35,curator-examples\src\main\java\framework\TransactionExamples.java,0,0,0,0
leader.ExampleClient, 0, 0, 0, 0, 0, 0, 0, 0, 0, 0, 0, 0, 0, 0,0.0,0.0,0.0,0.3333333333333333,0.0,0.0,0.0,0.3333333333333333,0.0,0.0,0.0,0.0,0.0,41,curator-examples\src\main\java\leader\ExampleClient.java,0,0,0,0
leader.LeaderSelectorExample, 0, 0, 0, 0, 0, 0, 0, 0, 0, 0, 0, 0, 0, 0,0.0,0.0,0.0,0.0,0.0,0.0,0.0,0.0,0.0,0.0,0.0,0.0,0.0,40,curator-examples\src\main\java\leader\LeaderSelectorExample.java,0,0,0,0
locking.ExampleClientThatLocks, 0, 0, 0, 0, 0, 0, 0, 0, 0, 0, 0, 0, 0, 0,0.0,0.0,0.0,0.0,0.0,0.0,0.0,0.0,0.0,0.0,0.0,0.0,0.0,29,curator-examples\src\main\java\locking\ExampleClientThatLocks.java,0,0,0,0
locking.FakeLimitedResource, 0, 0, 0, 0, 0, 0, 0, 0, 0, 0, 0, 0, 0, 0,0.0,0.0,0.0,0.0,0.0,0.0,0.0,0.0,0.0,0.0,0.0,0.0,0.0,19,curator-examples\src\main\java\locking\FakeLimitedResource.java,0,0,0,0
locking.LockingExample, 0, 0, 0, 0, 0, 0, 0, 0, 0, 0, 0, 0, 0, 0,0.0,0.0,0.0,0.0,0.0,0.0,0.0,0.0,0.0,0.0,0.0,0.0,0.0,52,curator-examples\src\main\java\locking\LockingExample.java,0,0,0,0
org.apache.curator.BasicTests, 0, 0, 0, 0, 0, 0, 0, 0, 0, 0, 0, 0, 0, 0,0.0,0.0,0.0,0.14285714285714285,0.0,0.14285714285714285,0.0,0.14285714285714285,0.0,0.0,0.0,0.0,0.0,139,curator-client\src\test\java\org\apache\curator\BasicTests.java,0,0,0,0
org.apache.curator.ConnectionState, 0, 0, 0, 1, 0, 0, 0, 1, 0, 0, 0, 0, 0, 2,0.0,0.0,0.0,0.2,0.0,0.0,0.0,0.4,0.0,0.0,0.0,0.0,0.0,236,curator-client\src\main\java\org\apache\curator\ConnectionState.java,0,0,0,0
org.apache.curator.CuratorConnectionLossException, 0, 0, 0, 0, 0, 0, 0, 0, 0, 0, 0, 0, 0, 0,0.0,0.0,0.0,0.0,0.0,0.0,0.0,0.0,0.0,0.0,0.0,0.0,0.0,4,curator-client\src\main\java\org\apache\curator\CuratorConnectionLossException.java,0,0,0,0
org.apache.curator.CuratorZookeeperClient, 0, 0, 0, 1, 0, 0, 0, 1, 0, 0, 0, 0, 0, 2,0.0,0.0,0.025,0.125,0.0,0.0,0.0,0.05,0.0,0.0,0.0,0.0,0.0,149,curator-client\src\main\java\org\apache\curator\CuratorZookeeperClient.java,0,0,0,0
org.apache.curator.HandleHolder, 0, 0, 0, 0, 0, 0, 0, 1, 0, 0, 0, 0, 0, 1,0.0,0.0,0.0,1.0,0.0,0.0,0.0,1.0,0.0,0.0,0.0,0.0,0.0,103,curator-client\src\main\java\org\apache\curator\HandleHolder.java,0,0,0,0
org.apache.curator.RetryLoop, 0, 0, 0, 0, 0, 0, 0, 0, 0, 0, 0, 0, 0, 0,0.0,0.0,0.05263157894736842,0.21052631578947367,0.0,0.0,0.0,0.10526315789473684,0.0,0.0,0.0,0.0,0.0,101,curator-client\src\main\java\org\apache\curator\RetryLoop.java,0,0,0,0
org.apache.curator.RetryPolicy, 0, 0, 0, 0, 0, 0, 0, 0, 0, 0, 0, 0, 0, 0,0.0,0.0,0.0,0.0,0.0,0.0,0.0,0.0,0.0,0.0,0.0,0.0,0.0,101,curator-client\src\main\java\org\apache\curator\RetryPolicy.java,0,0,0,0
org.apache.curator.RetrySleeper, 0, 0, 0, 0, 0, 0, 0, 0, 0, 0, 0, 0, 0, 0,0.0,0.0,0.0,0.0,0.0,0.0,0.0,0.0,0.0,0.0,0.0,0.0,0.0,101,curator-client\src\main\java\org\apache\curator\RetrySleeper.java,0,0,0,0
org.apache.curator.SessionFailRetryLoop, 0, 0, 0, 0, 0, 0, 0, 0, 0, 0, 0, 0, 0, 0,0.0,0.0,0.0,0.5,0.0,0.0,0.0,0.5,0.0,0.0,0.0,0.0,0.0,113,curator-client\src\main\java\org\apache\curator\SessionFailRetryLoop.java,0,0,0,0
org.apache.curator.TestEnsurePath, 0, 0, 0, 0, 0, 0, 0, 0, 0, 0, 0, 0, 0, 0,0.0,0.0,0.0,0.25,0.0,0.25,0.0,0.25,0.0,0.0,0.0,0.0,0.0,77,curator-client\src\test\java\org\apache\curator\TestEnsurePath.java,0,0,0,0
org.apache.curator.TestRetryLoop, 0, 0, 0, 0, 0, 0, 0, 0, 0, 0, 0, 0, 0, 0,0.0,0.0,0.0,0.14285714285714285,0.0,0.14285714285714285,0.0,0.14285714285714285,0.0,0.0,0.0,0.0,0.0,106,curator-client\src\test\java\org\apache\curator\TestRetryLoop.java,0,0,0,0
org.apache.curator.TestSessionFailRetryLoop, 0, 0, 0, 0, 0, 0, 0, 0, 0, 0, 0, 0, 0, 0,0.0,0.0,0.0,0.125,0.0,0.125,0.0,0.125,0.0,0.0,0.0,0.0,0.0,240,curator-client\src\test\java\org\apache\curator\TestSessionFailRetryLoop.java,0,0,0,0
org.apache.curator.TimeTrace, 0, 0, 0, 0, 0, 0, 0, 0, 0, 0, 0, 0, 0, 0,0.0,0.0,0.0,0.2727272727272727,0.0,0.0,0.0,0.2727272727272727,0.0,0.0,0.0,0.0,0.0,16,curator-client\src\main\java\org\apache\curator\TimeTrace.java,0,0,0,0
org.apache.curator.drivers.TracerDriver, 0, 0, 0, 0, 0, 0, 0, 0, 0, 0, 0, 0, 0, 0,0.0,0.0,0.0,0.0,0.0,0.0,0.0,0.0,0.0,0.0,0.0,0.0,0.0,16,curator-client\src\main\java\org\apache\curator\drivers\TracerDriver.java,0,0,0,0
org.apache.curator.ensemble.EnsembleProvider, 0, 0, 0, 0, 0, 0, 0, 0, 0, 0, 0, 0, 0, 0,0.0,0.0,0.0,0.0,0.0,0.0,0.0,0.0,0.0,0.0,0.0,0.0,0.0,16,curator-client\src\main\java\org\apache\curator\ensemble\EnsembleProvider.java,0,0,0,0
org.apache.curator.ensemble.exhibitor.ExhibitorRestClient, 0, 0, 0, 0, 0, 0, 0, 0, 0, 0, 0, 0, 0, 0,0.0,0.0,0.0,0.0,0.0,0.0,0.0,0.0,0.0,0.0,0.0,0.0,0.0,16,curator-client\src\main\java\org\apache\curator\ensemble\exhibitor\ExhibitorRestClient.java,0,0,0,0
org.apache.curator.ensemble.exhibitor.Exhibitors, 0, 0, 0, 0, 0, 0, 0, 0, 0, 0, 0, 0, 0, 0,0.0,0.0,0.0,0.0,0.0,0.0,0.0,0.0,0.0,0.0,0.0,0.0,0.0,28,curator-client\src\main\java\org\apache\curator\ensemble\exhibitor\Exhibitors.java,0,0,0,0
org.apache.curator.ensemble.exhibitor.TestExhibitorEnsembleProvider, 0, 0, 0, 0, 0, 0, 0, 0, 0, 0, 0, 0, 0, 0,0.0,0.0,0.0,0.1111111111111111,0.0,0.1111111111111111,0.0,0.1111111111111111,0.0,0.0,0.0,0.0,0.0,174,curator-client\src\test\java\org\apache\curator\ensemble\exhibitor\TestExhibitorEnsembleProvider.java,0,0,0,0
org.apache.curator.ensemble.fixed.FixedEnsembleProvider, 0, 0, 0, 0, 0, 0, 0, 0, 0, 0, 0, 0, 0, 0,0.0,0.0,0.0,0.5,0.0,0.0,0.0,0.5,0.0,0.0,0.0,0.0,0.0,21,curator-client\src\main\java\org\apache\curator\ensemble\fixed\FixedEnsembleProvider.java,0,0,0,0
org.apache.curator.framework.CuratorFramework, 0, 0, 0, 0, 0, 0, 0, 0, 0, 0, 0, 0, 0, 0,0.0,0.0,0.0,0.0,0.0,0.0,0.0,0.0,0.0,0.0,0.0,0.0,0.0,21,curator-framework\src\main\java\org\apache\curator\framework\CuratorFramework.java,0,0,0,0
org.apache.curator.framework.CuratorFrameworkFactory, 0, 0, 0, 0, 0, 0, 0, 0, 0, 0, 0, 0, 0, 0,0.0,0.0,0.0,0.01694915254237288,0.0,0.0,0.0,0.03389830508474576,0.0,0.0,0.0,0.0,0.0,201,curator-framework\src\main\java\org\apache\curator\framework\CuratorFrameworkFactory.java,2,43,4,53
org.apache.curator.framework.CuratorTempFramework, 0, 0, 0, 0, 0, 0, 0, 0, 0, 0, 0, 0, 0, 0,0.0,0.0,0.0,0.0,0.0,0.0,0.0,0.0,0.0,0.0,0.0,0.0,0.0,201,curator-framework\src\main\java\org\apache\curator\framework\CuratorTempFramework.java,0,0,0,0
org.apache.curator.framework.api.ACLBackgroundPathAndBytesable, 0, 0, 0, 0, 0, 0, 0, 0, 0, 0, 0, 0, 0, 0,0.0,0.0,0.0,0.0,0.0,0.0,0.0,0.0,0.0,0.0,0.0,0.0,0.0,201,curator-framework\src\main\java\org\apache\curator\framework\api\ACLBackgroundPathAndBytesable.java,0,0,0,0
org.apache.curator.framework.api.ACLBackgroundPathable, 0, 0, 0, 0, 0, 0, 0, 0, 0, 0, 0, 0, 0, 0,0.0,0.0,0.0,0.0,0.0,0.0,0.0,0.0,0.0,0.0,0.0,0.0,0.0,201,curator-framework\src\main\java\org\apache\curator\framework\api\ACLBackgroundPathable.java,0,0,0,0
org.apache.curator.framework.api.ACLCreateModeBackgroundPathAndBytesable, 0, 0, 0, 0, 0, 0, 0, 0, 0, 0, 0, 0, 0, 0,0.0,0.0,0.0,0.0,0.0,0.0,0.0,0.0,0.0,0.0,0.0,0.0,0.0,201,curator-framework\src\main\java\org\apache\curator\framework\api\ACLCreateModeBackgroundPathAndBytesable.java,0,0,0,0
org.apache.curator.framework.api.ACLCreateModePathAndBytesable, 0, 0, 0, 0, 0, 0, 0, 0, 0, 0, 0, 0, 0, 0,0.0,0.0,0.0,0.0,0.0,0.0,0.0,0.0,0.0,0.0,0.0,0.0,0.0,201,curator-framework\src\main\java\org\apache\curator\framework\api\ACLCreateModePathAndBytesable.java,0,0,0,0
org.apache.curator.framework.api.ACLPathAndBytesable, 0, 0, 0, 0, 0, 0, 0, 0, 0, 0, 0, 0, 0, 0,0.0,0.0,0.0,0.0,0.0,0.0,0.0,0.0,0.0,0.0,0.0,0.0,0.0,201,curator-framework\src\main\java\org\apache\curator\framework\api\ACLPathAndBytesable.java,0,0,0,0
org.apache.curator.framework.api.ACLProvider, 0, 0, 0, 0, 0, 0, 0, 0, 0, 0, 0, 0, 0, 0,0.0,0.0,0.0,0.0,0.0,0.0,0.0,0.0,0.0,0.0,0.0,0.0,0.0,201,curator-framework\src\main\java\org\apache\curator\framework\api\ACLProvider.java,0,0,0,0
org.apache.curator.framework.api.ACLVersionBackgroundPathable, 0, 0, 0, 0, 0, 0, 0, 0, 0, 0, 0, 0, 0, 0,0.0,0.0,0.0,0.0,0.0,0.0,0.0,0.0,0.0,0.0,0.0,0.0,0.0,201,curator-framework\src\main\java\org\apache\curator\framework\api\ACLVersionBackgroundPathable.java,0,0,0,0
org.apache.curator.framework.api.ACLable, 0, 0, 0, 0, 0, 0, 0, 0, 0, 0, 0, 0, 0, 0,0.0,0.0,0.0,0.0,0.0,0.0,0.0,0.0,0.0,0.0,0.0,0.0,0.0,201,curator-framework\src\main\java\org\apache\curator\framework\api\ACLable.java,0,0,0,0
org.apache.curator.framework.api.BackgroundCallback, 0, 0, 0, 0, 0, 0, 0, 0, 0, 0, 0, 0, 0, 0,0.0,0.0,0.0,0.0,0.0,0.0,0.0,0.0,0.0,0.0,0.0,0.0,0.0,201,curator-framework\src\main\java\org\apache\curator\framework\api\BackgroundCallback.java,0,0,0,0
org.apache.curator.framework.api.BackgroundPathAndBytesable, 0, 0, 0, 0, 0, 0, 0, 0, 0, 0, 0, 0, 0, 0,0.0,0.0,0.0,0.0,0.0,0.0,0.0,0.0,0.0,0.0,0.0,0.0,0.0,201,curator-framework\src\main\java\org\apache\curator\framework\api\BackgroundPathAndBytesable.java,0,0,0,0
org.apache.curator.framework.api.BackgroundPathable, 0, 0, 0, 0, 0, 0, 0, 0, 0, 0, 0, 0, 0, 0,0.0,0.0,0.0,0.0,0.0,0.0,0.0,0.0,0.0,0.0,0.0,0.0,0.0,201,curator-framework\src\main\java\org\apache\curator\framework\api\BackgroundPathable.java,0,0,0,0
org.apache.curator.framework.api.BackgroundVersionable, 0, 0, 0, 0, 0, 0, 0, 0, 0, 0, 0, 0, 0, 0,0.0,0.0,0.0,0.0,0.0,0.0,0.0,0.0,0.0,0.0,0.0,0.0,0.0,201,curator-framework\src\main\java\org\apache\curator\framework\api\BackgroundVersionable.java,0,0,0,0
org.apache.curator.framework.api.Backgroundable, 0, 0, 0, 0, 0, 0, 0, 0, 0, 0, 0, 0, 0, 0,0.0,0.0,0.0,0.0,0.0,0.0,0.0,0.0,0.0,0.0,0.0,0.0,0.0,201,curator-framework\src\main\java\org\apache\curator\framework\api\Backgroundable.java,0,0,0,0
org.apache.curator.framework.api.ChildrenDeletable, 0, 0, 0, 0, 0, 0, 0, 0, 0, 0, 0, 0, 0, 0,0.0,0.0,0.0,0.0,0.0,0.0,0.0,0.0,0.0,0.0,0.0,0.0,0.0,201,curator-framework\src\main\java\org\apache\curator\framework\api\ChildrenDeletable.java,0,0,0,0
org.apache.curator.framework.api.Compressible, 0, 0, 0, 0, 0, 0, 0, 0, 0, 0, 0, 0, 0, 0,0.0,0.0,0.0,0.0,0.0,0.0,0.0,0.0,0.0,0.0,0.0,0.0,0.0,201,curator-framework\src\main\java\org\apache\curator\framework\api\Compressible.java,0,0,0,0
org.apache.curator.framework.api.CompressionProvider, 0, 0, 0, 0, 0, 0, 0, 0, 0, 0, 0, 0, 0, 0,0.0,0.0,0.0,0.0,0.0,0.0,0.0,0.0,0.0,0.0,0.0,0.0,0.0,201,curator-framework\src\main\java\org\apache\curator\framework\api\CompressionProvider.java,0,0,0,0
org.apache.curator.framework.api.CreateBackgroundModeACLable, 0, 0, 0, 0, 0, 0, 0, 0, 0, 0, 0, 0, 0, 0,0.0,0.0,0.0,0.0,0.0,0.0,0.0,0.0,0.0,0.0,0.0,0.0,0.0,201,curator-framework\src\main\java\org\apache\curator\framework\api\CreateBackgroundModeACLable.java,0,0,0,0
org.apache.curator.framework.api.CreateBuilder, 0, 0, 0, 0, 0, 0, 0, 0, 0, 0, 0, 0, 0, 0,0.0,0.0,0.0,0.0,0.0,0.0,0.0,0.0,0.0,0.0,0.0,0.0,0.0,201,curator-framework\src\main\java\org\apache\curator\framework\api\CreateBuilder.java,0,0,0,0
org.apache.curator.framework.api.CreateModable, 0, 0, 0, 0, 0, 0, 0, 0, 0, 0, 0, 0, 0, 0,0.0,0.0,0.0,0.0,0.0,0.0,0.0,0.0,0.0,0.0,0.0,0.0,0.0,201,curator-framework\src\main\java\org\apache\curator\framework\api\CreateModable.java,0,0,0,0
org.apache.curator.framework.api.CreateModalPathAndBytesable, 0, 0, 0, 0, 0, 0, 0, 0, 0, 0, 0, 0, 0, 0,0.0,0.0,0.0,0.0,0.0,0.0,0.0,0.0,0.0,0.0,0.0,0.0,0.0,201,curator-framework\src\main\java\org\apache\curator\framework\api\CreateModalPathAndBytesable.java,0,0,0,0
org.apache.curator.framework.api.CuratorEvent, 0, 0, 0, 0, 0, 0, 0, 0, 0, 0, 0, 0, 0, 0,0.0,0.0,0.0,0.0,0.0,0.0,0.0,0.0,0.0,0.0,0.0,0.0,0.0,201,curator-framework\src\main\java\org\apache\curator\framework\api\CuratorEvent.java,0,0,0,0
org.apache.curator.framework.api.CuratorListener, 0, 0, 0, 0, 0, 0, 0, 0, 0, 0, 0, 0, 0, 0,0.0,0.0,0.0,0.0,0.0,0.0,0.0,0.0,0.0,0.0,0.0,0.0,0.0,201,curator-framework\src\main\java\org\apache\curator\framework\api\CuratorListener.java,0,0,0,0
org.apache.curator.framework.api.CuratorWatcher, 0, 0, 0, 0, 0, 0, 0, 0, 0, 0, 0, 0, 0, 0,0.0,0.0,0.0,0.0,0.0,0.0,0.0,0.0,0.0,0.0,0.0,0.0,0.0,201,curator-framework\src\main\java\org\apache\curator\framework\api\CuratorWatcher.java,0,0,0,0
org.apache.curator.framework.api.Decompressible, 0, 0, 0, 0, 0, 0, 0, 0, 0, 0, 0, 0, 0, 0,0.0,0.0,0.0,0.0,0.0,0.0,0.0,0.0,0.0,0.0,0.0,0.0,0.0,201,curator-framework\src\main\java\org\apache\curator\framework\api\Decompressible.java,0,0,0,0
org.apache.curator.framework.api.DeleteBuilder, 0, 0, 0, 0, 0, 0, 0, 0, 0, 0, 0, 0, 0, 0,0.0,0.0,0.0,0.0,0.0,0.0,0.0,0.0,0.0,0.0,0.0,0.0,0.0,201,curator-framework\src\main\java\org\apache\curator\framework\api\DeleteBuilder.java,0,0,0,0
org.apache.curator.framework.api.ExistsBuilder, 0, 0, 0, 0, 0, 0, 0, 0, 0, 0, 0, 0, 0, 0,0.0,0.0,0.0,0.0,0.0,0.0,0.0,0.0,0.0,0.0,0.0,0.0,0.0,201,curator-framework\src\main\java\org\apache\curator\framework\api\ExistsBuilder.java,0,0,0,0
org.apache.curator.framework.api.GetACLBuilder, 0, 0, 0, 0, 0, 0, 0, 0, 0, 0, 0, 0, 0, 0,0.0,0.0,0.0,0.0,0.0,0.0,0.0,0.0,0.0,0.0,0.0,0.0,0.0,201,curator-framework\src\main\java\org\apache\curator\framework\api\GetACLBuilder.java,0,0,0,0
org.apache.curator.framework.api.GetChildrenBuilder, 0, 0, 0, 0, 0, 0, 0, 0, 0, 0, 0, 0, 0, 0,0.0,0.0,0.0,0.0,0.0,0.0,0.0,0.0,0.0,0.0,0.0,0.0,0.0,201,curator-framework\src\main\java\org\apache\curator\framework\api\GetChildrenBuilder.java,0,0,0,0
org.apache.curator.framework.api.GetDataBuilder, 0, 0, 0, 0, 0, 0, 0, 0, 0, 0, 0, 0, 0, 0,0.0,0.0,0.0,0.0,0.0,0.0,0.0,0.0,0.0,0.0,0.0,0.0,0.0,201,curator-framework\src\main\java\org\apache\curator\framework\api\GetDataBuilder.java,0,0,0,0
org.apache.curator.framework.api.GetDataWatchBackgroundStatable, 0, 0, 0, 0, 0, 0, 0, 0, 0, 0, 0, 0, 0, 0,0.0,0.0,0.0,0.0,0.0,0.0,0.0,0.0,0.0,0.0,0.0,0.0,0.0,201,curator-framework\src\main\java\org\apache\curator\framework\api\GetDataWatchBackgroundStatable.java,0,0,0,0
org.apache.curator.framework.api.Guaranteeable, 0, 0, 0, 0, 0, 0, 0, 0, 0, 0, 0, 0, 0, 0,0.0,0.0,0.0,0.0,0.0,0.0,0.0,0.0,0.0,0.0,0.0,0.0,0.0,201,curator-framework\src\main\java\org\apache\curator\framework\api\Guaranteeable.java,0,0,0,0
org.apache.curator.framework.api.PathAndBytesable, 0, 0, 0, 0, 0, 0, 0, 0, 0, 0, 0, 0, 0, 0,0.0,0.0,0.0,0.0,0.0,0.0,0.0,0.0,0.0,0.0,0.0,0.0,0.0,201,curator-framework\src\main\java\org\apache\curator\framework\api\PathAndBytesable.java,0,0,0,0
org.apache.curator.framework.api.Pathable, 0, 0, 0, 0, 0, 0, 0, 0, 0, 0, 0, 0, 0, 0,0.0,0.0,0.0,0.0,0.0,0.0,0.0,0.0,0.0,0.0,0.0,0.0,0.0,201,curator-framework\src\main\java\org\apache\curator\framework\api\Pathable.java,0,0,0,0
org.apache.curator.framework.api.ProtectACLCreateModePathAndBytesable, 0, 0, 0, 0, 0, 0, 0, 0, 0, 0, 0, 0, 0, 0,0.0,0.0,0.0,0.0,0.0,0.0,0.0,0.0,0.0,0.0,0.0,0.0,0.0,201,curator-framework\src\main\java\org\apache\curator\framework\api\ProtectACLCreateModePathAndBytesable.java,0,0,0,0
org.apache.curator.framework.api.SetACLBuilder, 0, 0, 0, 0, 0, 0, 0, 0, 0, 0, 0, 0, 0, 0,0.0,0.0,0.0,0.0,0.0,0.0,0.0,0.0,0.0,0.0,0.0,0.0,0.0,201,curator-framework\src\main\java\org\apache\curator\framework\api\SetACLBuilder.java,0,0,0,0
org.apache.curator.framework.api.SetDataBackgroundVersionable, 0, 0, 0, 0, 0, 0, 0, 0, 0, 0, 0, 0, 0, 0,0.0,0.0,0.0,0.0,0.0,0.0,0.0,0.0,0.0,0.0,0.0,0.0,0.0,201,curator-framework\src\main\java\org\apache\curator\framework\api\SetDataBackgroundVersionable.java,0,0,0,0
org.apache.curator.framework.api.SetDataBuilder, 0, 0, 0, 0, 0, 0, 0, 0, 0, 0, 0, 0, 0, 0,0.0,0.0,0.0,0.0,0.0,0.0,0.0,0.0,0.0,0.0,0.0,0.0,0.0,201,curator-framework\src\main\java\org\apache\curator\framework\api\SetDataBuilder.java,0,0,0,0
org.apache.curator.framework.api.StatPathable, 0, 0, 0, 0, 0, 0, 0, 0, 0, 0, 0, 0, 0, 0,0.0,0.0,0.0,0.0,0.0,0.0,0.0,0.0,0.0,0.0,0.0,0.0,0.0,201,curator-framework\src\main\java\org\apache\curator\framework\api\StatPathable.java,0,0,0,0
org.apache.curator.framework.api.Statable, 0, 0, 0, 0, 0, 0, 0, 0, 0, 0, 0, 0, 0, 0,0.0,0.0,0.0,0.0,0.0,0.0,0.0,0.0,0.0,0.0,0.0,0.0,0.0,201,curator-framework\src\main\java\org\apache\curator\framework\api\Statable.java,0,0,0,0
org.apache.curator.framework.api.SyncBuilder, 0, 0, 0, 0, 0, 0, 0, 0, 0, 0, 0, 0, 0, 0,0.0,0.0,0.0,0.0,0.0,0.0,0.0,0.0,0.0,0.0,0.0,0.0,0.0,201,curator-framework\src\main\java\org\apache\curator\framework\api\SyncBuilder.java,0,0,0,0
org.apache.curator.framework.api.TempGetDataBuilder, 0, 0, 0, 0, 0, 0, 0, 0, 0, 0, 0, 0, 0, 0,0.0,0.0,0.0,0.0,0.0,0.0,0.0,0.0,0.0,0.0,0.0,0.0,0.0,201,curator-framework\src\main\java\org\apache\curator\framework\api\TempGetDataBuilder.java,0,0,0,0
org.apache.curator.framework.api.UnhandledErrorListener, 0, 0, 0, 0, 0, 0, 0, 0, 0, 0, 0, 0, 0, 0,0.0,0.0,0.0,0.0,0.0,0.0,0.0,0.0,0.0,0.0,0.0,0.0,0.0,201,curator-framework\src\main\java\org\apache\curator\framework\api\UnhandledErrorListener.java,0,0,0,0
org.apache.curator.framework.api.Versionable, 0, 0, 0, 0, 0, 0, 0, 0, 0, 0, 0, 0, 0, 0,0.0,0.0,0.0,0.0,0.0,0.0,0.0,0.0,0.0,0.0,0.0,0.0,0.0,201,curator-framework\src\main\java\org\apache\curator\framework\api\Versionable.java,0,0,0,0
org.apache.curator.framework.api.WatchPathable, 0, 0, 0, 0, 0, 0, 0, 0, 0, 0, 0, 0, 0, 0,0.0,0.0,0.0,0.0,0.0,0.0,0.0,0.0,0.0,0.0,0.0,0.0,0.0,201,curator-framework\src\main\java\org\apache\curator\framework\api\WatchPathable.java,0,0,0,0
org.apache.curator.framework.api.Watchable, 0, 0, 0, 0, 0, 0, 0, 0, 0, 0, 0, 0, 0, 0,0.0,0.0,0.0,0.0,0.0,0.0,0.0,0.0,0.0,0.0,0.0,0.0,0.0,201,curator-framework\src\main\java\org\apache\curator\framework\api\Watchable.java,0,0,0,0
org.apache.curator.framework.api.transaction.CuratorTransaction, 0, 0, 0, 0, 0, 0, 0, 0, 0, 0, 0, 0, 0, 0,0.0,0.0,0.0,0.0,0.0,0.0,0.0,0.0,0.0,0.0,0.0,0.0,0.0,201,curator-framework\src\main\java\org\apache\curator\framework\api\transaction\CuratorTransaction.java,0,0,0,0
org.apache.curator.framework.api.transaction.CuratorTransactionBridge, 0, 0, 0, 0, 0, 0, 0, 0, 0, 0, 0, 0, 0, 0,0.0,0.0,0.0,0.0,0.0,0.0,0.0,0.0,0.0,0.0,0.0,0.0,0.0,201,curator-framework\src\main\java\org\apache\curator\framework\api\transaction\CuratorTransactionBridge.java,0,0,0,0
org.apache.curator.framework.api.transaction.CuratorTransactionFinal, 0, 0, 0, 0, 0, 0, 0, 0, 0, 0, 0, 0, 0, 0,0.0,0.0,0.0,0.0,0.0,0.0,0.0,0.0,0.0,0.0,0.0,0.0,0.0,201,curator-framework\src\main\java\org\apache\curator\framework\api\transaction\CuratorTransactionFinal.java,0,0,0,0
org.apache.curator.framework.api.transaction.CuratorTransactionResult, 0, 0, 0, 0, 0, 0, 0, 0, 0, 0, 0, 0, 0, 0,0.0,0.0,0.0,0.0,0.0,0.0,0.0,0.0,0.0,0.0,0.0,0.0,0.0,41,curator-framework\src\main\java\org\apache\curator\framework\api\transaction\CuratorTransactionResult.java,0,0,0,0
org.apache.curator.framework.api.transaction.TransactionCheckBuilder, 0, 0, 0, 0, 0, 0, 0, 0, 0, 0, 0, 0, 0, 0,0.0,0.0,0.0,0.0,0.0,0.0,0.0,0.0,0.0,0.0,0.0,0.0,0.0,41,curator-framework\src\main\java\org\apache\curator\framework\api\transaction\TransactionCheckBuilder.java,0,0,0,0
org.apache.curator.framework.api.transaction.TransactionCreateBuilder, 0, 0, 0, 0, 0, 0, 0, 0, 0, 0, 0, 0, 0, 0,0.0,0.0,0.0,0.0,0.0,0.0,0.0,0.0,0.0,0.0,0.0,0.0,0.0,41,curator-framework\src\main\java\org\apache\curator\framework\api\transaction\TransactionCreateBuilder.java,0,0,0,0
org.apache.curator.framework.api.transaction.TransactionDeleteBuilder, 0, 0, 0, 0, 0, 0, 0, 0, 0, 0, 0, 0, 0, 0,0.0,0.0,0.0,0.0,0.0,0.0,0.0,0.0,0.0,0.0,0.0,0.0,0.0,41,curator-framework\src\main\java\org\apache\curator\framework\api\transaction\TransactionDeleteBuilder.java,0,0,0,0
org.apache.curator.framework.api.transaction.TransactionSetDataBuilder, 0, 0, 0, 0, 0, 0, 0, 0, 0, 0, 0, 0, 0, 0,0.0,0.0,0.0,0.0,0.0,0.0,0.0,0.0,0.0,0.0,0.0,0.0,0.0,41,curator-framework\src\main\java\org\apache\curator\framework\api\transaction\TransactionSetDataBuilder.java,0,0,0,0
org.apache.curator.framework.client.TestBackgroundStates, 0, 0, 0, 0, 0, 0, 0, 0, 0, 0, 0, 0, 0, 0,0.0,0.0,0.0,0.0,0.0,0.14285714285714285,0.0,0.0,0.0,0.0,0.0,0.0,0.0,89,curator-recipes\src\test\java\org\apache\curator\framework\client\TestBackgroundStates.java,0,0,0,0
org.apache.curator.framework.imps.ACLing, 0, 0, 0, 0, 0, 0, 0, 0, 0, 0, 0, 0, 0, 0,0.0,0.0,0.0,0.5,0.0,0.0,0.0,0.5,0.0,0.0,0.0,0.0,0.0,35,curator-framework\src\main\java\org\apache\curator\framework\imps\ACLing.java,0,0,0,0
org.apache.curator.framework.imps.BackgroundOperation, 0, 0, 0, 0, 0, 0, 0, 0, 0, 0, 0, 0, 0, 0,0.0,0.0,0.0,0.0,0.0,0.0,0.0,0.0,0.0,0.0,0.0,0.0,0.0,35,curator-framework\src\main\java\org\apache\curator\framework\imps\BackgroundOperation.java,0,0,0,0
org.apache.curator.framework.imps.BackgroundSyncImpl, 0, 0, 0, 0, 0, 0, 0, 0, 0, 0, 0, 0, 0, 0,0.0,0.0,0.3333333333333333,0.6666666666666666,0.0,0.0,0.0,0.6666666666666666,0.0,0.0,0.0,0.0,0.0,30,curator-framework\src\main\java\org\apache\curator\framework\imps\BackgroundSyncImpl.java,0,0,0,0
org.apache.curator.framework.imps.Backgrounding, 0, 0, 0, 0, 0, 0, 0, 0, 0, 0, 0, 0, 0, 0,0.0,0.0,0.1,0.2,0.0,0.0,0.0,0.1,0.0,0.0,0.0,0.0,0.0,88,curator-framework\src\main\java\org\apache\curator\framework\imps\Backgrounding.java,0,0,0,0
org.apache.curator.framework.imps.CreateBuilderImpl, 0, 0, 0, 1, 0, 0, 0, 1, 0, 0, 0, 0, 0, 2,0.0,0.0,0.08333333333333333,0.16666666666666666,0.0,0.0,0.0,0.25,0.0,0.0,0.0,0.0,0.0,689,curator-framework\src\main\java\org\apache\curator\framework\imps\CreateBuilderImpl.java,0,0,1,2
org.apache.curator.framework.imps.CuratorEventImpl, 0, 0, 0, 0, 0, 0, 0, 1, 0, 0, 0, 0, 0, 1,0.0,0.0,0.3333333333333333,0.6666666666666666,0.0,0.3333333333333333,0.0,0.3333333333333333,0.0,0.0,0.0,0.0,0.0,92,curator-framework\src\main\java\org\apache\curator\framework\imps\CuratorEventImpl.java,0,0,0,0
org.apache.curator.framework.imps.CuratorFrameworkImpl, 0, 0, 1, 1, 0, 0, 0, 0, 0, 0, 0, 0, 0, 2,0.0,0.0,0.0,0.06451612903225806,0.0,0.03225806451612903,0.0,0.12903225806451613,0.0,0.0,0.0,0.0,0.0,703,curator-framework\src\main\java\org\apache\curator\framework\imps\CuratorFrameworkImpl.java,22,14,10,56
org.apache.curator.framework.imps.CuratorMultiTransactionRecord, 0, 0, 0, 0, 0, 0, 0, 0, 0, 0, 0, 0, 0, 0,0.0,0.0,0.0,0.25,0.0,0.0,0.0,0.25,0.0,0.0,0.0,0.0,0.0,32,curator-framework\src\main\java\org\apache\curator\framework\imps\CuratorMultiTransactionRecord.java,0,0,0,0
org.apache.curator.framework.imps.CuratorTempFrameworkImpl, 0, 0, 0, 0, 0, 0, 0, 0, 0, 0, 0, 0, 0, 0,0.0,0.0,0.2,0.2,0.0,0.0,0.0,0.0,0.0,0.0,0.0,0.0,0.0,89,curator-framework\src\main\java\org\apache\curator\framework\imps\CuratorTempFrameworkImpl.java,0,6,1,8
org.apache.curator.framework.imps.CuratorTransactionImpl, 0, 0, 0, 0, 0, 0, 0, 0, 0, 0, 0, 0, 0, 0,0.0,0.0,0.125,0.25,0.0,0.0,0.0,0.125,0.0,0.0,0.0,0.0,0.0,136,curator-framework\src\main\java\org\apache\curator\framework\imps\CuratorTransactionImpl.java,0,0,0,0
org.apache.curator.framework.imps.DefaultACLProvider, 0, 0, 0, 0, 0, 0, 0, 0, 0, 0, 0, 0, 0, 0,0.0,0.0,0.0,0.0,0.0,0.0,0.0,0.0,0.0,0.0,0.0,0.0,0.0,13,curator-framework\src\main\java\org\apache\curator\framework\imps\DefaultACLProvider.java,0,0,0,0
org.apache.curator.framework.imps.DeleteBuilderImpl, 0, 0, 0, 0, 0, 0, 0, 0, 0, 0, 0, 0, 0, 0,0.0,0.0,0.1111111111111111,0.2222222222222222,0.0,0.0,0.0,0.2222222222222222,0.0,0.0,0.0,0.0,0.0,202,curator-framework\src\main\java\org\apache\curator\framework\imps\DeleteBuilderImpl.java,0,0,0,0
org.apache.curator.framework.imps.ExistsBuilderImpl, 0, 0, 0, 0, 0, 0, 0, 0, 0, 0, 0, 0, 0, 0,0.0,0.0,0.14285714285714285,0.2857142857142857,0.0,0.0,0.0,0.2857142857142857,0.0,0.0,0.0,0.0,0.0,131,curator-framework\src\main\java\org\apache\curator\framework\imps\ExistsBuilderImpl.java,0,0,0,0
org.apache.curator.framework.imps.FailedDeleteManager, 0, 0, 0, 0, 0, 0, 0, 0, 0, 0, 0, 0, 0, 0,0.0,0.0,0.3333333333333333,0.3333333333333333,0.0,0.0,0.0,0.0,0.0,0.0,0.0,0.0,0.0,33,curator-framework\src\main\java\org\apache\curator\framework\imps\FailedDeleteManager.java,0,0,0,0
org.apache.curator.framework.imps.GetACLBuilderImpl, 0, 0, 0, 0, 0, 0, 0, 0, 0, 0, 0, 0, 0, 0,0.0,0.0,0.16666666666666666,0.3333333333333333,0.0,0.0,0.0,0.3333333333333333,0.0,0.0,0.0,0.0,0.0,103,curator-framework\src\main\java\org\apache\curator\framework\imps\GetACLBuilderImpl.java,0,0,0,0
org.apache.curator.framework.imps.GetChildrenBuilderImpl, 0, 0, 0, 0, 0, 0, 0, 0, 0, 0, 0, 0, 0, 0,0.0,0.0,0.14285714285714285,0.2857142857142857,0.0,0.0,0.0,0.2857142857142857,0.0,0.0,0.0,0.0,0.0,168,curator-framework\src\main\java\org\apache\curator\framework\imps\GetChildrenBuilderImpl.java,0,0,0,0
org.apache.curator.framework.imps.GetDataBuilderImpl, 0, 0, 0, 0, 0, 0, 0, 0, 0, 0, 0, 0, 0, 0,0.0,0.0,0.14285714285714285,0.2857142857142857,0.0,0.0,0.0,0.2857142857142857,0.0,0.0,0.0,0.0,0.0,242,curator-framework\src\main\java\org\apache\curator\framework\imps\GetDataBuilderImpl.java,0,0,0,0
org.apache.curator.framework.imps.GzipCompressionProvider, 0, 0, 0, 0, 0, 0, 0, 0, 0, 0, 0, 0, 0, 0,0.0,0.0,0.0,0.0,0.0,0.0,0.0,0.0,0.0,0.0,0.0,0.0,0.0,29,curator-framework\src\main\java\org\apache\curator\framework\imps\GzipCompressionProvider.java,0,0,0,0
org.apache.curator.framework.imps.NamespaceFacade, 0, 0, 0, 0, 0, 0, 0, 0, 0, 0, 0, 0, 0, 0,0.0,0.0,0.25,0.25,0.0,0.0,0.0,0.0,0.0,0.0,0.0,0.0,0.0,102,curator-framework\src\main\java\org\apache\curator\framework\imps\NamespaceFacade.java,0,5,1,7
org.apache.curator.framework.imps.NamespaceFacadeCache, 0, 0, 0, 0, 0, 0, 0, 0, 0, 0, 0, 0, 0, 0,0.0,0.0,0.5,0.5,0.0,0.0,0.0,0.0,0.0,0.0,0.0,0.0,0.0,32,curator-framework\src\main\java\org\apache\curator\framework\imps\NamespaceFacadeCache.java,0,0,0,0
org.apache.curator.framework.imps.NamespaceImpl, 0, 0, 0, 0, 0, 0, 0, 0, 0, 0, 0, 0, 0, 0,0.0,0.0,0.25,0.25,0.0,0.0,0.0,0.0,0.0,0.0,0.0,0.0,0.0,58,curator-framework\src\main\java\org\apache\curator\framework\imps\NamespaceImpl.java,0,0,3,6
org.apache.curator.framework.imps.NamespaceWatchedEvent, 0, 0, 0, 0, 0, 1, 0, 0, 0, 0, 0, 0, 0, 1,0.0,0.0,0.3333333333333333,0.3333333333333333,0.0,0.0,0.0,0.3333333333333333,0.0,0.0,0.0,0.0,0.0,7,curator-framework\src\main\java\org\apache\curator\framework\imps\NamespaceWatchedEvent.java,0,0,0,0
org.apache.curator.framework.imps.NamespaceWatcher, 0, 0, 0, 0, 0, 0, 0, 0, 0, 0, 0, 0, 0, 0,0.0,0.0,0.3333333333333333,0.3333333333333333,0.0,0.3333333333333333,0.0,0.0,0.0,0.0,0.0,0.0,0.0,47,curator-framework\src\main\java\org\apache\curator\framework\imps\NamespaceWatcher.java,0,0,0,0
org.apache.curator.framework.imps.NamespaceWatcherMap, 0, 0, 0, 0, 0, 0, 0, 0, 0, 0, 0, 0, 0, 0,0.0,0.0,0.25,0.25,0.0,0.0,0.0,0.0,0.0,0.0,0.0,0.0,0.0,56,curator-framework\src\main\java\org\apache\curator\framework\imps\NamespaceWatcherMap.java,0,0,0,0
org.apache.curator.framework.imps.OperationAndData, 0, 0, 0, 0, 0, 0, 0, 1, 0, 0, 0, 0, 0, 1,0.0,0.0,0.09090909090909091,0.18181818181818182,0.0,0.0,0.0,0.09090909090909091,0.0,0.0,0.0,0.0,0.0,85,curator-framework\src\main\java\org\apache\curator\framework\imps\OperationAndData.java,0,0,0,0
org.apache.curator.framework.imps.PathAndBytes, 0, 0, 0, 0, 0, 0, 0, 0, 0, 0, 0, 0, 0, 0,0.0,0.0,0.0,0.5,0.0,0.0,0.0,0.5,0.0,0.0,0.0,0.0,0.0,18,curator-framework\src\main\java\org\apache\curator\framework\imps\PathAndBytes.java,0,0,0,0
org.apache.curator.framework.imps.SetACLBuilderImpl, 0, 0, 0, 0, 0, 0, 0, 0, 0, 0, 0, 0, 0, 0,0.0,0.0,0.14285714285714285,0.2857142857142857,0.0,0.0,0.0,0.2857142857142857,0.0,0.0,0.0,0.0,0.0,119,curator-framework\src\main\java\org\apache\curator\framework\imps\SetACLBuilderImpl.java,0,0,0,0
org.apache.curator.framework.imps.SetDataBuilderImpl, 0, 0, 0, 0, 0, 0, 0, 0, 0, 0, 0, 0, 0, 0,0.0,0.0,0.1111111111111111,0.2222222222222222,0.0,0.0,0.0,0.2222222222222222,0.0,0.0,0.0,0.0,0.0,211,curator-framework\src\main\java\org\apache\curator\framework\imps\SetDataBuilderImpl.java,0,0,0,0
org.apache.curator.framework.imps.SyncBuilderImpl, 0, 0, 0, 0, 0, 0, 0, 0, 0, 0, 0, 0, 0, 0,0.0,0.0,0.25,0.5,0.0,0.0,0.0,0.5,0.0,0.0,0.0,0.0,0.0,69,curator-framework\src\main\java\org\apache\curator\framework\imps\SyncBuilderImpl.java,0,0,0,0
org.apache.curator.framework.imps.TempGetDataBuilderImpl, 0, 0, 0, 0, 0, 0, 0, 0, 0, 0, 0, 0, 0, 0,0.0,0.0,0.2,0.4,0.0,0.0,0.0,0.2,0.0,0.0,0.0,0.0,0.0,44,curator-framework\src\main\java\org\apache\curator\framework\imps\TempGetDataBuilderImpl.java,0,0,0,0
org.apache.curator.framework.imps.TestBlockUntilConnected, 0, 0, 0, 0, 0, 0, 0, 0, 0, 0, 0, 0, 0, 0,0.0,0.0,0.0,0.0,0.0,0.16666666666666666,0.0,0.0,0.0,0.0,0.0,0.0,0.0,151,curator-framework\src\test\java\org\apache\curator\framework\imps\TestBlockUntilConnected.java,0,0,0,0
org.apache.curator.framework.imps.TestCompression, 0, 0, 0, 0, 0, 0, 0, 0, 0, 0, 0, 0, 0, 0,0.0,0.0,0.0,0.0,0.0,0.2,0.0,0.0,0.0,0.0,0.0,0.0,0.0,83,curator-framework\src\test\java\org\apache\curator\framework\imps\TestCompression.java,0,0,0,0
org.apache.curator.framework.imps.TestCompressionInTransaction, 0, 0, 0, 0, 0, 0, 0, 0, 0, 0, 0, 0, 0, 0,0.0,0.0,0.0,0.0,0.0,0.2,0.0,0.0,0.0,0.0,0.0,0.0,0.0,93,curator-framework\src\test\java\org\apache\curator\framework\imps\TestCompressionInTransaction.java,0,0,0,0
org.apache.curator.framework.imps.TestFailedDeleteManager, 0, 0, 0, 0, 0, 0, 0, 0, 0, 0, 0, 0, 0, 0,0.0,0.0,0.125,0.125,0.0,0.125,0.0,0.0,0.0,0.0,0.0,0.0,0.0,272,curator-framework\src\test\java\org\apache\curator\framework\imps\TestFailedDeleteManager.java,0,0,0,0
org.apache.curator.framework.imps.TestFramework, 0, 0, 0, 0, 0, 0, 0, 0, 0, 0, 0, 0, 0, 0,0.0,0.0,0.0,0.125,0.0,0.125,0.0,0.125,0.0,0.0,0.0,0.0,0.0,655,curator-framework\src\test\java\org\apache\curator\framework\imps\TestFramework.java,0,99,3,105
org.apache.curator.framework.imps.TestFrameworkBackground, 0, 0, 0, 0, 0, 0, 0, 0, 0, 0, 0, 0, 0, 0,0.0,0.0,0.0,0.125,0.0,0.125,0.0,0.125,0.0,0.0,0.0,0.0,0.0,198,curator-framework\src\test\java\org\apache\curator\framework\imps\TestFrameworkBackground.java,0,0,0,0
org.apache.curator.framework.imps.TestFrameworkEdges, 0, 0, 0, 0, 0, 0, 0, 0, 0, 0, 0, 0, 0, 0,0.0,0.0,0.0,0.2222222222222222,0.0,0.1111111111111111,0.0,0.2222222222222222,0.0,0.0,0.0,0.0,0.0,352,curator-framework\src\test\java\org\apache\curator\framework\imps\TestFrameworkEdges.java,0,0,0,0
org.apache.curator.framework.imps.TestMultiClient, 0, 0, 0, 0, 0, 0, 0, 0, 0, 0, 0, 0, 0, 0,0.0,0.0,0.0,0.0,0.0,0.2,0.0,0.0,0.0,0.0,0.0,0.0,0.0,60,curator-framework\src\test\java\org\apache\curator\framework\imps\TestMultiClient.java,0,0,0,0
org.apache.curator.framework.imps.TestNamespaceFacade, 0, 0, 0, 0, 0, 0, 0, 0, 0, 0, 0, 0, 0, 0,0.0,0.0,0.0,0.16666666666666666,0.0,0.16666666666666666,0.0,0.16666666666666666,0.0,0.0,0.0,0.0,0.0,161,curator-framework\src\test\java\org\apache\curator\framework\imps\TestNamespaceFacade.java,0,0,0,0
org.apache.curator.framework.imps.TestNeverConnected, 0, 0, 0, 0, 0, 0, 0, 0, 0, 0, 0, 0, 0, 0,0.0,0.0,0.0,0.0,0.0,0.25,0.0,0.0,0.0,0.0,0.0,0.0,0.0,32,curator-framework\src\test\java\org\apache\curator\framework\imps\TestNeverConnected.java,0,0,0,0
org.apache.curator.framework.imps.TestReadOnly, 0, 0, 0, 0, 0, 0, 0, 0, 0, 0, 0, 0, 0, 0,0.0,0.0,0.0,0.25,0.0,0.125,0.0,0.25,0.0,0.0,0.0,0.0,0.0,112,curator-framework\src\test\java\org\apache\curator\framework\imps\TestReadOnly.java,0,0,0,0
org.apache.curator.framework.imps.TestTempFramework, 0, 0, 0, 0, 0, 0, 0, 0, 0, 0, 0, 0, 0, 0,0.0,0.0,0.0,0.0,0.0,0.16666666666666666,0.0,0.0,0.0,0.0,0.0,0.0,0.0,45,curator-framework\src\test\java\org\apache\curator\framework\imps\TestTempFramework.java,0,0,0,0
org.apache.curator.framework.imps.TestTransactions, 0, 0, 0, 0, 0, 0, 0, 0, 0, 0, 0, 0, 0, 0,0.0,0.0,0.0,0.0,0.0,0.2,0.0,0.0,0.0,0.0,0.0,0.0,0.0,95,curator-framework\src\test\java\org\apache\curator\framework\imps\TestTransactions.java,0,0,0,0
org.apache.curator.framework.imps.TestWatcherIdentity, 0, 0, 0, 0, 0, 0, 0, 0, 0, 0, 0, 0, 0, 0,0.0,0.0,0.125,0.125,0.0,0.125,0.0,0.0,0.0,0.0,0.0,0.0,0.0,126,curator-framework\src\test\java\org\apache\curator\framework\imps\TestWatcherIdentity.java,0,0,0,0
org.apache.curator.framework.imps.TestWithCluster, 0, 0, 0, 0, 0, 0, 0, 0, 0, 0, 0, 0, 0, 0,0.0,0.0,0.0,0.2857142857142857,0.0,0.14285714285714285,0.0,0.2857142857142857,0.0,0.0,0.0,0.0,0.0,82,curator-framework\src\test\java\org\apache\curator\framework\imps\TestWithCluster.java,0,0,0,0
org.apache.curator.framework.imps.Watching, 0, 0, 0, 0, 0, 0, 0, 0, 0, 0, 0, 0, 0, 0,0.0,0.0,0.2,0.2,0.0,0.0,0.0,0.0,0.0,0.0,0.0,0.0,0.0,33,curator-framework\src\main\java\org\apache\curator\framework\imps\Watching.java,0,0,0,0
org.apache.curator.framework.listen.Listenable, 0, 0, 0, 0, 0, 0, 0, 0, 0, 0, 0, 0, 0, 0,0.0,0.0,0.0,0.0,0.0,0.0,0.0,0.0,0.0,0.0,0.0,0.0,0.0,33,curator-framework\src\main\java\org\apache\curator\framework\listen\Listenable.java,0,0,0,0
org.apache.curator.framework.listen.ListenerEntry, 0, 0, 0, 0, 0, 0, 0, 0, 0, 0, 0, 0, 0, 0,0.0,0.0,0.0,0.0,0.0,0.0,0.0,0.0,0.0,0.0,0.0,0.0,0.0,10,curator-framework\src\main\java\org\apache\curator\framework\listen\ListenerEntry.java,0,0,0,0
org.apache.curator.framework.recipes.AfterConnectionEstablished, 0, 0, 0, 0, 0, 0, 0, 0, 0, 0, 0, 0, 0, 0,0.0,0.0,0.0,0.5,0.0,0.0,0.0,0.0,0.0,0.0,0.0,0.0,0.0,32,curator-recipes\src\main\java\org\apache\curator\framework\recipes\AfterConnectionEstablished.java,0,0,0,0
org.apache.curator.framework.recipes.atomic.AtomicStats, 0, 0, 0, 0, 0, 0, 0, 0, 0, 0, 0, 0, 0, 0,0.0,0.0,0.0,0.0,0.0,0.0,0.0,0.5,0.0,0.0,0.0,0.0,0.0,39,curator-recipes\src\main\java\org\apache\curator\framework\recipes\atomic\AtomicStats.java,0,0,0,0
org.apache.curator.framework.recipes.atomic.AtomicValue, 0, 0, 0, 0, 0, 0, 0, 0, 0, 0, 0, 0, 0, 0,0.0,0.0,0.0,0.0,0.0,0.0,0.0,0.0,0.0,0.0,0.0,0.0,0.0,39,curator-recipes\src\main\java\org\apache\curator\framework\recipes\atomic\AtomicValue.java,0,0,0,0
org.apache.curator.framework.recipes.atomic.CachedAtomicInteger, 0, 0, 0, 0, 0, 0, 0, 0, 0, 0, 0, 0, 0, 0,0.0,0.0,0.0,0.0,0.0,0.0,0.0,0.0,0.0,0.0,0.0,0.0,0.0,35,curator-recipes\src\main\java\org\apache\curator\framework\recipes\atomic\CachedAtomicInteger.java,0,0,0,0
org.apache.curator.framework.recipes.atomic.CachedAtomicLong, 0, 0, 0, 0, 0, 0, 0, 0, 0, 0, 0, 0, 0, 0,0.0,0.0,0.0,0.0,0.0,0.0,0.0,0.0,0.0,0.0,0.0,0.0,0.0,35,curator-recipes\src\main\java\org\apache\curator\framework\recipes\atomic\CachedAtomicLong.java,0,0,0,0
org.apache.curator.framework.recipes.atomic.DistributedAtomicInteger, 0, 0, 0, 0, 0, 0, 0, 0, 0, 0, 0, 0, 0, 0,0.0,0.0,0.0,0.0,0.0,0.0,0.0,0.0,0.0,0.0,0.0,0.0,0.0,131,curator-recipes\src\main\java\org\apache\curator\framework\recipes\atomic\DistributedAtomicInteger.java,0,0,0,0
org.apache.curator.framework.recipes.atomic.DistributedAtomicLong, 0, 0, 0, 0, 0, 0, 0, 0, 0, 0, 0, 0, 0, 0,0.0,0.0,0.0,0.0,0.0,0.0,0.0,0.25,0.0,0.0,0.0,0.0,0.0,131,curator-recipes\src\main\java\org\apache\curator\framework\recipes\atomic\DistributedAtomicLong.java,0,0,0,0
org.apache.curator.framework.recipes.atomic.DistributedAtomicNumber, 0, 0, 0, 0, 0, 0, 0, 0, 0, 0, 0, 0, 0, 0,0.0,0.0,0.0,0.0,0.0,0.0,0.0,0.0,0.0,0.0,0.0,0.0,0.0,131,curator-recipes\src\main\java\org\apache\curator\framework\recipes\atomic\DistributedAtomicNumber.java,0,0,0,0
org.apache.curator.framework.recipes.atomic.MakeValue, 0, 0, 0, 0, 0, 0, 0, 0, 0, 0, 0, 0, 0, 0,0.0,0.0,0.0,0.0,0.0,0.0,0.0,0.0,0.0,0.0,0.0,0.0,0.0,131,curator-recipes\src\main\java\org\apache\curator\framework\recipes\atomic\MakeValue.java,0,0,0,0
org.apache.curator.framework.recipes.atomic.MutableAtomicValue, 0, 0, 0, 0, 0, 0, 0, 0, 0, 0, 0, 0, 0, 0,0.0,0.0,0.0,0.0,0.0,0.0,0.0,0.0,0.0,0.0,0.0,0.0,0.0,37,curator-recipes\src\main\java\org\apache\curator\framework\recipes\atomic\MutableAtomicValue.java,0,0,0,0
org.apache.curator.framework.recipes.atomic.PromotedToLock, 0, 0, 0, 0, 0, 0, 0, 0, 0, 0, 0, 0, 0, 0,0.0,0.0,0.0,0.0,0.0,0.0,0.0,0.3333333333333333,0.0,0.0,0.0,0.0,0.0,62,curator-recipes\src\main\java\org\apache\curator\framework\recipes\atomic\PromotedToLock.java,0,0,0,0
org.apache.curator.framework.recipes.atomic.TestCachedAtomicCounter, 0, 0, 0, 0, 0, 0, 0, 0, 0, 0, 0, 0, 0, 0,0.0,0.0,0.0,0.0,0.0,0.14285714285714285,0.0,0.0,0.0,0.0,0.0,0.0,0.0,99,curator-recipes\src\test\java\org\apache\curator\framework\recipes\atomic\TestCachedAtomicCounter.java,0,0,0,0
org.apache.curator.framework.recipes.atomic.TestDistributedAtomicLong, 0, 0, 0, 0, 0, 0, 0, 1, 0, 0, 0, 0, 0, 1,0.0,0.0,0.0,0.0,0.0,0.1111111111111111,0.0,0.0,0.0,0.0,0.0,0.0,0.0,259,curator-recipes\src\test\java\org\apache\curator\framework\recipes\atomic\TestDistributedAtomicLong.java,0,0,0,0
org.apache.curator.framework.recipes.barriers.DistributedBarrier, 0, 0, 0, 0, 0, 0, 0, 0, 0, 0, 0, 0, 0, 0,0.0,0.0,0.0,0.0,0.0,0.0,0.0,0.0,0.0,0.0,0.0,0.0,0.0,76,curator-recipes\src\main\java\org\apache\curator\framework\recipes\barriers\DistributedBarrier.java,0,0,0,0
org.apache.curator.framework.recipes.barriers.TestDistributedBarrier, 0, 0, 0, 0, 0, 0, 0, 0, 0, 0, 0, 0, 0, 0,0.0,0.0,0.0,0.0,0.0,0.16666666666666666,0.0,0.0,0.0,0.0,0.0,0.0,0.0,165,curator-recipes\src\test\java\org\apache\curator\framework\recipes\barriers\TestDistributedBarrier.java,0,0,0,0
org.apache.curator.framework.recipes.barriers.TestDistributedDoubleBarrier, 0, 0, 0, 0, 0, 0, 0, 0, 0, 0, 0, 0, 0, 0,0.0,0.0,0.0,0.0,0.0,0.16666666666666666,0.0,0.0,0.0,0.0,0.0,0.0,0.0,176,curator-recipes\src\test\java\org\apache\curator\framework\recipes\barriers\TestDistributedDoubleBarrier.java,0,0,0,0
org.apache.curator.framework.recipes.cache.BaseTestTreeCache, 0, 0, 0, 0, 0, 0, 0, 0, 0, 0, 0, 0, 0, 0,0.0,0.0,0.0,0.0,0.0,0.1111111111111111,0.0,0.0,0.0,0.0,0.0,0.0,0.0,111,curator-recipes\src\test\java\org\apache\curator\framework\recipes\cache\BaseTestTreeCache.java,0,0,0,0
org.apache.curator.framework.recipes.cache.ChildData, 0, 0, 0, 0, 0, 0, 0, 0, 0, 0, 0, 0, 0, 0,0.0,0.0,0.1,0.1,0.0,0.0,0.0,0.0,0.0,0.0,0.0,0.0,0.0,85,curator-recipes\src\main\java\org\apache\curator\framework\recipes\cache\ChildData.java,0,0,0,0
org.apache.curator.framework.recipes.cache.EventOperation, 0, 0, 0, 0, 0, 0, 0, 0, 0, 0, 0, 0, 0, 0,0.0,0.0,0.0,0.0,0.0,0.0,0.0,0.0,0.0,0.0,0.0,0.0,0.0,22,curator-recipes\src\main\java\org\apache\curator\framework\recipes\cache\EventOperation.java,0,0,0,0
org.apache.curator.framework.recipes.cache.GetDataOperation, 0, 0, 0, 0, 0, 0, 0, 0, 0, 0, 0, 0, 0, 0,0.0,0.0,0.0,0.0,0.0,0.0,0.0,0.0,0.0,0.0,0.0,0.0,0.0,45,curator-recipes\src\main\java\org\apache\curator\framework\recipes\cache\GetDataOperation.java,0,0,0,0
org.apache.curator.framework.recipes.cache.NodeCache, 0, 0, 0, 1, 0, 0, 0, 0, 0, 0, 0, 0, 0, 1,0.0,0.0,0.0,0.2,0.0,0.0,0.0,0.2,0.0,0.0,0.0,0.0,0.0,202,curator-recipes\src\main\java\org\apache\curator\framework\recipes\cache\NodeCache.java,0,0,0,0
org.apache.curator.framework.recipes.cache.NodeCacheListener, 0, 0, 0, 0, 0, 0, 0, 0, 0, 0, 0, 0, 0, 0,0.0,0.0,0.0,0.0,0.0,0.0,0.0,0.0,0.0,0.0,0.0,0.0,0.0,202,curator-recipes\src\main\java\org\apache\curator\framework\recipes\cache\NodeCacheListener.java,0,0,0,0
org.apache.curator.framework.recipes.cache.Operation, 0, 0, 0, 0, 0, 0, 0, 0, 0, 0, 0, 0, 0, 0,0.0,0.0,0.0,0.0,0.0,0.0,0.0,0.0,0.0,0.0,0.0,0.0,0.0,202,curator-recipes\src\main\java\org\apache\curator\framework\recipes\cache\Operation.java,0,0,0,0
org.apache.curator.framework.recipes.cache.PathChildrenCacheEvent, 0, 0, 0, 0, 0, 0, 0, 0, 0, 0, 0, 0, 0, 0,0.0,0.0,0.2,0.0,0.0,0.0,0.0,0.0,0.0,0.0,0.0,0.0,0.0,40,curator-recipes\src\main\java\org\apache\curator\framework\recipes\cache\PathChildrenCacheEvent.java,0,0,0,0
org.apache.curator.framework.recipes.cache.PathChildrenCacheListener, 0, 0, 0, 0, 0, 0, 0, 0, 0, 0, 0, 0, 0, 0,0.0,0.0,0.0,0.0,0.0,0.0,0.0,0.0,0.0,0.0,0.0,0.0,0.0,40,curator-recipes\src\main\java\org\apache\curator\framework\recipes\cache\PathChildrenCacheListener.java,0,0,0,0
org.apache.curator.framework.recipes.cache.RefreshOperation, 0, 0, 0, 0, 0, 0, 0, 0, 0, 0, 0, 0, 0, 0,0.0,0.0,0.0,0.0,0.0,0.0,0.0,0.0,0.0,0.0,0.0,0.0,0.0,43,curator-recipes\src\main\java\org\apache\curator\framework\recipes\cache\RefreshOperation.java,0,0,0,0
org.apache.curator.framework.recipes.cache.TestNodeCache, 0, 0, 0, 0, 0, 0, 0, 0, 0, 0, 0, 0, 0, 0,0.0,0.0,0.0,0.2,0.0,0.1,0.0,0.1,0.0,0.0,0.0,0.0,0.0,189,curator-recipes\src\test\java\org\apache\curator\framework\recipes\cache\TestNodeCache.java,0,0,0,0
org.apache.curator.framework.recipes.cache.TestPathChildrenCache, 0, 0, 0, 0, 0, 0, 0, 0, 0, 0, 0, 0, 0, 0,0.0,0.0,0.0,0.09090909090909091,0.0,0.09090909090909091,0.0,0.09090909090909091,0.0,0.0,0.0,0.0,0.0,955,curator-recipes\src\test\java\org\apache\curator\framework\recipes\cache\TestPathChildrenCache.java,0,0,0,0
org.apache.curator.framework.recipes.cache.TestPathChildrenCacheInCluster, 0, 0, 0, 0, 0, 0, 0, 0, 0, 0, 0, 0, 0, 0,0.0,0.0,0.0,0.2,0.0,0.2,0.0,0.2,0.0,0.0,0.0,0.0,0.0,59,curator-recipes\src\test\java\org\apache\curator\framework\recipes\cache\TestPathChildrenCacheInCluster.java,0,0,0,0
org.apache.curator.framework.recipes.cache.TestTreeCache, 0, 0, 0, 0, 0, 0, 0, 0, 0, 0, 0, 0, 0, 0,0.0,0.0,0.0,0.16666666666666666,0.0,0.0,0.0,0.16666666666666666,0.0,0.0,0.0,0.0,0.0,356,curator-recipes\src\test\java\org\apache\curator\framework\recipes\cache\TestTreeCache.java,0,12,0,12
org.apache.curator.framework.recipes.cache.TreeCacheEvent, 0, 0, 0, 0, 0, 0, 0, 0, 0, 0, 0, 0, 0, 0,0.0,0.0,0.0,0.0,0.0,0.0,0.0,0.0,0.0,0.0,0.0,0.0,0.0,36,curator-recipes\src\main\java\org\apache\curator\framework\recipes\cache\TreeCacheEvent.java,0,0,0,0
org.apache.curator.framework.recipes.cache.TreeCacheListener, 0, 0, 0, 0, 0, 0, 0, 0, 0, 0, 0, 0, 0, 0,0.0,0.0,0.0,0.0,0.0,0.0,0.0,0.0,0.0,0.0,0.0,0.0,0.0,36,curator-recipes\src\main\java\org\apache\curator\framework\recipes\cache\TreeCacheListener.java,0,0,0,0
org.apache.curator.framework.recipes.leader.CancelLeadershipException, 0, 0, 0, 0, 0, 0, 0, 0, 0, 0, 0, 0, 0, 0,0.0,0.0,0.0,0.0,0.0,0.0,0.0,0.0,0.0,0.0,0.0,0.0,0.0,18,curator-recipes\src\main\java\org\apache\curator\framework\recipes\leader\CancelLeadershipException.java,0,0,0,0
org.apache.curator.framework.recipes.leader.ChaosMonkeyCnxnFactory, 0, 0, 0, 0, 0, 0, 0, 0, 0, 0, 0, 0, 0, 0,0.0,0.0,0.0,0.0,0.0,0.0,0.0,0.0,0.0,0.0,0.0,0.0,0.0,66,curator-recipes\src\test\java\org\apache\curator\framework\recipes\leader\ChaosMonkeyCnxnFactory.java,0,0,0,0
org.apache.curator.framework.recipes.leader.LeaderLatch, 0, 0, 0, 1, 0, 0, 0, 0, 0, 0, 0, 0, 0, 1,0.0,0.0,0.0,0.2857142857142857,0.0,0.0,0.0,0.2857142857142857,0.0,0.0,0.0,0.0,0.0,369,curator-recipes\src\main\java\org\apache\curator\framework\recipes\leader\LeaderLatch.java,0,0,0,0
org.apache.curator.framework.recipes.leader.LeaderLatchListener, 0, 0, 0, 0, 0, 0, 0, 0, 0, 0, 0, 0, 0, 0,0.0,0.0,0.0,0.0,0.0,0.0,0.0,0.0,0.0,0.0,0.0,0.0,0.0,369,curator-recipes\src\main\java\org\apache\curator\framework\recipes\leader\LeaderLatchListener.java,0,0,0,0
org.apache.curator.framework.recipes.leader.LeaderSelector, 0, 0, 0, 1, 0, 0, 0, 1, 0, 0, 0, 0, 0, 2,0.0,0.0,0.0,0.09090909090909091,0.0,0.0,0.0,0.0,0.0,0.0,0.0,0.0,0.0,340,curator-recipes\src\main\java\org\apache\curator\framework\recipes\leader\LeaderSelector.java,0,0,0,0
org.apache.curator.framework.recipes.leader.LeaderSelectorListener, 0, 0, 0, 0, 0, 0, 0, 0, 0, 0, 0, 0, 0, 0,0.0,0.0,0.0,0.0,0.0,0.0,0.0,0.0,0.0,0.0,0.0,0.0,0.0,340,curator-recipes\src\main\java\org\apache\curator\framework\recipes\leader\LeaderSelectorListener.java,0,0,0,0
org.apache.curator.framework.recipes.leader.LeaderSelectorListenerAdapter, 0, 0, 0, 0, 0, 0, 0, 0, 0, 0, 0, 0, 0, 0,0.0,0.0,0.0,0.0,0.0,0.0,0.0,0.0,0.0,0.0,0.0,0.0,0.0,11,curator-recipes\src\main\java\org\apache\curator\framework\recipes\leader\LeaderSelectorListenerAdapter.java,0,0,0,0
org.apache.curator.framework.recipes.leader.Participant, 0, 0, 0, 0, 0, 0, 0, 0, 0, 0, 0, 0, 0, 0,0.0,0.0,0.0,0.6666666666666666,0.0,0.0,0.0,0.3333333333333333,0.0,0.0,0.0,0.0,0.0,59,curator-recipes\src\main\java\org\apache\curator\framework\recipes\leader\Participant.java,0,0,0,0
org.apache.curator.framework.recipes.leader.TestLeaderLatch, 0, 0, 0, 0, 0, 0, 0, 0, 0, 0, 0, 0, 0, 0,0.0,0.0,0.0,0.125,0.0,0.125,0.0,0.0,0.0,0.0,0.0,0.0,0.0,591,curator-recipes\src\test\java\org\apache\curator\framework\recipes\leader\TestLeaderLatch.java,0,0,0,0
org.apache.curator.framework.recipes.leader.TestLeaderLatchCluster, 0, 0, 0, 0, 0, 0, 0, 0, 0, 0, 0, 0, 0, 0,0.0,0.0,0.0,0.2,0.0,0.0,0.0,0.0,0.0,0.0,0.0,0.0,0.0,78,curator-recipes\src\test\java\org\apache\curator\framework\recipes\leader\TestLeaderLatchCluster.java,0,0,0,0
org.apache.curator.framework.recipes.leader.TestLeaderSelector, 0, 0, 0, 0, 0, 0, 0, 0, 0, 0, 0, 0, 0, 0,0.0,0.0,0.0,0.2222222222222222,0.0,0.1111111111111111,0.0,0.2222222222222222,0.0,0.0,0.0,0.0,0.0,511,curator-recipes\src\test\java\org\apache\curator\framework\recipes\leader\TestLeaderSelector.java,0,0,0,0
org.apache.curator.framework.recipes.leader.TestLeaderSelectorCluster, 0, 0, 0, 0, 0, 0, 0, 0, 0, 0, 0, 0, 0, 0,0.0,0.0,0.0,0.3333333333333333,0.0,0.16666666666666666,0.0,0.3333333333333333,0.0,0.0,0.0,0.0,0.0,129,curator-recipes\src\test\java\org\apache\curator\framework\recipes\leader\TestLeaderSelectorCluster.java,0,0,0,0
org.apache.curator.framework.recipes.leader.TestLeaderSelectorEdges, 0, 0, 0, 0, 0, 0, 0, 0, 0, 0, 0, 0, 0, 0,0.0,0.0,0.0,0.2,0.0,0.0,0.0,0.2,0.0,0.0,0.0,0.0,0.0,175,curator-recipes\src\test\java\org\apache\curator\framework\recipes\leader\TestLeaderSelectorEdges.java,0,0,0,0
org.apache.curator.framework.recipes.leader.TestLeaderSelectorParticipants, 0, 0, 0, 0, 0, 0, 0, 0, 0, 0, 0, 0, 0, 0,0.0,0.0,0.0,0.14285714285714285,0.0,0.14285714285714285,0.0,0.14285714285714285,0.0,0.0,0.0,0.0,0.0,121,curator-recipes\src\test\java\org\apache\curator\framework\recipes\leader\TestLeaderSelectorParticipants.java,0,0,0,0
org.apache.curator.framework.recipes.leader.TestLeaderSelectorWithExecutor, 0, 0, 0, 0, 0, 0, 0, 0, 0, 0, 0, 0, 0, 0,0.0,0.0,0.0,0.14285714285714285,0.0,0.0,0.0,0.14285714285714285,0.0,0.0,0.0,0.0,0.0,73,curator-recipes\src\test\java\org\apache\curator\framework\recipes\leader\TestLeaderSelectorWithExecutor.java,0,0,0,0
org.apache.curator.framework.recipes.locks.ChildReaper, 0, 0, 0, 0, 0, 0, 0, 1, 0, 0, 0, 0, 0, 1,0.0,0.0,0.0,0.0,0.0,0.0,0.0,0.0,0.0,0.0,0.0,0.0,0.0,91,curator-recipes\src\main\java\org\apache\curator\framework\recipes\locks\ChildReaper.java,1,15,1,18
org.apache.curator.framework.recipes.locks.Counter, 0, 0, 0, 0, 0, 0, 0, 0, 0, 0, 0, 0, 0, 0,0.0,0.0,0.0,0.0,0.0,0.0,0.0,0.0,0.0,0.0,0.0,0.0,0.0,5,curator-recipes\src\test\java\org\apache\curator\framework\recipes\locks\Counter.java,0,0,0,0
org.apache.curator.framework.recipes.locks.InterProcessLock, 0, 0, 0, 0, 0, 0, 0, 0, 0, 0, 0, 0, 0, 0,0.0,0.0,0.0,0.0,0.0,0.0,0.0,0.0,0.0,0.0,0.0,0.0,0.0,5,curator-recipes\src\main\java\org\apache\curator\framework\recipes\locks\InterProcessLock.java,0,0,0,0
org.apache.curator.framework.recipes.locks.InterProcessMultiLock, 0, 0, 0, 0, 0, 0, 0, 0, 0, 0, 0, 0, 0, 0,0.0,0.0,0.0,0.0,0.0,0.0,0.0,0.0,0.0,0.0,0.0,0.0,0.0,119,curator-recipes\src\main\java\org\apache\curator\framework\recipes\locks\InterProcessMultiLock.java,0,0,0,0
org.apache.curator.framework.recipes.locks.InterProcessSemaphore, 0, 0, 0, 0, 0, 0, 0, 0, 0, 0, 0, 0, 0, 0,0.0,0.0,0.0,0.0,0.0,0.0,0.0,0.0,0.0,0.0,0.0,0.0,0.0,131,curator-recipes\src\main\java\org\apache\curator\framework\recipes\locks\InterProcessSemaphore.java,0,0,0,0
org.apache.curator.framework.recipes.locks.InterProcessSemaphoreMutex, 0, 0, 0, 0, 0, 0, 0, 0, 0, 0, 0, 0, 0, 0,0.0,0.0,0.0,0.6666666666666666,0.0,0.0,0.0,0.3333333333333333,0.0,0.0,0.0,0.0,0.0,43,curator-recipes\src\main\java\org\apache\curator\framework\recipes\locks\InterProcessSemaphoreMutex.java,0,0,0,0
org.apache.curator.framework.recipes.locks.InterProcessSemaphoreV2, 0, 0, 0, 1, 0, 0, 0, 0, 0, 0, 0, 0, 0, 1,0.0,0.0,0.0,0.25,0.0,0.0,0.0,0.25,0.0,0.0,0.0,0.0,0.0,240,curator-recipes\src\main\java\org\apache\curator\framework\recipes\locks\InterProcessSemaphoreV2.java,0,0,0,0
org.apache.curator.framework.recipes.locks.Lease, 0, 0, 0, 0, 0, 0, 0, 0, 0, 0, 0, 0, 0, 0,0.0,0.0,0.0,0.0,0.0,0.0,0.0,0.0,0.0,0.0,0.0,0.0,0.0,240,curator-recipes\src\main\java\org\apache\curator\framework\recipes\locks\Lease.java,0,0,0,0
org.apache.curator.framework.recipes.locks.LockInternalsDriver, 0, 0, 0, 0, 0, 0, 0, 0, 0, 0, 0, 0, 0, 0,0.0,0.0,0.0,0.0,0.0,0.0,0.0,0.0,0.0,0.0,0.0,0.0,0.0,240,curator-recipes\src\main\java\org\apache\curator\framework\recipes\locks\LockInternalsDriver.java,0,0,0,0
org.apache.curator.framework.recipes.locks.LockInternalsSorter, 0, 0, 0, 0, 0, 0, 0, 0, 0, 0, 0, 0, 0, 0,0.0,0.0,0.0,0.0,0.0,0.0,0.0,0.0,0.0,0.0,0.0,0.0,0.0,240,curator-recipes\src\main\java\org\apache\curator\framework\recipes\locks\LockInternalsSorter.java,0,0,0,0
org.apache.curator.framework.recipes.locks.PredicateResults, 0, 0, 0, 0, 0, 0, 0, 0, 0, 0, 0, 0, 0, 0,0.0,0.0,0.0,0.0,0.0,0.0,0.0,0.0,0.0,0.0,0.0,0.0,0.0,18,curator-recipes\src\main\java\org\apache\curator\framework\recipes\locks\PredicateResults.java,0,0,0,0
org.apache.curator.framework.recipes.locks.Revocable, 0, 0, 0, 0, 0, 0, 0, 0, 0, 0, 0, 0, 0, 0,0.0,0.0,0.0,0.0,0.0,0.0,0.0,0.0,0.0,0.0,0.0,0.0,0.0,18,curator-recipes\src\main\java\org\apache\curator\framework\recipes\locks\Revocable.java,0,0,0,0
org.apache.curator.framework.recipes.locks.RevocationListener, 0, 0, 0, 0, 0, 0, 0, 0, 0, 0, 0, 0, 0, 0,0.0,0.0,0.0,0.0,0.0,0.0,0.0,0.0,0.0,0.0,0.0,0.0,0.0,18,curator-recipes\src\main\java\org\apache\curator\framework\recipes\locks\RevocationListener.java,0,0,0,0
org.apache.curator.framework.recipes.locks.RevocationSpec, 0, 0, 0, 0, 0, 0, 0, 0, 0, 0, 0, 0, 0, 0,0.0,0.0,0.0,0.0,0.0,0.0,0.0,0.0,0.0,0.0,0.0,0.0,0.0,18,curator-recipes\src\main\java\org\apache\curator\framework\recipes\locks\RevocationSpec.java,0,0,0,0
org.apache.curator.framework.recipes.locks.Revoker, 0, 0, 0, 0, 0, 0, 0, 0, 0, 0, 0, 0, 0, 0,0.0,0.0,0.0,0.0,0.0,0.0,0.0,0.0,0.0,0.0,0.0,0.0,0.0,16,curator-recipes\src\main\java\org\apache\curator\framework\recipes\locks\Revoker.java,0,0,0,0
org.apache.curator.framework.recipes.locks.SemaphoreClient, 0, 0, 0, 0, 0, 0, 0, 0, 0, 0, 0, 0, 0, 0,0.0,0.0,0.0,0.16666666666666666,0.0,0.0,0.0,0.0,0.0,0.0,0.0,0.0,0.0,102,curator-recipes\src\test\java\org\apache\curator\framework\recipes\locks\SemaphoreClient.java,0,0,0,0
org.apache.curator.framework.recipes.locks.StandardLockInternalsDriver, 0, 0, 0, 0, 0, 0, 0, 0, 0, 0, 0, 0, 0, 0,0.0,0.0,0.0,0.0,0.0,0.0,0.0,0.0,0.0,0.0,0.0,0.0,0.0,49,curator-recipes\src\main\java\org\apache\curator\framework\recipes\locks\StandardLockInternalsDriver.java,0,0,0,0
org.apache.curator.framework.recipes.locks.Stepper, 0, 0, 0, 0, 0, 0, 0, 0, 0, 0, 0, 0, 0, 0,0.0,0.0,0.0,0.0,0.0,0.0,0.0,0.0,0.0,0.0,0.0,0.0,0.0,18,curator-recipes\src\test\java\org\apache\curator\framework\recipes\locks\Stepper.java,0,0,0,0
org.apache.curator.framework.recipes.locks.TestChildReaper, 0, 0, 0, 0, 0, 0, 0, 0, 0, 0, 0, 0, 0, 0,0.0,0.0,0.0,0.0,0.0,0.14285714285714285,0.0,0.14285714285714285,0.0,0.0,0.0,0.0,0.0,94,curator-recipes\src\test\java\org\apache\curator\framework\recipes\locks\TestChildReaper.java,0,32,0,32
org.apache.curator.framework.recipes.locks.TestInterProcessMultiMutex, 0, 0, 0, 0, 0, 0, 0, 0, 0, 0, 0, 0, 0, 0,0.0,0.0,0.0,0.0,0.0,0.2,0.0,0.0,0.0,0.0,0.0,0.0,0.0,113,curator-recipes\src\test\java\org\apache\curator\framework\recipes\locks\TestInterProcessMultiMutex.java,0,0,0,0
org.apache.curator.framework.recipes.locks.TestInterProcessMutex, 0, 0, 0, 0, 0, 0, 0, 0, 0, 0, 0, 0, 0, 0,0.0,0.0,0.0,0.16666666666666666,0.0,0.16666666666666666,0.0,0.16666666666666666,0.0,0.0,0.0,0.0,0.0,107,curator-recipes\src\test\java\org\apache\curator\framework\recipes\locks\TestInterProcessMutex.java,0,0,0,0
org.apache.curator.framework.recipes.locks.TestInterProcessMutexBase, 0, 0, 0, 0, 0, 0, 0, 0, 0, 0, 0, 0, 0, 0,0.0,0.0,0.0,0.09090909090909091,0.0,0.0,0.0,0.09090909090909091,0.0,0.0,0.0,0.0,0.0,389,curator-recipes\src\test\java\org\apache\curator\framework\recipes\locks\TestInterProcessMutexBase.java,0,0,0,0
org.apache.curator.framework.recipes.locks.TestInterProcessReadWriteLock, 0, 0, 0, 0, 0, 0, 0, 1, 0, 0, 0, 0, 0, 1,0.0,0.0,0.0,0.0,0.0,0.2,0.0,0.0,0.0,0.0,0.0,0.0,0.0,226,curator-recipes\src\test\java\org\apache\curator\framework\recipes\locks\TestInterProcessReadWriteLock.java,0,23,0,23
org.apache.curator.framework.recipes.locks.TestInterProcessSemaphore, 0, 0, 0, 0, 0, 0, 0, 0, 0, 0, 0, 0, 0, 0,0.0,0.0,0.0,0.125,0.0,0.125,0.0,0.0,0.0,0.0,0.0,0.0,0.0,448,curator-recipes\src\test\java\org\apache\curator\framework\recipes\locks\TestInterProcessSemaphore.java,0,0,0,0
org.apache.curator.framework.recipes.locks.TestInterProcessSemaphoreCluster, 0, 0, 0, 0, 0, 0, 0, 0, 0, 0, 0, 0, 0, 0,0.0,0.0,0.0,0.16666666666666666,0.0,0.0,0.0,0.16666666666666666,0.0,0.0,0.0,0.0,0.0,223,curator-recipes\src\test\java\org\apache\curator\framework\recipes\locks\TestInterProcessSemaphoreCluster.java,0,0,0,0
org.apache.curator.framework.recipes.locks.TestInterProcessSemaphoreMutex, 0, 0, 0, 0, 0, 0, 0, 0, 0, 0, 0, 0, 0, 0,0.0,0.0,0.0,0.0,0.0,0.0,0.0,0.0,0.0,0.0,0.0,0.0,0.0,19,curator-recipes\src\test\java\org\apache\curator\framework\recipes\locks\TestInterProcessSemaphoreMutex.java,0,0,0,0
org.apache.curator.framework.recipes.locks.TestLockACLs, 0, 0, 0, 0, 0, 0, 0, 0, 0, 0, 0, 0, 0, 0,0.0,0.0,0.0,0.0,0.0,0.0,0.0,0.0,0.0,0.0,0.0,0.0,0.0,53,curator-recipes\src\test\java\org\apache\curator\framework\recipes\locks\TestLockACLs.java,0,0,0,0
org.apache.curator.framework.recipes.locks.TestLockCleanlinessWithFaults, 0, 0, 0, 0, 0, 0, 0, 0, 0, 0, 0, 0, 0, 0,0.0,0.0,0.0,0.0,0.0,0.0,0.0,0.0,0.0,0.0,0.0,0.0,0.0,37,curator-recipes\src\test\java\org\apache\curator\framework\recipes\locks\TestLockCleanlinessWithFaults.java,0,0,0,0
org.apache.curator.framework.recipes.locks.TestReaper, 0, 0, 0, 0, 0, 0, 0, 0, 0, 0, 0, 0, 0, 0,0.0,0.0,0.0,0.14285714285714285,0.0,0.14285714285714285,0.0,0.14285714285714285,0.0,0.0,0.0,0.0,0.0,435,curator-recipes\src\test\java\org\apache\curator\framework\recipes\locks\TestReaper.java,0,0,0,0
org.apache.curator.framework.recipes.nodes.PersistentEphemeralNode, 0, 0, 0, 0, 0, 0, 0, 0, 0, 0, 0, 0, 0, 0,0.0,0.0,0.0,0.4,0.0,0.0,0.0,0.2,0.0,0.0,0.0,0.0,0.0,244,curator-recipes\src\main\java\org\apache\curator\framework\recipes\nodes\PersistentEphemeralNode.java,0,0,0,0
org.apache.curator.framework.recipes.nodes.TestPersistentEphemeralNode, 0, 0, 0, 1, 0, 0, 0, 0, 0, 0, 0, 0, 0, 1,0.0,0.0,0.0,0.1111111111111111,0.0,0.1111111111111111,0.0,0.1111111111111111,0.0,0.0,0.0,0.0,0.0,402,curator-recipes\src\test\java\org\apache\curator\framework\recipes\nodes\TestPersistentEphemeralNode.java,0,0,0,0
org.apache.curator.framework.recipes.nodes.TestPersistentEphemeralNodeListener, 0, 0, 0, 0, 0, 0, 0, 0, 0, 0, 0, 0, 0, 0,0.0,0.0,0.0,0.0,0.0,0.14285714285714285,0.0,0.0,0.0,0.0,0.0,0.0,0.0,52,curator-recipes\src\test\java\org\apache\curator\framework\recipes\nodes\TestPersistentEphemeralNodeListener.java,0,0,0,0
org.apache.curator.framework.recipes.queue.BlockingQueueConsumer, 0, 0, 0, 0, 0, 0, 0, 0, 0, 0, 0, 0, 0, 0,0.0,0.0,0.0,0.0,0.0,0.0,0.0,0.0,0.0,0.0,0.0,0.0,0.0,48,curator-recipes\src\main\java\org\apache\curator\framework\recipes\queue\BlockingQueueConsumer.java,0,0,0,0
org.apache.curator.framework.recipes.queue.ChildrenCache, 0, 0, 0, 0, 0, 0, 0, 0, 0, 0, 0, 0, 0, 0,0.0,0.0,0.0,0.0,0.0,0.0,0.0,0.5,0.0,0.0,0.0,0.0,0.0,110,curator-recipes\src\main\java\org\apache\curator\framework\recipes\queue\ChildrenCache.java,0,0,0,0
org.apache.curator.framework.recipes.queue.DistributedPriorityQueue, 0, 0, 0, 0, 0, 0, 0, 1, 0, 0, 0, 0, 0, 1,0.0,0.0,0.0,0.0,0.0,0.0,0.0,0.0,0.0,0.0,0.0,0.0,0.0,97,curator-recipes\src\main\java\org\apache\curator\framework\recipes\queue\DistributedPriorityQueue.java,0,0,0,0
org.apache.curator.framework.recipes.queue.ItemSerializer, 0, 0, 0, 0, 0, 0, 0, 0, 0, 0, 0, 0, 0, 0,0.0,0.0,0.0,0.0,0.0,0.0,0.0,0.0,0.0,0.0,0.0,0.0,0.0,76,curator-recipes\src\main\java\org\apache\curator\framework\recipes\queue\ItemSerializer.java,0,0,0,0
org.apache.curator.framework.recipes.queue.MultiItem, 0, 0, 0, 0, 0, 0, 0, 0, 0, 0, 0, 0, 0, 0,0.0,0.0,0.0,0.0,0.0,0.0,0.0,0.0,0.0,0.0,0.0,0.0,0.0,76,curator-recipes\src\main\java\org\apache\curator\framework\recipes\queue\MultiItem.java,0,0,0,0
org.apache.curator.framework.recipes.queue.QueueAllocator, 0, 0, 0, 0, 0, 0, 0, 0, 0, 0, 0, 0, 0, 0,0.0,0.0,0.0,0.0,0.0,0.0,0.0,0.0,0.0,0.0,0.0,0.0,0.0,76,curator-recipes\src\main\java\org\apache\curator\framework\recipes\queue\QueueAllocator.java,0,0,0,0
org.apache.curator.framework.recipes.queue.QueueBase, 0, 0, 0, 0, 0, 0, 0, 0, 0, 0, 0, 0, 0, 0,0.0,0.0,0.0,0.0,0.0,0.0,0.0,0.0,0.0,0.0,0.0,0.0,0.0,76,curator-recipes\src\main\java\org\apache\curator\framework\recipes\queue\QueueBase.java,0,0,0,0
org.apache.curator.framework.recipes.queue.QueueBuilder, 0, 0, 0, 0, 0, 0, 0, 0, 0, 0, 0, 0, 0, 0,0.0,0.0,0.0,0.0,0.0,0.0,0.0,0.2,0.0,0.0,0.0,0.0,0.0,131,curator-recipes\src\main\java\org\apache\curator\framework\recipes\queue\QueueBuilder.java,0,0,0,0
org.apache.curator.framework.recipes.queue.QueueConsumer, 0, 0, 0, 0, 0, 0, 0, 0, 0, 0, 0, 0, 0, 0,0.0,0.0,0.0,0.0,0.0,0.0,0.0,0.0,0.0,0.0,0.0,0.0,0.0,131,curator-recipes\src\main\java\org\apache\curator\framework\recipes\queue\QueueConsumer.java,0,0,0,0
org.apache.curator.framework.recipes.queue.QueueItemSerializer, 0, 0, 0, 0, 0, 0, 0, 0, 0, 0, 0, 0, 0, 0,0.0,0.0,0.0,0.0,0.0,0.0,0.0,0.0,0.0,0.0,0.0,0.0,0.0,13,curator-recipes\src\test\java\org\apache\curator\framework\recipes\queue\QueueItemSerializer.java,0,0,0,0
org.apache.curator.framework.recipes.queue.QueuePutListener, 0, 0, 0, 0, 0, 0, 0, 0, 0, 0, 0, 0, 0, 0,0.0,0.0,0.0,0.0,0.0,0.0,0.0,0.0,0.0,0.0,0.0,0.0,0.0,13,curator-recipes\src\main\java\org\apache\curator\framework\recipes\queue\QueuePutListener.java,0,0,0,0
org.apache.curator.framework.recipes.queue.QueueSafety, 0, 0, 0, 0, 0, 0, 0, 0, 0, 0, 0, 0, 0, 0,0.0,0.0,0.0,0.0,0.0,0.0,0.0,0.0,0.0,0.0,0.0,0.0,0.0,30,curator-recipes\src\main\java\org\apache\curator\framework\recipes\queue\QueueSafety.java,0,0,0,0
org.apache.curator.framework.recipes.queue.QueueSerializer, 0, 0, 0, 0, 0, 0, 0, 0, 0, 0, 0, 0, 0, 0,0.0,0.0,0.0,0.0,0.0,0.0,0.0,0.0,0.0,0.0,0.0,0.0,0.0,30,curator-recipes\src\main\java\org\apache\curator\framework\recipes\queue\QueueSerializer.java,0,0,0,0
org.apache.curator.framework.recipes.queue.QueueSharderPolicies, 0, 0, 0, 0, 0, 0, 0, 0, 0, 0, 0, 0, 0, 0,0.0,0.0,0.0,0.0,0.0,0.0,0.0,0.0,0.0,0.0,0.0,0.0,0.0,78,curator-recipes\src\main\java\org\apache\curator\framework\recipes\queue\QueueSharderPolicies.java,0,0,0,0
org.apache.curator.framework.recipes.queue.QueueTestProducer, 0, 0, 0, 0, 0, 0, 0, 0, 0, 0, 0, 0, 0, 0,0.0,0.0,0.0,0.0,0.0,0.0,0.0,0.0,0.0,0.0,0.0,0.0,0.0,23,curator-recipes\src\test\java\org\apache\curator\framework\recipes\queue\QueueTestProducer.java,0,0,0,0
org.apache.curator.framework.recipes.queue.TestBoundedDistributedQueue, 0, 0, 0, 0, 0, 0, 0, 0, 0, 0, 0, 0, 0, 0,0.0,0.0,0.0,0.0,0.0,0.14285714285714285,0.0,0.0,0.0,0.0,0.0,0.0,0.0,201,curator-recipes\src\test\java\org\apache\curator\framework\recipes\queue\TestBoundedDistributedQueue.java,0,0,0,0
org.apache.curator.framework.recipes.queue.TestDistributedIdQueue, 0, 0, 0, 0, 0, 0, 0, 0, 0, 0, 0, 0, 0, 0,0.0,0.0,0.0,0.0,0.0,0.125,0.0,0.0,0.0,0.0,0.0,0.0,0.0,78,curator-recipes\src\test\java\org\apache\curator\framework\recipes\queue\TestDistributedIdQueue.java,0,0,0,0
org.apache.curator.framework.recipes.queue.TestDistributedQueue, 0, 0, 0, 0, 0, 0, 0, 0, 0, 0, 0, 0, 0, 0,0.0,0.0,0.0,0.0,0.0,0.09090909090909091,0.0,0.0,0.0,0.0,0.0,0.0,0.0,643,curator-recipes\src\test\java\org\apache\curator\framework\recipes\queue\TestDistributedQueue.java,0,0,0,0
org.apache.curator.framework.recipes.queue.TestQueueItem, 0, 0, 0, 0, 0, 0, 0, 0, 0, 0, 0, 0, 0, 0,0.0,0.0,0.0,0.0,0.0,0.0,0.0,0.0,0.0,0.0,0.0,0.0,0.0,39,curator-recipes\src\test\java\org\apache\curator\framework\recipes\queue\TestQueueItem.java,0,0,0,0
org.apache.curator.framework.recipes.queue.TestQueueSharder, 0, 0, 0, 0, 0, 0, 0, 0, 0, 0, 0, 0, 0, 0,0.0,0.0,0.0,0.0,0.0,0.125,0.0,0.0,0.0,0.0,0.0,0.0,0.0,179,curator-recipes\src\test\java\org\apache\curator\framework\recipes\queue\TestQueueSharder.java,0,0,0,0
org.apache.curator.framework.recipes.queue.TestSimpleDistributedQueue, 0, 0, 0, 0, 0, 0, 0, 0, 0, 0, 0, 0, 0, 0,0.0,0.0,0.0,0.0,0.0,0.2,0.0,0.0,0.0,0.0,0.0,0.0,0.0,349,curator-recipes\src\test\java\org\apache\curator\framework\recipes\queue\TestSimpleDistributedQueue.java,0,0,0,0
org.apache.curator.framework.recipes.shared.SharedCountListener, 0, 0, 0, 0, 0, 0, 0, 0, 0, 0, 0, 0, 0, 0,0.0,0.0,0.0,0.0,0.0,0.0,0.0,0.0,0.0,0.0,0.0,0.0,0.0,349,curator-recipes\src\main\java\org\apache\curator\framework\recipes\shared\SharedCountListener.java,0,0,0,0
org.apache.curator.framework.recipes.shared.SharedCountReader, 0, 0, 0, 0, 0, 0, 0, 0, 0, 0, 0, 0, 0, 0,0.0,0.0,0.0,0.0,0.0,0.0,0.0,0.0,0.0,0.0,0.0,0.0,0.0,349,curator-recipes\src\main\java\org\apache\curator\framework\recipes\shared\SharedCountReader.java,0,0,0,0
org.apache.curator.framework.recipes.shared.SharedValue, 0, 0, 0, 0, 0, 0, 0, 0, 0, 0, 0, 0, 0, 0,0.0,0.0,0.0,0.0,0.0,0.0,0.0,0.0,0.0,0.0,0.0,0.0,0.0,169,curator-recipes\src\main\java\org\apache\curator\framework\recipes\shared\SharedValue.java,0,0,0,0
org.apache.curator.framework.recipes.shared.SharedValueListener, 0, 0, 0, 0, 0, 0, 0, 0, 0, 0, 0, 0, 0, 0,0.0,0.0,0.0,0.0,0.0,0.0,0.0,0.0,0.0,0.0,0.0,0.0,0.0,169,curator-recipes\src\main\java\org\apache\curator\framework\recipes\shared\SharedValueListener.java,0,0,0,0
org.apache.curator.framework.recipes.shared.SharedValueReader, 0, 0, 0, 0, 0, 0, 0, 0, 0, 0, 0, 0, 0, 0,0.0,0.0,0.0,0.0,0.0,0.0,0.0,0.0,0.0,0.0,0.0,0.0,0.0,169,curator-recipes\src\main\java\org\apache\curator\framework\recipes\shared\SharedValueReader.java,0,0,0,0
org.apache.curator.framework.recipes.shared.TestSharedCount, 0, 0, 0, 0, 0, 0, 0, 0, 0, 0, 0, 0, 0, 0,0.0,0.0,0.0,0.0,0.0,0.14285714285714285,0.0,0.0,0.0,0.0,0.0,0.0,0.0,188,curator-recipes\src\test\java\org\apache\curator\framework\recipes\shared\TestSharedCount.java,0,0,0,0
org.apache.curator.framework.recipes.shared.VersionedValue, 0, 0, 0, 0, 0, 0, 0, 0, 0, 0, 0, 0, 0, 0,0.0,0.0,0.0,0.0,0.0,0.0,0.0,0.0,0.0,0.0,0.0,0.0,0.0,18,curator-recipes\src\main\java\org\apache\curator\framework\recipes\shared\VersionedValue.java,0,0,0,0
org.apache.curator.framework.state.ConnectionStateListener, 0, 0, 0, 0, 0, 0, 0, 0, 0, 0, 0, 0, 0, 0,0.0,0.0,0.0,0.0,0.0,0.0,0.0,0.0,0.0,0.0,0.0,0.0,0.0,18,curator-framework\src\main\java\org\apache\curator\framework\state\ConnectionStateListener.java,0,0,0,0
org.apache.curator.framework.state.ConnectionStateManager, 0, 0, 0, 0, 0, 0, 0, 0, 0, 0, 0, 0, 0, 0,0.0,0.0,0.5,0.5,0.0,0.0,0.0,0.0,0.0,0.0,0.0,0.0,0.0,174,curator-framework\src\main\java\org\apache\curator\framework\state\ConnectionStateManager.java,0,0,0,0
org.apache.curator.retry.BoundedExponentialBackoffRetry, 0, 0, 0, 0, 0, 0, 0, 0, 0, 0, 0, 0, 0, 0,0.0,0.0,0.0,0.0,0.0,0.0,0.0,0.0,0.0,0.0,0.0,0.0,0.0,18,curator-client\src\main\java\org\apache\curator\retry\BoundedExponentialBackoffRetry.java,0,0,0,0
org.apache.curator.retry.ExponentialBackoffRetry, 0, 0, 0, 0, 0, 0, 0, 0, 0, 0, 0, 0, 0, 0,0.0,0.0,0.0,0.0,0.0,0.0,0.0,0.05555555555555555,0.0,0.0,0.0,0.0,0.0,44,curator-client\src\main\java\org\apache\curator\retry\ExponentialBackoffRetry.java,0,0,0,0
org.apache.curator.retry.RetryNTimes, 0, 0, 0, 0, 0, 0, 0, 0, 0, 0, 0, 0, 0, 0,0.0,0.0,0.0,0.0,0.0,0.125,0.0,0.0,0.0,0.0,0.0,0.0,0.0,14,curator-client\src\main\java\org\apache\curator\retry\RetryNTimes.java,0,0,0,0
org.apache.curator.retry.RetryOneTime, 0, 0, 0, 0, 0, 1, 0, 0, 0, 0, 0, 0, 0, 1,0.0,0.0,0.0,0.019230769230769232,0.0,0.0,0.0,0.038461538461538464,0.0,0.0,0.0,0.0,0.0,7,curator-client\src\main\java\org\apache\curator\retry\RetryOneTime.java,0,0,0,0
org.apache.curator.retry.RetryUntilElapsed, 0, 0, 0, 0, 0, 0, 0, 0, 0, 0, 0, 0, 0, 0,0.0,0.0,0.0,0.0,0.0,0.0,0.0,0.0,0.0,0.0,0.0,0.0,0.0,21,curator-client\src\main\java\org\apache\curator\retry\RetryUntilElapsed.java,0,0,0,0
org.apache.curator.retry.SleepingRetry, 0, 0, 0, 0, 0, 0, 0, 0, 0, 0, 0, 0, 0, 0,0.0,0.0,0.0,0.0,0.0,0.0,0.0,0.0,0.0,0.0,0.0,0.0,0.0,30,curator-client\src\main\java\org\apache\curator\retry\SleepingRetry.java,0,0,0,0
org.apache.curator.test.BaseClassForTests, 0, 0, 0, 0, 0, 0, 0, 0, 0, 0, 0, 0, 0, 0,0.0,0.0,0.0,0.020833333333333332,0.0,0.0,0.0,0.041666666666666664,0.0,0.0,0.0,0.0,0.0,77,curator-test\src\main\java\org\apache\curator\test\BaseClassForTests.java,0,0,0,0
org.apache.curator.test.ByteCodeRewrite, 0, 0, 0, 0, 0, 0, 0, 0, 0, 0, 0, 0, 0, 0,0.0,0.0,0.0,0.0,0.0,0.0,0.0,0.0,0.0,0.0,0.0,0.0,0.0,56,curator-test\src\main\java\org\apache\curator\test\ByteCodeRewrite.java,0,0,0,0
org.apache.curator.test.DirectoryUtils, 0, 0, 0, 0, 0, 0, 0, 0, 0, 0, 0, 0, 0, 0,0.0,0.0,0.0,0.0,0.0,0.0,0.0,0.0,0.0,0.0,0.0,0.0,0.0,24,curator-test\src\main\java\org\apache\curator\test\DirectoryUtils.java,0,0,0,0
org.apache.curator.test.InstanceSpec, 0, 0, 0, 1, 0, 0, 0, 1, 0, 0, 0, 0, 0, 2,0.0,0.0,0.0,0.0,0.0,0.0,0.0,0.0,0.0,0.0,0.0,0.0,0.0,146,curator-test\src\main\java\org\apache\curator\test\InstanceSpec.java,0,0,0,0
org.apache.curator.test.KillSession, 0, 0, 0, 0, 0, 0, 0, 0, 0, 0, 0, 0, 0, 0,0.0,0.0,0.0,0.1111111111111111,0.0,0.0,0.0,0.0,0.0,0.0,0.0,0.0,0.0,64,curator-test\src\main\java\org\apache\curator\test\KillSession.java,0,0,0,0
org.apache.curator.test.ServerHelper, 0, 0, 0, 0, 0, 0, 0, 0, 0, 0, 0, 0, 0, 0,0.0,0.0,0.0,0.0,0.0,0.0,0.0,0.0,0.0,0.0,0.0,0.0,0.0,125,curator-test\src\main\java\org\apache\curator\test\ServerHelper.java,0,0,0,0
org.apache.curator.test.TestingQuorumPeerMain, 0, 0, 0, 0, 0, 0, 0, 0, 0, 0, 0, 0, 0, 0,0.0,0.0,0.0,0.0,0.0,0.0,0.0,0.0,0.0,0.0,0.0,0.0,0.0,55,curator-test\src\main\java\org\apache\curator\test\TestingQuorumPeerMain.java,0,0,0,0
org.apache.curator.test.TestingServer, 0, 0, 0, 0, 0, 0, 0, 0, 0, 0, 0, 0, 0, 0,0.0,0.0,0.0,0.03508771929824561,0.0,0.0,0.0,0.05263157894736842,0.0,0.0,0.0,0.0,0.0,70,curator-test\src\main\java\org\apache\curator\test\TestingServer.java,0,0,0,0
org.apache.curator.test.TestingZooKeeperMain, 0, 0, 0, 0, 0, 0, 0, 0, 0, 0, 0, 0, 0, 0,0.0,0.0,0.0,0.0,0.0,0.0,0.0,0.0,0.0,0.0,0.0,0.0,0.0,125,curator-test\src\main\java\org\apache\curator\test\TestingZooKeeperMain.java,0,0,0,0
org.apache.curator.test.TestingZooKeeperServer, 0, 0, 0, 0, 0, 0, 0, 0, 0, 0, 0, 0, 0, 0,0.0,0.0,0.0,0.3333333333333333,0.0,0.0,0.0,0.3333333333333333,0.0,0.0,0.0,0.0,0.0,95,curator-test\src\main\java\org\apache\curator\test\TestingZooKeeperServer.java,0,0,0,0
org.apache.curator.test.Timing, 0, 0, 0, 0, 0, 0, 0, 0, 0, 0, 0, 0, 0, 0,0.0,0.0,0.0,0.02631578947368421,0.0,0.0,0.0,0.0,0.0,0.0,0.0,0.0,0.0,103,curator-test\src\main\java\org\apache\curator\test\Timing.java,0,0,0,0
org.apache.curator.test.ZooKeeperMainFace, 0, 0, 0, 0, 0, 0, 0, 0, 0, 0, 0, 0, 0, 0,0.0,0.0,0.0,0.0,0.0,0.0,0.0,0.0,0.0,0.0,0.0,0.0,0.0,103,curator-test\src\main\java\org\apache\curator\test\ZooKeeperMainFace.java,0,0,0,0
org.apache.curator.utils.CloseableExecutorService, 0, 0, 0, 0, 0, 0, 0, 0, 0, 0, 0, 0, 0, 0,0.0,0.0,0.0,0.25,0.0,0.0,0.0,0.25,0.0,0.0,0.0,0.0,0.0,107,curator-client\src\main\java\org\apache\curator\utils\CloseableExecutorService.java,0,0,0,0
org.apache.curator.utils.CloseableScheduledExecutorService, 0, 0, 0, 0, 0, 0, 0, 0, 0, 0, 0, 0, 0, 0,0.0,0.0,0.0,0.0,0.0,0.0,0.0,0.3333333333333333,0.0,0.0,0.0,0.0,0.0,27,curator-client\src\main\java\org\apache\curator\utils\CloseableScheduledExecutorService.java,0,0,0,0
org.apache.curator.utils.CloseableUtils, 0, 0, 0, 0, 0, 0, 0, 0, 0, 0, 0, 0, 0, 0,0.0,0.0,0.0,0.05,0.0,0.0,0.0,0.06666666666666667,0.0,0.0,0.0,0.0,0.0,15,curator-client\src\main\java\org\apache\curator\utils\CloseableUtils.java,0,0,0,0
org.apache.curator.utils.DebugUtils, 0, 0, 0, 0, 0, 0, 0, 0, 0, 0, 0, 0, 0, 0,0.0,0.0,0.0,0.0,0.0,0.0,0.0,0.0,0.0,0.0,0.0,0.0,0.0,9,curator-client\src\main\java\org\apache\curator\utils\DebugUtils.java,0,0,0,0
org.apache.curator.utils.DefaultTracerDriver, 0, 0, 0, 0, 0, 0, 0, 0, 0, 0, 0, 0, 0, 0,0.0,0.0,0.0,0.0,0.0,0.0,0.0,0.0,0.0,0.0,0.0,0.0,0.0,20,curator-client\src\main\java\org\apache\curator\utils\DefaultTracerDriver.java,0,0,0,0
org.apache.curator.utils.DefaultZookeeperFactory, 0, 0, 0, 0, 0, 0, 0, 0, 0, 0, 0, 0, 0, 0,0.0,0.0,0.0,0.0,0.0,0.0,0.0,0.0,0.0,0.0,0.0,0.0,0.0,8,curator-client\src\main\java\org\apache\curator\utils\DefaultZookeeperFactory.java,0,0,0,0
org.apache.curator.utils.EnsurePath, 0, 0, 0, 0, 0, 0, 0, 0, 0, 0, 0, 0, 0, 0,0.0,0.0,0.14285714285714285,0.42857142857142855,0.0,0.0,0.0,0.14285714285714285,0.0,0.0,0.0,0.0,0.0,72,curator-client\src\main\java\org\apache\curator\utils\EnsurePath.java,0,0,0,0
org.apache.curator.utils.InternalACLProvider, 0, 0, 0, 0, 0, 0, 0, 0, 0, 0, 0, 0, 0, 0,0.0,0.0,0.0,0.0,0.0,0.0,0.0,0.0,0.0,0.0,0.0,0.0,0.0,72,curator-client\src\main\java\org\apache\curator\utils\InternalACLProvider.java,0,0,0,0
org.apache.curator.utils.PathUtils, 0, 0, 0, 0, 0, 0, 0, 0, 0, 0, 0, 0, 0, 0,0.0,0.0,0.0,0.2857142857142857,0.0,0.0,0.0,0.14285714285714285,0.0,0.0,0.0,0.0,0.0,64,curator-client\src\main\java\org\apache\curator\utils\PathUtils.java,0,0,0,0
org.apache.curator.utils.TestCloseableExecutorService, 0, 0, 0, 0, 0, 0, 0, 0, 0, 0, 0, 0, 0, 0,0.0,0.0,0.0,0.0,0.0,0.0,0.0,0.0,0.0,0.0,0.0,0.0,0.0,218,curator-client\src\test\java\org\apache\curator\utils\TestCloseableExecutorService.java,0,0,0,0
org.apache.curator.utils.TestCloseableScheduledExecutorService, 0, 0, 0, 0, 0, 0, 0, 0, 0, 0, 0, 0, 0, 0,0.0,0.0,0.0,0.0,0.0,0.0,0.0,0.0,0.0,0.0,0.0,0.0,0.0,75,curator-client\src\test\java\org\apache\curator\utils\TestCloseableScheduledExecutorService.java,0,0,0,0
org.apache.curator.utils.TestZKPaths, 0, 0, 0, 0, 0, 0, 0, 0, 0, 0, 0, 0, 0, 0,0.0,0.0,0.0,0.0,0.0,0.0,0.0,0.0,0.0,0.0,0.0,0.0,0.0,43,curator-client\src\test\java\org\apache\curator\utils\TestZKPaths.java,0,10,0,10
org.apache.curator.utils.ThreadUtils, 0, 0, 0, 0, 0, 0, 0, 0, 0, 0, 0, 0, 0, 0,0.0,0.0,0.16666666666666666,0.3333333333333333,0.0,0.0,0.0,0.3333333333333333,0.0,0.0,0.0,0.0,0.0,34,curator-client\src\main\java\org\apache\curator\utils\ThreadUtils.java,0,4,0,4
org.apache.curator.utils.ZookeeperFactory, 0, 0, 0, 0, 0, 0, 0, 0, 0, 0, 0, 0, 0, 0,0.0,0.0,0.0,0.0,0.0,0.0,0.0,0.0,0.0,0.0,0.0,0.0,0.0,34,curator-client\src\main\java\org\apache\curator\utils\ZookeeperFactory.java,0,0,0,0
org.apache.curator.x.discovery.DownInstancePolicy, 0, 0, 0, 0, 0, 0, 0, 0, 0, 0, 0, 0, 0, 0,0.0,0.0,0.0,0.0,0.0,0.0,0.0,0.5,0.0,0.0,0.0,0.0,0.0,24,curator-x-discovery\src\main\java\org\apache\curator\x\discovery\DownInstancePolicy.java,0,0,0,0
org.apache.curator.x.discovery.InstanceFilter, 0, 0, 0, 0, 0, 0, 0, 0, 0, 0, 0, 0, 0, 0,0.0,0.0,0.0,0.0,0.0,0.0,0.0,0.0,0.0,0.0,0.0,0.0,0.0,24,curator-x-discovery\src\main\java\org\apache\curator\x\discovery\InstanceFilter.java,0,0,0,0
org.apache.curator.x.discovery.LocalIpFilter, 0, 0, 0, 0, 0, 0, 0, 0, 0, 0, 0, 0, 0, 0,0.0,0.0,0.0,0.0,0.0,0.0,0.0,0.0,0.0,0.0,0.0,0.0,0.0,24,curator-x-discovery\src\main\java\org\apache\curator\x\discovery\LocalIpFilter.java,0,0,0,0
org.apache.curator.x.discovery.ProviderStrategy, 0, 0, 0, 0, 0, 0, 0, 0, 0, 0, 0, 0, 0, 0,0.0,0.0,0.0,0.0,0.0,0.0,0.0,0.0,0.0,0.0,0.0,0.0,0.0,24,curator-x-discovery\src\main\java\org\apache\curator\x\discovery\ProviderStrategy.java,0,0,0,0
org.apache.curator.x.discovery.ServiceCache, 0, 0, 0, 0, 0, 0, 0, 0, 0, 0, 0, 0, 0, 0,0.0,0.0,0.0,0.0,0.0,0.0,0.0,0.0,0.0,0.0,0.0,0.0,0.0,24,curator-x-discovery\src\main\java\org\apache\curator\x\discovery\ServiceCache.java,0,0,0,0
org.apache.curator.x.discovery.ServiceCacheBuilder, 0, 0, 0, 0, 0, 0, 0, 0, 0, 0, 0, 0, 0, 0,0.0,0.0,0.0,0.0,0.0,0.0,0.0,0.0,0.0,0.0,0.0,0.0,0.0,24,curator-x-discovery\src\main\java\org\apache\curator\x\discovery\ServiceCacheBuilder.java,0,0,0,0
org.apache.curator.x.discovery.ServiceCacheLeakTester, 0, 0, 0, 0, 0, 0, 0, 0, 0, 0, 0, 0, 0, 0,0.0,0.0,0.0,0.0,0.0,0.16666666666666666,0.0,0.0,0.0,0.0,0.0,0.0,0.0,43,curator-x-discovery\src\test\java\org\apache\curator\x\discovery\ServiceCacheLeakTester.java,0,0,0,0
org.apache.curator.x.discovery.ServiceDiscovery, 0, 0, 0, 0, 0, 0, 0, 0, 0, 0, 0, 0, 0, 0,0.0,0.0,0.0,0.0,0.0,0.0,0.0,0.0,0.0,0.0,0.0,0.0,0.0,43,curator-x-discovery\src\main\java\org\apache\curator\x\discovery\ServiceDiscovery.java,0,0,0,0
org.apache.curator.x.discovery.ServiceDiscoveryBuilder, 0, 0, 0, 0, 0, 0, 0, 0, 0, 0, 0, 0, 0, 0,0.0,0.0,0.0,0.0,0.0,0.0,0.0,0.16666666666666666,0.0,0.0,0.0,0.0,0.0,43,curator-x-discovery\src\main\java\org\apache\curator\x\discovery\ServiceDiscoveryBuilder.java,0,7,2,11
org.apache.curator.x.discovery.ServiceInstanceBuilder, 0, 0, 0, 0, 0, 0, 0, 0, 0, 0, 0, 0, 0, 0,0.0,0.0,0.0,0.0,0.0,0.0,0.0,0.2,0.0,0.0,0.0,0.0,0.0,103,curator-x-discovery\src\main\java\org\apache\curator\x\discovery\ServiceInstanceBuilder.java,0,0,0,0
org.apache.curator.x.discovery.ServiceProvider, 0, 0, 0, 0, 0, 0, 0, 0, 0, 0, 0, 0, 0, 0,0.0,0.0,0.0,0.0,0.0,0.0,0.0,0.0,0.0,0.0,0.0,0.0,0.0,103,curator-x-discovery\src\main\java\org\apache\curator\x\discovery\ServiceProvider.java,0,0,0,0
org.apache.curator.x.discovery.ServiceProviderBuilder, 0, 0, 0, 0, 0, 0, 0, 0, 0, 0, 0, 0, 0, 0,0.0,0.0,0.0,0.0,0.0,0.0,0.0,0.0,0.0,0.0,0.0,0.0,0.0,103,curator-x-discovery\src\main\java\org\apache\curator\x\discovery\ServiceProviderBuilder.java,0,0,0,0
org.apache.curator.x.discovery.TestLocalIpFilter, 0, 0, 0, 0, 0, 0, 0, 0, 0, 0, 0, 0, 0, 0,0.0,0.0,0.0,0.0,0.0,0.0,0.0,0.0,0.0,0.0,0.0,0.0,0.0,30,curator-x-discovery\src\test\java\org\apache\curator\x\discovery\TestLocalIpFilter.java,0,0,0,0
org.apache.curator.x.discovery.TestServiceCache, 0, 0, 0, 0, 0, 0, 0, 0, 0, 0, 0, 0, 0, 0,0.0,0.0,0.0,0.0,0.0,0.125,0.0,0.0,0.0,0.0,0.0,0.0,0.0,188,curator-x-discovery\src\test\java\org\apache\curator\x\discovery\TestServiceCache.java,0,0,0,0
org.apache.curator.x.discovery.TestStrategies, 0, 0, 0, 0, 0, 0, 0, 0, 0, 0, 0, 0, 0, 0,0.0,0.0,0.0,0.0,0.0,0.0,0.0,0.0,0.0,0.0,0.0,0.0,0.0,84,curator-x-discovery\src\test\java\org\apache\curator\x\discovery\TestStrategies.java,0,0,0,0
org.apache.curator.x.discovery.details.FilteredInstanceProvider, 0, 0, 0, 0, 0, 0, 0, 0, 0, 0, 0, 0, 0, 0,0.0,0.0,0.0,0.0,0.0,0.0,0.0,1.0,0.0,0.0,0.0,0.0,0.0,16,curator-x-discovery\src\main\java\org\apache\curator\x\discovery\details\FilteredInstanceProvider.java,0,0,0,0
org.apache.curator.x.discovery.details.InstanceProvider, 0, 0, 0, 0, 0, 0, 0, 0, 0, 0, 0, 0, 0, 0,0.0,0.0,0.0,0.0,0.0,0.0,0.0,0.0,0.0,0.0,0.0,0.0,0.0,16,curator-x-discovery\src\main\java\org\apache\curator\x\discovery\details\InstanceProvider.java,0,0,0,0
org.apache.curator.x.discovery.details.InstanceSerializer, 0, 0, 0, 0, 0, 0, 0, 0, 0, 0, 0, 0, 0, 0,0.0,0.0,0.0,0.0,0.0,0.0,0.0,0.0,0.0,0.0,0.0,0.0,0.0,16,curator-x-discovery\src\main\java\org\apache\curator\x\discovery\details\InstanceSerializer.java,0,0,0,0
org.apache.curator.x.discovery.details.JsonInstanceSerializer, 0, 0, 0, 0, 0, 0, 0, 0, 0, 0, 0, 0, 0, 0,0.0,0.0,0.0,0.0,0.0,0.0,0.0,0.0,0.0,0.0,0.0,0.0,0.0,27,curator-x-discovery\src\main\java\org\apache\curator\x\discovery\details\JsonInstanceSerializer.java,0,0,0,0
org.apache.curator.x.discovery.details.Latch, 0, 0, 0, 0, 0, 0, 0, 0, 0, 0, 0, 0, 0, 0,0.0,0.0,0.0,0.0,0.0,0.0,0.0,0.0,0.0,0.0,0.0,0.0,0.0,17,curator-x-discovery\src\main\java\org\apache\curator\x\discovery\details\Latch.java,0,0,0,0
org.apache.curator.x.discovery.details.ServiceCacheBuilderImpl, 0, 0, 0, 0, 0, 0, 0, 0, 0, 0, 0, 0, 0, 0,0.0,0.0,0.0,0.0,0.0,0.0,0.0,0.0,0.0,0.0,0.0,0.0,0.0,27,curator-x-discovery\src\main\java\org\apache\curator\x\discovery\details\ServiceCacheBuilderImpl.java,0,0,0,0
org.apache.curator.x.discovery.details.ServiceCacheImpl, 0, 0, 0, 0, 0, 0, 0, 0, 0, 0, 0, 0, 0, 0,0.0,0.0,0.0,0.0,0.0,0.0,0.0,0.0,0.0,0.0,0.0,0.0,0.0,131,curator-x-discovery\src\main\java\org\apache\curator\x\discovery\details\ServiceCacheImpl.java,0,0,0,0
org.apache.curator.x.discovery.details.ServiceCacheListener, 0, 0, 0, 0, 0, 0, 0, 0, 0, 0, 0, 0, 0, 0,0.0,0.0,0.0,0.0,0.0,0.0,0.0,0.0,0.0,0.0,0.0,0.0,0.0,131,curator-x-discovery\src\main\java\org\apache\curator\x\discovery\details\ServiceCacheListener.java,0,0,0,0
org.apache.curator.x.discovery.details.ServiceProviderBuilderImpl, 0, 0, 0, 0, 0, 0, 0, 0, 0, 0, 0, 0, 0, 0,0.0,0.0,0.0,0.0,0.0,0.0,0.0,0.5,0.0,0.0,0.0,0.0,0.0,47,curator-x-discovery\src\main\java\org\apache\curator\x\discovery\details\ServiceProviderBuilderImpl.java,0,0,0,0
org.apache.curator.x.discovery.details.ServiceProviderImpl, 0, 0, 0, 0, 0, 0, 0, 1, 0, 0, 0, 0, 0, 1,0.0,0.0,0.0,0.0,0.0,0.0,0.0,0.0,0.0,0.0,0.0,0.0,0.0,45,curator-x-discovery\src\main\java\org\apache\curator\x\discovery\details\ServiceProviderImpl.java,0,0,0,0
org.apache.curator.x.discovery.details.TestDownInstanceManager, 0, 0, 0, 0, 0, 0, 0, 0, 0, 0, 0, 0, 0, 0,0.0,0.0,0.0,0.0,0.0,0.0,0.0,0.0,0.0,0.0,0.0,0.0,0.0,45,curator-x-discovery\src\test\java\org\apache\curator\x\discovery\details\TestDownInstanceManager.java,0,0,0,0
org.apache.curator.x.discovery.details.TestServiceDiscoveryBuilder, 0, 0, 0, 0, 0, 0, 0, 0, 0, 0, 0, 0, 0, 0,0.0,0.0,0.0,0.0,0.0,0.2,0.0,0.0,0.0,0.0,0.0,0.0,0.0,34,curator-x-discovery\src\test\java\org\apache\curator\x\discovery\details\TestServiceDiscoveryBuilder.java,0,0,0,0
org.apache.curator.x.discovery.server.contexts.GenericDiscoveryContext, 0, 0, 0, 0, 0, 0, 0, 0, 0, 0, 0, 0, 0, 0,0.0,0.0,0.0,0.0,0.0,1.0,0.0,0.0,0.0,0.0,0.0,0.0,0.0,55,curator-x-discovery-server\src\main\java\org\apache\curator\x\discovery\server\contexts\GenericDiscoveryContext.java,0,0,0,0
org.apache.curator.x.discovery.server.contexts.IntegerDiscoveryContext, 0, 0, 0, 0, 0, 0, 0, 0, 0, 0, 0, 0, 0, 0,0.0,0.0,0.0,0.0,0.0,0.0,0.0,0.0,0.0,0.0,0.0,0.0,0.0,49,curator-x-discovery-server\src\main\java\org\apache\curator\x\discovery\server\contexts\IntegerDiscoveryContext.java,0,0,0,0
org.apache.curator.x.discovery.server.contexts.MapDiscoveryContext, 0, 0, 0, 0, 0, 1, 0, 0, 0, 0, 0, 0, 0, 1,0.0,0.0,0.0,0.0,0.0,0.0,0.0,0.0,0.0,0.0,0.0,0.0,0.0,7,curator-x-discovery-server\src\main\java\org\apache\curator\x\discovery\server\contexts\MapDiscoveryContext.java,0,0,0,0
org.apache.curator.x.discovery.server.contexts.StringDiscoveryContext, 0, 0, 0, 0, 0, 0, 0, 0, 0, 0, 0, 0, 0, 0,0.0,0.0,0.0,0.0,0.0,0.0,0.0,0.0,0.0,0.0,0.0,0.0,0.0,45,curator-x-discovery-server\src\main\java\org\apache\curator\x\discovery\server\contexts\StringDiscoveryContext.java,0,0,0,0
org.apache.curator.x.discovery.server.entity.JsonServiceInstanceMarshaller, 0, 0, 0, 0, 0, 0, 0, 1, 0, 0, 0, 0, 0, 1,0.0,0.0,0.0,0.0,0.0,0.0,0.0,0.16666666666666666,0.0,0.0,0.0,0.0,0.0,97,curator-x-discovery-server\src\main\java\org\apache\curator\x\discovery\server\entity\JsonServiceInstanceMarshaller.java,0,0,0,0
org.apache.curator.x.discovery.server.entity.JsonServiceInstancesMarshaller, 0, 0, 0, 0, 0, 0, 0, 1, 0, 0, 0, 0, 0, 1,0.0,0.0,0.0,0.0,0.0,0.0,0.0,0.16666666666666666,0.0,0.0,0.0,0.0,0.0,57,curator-x-discovery-server\src\main\java\org\apache\curator\x\discovery\server\entity\JsonServiceInstancesMarshaller.java,0,0,0,0
org.apache.curator.x.discovery.server.entity.JsonServiceNamesMarshaller, 0, 0, 0, 0, 0, 0, 0, 1, 0, 0, 0, 0, 0, 1,0.0,0.0,0.0,0.0,0.0,0.0,0.0,0.0,0.0,0.0,0.0,0.0,0.0,48,curator-x-discovery-server\src\main\java\org\apache\curator\x\discovery\server\entity\JsonServiceNamesMarshaller.java,0,0,0,0
org.apache.curator.x.discovery.server.entity.ServiceInstances, 0, 0, 0, 0, 0, 0, 0, 0, 0, 0, 0, 0, 0, 0,0.0,0.0,0.0,0.0,0.0,0.0,0.0,0.25,0.0,0.0,0.0,0.0,0.0,16,curator-x-discovery-server\src\main\java\org\apache\curator\x\discovery\server\entity\ServiceInstances.java,0,0,0,0
org.apache.curator.x.discovery.server.entity.ServiceNames, 0, 0, 0, 0, 0, 0, 0, 0, 0, 0, 0, 0, 0, 0,0.0,0.0,0.0,0.0,0.0,0.0,0.0,0.25,0.0,0.0,0.0,0.0,0.0,16,curator-x-discovery-server\src\main\java\org\apache\curator\x\discovery\server\entity\ServiceNames.java,0,0,0,0
org.apache.curator.x.discovery.server.jetty_jersey.MapDiscoveryResource, 0, 0, 0, 0, 0, 1, 0, 0, 0, 0, 0, 0, 0, 1,0.0,0.0,0.0,0.0,0.0,0.0,0.0,0.0,0.0,0.0,0.0,0.0,0.0,7,curator-x-discovery-server\src\test\java\org\apache\curator\x\discovery\server\jetty_jersey\MapDiscoveryResource.java,0,0,0,0
org.apache.curator.x.discovery.server.jetty_jersey.ServiceDetailsDiscoveryContext, 0, 0, 0, 0, 0, 1, 0, 0, 0, 0, 0, 0, 0, 1,0.0,0.0,0.0,0.0,0.0,0.0,0.0,0.0,0.0,0.0,0.0,0.0,0.0,7,curator-x-discovery-server\src\test\java\org\apache\curator\x\discovery\server\jetty_jersey\ServiceDetailsDiscoveryContext.java,0,0,0,0
org.apache.curator.x.discovery.server.jetty_jersey.ServiceDetailsDiscoveryResource, 0, 0, 0, 0, 0, 1, 0, 0, 0, 0, 0, 0, 0, 1,0.0,0.0,0.0,0.0,0.0,0.0,0.0,0.0,0.0,0.0,0.0,0.0,0.0,7,curator-x-discovery-server\src\test\java\org\apache\curator\x\discovery\server\jetty_jersey\ServiceDetailsDiscoveryResource.java,0,0,0,0
org.apache.curator.x.discovery.server.jetty_jersey.StringDiscoveryResource, 0, 0, 0, 0, 0, 1, 0, 0, 0, 0, 0, 0, 0, 1,0.0,0.0,0.0,0.0,0.0,0.0,0.0,0.0,0.0,0.0,0.0,0.0,0.0,7,curator-x-discovery-server\src\test\java\org\apache\curator\x\discovery\server\jetty_jersey\StringDiscoveryResource.java,0,0,0,0
org.apache.curator.x.discovery.server.jetty_jersey.TestObjectPayloadWithJersey, 0, 0, 0, 0, 0, 0, 0, 0, 0, 0, 0, 0, 0, 0,0.0,0.0,0.0,0.125,0.0,0.125,0.0,0.5,0.0,0.0,0.0,0.0,0.0,89,curator-x-discovery-server\src\test\java\org\apache\curator\x\discovery\server\jetty_jersey\TestObjectPayloadWithJersey.java,0,0,0,0
org.apache.curator.x.discovery.server.jetty_jersey.TestStringsWithJersey, 0, 0, 0, 0, 0, 0, 0, 0, 0, 0, 0, 0, 0, 0,0.0,0.0,0.0,0.125,0.0,0.0,0.0,0.5,0.0,0.0,0.0,0.0,0.0,104,curator-x-discovery-server\src\test\java\org\apache\curator\x\discovery\server\jetty_jersey\TestStringsWithJersey.java,0,0,0,0
org.apache.curator.x.discovery.server.jetty_resteasy.RestEasyApplication, 0, 0, 0, 0, 0, 0, 0, 0, 0, 0, 0, 0, 0, 0,0.0,0.0,0.0,0.0,0.0,0.0,0.0,0.0,0.0,0.0,0.0,0.0,0.0,21,curator-x-discovery-server\src\test\java\org\apache\curator\x\discovery\server\jetty_resteasy\RestEasyApplication.java,0,0,0,0
org.apache.curator.x.discovery.server.jetty_resteasy.RestEasySingletons, 0, 0, 0, 0, 0, 0, 0, 0, 0, 0, 0, 0, 0, 0,0.0,0.0,0.0,0.0,0.0,0.0,0.0,0.75,0.0,0.0,0.0,0.0,0.0,8,curator-x-discovery-server\src\test\java\org\apache\curator\x\discovery\server\jetty_resteasy\RestEasySingletons.java,0,0,0,0
org.apache.curator.x.discovery.server.jetty_resteasy.StringDiscoveryResource, 0, 0, 0, 0, 0, 0, 0, 0, 0, 0, 0, 0, 0, 0,0.0,0.0,0.0,0.0,0.0,0.0,0.0,0.0,0.0,0.0,0.0,0.0,0.0,12,curator-x-discovery-server\src\test\java\org\apache\curator\x\discovery\server\jetty_resteasy\StringDiscoveryResource.java,0,0,0,0
org.apache.curator.x.discovery.server.jetty_resteasy.TestStringsWithRestEasy, 0, 0, 0, 0, 0, 0, 0, 0, 0, 0, 0, 0, 0, 0,0.0,0.0,0.0,0.14285714285714285,0.0,0.0,0.0,0.5714285714285714,0.0,0.0,0.0,0.0,0.0,79,curator-x-discovery-server\src\test\java\org\apache\curator\x\discovery\server\jetty_resteasy\TestStringsWithRestEasy.java,0,0,0,0
org.apache.curator.x.discovery.server.mocks.MockServiceDiscovery, 0, 0, 0, 0, 0, 0, 0, 0, 0, 0, 0, 0, 0, 0,0.0,0.0,0.0,0.0,0.0,0.0,0.0,0.0,0.0,0.0,0.0,0.0,0.0,74,curator-x-discovery-server\src\test\java\org\apache\curator\x\discovery\server\mocks\MockServiceDiscovery.java,0,0,0,0
org.apache.curator.x.discovery.server.rest.DiscoveryContext, 0, 0, 0, 0, 0, 0, 0, 0, 0, 0, 0, 0, 0, 0,0.0,0.0,0.0,0.0,0.0,0.0,0.0,0.0,0.0,0.0,0.0,0.0,0.0,74,curator-x-discovery-server\src\main\java\org\apache\curator\x\discovery\server\rest\DiscoveryContext.java,0,0,0,0
org.apache.curator.x.discovery.server.rest.InstanceCleanup, 0, 0, 0, 0, 0, 0, 0, 0, 0, 0, 0, 0, 0, 0,0.0,0.0,0.0,0.0,0.0,0.0,0.0,0.0,0.0,0.0,0.0,0.0,0.0,71,curator-x-discovery-server\src\main\java\org\apache\curator\x\discovery\server\rest\InstanceCleanup.java,0,0,0,0
org.apache.curator.x.discovery.strategies.RandomStrategy, 0, 0, 0, 0, 0, 0, 0, 0, 0, 0, 0, 0, 0, 0,0.0,0.0,0.0,0.0,0.0,0.0,0.0,0.0,0.0,0.0,0.0,0.0,0.0,15,curator-x-discovery\src\main\java\org\apache\curator\x\discovery\strategies\RandomStrategy.java,0,0,0,0
org.apache.curator.x.discovery.strategies.RoundRobinStrategy, 0, 0, 0, 0, 0, 0, 0, 0, 0, 0, 0, 0, 0, 0,0.0,0.0,0.0,0.0,0.0,0.0,0.0,0.0,0.0,0.0,0.0,0.0,0.0,15,curator-x-discovery\src\main\java\org\apache\curator\x\discovery\strategies\RoundRobinStrategy.java,0,0,0,0
org.apache.curator.x.discovery.strategies.StickyStrategy, 0, 0, 0, 0, 0, 0, 0, 0, 0, 0, 0, 0, 0, 0,0.0,0.0,0.0,0.0,0.0,0.0,0.0,0.5,0.0,0.0,0.0,0.0,0.0,45,curator-x-discovery\src\main\java\org\apache\curator\x\discovery\strategies\StickyStrategy.java,0,0,0,0
org.apache.curator.x.rpc.CuratorProjectionServer, 0, 0, 0, 0, 0, 0, 0, 0, 0, 0, 0, 0, 0, 0,0.0,0.0,0.0,0.125,0.0,0.0,0.0,0.25,0.0,0.0,0.0,0.0,0.0,91,curator-x-rpc\src\main\java\org\apache\curator\x\rpc\CuratorProjectionServer.java,0,0,0,0
org.apache.curator.x.rpc.RpcTests, 0, 0, 0, 0, 0, 0, 0, 0, 0, 0, 0, 0, 0, 0,0.0,0.0,0.0,0.1111111111111111,0.0,0.1111111111111111,0.0,0.1111111111111111,0.0,0.0,0.0,0.0,0.0,205,curator-x-rpc\src\test\java\org\apache\curator\x\rpc\RpcTests.java,0,0,0,0
org.apache.curator.x.rpc.TestClient, 0, 0, 0, 0, 0, 0, 0, 0, 0, 0, 0, 0, 0, 0,0.0,0.0,0.0,0.0,0.0,0.0,0.0,0.0,0.0,0.0,0.0,0.0,0.0,112,curator-x-rpc\src\test\java\org\apache\curator\x\rpc\TestClient.java,0,0,0,0
org.apache.curator.x.rpc.TestServer, 0, 0, 0, 0, 0, 0, 0, 0, 0, 0, 0, 0, 0, 0,0.0,0.0,0.0,0.0,0.0,0.0,0.0,0.0,0.0,0.0,0.0,0.0,0.0,9,curator-x-rpc\src\test\java\org\apache\curator\x\rpc\TestServer.java,0,0,0,0
org.apache.curator.x.rpc.configuration.AuthorizationConfiguration, 0, 0, 0, 0, 0, 0, 0, 0, 0, 0, 0, 0, 0, 0,0.0,0.0,0.0,0.0,0.0,0.0,0.0,0.0,0.0,0.0,0.0,0.0,0.0,21,curator-x-rpc\src\main\java\org\apache\curator\x\rpc\configuration\AuthorizationConfiguration.java,0,0,0,0
org.apache.curator.x.rpc.configuration.BoundedExponentialBackoffRetryConfiguration, 0, 0, 0, 0, 0, 0, 0, 0, 0, 0, 0, 0, 0, 0,0.0,0.0,0.0,0.0,0.0,0.0,0.0,0.0,0.0,0.0,0.0,0.0,0.0,35,curator-x-rpc\src\main\java\org\apache\curator\x\rpc\configuration\BoundedExponentialBackoffRetryConfiguration.java,0,0,0,0
org.apache.curator.x.rpc.configuration.Configuration, 0, 0, 0, 0, 0, 0, 0, 0, 0, 0, 0, 0, 0, 0,0.0,0.0,0.0,0.0,0.0,0.0,0.0,0.0,0.0,0.0,0.0,0.0,0.0,48,curator-x-rpc\src\main\java\org\apache\curator\x\rpc\configuration\Configuration.java,0,0,0,0
org.apache.curator.x.rpc.configuration.ConfigurationBuilder, 0, 0, 0, 0, 0, 0, 0, 0, 0, 0, 0, 0, 0, 0,0.0,0.0,0.0,0.0,0.0,0.0,0.0,0.0,0.0,0.0,0.0,0.0,0.0,41,curator-x-rpc\src\main\java\org\apache\curator\x\rpc\configuration\ConfigurationBuilder.java,0,0,0,0
org.apache.curator.x.rpc.configuration.ConnectionConfiguration, 0, 0, 0, 0, 0, 0, 0, 0, 0, 0, 0, 0, 0, 0,0.0,0.0,0.0,0.0,0.0,0.0,0.0,0.0,0.0,0.0,0.0,0.0,0.0,86,curator-x-rpc\src\main\java\org\apache\curator\x\rpc\configuration\ConnectionConfiguration.java,0,0,0,0
org.apache.curator.x.rpc.configuration.ExponentialBackoffRetryConfiguration, 0, 0, 0, 0, 0, 0, 0, 0, 0, 0, 0, 0, 0, 0,0.0,0.0,0.0,0.0,0.0,0.0,0.0,0.0,0.0,0.0,0.0,0.0,0.0,26,curator-x-rpc\src\main\java\org\apache\curator\x\rpc\configuration\ExponentialBackoffRetryConfiguration.java,0,0,0,0
org.apache.curator.x.rpc.configuration.RetryNTimesConfiguration, 0, 0, 0, 0, 0, 0, 0, 0, 0, 0, 0, 0, 0, 0,0.0,0.0,0.0,0.0,0.0,0.0,0.0,0.0,0.0,0.0,0.0,0.0,0.0,26,curator-x-rpc\src\main\java\org\apache\curator\x\rpc\configuration\RetryNTimesConfiguration.java,0,0,0,0
org.apache.curator.x.rpc.configuration.RetryPolicyConfiguration, 0, 0, 0, 0, 0, 0, 0, 0, 0, 0, 0, 0, 0, 0,0.0,0.0,0.0,0.0,0.0,0.0,0.0,0.0,0.0,0.0,0.0,0.0,0.0,4,curator-x-rpc\src\main\java\org\apache\curator\x\rpc\configuration\RetryPolicyConfiguration.java,0,0,0,0
org.apache.curator.x.rpc.connections.Closer, 0, 0, 0, 0, 0, 0, 0, 0, 0, 0, 0, 0, 0, 0,0.0,0.0,0.0,0.0,0.0,0.0,0.0,0.0,0.0,0.0,0.0,0.0,0.0,4,curator-x-rpc\src\main\java\org\apache\curator\x\rpc\connections\Closer.java,0,0,0,0
org.apache.curator.x.rpc.details.RpcBackgroundCallback, 0, 0, 0, 0, 0, 0, 0, 0, 0, 0, 0, 0, 0, 0,0.0,0.0,0.6666666666666666,0.3333333333333333,0.0,0.0,0.0,0.3333333333333333,0.0,0.0,0.0,0.0,0.0,15,curator-x-rpc\src\main\java\org\apache\curator\x\rpc\details\RpcBackgroundCallback.java,0,0,0,0
org.apache.curator.x.rpc.details.RpcWatcher, 0, 0, 0, 0, 0, 0, 0, 0, 0, 0, 0, 0, 0, 0,0.0,0.0,0.6666666666666666,0.3333333333333333,0.0,0.0,0.0,0.3333333333333333,0.0,0.0,0.0,0.0,0.0,15,curator-x-rpc\src\main\java\org\apache\curator\x\rpc\details\RpcWatcher.java,0,0,0,0
org.apache.curator.x.rpc.idl.discovery.DiscoveryInstance, 0, 0, 1, 0, 0, 0, 0, 1, 0, 0, 0, 0, 0, 2,0.0,0.0,0.0,0.0,0.0,0.0,0.0,0.5,0.0,0.0,0.0,0.0,0.0,55,curator-x-rpc\src\main\java\org\apache\curator\x\rpc\idl\discovery\DiscoveryInstance.java,0,0,0,0
org.apache.curator.x.rpc.idl.discovery.DiscoveryProjection, 0, 0, 1, 0, 0, 0, 0, 0, 0, 0, 0, 0, 0, 1,0.0,0.0,0.0,0.0,0.0,0.0,0.0,0.5,0.0,0.0,0.0,0.0,0.0,12,curator-x-rpc\src\main\java\org\apache\curator\x\rpc\idl\discovery\DiscoveryProjection.java,0,0,0,0
org.apache.curator.x.rpc.idl.discovery.DiscoveryProviderProjection, 0, 0, 1, 0, 0, 0, 0, 0, 0, 0, 0, 0, 0, 1,0.0,0.0,0.0,0.0,0.0,0.0,0.0,1.0,0.0,0.0,0.0,0.0,0.0,12,curator-x-rpc\src\main\java\org\apache\curator\x\rpc\idl\discovery\DiscoveryProviderProjection.java,0,0,0,0
org.apache.curator.x.rpc.idl.discovery.DiscoveryService, 0, 0, 0, 0, 0, 0, 0, 1, 0, 0, 0, 0, 0, 1,0.0,0.0,0.5,0.0,0.0,0.0,0.0,0.1,0.0,0.0,0.0,0.0,0.0,191,curator-x-rpc\src\main\java\org\apache\curator\x\rpc\idl\discovery\DiscoveryService.java,0,0,0,0
org.apache.curator.x.rpc.idl.discovery.DiscoveryServiceLowLevel, 0, 0, 0, 0, 0, 0, 0, 0, 0, 0, 0, 0, 0, 0,0.0,0.0,0.8,0.0,0.0,0.0,0.0,0.2,0.0,0.0,0.0,0.0,0.0,111,curator-x-rpc\src\main\java\org\apache\curator\x\rpc\idl\discovery\DiscoveryServiceLowLevel.java,0,0,0,0
org.apache.curator.x.rpc.idl.exceptions.RpcException, 0, 0, 1, 0, 0, 0, 0, 0, 0, 0, 0, 0, 0, 1,0.0,0.0,0.0,0.25,0.0,0.0,0.0,0.5,0.0,0.0,0.0,0.0,0.0,59,curator-x-rpc\src\main\java\org\apache\curator\x\rpc\idl\exceptions\RpcException.java,0,0,0,0
org.apache.curator.x.rpc.idl.services.CuratorProjectionService, 0, 0, 0, 1, 0, 0, 0, 1, 0, 0, 0, 0, 0, 2,0.0,0.0,0.7096774193548387,0.0967741935483871,0.0,0.0,0.0,0.06451612903225806,0.0,0.0,0.0,0.0,0.0,601,curator-x-rpc\src\main\java\org\apache\curator\x\rpc\idl\services\CuratorProjectionService.java,0,0,0,0
org.apache.curator.x.rpc.idl.services.EventService, 0, 0, 0, 0, 0, 0, 0, 0, 0, 0, 0, 0, 0, 0,0.0,0.0,0.75,0.0,0.0,0.0,0.0,0.0,0.0,0.0,0.0,0.0,0.0,24,curator-x-rpc\src\main\java\org\apache\curator\x\rpc\idl\services\EventService.java,0,0,0,0
org.apache.curator.x.rpc.idl.structs.CreateSpec, 0, 0, 1, 0, 0, 0, 0, 1, 0, 0, 0, 0, 0, 2,0.0,0.0,0.0,1.0,0.0,0.0,0.0,1.0,0.0,0.0,0.0,0.0,0.0,30,curator-x-rpc\src\main\java\org\apache\curator\x\rpc\idl\structs\CreateSpec.java,0,0,0,0
org.apache.curator.x.rpc.idl.structs.CuratorProjection, 0, 0, 1, 0, 0, 0, 0, 0, 0, 0, 0, 0, 0, 1,0.0,0.0,0.0,0.16666666666666666,0.0,0.0,0.0,0.3333333333333333,0.0,0.0,0.0,0.0,0.0,12,curator-x-rpc\src\main\java\org\apache\curator\x\rpc\idl\structs\CuratorProjection.java,0,0,0,0
org.apache.curator.x.rpc.idl.structs.DeleteSpec, 0, 0, 1, 0, 0, 0, 0, 0, 0, 0, 0, 0, 0, 1,0.0,0.0,0.5,0.5,0.0,0.0,0.0,0.5,0.0,0.0,0.0,0.0,0.0,21,curator-x-rpc\src\main\java\org\apache\curator\x\rpc\idl\structs\DeleteSpec.java,0,0,0,0
org.apache.curator.x.rpc.idl.structs.ExistsSpec, 0, 0, 1, 0, 0, 0, 0, 0, 0, 0, 0, 0, 0, 1,0.0,0.0,0.0,1.0,0.0,0.0,0.0,1.0,0.0,0.0,0.0,0.0,0.0,18,curator-x-rpc\src\main\java\org\apache\curator\x\rpc\idl\structs\ExistsSpec.java,0,0,0,0
org.apache.curator.x.rpc.idl.structs.GetChildrenSpec, 0, 0, 1, 0, 0, 0, 0, 0, 0, 0, 0, 0, 0, 1,0.0,0.0,0.0,1.0,0.0,0.0,0.0,1.0,0.0,0.0,0.0,0.0,0.0,18,curator-x-rpc\src\main\java\org\apache\curator\x\rpc\idl\structs\GetChildrenSpec.java,0,0,0,0
org.apache.curator.x.rpc.idl.structs.GetDataSpec, 0, 0, 1, 0, 0, 0, 0, 0, 0, 0, 0, 0, 0, 1,0.0,0.0,0.0,1.0,0.0,0.0,0.0,1.0,0.0,0.0,0.0,0.0,0.0,21,curator-x-rpc\src\main\java\org\apache\curator\x\rpc\idl\structs\GetDataSpec.java,0,0,0,0
org.apache.curator.x.rpc.idl.structs.LeaderEvent, 0, 0, 1, 0, 0, 0, 0, 0, 0, 0, 0, 0, 0, 1,0.0,0.0,1.0,0.0,0.0,0.0,0.0,0.0,0.0,0.0,0.0,0.0,0.0,18,curator-x-rpc\src\main\java\org\apache\curator\x\rpc\idl\structs\LeaderEvent.java,0,0,0,0
org.apache.curator.x.rpc.idl.structs.LeaderProjection, 0, 0, 1, 0, 0, 0, 0, 0, 0, 0, 0, 0, 0, 1,0.0,0.0,0.5,0.5,0.0,0.0,0.0,0.5,0.0,0.0,0.0,0.0,0.0,12,curator-x-rpc\src\main\java\org\apache\curator\x\rpc\idl\structs\LeaderProjection.java,0,0,0,0
org.apache.curator.x.rpc.idl.structs.LeaderResult, 0, 0, 1, 0, 0, 0, 0, 0, 0, 0, 0, 0, 0, 1,0.0,0.0,0.5,0.5,0.0,0.0,0.0,0.5,0.0,0.0,0.0,0.0,0.0,15,curator-x-rpc\src\main\java\org\apache\curator\x\rpc\idl\structs\LeaderResult.java,0,0,0,0
org.apache.curator.x.rpc.idl.structs.LeaseProjection, 0, 0, 1, 0, 0, 0, 0, 0, 0, 0, 0, 0, 0, 1,0.0,0.0,0.0,1.0,0.0,0.0,0.0,1.0,0.0,0.0,0.0,0.0,0.0,12,curator-x-rpc\src\main\java\org\apache\curator\x\rpc\idl\structs\LeaseProjection.java,0,0,0,0
org.apache.curator.x.rpc.idl.structs.LockProjection, 0, 0, 1, 0, 0, 0, 0, 0, 0, 0, 0, 0, 0, 1,0.0,0.0,0.5,0.5,0.0,0.0,0.0,0.5,0.0,0.0,0.0,0.0,0.0,12,curator-x-rpc\src\main\java\org\apache\curator\x\rpc\idl\structs\LockProjection.java,0,0,0,0
org.apache.curator.x.rpc.idl.structs.NodeCacheProjection, 0, 0, 1, 0, 0, 0, 0, 0, 0, 0, 0, 0, 0, 1,0.0,0.0,0.0,1.0,0.0,0.0,0.0,1.0,0.0,0.0,0.0,0.0,0.0,12,curator-x-rpc\src\main\java\org\apache\curator\x\rpc\idl\structs\NodeCacheProjection.java,0,0,0,0
org.apache.curator.x.rpc.idl.structs.OptionalChildrenList, 0, 0, 1, 0, 0, 0, 0, 0, 0, 0, 0, 0, 0, 1,0.0,0.0,0.0,1.0,0.0,0.0,0.0,1.0,0.0,0.0,0.0,0.0,0.0,12,curator-x-rpc\src\main\java\org\apache\curator\x\rpc\idl\structs\OptionalChildrenList.java,0,0,0,0
org.apache.curator.x.rpc.idl.structs.OptionalData, 0, 0, 1, 0, 0, 0, 0, 0, 0, 0, 0, 0, 0, 1,0.0,0.0,0.0,1.0,0.0,0.0,0.0,1.0,0.0,0.0,0.0,0.0,0.0,12,curator-x-rpc\src\main\java\org\apache\curator\x\rpc\idl\structs\OptionalData.java,0,0,0,0
org.apache.curator.x.rpc.idl.structs.OptionalLockProjection, 0, 0, 1, 0, 0, 0, 0, 0, 0, 0, 0, 0, 0, 1,0.0,0.0,0.5,0.5,0.0,0.0,0.0,0.5,0.0,0.0,0.0,0.0,0.0,12,curator-x-rpc\src\main\java\org\apache\curator\x\rpc\idl\structs\OptionalLockProjection.java,0,0,0,0
org.apache.curator.x.rpc.idl.structs.OptionalPath, 0, 0, 1, 0, 0, 0, 0, 0, 0, 0, 0, 0, 0, 1,0.0,0.0,0.0,1.0,0.0,0.0,0.0,1.0,0.0,0.0,0.0,0.0,0.0,12,curator-x-rpc\src\main\java\org\apache\curator\x\rpc\idl\structs\OptionalPath.java,0,0,0,0
org.apache.curator.x.rpc.idl.structs.OptionalRpcStat, 0, 0, 1, 0, 0, 0, 0, 0, 0, 0, 0, 0, 0, 1,0.0,0.0,0.5,0.5,0.0,0.0,0.0,1.0,0.0,0.0,0.0,0.0,0.0,12,curator-x-rpc\src\main\java\org\apache\curator\x\rpc\idl\structs\OptionalRpcStat.java,0,0,0,0
org.apache.curator.x.rpc.idl.structs.PathChildrenCacheProjection, 0, 0, 1, 0, 0, 0, 0, 0, 0, 0, 0, 0, 0, 1,0.0,0.0,0.0,1.0,0.0,0.0,0.0,1.0,0.0,0.0,0.0,0.0,0.0,12,curator-x-rpc\src\main\java\org\apache\curator\x\rpc\idl\structs\PathChildrenCacheProjection.java,0,0,0,0
org.apache.curator.x.rpc.idl.structs.PersistentEphemeralNodeProjection, 0, 0, 1, 0, 0, 0, 0, 0, 0, 0, 0, 0, 0, 1,0.0,0.0,0.0,1.0,0.0,0.0,0.0,1.0,0.0,0.0,0.0,0.0,0.0,12,curator-x-rpc\src\main\java\org\apache\curator\x\rpc\idl\structs\PersistentEphemeralNodeProjection.java,0,0,0,0
org.apache.curator.x.rpc.idl.structs.RpcAcl, 0, 0, 1, 0, 0, 0, 0, 0, 0, 0, 0, 0, 0, 1,0.0,0.0,1.0,0.0,0.0,0.0,0.0,0.0,0.0,0.0,0.0,0.0,0.0,15,curator-x-rpc\src\main\java\org\apache\curator\x\rpc\idl\structs\RpcAcl.java,0,0,0,0
org.apache.curator.x.rpc.idl.structs.RpcChildData, 0, 0, 1, 0, 0, 0, 0, 0, 0, 0, 0, 0, 0, 1,0.0,0.0,0.6,0.2,0.0,0.0,0.0,0.4,0.0,0.0,0.0,0.0,0.0,27,curator-x-rpc\src\main\java\org\apache\curator\x\rpc\idl\structs\RpcChildData.java,0,0,0,0
org.apache.curator.x.rpc.idl.structs.RpcCuratorEvent, 0, 0, 1, 0, 0, 0, 0, 0, 0, 0, 0, 0, 0, 1,0.0,0.0,0.5555555555555556,0.1111111111111111,0.0,0.0,0.0,0.2222222222222222,0.0,0.0,0.0,0.0,0.0,169,curator-x-rpc\src\main\java\org\apache\curator\x\rpc\idl\structs\RpcCuratorEvent.java,0,0,0,0
org.apache.curator.x.rpc.idl.structs.RpcId, 0, 0, 1, 0, 0, 0, 0, 0, 0, 0, 0, 0, 0, 1,0.0,0.0,1.0,0.0,0.0,0.0,0.0,0.0,0.0,0.0,0.0,0.0,0.0,15,curator-x-rpc\src\main\java\org\apache\curator\x\rpc\idl\structs\RpcId.java,0,0,0,0
org.apache.curator.x.rpc.idl.structs.RpcParticipant, 0, 0, 1, 0, 0, 0, 0, 0, 0, 0, 0, 0, 0, 1,0.0,0.0,0.0,0.0,0.0,0.0,0.0,0.0,0.0,0.0,0.0,0.0,0.0,15,curator-x-rpc\src\main\java\org\apache\curator\x\rpc\idl\structs\RpcParticipant.java,0,0,0,0
org.apache.curator.x.rpc.idl.structs.RpcPathChildrenCacheEvent, 0, 0, 1, 0, 0, 0, 0, 0, 0, 0, 0, 0, 0, 1,0.0,0.0,0.6666666666666666,0.0,0.0,0.0,0.0,0.0,0.0,0.0,0.0,0.0,0.0,24,curator-x-rpc\src\main\java\org\apache\curator\x\rpc\idl\structs\RpcPathChildrenCacheEvent.java,0,0,0,0
org.apache.curator.x.rpc.idl.structs.RpcStat, 0, 0, 1, 0, 0, 0, 0, 1, 0, 0, 0, 0, 0, 2,0.0,0.0,1.0,0.0,0.0,0.0,0.0,0.0,0.0,0.0,0.0,0.0,0.0,56,curator-x-rpc\src\main\java\org\apache\curator\x\rpc\idl\structs\RpcStat.java,0,0,0,0
org.apache.curator.x.rpc.idl.structs.RpcWatchedEvent, 0, 0, 1, 0, 0, 0, 0, 0, 0, 0, 0, 0, 0, 1,0.0,0.0,1.0,0.0,0.0,0.0,0.0,0.0,0.0,0.0,0.0,0.0,0.0,24,curator-x-rpc\src\main\java\org\apache\curator\x\rpc\idl\structs\RpcWatchedEvent.java,0,0,0,0
org.apache.curator.x.rpc.idl.structs.SetDataSpec, 0, 0, 1, 0, 0, 0, 0, 1, 0, 0, 0, 0, 0, 2,0.0,0.0,0.5,0.5,0.0,0.0,0.0,0.5,0.0,0.0,0.0,0.0,0.0,27,curator-x-rpc\src\main\java\org\apache\curator\x\rpc\idl\structs\SetDataSpec.java,0,0,0,0
org.apache.curator.x.rpc.idl.structs.Version, 0, 0, 1, 0, 0, 0, 0, 0, 0, 0, 0, 0, 0, 1,0.0,0.0,1.0,0.0,0.0,0.0,0.0,0.5,0.0,0.0,0.0,0.0,0.0,12,curator-x-rpc\src\main\java\org\apache\curator\x\rpc\idl\structs\Version.java,0,0,0,0
