ClassName,AntiSingleton,Blob,ClassDataShouldBePrivate,ComplexClass,LargeClass,LazyClass,LongMethod,LongParameterList,MessageChains,RefusedParentBequest,SpaghettiCode,SpeculativeGenerality,SwissArmyKnife,NumOfAPs,AntiSingleton,Blob,ClassDataShouldBePrivate,ComplexClass,LargeClass,LazyClass,LongMethod,LongParameterList,MessageChains,RefusedParentBequest,SpaghettiCode,SpeculativeGenerality,SwissArmyKnife,LOC,name,deleted,added,changed,all
org.apache.click.BehaviorTest, 0, 0, 0, 0, 0, 0, 0, 0, 0, 0, 0, 0, 0, 0,0.0,0.0,0.0,0.0,0.0,0.0,0.0,0.0,0.0,0.0,0.0,0.0,0.0,4,framework\test\org\apache\click\BehaviorTest.java,0,0,0,0
org.apache.click.ClickServletTest, 0, 0, 0, 0, 0, 0, 0, 0, 0, 0, 0, 0, 0, 0,0.0,0.0,0.0,0.0,0.0,0.0,0.0,0.0,0.0,0.0,0.0,0.0,0.0,18,framework\test\org\apache\click\ClickServletTest.java,0,0,0,0
org.apache.click.ContextTest, 0, 0, 0, 0, 0, 0, 0, 0, 0, 0, 0, 0, 0, 0,0.0,0.0,0.0,0.0,0.0,0.0,0.0,1.0,0.0,0.0,0.0,0.0,0.0,17,framework\test\org\apache\click\ContextTest.java,0,0,0,0
org.apache.click.ControlRegistryTest, 0, 0, 0, 0, 0, 0, 0, 0, 0, 0, 0, 0, 0, 0,0.0,0.0,0.0,0.0,0.0,0.0,0.0,0.5,0.0,0.0,0.0,0.0,0.0,45,framework\test\org\apache\click\ControlRegistryTest.java,0,0,0,0
org.apache.click.MockContainerTest, 0, 0, 0, 0, 0, 0, 0, 0, 0, 0, 0, 0, 0, 0,0.0,0.0,0.0,0.0,0.0,0.0,0.0,0.0,0.0,0.0,0.0,0.0,0.0,115,mock\test\org\apache\click\MockContainerTest.java,0,0,0,0
org.apache.click.MockContext, 0, 0, 0, 0, 0, 0, 0, 1, 0, 0, 0, 0, 0, 1,0.0,0.0,0.0,0.02631578947368421,0.0,0.0,0.0,0.0,0.0,0.0,0.0,0.0,0.0,139,mock\src\org\apache\click\MockContext.java,0,0,0,0
org.apache.click.MockContextTest, 0, 0, 0, 0, 0, 0, 0, 0, 0, 0, 0, 0, 0, 0,0.0,0.0,0.0,0.0,0.0,0.0,0.0,0.5,0.0,0.0,0.0,0.0,0.0,201,mock\test\org\apache\click\MockContextTest.java,0,0,0,0
org.apache.click.MockPrincipalTest, 0, 0, 0, 0, 0, 0, 0, 0, 0, 0, 0, 0, 0, 0,0.0,0.0,0.0,0.0,0.0,0.0,0.0,0.5,0.0,0.0,0.0,0.0,0.0,20,mock\test\org\apache\click\MockPrincipalTest.java,0,0,0,0
org.apache.click.MockRequestTest, 0, 0, 0, 0, 0, 0, 0, 0, 0, 0, 0, 0, 0, 0,0.0,0.0,0.0,0.6666666666666666,0.0,0.0,0.0,0.6666666666666666,0.0,0.0,0.0,0.0,0.0,27,mock\test\org\apache\click\MockRequestTest.java,0,0,0,0
org.apache.click.PageInterceptor, 0, 0, 0, 0, 0, 0, 0, 0, 0, 0, 0, 0, 0, 0,0.0,0.0,0.0,0.0,0.0,0.0,0.0,0.0,0.0,0.0,0.0,0.0,0.0,27,framework\src\org\apache\click\PageInterceptor.java,0,0,0,0
org.apache.click.PageTest, 0, 0, 0, 0, 0, 0, 0, 0, 0, 0, 0, 0, 0, 0,0.0,0.0,0.6666666666666666,0.0,0.0,0.0,0.0,0.3333333333333333,0.0,0.0,0.0,0.0,0.0,128,framework\test\org\apache\click\PageTest.java,0,0,0,0
org.apache.click.Stateful, 0, 0, 0, 0, 0, 0, 0, 0, 0, 0, 0, 0, 0, 0,0.0,0.0,0.0,0.0,0.0,0.0,0.0,0.0,0.0,0.0,0.0,0.0,0.0,128,framework\src\org\apache\click\Stateful.java,0,0,0,0
org.apache.click.ajax.AjaxBehavior, 0, 0, 0, 0, 0, 0, 0, 0, 0, 0, 0, 0, 0, 0,0.0,0.0,0.0,0.0,0.0,0.0,0.0,0.0,0.0,0.0,0.0,0.0,0.0,128,framework\src\org\apache\click\ajax\AjaxBehavior.java,0,0,0,0
org.apache.click.ajax.DefaultAjaxBehavior, 0, 0, 0, 0, 0, 0, 0, 0, 0, 0, 0, 0, 0, 0,0.0,0.0,0.0,0.0,0.0,0.0,0.0,0.0,0.0,0.0,0.0,0.0,0.0,23,framework\src\org\apache\click\ajax\DefaultAjaxBehavior.java,0,0,0,0
org.apache.click.control.AbstractContainerTest, 0, 0, 0, 0, 0, 0, 0, 0, 0, 0, 0, 0, 0, 0,0.0,0.0,0.0,0.0,0.0,0.0,0.0,0.3333333333333333,0.0,0.0,0.0,0.0,0.0,111,framework\test\org\apache\click\control\AbstractContainerTest.java,0,0,0,0
org.apache.click.control.ActionLink, 0, 0, 0, 0, 0, 0, 0, 0, 0, 0, 0, 0, 0, 0,0.0,0.0,0.0,0.03125,0.0,0.0,0.0,0.03125,0.0,0.0,0.0,0.0,0.0,176,framework\src\org\apache\click\control\ActionLink.java,0,0,0,0
org.apache.click.control.AttributeTest, 0, 0, 0, 0, 0, 0, 0, 0, 0, 0, 0, 0, 0, 0,0.0,0.0,0.0,0.3333333333333333,0.0,0.0,0.0,0.3333333333333333,0.0,0.0,0.0,0.0,0.0,202,framework\test\org\apache\click\control\AttributeTest.java,0,0,0,0
org.apache.click.control.Button, 0, 0, 0, 0, 0, 0, 0, 0, 0, 0, 0, 0, 0, 0,0.0,0.0,0.0,0.2,0.0,0.0,0.0,0.0,0.0,0.0,0.0,0.0,0.0,67,framework\src\org\apache\click\control\Button.java,0,0,0,0
org.apache.click.control.ButtonTest, 0, 0, 0, 0, 0, 0, 0, 0, 0, 0, 0, 0, 0, 0,0.0,0.0,0.0,0.3333333333333333,0.0,0.0,0.0,0.3333333333333333,0.0,0.0,0.0,0.0,0.0,75,framework\test\org\apache\click\control\ButtonTest.java,0,0,0,0
org.apache.click.control.Checkbox, 0, 0, 0, 0, 0, 0, 0, 0, 0, 0, 0, 0, 0, 0,0.0,0.0,0.0,0.13333333333333333,0.0,0.0,0.0,0.0,0.0,0.0,0.0,0.0,0.0,134,framework\src\org\apache\click\control\Checkbox.java,0,0,0,0
org.apache.click.control.CheckboxTest, 0, 0, 0, 0, 0, 0, 0, 0, 0, 0, 0, 0, 0, 0,0.0,0.0,0.0,0.3333333333333333,0.0,0.0,0.0,0.3333333333333333,0.0,0.0,0.0,0.0,0.0,114,framework\test\org\apache\click\control\CheckboxTest.java,0,0,0,0
org.apache.click.control.ColumnTest, 0, 0, 0, 0, 0, 0, 0, 0, 0, 0, 0, 0, 0, 0,0.0,0.0,0.0,0.0,0.0,0.0,0.0,0.0,0.0,0.0,0.0,0.0,0.0,89,framework\test\org\apache\click\control\ColumnTest.java,0,0,0,0
org.apache.click.control.Container, 0, 0, 0, 0, 0, 0, 0, 0, 0, 0, 0, 0, 0, 0,0.0,0.0,0.0,0.0,0.0,0.0,0.0,0.0,0.0,0.0,0.0,0.0,0.0,89,framework\src\org\apache\click\control\Container.java,0,0,0,0
org.apache.click.control.ContextAccessTest, 0, 0, 0, 0, 0, 0, 0, 0, 0, 0, 0, 0, 0, 0,0.0,0.0,0.0,0.0,0.0,0.0,0.0,0.0,0.0,0.0,0.0,0.0,0.0,41,framework\test\org\apache\click\control\ContextAccessTest.java,0,0,0,0
org.apache.click.control.ControlTest, 0, 0, 0, 0, 0, 0, 0, 0, 0, 0, 0, 0, 0, 0,0.0,0.0,0.0,0.0,0.0,0.0,0.0,0.5,0.0,0.0,0.0,0.0,0.0,33,framework\test\org\apache\click\control\ControlTest.java,0,0,0,0
org.apache.click.control.Decorator, 0, 0, 0, 0, 0, 0, 0, 0, 0, 0, 0, 0, 0, 0,0.0,0.0,0.0,0.0,0.0,0.0,0.0,0.0,0.0,0.0,0.0,0.0,0.0,33,framework\src\org\apache\click\control\Decorator.java,0,0,0,0
org.apache.click.control.Field, 0, 0, 0, 1, 0, 0, 0, 0, 0, 0, 0, 0, 0, 1,0.0,0.0,0.0,0.0625,0.0,0.0,0.0,0.0125,0.0,0.0,0.0,0.0,0.0,369,framework\src\org\apache\click\control\Field.java,0,3,0,3
org.apache.click.control.FieldTest, 0, 0, 0, 0, 0, 0, 0, 0, 0, 0, 0, 0, 0, 0,0.0,0.0,0.0,0.3333333333333333,0.0,0.0,0.0,0.3333333333333333,0.0,0.0,0.0,0.0,0.0,29,framework\test\org\apache\click\control\FieldTest.java,0,0,0,0
org.apache.click.control.FileField, 0, 0, 0, 0, 0, 0, 0, 0, 0, 0, 0, 0, 0, 0,0.0,0.0,0.0,0.14285714285714285,0.0,0.0,0.0,0.0,0.0,0.0,0.0,0.0,0.0,123,framework\src\org\apache\click\control\FileField.java,0,0,0,0
org.apache.click.control.FileFieldTest, 0, 0, 0, 0, 0, 0, 0, 0, 0, 0, 0, 0, 0, 0,0.0,0.0,0.0,0.25,0.0,0.0,0.0,0.25,0.0,0.0,0.0,0.0,0.0,36,framework\test\org\apache\click\control\FileFieldTest.java,0,0,0,0
org.apache.click.control.HiddenField, 0, 0, 0, 0, 0, 0, 0, 0, 0, 0, 0, 0, 0, 0,0.0,0.0,0.0,0.14285714285714285,0.0,0.0,0.0,0.0,0.0,0.0,0.0,0.0,0.0,160,framework\src\org\apache\click\control\HiddenField.java,0,0,0,0
org.apache.click.control.HiddenFieldTest, 0, 0, 0, 0, 0, 0, 0, 0, 0, 0, 0, 0, 0, 0,0.0,0.0,0.0,0.0,0.0,0.0,0.0,0.3333333333333333,0.0,0.0,0.0,0.0,0.0,30,framework\test\org\apache\click\control\HiddenFieldTest.java,0,0,0,0
org.apache.click.control.ImageSubmit, 0, 0, 0, 0, 0, 0, 0, 0, 0, 0, 0, 0, 0, 0,0.0,0.0,0.0,0.2,0.0,0.0,0.0,0.0,0.0,0.0,0.0,0.0,0.0,79,framework\src\org\apache\click\control\ImageSubmit.java,0,16,0,16
org.apache.click.control.Label, 0, 0, 0, 0, 0, 0, 0, 0, 0, 0, 0, 0, 0, 0,0.0,0.0,0.0,0.14285714285714285,0.0,0.0,0.0,0.0,0.0,0.0,0.0,0.0,0.0,24,framework\src\org\apache\click\control\Label.java,0,0,0,0
org.apache.click.control.Option, 0, 0, 0, 0, 0, 0, 0, 0, 0, 0, 0, 0, 0, 0,0.0,0.0,0.0,0.1,0.0,0.0,0.0,0.0,0.0,0.0,0.0,0.0,0.0,54,framework\src\org\apache\click\control\Option.java,0,0,0,0
org.apache.click.control.OptionGroup, 0, 0, 0, 0, 0, 0, 0, 0, 0, 0, 0, 0, 0, 0,0.0,0.0,0.0,0.0,0.0,0.0,0.0,0.0,0.0,0.0,0.0,0.0,0.0,46,framework\src\org\apache\click\control\OptionGroup.java,0,0,0,0
org.apache.click.control.PageLink, 0, 0, 0, 0, 0, 0, 0, 0, 0, 0, 0, 0, 0, 0,0.0,0.0,0.0,0.0,0.0,0.0,0.0,0.0,0.0,0.0,0.0,0.0,0.0,65,framework\src\org\apache\click\control\PageLink.java,0,0,0,0
org.apache.click.control.PanelTest, 0, 0, 0, 0, 0, 0, 0, 0, 0, 0, 0, 0, 0, 0,0.0,0.0,0.0,0.0,0.0,0.0,0.0,0.0,0.0,0.0,0.0,0.0,0.0,32,framework\test\org\apache\click\control\PanelTest.java,0,0,0,0
org.apache.click.control.PasswordField, 0, 0, 0, 0, 0, 0, 0, 0, 0, 0, 0, 0, 0, 0,0.0,0.0,0.0,0.0,0.0,0.0,0.0,0.0,0.0,0.0,0.0,0.0,0.0,28,framework\src\org\apache\click\control\PasswordField.java,0,0,0,0
org.apache.click.control.Radio, 0, 0, 0, 0, 0, 0, 0, 0, 0, 0, 0, 0, 0, 0,0.0,0.0,0.0,0.16666666666666666,0.0,0.0,0.0,0.0,0.0,0.0,0.0,0.0,0.0,165,framework\src\org\apache\click\control\Radio.java,0,3,0,3
org.apache.click.control.RadioTest, 0, 0, 0, 0, 0, 0, 0, 0, 0, 0, 0, 0, 0, 0,0.0,0.0,0.0,0.3333333333333333,0.0,0.0,0.0,0.3333333333333333,0.0,0.0,0.0,0.0,0.0,128,framework\test\org\apache\click\control\RadioTest.java,0,0,0,0
org.apache.click.control.Renderable, 0, 0, 0, 0, 0, 0, 0, 0, 0, 0, 0, 0, 0, 0,0.0,0.0,0.0,0.0,0.0,0.0,0.0,0.0,0.0,0.0,0.0,0.0,0.0,128,framework\src\org\apache\click\control\Renderable.java,0,0,0,0
org.apache.click.control.Reset, 0, 0, 0, 0, 0, 0, 0, 0, 0, 0, 0, 0, 0, 0,0.0,0.0,0.0,0.25,0.0,0.0,0.0,0.0,0.0,0.0,0.0,0.0,0.0,15,framework\src\org\apache\click\control\Reset.java,0,0,0,0
org.apache.click.control.SelectTest, 0, 0, 0, 0, 0, 0, 0, 0, 0, 0, 0, 0, 0, 0,0.0,0.0,0.0,0.3333333333333333,0.0,0.0,0.0,0.3333333333333333,0.0,0.0,0.0,0.0,0.0,62,framework\test\org\apache\click\control\SelectTest.java,0,49,0,49
org.apache.click.control.Submit, 0, 0, 0, 0, 0, 0, 0, 0, 0, 0, 0, 0, 0, 0,0.0,0.0,0.020833333333333332,0.0625,0.0,0.0,0.0,0.0,0.0,0.0,0.0,0.0,0.0,77,framework\src\org\apache\click\control\Submit.java,0,0,0,0
org.apache.click.control.SubmitTest, 0, 0, 0, 0, 0, 0, 0, 0, 0, 0, 0, 0, 0, 0,0.0,0.0,0.0,0.3333333333333333,0.0,0.0,0.0,0.3333333333333333,0.0,0.0,0.0,0.0,0.0,92,framework\test\org\apache\click\control\SubmitTest.java,0,0,0,0
org.apache.click.control.TablePaginator, 0, 0, 0, 0, 0, 0, 0, 0, 0, 0, 0, 0, 0, 0,0.0,0.0,0.0,0.0,0.0,0.0,0.0,0.0,0.0,0.0,0.0,0.0,0.0,119,framework\src\org\apache\click\control\TablePaginator.java,0,0,0,0
org.apache.click.control.TextArea, 0, 0, 0, 1, 0, 0, 0, 1, 0, 0, 0, 0, 0, 2,0.0,0.0,0.0,0.1111111111111111,0.0,0.0,0.0,0.0,0.0,0.0,0.0,0.0,0.0,152,framework\src\org\apache\click\control\TextArea.java,0,0,0,0
org.apache.click.control.TextAreaTest, 0, 0, 0, 0, 0, 0, 0, 0, 0, 0, 0, 0, 0, 0,0.0,0.0,0.0,0.6666666666666666,0.0,0.0,0.0,0.6666666666666666,0.0,0.0,0.0,0.0,0.0,115,framework\test\org\apache\click\control\TextAreaTest.java,0,0,0,0
org.apache.click.control.TextField, 0, 0, 0, 0, 0, 0, 0, 0, 0, 0, 0, 0, 0, 0,0.0,0.0,0.01639344262295082,0.06557377049180328,0.0,0.0,0.0,0.0,0.0,0.0,0.0,0.0,0.0,141,framework\src\org\apache\click\control\TextField.java,0,0,0,0
org.apache.click.control.TextFieldTest, 0, 0, 0, 0, 0, 0, 0, 0, 0, 0, 0, 0, 0, 0,0.0,0.0,0.0,0.3333333333333333,0.0,0.0,0.0,0.3333333333333333,0.0,0.0,0.0,0.0,0.0,197,framework\test\org\apache\click\control\TextFieldTest.java,0,0,0,0
org.apache.click.dataprovider.DataProvider, 0, 0, 0, 0, 0, 0, 0, 0, 0, 0, 0, 0, 0, 0,0.0,0.0,0.0,0.0,0.0,0.0,0.0,0.0,0.0,0.0,0.0,0.0,0.0,197,framework\src\org\apache\click\dataprovider\DataProvider.java,0,0,0,0
org.apache.click.dataprovider.PagingDataProvider, 0, 0, 0, 0, 0, 0, 0, 0, 0, 0, 0, 0, 0, 0,0.0,0.0,0.0,0.0,0.0,0.0,0.0,0.0,0.0,0.0,0.0,0.0,0.0,197,framework\src\org\apache\click\dataprovider\PagingDataProvider.java,0,0,0,0
org.apache.click.element.CssImportTest, 0, 0, 0, 0, 0, 0, 0, 0, 0, 0, 0, 0, 0, 0,0.0,0.0,0.0,0.0,0.0,0.0,0.0,0.0,0.0,0.0,0.0,0.0,0.0,9,framework\test\org\apache\click\element\CssImportTest.java,0,0,0,0
org.apache.click.element.JsImportTest, 0, 0, 0, 0, 0, 0, 0, 0, 0, 0, 0, 0, 0, 0,0.0,0.0,0.0,0.0,0.0,0.0,0.0,0.0,0.0,0.0,0.0,0.0,0.0,9,framework\test\org\apache\click\element\JsImportTest.java,0,0,0,0
org.apache.click.element.ResourceElement, 0, 0, 0, 0, 0, 0, 0, 0, 0, 0, 0, 0, 0, 0,1.0,0.0,0.0,1.0,0.0,0.0,0.0,0.0,0.0,0.0,0.0,0.0,0.0,80,framework\src\org\apache\click\element\ResourceElement.java,0,0,0,0
org.apache.click.examples.control.ClientPanel, 0, 0, 0, 0, 0, 0, 0, 0, 0, 0, 0, 0, 0, 0,0.0,0.0,0.0,0.3333333333333333,0.0,0.0,0.0,0.0,0.0,0.0,0.0,0.0,0.0,28,examples\src\org\apache\click\examples\control\ClientPanel.java,0,0,0,0
org.apache.click.examples.control.FieldSeparator, 0, 0, 0, 0, 0, 0, 0, 0, 0, 0, 0, 0, 0, 0,0.0,0.0,0.0,0.0,0.0,0.0,0.0,0.0,0.0,0.0,0.0,0.0,0.0,23,examples\src\org\apache\click\examples\control\FieldSeparator.java,0,0,0,0
org.apache.click.examples.control.FilterPanel, 0, 0, 0, 0, 0, 0, 0, 0, 0, 0, 0, 0, 0, 0,0.0,0.0,0.0,0.3333333333333333,0.0,0.0,0.0,0.0,0.0,0.0,0.0,0.0,0.0,24,examples\src\org\apache\click\examples\control\FilterPanel.java,0,4,0,4
org.apache.click.examples.control.InvestmentSelect, 0, 0, 0, 0, 0, 0, 0, 0, 0, 0, 0, 0, 0, 0,0.0,0.0,0.0,0.0,0.0,0.0,0.0,0.0,0.0,0.0,0.0,0.0,0.0,28,examples\src\org\apache\click\examples\control\InvestmentSelect.java,0,0,0,0
org.apache.click.examples.control.RichTextArea, 0, 0, 0, 0, 0, 0, 0, 0, 0, 0, 0, 0, 0, 0,0.0,0.0,0.0,0.6666666666666666,0.0,0.0,0.0,0.3333333333333333,0.0,0.0,0.0,0.0,0.0,56,examples\src\org\apache\click\examples\control\RichTextArea.java,0,0,0,0
org.apache.click.examples.control.SimplePanel, 0, 0, 0, 0, 0, 0, 0, 0, 0, 0, 0, 0, 0, 0,0.0,0.0,0.0,1.0,0.0,0.0,0.0,0.0,0.0,0.0,0.0,0.0,0.0,56,examples\src\org\apache\click\examples\control\SimplePanel.java,0,0,0,0
org.apache.click.examples.control.SpacerButton, 0, 0, 0, 0, 0, 0, 0, 0, 0, 0, 0, 0, 0, 0,0.0,0.0,0.0,0.0,0.0,0.0,0.0,0.0,0.0,0.0,0.0,0.0,0.0,9,examples\src\org\apache\click\examples\control\SpacerButton.java,0,0,0,0
org.apache.click.examples.control.cayenne.CayenneIntegerField, 0, 0, 0, 0, 0, 0, 0, 0, 0, 0, 0, 0, 0, 0,0.0,0.0,0.0,0.0,0.0,0.0,0.0,0.0,0.0,0.0,0.0,0.0,0.0,12,examples\src\org\apache\click\examples\control\cayenne\CayenneIntegerField.java,0,0,0,0
org.apache.click.examples.control.cayenne.NestedCayenneForm, 0, 0, 0, 0, 0, 0, 0, 0, 0, 0, 0, 0, 0, 0,0.0,0.0,0.0,0.0,0.0,0.0,0.0,0.0,0.0,0.0,0.0,0.0,0.0,30,examples\src\org\apache\click\examples\control\cayenne\NestedCayenneForm.java,0,0,0,0
org.apache.click.examples.control.exporter.AbstractTableExporter, 0, 0, 0, 0, 0, 0, 0, 0, 0, 0, 0, 0, 0, 0,0.0,0.0,0.0,0.3333333333333333,0.0,0.0,0.0,0.0,0.0,0.0,0.0,0.0,0.0,87,examples\src\org\apache\click\examples\control\exporter\AbstractTableExporter.java,0,0,0,0
org.apache.click.examples.control.exporter.ExportTable, 0, 0, 0, 1, 0, 0, 0, 0, 0, 0, 0, 0, 0, 1,0.0,0.0,0.0,0.0,0.0,0.0,0.0,0.0,0.0,0.0,0.0,0.0,0.0,195,examples\src\org\apache\click\examples\control\exporter\ExportTable.java,0,0,0,0
org.apache.click.examples.control.exporter.TableExportContainer, 0, 0, 0, 0, 0, 0, 0, 0, 0, 0, 0, 0, 0, 0,0.0,0.0,0.0,0.3333333333333333,0.0,0.0,0.0,0.0,0.0,0.0,0.0,0.0,0.0,96,examples\src\org\apache\click\examples\control\exporter\TableExportContainer.java,0,0,0,0
org.apache.click.examples.control.html.FeedbackBorder, 0, 0, 0, 0, 0, 0, 0, 0, 0, 0, 0, 0, 0, 0,0.0,0.0,0.0,0.5,0.0,0.0,0.0,0.0,0.0,0.0,0.0,0.0,0.0,32,examples\src\org\apache\click\examples\control\html\FeedbackBorder.java,0,0,0,0
org.apache.click.examples.control.html.FieldLabel, 0, 0, 0, 0, 0, 0, 0, 0, 0, 0, 0, 0, 0, 0,0.0,0.0,0.0,0.5,0.0,0.0,0.0,0.0,0.0,0.0,0.0,0.0,0.0,29,examples\src\org\apache\click\examples\control\html\FieldLabel.java,0,0,0,0
org.apache.click.examples.control.html.Html, 0, 0, 0, 0, 0, 0, 0, 0, 0, 0, 0, 0, 0, 0,0.0,0.0,0.0,0.0,0.0,0.0,0.0,0.0,0.0,0.0,0.0,0.0,0.0,27,examples\src\org\apache\click\examples\control\html\Html.java,0,0,0,0
org.apache.click.examples.control.html.Text, 0, 0, 0, 0, 0, 0, 0, 0, 0, 0, 0, 0, 0, 0,0.0,0.0,0.0,0.0,0.0,0.0,0.0,0.0,0.0,0.0,0.0,0.0,0.0,27,examples\src\org\apache\click\examples\control\html\Text.java,0,0,0,0
org.apache.click.examples.control.html.cssform.CssForm, 0, 0, 0, 0, 0, 0, 0, 0, 0, 0, 0, 0, 0, 0,0.0,0.0,0.0,0.0,0.0,0.0,0.0,0.0,0.0,0.0,0.0,0.0,0.0,14,examples\src\org\apache\click\examples\control\html\cssform\CssForm.java,0,0,0,0
org.apache.click.examples.control.html.cssform.VerticalFieldSet, 0, 0, 0, 0, 0, 0, 0, 0, 0, 0, 0, 0, 0, 0,0.0,0.0,0.0,0.16666666666666666,0.0,0.0,0.0,0.0,0.0,0.0,0.0,0.0,0.0,36,examples\src\org\apache\click\examples\control\html\cssform\VerticalFieldSet.java,0,0,0,0
org.apache.click.examples.control.html.list.HtmlList, 0, 0, 0, 0, 0, 0, 0, 0, 0, 0, 0, 0, 0, 0,0.0,0.0,0.0,0.0,0.0,0.0,0.0,0.0,0.0,0.0,0.0,0.0,0.0,47,examples\src\org\apache\click\examples\control\html\list\HtmlList.java,0,0,0,0
org.apache.click.examples.control.html.list.ListItem, 0, 0, 0, 0, 0, 0, 0, 0, 0, 0, 0, 0, 0, 0,0.0,0.0,0.0,0.0,0.0,0.0,0.0,0.0,0.0,0.0,0.0,0.0,0.0,17,examples\src\org\apache\click\examples\control\html\list\ListItem.java,0,0,0,0
org.apache.click.examples.domain.Address, 0, 0, 0, 0, 0, 0, 0, 0, 0, 0, 0, 0, 0, 0,0.0,0.0,0.0,0.0,0.0,0.0,0.0,0.0,0.0,1.0,0.0,0.0,0.0,3,examples\src\org\apache\click\examples\domain\Address.java,0,0,0,0
org.apache.click.examples.domain.BaseEntity, 0, 0, 0, 0, 0, 0, 0, 0, 0, 10, 0, 0, 0, 10,0.0,0.0,0.0,0.0,0.0,0.0,0.0,0.0,0.0,0.7692307692307693,0.0,0.0,0.0,10,examples\src\org\apache\click\examples\domain\BaseEntity.java,0,0,0,0
org.apache.click.examples.domain.Client, 0, 0, 0, 0, 0, 0, 0, 0, 0, 0, 0, 0, 0, 0,0.0,0.0,0.0,0.2,0.0,0.0,0.0,0.0,0.0,0.4,0.0,0.0,0.0,6,examples\src\org\apache\click\examples\domain\Client.java,0,0,0,0
org.apache.click.examples.domain.Course, 0, 0, 0, 0, 0, 0, 0, 0, 0, 0, 0, 0, 0, 0,0.0,0.0,0.0,0.0,0.0,0.0,0.0,0.0,0.0,0.6666666666666666,0.0,0.0,0.0,3,examples\src\org\apache\click\examples\domain\Course.java,0,0,0,0
org.apache.click.examples.domain.CourseBooking, 0, 0, 0, 0, 0, 0, 0, 0, 0, 0, 0, 0, 0, 0,0.0,0.0,0.0,0.0,0.0,0.0,0.0,0.0,0.0,0.3333333333333333,0.0,0.0,0.0,3,examples\src\org\apache\click\examples\domain\CourseBooking.java,0,0,0,0
org.apache.click.examples.domain.Customer, 0, 0, 0, 0, 0, 0, 0, 0, 0, 0, 0, 0, 0, 0,0.0,0.0,0.0,0.0,0.0,0.0,0.0,0.0,0.0,0.25,0.0,0.0,0.0,3,examples\src\org\apache\click\examples\domain\Customer.java,0,0,0,0
org.apache.click.examples.domain.PostCode, 0, 0, 0, 0, 0, 0, 0, 0, 0, 0, 0, 0, 0, 0,0.0,0.0,0.0,0.0,0.0,0.0,0.0,0.0,0.0,1.0,0.0,0.0,0.0,3,examples\src\org\apache\click\examples\domain\PostCode.java,0,0,0,0
org.apache.click.examples.domain.Student, 0, 0, 0, 0, 0, 0, 0, 0, 0, 0, 0, 0, 0, 0,0.0,0.0,0.0,0.0,0.0,0.0,0.0,0.0,0.0,0.6,0.0,0.0,0.0,3,examples\src\org\apache\click\examples\domain\Student.java,0,0,0,0
org.apache.click.examples.domain.StudentHouse, 0, 0, 0, 0, 0, 0, 0, 0, 0, 0, 0, 0, 0, 0,0.0,0.0,0.0,0.0,0.0,0.0,0.0,0.0,0.0,0.6666666666666666,0.0,0.0,0.0,3,examples\src\org\apache\click\examples\domain\StudentHouse.java,0,0,0,0
org.apache.click.examples.domain.SystemCode, 0, 0, 0, 0, 0, 0, 0, 0, 0, 0, 0, 0, 0, 0,0.0,0.0,0.0,0.0,0.0,0.0,0.0,0.0,0.0,1.0,0.0,0.0,0.0,3,examples\src\org\apache\click\examples\domain\SystemCode.java,0,0,0,0
org.apache.click.examples.domain.User, 0, 0, 0, 0, 0, 0, 0, 0, 0, 0, 0, 0, 0, 0,0.0,0.0,0.0,0.0,0.0,0.0,0.0,0.0,0.0,0.25,0.0,0.0,0.0,3,examples\src\org\apache\click\examples\domain\User.java,0,0,0,0
org.apache.click.examples.domain.auto._Address, 0, 0, 0, 0, 0, 0, 0, 0, 0, 1, 0, 0, 0, 1,0.0,0.0,0.0,0.0,0.0,0.0,0.0,0.0,0.0,0.3333333333333333,0.0,0.0,0.0,49,examples\src\org\apache\click\examples\domain\auto\_Address.java,0,0,0,0
org.apache.click.examples.domain.auto._Client, 0, 0, 0, 0, 0, 0, 0, 0, 0, 1, 0, 0, 0, 1,0.0,0.0,0.0,0.0,0.0,0.0,0.0,0.0,0.0,0.3333333333333333,0.0,0.0,0.0,53,examples\src\org\apache\click\examples\domain\auto\_Client.java,0,0,0,0
org.apache.click.examples.domain.auto._Course, 0, 0, 0, 0, 0, 0, 0, 0, 0, 1, 0, 0, 0, 1,0.0,0.0,0.0,0.0,0.0,0.0,0.0,0.0,0.0,0.3333333333333333,0.0,0.0,0.0,20,examples\src\org\apache\click\examples\domain\auto\_Course.java,0,0,0,0
org.apache.click.examples.domain.auto._CourseBooking, 0, 0, 0, 0, 0, 0, 0, 0, 0, 1, 0, 0, 0, 1,0.0,0.0,0.0,0.0,0.0,0.0,0.0,0.0,0.0,0.2,0.0,0.0,0.0,39,examples\src\org\apache\click\examples\domain\auto\_CourseBooking.java,0,0,0,0
org.apache.click.examples.domain.auto._Customer, 0, 0, 0, 0, 0, 0, 0, 0, 0, 1, 0, 0, 0, 1,0.0,0.0,0.0,0.0,0.0,0.0,0.0,0.0,0.0,0.16666666666666666,0.0,0.0,0.0,53,examples\src\org\apache\click\examples\domain\auto\_Customer.java,0,0,0,0
org.apache.click.examples.domain.auto._PostCode, 0, 0, 0, 0, 0, 0, 0, 0, 0, 1, 0, 0, 0, 1,0.0,0.0,0.0,0.0,0.0,0.0,0.0,0.0,0.0,0.3333333333333333,0.0,0.0,0.0,25,examples\src\org\apache\click\examples\domain\auto\_PostCode.java,0,0,0,0
org.apache.click.examples.domain.auto._Student, 0, 0, 0, 0, 0, 0, 0, 0, 0, 1, 0, 0, 0, 1,0.0,0.0,0.0,0.0,0.0,0.0,0.0,0.0,0.0,0.16666666666666666,0.0,0.0,0.0,27,examples\src\org\apache\click\examples\domain\auto\_Student.java,0,0,0,0
org.apache.click.examples.domain.auto._StudentHouse, 0, 0, 0, 0, 0, 0, 0, 0, 0, 1, 0, 0, 0, 1,0.0,0.0,0.0,0.0,0.0,0.0,0.0,0.0,0.0,0.3333333333333333,0.0,0.0,0.0,20,examples\src\org\apache\click\examples\domain\auto\_StudentHouse.java,0,0,0,0
org.apache.click.examples.domain.auto._SystemCode, 0, 0, 0, 0, 0, 0, 0, 0, 0, 1, 0, 0, 0, 1,0.0,0.0,0.0,0.0,0.0,0.0,0.0,0.0,0.0,0.5,0.0,0.0,0.0,32,examples\src\org\apache\click\examples\domain\auto\_SystemCode.java,0,0,0,0
org.apache.click.examples.domain.auto._User, 0, 0, 0, 0, 0, 0, 0, 0, 0, 1, 0, 0, 0, 1,0.0,0.0,0.0,0.0,0.0,0.0,0.0,0.0,0.0,0.2,0.0,0.0,0.0,32,examples\src\org\apache\click\examples\domain\auto\_User.java,0,0,0,0
org.apache.click.examples.interceptor.ProfilingInterceptor, 0, 0, 0, 0, 0, 0, 0, 0, 0, 0, 0, 0, 0, 0,0.0,0.0,0.0,0.0,0.0,0.0,0.0,0.0,0.0,0.0,0.0,0.0,0.0,41,examples\src\org\apache\click\examples\interceptor\ProfilingInterceptor.java,0,0,0,0
org.apache.click.examples.page.BorderPage, 0, 0, 0, 0, 0, 0, 0, 0, 0, 0, 0, 0, 0, 0,0.010309278350515464,0.0,0.0,0.030927835051546393,0.0,0.0,0.0,0.0,0.0,0.0,0.0,0.0,0.0,29,examples\src\org\apache\click\examples\page\BorderPage.java,0,0,0,0
org.apache.click.examples.page.EditCustomer, 0, 0, 0, 0, 0, 0, 0, 0, 0, 0, 0, 0, 0, 0,0.0,0.0,0.0,0.25,0.0,0.0,0.0,0.0,0.0,0.0,0.0,0.0,0.0,76,examples\src\org\apache\click\examples\page\EditCustomer.java,0,0,0,0
org.apache.click.examples.page.HomePage, 0, 0, 0, 0, 0, 0, 0, 0, 0, 0, 0, 0, 0, 0,0.0,0.0,0.0,0.0,0.0,0.0,0.0,0.0,0.0,0.0,0.0,0.0,0.0,6,examples\src\org\apache\click\examples\page\HomePage.java,0,0,0,0
org.apache.click.examples.page.SourceViewer, 0, 0, 0, 1, 0, 0, 0, 0, 0, 0, 0, 0, 0, 1,0.0,0.0,0.0,0.0,0.0,0.0,0.0,0.0,0.0,0.0,0.0,0.0,0.0,311,examples\src\org\apache\click\examples\page\SourceViewer.java,0,0,0,0
org.apache.click.examples.page.ajax.AjaxBehaviorPage, 0, 0, 0, 0, 0, 0, 0, 0, 0, 0, 0, 0, 0, 0,0.0,0.0,0.0,0.0,0.0,0.0,0.0,0.0,0.0,0.0,0.0,0.0,0.0,16,examples\src\org\apache\click\examples\page\ajax\AjaxBehaviorPage.java,0,0,0,0
org.apache.click.examples.page.ajax.AjaxFallbackPage, 0, 0, 0, 0, 0, 0, 0, 0, 0, 0, 0, 0, 0, 0,0.0,0.0,0.0,0.0,0.0,0.0,0.0,0.0,0.0,0.0,0.0,0.0,0.0,24,examples\src\org\apache\click\examples\page\ajax\AjaxFallbackPage.java,0,0,0,0
org.apache.click.examples.page.ajax.AjaxRedirectPage, 0, 0, 0, 0, 0, 0, 0, 0, 0, 0, 0, 0, 0, 0,0.0,0.0,0.0,0.0,0.0,0.0,0.0,0.0,0.0,0.0,0.0,0.0,0.0,22,examples\src\org\apache\click\examples\page\ajax\AjaxRedirectPage.java,0,0,0,0
org.apache.click.examples.page.ajax.AjaxSecurePage, 0, 0, 0, 0, 0, 0, 0, 0, 0, 0, 0, 0, 0, 0,0.0,0.0,0.0,0.0,0.0,0.0,0.0,0.0,0.0,0.0,0.0,0.0,0.0,36,examples\src\org\apache\click\examples\page\ajax\AjaxSecurePage.java,0,0,0,0
org.apache.click.examples.page.ajax.AutoCompletePage, 0, 0, 0, 0, 0, 0, 0, 0, 0, 0, 0, 0, 0, 0,0.0,0.0,0.0,0.0,0.0,0.0,0.0,0.0,0.0,0.0,0.0,0.0,0.0,19,examples\src\org\apache\click\examples\page\ajax\AutoCompletePage.java,1,1,1,4
org.apache.click.examples.page.ajax.PageActionPage, 0, 0, 0, 0, 0, 0, 0, 0, 0, 0, 0, 0, 0, 0,0.0,0.0,0.0,0.5,0.0,0.0,0.0,0.0,0.0,0.0,0.0,0.0,0.0,13,examples\src\org\apache\click\examples\page\ajax\PageActionPage.java,0,0,0,0
org.apache.click.examples.page.ajax.compare.JavascriptAjaxDemoPage, 0, 0, 0, 0, 0, 0, 0, 0, 0, 0, 0, 0, 0, 0,0.0,0.0,0.0,0.0,0.0,0.0,0.0,0.0,0.0,0.0,0.0,0.0,0.0,16,examples\src\org\apache\click\examples\page\ajax\compare\JavascriptAjaxDemoPage.java,0,0,0,0
org.apache.click.examples.page.ajax.compare.JqueryAjaxDemoPage, 0, 0, 0, 0, 0, 0, 0, 0, 0, 0, 0, 0, 0, 0,0.0,0.0,0.0,0.0,0.0,0.0,0.0,0.0,0.0,0.0,0.0,0.0,0.0,16,examples\src\org\apache\click\examples\page\ajax\compare\JqueryAjaxDemoPage.java,0,0,0,0
org.apache.click.examples.page.ajax.compare.PrototypeAjaxDemoPage, 0, 0, 0, 0, 0, 0, 0, 0, 0, 0, 0, 0, 0, 0,0.0,0.0,0.0,0.0,0.0,0.0,0.0,0.0,0.0,0.0,0.0,0.0,0.0,16,examples\src\org\apache\click\examples\page\ajax\compare\PrototypeAjaxDemoPage.java,0,0,0,0
org.apache.click.examples.page.ajax.content.JsonResponsePage, 0, 0, 0, 0, 0, 0, 0, 0, 0, 0, 0, 0, 0, 0,0.0,0.0,0.0,0.0,0.0,0.0,0.0,0.0,0.0,0.0,0.0,0.0,0.0,16,examples\src\org\apache\click\examples\page\ajax\content\JsonResponsePage.java,0,0,0,0
org.apache.click.examples.page.ajax.content.XmlResponsePage, 0, 0, 0, 0, 0, 0, 0, 0, 0, 0, 0, 0, 0, 0,0.0,0.0,0.0,0.0,0.0,0.0,0.0,0.0,0.0,0.0,0.0,0.0,0.0,19,examples\src\org\apache\click\examples\page\ajax\content\XmlResponsePage.java,0,0,0,0
org.apache.click.examples.page.ajax.select.AjaxCustomer, 0, 0, 0, 0, 0, 0, 0, 0, 0, 0, 0, 0, 0, 0,0.0,0.0,0.0,0.0,0.0,0.0,0.0,0.0,0.0,0.0,0.0,0.0,0.0,15,examples\src\org\apache\click\examples\page\ajax\select\AjaxCustomer.java,23,0,0,23
org.apache.click.examples.page.cayenne.AccommodationDemo, 0, 0, 0, 0, 0, 0, 0, 0, 0, 0, 0, 0, 0, 0,0.0,0.0,0.0,0.25,0.0,0.0,0.0,0.0,0.0,0.0,0.0,0.0,0.0,40,examples\src\org\apache\click\examples\page\cayenne\AccommodationDemo.java,0,0,0,0
org.apache.click.examples.page.cayenne.CayenneFormPage, 0, 0, 0, 0, 0, 0, 0, 0, 0, 0, 0, 0, 0, 0,0.0,0.0,0.0,0.2,0.0,0.0,0.0,0.0,0.0,0.0,0.0,0.0,0.0,49,examples\src\org\apache\click\examples\page\cayenne\CayenneFormPage.java,0,0,0,0
org.apache.click.examples.page.cayenne.EnrollmentDemo, 0, 0, 0, 0, 0, 0, 0, 0, 0, 0, 0, 0, 0, 0,0.0,0.0,0.0,0.125,0.0,0.0,0.0,0.0,0.0,0.25,0.0,0.0,0.0,63,examples\src\org\apache\click\examples\page\cayenne\EnrollmentDemo.java,0,3,0,3
org.apache.click.examples.page.cayenne.FormTablePage, 0, 0, 0, 0, 0, 0, 0, 0, 0, 0, 0, 0, 0, 0,0.0,0.0,0.0,0.0,0.0,0.0,0.0,0.0,0.0,0.0,0.0,0.0,0.0,103,examples\src\org\apache\click\examples\page\cayenne\FormTablePage.java,1,7,4,16
org.apache.click.examples.page.cayenne.TabbedCayenneFormPage, 0, 0, 0, 0, 0, 0, 0, 0, 0, 0, 0, 0, 0, 0,0.0,0.0,0.0,0.2,0.0,0.0,0.0,0.0,0.0,0.0,0.0,0.0,0.0,56,examples\src\org\apache\click\examples\page\cayenne\TabbedCayenneFormPage.java,0,0,0,0
org.apache.click.examples.page.control.ActionDemo, 0, 0, 0, 0, 0, 0, 0, 0, 0, 0, 0, 0, 0, 0,0.0,0.0,0.0,0.0,0.0,0.0,0.0,0.0,0.0,0.0,0.0,0.0,0.0,20,examples\src\org\apache\click\examples\page\control\ActionDemo.java,2,4,4,14
org.apache.click.examples.page.control.CheckListDemo, 0, 0, 0, 0, 0, 0, 0, 0, 0, 0, 0, 0, 0, 0,0.0,0.0,0.0,0.0,0.0,0.0,0.0,0.0,0.0,0.0,0.0,0.0,0.0,44,examples\src\org\apache\click\examples\page\control\CheckListDemo.java,1,1,1,4
org.apache.click.examples.page.control.EmailForm, 0, 0, 0, 0, 0, 0, 0, 0, 0, 0, 0, 0, 0, 0,0.0,0.0,0.0,0.3333333333333333,0.0,0.0,0.0,0.16666666666666666,0.0,0.0,0.0,0.0,0.0,23,examples\src\org\apache\click\examples\page\control\EmailForm.java,1,1,1,4
org.apache.click.examples.page.control.FieldSeparatorDemo, 0, 0, 0, 0, 0, 0, 0, 0, 0, 0, 0, 0, 0, 0,0.0,0.0,0.0,0.3333333333333333,0.0,0.0,0.0,0.16666666666666666,0.0,0.0,0.0,0.0,0.0,63,examples\src\org\apache\click\examples\page\control\FieldSeparatorDemo.java,1,2,2,7
org.apache.click.examples.page.control.FieldSetDemo, 0, 0, 0, 0, 0, 0, 0, 0, 0, 0, 0, 0, 0, 0,0.0,0.0,0.0,0.4,0.0,0.0,0.0,0.1,0.0,0.0,0.0,0.0,0.0,65,examples\src\org\apache\click\examples\page\control\FieldSetDemo.java,1,1,1,4
org.apache.click.examples.page.control.FileUpload, 0, 0, 0, 0, 0, 0, 0, 0, 0, 0, 0, 0, 0, 0,0.0,0.0,0.0,0.2,0.0,0.0,0.0,0.0,0.0,0.0,0.0,0.0,0.0,38,examples\src\org\apache\click\examples\page\control\FileUpload.java,1,1,1,4
org.apache.click.examples.page.control.ImageDemo, 0, 0, 0, 0, 0, 0, 0, 0, 0, 0, 0, 0, 0, 0,0.0,0.0,0.0,0.25,0.0,0.0,0.0,0.0,0.0,0.0,0.0,0.0,0.0,50,examples\src\org\apache\click\examples\page\control\ImageDemo.java,1,2,2,7
org.apache.click.examples.page.control.LinkDemo, 0, 0, 0, 0, 0, 0, 0, 0, 0, 0, 0, 0, 0, 0,0.0,0.0,0.0,0.0,0.0,0.0,0.0,0.0,0.0,0.0,0.0,0.0,0.0,46,examples\src\org\apache\click\examples\page\control\LinkDemo.java,2,13,13,41
org.apache.click.examples.page.control.MenuDemo, 0, 0, 0, 0, 0, 0, 0, 0, 0, 0, 0, 0, 0, 0,0.0,0.0,0.0,0.0,0.0,0.0,0.0,0.0,0.0,0.0,0.0,0.0,0.0,3,examples\src\org\apache\click\examples\page\control\MenuDemo.java,0,0,0,0
org.apache.click.examples.page.control.PickListDemo, 0, 0, 0, 0, 0, 0, 0, 0, 0, 0, 0, 0, 0, 0,0.0,0.0,0.0,0.0,0.0,0.0,0.0,0.0,0.0,0.0,0.0,0.0,0.0,28,examples\src\org\apache\click\examples\page\control\PickListDemo.java,2,2,2,8
org.apache.click.examples.page.control.RegexDemo, 0, 0, 0, 0, 0, 0, 0, 0, 0, 0, 0, 0, 0, 0,0.0,0.0,0.0,0.25,0.0,0.0,0.0,0.0,0.0,0.0,0.0,0.0,0.0,18,examples\src\org\apache\click\examples\page\control\RegexDemo.java,1,1,1,4
org.apache.click.examples.page.control.SelectDemo, 0, 0, 0, 0, 0, 0, 0, 0, 0, 0, 0, 0, 0, 0,0.0,0.0,0.0,0.2,0.0,0.0,0.0,0.0,0.0,0.0,0.0,0.0,0.0,62,examples\src\org\apache\click\examples\page\control\SelectDemo.java,1,1,1,4
org.apache.click.examples.page.control.SubmitLinkDemo, 0, 0, 0, 0, 0, 0, 0, 0, 0, 0, 0, 0, 0, 0,0.0,0.0,0.0,0.0,0.0,0.0,0.0,0.25,0.0,0.0,0.0,0.0,0.0,77,examples\src\org\apache\click\examples\page\control\SubmitLinkDemo.java,5,4,4,17
org.apache.click.examples.page.form.ContactDetailsPage, 0, 0, 0, 0, 0, 0, 0, 0, 0, 0, 0, 0, 0, 0,0.0,0.0,0.0,0.18181818181818182,0.0,0.0,0.0,0.0,0.0,0.0,0.0,0.0,0.0,36,examples\src\org\apache\click\examples\page\form\ContactDetailsPage.java,0,0,0,0
org.apache.click.examples.page.form.ExtraControlsForm, 0, 0, 0, 0, 0, 0, 0, 0, 0, 0, 0, 0, 0, 0,0.0,0.0,0.0,0.2857142857142857,0.0,0.0,0.0,0.0,0.0,0.0,0.0,0.0,0.0,66,examples\src\org\apache\click\examples\page\form\ExtraControlsForm.java,1,2,2,7
org.apache.click.examples.page.form.FormLayout, 0, 0, 0, 0, 0, 0, 0, 0, 0, 0, 0, 0, 0, 0,0.0,0.0,0.0,0.0,0.0,0.0,0.0,0.0,0.0,0.0,0.0,0.0,0.0,28,examples\src\org\apache\click\examples\page\form\FormLayout.java,1,2,2,7
org.apache.click.examples.page.form.MultipleFormsDemo, 0, 0, 0, 0, 0, 0, 0, 0, 0, 0, 0, 0, 0, 0,0.0,0.0,0.0,0.0,0.0,0.0,0.0,0.0,0.0,0.0,0.0,0.0,0.0,43,examples\src\org\apache\click\examples\page\form\MultipleFormsDemo.java,0,0,0,0
org.apache.click.examples.page.form.SearchForm, 0, 0, 0, 0, 0, 0, 0, 0, 0, 0, 0, 0, 0, 0,0.0,0.0,0.0,0.25,0.0,0.0,0.0,0.0,0.0,0.0,0.0,0.0,0.0,49,examples\src\org\apache\click\examples\page\form\SearchForm.java,1,1,1,4
org.apache.click.examples.page.form.StandardControlsForm, 0, 0, 0, 0, 0, 0, 0, 0, 0, 0, 0, 0, 0, 0,0.0,0.0,0.0,0.125,0.0,0.0,0.0,0.0625,0.0,0.125,0.0,0.0,0.0,86,examples\src\org\apache\click\examples\page\form\StandardControlsForm.java,1,2,2,7
org.apache.click.examples.page.form.TabbedFormDemo, 0, 0, 0, 0, 0, 0, 0, 0, 0, 0, 0, 0, 0, 0,0.0,0.0,0.0,0.3333333333333333,0.0,0.0,0.0,0.08333333333333333,0.0,0.0,0.0,0.0,0.0,75,examples\src\org\apache\click\examples\page\form\TabbedFormDemo.java,0,31,0,31
org.apache.click.examples.page.form.dynamic.DynamicFieldSet, 0, 0, 0, 0, 0, 0, 0, 0, 0, 0, 0, 0, 0, 0,0.0,0.0,0.0,0.0,0.0,0.0,0.0,0.0,0.0,0.0,0.0,0.0,0.0,41,examples\src\org\apache\click\examples\page\form\dynamic\DynamicFieldSet.java,0,0,0,0
org.apache.click.examples.page.form.dynamic.DynamicForm, 0, 0, 0, 0, 0, 0, 0, 0, 0, 0, 0, 0, 0, 0,0.0,0.0,0.0,0.0,0.0,0.0,0.0,0.0,0.0,0.0,0.0,0.0,0.0,35,examples\src\org\apache\click\examples\page\form\dynamic\DynamicForm.java,0,0,0,0
org.apache.click.examples.page.form.dynamic.DynamicSelect, 0, 0, 0, 0, 0, 0, 0, 0, 0, 0, 0, 0, 0, 0,0.0,0.0,0.0,0.25,0.0,0.0,0.0,0.0,0.0,0.0,0.0,0.0,0.0,41,examples\src\org\apache\click\examples\page\form\dynamic\DynamicSelect.java,0,0,0,0
org.apache.click.examples.page.general.ControlHeadDemo, 0, 0, 0, 0, 0, 0, 0, 0, 0, 0, 0, 0, 0, 0,0.0,0.0,0.0,0.0,0.0,0.0,0.0,0.0,0.0,0.0,0.0,0.0,0.0,45,examples\src\org\apache\click\examples\page\general\ControlHeadDemo.java,0,0,0,0
org.apache.click.examples.page.general.DirectPage, 0, 0, 0, 0, 0, 0, 0, 0, 0, 0, 0, 0, 0, 0,0.0,0.0,0.0,0.0,0.0,0.0,0.0,0.0,0.0,0.0,0.0,0.0,0.0,29,examples\src\org\apache\click\examples\page\general\DirectPage.java,0,0,0,0
org.apache.click.examples.page.general.ExcelExportPage, 0, 0, 0, 0, 0, 0, 0, 0, 0, 0, 0, 0, 0, 0,0.0,0.0,0.0,0.0,0.0,0.0,0.0,0.0,0.0,0.3333333333333333,0.0,0.0,0.0,88,examples\src\org\apache\click\examples\page\general\ExcelExportPage.java,0,0,0,0
org.apache.click.examples.page.general.ExcelTableExportPage, 0, 0, 0, 0, 0, 0, 0, 0, 0, 0, 0, 0, 0, 0,0.0,0.0,0.0,0.25,0.0,0.0,0.0,0.0,0.0,0.0,0.0,0.0,0.0,76,examples\src\org\apache\click\examples\page\general\ExcelTableExportPage.java,0,0,0,0
org.apache.click.examples.page.general.ExceptionPage, 0, 0, 0, 0, 0, 0, 0, 0, 0, 0, 0, 0, 0, 0,0.0,0.0,0.0,0.0,0.0,0.0,0.0,0.0,0.0,0.0,0.0,0.0,0.0,45,examples\src\org\apache\click\examples\page\general\ExceptionPage.java,1,9,11,32
org.apache.click.examples.page.general.FlashPage, 0, 0, 0, 0, 0, 0, 0, 0, 0, 0, 0, 0, 0, 0,0.0,0.0,0.0,0.25,0.0,0.0,0.0,0.0,0.0,0.0,0.0,0.0,0.0,26,examples\src\org\apache\click\examples\page\general\FlashPage.java,1,1,1,4
org.apache.click.examples.page.general.NavigationA, 0, 0, 0, 0, 0, 0, 0, 0, 0, 0, 0, 0, 0, 0,0.0,0.0,0.0,0.0,0.0,0.0,0.0,0.0,0.0,0.0,0.0,0.0,0.0,46,examples\src\org\apache\click\examples\page\general\NavigationA.java,1,4,4,13
org.apache.click.examples.page.general.NavigationB, 0, 0, 0, 0, 0, 0, 0, 0, 0, 0, 0, 0, 0, 0,0.0,0.0,0.0,0.0,0.0,0.0,0.0,0.0,0.0,0.0,0.0,0.0,0.0,7,examples\src\org\apache\click\examples\page\general\NavigationB.java,0,0,0,0
org.apache.click.examples.page.general.PageActionImage, 0, 0, 0, 0, 0, 0, 0, 0, 0, 0, 0, 0, 0, 0,0.0,0.0,0.0,0.0,0.0,0.0,0.0,0.0,0.0,0.0,0.0,0.0,0.0,25,examples\src\org\apache\click\examples\page\general\PageActionImage.java,0,0,0,0
org.apache.click.examples.page.general.PageActionLink, 0, 0, 0, 0, 0, 0, 0, 0, 0, 0, 0, 0, 0, 0,0.0,0.0,0.0,0.3333333333333333,0.0,0.0,0.0,0.0,0.0,0.0,0.0,0.0,0.0,11,examples\src\org\apache\click\examples\page\general\PageActionLink.java,0,0,0,0
org.apache.click.examples.page.general.PageImportsExample, 0, 0, 0, 0, 0, 0, 0, 0, 0, 0, 0, 0, 0, 0,0.0,0.0,0.0,0.0,0.0,0.0,0.0,0.0,0.0,0.0,0.0,0.0,0.0,15,examples\src\org\apache\click\examples\page\general\PageImportsExample.java,0,0,0,0
org.apache.click.examples.page.introduction.AdvancedForm, 0, 0, 0, 0, 0, 0, 0, 0, 0, 0, 0, 0, 0, 0,0.0,0.0,0.0,0.2,0.0,0.0,0.0,0.0,0.0,0.0,0.0,0.0,0.0,50,examples\src\org\apache\click\examples\page\introduction\AdvancedForm.java,2,2,2,8
org.apache.click.examples.page.introduction.AdvancedTable, 0, 0, 0, 0, 0, 0, 0, 0, 0, 0, 0, 0, 0, 0,0.0,0.0,0.0,0.0,0.0,0.0,0.0,0.0,0.0,0.0,0.0,0.0,0.0,60,examples\src\org\apache\click\examples\page\introduction\AdvancedTable.java,11,9,3,26
org.apache.click.examples.page.introduction.ControlListenerType1Page, 0, 0, 0, 0, 0, 0, 0, 0, 0, 0, 0, 0, 0, 0,0.0,0.0,0.0,0.0,0.0,0.0,0.0,0.0,0.0,0.0,0.0,0.0,0.0,10,examples\src\org\apache\click\examples\page\introduction\ControlListenerType1Page.java,1,4,3,11
org.apache.click.examples.page.introduction.ControlListenerType2Page, 0, 0, 0, 0, 0, 0, 0, 0, 0, 0, 0, 0, 0, 0,0.0,0.0,0.0,0.0,0.0,0.0,0.0,0.0,0.0,0.0,0.0,0.0,0.0,15,examples\src\org\apache\click\examples\page\introduction\ControlListenerType2Page.java,2,2,2,8
org.apache.click.examples.page.introduction.HelloWorld, 0, 0, 0, 0, 0, 0, 0, 0, 0, 0, 0, 0, 0, 0,0.0,0.0,0.0,0.0,0.0,0.0,0.0,0.0,0.0,0.0,0.0,0.0,0.0,7,examples\src\org\apache\click\examples\page\introduction\HelloWorld.java,0,0,0,0
org.apache.click.examples.page.introduction.LinkListPage, 0, 0, 0, 0, 0, 0, 0, 0, 0, 0, 0, 0, 0, 0,0.0,0.0,0.0,0.0,0.0,0.0,0.0,0.0,0.0,0.0,0.0,0.0,0.0,21,examples\src\org\apache\click\examples\page\introduction\LinkListPage.java,0,0,0,0
org.apache.click.examples.page.introduction.SimpleForm, 0, 0, 0, 0, 0, 0, 0, 0, 0, 0, 0, 0, 0, 0,0.0,0.0,0.0,0.0,0.0,0.0,0.0,0.0,0.0,0.0,0.0,0.0,0.0,16,examples\src\org\apache\click\examples\page\introduction\SimpleForm.java,2,2,2,8
org.apache.click.examples.page.introduction.SimpleTablePage, 0, 0, 0, 0, 0, 0, 0, 0, 0, 0, 0, 0, 0, 0,0.0,0.0,0.0,0.0,0.0,0.0,0.0,0.0,0.0,0.0,0.0,0.0,0.0,20,examples\src\org\apache\click\examples\page\introduction\SimpleTablePage.java,0,0,0,0
org.apache.click.examples.page.jsp.CustomerTable, 0, 0, 0, 0, 0, 0, 0, 0, 0, 0, 0, 0, 0, 0,0.0,0.0,0.0,0.0,0.0,0.0,0.0,0.0,0.0,0.0,0.0,0.0,0.0,14,examples\src\org\apache\click\examples\page\jsp\CustomerTable.java,2,1,1,5
org.apache.click.examples.page.jsp.EditCustomerPage, 0, 0, 0, 0, 0, 0, 0, 0, 0, 0, 0, 0, 0, 0,0.0,0.0,0.0,0.25,0.0,0.0,0.0,0.0,0.0,0.0,0.0,0.0,0.0,32,examples\src\org\apache\click\examples\page\jsp\EditCustomerPage.java,1,1,1,4
org.apache.click.examples.page.jsp.HelloWorld, 0, 0, 0, 0, 0, 0, 0, 0, 0, 0, 0, 0, 0, 0,0.0,0.0,0.0,0.0,0.0,0.0,0.0,0.0,0.0,0.0,0.0,0.0,0.0,4,examples\src\org\apache\click\examples\page\jsp\HelloWorld.java,1,1,2,6
org.apache.click.examples.page.jsp.MultiPathDemo, 0, 0, 0, 0, 0, 0, 0, 0, 0, 0, 0, 0, 0, 0,0.0,0.0,0.0,0.0,0.0,0.0,0.0,0.0,0.0,0.0,0.0,0.0,0.0,13,examples\src\org\apache\click\examples\page\jsp\MultiPathDemo.java,1,4,2,9
org.apache.click.examples.page.jsp.NavigationA, 0, 0, 0, 0, 0, 0, 0, 0, 0, 0, 0, 0, 0, 0,0.0,0.0,0.0,0.0,0.0,0.0,0.0,0.0,0.0,0.0,0.0,0.0,0.0,50,examples\src\org\apache\click\examples\page\jsp\NavigationA.java,1,4,4,13
org.apache.click.examples.page.jsp.NavigationB, 0, 0, 0, 0, 0, 0, 0, 0, 0, 0, 0, 0, 0, 0,0.0,0.0,0.0,0.0,0.0,0.0,0.0,0.0,0.0,0.0,0.0,0.0,0.0,11,examples\src\org\apache\click\examples\page\jsp\NavigationB.java,0,0,0,0
org.apache.click.examples.page.pageflow.LastPage, 0, 0, 0, 0, 0, 0, 0, 0, 0, 0, 0, 0, 0, 0,0.0,0.0,0.0,0.0,0.0,0.0,0.0,0.0,0.0,0.3333333333333333,0.0,0.0,0.0,23,examples\src\org\apache\click\examples\page\pageflow\LastPage.java,0,0,0,0
org.apache.click.examples.page.pageflow.NextPage, 0, 0, 0, 0, 0, 0, 0, 0, 0, 0, 0, 0, 0, 0,0.0,0.0,0.0,0.0,0.0,0.0,0.0,0.0,0.0,0.16666666666666666,0.0,0.0,0.0,46,examples\src\org\apache\click\examples\page\pageflow\NextPage.java,0,0,0,0
org.apache.click.examples.page.panel.FilterPanelDemo, 0, 0, 0, 0, 0, 0, 0, 0, 0, 0, 0, 0, 0, 0,0.0,0.0,0.0,0.0,0.0,0.0,0.0,0.0,0.0,0.0,0.0,0.0,0.0,32,examples\src\org\apache\click\examples\page\panel\FilterPanelDemo.java,1,2,2,7
org.apache.click.examples.page.panel.ListPanelDemo, 0, 0, 0, 0, 0, 0, 0, 0, 0, 0, 0, 0, 0, 0,0.0,0.0,0.0,0.0,0.0,0.0,0.0,0.0,0.0,0.0,0.0,0.0,0.0,16,examples\src\org\apache\click\examples\page\panel\ListPanelDemo.java,2,2,2,8
org.apache.click.examples.page.panel.PanelColumn, 0, 0, 0, 0, 0, 0, 0, 0, 0, 0, 0, 0, 0, 0,0.0,0.0,0.0,0.0,0.0,0.0,0.0,0.0,0.0,0.0,0.0,0.0,0.0,14,examples\src\org\apache\click\examples\page\panel\PanelColumn.java,0,1,0,1
org.apache.click.examples.page.panel.PanelColumnDemo, 0, 0, 0, 0, 0, 0, 0, 0, 0, 0, 0, 0, 0, 0,0.0,0.0,0.0,0.2,0.0,0.0,0.0,0.0,0.0,0.0,0.0,0.0,0.0,38,examples\src\org\apache\click\examples\page\panel\PanelColumnDemo.java,2,18,3,26
org.apache.click.examples.page.panel.ReusablePanelDemo, 0, 0, 0, 0, 0, 0, 0, 0, 0, 0, 0, 0, 0, 0,0.0,0.0,0.0,0.0,0.0,0.0,0.0,0.0,0.0,0.0,0.0,0.0,0.0,9,examples\src\org\apache\click\examples\page\panel\ReusablePanelDemo.java,0,0,0,0
org.apache.click.examples.page.panel.SimplePanelDemo, 0, 0, 0, 0, 0, 0, 0, 0, 0, 0, 0, 0, 0, 0,0.0,0.0,0.0,0.0,0.0,0.0,0.0,0.0,0.0,0.0,0.0,0.0,0.0,4,examples\src\org\apache\click\examples\page\panel\SimplePanelDemo.java,1,3,1,6
org.apache.click.examples.page.panel.StatefulTabbedPanelDemo, 0, 0, 0, 0, 0, 0, 0, 0, 0, 0, 0, 0, 0, 0,0.0,0.0,0.0,0.3333333333333333,0.0,0.0,0.0,0.0,0.0,0.0,0.0,0.0,0.0,55,examples\src\org\apache\click\examples\page\panel\StatefulTabbedPanelDemo.java,0,0,0,0
org.apache.click.examples.page.panel.TabbedPanelDemo, 0, 0, 0, 0, 0, 0, 0, 0, 0, 0, 0, 0, 0, 0,0.0,0.0,0.0,0.5,0.0,0.0,0.0,0.0,0.0,0.0,0.0,0.0,0.0,29,examples\src\org\apache\click\examples\page\panel\TabbedPanelDemo.java,0,0,0,0
org.apache.click.examples.page.panel.TabbedPanelWithControls, 0, 0, 0, 0, 0, 0, 0, 0, 0, 0, 0, 0, 0, 0,0.0,0.0,0.0,0.3333333333333333,0.0,0.0,0.0,0.0,0.0,0.0,0.0,0.0,0.0,52,examples\src\org\apache\click\examples\page\panel\TabbedPanelWithControls.java,0,0,0,0
org.apache.click.examples.page.quartz.QuartzJobAndTriggerPage, 0, 0, 0, 0, 0, 0, 0, 0, 0, 0, 0, 0, 0, 0,0.0,0.0,0.0,0.25,0.0,0.0,0.0,0.125,0.0,0.0,0.0,0.0,0.0,133,examples\src\org\apache\click\examples\page\quartz\QuartzJobAndTriggerPage.java,0,0,0,0
org.apache.click.examples.page.security.Login, 0, 0, 0, 0, 0, 0, 0, 0, 0, 0, 0, 0, 0, 0,0.0,0.0,0.0,0.125,0.0,0.0,0.0,0.0,0.0,0.125,0.0,0.0,0.0,58,examples\src\org\apache\click\examples\page\security\Login.java,1,1,5,12
org.apache.click.examples.page.security.Logout, 0, 0, 0, 0, 0, 0, 0, 0, 0, 0, 0, 0, 0, 0,0.0,0.0,0.0,0.0,0.0,0.0,0.0,0.0,0.0,0.0,0.0,0.0,0.0,12,examples\src\org\apache\click\examples\page\security\Logout.java,2,1,1,5
org.apache.click.examples.page.security.Secure, 0, 0, 0, 0, 0, 0, 0, 0, 0, 0, 0, 0, 0, 0,0.0,0.0,0.0,0.0,0.0,0.0,0.0,0.0,0.0,0.0,0.0,0.0,0.0,14,examples\src\org\apache\click\examples\page\security\Secure.java,0,0,3,6
org.apache.click.examples.page.springsecurity.CreateAccountPage, 0, 0, 0, 0, 0, 0, 0, 0, 0, 0, 0, 0, 0, 0,0.0,0.0,0.0,0.125,0.0,0.0,0.0,0.0,0.0,0.0,0.0,0.0,0.0,70,examples\src\org\apache\click\examples\page\springsecurity\CreateAccountPage.java,0,0,0,0
org.apache.click.examples.page.springsecurity.LoginPage, 0, 0, 0, 0, 0, 0, 0, 0, 0, 0, 0, 0, 0, 0,0.0,0.0,0.0,0.0,0.0,0.0,0.0,0.0,0.0,0.0,0.0,0.0,0.0,3,examples\src\org\apache\click\examples\page\springsecurity\LoginPage.java,0,0,0,0
org.apache.click.examples.page.springsecurity.LogoutPage, 0, 0, 0, 0, 0, 0, 0, 0, 0, 0, 0, 0, 0, 0,0.0,0.0,0.0,0.0,0.0,0.0,0.0,0.0,0.0,0.0,0.0,0.0,0.0,9,examples\src\org\apache\click\examples\page\springsecurity\LogoutPage.java,0,0,0,0
org.apache.click.examples.page.springsecurity.NotAuthorizedPage, 0, 0, 0, 0, 0, 0, 0, 0, 0, 0, 0, 0, 0, 0,0.0,0.0,0.0,0.0,0.0,0.0,0.0,0.0,0.0,0.0,0.0,0.0,0.0,3,examples\src\org\apache\click\examples\page\springsecurity\NotAuthorizedPage.java,0,0,0,0
org.apache.click.examples.page.springsecurity.secure.SecurePage, 0, 0, 0, 0, 0, 0, 0, 0, 0, 0, 0, 0, 0, 0,0.0,0.0,0.0,0.0,0.0,0.0,0.0,0.0,0.0,0.0,0.0,0.0,0.0,3,examples\src\org\apache\click\examples\page\springsecurity\secure\SecurePage.java,0,0,0,0
org.apache.click.examples.page.table.EditFormTablePage, 0, 0, 0, 0, 0, 0, 0, 0, 0, 0, 0, 0, 0, 0,0.0,0.0,0.0,0.23076923076923078,0.0,0.0,0.0,0.0,0.0,0.07692307692307693,0.0,0.0,0.0,132,examples\src\org\apache\click\examples\page\table\EditFormTablePage.java,0,0,0,0
org.apache.click.examples.page.table.EditTable, 0, 0, 0, 0, 0, 0, 0, 0, 0, 0, 0, 0, 0, 0,0.0,0.0,0.0,0.25,0.0,0.0,0.0,0.0,0.0,0.0,0.0,0.0,0.0,89,examples\src\org\apache\click\examples\page\table\EditTable.java,1,4,4,13
org.apache.click.examples.page.table.FormTablePage, 0, 0, 0, 0, 0, 0, 0, 0, 0, 0, 0, 0, 0, 0,0.0,0.0,0.0,0.3,0.0,0.0,0.0,0.0,0.0,0.0,0.0,0.0,0.0,64,examples\src\org\apache\click\examples\page\table\FormTablePage.java,1,1,1,4
org.apache.click.examples.page.table.LargeDatasetDemo, 0, 0, 0, 0, 0, 0, 0, 0, 0, 0, 0, 0, 0, 0,0.0,0.0,0.0,0.0,0.0,0.0,0.0,0.0,0.0,0.0,0.0,0.0,0.0,40,examples\src\org\apache\click\examples\page\table\LargeDatasetDemo.java,1,0,2,5
org.apache.click.examples.page.table.SearchTablePage, 0, 0, 0, 0, 0, 0, 0, 0, 0, 0, 0, 0, 0, 0,0.0,0.0,0.0,0.14285714285714285,0.0,0.0,0.0,0.0,0.0,0.0,0.0,0.0,0.0,103,examples\src\org\apache\click\examples\page\table\SearchTablePage.java,1,4,4,13
org.apache.click.examples.page.table.TableDecorator, 0, 0, 0, 0, 0, 0, 0, 0, 0, 0, 0, 0, 0, 0,0.0,0.0,0.0,0.0,0.0,0.0,0.0,0.0,0.0,0.0,0.0,0.0,0.0,66,examples\src\org\apache\click\examples\page\table\TableDecorator.java,2,5,5,17
org.apache.click.examples.page.table.TableFooter, 0, 0, 0, 0, 0, 0, 0, 0, 0, 0, 0, 0, 0, 0,0.0,0.0,0.0,0.0,0.0,0.0,0.0,0.0,0.0,0.5,0.0,0.0,0.0,51,examples\src\org\apache\click\examples\page\table\TableFooter.java,1,1,2,6
org.apache.click.examples.page.table.TablePaginatorPage, 0, 0, 0, 0, 0, 0, 0, 0, 0, 0, 0, 0, 0, 0,0.0,0.0,0.0,0.0,0.0,0.0,0.0,0.0,0.0,0.0,0.0,0.0,0.0,49,examples\src\org\apache\click\examples\page\table\TablePaginatorPage.java,0,0,0,0
org.apache.click.examples.page.table.TablePaging, 0, 0, 0, 0, 0, 0, 0, 0, 0, 0, 0, 0, 0, 0,0.0,0.0,0.0,0.0,0.0,0.0,0.0,0.0,0.0,0.0,0.0,0.0,0.0,33,examples\src\org\apache\click\examples\page\table\TablePaging.java,1,1,1,4
org.apache.click.examples.page.table.TableSorting, 0, 0, 0, 0, 0, 0, 0, 0, 0, 0, 0, 0, 0, 0,0.0,0.0,0.0,0.0,0.0,0.0,0.0,0.0,0.0,0.0,0.0,0.0,0.0,38,examples\src\org\apache\click\examples\page\table\TableSorting.java,0,0,0,0
org.apache.click.examples.page.table.TableStyles, 0, 0, 0, 0, 0, 0, 0, 0, 0, 0, 0, 0, 0, 0,0.0,0.0,0.0,0.25,0.0,0.0,0.0,0.0,0.0,0.0,0.0,0.0,0.0,68,examples\src\org\apache\click\examples\page\table\TableStyles.java,0,0,0,0
org.apache.click.examples.page.tree.AdvancedTreePage, 0, 0, 0, 0, 0, 0, 0, 0, 0, 0, 0, 0, 0, 0,0.0,0.0,0.0,0.0,0.0,0.0,0.0,0.0,0.0,0.0,0.0,0.0,0.0,133,examples\src\org\apache\click\examples\page\tree\AdvancedTreePage.java,0,7,17,41
org.apache.click.examples.page.tree.CheckboxTreePage, 0, 0, 0, 1, 0, 0, 0, 0, 0, 0, 0, 0, 0, 1,0.0,0.0,0.0,0.0,0.0,0.0,0.0,0.0,0.0,0.0,0.0,0.0,0.0,148,examples\src\org\apache\click\examples\page\tree\CheckboxTreePage.java,0,7,17,41
org.apache.click.examples.page.tree.PageLinkTreePage, 0, 0, 0, 0, 0, 0, 0, 0, 0, 0, 0, 0, 0, 0,0.0,0.0,0.0,0.0,0.0,0.0,0.0,0.0,0.0,0.0,0.0,0.0,0.0,41,examples\src\org\apache\click\examples\page\tree\PageLinkTreePage.java,0,7,12,31
org.apache.click.examples.page.tree.TreePage, 0, 0, 0, 0, 0, 0, 0, 0, 0, 0, 0, 0, 0, 0,0.0,0.0,0.0,0.0,0.0,0.0,0.0,0.0,0.0,0.0,0.0,0.0,0.0,76,examples\src\org\apache\click\examples\page\tree\TreePage.java,0,7,17,41
org.apache.click.examples.page.velocity.ActionTable, 0, 0, 0, 0, 0, 0, 0, 0, 0, 0, 0, 0, 0, 0,0.0,0.0,0.0,0.2,0.0,0.0,0.0,0.0,0.0,0.0,0.0,0.0,0.0,31,examples\src\org\apache\click\examples\page\velocity\ActionTable.java,3,5,7,22
org.apache.click.examples.page.velocity.VelocityMacro, 0, 0, 0, 0, 0, 0, 0, 0, 0, 0, 0, 0, 0, 0,0.0,0.0,0.0,0.25,0.0,0.0,0.0,0.0,0.0,0.0,0.0,0.0,0.0,25,examples\src\org\apache\click\examples\page\velocity\VelocityMacro.java,1,1,1,4
org.apache.click.examples.page.wizard.SelectPostCode, 0, 0, 0, 0, 0, 0, 0, 0, 0, 0, 0, 0, 0, 0,0.0,0.0,0.0,0.0,0.0,0.0,0.0,0.0,0.0,0.0,0.0,0.0,0.0,34,examples\src\org\apache\click\examples\page\wizard\SelectPostCode.java,0,0,0,0
org.apache.click.examples.page.wizard.Step, 0, 0, 0, 1, 0, 0, 0, 0, 0, 0, 0, 0, 0, 1,0.0,0.0,0.0,0.1111111111111111,0.0,0.0,0.0,0.0,0.0,0.0,0.0,0.0,0.0,114,examples\src\org\apache\click\examples\page\wizard\Step.java,15,1,12,40
org.apache.click.examples.page.wizard.Step1, 0, 0, 0, 0, 0, 0, 0, 0, 0, 0, 0, 0, 0, 0,0.0,0.0,0.0,0.4,0.0,0.0,0.0,0.0,0.0,0.0,0.0,0.0,0.0,22,examples\src\org\apache\click\examples\page\wizard\Step1.java,3,43,6,58
org.apache.click.examples.page.wizard.Step2, 0, 0, 0, 0, 0, 0, 0, 0, 0, 0, 0, 0, 0, 0,0.0,0.0,0.0,0.2857142857142857,0.0,0.0,0.0,0.0,0.0,0.0,0.0,0.0,0.0,56,examples\src\org\apache\click\examples\page\wizard\Step2.java,1,10,4,19
org.apache.click.examples.page.wizard.Step3, 0, 0, 0, 0, 0, 0, 0, 0, 0, 0, 0, 0, 0, 0,0.0,0.0,0.0,0.3333333333333333,0.0,0.0,0.0,0.0,0.0,0.0,0.0,0.0,0.0,30,examples\src\org\apache\click\examples\page\wizard\Step3.java,2,6,4,16
org.apache.click.examples.page.wizard.WizardPage, 0, 0, 0, 0, 0, 0, 0, 0, 0, 0, 0, 0, 0, 0,0.0,0.0,0.0,0.2,0.0,0.0,0.0,0.0,0.0,0.0,0.0,0.0,0.0,78,examples\src\org\apache\click\examples\page\wizard\WizardPage.java,7,21,28,84
org.apache.click.examples.quartz.ExampleJob, 0, 0, 0, 0, 0, 0, 0, 0, 0, 0, 0, 0, 0, 0,0.0,0.0,0.0,0.0,0.0,0.0,0.0,0.0,0.0,0.0,0.0,0.0,0.0,14,examples\src\org\apache\click\examples\quartz\ExampleJob.java,0,0,0,0
org.apache.click.examples.quartz.JobAndSimpleTrigger, 0, 0, 0, 0, 0, 0, 0, 0, 0, 0, 0, 0, 0, 0,0.0,0.0,0.0,0.0,0.0,0.0,0.0,0.5,0.0,0.0,0.0,0.0,0.0,75,examples\src\org\apache\click\examples\quartz\JobAndSimpleTrigger.java,0,0,0,0
org.apache.click.examples.quartz.SchedulerService, 0, 0, 0, 0, 0, 0, 0, 1, 0, 0, 0, 0, 0, 1,0.0,0.0,0.0,0.0,0.0,0.0,0.0,0.0,0.0,0.0,0.0,0.0,0.0,168,examples\src\org\apache\click\examples\quartz\SchedulerService.java,0,0,0,0
org.apache.click.examples.service.BookingService, 0, 0, 0, 0, 0, 0, 0, 0, 0, 0, 0, 0, 0, 0,0.0,0.0,0.0,0.0,0.0,0.0,0.0,0.0,0.0,0.4,0.0,0.0,0.0,11,examples\src\org\apache\click\examples\service\BookingService.java,0,0,0,0
org.apache.click.examples.service.ClientService, 0, 0, 0, 0, 0, 0, 0, 0, 0, 0, 0, 0, 0, 0,0.0,0.0,0.0,0.0,0.0,0.0,0.0,0.0,0.0,0.0,0.0,0.0,0.0,22,examples\src\org\apache\click\examples\service\ClientService.java,1,12,4,21
org.apache.click.examples.service.PostCodeService, 0, 0, 0, 0, 0, 0, 0, 0, 0, 0, 0, 0, 0, 0,0.0,0.0,0.0,0.0,0.0,0.0,0.0,0.0,0.0,0.3333333333333333,0.0,0.0,0.0,22,examples\src\org\apache\click\examples\service\PostCodeService.java,0,0,0,0
org.apache.click.examples.service.StudentService, 0, 0, 0, 0, 0, 0, 0, 0, 0, 0, 0, 0, 0, 0,0.0,0.0,0.0,0.0,0.0,0.0,0.0,0.0,0.0,0.16666666666666666,0.0,0.0,0.0,89,examples\src\org\apache\click\examples\service\StudentService.java,0,0,0,0
org.apache.click.examples.service.UserService, 0, 0, 0, 0, 0, 0, 0, 0, 0, 0, 0, 0, 0, 0,0.0,0.0,0.0,0.0,0.0,0.0,0.0,0.0,0.0,0.2,0.0,0.0,0.0,19,examples\src\org\apache\click\examples\service\UserService.java,0,0,0,0
org.apache.click.examples.springsecurity.UserDetailsAdaptor, 0, 0, 0, 0, 0, 0, 0, 0, 0, 0, 0, 0, 0, 0,0.0,0.0,0.0,0.0,0.0,0.0,0.0,0.0,0.0,0.3333333333333333,0.0,0.0,0.0,28,examples\src\org\apache\click\examples\springsecurity\UserDetailsAdaptor.java,0,0,0,0
org.apache.click.examples.springsecurity.UserDetailsService, 0, 0, 0, 0, 0, 0, 0, 0, 0, 0, 0, 0, 0, 0,0.0,0.0,0.0,0.0,0.0,0.0,0.0,0.0,0.0,0.0,0.0,0.0,0.0,12,examples\src\org\apache\click\examples\springsecurity\UserDetailsService.java,0,0,0,0
org.apache.click.examples.util.DatabaseInitListener, 0, 0, 0, 0, 0, 0, 0, 0, 0, 0, 0, 0, 0, 0,0.0,0.0,0.0,0.0,0.0,0.0,0.0,1.0,0.0,0.0,0.0,0.0,0.0,216,examples\src\org\apache\click\examples\util\DatabaseInitListener.java,0,0,0,0
org.apache.click.extras.cayenne.CayenneUtils, 0, 0, 0, 0, 0, 0, 0, 0, 0, 0, 0, 0, 0, 0,0.0,0.0,0.0,0.0,0.0,0.0,0.0,0.0,0.0,0.0,0.0,0.0,0.0,95,extras\src\org\apache\click\extras\cayenne\CayenneUtils.java,0,0,0,0
org.apache.click.extras.control.AbstractContainerFieldText, 0, 0, 0, 0, 0, 0, 0, 0, 0, 0, 0, 0, 0, 0,0.0,0.0,0.0,0.0,0.0,0.0,0.0,0.5,0.0,0.0,0.0,0.0,0.0,56,extras\test\org\apache\click\extras\control\AbstractContainerFieldText.java,0,0,0,0
org.apache.click.extras.control.CheckListTest, 0, 0, 0, 0, 0, 0, 0, 0, 0, 0, 0, 0, 0, 0,0.0,0.0,0.0,0.3333333333333333,0.0,0.0,0.0,0.3333333333333333,0.0,0.0,0.0,0.0,0.0,86,extras\test\org\apache\click\extras\control\CheckListTest.java,0,13,0,13
org.apache.click.extras.control.CountryFieldTest, 0, 0, 0, 0, 0, 0, 0, 0, 0, 0, 0, 0, 0, 0,0.0,0.0,0.0,0.0,0.0,0.0,0.0,0.5,0.0,0.0,0.0,0.0,0.0,15,extras\test\org\apache\click\extras\control\CountryFieldTest.java,0,0,0,0
org.apache.click.extras.control.CreditCardField, 0, 0, 0, 1, 0, 0, 0, 0, 0, 0, 0, 0, 0, 1,0.0,0.0,0.0,0.16666666666666666,0.0,0.0,0.0,0.0,0.0,0.0,0.0,0.0,0.0,164,extras\src\org\apache\click\extras\control\CreditCardField.java,0,0,0,0
org.apache.click.extras.control.DateField, 0, 0, 0, 1, 0, 0, 0, 0, 0, 0, 0, 0, 0, 1,0.0,0.0,0.0,0.05555555555555555,0.0,0.0,0.0,0.0,0.0,0.0,0.0,0.0,0.0,461,extras\src\org\apache\click\extras\control\DateField.java,0,0,0,0
org.apache.click.extras.control.DateFieldTest, 0, 0, 0, 0, 0, 0, 0, 0, 0, 0, 0, 0, 0, 0,0.0,0.0,0.0,0.6666666666666666,0.0,0.0,0.0,0.3333333333333333,0.0,0.0,0.0,0.0,0.0,76,extras\test\org\apache\click\extras\control\DateFieldTest.java,0,0,0,0
org.apache.click.extras.control.DoubleField, 0, 0, 0, 0, 0, 0, 0, 0, 0, 0, 0, 0, 0, 0,0.0,0.0,0.0,0.2222222222222222,0.0,0.0,0.0,0.0,0.0,0.0,0.0,0.0,0.0,80,extras\src\org\apache\click\extras\control\DoubleField.java,0,0,0,0
org.apache.click.extras.control.DoubleFieldTest, 0, 0, 0, 0, 0, 0, 0, 0, 0, 0, 0, 0, 0, 0,0.0,0.0,0.0,0.5,0.0,0.0,0.0,0.25,0.0,0.0,0.0,0.0,0.0,121,extras\test\org\apache\click\extras\control\DoubleFieldTest.java,0,0,0,0
org.apache.click.extras.control.EmailField, 0, 0, 0, 0, 0, 0, 0, 0, 0, 0, 0, 0, 0, 0,0.0,0.0,0.0,0.05555555555555555,0.0,0.0,0.0,0.0,0.0,0.0,0.0,0.0,0.0,94,extras\src\org\apache\click\extras\control\EmailField.java,0,0,0,0
org.apache.click.extras.control.EmailFieldTest, 0, 0, 0, 0, 0, 0, 0, 0, 0, 0, 0, 0, 0, 0,0.0,0.0,0.0,0.25,0.0,0.0,0.0,0.25,0.0,0.0,0.0,0.0,0.0,53,extras\test\org\apache\click\extras\control\EmailFieldTest.java,0,0,0,0
org.apache.click.extras.control.ExternalLink, 0, 0, 0, 0, 0, 0, 0, 0, 0, 0, 0, 0, 0, 0,0.0,0.0,0.0,0.0,0.0,0.0,0.0,0.0,0.0,0.0,0.0,0.0,0.0,41,extras\src\org\apache\click\extras\control\ExternalLink.java,0,0,0,0
org.apache.click.extras.control.FormTable, 0, 0, 0, 0, 0, 0, 0, 0, 0, 0, 0, 0, 0, 0,0.0,0.0,0.0,0.16666666666666666,0.0,0.0,0.0,0.0,0.0,0.0,0.0,0.0,0.0,233,extras\src\org\apache\click\extras\control\FormTable.java,0,0,0,0
org.apache.click.extras.control.FormTableTest, 0, 0, 0, 0, 0, 0, 0, 0, 0, 0, 0, 0, 0, 0,0.0,0.0,0.0,0.0,0.0,0.0,0.0,0.5,0.0,0.0,0.0,0.0,0.0,25,extras\test\org\apache\click\extras\control\FormTableTest.java,0,0,0,0
org.apache.click.extras.control.HiddenList, 0, 0, 0, 0, 0, 0, 0, 0, 0, 0, 0, 0, 0, 0,0.0,0.0,0.0,0.5,0.0,0.0,0.0,0.0,0.0,0.0,0.0,0.0,0.0,59,extras\src\org\apache\click\extras\control\HiddenList.java,0,0,0,0
org.apache.click.extras.control.HiddenListTest, 0, 0, 0, 0, 0, 0, 0, 0, 0, 0, 0, 0, 0, 0,0.0,0.0,0.0,0.0,0.0,0.0,0.0,0.0,0.0,0.0,0.0,0.0,0.0,43,extras\test\org\apache\click\extras\control\HiddenListTest.java,0,0,0,0
org.apache.click.extras.control.HtmlFieldSet, 0, 0, 0, 0, 0, 0, 0, 0, 0, 0, 0, 0, 0, 0,0.0,0.0,0.0,0.3333333333333333,0.0,0.0,0.0,0.0,0.0,0.0,0.0,0.0,0.0,84,extras\src\org\apache\click\extras\control\HtmlFieldSet.java,0,0,0,0
org.apache.click.extras.control.HtmlFieldSetTest, 0, 0, 0, 0, 0, 0, 0, 0, 0, 0, 0, 0, 0, 0,0.0,0.0,0.0,0.0,0.0,0.0,0.0,0.3333333333333333,0.0,0.0,0.0,0.0,0.0,10,extras\test\org\apache\click\extras\control\HtmlFieldSetTest.java,0,0,0,0
org.apache.click.extras.control.HtmlForm, 0, 0, 0, 0, 0, 0, 0, 0, 0, 0, 0, 0, 0, 0,0.0,0.0,0.0,0.5,0.0,0.0,0.0,0.0,0.0,0.0,0.0,0.0,0.0,77,extras\src\org\apache\click\extras\control\HtmlForm.java,0,0,0,0
org.apache.click.extras.control.IntegerField, 0, 0, 0, 0, 0, 0, 0, 0, 0, 0, 0, 0, 0, 0,0.0,0.0,0.0,0.15384615384615385,0.0,0.0,0.0,0.0,0.0,0.0,0.0,0.0,0.0,95,extras\src\org\apache\click\extras\control\IntegerField.java,0,0,0,0
org.apache.click.extras.control.IntegerFieldTest, 0, 0, 0, 0, 0, 0, 0, 0, 0, 0, 0, 0, 0, 0,0.0,0.0,0.0,0.5,0.0,0.0,0.0,0.25,0.0,0.0,0.0,0.0,0.0,78,extras\test\org\apache\click\extras\control\IntegerFieldTest.java,0,0,0,0
org.apache.click.extras.control.LinkDecoratorTest, 0, 0, 0, 0, 0, 0, 0, 0, 0, 0, 0, 0, 0, 0,0.0,0.0,0.0,0.0,0.0,0.0,0.0,0.0,0.0,0.0,0.0,0.0,0.0,9,extras\test\org\apache\click\extras\control\LinkDecoratorTest.java,0,0,0,0
org.apache.click.extras.control.LongField, 0, 0, 0, 0, 0, 0, 0, 0, 0, 0, 0, 0, 0, 0,0.0,0.0,0.0,0.4,0.0,0.0,0.0,0.0,0.0,0.0,0.0,0.0,0.0,86,extras\src\org\apache\click\extras\control\LongField.java,0,0,0,0
org.apache.click.extras.control.LongFieldTest, 0, 0, 0, 0, 0, 0, 0, 0, 0, 0, 0, 0, 0, 0,0.0,0.0,0.0,0.5,0.0,0.0,0.0,0.25,0.0,0.0,0.0,0.0,0.0,63,extras\test\org\apache\click\extras\control\LongFieldTest.java,0,0,0,0
org.apache.click.extras.control.Menu, 1, 0, 0, 1, 0, 0, 0, 0, 0, 0, 0, 0, 0, 2,0.0,0.0,0.16666666666666666,0.0,0.0,0.0,0.0,0.0,0.0,0.16666666666666666,0.0,0.0,0.0,525,extras\src\org\apache\click\extras\control\Menu.java,0,7,1,9
org.apache.click.extras.control.MenuFactoryTest, 0, 0, 0, 0, 0, 0, 0, 0, 0, 0, 0, 0, 0, 0,0.5,0.0,0.0,0.5,0.0,0.0,0.0,0.5,0.0,0.0,0.0,0.0,0.0,31,extras\test\org\apache\click\extras\control\MenuFactoryTest.java,0,0,0,0
org.apache.click.extras.control.MenuTest, 0, 0, 0, 0, 0, 0, 0, 0, 0, 0, 0, 0, 0, 0,0.5,0.0,0.0,0.5,0.0,0.0,0.0,0.5,0.0,0.0,0.0,0.0,0.0,50,extras\test\org\apache\click\extras\control\MenuTest.java,0,0,0,0
org.apache.click.extras.control.NumberField, 0, 0, 0, 1, 0, 0, 0, 0, 0, 0, 0, 0, 0, 1,0.0,0.0,0.0,0.07692307692307693,0.0,0.0,0.0,0.0,0.0,0.0,0.0,0.0,0.0,177,extras\src\org\apache\click\extras\control\NumberField.java,0,0,0,0
org.apache.click.extras.control.PageButton, 0, 0, 0, 0, 0, 0, 0, 0, 0, 0, 0, 0, 0, 0,0.0,0.0,0.0,0.0,0.0,0.0,0.0,0.0,0.0,0.0,0.0,0.0,0.0,49,extras\src\org\apache\click\extras\control\PageButton.java,0,0,0,0
org.apache.click.extras.control.PageSubmit, 0, 0, 0, 0, 0, 0, 0, 0, 0, 0, 0, 0, 0, 0,0.0,0.0,0.0,0.0,0.0,0.0,0.0,0.0,0.0,0.0,0.0,0.0,0.0,46,extras\src\org\apache\click\extras\control\PageSubmit.java,0,0,0,0
org.apache.click.extras.control.PickListTest, 0, 0, 0, 0, 0, 0, 0, 0, 0, 0, 0, 0, 0, 0,0.0,0.0,0.0,0.3333333333333333,0.0,0.0,0.0,0.3333333333333333,0.0,0.0,0.0,0.0,0.0,51,extras\test\org\apache\click\extras\control\PickListTest.java,0,0,0,0
org.apache.click.extras.control.RegexField, 0, 0, 0, 0, 0, 0, 0, 0, 0, 0, 0, 0, 0, 0,0.0,0.0,0.0,0.25,0.0,0.0,0.0,0.0,0.0,0.0,0.0,0.0,0.0,88,extras\src\org\apache\click\extras\control\RegexField.java,0,0,0,0
org.apache.click.extras.control.SubmitLink, 0, 0, 0, 0, 0, 0, 0, 1, 0, 0, 0, 0, 0, 1,0.0,0.0,0.0,0.0,0.0,0.0,0.0,0.0,0.0,0.0,0.0,0.0,0.0,205,extras\src\org\apache\click\extras\control\SubmitLink.java,0,0,0,0
org.apache.click.extras.control.TabbedFormTest, 0, 0, 0, 0, 0, 0, 0, 0, 0, 0, 0, 0, 0, 0,0.0,0.0,0.0,0.0,0.0,0.0,0.0,1.0,0.0,0.0,0.0,0.0,0.0,14,extras\test\org\apache\click\extras\control\TabbedFormTest.java,0,0,0,0
org.apache.click.extras.control.TelephoneField, 0, 0, 0, 0, 0, 0, 0, 0, 0, 0, 0, 0, 0, 0,0.0,0.0,0.0,0.16666666666666666,0.0,0.0,0.0,0.0,0.0,0.0,0.0,0.0,0.0,57,extras\src\org\apache\click\extras\control\TelephoneField.java,0,0,0,0
org.apache.click.extras.control.TelephoneFieldTest, 0, 0, 0, 0, 0, 0, 0, 0, 0, 0, 0, 0, 0, 0,0.0,0.0,0.0,0.25,0.0,0.0,0.0,0.25,0.0,0.0,0.0,0.0,0.0,53,extras\test\org\apache\click\extras\control\TelephoneFieldTest.java,0,0,0,0
org.apache.click.extras.control.VirtualKeyboard, 0, 0, 0, 0, 0, 0, 0, 0, 0, 0, 0, 0, 0, 0,0.0,0.0,0.0,0.3333333333333333,0.0,0.0,0.0,0.0,0.0,0.0,0.0,0.0,0.0,41,extras\src\org\apache\click\extras\control\VirtualKeyboard.java,0,0,0,0
org.apache.click.extras.filter.CompressionFilter, 0, 0, 0, 0, 0, 0, 0, 0, 0, 0, 0, 0, 0, 0,0.0,0.0,0.0,0.0,0.0,0.0,0.0,0.0,0.0,0.0,0.0,0.0,0.0,97,extras\src\org\apache\click\extras\filter\CompressionFilter.java,0,0,0,0
org.apache.click.extras.filter.CompressionResponseStream, 0, 0, 0, 0, 0, 0, 0, 0, 0, 0, 0, 0, 0, 0,0.0,0.0,0.0,0.0,0.0,0.0,0.0,0.0,0.0,0.0,0.0,0.0,0.0,125,extras\src\org\apache\click\extras\filter\CompressionResponseStream.java,0,0,0,0
org.apache.click.extras.filter.CompressionServletResponseWrapper, 0, 0, 0, 0, 0, 0, 0, 0, 0, 0, 0, 0, 0, 0,0.0,0.0,0.0,0.3333333333333333,0.0,0.0,0.0,0.0,0.0,0.0,0.0,0.0,0.0,91,extras\src\org\apache\click\extras\filter\CompressionServletResponseWrapper.java,0,0,0,0
org.apache.click.extras.filter.PerformanceFilter, 0, 0, 0, 1, 0, 0, 0, 0, 0, 0, 0, 0, 0, 1,0.0,0.0,0.0,0.0,0.0,0.0,0.0,0.0,0.0,0.0,0.0,0.0,0.0,269,extras\src\org\apache\click\extras\filter\PerformanceFilter.java,0,0,0,0
org.apache.click.extras.gae.GoogleAppEngineListener, 0, 0, 0, 0, 0, 0, 0, 0, 0, 0, 0, 0, 0, 0,0.0,0.0,0.0,0.0,0.0,0.0,0.0,0.0,0.0,0.0,0.0,0.0,0.0,9,extras\src\org\apache\click\extras\gae\GoogleAppEngineListener.java,0,0,0,0
org.apache.click.extras.gae.MemoryFileItemFactory, 0, 0, 0, 0, 0, 0, 0, 0, 0, 0, 0, 0, 0, 0,0.0,0.0,0.0,0.0,0.0,0.0,0.0,0.0,0.0,0.0,0.0,0.0,0.0,8,extras\src\org\apache\click\extras\gae\MemoryFileItemFactory.java,0,0,0,0
org.apache.click.extras.gae.MemoryFileItemTest, 0, 0, 0, 0, 0, 0, 0, 0, 0, 0, 0, 0, 0, 0,0.0,0.0,0.0,0.0,0.0,0.0,0.0,0.0,0.0,0.0,0.0,0.0,0.0,26,extras\test\org\apache\click\extras\gae\MemoryFileItemTest.java,0,0,0,0
org.apache.click.extras.gae.MemoryFileUploadService, 0, 0, 0, 0, 0, 0, 0, 0, 0, 0, 0, 0, 0, 0,0.0,0.0,0.0,0.0,0.0,0.0,0.0,0.0,0.0,0.0,0.0,0.0,0.0,9,extras\src\org\apache\click\extras\gae\MemoryFileUploadService.java,0,0,0,0
org.apache.click.extras.hibernate.HibernateForm, 0, 0, 0, 0, 0, 0, 0, 0, 0, 0, 0, 0, 0, 0,0.0,0.0,0.0,0.3333333333333333,0.0,0.0,0.0,0.0,0.0,0.0,0.0,0.0,0.0,135,extras\src\org\apache\click\extras\hibernate\HibernateForm.java,0,0,0,0
org.apache.click.extras.hibernate.SessionContext, 0, 0, 0, 0, 0, 0, 0, 0, 0, 0, 0, 0, 0, 0,0.0,0.0,0.0,0.0,0.0,0.0,0.0,0.0,0.0,0.0,0.0,0.0,0.0,45,extras\src\org\apache\click\extras\hibernate\SessionContext.java,0,0,0,0
org.apache.click.extras.hibernate.SessionFilter, 0, 0, 0, 0, 0, 0, 0, 0, 0, 0, 0, 0, 0, 0,0.0,0.0,0.0,0.0,0.0,0.0,0.0,0.0,0.0,0.0,0.0,0.0,0.0,20,extras\src\org\apache\click\extras\hibernate\SessionFilter.java,0,0,0,0
org.apache.click.extras.pages.MemoryFileItemUploadPage, 0, 0, 0, 0, 0, 0, 0, 0, 0, 0, 0, 0, 0, 0,0.0,0.0,0.0,0.0,0.0,0.0,0.0,0.0,0.0,0.0,0.0,0.0,0.0,17,extras\test\org\apache\click\extras\pages\MemoryFileItemUploadPage.java,0,0,0,0
org.apache.click.extras.panel.ListPanel, 0, 0, 0, 0, 0, 0, 0, 0, 0, 0, 0, 0, 0, 0,0.0,0.0,0.0,0.0,0.0,0.0,0.0,0.0,0.0,0.0,0.0,0.0,0.0,3,extras\src\org\apache\click\extras\panel\ListPanel.java,0,12,0,12
org.apache.click.extras.panel.TabbedPanel, 0, 0, 0, 1, 0, 0, 0, 0, 0, 0, 0, 0, 0, 1,0.0,0.0,0.0,0.0,0.0,0.0,0.0,0.0,0.0,0.0,0.0,0.0,0.0,219,extras\src\org\apache\click\extras\panel\TabbedPanel.java,0,0,0,0
org.apache.click.extras.security.AccessController, 0, 0, 0, 0, 0, 0, 0, 0, 0, 0, 0, 0, 0, 0,0.0,0.0,0.0,0.0,0.0,0.0,0.0,0.0,0.0,0.0,0.0,0.0,0.0,219,extras\src\org\apache\click\extras\security\AccessController.java,0,0,0,0
org.apache.click.extras.security.RoleAccessController, 0, 0, 0, 0, 0, 0, 0, 0, 0, 0, 0, 0, 0, 0,0.0,0.0,0.0,0.0,0.0,0.0,0.0,0.0,0.0,0.0,0.0,0.0,0.0,9,extras\src\org\apache\click\extras\security\RoleAccessController.java,0,0,0,0
org.apache.click.extras.security.RoleAccessControllerTest, 0, 0, 0, 0, 0, 0, 0, 0, 0, 0, 0, 0, 0, 0,0.0,0.0,0.0,0.0,0.0,0.0,0.0,0.0,0.0,0.0,0.0,0.0,0.0,19,extras\test\org\apache\click\extras\security\RoleAccessControllerTest.java,0,0,0,0
org.apache.click.extras.service.Log4JLogService, 0, 0, 0, 0, 0, 0, 0, 0, 0, 0, 0, 0, 0, 0,0.0,0.0,0.0,0.0,0.0,0.0,0.0,0.0,0.0,0.0,0.0,0.0,0.0,54,extras\src\org\apache\click\extras\service\Log4JLogService.java,0,0,0,0
org.apache.click.extras.service.Slf4jLogService, 0, 0, 0, 0, 0, 0, 0, 0, 0, 0, 0, 0, 0, 0,0.0,0.0,0.0,0.0,0.0,0.0,0.0,0.0,0.0,0.0,0.0,0.0,0.0,54,extras\src\org\apache\click\extras\service\Slf4jLogService.java,0,0,0,0
org.apache.click.extras.spring.PageScopeResolver, 0, 0, 0, 0, 0, 0, 0, 0, 0, 0, 0, 0, 0, 0,0.0,0.0,0.0,0.0,0.0,0.0,0.0,0.0,0.0,0.0,0.0,0.0,0.0,17,extras\src\org\apache\click\extras\spring\PageScopeResolver.java,0,0,0,0
org.apache.click.extras.tree.TreeListener, 0, 0, 0, 0, 0, 0, 0, 0, 0, 0, 0, 0, 0, 0,0.0,0.0,0.0,0.0,0.0,0.0,0.0,0.0,0.0,0.0,0.0,0.0,0.0,17,extras\src\org\apache\click\extras\tree\TreeListener.java,0,0,0,0
org.apache.click.extras.tree.TreeTest, 0, 0, 0, 0, 0, 0, 0, 0, 0, 0, 0, 0, 0, 0,0.0,0.0,0.0,0.0,0.0,0.0,0.0,1.0,0.0,0.0,0.0,0.0,0.0,115,extras\test\org\apache\click\extras\tree\TreeTest.java,0,5,18,41
org.apache.click.extras.util.Address, 0, 0, 0, 0, 0, 0, 0, 0, 0, 0, 0, 0, 0, 0,0.0,0.0,0.0,0.0,0.0,0.0,0.0,0.0,0.0,0.0,0.0,0.0,0.0,51,extras\test\org\apache\click\extras\util\Address.java,0,0,0,0
org.apache.click.extras.util.SampleObject, 0, 0, 0, 0, 0, 0, 0, 0, 0, 0, 0, 0, 0, 0,0.0,0.0,0.0,0.0,0.0,0.0,0.0,0.0,0.0,0.0,0.0,0.0,0.0,58,extras\test\org\apache\click\extras\util\SampleObject.java,0,0,0,0
org.apache.click.extras.util.State, 0, 0, 0, 0, 0, 0, 0, 0, 0, 0, 0, 0, 0, 0,0.0,0.0,0.0,0.0,0.0,0.0,0.0,0.0,0.0,0.0,0.0,0.0,0.0,16,extras\test\org\apache\click\extras\util\State.java,0,0,0,0
org.apache.click.extras.util.User, 0, 0, 0, 0, 0, 0, 0, 0, 0, 0, 0, 0, 0, 0,0.0,0.0,0.0,0.0,0.0,0.0,0.0,0.0,0.0,0.0,0.0,0.0,0.0,37,extras\test\org\apache\click\extras\util\User.java,0,0,0,0
org.apache.click.pages.BinaryPage, 0, 0, 0, 0, 0, 0, 0, 0, 0, 0, 0, 0, 0, 0,0.0,0.0,0.0,0.0,0.0,0.0,0.0,0.0,0.0,0.0,0.0,0.0,0.0,12,framework\test\org\apache\click\pages\BinaryPage.java,0,0,0,0
org.apache.click.pages.BorderPage, 0, 0, 0, 0, 0, 0, 0, 0, 0, 0, 0, 0, 0, 0,0.0,0.0,0.0,0.0,0.0,0.0,0.0,0.0,0.0,0.0,0.0,0.0,0.0,7,mock\test\org\apache\click\pages\BorderPage.java,0,0,0,0
org.apache.click.pages.BorderTestPage, 0, 0, 0, 0, 0, 0, 0, 0, 0, 0, 0, 0, 0, 0,0.0,0.0,0.0,0.0,0.0,0.0,0.0,0.0,0.0,0.0,0.0,0.0,0.0,9,mock\test\org\apache\click\pages\BorderTestPage.java,0,0,0,0
org.apache.click.pages.FileFieldPage, 0, 0, 0, 0, 0, 0, 0, 0, 0, 0, 0, 0, 0, 0,0.0,0.0,0.0,0.0,0.0,0.0,0.0,0.0,0.0,0.0,0.0,0.0,0.0,13,framework\test\org\apache\click\pages\FileFieldPage.java,0,0,0,0
org.apache.click.pages.FormPage, 0, 0, 0, 0, 0, 0, 0, 0, 0, 0, 0, 0, 0, 0,0.0,0.0,0.0,0.0,0.0,0.0,0.0,0.0,0.0,0.0,0.0,0.0,0.0,12,mock\test\org\apache\click\pages\FormPage.java,0,0,0,0
org.apache.click.pages.ForwardPage, 0, 0, 0, 0, 0, 0, 0, 0, 0, 0, 0, 0, 0, 0,0.0,0.0,0.0,0.0,0.0,0.0,0.0,0.0,0.0,0.0,0.0,0.0,0.0,13,mock\test\org\apache\click\pages\ForwardPage.java,0,0,0,0
org.apache.click.pages.HeaderTestPage, 0, 0, 1, 0, 0, 0, 0, 0, 0, 0, 0, 0, 0, 1,0.0,0.0,0.0,0.0,0.0,0.0,0.0,0.0,0.0,0.0,0.0,0.0,0.0,7,framework\test\org\apache\click\pages\HeaderTestPage.java,0,0,0,0
org.apache.click.pages.JspPage, 0, 0, 0, 0, 0, 0, 0, 0, 0, 0, 0, 0, 0, 0,0.0,0.0,0.0,0.0,0.0,0.0,0.0,0.0,0.0,0.0,0.0,0.0,0.0,3,framework\test\org\apache\click\pages\JspPage.java,0,0,0,0
org.apache.click.pages.JspRedirectPage, 0, 0, 0, 0, 0, 0, 0, 0, 0, 0, 0, 0, 0, 0,0.0,0.0,0.0,0.0,0.0,0.0,0.0,0.0,0.0,0.0,0.0,0.0,0.0,7,framework\test\org\apache\click\pages\JspRedirectPage.java,0,0,0,0
org.apache.click.pages.ListenerPage, 0, 0, 1, 0, 0, 0, 0, 0, 0, 0, 0, 0, 0, 1,0.0,0.0,0.0,0.0,0.0,0.0,0.0,0.0,0.0,0.0,0.0,0.0,0.0,19,framework\test\org\apache\click\pages\ListenerPage.java,0,0,0,0
org.apache.click.pages.RedirectPage, 0, 0, 0, 0, 0, 0, 0, 0, 0, 0, 0, 0, 0, 0,0.0,0.0,0.0,0.0,0.0,0.0,0.0,0.0,0.0,0.0,0.0,0.0,0.0,13,mock\test\org\apache\click\pages\RedirectPage.java,0,0,0,0
org.apache.click.pages.RedirectToHtm, 0, 0, 0, 0, 0, 0, 0, 0, 0, 0, 0, 0, 0, 0,0.0,0.0,0.0,0.0,0.0,0.0,0.0,0.0,0.0,0.0,0.0,0.0,0.0,7,framework\test\org\apache\click\pages\RedirectToHtm.java,0,0,0,0
org.apache.click.pages.RedirectToJsp, 0, 0, 0, 0, 0, 0, 0, 0, 0, 0, 0, 0, 0, 0,0.0,0.0,0.0,0.0,0.0,0.0,0.0,0.0,0.0,0.0,0.0,0.0,0.0,7,framework\test\org\apache\click\pages\RedirectToJsp.java,0,0,0,0
org.apache.click.pages.RedirectToSelfPage, 0, 0, 0, 0, 0, 0, 0, 0, 0, 0, 0, 0, 0, 0,0.0,0.0,0.0,0.0,0.0,0.0,0.0,0.0,0.0,0.0,0.0,0.0,0.0,7,framework\test\org\apache\click\pages\RedirectToSelfPage.java,0,0,0,0
org.apache.click.pages.RequestBindingPage, 0, 0, 1, 0, 0, 0, 0, 0, 0, 0, 0, 0, 0, 1,0.0,0.0,0.0,0.0,0.0,0.0,0.0,0.0,0.0,0.0,0.0,0.0,0.0,17,framework\test\org\apache\click\pages\RequestBindingPage.java,0,0,0,0
org.apache.click.pages.SessionMapPage, 0, 0, 0, 0, 0, 0, 0, 0, 0, 0, 0, 0, 0, 0,0.0,0.0,0.0,0.0,0.0,0.0,0.0,0.0,0.0,0.0,0.0,0.0,0.0,3,framework\test\org\apache\click\pages\SessionMapPage.java,0,0,0,0
org.apache.click.pages.SetPathToJspPage, 0, 0, 0, 0, 0, 0, 0, 0, 0, 0, 0, 0, 0, 0,0.0,0.0,0.0,0.0,0.0,0.0,0.0,0.0,0.0,0.0,0.0,0.0,0.0,8,framework\test\org\apache\click\pages\SetPathToJspPage.java,0,0,0,0
org.apache.click.pages.TestPage, 0, 0, 0, 0, 0, 0, 0, 0, 0, 0, 0, 0, 0, 0,0.0,0.0,0.0,0.0,0.0,0.0,0.0,0.0,0.0,0.0,0.0,0.0,0.0,9,mock\test\org\apache\click\pages\TestPage.java,0,0,0,0
org.apache.click.service.CommonsFileUploadService, 0, 0, 0, 0, 0, 0, 0, 0, 0, 0, 0, 0, 0, 0,0.0,0.0,0.0,0.0,0.0,0.0,0.0,0.0,0.0,0.0,0.0,0.0,0.0,76,framework\src\org\apache\click\service\CommonsFileUploadService.java,0,0,0,0
org.apache.click.service.ConsoleLogService, 0, 0, 0, 1, 0, 0, 0, 0, 0, 0, 0, 0, 0, 1,0.0,0.0,0.0,0.0,0.0,0.0,0.0,1.0,0.0,0.0,0.0,0.0,0.0,74,framework\src\org\apache\click\service\ConsoleLogService.java,0,0,0,0
org.apache.click.service.DeployUtils, 0, 0, 0, 0, 0, 0, 0, 0, 0, 0, 0, 0, 0, 0,0.0,0.0,0.0,0.0,0.0,0.0,0.0,0.0,0.0,0.0,0.0,0.0,0.0,251,framework\src\org\apache\click\service\DeployUtils.java,0,0,0,0
org.apache.click.service.FileUploadService, 0, 0, 0, 0, 0, 0, 0, 0, 0, 0, 0, 0, 0, 0,0.0,0.0,0.0,0.0,0.0,0.0,0.0,0.0,0.0,0.0,0.0,0.0,0.0,251,framework\src\org\apache\click\service\FileUploadService.java,0,0,0,0
org.apache.click.service.LogService, 0, 0, 0, 0, 0, 0, 0, 0, 0, 0, 0, 0, 0, 0,0.0,0.0,0.0,0.0,0.0,0.0,0.0,0.0,0.0,0.0,0.0,0.0,0.0,251,framework\src\org\apache\click\service\LogService.java,0,0,0,0
org.apache.click.service.ResourceService, 0, 0, 0, 0, 0, 0, 0, 0, 0, 0, 0, 0, 0, 0,0.0,0.0,0.0,0.0,0.0,0.0,0.0,0.0,0.0,0.0,0.0,0.0,0.0,251,framework\src\org\apache\click\service\ResourceService.java,0,0,0,0
org.apache.click.servlet.MockPrincipal, 0, 0, 0, 0, 0, 0, 0, 0, 0, 0, 0, 0, 0, 0,0.0,0.0,0.0,0.0,0.0,0.0,0.0,0.0,0.0,0.0,0.0,0.0,0.0,37,mock\src\org\apache\click\servlet\MockPrincipal.java,0,0,0,0
org.apache.click.servlet.MockRequestDispatcher, 0, 0, 0, 0, 0, 0, 0, 0, 0, 0, 0, 0, 0, 0,0.0,0.0,0.0,0.0,0.0,0.0,0.0,0.0,0.0,0.0,0.0,0.0,0.0,14,mock\src\org\apache\click\servlet\MockRequestDispatcher.java,0,0,0,0
org.apache.click.util.ActionListenerAdaptor, 0, 0, 0, 0, 0, 0, 0, 0, 0, 0, 0, 0, 0, 0,0.0,0.0,0.0,0.0,0.0,0.0,0.0,0.0,0.0,0.0,0.0,0.0,0.0,12,framework\src\org\apache\click\util\ActionListenerAdaptor.java,0,0,0,0
org.apache.click.util.Address, 0, 0, 0, 0, 0, 0, 0, 0, 0, 0, 0, 0, 0, 0,0.0,0.0,0.0,0.0,0.0,0.0,0.0,0.0,0.0,0.0,0.0,0.0,0.0,51,framework\test\org\apache\click\util\Address.java,0,0,0,0
org.apache.click.util.ChildObject, 0, 0, 0, 0, 0, 0, 0, 0, 0, 0, 0, 0, 0, 0,0.0,0.0,0.0,0.0,0.0,0.0,0.0,1.0,0.0,0.0,0.0,0.0,0.0,18,framework\test\org\apache\click\util\ChildObject.java,0,0,0,0
org.apache.click.util.ContainerUtilsTest, 0, 0, 0, 0, 0, 0, 0, 0, 0, 0, 0, 0, 0, 0,0.0,0.0,0.0,0.2,0.0,0.0,0.0,0.2,0.0,0.0,0.0,0.0,0.0,53,framework\test\org\apache\click\util\ContainerUtilsTest.java,0,0,0,0
org.apache.click.util.ErrorPage, 0, 0, 0, 0, 0, 0, 0, 0, 0, 1, 0, 0, 0, 1,0.0,0.0,1.0,0.0,0.0,0.0,0.0,0.0,0.0,1.0,0.0,0.0,0.0,39,framework\src\org\apache\click\util\ErrorPage.java,0,0,0,0
org.apache.click.util.FlashAttribute, 0, 0, 0, 0, 0, 0, 0, 0, 0, 0, 0, 0, 0, 0,0.0,0.0,0.0,0.0,0.0,0.0,0.0,0.0,0.0,0.0,0.0,0.0,0.0,17,framework\src\org\apache\click\util\FlashAttribute.java,0,0,0,0
org.apache.click.util.Format, 0, 0, 0, 1, 0, 0, 0, 0, 0, 0, 0, 0, 0, 1,0.0,0.0,0.0,0.0,0.0,0.0,0.0,0.0,0.0,0.0,0.0,0.0,0.0,222,framework\src\org\apache\click\util\Format.java,0,0,0,0
org.apache.click.util.FormatTest, 0, 0, 0, 0, 0, 0, 0, 0, 0, 0, 0, 0, 0, 0,0.0,0.0,0.0,0.0,0.0,0.0,0.0,1.0,0.0,0.0,0.0,0.0,0.0,15,framework\test\org\apache\click\util\FormatTest.java,0,0,0,0
org.apache.click.util.HtmlStringBufferTest, 0, 0, 0, 0, 0, 0, 0, 0, 0, 0, 0, 0, 0, 0,0.0,0.0,0.0,0.0,0.0,0.0,0.0,0.0,0.0,0.0,0.0,0.0,0.0,42,framework\test\org\apache\click\util\HtmlStringBufferTest.java,0,0,0,0
org.apache.click.util.ParentObject, 0, 0, 0, 0, 0, 0, 0, 1, 0, 0, 0, 0, 0, 1,0.0,0.0,0.0,0.0,0.0,0.0,0.0,0.0,0.0,0.0,0.0,0.0,0.0,34,framework\test\org\apache\click\util\ParentObject.java,0,0,0,0
org.apache.click.util.RequestTypeConverterTest, 0, 0, 0, 0, 0, 0, 0, 0, 0, 0, 0, 0, 0, 0,0.0,0.0,0.0,0.0,0.0,0.0,0.0,0.0,0.0,0.0,0.0,0.0,0.0,63,framework\test\org\apache\click\util\RequestTypeConverterTest.java,0,0,0,0
org.apache.click.util.SampleObject, 0, 0, 0, 0, 0, 0, 0, 0, 0, 0, 0, 0, 0, 0,0.0,0.0,0.0,0.0,0.0,0.0,0.0,0.0,0.0,0.0,0.0,0.0,0.0,58,framework\test\org\apache\click\util\SampleObject.java,0,0,0,0
org.apache.click.util.State, 0, 0, 0, 0, 0, 0, 0, 0, 0, 0, 0, 0, 0, 0,0.0,0.0,0.0,0.0,0.0,0.0,0.0,0.0,0.0,0.0,0.0,0.0,0.0,16,framework\test\org\apache\click\util\State.java,0,0,0,0
org.apache.click.util.Test1TextField, 0, 0, 0, 0, 0, 0, 0, 0, 0, 0, 0, 0, 0, 0,0.0,0.0,0.0,0.0,0.0,0.0,0.0,0.0,0.0,0.0,0.0,0.0,0.0,3,framework\test\org\apache\click\util\Test1TextField.java,0,0,0,0
org.apache.click.util.Test2TextField, 0, 0, 0, 0, 0, 0, 0, 0, 0, 0, 0, 0, 0, 0,0.0,0.0,0.0,0.0,0.0,0.0,0.0,0.0,0.0,0.0,0.0,0.0,0.0,3,framework\test\org\apache\click\util\Test2TextField.java,0,0,0,0
org.apache.click.util.TestPage, 0, 0, 0, 0, 0, 0, 0, 0, 0, 0, 0, 0, 0, 0,0.0,0.0,0.0,0.0,0.0,0.0,0.0,0.0,0.0,0.0,0.0,0.0,0.0,3,framework\test\org\apache\click\util\TestPage.java,0,0,0,0
org.apache.click.util.User, 0, 0, 0, 0, 0, 0, 0, 0, 0, 0, 0, 0, 0, 0,0.0,0.0,0.0,0.0,0.0,0.0,0.0,0.0,0.0,0.0,0.0,0.0,0.0,37,framework\test\org\apache\click\util\User.java,0,0,0,0
org.apache.click.utilinvokelistener.ClickUtilsInvokeListenerTest, 0, 0, 0, 0, 0, 0, 0, 0, 0, 0, 0, 0, 0, 0,0.0,0.0,0.0,0.0,0.0,0.0,0.0,0.0,0.0,0.0,0.0,0.0,0.0,96,framework\test\org\apache\click\utilinvokelistener\ClickUtilsInvokeListenerTest.java,0,0,0,0
template.page.BasePage, 0, 0, 0, 0, 0, 0, 0, 0, 0, 0, 0, 0, 0, 0,0.0,0.0,0.0,0.0,0.0,0.0,0.0,0.0,0.0,0.0,0.0,0.0,0.0,10,template\src\template\page\BasePage.java,0,0,0,0
template.page.BorderPage, 0, 0, 0, 0, 0, 0, 0, 0, 0, 0, 0, 0, 0, 0,0.1,0.0,0.8,0.1,0.0,0.0,0.0,0.0,0.0,0.0,0.0,0.0,0.0,12,template\src\template\page\BorderPage.java,0,0,0,0
template.page.LoginPage, 0, 0, 1, 0, 0, 0, 0, 0, 0, 0, 0, 0, 0, 1,0.0,0.0,0.0,0.0,0.0,0.0,0.0,0.0,0.0,0.0,0.0,0.0,0.0,3,template\src\template\page\LoginPage.java,0,0,0,0
template.page.LogoutPage, 0, 0, 1, 0, 0, 0, 0, 0, 0, 0, 0, 0, 0, 1,0.0,0.0,0.0,0.0,0.0,0.0,0.0,0.0,0.0,0.0,0.0,0.0,0.0,10,template\src\template\page\LogoutPage.java,0,0,0,0
template.page.NotAuthorizedPage, 0, 0, 1, 0, 0, 0, 0, 0, 0, 0, 0, 0, 0, 1,0.0,0.0,0.0,0.0,0.0,0.0,0.0,0.0,0.0,0.0,0.0,0.0,0.0,3,template\src\template\page\NotAuthorizedPage.java,0,0,0,0
template.page.admin.Admin1Page, 0, 0, 1, 0, 0, 0, 0, 0, 0, 0, 0, 0, 0, 1,0.0,0.0,0.0,0.0,0.0,0.0,0.0,0.0,0.0,0.0,0.0,0.0,0.0,3,template\src\template\page\admin\Admin1Page.java,0,0,0,0
template.page.admin.Admin2Page, 0, 0, 1, 0, 0, 0, 0, 0, 0, 0, 0, 0, 0, 1,0.0,0.0,0.0,0.0,0.0,0.0,0.0,0.0,0.0,0.0,0.0,0.0,0.0,3,template\src\template\page\admin\Admin2Page.java,0,0,0,0
template.page.click.ErrorPage, 0, 0, 1, 0, 0, 0, 0, 0, 0, 1, 0, 0, 0, 2,0.5,0.0,0.0,0.5,0.0,0.0,0.0,0.0,0.0,0.5,0.0,0.0,0.0,15,template\src\template\page\click\ErrorPage.java,0,0,0,0
template.page.user.HomePage, 0, 0, 1, 0, 0, 0, 0, 0, 0, 0, 0, 0, 0, 1,0.0,0.0,0.0,0.0,0.0,0.0,0.0,0.0,0.0,0.0,0.0,0.0,0.0,3,template\src\template\page\user\HomePage.java,0,0,0,0
template.page.user.User1Page, 0, 0, 1, 0, 0, 0, 0, 0, 0, 0, 0, 0, 0, 1,0.0,0.0,0.0,0.0,0.0,0.0,0.0,0.0,0.0,0.0,0.0,0.0,0.0,3,template\src\template\page\user\User1Page.java,0,0,0,0
template.page.user.User2Page, 0, 0, 1, 0, 0, 0, 0, 0, 0, 0, 0, 0, 0, 1,0.0,0.0,0.0,0.0,0.0,0.0,0.0,0.0,0.0,0.0,0.0,0.0,0.0,3,template\src\template\page\user\User2Page.java,0,0,0,0
