ClassName,AntiSingleton,Blob,ClassDataShouldBePrivate,ComplexClass,LargeClass,LazyClass,LongMethod,LongParameterList,MessageChains,RefusedParentBequest,SpaghettiCode,SpeculativeGenerality,SwissArmyKnife,NumOfAPs,AntiSingleton,Blob,ClassDataShouldBePrivate,ComplexClass,LargeClass,LazyClass,LongMethod,LongParameterList,MessageChains,RefusedParentBequest,SpaghettiCode,SpeculativeGenerality,SwissArmyKnife,LOC,name,deleted,added,changed,all
org.ofbiz.accounting.AccountingException, 0, 0, 0, 0, 0, 0, 0, 0, 0, 0, 0, 0, 0, 0,0.5,0.0,0.5,0.5,0.0,0.0,0.0,0.0,0.0,0.0,0.0,0.0,0.0,14,applications\accounting\src\org\ofbiz\accounting\AccountingException.java,0,0,0,0
org.ofbiz.accounting.payment.BillingAccountWorker, 0, 0, 0, 0, 0, 0, 0, 1, 0, 0, 0, 0, 0, 1,0.0,0.0,0.0,0.0,0.0,0.0,0.0,0.0,0.0,0.0,0.0,0.0,0.0,162,applications\accounting\src\org\ofbiz\accounting\payment\BillingAccountWorker.java,0,0,0,0
org.ofbiz.accounting.thirdparty.authorizedotnet.AuthorizeResponse, 0, 0, 0, 1, 0, 0, 0, 0, 0, 0, 0, 0, 0, 1,0.0,0.0,0.0,0.0,0.0,0.0,0.0,0.0,0.0,0.0,0.0,0.0,0.0,88,applications\accounting\src\org\ofbiz\accounting\thirdparty\authorizedotnet\AuthorizeResponse.java,0,0,0,0
org.ofbiz.accounting.thirdparty.eway.GatewayConnector, 0, 0, 0, 0, 0, 0, 0, 0, 0, 0, 0, 0, 0, 0,0.0,0.0,0.0,0.0,0.0,0.0,0.0,0.0,0.0,0.0,0.0,0.0,0.0,45,applications\accounting\src\org\ofbiz\accounting\thirdparty\eway\GatewayConnector.java,0,0,0,0
org.ofbiz.accounting.thirdparty.ideal.IdealPaymentServiceTest, 0, 0, 0, 0, 0, 0, 0, 0, 0, 0, 0, 0, 0, 0,0.0,0.0,0.0,0.0,0.0,0.0,0.0,0.0,0.0,0.0,0.0,0.0,0.0,170,applications\accounting\src\org\ofbiz\accounting\thirdparty\ideal\IdealPaymentServiceTest.java,0,0,0,0
org.ofbiz.accounting.util.UtilAccounting, 1, 0, 1, 1, 0, 0, 0, 0, 0, 0, 0, 0, 0, 3,0.0,0.0,0.0,0.0,0.0,0.0,0.0,0.0,0.0,0.0,0.0,0.0,0.0,155,applications\accounting\src\org\ofbiz\accounting\util\UtilAccounting.java,0,0,0,0
org.ofbiz.base.component.AlreadyLoadedException, 0, 0, 0, 0, 0, 0, 0, 0, 0, 0, 0, 0, 0, 0,0.0,0.0,0.0,0.0,0.0,0.0,0.0,0.0,0.0,0.0,0.0,0.0,0.0,14,framework\base\src\org\ofbiz\base\component\AlreadyLoadedException.java,0,0,0,0
org.ofbiz.base.component.ComponentException, 0, 0, 0, 0, 0, 0, 0, 0, 0, 0, 0, 0, 0, 0,0.25,0.0,0.0,0.0,0.0,0.0,0.0,0.0,0.0,0.0,0.0,0.0,0.0,14,framework\base\src\org\ofbiz\base\component\ComponentException.java,0,0,0,0
org.ofbiz.base.component.ComponentLoaderConfig, 1, 0, 0, 0, 0, 0, 0, 0, 0, 0, 0, 0, 0, 1,0.0,0.0,0.0,0.0,0.0,0.0,0.0,0.0,0.0,0.0,0.0,0.0,0.0,63,framework\base\src\org\ofbiz\base\component\ComponentLoaderConfig.java,0,0,0,0
org.ofbiz.base.component.ComponentResourceHandler, 0, 0, 0, 0, 0, 0, 0, 0, 0, 0, 0, 0, 0, 0,0.0,0.0,0.0,0.0,0.0,0.0,0.0,0.0,0.0,0.0,0.0,0.0,0.0,66,framework\base\src\org\ofbiz\base\component\ComponentResourceHandler.java,0,0,0,0
org.ofbiz.base.concurrent.ExecutionPool, 0, 0, 0, 0, 0, 0, 0, 0, 0, 0, 0, 0, 0, 0,0.0,0.0,0.0,0.0,0.0,0.0,0.0,0.5,0.0,0.0,0.0,0.0,0.0,114,framework\base\src\org\ofbiz\base\concurrent\ExecutionPool.java,0,0,0,0
org.ofbiz.base.concurrent.GeneratedResult, 0, 0, 0, 0, 0, 0, 0, 0, 0, 0, 0, 0, 0, 0,0.0,0.0,0.0,0.0,0.0,0.0,0.0,0.0,0.0,0.0,0.0,0.0,0.0,8,framework\base\src\org\ofbiz\base\concurrent\GeneratedResult.java,0,0,0,0
org.ofbiz.base.concurrent.TTLCachedObject, 0, 0, 0, 0, 0, 0, 0, 0, 0, 0, 0, 0, 0, 0,0.0,0.0,0.0,0.0,0.0,0.0,0.0,0.0,0.0,0.0,0.0,0.0,0.0,26,framework\base\src\org\ofbiz\base\concurrent\TTLCachedObject.java,0,0,0,0
org.ofbiz.base.concurrent.test.AsyncTTLObjectTest, 0, 0, 0, 0, 0, 0, 0, 0, 0, 0, 0, 0, 0, 0,0.0,0.0,0.0,0.0,0.0,0.0,0.0,1.0,0.0,0.0,0.0,0.0,0.0,134,framework\base\src\org\ofbiz\base\concurrent\test\AsyncTTLObjectTest.java,0,0,0,0
org.ofbiz.base.concurrent.test.DependencyPoolTests, 0, 0, 0, 0, 0, 0, 0, 0, 0, 0, 0, 0, 0, 0,0.0,0.0,0.0,0.0,0.0,0.0,0.0,0.0,0.0,0.0,0.0,0.0,0.0,83,framework\base\src\org\ofbiz\base\concurrent\test\DependencyPoolTests.java,0,0,0,0
org.ofbiz.base.concurrent.test.SyncTTLObjectTest, 0, 0, 0, 0, 0, 0, 0, 0, 0, 0, 0, 0, 0, 0,0.0,0.0,0.0,0.0,0.0,0.0,0.0,1.0,0.0,0.0,0.0,0.0,0.0,219,framework\base\src\org\ofbiz\base\concurrent\test\SyncTTLObjectTest.java,0,0,0,0
org.ofbiz.base.concurrent.test.TTLCachedObjectTest, 0, 0, 0, 0, 0, 0, 0, 0, 0, 0, 0, 0, 0, 0,0.0,0.0,0.0,0.0,0.0,0.0,0.0,0.5,0.0,0.0,0.0,0.0,0.0,45,framework\base\src\org\ofbiz\base\concurrent\test\TTLCachedObjectTest.java,0,0,0,0
org.ofbiz.base.concurrent.test.TTLObjectTest, 0, 0, 0, 0, 0, 0, 0, 1, 0, 0, 0, 0, 0, 1,0.0,0.0,0.0,0.0,0.0,0.0,0.0,0.0,0.0,0.0,0.0,0.0,0.0,88,framework\base\src\org\ofbiz\base\concurrent\test\TTLObjectTest.java,0,0,0,0
org.ofbiz.base.config.ClasspathLoader, 0, 0, 0, 0, 0, 0, 0, 0, 0, 0, 0, 0, 0, 0,0.0,0.0,0.0,0.0,0.0,0.0,0.0,0.0,0.0,0.0,0.0,0.0,0.0,20,framework\base\src\org\ofbiz\base\config\ClasspathLoader.java,0,0,0,0
org.ofbiz.base.config.CoberturaInstrumenter, 0, 0, 0, 0, 0, 0, 0, 0, 0, 0, 0, 0, 0, 0,0.0,0.0,0.0,0.0,0.0,0.0,0.0,0.0,0.0,0.0,0.0,0.0,0.0,54,framework\base\src\org\ofbiz\base\config\CoberturaInstrumenter.java,0,0,0,0
org.ofbiz.base.config.FileLoader, 0, 0, 0, 0, 0, 0, 0, 0, 0, 0, 0, 0, 0, 0,0.0,0.0,0.0,0.0,0.0,0.0,0.0,0.0,0.0,0.0,0.0,0.0,0.0,21,framework\base\src\org\ofbiz\base\config\FileLoader.java,0,0,0,0
org.ofbiz.base.config.GenericConfigException, 0, 0, 0, 0, 0, 0, 0, 0, 0, 0, 0, 0, 0, 0,0.0,0.0,0.0,0.0,0.0,0.0,0.0,0.0,0.0,0.0,0.0,0.0,0.0,14,framework\base\src\org\ofbiz\base\config\GenericConfigException.java,0,0,0,0
org.ofbiz.base.config.JNDIConfigUtil, 0, 0, 0, 0, 0, 0, 0, 0, 0, 0, 0, 0, 0, 0,0.0,0.0,0.0,0.0,0.0,0.0,0.0,0.0,0.0,0.0,0.0,0.0,0.0,44,framework\base\src\org\ofbiz\base\config\JNDIConfigUtil.java,0,0,0,0
org.ofbiz.base.config.MainResourceHandler, 0, 0, 0, 0, 0, 0, 0, 0, 0, 0, 0, 0, 0, 0,0.0,0.0,0.0,0.0,0.0,0.0,0.0,0.0,0.0,0.0,0.0,0.0,0.0,72,framework\base\src\org\ofbiz\base\config\MainResourceHandler.java,0,0,0,0
org.ofbiz.base.config.ResourceHandler, 0, 0, 0, 0, 0, 0, 0, 0, 0, 0, 0, 0, 0, 0,0.0,0.0,0.0,0.0,0.0,0.0,0.0,0.0,0.0,0.0,0.0,0.0,0.0,72,framework\base\src\org\ofbiz\base\config\ResourceHandler.java,0,0,0,0
org.ofbiz.base.config.UrlLoader, 0, 0, 0, 0, 0, 0, 0, 0, 0, 0, 0, 0, 0, 0,0.0,0.0,0.0,0.0,0.0,0.0,0.0,0.0,0.0,0.0,0.0,0.0,0.0,25,framework\base\src\org\ofbiz\base\config\UrlLoader.java,0,0,0,0
org.ofbiz.base.container.BeanShellContainer, 0, 0, 0, 0, 0, 0, 0, 0, 0, 0, 0, 0, 0, 0,0.0,0.0,0.0,0.0,0.0,0.0,0.0,0.0,0.0,0.0,0.0,0.0,0.0,67,framework\base\src\org\ofbiz\base\container\BeanShellContainer.java,0,0,0,0
org.ofbiz.base.container.ClassLoaderContainer, 1, 0, 1, 0, 0, 0, 0, 0, 0, 0, 0, 0, 0, 2,0.0,0.0,0.0,0.0,0.0,0.0,0.0,0.0,0.0,0.0,0.0,0.0,0.0,60,framework\base\src\org\ofbiz\base\container\ClassLoaderContainer.java,0,0,0,0
org.ofbiz.base.container.Container, 0, 0, 0, 0, 0, 0, 0, 0, 0, 0, 0, 0, 0, 0,0.0,0.0,0.0,0.0,0.0,0.0,0.0,0.0,0.0,0.0,0.0,0.0,0.0,60,framework\base\src\org\ofbiz\base\container\Container.java,0,0,0,0
org.ofbiz.base.container.ContainerException, 0, 0, 0, 0, 0, 0, 0, 0, 0, 0, 0, 0, 0, 0,0.0,0.0,0.0,0.0,0.0,0.0,0.0,0.0,0.0,0.0,0.0,0.0,0.0,14,framework\base\src\org\ofbiz\base\container\ContainerException.java,0,0,0,0
org.ofbiz.base.container.JustLoadComponentsContainer, 0, 0, 0, 0, 0, 0, 0, 0, 0, 0, 0, 0, 0, 0,0.0,0.0,0.0,0.0,0.0,0.0,0.0,0.0,0.0,0.0,0.0,0.0,0.0,23,framework\base\src\org\ofbiz\base\container\JustLoadComponentsContainer.java,0,0,0,0
org.ofbiz.base.container.NamingServiceContainer, 0, 0, 0, 0, 0, 0, 0, 0, 0, 0, 0, 0, 0, 0,0.0,0.0,0.0,0.0,0.0,0.0,0.0,0.0,0.0,0.0,0.0,0.0,0.0,53,framework\base\src\org\ofbiz\base\container\NamingServiceContainer.java,0,0,0,0
org.ofbiz.base.conversion.AbstractConverter, 0, 0, 0, 0, 0, 0, 0, 0, 0, 0, 0, 0, 0, 0,0.0,0.0,0.0,0.0,0.0,0.0,0.0,0.3333333333333333,0.0,0.0,0.0,0.0,0.0,23,framework\base\src\org\ofbiz\base\conversion\AbstractConverter.java,0,0,0,0
org.ofbiz.base.conversion.AbstractLocalizedConverter, 0, 0, 0, 0, 0, 0, 0, 1, 0, 0, 0, 0, 0, 1,0.0,0.0,0.0,0.0,0.0,0.0,0.0,0.0,0.0,0.0,0.0,0.0,0.0,11,framework\base\src\org\ofbiz\base\conversion\AbstractLocalizedConverter.java,0,0,0,0
org.ofbiz.base.conversion.BooleanConverters, 0, 0, 0, 0, 0, 0, 0, 0, 0, 0, 0, 0, 0, 0,0.0,0.0,0.0,0.0,0.0,0.0,0.0,0.0,0.0,0.0,0.0,0.0,0.0,47,framework\base\src\org\ofbiz\base\conversion\BooleanConverters.java,0,0,0,0
org.ofbiz.base.conversion.CollectionConverters, 0, 0, 0, 0, 0, 0, 0, 0, 0, 0, 0, 0, 0, 0,0.0,0.0,0.0,0.0,0.0,0.0,0.0,0.0,0.0,0.0,0.0,0.0,0.0,133,framework\base\src\org\ofbiz\base\conversion\CollectionConverters.java,0,0,0,0
org.ofbiz.base.conversion.ConversionException, 0, 0, 0, 0, 0, 0, 0, 0, 0, 0, 0, 0, 0, 0,0.0,0.0,0.0,0.0,0.0,0.0,0.0,0.0,0.0,0.0,0.0,0.0,0.0,11,framework\base\src\org\ofbiz\base\conversion\ConversionException.java,0,0,0,0
org.ofbiz.base.conversion.Converter, 0, 0, 0, 0, 0, 0, 0, 0, 0, 0, 0, 0, 0, 0,0.0,0.0,0.0,0.0,0.0,0.0,0.0,0.0,0.0,0.0,0.0,0.0,0.0,11,framework\base\src\org\ofbiz\base\conversion\Converter.java,0,0,0,0
org.ofbiz.base.conversion.ConverterCreator, 0, 0, 0, 0, 0, 0, 0, 0, 0, 0, 0, 0, 0, 0,0.0,0.0,0.0,0.0,0.0,0.0,0.0,0.0,0.0,0.0,0.0,0.0,0.0,11,framework\base\src\org\ofbiz\base\conversion\ConverterCreator.java,0,0,0,0
org.ofbiz.base.conversion.ConverterLoader, 0, 0, 0, 0, 0, 0, 0, 0, 0, 0, 0, 0, 0, 0,0.0,0.0,0.0,0.0,0.0,0.0,0.0,0.0,0.0,0.0,0.0,0.0,0.0,11,framework\base\src\org\ofbiz\base\conversion\ConverterLoader.java,0,0,0,0
org.ofbiz.base.conversion.GenericSingletonToList, 0, 0, 0, 0, 0, 0, 0, 0, 0, 0, 0, 0, 0, 0,0.0,0.0,0.0,0.0,0.0,0.0,0.0,0.0,0.0,0.0,0.0,0.0,0.0,10,framework\base\src\org\ofbiz\base\conversion\GenericSingletonToList.java,0,0,0,0
org.ofbiz.base.conversion.GenericSingletonToSet, 0, 0, 0, 0, 0, 0, 0, 0, 0, 0, 0, 0, 0, 0,0.0,0.0,0.0,0.0,0.0,0.0,0.0,0.0,0.0,0.0,0.0,0.0,0.0,10,framework\base\src\org\ofbiz\base\conversion\GenericSingletonToSet.java,0,0,0,0
org.ofbiz.base.conversion.JSONConverters, 0, 0, 0, 0, 0, 0, 0, 0, 0, 0, 0, 0, 0, 0,0.0,0.0,0.0,0.0,0.0,0.0,0.0,0.0,0.0,0.0,0.0,0.0,0.0,172,framework\base\src\org\ofbiz\base\conversion\JSONConverters.java,0,0,0,0
org.ofbiz.base.conversion.JSONResult, 0, 0, 0, 0, 0, 0, 0, 0, 0, 0, 0, 0, 0, 0,0.0,0.0,0.0,0.0,0.0,0.0,0.0,0.0,0.0,0.0,0.0,0.0,0.0,172,framework\base\src\org\ofbiz\base\conversion\JSONResult.java,0,0,0,0
org.ofbiz.base.conversion.LocalizedConverter, 0, 0, 0, 0, 0, 0, 0, 0, 0, 0, 0, 0, 0, 0,0.0,0.0,0.0,0.0,0.0,0.0,0.0,0.0,0.0,0.0,0.0,0.0,0.0,172,framework\base\src\org\ofbiz\base\conversion\LocalizedConverter.java,0,0,0,0
org.ofbiz.base.conversion.NetConverters, 0, 0, 0, 0, 0, 0, 0, 0, 0, 0, 0, 0, 0, 0,0.0,0.0,0.0,0.0,0.0,0.0,0.0,0.0,0.0,0.0,0.0,0.0,0.0,92,framework\base\src\org\ofbiz\base\conversion\NetConverters.java,0,0,0,0
org.ofbiz.base.conversion.NumberConverters, 0, 0, 0, 0, 0, 0, 0, 0, 0, 0, 0, 0, 0, 0,0.0,0.0,0.0,0.0,0.0,0.0,0.0,0.0,0.0,0.0,0.0,0.0,0.0,346,framework\base\src\org\ofbiz\base\conversion\NumberConverters.java,0,0,0,0
org.ofbiz.base.conversion.test.DateTimeTests, 0, 0, 0, 0, 0, 0, 0, 0, 0, 0, 0, 0, 0, 0,0.0,0.0,0.0,0.0,0.0,0.0,0.0,0.0,0.0,0.0,0.0,0.0,0.0,25,framework\base\src\org\ofbiz\base\conversion\test\DateTimeTests.java,0,0,0,0
org.ofbiz.base.conversion.test.TestBooleanConverters, 0, 0, 0, 0, 0, 0, 0, 0, 0, 0, 0, 0, 0, 0,0.0,0.0,0.0,0.0,0.0,0.0,0.0,0.0,0.0,0.0,0.0,0.0,0.0,35,framework\base\src\org\ofbiz\base\conversion\test\TestBooleanConverters.java,0,0,0,0
org.ofbiz.base.crypto.BlowFishCrypt, 0, 0, 0, 0, 0, 0, 0, 0, 0, 0, 0, 0, 0, 0,0.0,0.0,0.0,0.0,0.0,0.0,0.0,0.0,0.0,0.0,0.0,0.0,0.0,84,framework\base\src\org\ofbiz\base\crypto\BlowFishCrypt.java,0,0,0,0
org.ofbiz.base.crypto.DesCrypt, 0, 0, 0, 0, 0, 0, 0, 0, 0, 0, 0, 0, 0, 0,0.0,0.0,0.0,0.0,0.0,0.0,0.0,0.0,0.0,0.0,0.0,0.0,0.0,80,framework\base\src\org\ofbiz\base\crypto\DesCrypt.java,0,0,0,0
org.ofbiz.base.crypto.Main, 0, 0, 0, 0, 0, 0, 0, 0, 0, 0, 0, 0, 0, 0,0.0,0.0,0.0,0.0,0.0,0.0,0.0,0.0,0.0,0.0,0.0,0.0,0.0,13,framework\base\src\org\ofbiz\base\crypto\Main.java,0,0,0,0
org.ofbiz.base.lang.Appender, 0, 0, 0, 0, 0, 0, 0, 0, 0, 0, 0, 0, 0, 0,0.0,0.0,0.0,0.0,0.0,0.0,0.0,0.0,0.0,0.0,0.0,0.0,0.0,13,framework\base\src\org\ofbiz\base\lang\Appender.java,0,0,0,0
org.ofbiz.base.lang.ComparableRange, 0, 0, 0, 0, 0, 0, 0, 0, 0, 0, 0, 0, 0, 0,0.0,0.0,0.0,0.0,0.0,0.0,0.0,0.5,0.0,0.0,0.0,0.0,0.0,82,framework\base\src\org\ofbiz\base\lang\ComparableRange.java,0,0,0,0
org.ofbiz.base.lang.Factory, 0, 0, 0, 0, 0, 0, 0, 0, 0, 0, 0, 0, 0, 0,0.0,0.0,0.0,0.0,0.0,0.0,0.0,0.0,0.0,0.0,0.0,0.0,0.0,82,framework\base\src\org\ofbiz\base\lang\Factory.java,0,0,0,0
org.ofbiz.base.lang.IsEmpty, 0, 0, 0, 0, 0, 0, 0, 0, 0, 0, 0, 0, 0, 0,0.0,0.0,0.0,0.0,0.0,0.0,0.0,0.0,0.0,0.0,0.0,0.0,0.0,82,framework\base\src\org\ofbiz\base\lang\IsEmpty.java,0,0,0,0
org.ofbiz.base.lang.ObjectWrapper, 0, 0, 0, 0, 0, 0, 0, 0, 0, 0, 0, 0, 0, 0,0.0,0.0,0.0,0.0,0.0,0.0,0.0,0.0,0.0,0.0,0.0,0.0,0.0,82,framework\base\src\org\ofbiz\base\lang\ObjectWrapper.java,0,0,0,0
org.ofbiz.base.lang.Range, 0, 0, 0, 0, 0, 0, 0, 0, 0, 0, 0, 0, 0, 0,0.0,0.0,0.0,0.0,0.0,0.0,0.0,0.0,0.0,0.0,0.0,0.0,0.0,82,framework\base\src\org\ofbiz\base\lang\Range.java,0,0,0,0
org.ofbiz.base.lang.test.ComparableRangeTests, 0, 0, 0, 0, 0, 0, 0, 1, 0, 0, 0, 0, 0, 1,0.0,0.0,0.0,0.0,0.0,0.0,0.0,0.0,0.0,0.0,0.0,0.0,0.0,95,framework\base\src\org\ofbiz\base\lang\test\ComparableRangeTests.java,0,0,0,0
org.ofbiz.base.location.ClasspathLocationResolver, 0, 0, 0, 0, 0, 0, 0, 0, 0, 0, 0, 0, 0, 0,0.0,0.0,0.0,0.0,0.0,0.0,0.0,0.0,0.0,0.0,0.0,0.0,0.0,12,framework\base\src\org\ofbiz\base\location\ClasspathLocationResolver.java,0,0,0,0
org.ofbiz.base.location.LocationResolver, 0, 0, 0, 0, 0, 0, 0, 0, 0, 0, 0, 0, 0, 0,0.0,0.0,0.0,0.0,0.0,0.0,0.0,0.0,0.0,0.0,0.0,0.0,0.0,12,framework\base\src\org\ofbiz\base\location\LocationResolver.java,0,0,0,0
org.ofbiz.base.location.StandardUrlLocationResolver, 0, 0, 0, 0, 0, 0, 0, 0, 0, 0, 0, 0, 0, 0,0.0,0.0,0.0,0.0,0.0,0.0,0.0,0.0,0.0,0.0,0.0,0.0,0.0,5,framework\base\src\org\ofbiz\base\location\StandardUrlLocationResolver.java,0,0,0,0
org.ofbiz.base.metrics.Metrics, 0, 0, 0, 0, 0, 0, 0, 0, 0, 0, 0, 0, 0, 0,0.0,0.0,0.0,0.0,0.0,0.0,0.0,0.0,0.0,0.0,0.0,0.0,0.0,5,framework\base\src\org\ofbiz\base\metrics\Metrics.java,0,0,0,0
org.ofbiz.base.splash.SplashLoader, 0, 0, 0, 0, 0, 0, 0, 0, 0, 0, 0, 0, 0, 0,0.0,0.0,0.0,0.0,0.0,0.0,0.0,0.0,0.0,0.0,0.0,0.0,0.0,37,framework\base\src\org\ofbiz\base\splash\SplashLoader.java,0,0,0,0
org.ofbiz.base.splash.SplashScreen, 0, 0, 0, 0, 0, 0, 0, 0, 0, 0, 0, 0, 0, 0,0.0,0.0,0.0,0.0,0.0,0.0,0.0,0.0,0.0,0.0,0.0,0.0,0.0,56,framework\base\src\org\ofbiz\base\splash\SplashScreen.java,0,0,0,0
org.ofbiz.base.start.CommonsDaemonStart, 0, 0, 0, 0, 0, 0, 0, 0, 0, 0, 0, 0, 0, 0,0.0,0.0,0.0,0.0,0.0,0.0,0.0,0.0,0.0,0.0,0.0,0.0,0.0,15,framework\start\src\org\ofbiz\base\start\CommonsDaemonStart.java,0,0,0,0
org.ofbiz.base.start.Instrumenter, 0, 0, 0, 0, 0, 0, 0, 0, 0, 0, 0, 0, 0, 0,0.0,0.0,0.0,0.0,0.0,0.0,0.0,0.0,0.0,0.0,0.0,0.0,0.0,15,framework\start\src\org\ofbiz\base\start\Instrumenter.java,0,0,0,0
org.ofbiz.base.start.InstrumenterWorker, 0, 0, 0, 0, 0, 0, 0, 0, 0, 0, 0, 0, 0, 0,0.0,0.0,0.0,0.0,0.0,0.0,0.0,0.0,0.0,0.0,0.0,0.0,0.0,137,framework\start\src\org\ofbiz\base\start\InstrumenterWorker.java,0,0,0,0
org.ofbiz.base.start.StartupException, 0, 0, 0, 0, 0, 0, 0, 0, 0, 0, 0, 0, 0, 0,0.0,0.0,0.0,0.0,0.0,0.0,0.0,0.0,0.0,0.0,0.0,0.0,0.0,55,framework\start\src\org\ofbiz\base\start\StartupException.java,0,0,0,0
org.ofbiz.base.start.StartupLoader, 0, 0, 0, 0, 0, 0, 0, 0, 0, 0, 0, 0, 0, 0,0.0,0.0,0.0,0.0,0.0,0.0,0.0,0.0,0.0,0.0,0.0,0.0,0.0,55,framework\start\src\org\ofbiz\base\start\StartupLoader.java,0,0,0,0
org.ofbiz.base.test.BaseUnitTests, 0, 0, 0, 0, 0, 0, 0, 0, 0, 0, 0, 0, 0, 0,0.0,0.0,0.0,0.0,0.0,0.0,0.0,0.0,0.0,0.0,0.0,0.0,0.0,52,framework\base\src\org\ofbiz\base\test\BaseUnitTests.java,0,0,0,0
org.ofbiz.base.util.AliasKeyManager, 0, 0, 0, 0, 0, 0, 0, 0, 0, 0, 0, 0, 0, 0,0.0,0.0,0.0,0.0,0.0,0.0,0.0,0.0,0.0,0.0,0.0,0.0,0.0,46,framework\base\src\org\ofbiz\base\util\AliasKeyManager.java,0,0,0,0
org.ofbiz.base.util.Base64, 0, 0, 0, 0, 0, 0, 0, 0, 0, 0, 0, 0, 0, 0,0.0,0.0,0.0,0.0,0.0,0.0,0.0,0.0,0.0,0.0,0.0,0.0,0.0,137,framework\base\src\org\ofbiz\base\util\Base64.java,0,0,0,0
org.ofbiz.base.util.CompilerMatcher, 0, 0, 0, 0, 0, 0, 0, 0, 0, 0, 0, 0, 0, 0,0.0,0.0,0.0,0.0,0.0,0.0,0.0,0.0,0.0,0.0,0.0,0.0,0.0,43,framework\base\src\org\ofbiz\base\util\CompilerMatcher.java,0,0,0,0
org.ofbiz.base.util.DateRange, 0, 0, 0, 0, 0, 0, 0, 0, 0, 0, 0, 0, 0, 0,0.0,0.0,0.0,0.5,0.0,0.0,0.0,0.0,0.0,0.0,0.0,0.0,0.0,51,framework\base\src\org\ofbiz\base\util\DateRange.java,0,0,0,0
org.ofbiz.base.util.GeneralException, 0, 0, 0, 0, 0, 0, 0, 0, 0, 0, 0, 0, 0, 0,0.025,0.0,0.0,0.05,0.0,0.0,0.0,0.2,0.0,0.0,0.0,0.0,0.0,78,framework\base\src\org\ofbiz\base\util\GeneralException.java,0,0,0,0
org.ofbiz.base.util.GeneralRuntimeException, 0, 0, 0, 0, 0, 0, 0, 0, 0, 0, 0, 0, 0, 0,0.0,0.0,0.0,0.0,0.0,0.0,0.0,0.0,0.0,0.0,0.0,0.0,0.0,45,framework\base\src\org\ofbiz\base\util\GeneralRuntimeException.java,0,0,0,0
org.ofbiz.base.util.HttpClientException, 0, 0, 0, 0, 0, 0, 0, 0, 0, 0, 0, 0, 0, 0,0.0,0.0,0.0,0.0,0.0,0.0,0.0,0.5,0.0,0.0,0.0,0.0,0.0,12,framework\base\src\org\ofbiz\base\util\HttpClientException.java,0,0,0,0
org.ofbiz.base.util.MultiTrustManager, 0, 0, 0, 0, 0, 0, 0, 0, 0, 0, 0, 0, 0, 0,0.0,0.0,0.0,0.0,0.0,0.0,0.0,0.0,0.0,0.0,0.0,0.0,0.0,85,framework\base\src\org\ofbiz\base\util\MultiTrustManager.java,0,0,0,0
org.ofbiz.base.util.ObjectInputStream, 0, 0, 0, 0, 0, 0, 0, 0, 0, 0, 0, 0, 0, 0,0.0,0.0,0.0,0.0,0.0,0.0,0.0,0.0,0.0,0.0,0.0,0.0,0.0,22,framework\base\src\org\ofbiz\base\util\ObjectInputStream.java,0,0,0,0
org.ofbiz.base.util.Observable, 0, 0, 0, 0, 0, 0, 0, 0, 0, 0, 0, 0, 0, 0,0.0,0.0,0.0,0.0,0.0,0.0,0.0,0.0,0.0,0.0,0.0,0.0,0.0,37,framework\base\src\org\ofbiz\base\util\Observable.java,0,0,0,0
org.ofbiz.base.util.Observer, 0, 0, 0, 0, 0, 0, 0, 0, 0, 0, 0, 0, 0, 0,0.0,0.0,0.0,0.0,0.0,0.0,0.0,0.0,0.0,0.0,0.0,0.0,0.0,37,framework\base\src\org\ofbiz\base\util\Observer.java,0,0,0,0
org.ofbiz.base.util.OfbizBshBsfEngine, 0, 0, 0, 0, 0, 0, 0, 1, 0, 0, 0, 0, 0, 1,0.0,0.0,0.0,0.0,0.0,0.0,0.0,0.0,0.0,0.0,0.0,0.0,0.0,126,framework\base\src\org\ofbiz\base\util\OfbizBshBsfEngine.java,0,0,0,0
org.ofbiz.base.util.RMIExtendedSocketFactory, 0, 0, 0, 0, 0, 0, 0, 0, 0, 0, 0, 0, 0, 0,0.0,0.0,0.0,0.0,0.0,0.0,0.0,0.0,0.0,0.0,0.0,0.0,0.0,37,framework\base\src\org\ofbiz\base\util\RMIExtendedSocketFactory.java,0,0,0,0
org.ofbiz.base.util.ReferenceCleaner, 0, 0, 0, 0, 0, 0, 0, 0, 0, 0, 0, 0, 0, 0,0.0,0.0,0.0,0.0,0.0,0.0,0.0,0.0,0.0,0.0,0.0,0.0,0.0,52,framework\base\src\org\ofbiz\base\util\ReferenceCleaner.java,0,0,0,0
org.ofbiz.base.util.ScriptHelperFactory, 0, 0, 0, 0, 0, 0, 0, 0, 0, 0, 0, 0, 0, 0,0.0,0.0,0.0,0.0,0.0,0.0,0.0,0.0,0.0,0.0,0.0,0.0,0.0,52,framework\base\src\org\ofbiz\base\util\ScriptHelperFactory.java,0,0,0,0
org.ofbiz.base.util.TimeDuration, 0, 0, 0, 1, 0, 0, 0, 1, 0, 0, 0, 0, 0, 2,0.0,0.0,0.0,0.0,0.0,0.0,0.0,0.0,0.0,0.0,0.0,0.0,0.0,241,framework\base\src\org\ofbiz\base\util\TimeDuration.java,0,0,0,0
org.ofbiz.base.util.URLConnector, 0, 0, 0, 1, 0, 0, 0, 0, 0, 0, 0, 0, 0, 1,0.0,0.0,0.0,0.0,0.0,0.0,0.0,0.0,0.0,0.0,0.0,0.0,0.0,99,framework\base\src\org\ofbiz\base\util\URLConnector.java,0,0,0,0
org.ofbiz.base.util.UtilJ2eeCompat, 1, 0, 0, 0, 0, 0, 0, 0, 0, 0, 0, 0, 0, 1,0.0,0.0,0.0,0.15384615384615385,0.0,0.0,0.0,0.23076923076923078,0.0,0.0,0.0,0.0,0.0,62,framework\base\src\org\ofbiz\base\util\UtilJ2eeCompat.java,0,0,0,0
org.ofbiz.base.util.UtilObject, 0, 0, 0, 0, 0, 0, 0, 0, 0, 0, 0, 0, 0, 0,0.0,0.0,0.0,0.0,0.0,0.0,0.0,0.0,0.0,0.0,0.0,0.0,0.0,133,framework\base\src\org\ofbiz\base\util\UtilObject.java,0,0,0,0
org.ofbiz.base.util.cache.CacheLine, 0, 0, 0, 0, 0, 0, 0, 0, 0, 0, 0, 0, 0, 0,0.0,0.0,0.0,0.0,0.0,0.0,0.0,0.0,0.0,0.0,0.0,0.0,0.0,17,framework\base\src\org\ofbiz\base\util\cache\CacheLine.java,0,0,0,0
org.ofbiz.base.util.cache.CacheListener, 0, 0, 0, 0, 0, 0, 0, 0, 0, 0, 0, 0, 0, 0,0.0,0.0,0.0,0.0,0.0,0.0,0.0,0.0,0.0,0.0,0.0,0.0,0.0,17,framework\base\src\org\ofbiz\base\util\cache\CacheListener.java,0,0,0,0
org.ofbiz.base.util.cache.CacheSoftReference, 0, 0, 0, 0, 0, 0, 0, 0, 0, 0, 0, 0, 0, 0,0.0,0.0,0.0,0.0,0.0,0.0,0.0,0.0,0.0,0.0,0.0,0.0,0.0,20,framework\base\src\org\ofbiz\base\util\cache\CacheSoftReference.java,0,0,0,0
org.ofbiz.base.util.cache.HardRefCacheLine, 0, 0, 0, 0, 0, 0, 0, 0, 0, 0, 0, 0, 0, 0,0.0,0.0,0.0,0.0,0.0,0.0,0.0,0.0,0.0,0.0,0.0,0.0,0.0,11,framework\base\src\org\ofbiz\base\util\cache\HardRefCacheLine.java,0,0,0,0
org.ofbiz.base.util.cache.JdbmRecordManager, 0, 0, 0, 1, 0, 0, 0, 0, 0, 0, 0, 0, 0, 1,0.0,0.0,0.0,0.0,0.0,0.0,0.0,0.0,0.0,0.0,0.0,0.0,0.0,65,framework\base\src\org\ofbiz\base\util\cache\JdbmRecordManager.java,0,0,0,0
org.ofbiz.base.util.cache.JdbmSerializer, 0, 0, 0, 0, 0, 0, 0, 0, 0, 0, 0, 0, 0, 0,0.0,0.0,0.0,0.5,0.0,0.0,0.0,0.0,0.0,0.0,0.0,0.0,0.0,14,framework\base\src\org\ofbiz\base\util\cache\JdbmSerializer.java,0,0,0,0
org.ofbiz.base.util.cache.SoftRefCacheLine, 0, 0, 0, 0, 0, 0, 0, 0, 0, 0, 0, 0, 0, 0,0.0,0.0,0.0,0.0,0.0,0.0,0.0,0.0,0.0,0.0,0.0,0.0,0.0,19,framework\base\src\org\ofbiz\base\util\cache\SoftRefCacheLine.java,0,0,0,0
org.ofbiz.base.util.collections.GenericMapEntry, 0, 0, 0, 0, 0, 0, 0, 0, 0, 0, 0, 0, 0, 0,0.0,0.0,0.0,0.0,0.0,0.0,0.0,0.0,0.0,0.0,0.0,0.0,0.0,30,framework\base\src\org\ofbiz\base\util\collections\GenericMapEntry.java,0,0,0,0
org.ofbiz.base.util.collections.GenericMapEntrySet, 0, 0, 0, 0, 0, 0, 0, 0, 0, 0, 0, 0, 0, 0,0.0,0.0,0.0,0.0,0.0,0.0,0.0,0.0,0.0,0.0,0.0,0.0,0.0,21,framework\base\src\org\ofbiz\base\util\collections\GenericMapEntrySet.java,0,0,0,0
org.ofbiz.base.util.collections.GenericMapKeySet, 0, 0, 0, 0, 0, 0, 0, 0, 0, 0, 0, 0, 0, 0,0.0,0.0,0.0,0.0,0.0,0.0,0.0,0.0,0.0,0.0,0.0,0.0,0.0,8,framework\base\src\org\ofbiz\base\util\collections\GenericMapKeySet.java,0,0,0,0
org.ofbiz.base.util.collections.GenericMapValues, 0, 0, 0, 0, 0, 0, 0, 0, 0, 0, 0, 0, 0, 0,0.0,0.0,0.0,0.0,0.0,0.0,0.0,0.0,0.0,0.0,0.0,0.0,0.0,46,framework\base\src\org\ofbiz\base\util\collections\GenericMapValues.java,0,0,0,0
org.ofbiz.base.util.collections.LocalizedMap, 0, 0, 0, 0, 0, 0, 0, 0, 0, 0, 0, 0, 0, 0,0.0,0.0,0.0,0.0,0.0,0.0,0.0,0.0,0.0,0.0,0.0,0.0,0.0,46,framework\base\src\org\ofbiz\base\util\collections\LocalizedMap.java,0,0,0,0
org.ofbiz.base.util.collections.ReadOnlyMapEntry, 0, 0, 0, 0, 0, 0, 0, 0, 0, 0, 0, 0, 0, 0,0.0,0.0,0.0,0.0,0.0,0.0,0.0,0.0,0.0,0.0,0.0,0.0,0.0,28,framework\base\src\org\ofbiz\base\util\collections\ReadOnlyMapEntry.java,0,0,0,0
org.ofbiz.base.util.string.JuelConnector, 0, 0, 0, 0, 0, 0, 0, 0, 0, 0, 0, 0, 0, 0,0.0,0.0,0.0,0.0,0.0,0.0,0.0,0.0,0.0,0.0,0.0,0.0,0.0,117,framework\base\src\org\ofbiz\base\util\string\JuelConnector.java,0,0,0,0
org.ofbiz.base.util.string.NodeELResolver, 0, 0, 0, 0, 0, 0, 0, 0, 0, 0, 0, 0, 0, 0,0.0,0.0,0.0,0.0,0.0,0.0,0.0,0.0,0.0,0.0,0.0,0.0,0.0,98,framework\base\src\org\ofbiz\base\util\string\NodeELResolver.java,0,0,0,0
org.ofbiz.base.util.test.IndentingWriterTests, 0, 0, 0, 0, 0, 0, 0, 0, 0, 0, 0, 0, 0, 0,0.0,0.0,0.0,0.0,0.0,0.0,0.0,0.0,0.0,0.0,0.0,0.0,0.0,42,framework\base\src\org\ofbiz\base\util\test\IndentingWriterTests.java,0,0,0,0
org.ofbiz.base.util.test.ReferenceCleanerTests, 0, 0, 0, 0, 0, 0, 0, 0, 0, 0, 0, 0, 0, 0,0.0,0.0,0.0,0.0,0.0,0.0,0.0,0.0,0.0,0.0,0.0,0.0,0.0,46,framework\base\src\org\ofbiz\base\util\test\ReferenceCleanerTests.java,0,0,0,0
org.ofbiz.base.util.test.UtilXmlTests, 0, 0, 0, 0, 0, 0, 0, 0, 0, 0, 0, 0, 0, 0,0.0,0.0,0.0,0.0,0.0,0.0,0.0,0.0,0.0,0.0,0.0,0.0,0.0,23,framework\base\src\org\ofbiz\base\util\test\UtilXmlTests.java,0,0,0,0
org.ofbiz.catalina.container.CrossSubdomainSessionValve, 0, 0, 0, 0, 0, 0, 0, 0, 0, 0, 0, 0, 0, 0,0.0,0.0,0.0,0.0,0.0,0.0,0.0,0.0,0.0,0.0,0.0,0.0,0.0,69,framework\catalina\src\org\ofbiz\catalina\container\CrossSubdomainSessionValve.java,0,0,0,0
org.ofbiz.catalina.container.OfbizStore, 1, 0, 0, 0, 0, 0, 0, 0, 0, 0, 0, 0, 0, 1,0.0,0.0,0.0,0.0,0.0,0.0,0.0,0.0,0.0,0.0,0.0,0.0,0.0,110,framework\catalina\src\org\ofbiz\catalina\container\OfbizStore.java,0,0,0,0
org.ofbiz.catalina.container.SSLImpl, 0, 0, 0, 0, 0, 0, 0, 0, 0, 0, 0, 0, 0, 0,0.0,0.0,0.0,0.0,0.0,0.0,0.0,0.0,0.0,0.0,0.0,0.0,0.0,35,framework\catalina\src\org\ofbiz\catalina\container\SSLImpl.java,0,0,0,0
org.ofbiz.catalina.container.SslAcceleratorValve, 0, 0, 0, 0, 0, 0, 0, 0, 0, 0, 0, 0, 0, 0,0.0,0.0,0.0,0.0,0.0,0.0,0.0,0.0,0.0,0.0,0.0,0.0,0.0,17,framework\catalina\src\org\ofbiz\catalina\container\SslAcceleratorValve.java,0,0,0,0
org.ofbiz.common.CommonWorkers, 0, 0, 0, 0, 0, 0, 0, 1, 0, 0, 0, 0, 0, 1,0.0,0.0,0.0,0.0,0.0,0.0,0.0,0.5,0.0,0.0,0.0,0.0,0.0,94,framework\common\src\org\ofbiz\common\CommonWorkers.java,0,0,0,0
org.ofbiz.common.DataModelConstants, 0, 0, 0, 0, 0, 0, 0, 0, 0, 0, 0, 0, 0, 0,0.0,0.0,0.0,0.0,0.0,0.0,0.0,0.0,0.0,0.0,0.0,0.0,0.0,3,framework\common\src\org\ofbiz\common\DataModelConstants.java,0,0,0,0
org.ofbiz.common.authentication.AuthenticationComparator, 0, 0, 0, 0, 0, 0, 0, 0, 0, 0, 0, 0, 0, 0,0.0,0.0,0.0,0.0,0.0,0.0,0.0,0.0,0.0,0.0,0.0,0.0,0.0,13,framework\common\src\org\ofbiz\common\authentication\AuthenticationComparator.java,0,0,0,0
org.ofbiz.common.authentication.api.Authenticator, 0, 0, 0, 0, 0, 0, 0, 0, 0, 0, 0, 0, 0, 0,0.0,0.0,0.0,0.0,0.0,0.0,0.0,0.0,0.0,0.0,0.0,0.0,0.0,13,framework\common\src\org\ofbiz\common\authentication\api\Authenticator.java,0,0,0,0
org.ofbiz.common.authentication.api.AuthenticatorException, 0, 0, 0, 0, 0, 0, 0, 0, 0, 0, 0, 0, 0, 0,0.0,0.0,0.0,0.0,0.0,0.0,0.0,0.0,0.0,0.0,0.0,0.0,0.0,27,framework\common\src\org\ofbiz\common\authentication\api\AuthenticatorException.java,0,0,0,0
org.ofbiz.common.authentication.example.TestFailAuthenticator, 0, 0, 0, 0, 0, 0, 0, 0, 0, 0, 0, 0, 0, 0,0.0,0.0,0.0,0.0,0.0,0.0,0.0,0.0,0.0,0.0,0.0,0.0,0.0,38,framework\common\src\org\ofbiz\common\authentication\example\TestFailAuthenticator.java,0,0,0,0
org.ofbiz.common.authentication.example.TestPassAuthenticator, 0, 0, 0, 0, 0, 0, 0, 0, 0, 0, 0, 0, 0, 0,0.0,0.0,0.0,0.0,0.0,0.0,0.0,0.0,0.0,0.0,0.0,0.0,0.0,12,framework\common\src\org\ofbiz\common\authentication\example\TestPassAuthenticator.java,0,0,0,0
org.ofbiz.common.period.PeriodWorker, 1, 0, 1, 0, 0, 0, 0, 0, 0, 0, 0, 0, 0, 2,0.0,0.0,0.0,0.0,0.0,0.0,0.0,0.0,0.0,0.0,0.0,0.0,0.0,18,framework\common\src\org\ofbiz\common\period\PeriodWorker.java,0,0,0,0
org.ofbiz.common.scripting.ScriptHelperFactoryImpl, 0, 0, 0, 0, 0, 0, 0, 0, 0, 0, 0, 0, 0, 0,0.0,0.0,0.0,0.0,0.0,0.0,0.0,0.0,0.0,0.0,0.0,0.0,0.0,6,framework\common\src\org\ofbiz\common\scripting\ScriptHelperFactoryImpl.java,0,0,0,0
org.ofbiz.common.status.StatusWorker, 0, 0, 0, 0, 0, 0, 0, 0, 0, 0, 0, 0, 0, 0,0.0,0.0,0.0,0.0,0.0,0.0,0.0,0.0,0.0,0.0,0.0,0.0,0.0,44,framework\common\src\org\ofbiz\common\status\StatusWorker.java,0,0,0,0
org.ofbiz.content.cms.CmsEvents, 0, 0, 0, 0, 0, 0, 0, 0, 0, 0, 0, 0, 0, 0,0.2,0.0,0.0,0.0,0.0,0.0,0.0,0.0,0.0,0.0,0.0,0.0,0.0,302,applications\content\src\org\ofbiz\content\cms\CmsEvents.java,0,0,0,0
org.ofbiz.content.content.ContentWrapper, 0, 0, 0, 0, 0, 0, 0, 0, 0, 0, 0, 0, 0, 0,0.0,0.0,0.0,0.0,0.0,0.0,0.0,0.0,0.0,0.0,0.0,0.0,0.0,302,applications\content\src\org\ofbiz\content\content\ContentWrapper.java,0,0,0,0
org.ofbiz.content.openoffice.OpenOfficeByteArrayInputStream, 0, 0, 0, 0, 0, 0, 0, 0, 0, 0, 0, 0, 0, 0,0.0,0.0,0.0,0.0,0.0,0.0,0.0,0.0,0.0,0.0,0.0,0.0,0.0,52,applications\content\src\org\ofbiz\content\openoffice\OpenOfficeByteArrayInputStream.java,0,0,0,0
org.ofbiz.content.openoffice.OpenOfficeByteArrayOutputStream, 0, 0, 0, 0, 0, 0, 0, 0, 0, 0, 0, 0, 0, 0,0.0,0.0,0.0,0.0,0.0,0.0,0.0,0.0,0.0,0.0,0.0,0.0,0.0,33,applications\content\src\org\ofbiz\content\openoffice\OpenOfficeByteArrayOutputStream.java,0,0,0,0
org.ofbiz.content.openoffice.OpenOfficeWorker, 0, 0, 0, 0, 0, 0, 0, 0, 0, 0, 0, 0, 0, 0,0.0,0.0,0.0,0.0,0.0,0.0,0.0,0.0,0.0,0.0,0.0,0.0,0.0,169,applications\content\src\org\ofbiz\content\openoffice\OpenOfficeWorker.java,0,0,0,0
org.ofbiz.content.report.JREntityListIteratorDataSource, 0, 0, 0, 0, 0, 0, 0, 0, 0, 0, 0, 0, 0, 0,0.0,0.0,0.0,0.0,0.0,0.0,0.0,0.0,0.0,0.0,0.0,0.0,0.0,46,applications\content\src\org\ofbiz\content\report\JREntityListIteratorDataSource.java,0,0,0,0
org.ofbiz.content.view.SimpleContentViewHandler, 0, 0, 0, 0, 0, 0, 0, 1, 0, 0, 0, 0, 0, 1,0.0,0.0,0.0,0.0,0.0,0.0,0.0,0.0,0.0,0.0,0.0,0.0,0.0,93,applications\content\src\org\ofbiz\content\view\SimpleContentViewHandler.java,0,38,0,38
org.ofbiz.datafile.DataFile, 0, 0, 0, 1, 0, 0, 0, 0, 0, 0, 0, 0, 0, 1,0.0,0.0,0.3333333333333333,0.3333333333333333,0.0,0.0,0.0,0.0,0.0,0.0,0.0,0.0,0.0,119,framework\datafile\src\org\ofbiz\datafile\DataFile.java,0,0,0,0
org.ofbiz.datafile.DataFile2EntityXml, 0, 0, 0, 0, 0, 0, 0, 0, 0, 0, 0, 0, 0, 0,0.0,0.0,0.0,0.5,0.0,0.0,0.0,0.0,0.0,0.0,0.0,0.0,0.0,82,framework\datafile\src\org\ofbiz\datafile\DataFile2EntityXml.java,0,0,0,0
org.ofbiz.datafile.DataFileException, 0, 0, 0, 0, 0, 0, 0, 0, 0, 0, 0, 0, 0, 0,0.0,0.0,0.0,0.3333333333333333,0.0,0.0,0.0,0.0,0.0,0.0,0.0,0.0,0.0,11,framework\datafile\src\org\ofbiz\datafile\DataFileException.java,0,0,0,0
org.ofbiz.datafile.ModelDataFile, 0, 0, 1, 1, 0, 0, 0, 0, 0, 0, 0, 0, 0, 2,0.0,0.0,0.5,1.0,0.0,0.0,0.0,0.0,0.0,0.0,0.0,0.0,0.0,77,framework\datafile\src\org\ofbiz\datafile\ModelDataFile.java,0,0,0,0
org.ofbiz.datafile.ModelField, 0, 0, 1, 0, 0, 0, 0, 0, 0, 0, 0, 0, 0, 1,0.0,0.0,1.0,1.0,0.0,0.0,0.0,0.0,0.0,0.0,0.0,0.0,0.0,20,framework\datafile\src\org\ofbiz\datafile\ModelField.java,0,0,0,0
org.ofbiz.datafile.ModelRecord, 0, 0, 1, 1, 0, 0, 0, 0, 0, 0, 0, 0, 0, 2,0.0,0.0,1.0,0.5,0.0,0.0,0.0,0.0,0.0,0.0,0.0,0.0,0.0,51,framework\datafile\src\org\ofbiz\datafile\ModelRecord.java,0,0,0,0
org.ofbiz.entity.DelegatorFactoryImpl, 0, 0, 0, 0, 0, 0, 0, 0, 0, 0, 0, 0, 0, 0,0.0,0.0,0.0,0.0,0.0,0.0,0.0,0.0,0.0,0.0,0.0,0.0,0.0,12,framework\entity\src\org\ofbiz\entity\DelegatorFactoryImpl.java,0,0,0,0
org.ofbiz.entity.EntityCryptoException, 0, 0, 0, 0, 0, 0, 0, 0, 0, 0, 0, 0, 0, 0,0.0,0.0,0.0,0.0,0.0,0.0,0.0,0.0,0.0,0.0,0.0,0.0,0.0,14,framework\entity\src\org\ofbiz\entity\EntityCryptoException.java,0,0,0,0
org.ofbiz.entity.EntityLockedException, 0, 0, 0, 0, 0, 0, 0, 0, 0, 0, 0, 0, 0, 0,0.0,0.0,0.0,0.0,0.0,0.0,0.0,0.0,0.0,0.0,0.0,0.0,0.0,11,framework\entity\src\org\ofbiz\entity\EntityLockedException.java,0,0,0,0
org.ofbiz.entity.GenericCreateException, 0, 0, 0, 0, 0, 0, 0, 0, 0, 0, 0, 0, 0, 0,0.0,0.0,0.0,0.0,0.0,0.0,0.0,0.0,0.0,0.0,0.0,0.0,0.0,11,framework\entity\src\org\ofbiz\entity\GenericCreateException.java,0,0,0,0
org.ofbiz.entity.GenericDataSourceException, 0, 0, 0, 0, 0, 0, 0, 0, 0, 0, 0, 0, 0, 0,0.5,0.0,0.5,0.5,0.0,0.0,0.0,0.5,0.0,0.0,0.0,0.0,0.0,11,framework\entity\src\org\ofbiz\entity\GenericDataSourceException.java,0,0,0,0
org.ofbiz.entity.GenericDuplicateKeyException, 0, 0, 0, 0, 0, 0, 0, 0, 0, 0, 0, 0, 0, 0,0.0,0.0,0.0,0.0,0.0,0.0,0.0,0.0,0.0,0.0,0.0,0.0,0.0,11,framework\entity\src\org\ofbiz\entity\GenericDuplicateKeyException.java,0,0,0,0
org.ofbiz.entity.GenericEntityConfException, 0, 0, 0, 0, 0, 0, 0, 0, 0, 0, 0, 0, 0, 0,0.0,0.0,0.0,0.1,0.0,0.0,0.0,0.0,0.0,0.0,0.0,0.0,0.0,11,framework\entity\src\org\ofbiz\entity\GenericEntityConfException.java,0,0,0,0
org.ofbiz.entity.GenericEntityException, 0, 0, 0, 0, 0, 0, 0, 0, 0, 0, 0, 0, 0, 0,0.09523809523809523,0.0,0.047619047619047616,0.09523809523809523,0.0,0.0,0.0,0.16666666666666666,0.0,0.0,0.0,0.0,0.0,14,framework\entity\src\org\ofbiz\entity\GenericEntityException.java,0,0,0,0
org.ofbiz.entity.GenericEntityNotFoundException, 0, 0, 0, 0, 0, 0, 0, 0, 0, 0, 0, 0, 0, 0,0.0,0.0,0.0,0.0,0.0,0.0,0.0,0.0,0.0,0.0,0.0,0.0,0.0,11,framework\entity\src\org\ofbiz\entity\GenericEntityNotFoundException.java,0,0,0,0
org.ofbiz.entity.GenericFindException, 0, 0, 0, 0, 0, 0, 0, 0, 0, 0, 0, 0, 0, 0,0.0,0.0,0.0,0.0,0.0,0.0,0.0,0.0,0.0,0.0,0.0,0.0,0.0,11,framework\entity\src\org\ofbiz\entity\GenericFindException.java,0,0,0,0
org.ofbiz.entity.GenericModelException, 0, 0, 0, 0, 0, 0, 0, 0, 0, 0, 0, 0, 0, 0,0.0,0.0,0.0,0.0,0.0,0.0,0.0,0.0,0.0,0.0,0.0,0.0,0.0,11,framework\entity\src\org\ofbiz\entity\GenericModelException.java,0,0,0,0
org.ofbiz.entity.GenericNoSuchEntityException, 0, 0, 0, 0, 0, 0, 0, 0, 0, 0, 0, 0, 0, 0,0.0,0.0,0.0,0.0,0.0,0.0,0.0,0.0,0.0,0.0,0.0,0.0,0.0,11,framework\entity\src\org\ofbiz\entity\GenericNoSuchEntityException.java,0,0,0,0
org.ofbiz.entity.GenericNotImplementedException, 0, 0, 0, 0, 0, 0, 0, 0, 0, 0, 0, 0, 0, 0,0.0,0.0,0.0,0.0,0.0,0.0,0.0,0.0,0.0,0.0,0.0,0.0,0.0,11,framework\entity\src\org\ofbiz\entity\GenericNotImplementedException.java,0,0,0,0
org.ofbiz.entity.GenericRemoveException, 0, 0, 0, 0, 0, 0, 0, 0, 0, 0, 0, 0, 0, 0,0.0,0.0,0.0,0.0,0.0,0.0,0.0,0.0,0.0,0.0,0.0,0.0,0.0,11,framework\entity\src\org\ofbiz\entity\GenericRemoveException.java,0,0,0,0
org.ofbiz.entity.GenericResultSetClosedException, 0, 0, 0, 0, 0, 0, 0, 0, 0, 0, 0, 0, 0, 0,0.0,0.0,0.0,0.0,0.0,0.0,0.0,0.0,0.0,0.0,0.0,0.0,0.0,11,framework\entity\src\org\ofbiz\entity\GenericResultSetClosedException.java,0,0,0,0
org.ofbiz.entity.GenericStoreException, 0, 0, 0, 0, 0, 0, 0, 0, 0, 0, 0, 0, 0, 0,0.0,0.0,0.0,0.0,0.0,0.0,0.0,0.0,0.0,0.0,0.0,0.0,0.0,11,framework\entity\src\org\ofbiz\entity\GenericStoreException.java,0,0,0,0
org.ofbiz.entity.GenericValueHtmlWrapper, 0, 0, 0, 0, 0, 0, 0, 0, 0, 0, 0, 0, 0, 0,0.0,0.0,0.0,0.0,0.0,0.0,0.0,0.0,0.0,0.0,0.0,0.0,0.0,45,framework\entity\src\org\ofbiz\entity\GenericValueHtmlWrapper.java,0,0,0,0
org.ofbiz.entity.cache.AbstractCache, 0, 0, 0, 0, 0, 0, 0, 0, 0, 0, 0, 0, 0, 0,0.0,0.0,0.0,0.5,0.0,0.0,0.0,0.0,0.0,0.0,0.0,0.0,0.0,46,framework\entity\src\org\ofbiz\entity\cache\AbstractCache.java,0,0,0,0
org.ofbiz.entity.cache.Cache, 0, 0, 0, 1, 0, 0, 0, 0, 0, 0, 0, 0, 0, 1,0.0,0.0,0.0,0.0,0.0,0.0,0.0,0.0,0.0,0.0,0.0,0.0,0.0,80,framework\entity\src\org\ofbiz\entity\cache\Cache.java,0,0,0,0
org.ofbiz.entity.cache.EntityCache, 0, 0, 0, 0, 0, 0, 0, 0, 0, 0, 0, 0, 0, 0,0.0,0.0,0.0,0.5,0.0,0.0,0.0,0.0,0.0,0.0,0.0,0.0,0.0,56,framework\entity\src\org\ofbiz\entity\cache\EntityCache.java,0,0,0,0
org.ofbiz.entity.cache.EntityObjectCache, 0, 0, 0, 0, 0, 0, 0, 0, 0, 0, 0, 0, 0, 0,0.0,0.0,0.0,1.0,0.0,0.0,0.0,0.0,0.0,0.0,0.0,0.0,0.0,18,framework\entity\src\org\ofbiz\entity\cache\EntityObjectCache.java,0,0,0,0
org.ofbiz.entity.condition.EntityConditionList, 0, 0, 0, 0, 0, 0, 0, 0, 0, 0, 0, 0, 0, 0,0.0,0.0,0.0,0.0,0.0,0.0,0.0,0.0,0.0,0.0,0.0,0.0,0.0,14,framework\entity\src\org\ofbiz\entity\condition\EntityConditionList.java,0,0,0,0
org.ofbiz.entity.condition.EntityConditionParam, 0, 0, 0, 0, 0, 0, 0, 0, 0, 0, 0, 0, 0, 0,0.0,0.0,0.0,1.0,0.0,0.0,0.0,1.0,0.0,0.0,0.0,0.0,0.0,22,framework\entity\src\org\ofbiz\entity\condition\EntityConditionParam.java,0,0,0,0
org.ofbiz.entity.condition.EntityConditionVisitor, 0, 0, 0, 0, 0, 0, 0, 0, 0, 0, 0, 0, 0, 0,0.0,0.0,0.0,0.0,0.0,0.0,0.0,0.0,0.0,0.0,0.0,0.0,0.0,22,framework\entity\src\org\ofbiz\entity\condition\EntityConditionVisitor.java,0,0,0,0
org.ofbiz.entity.config.model.ConnectionFactory, 0, 0, 0, 0, 0, 0, 0, 0, 0, 0, 0, 0, 0, 0,0.0,0.0,0.0,0.0,0.0,0.0,0.0,0.0,0.0,0.0,0.0,0.0,0.0,14,framework\entity\src\org\ofbiz\entity\config\model\ConnectionFactory.java,0,0,0,0
org.ofbiz.entity.config.model.Datasource, 0, 0, 0, 1, 0, 0, 0, 0, 0, 0, 0, 0, 0, 1,0.1,0.0,0.1,0.2,0.0,0.0,0.0,0.1,0.0,0.0,0.0,0.0,0.0,296,framework\entity\src\org\ofbiz\entity\config\model\Datasource.java,0,0,0,0
org.ofbiz.entity.config.model.DebugXaResources, 0, 0, 0, 0, 0, 0, 0, 0, 0, 0, 0, 0, 0, 0,0.0,0.0,0.0,0.0,0.0,0.0,0.0,0.0,0.0,0.0,0.0,0.0,0.0,14,framework\entity\src\org\ofbiz\entity\config\model\DebugXaResources.java,0,0,0,0
org.ofbiz.entity.config.model.EntityDataReader, 0, 0, 0, 0, 0, 0, 0, 0, 0, 0, 0, 0, 0, 0,0.0,0.0,0.0,0.0,0.0,0.0,0.0,0.0,0.0,0.0,0.0,0.0,0.0,35,framework\entity\src\org\ofbiz\entity\config\model\EntityDataReader.java,0,0,0,0
org.ofbiz.entity.config.model.EntityEcaReader, 0, 0, 0, 0, 0, 0, 0, 0, 0, 0, 0, 0, 0, 0,0.0,0.0,0.0,0.0,0.0,0.0,0.0,0.0,0.0,0.0,0.0,0.0,0.0,28,framework\entity\src\org\ofbiz\entity\config\model\EntityEcaReader.java,0,0,0,0
org.ofbiz.entity.config.model.EntityGroupReader, 0, 0, 0, 0, 0, 0, 0, 0, 0, 0, 0, 0, 0, 0,0.0,0.0,0.0,0.0,0.0,0.0,0.0,0.0,0.0,0.0,0.0,0.0,0.0,38,framework\entity\src\org\ofbiz\entity\config\model\EntityGroupReader.java,0,0,0,0
org.ofbiz.entity.config.model.EntityModelReader, 0, 0, 0, 0, 0, 0, 0, 0, 0, 0, 0, 0, 0, 0,0.0,0.0,0.0,0.0,0.0,0.0,0.0,0.0,0.0,0.0,0.0,0.0,0.0,28,framework\entity\src\org\ofbiz\entity\config\model\EntityModelReader.java,0,0,0,0
org.ofbiz.entity.config.model.FieldType, 0, 0, 0, 0, 0, 0, 0, 0, 0, 0, 0, 0, 0, 0,0.0,0.0,0.0,0.0,0.0,0.0,0.0,0.0,0.0,0.0,0.0,0.0,0.0,32,framework\entity\src\org\ofbiz\entity\config\model\FieldType.java,0,0,0,0
org.ofbiz.entity.config.model.GroupMap, 0, 0, 0, 0, 0, 0, 0, 0, 0, 0, 0, 0, 0, 0,0.0,0.0,0.0,0.0,0.0,0.0,0.0,0.0,0.0,0.0,0.0,0.0,0.0,23,framework\entity\src\org\ofbiz\entity\config\model\GroupMap.java,0,0,0,0
org.ofbiz.entity.config.model.InlineJdbc, 0, 0, 0, 1, 0, 0, 0, 0, 0, 0, 0, 0, 0, 1,0.0,0.0,0.0,0.3333333333333333,0.0,0.0,0.0,0.0,0.0,0.0,0.0,0.0,0.0,165,framework\entity\src\org\ofbiz\entity\config\model\InlineJdbc.java,0,0,0,0
org.ofbiz.entity.config.model.JdbcElement, 0, 0, 0, 0, 0, 0, 0, 0, 0, 0, 0, 0, 0, 0,0.0,0.0,0.0,0.25,0.0,0.0,0.0,0.25,0.0,0.0,0.0,0.0,0.0,9,framework\entity\src\org\ofbiz\entity\config\model\JdbcElement.java,0,0,0,0
org.ofbiz.entity.config.model.JndiJdbc, 0, 0, 0, 0, 0, 0, 0, 0, 0, 0, 0, 0, 0, 0,0.0,0.0,0.0,0.3333333333333333,0.0,0.0,0.0,0.0,0.0,0.0,0.0,0.0,0.0,24,framework\entity\src\org\ofbiz\entity\config\model\JndiJdbc.java,0,0,0,0
org.ofbiz.entity.config.model.ReadData, 0, 0, 0, 0, 0, 0, 0, 0, 0, 0, 0, 0, 0, 0,0.0,0.0,0.0,0.5,0.0,0.0,0.0,0.0,0.0,0.0,0.0,0.0,0.0,14,framework\entity\src\org\ofbiz\entity\config\model\ReadData.java,0,0,0,0
org.ofbiz.entity.config.model.Resource, 0, 0, 0, 0, 0, 0, 0, 0, 0, 0, 0, 0, 0, 0,0.0,0.0,0.0,0.0,0.0,0.0,0.0,0.0,0.0,0.0,0.0,0.0,0.0,23,framework\entity\src\org\ofbiz\entity\config\model\Resource.java,0,0,0,0
org.ofbiz.entity.config.model.ResourceLoader, 0, 0, 0, 0, 0, 0, 0, 0, 0, 0, 0, 0, 0, 0,0.0,0.0,0.0,0.0,0.0,0.0,0.0,0.0,0.0,0.0,0.0,0.0,0.0,33,framework\entity\src\org\ofbiz\entity\config\model\ResourceLoader.java,0,0,0,0
org.ofbiz.entity.config.model.SqlLoadPath, 0, 0, 0, 0, 0, 0, 0, 0, 0, 0, 0, 0, 0, 0,0.0,0.0,0.0,0.5,0.0,0.0,0.0,0.0,0.0,0.0,0.0,0.0,0.0,19,framework\entity\src\org\ofbiz\entity\config\model\SqlLoadPath.java,0,0,0,0
org.ofbiz.entity.config.model.TransactionFactory, 0, 0, 0, 0, 0, 0, 0, 0, 0, 0, 0, 0, 0, 0,0.0,0.0,0.0,0.0,0.0,0.0,0.0,0.0,0.0,0.0,0.0,0.0,0.0,34,framework\entity\src\org\ofbiz\entity\config\model\TransactionFactory.java,0,0,0,0
org.ofbiz.entity.config.model.TransactionManagerJndi, 0, 0, 0, 0, 0, 0, 0, 0, 0, 0, 0, 0, 0, 0,0.0,0.0,0.0,0.0,0.0,0.0,0.0,0.0,0.0,0.0,0.0,0.0,0.0,23,framework\entity\src\org\ofbiz\entity\config\model\TransactionManagerJndi.java,0,0,0,0
org.ofbiz.entity.config.model.TyrexDataSource, 0, 0, 0, 0, 0, 0, 0, 0, 0, 0, 0, 0, 0, 0,0.0,0.0,0.0,0.3333333333333333,0.0,0.0,0.0,0.0,0.0,0.0,0.0,0.0,0.0,15,framework\entity\src\org\ofbiz\entity\config\model\TyrexDataSource.java,0,0,0,0
org.ofbiz.entity.config.model.UserTransactionJndi, 0, 0, 0, 0, 0, 0, 0, 0, 0, 0, 0, 0, 0, 0,0.0,0.0,0.0,0.0,0.0,0.0,0.0,0.0,0.0,0.0,0.0,0.0,0.0,23,framework\entity\src\org\ofbiz\entity\config\model\UserTransactionJndi.java,0,0,0,0
org.ofbiz.entity.connection.ConnectionFactoryInterface, 0, 0, 0, 0, 0, 0, 0, 0, 0, 0, 0, 0, 0, 0,0.0,0.0,0.0,0.0,0.0,0.0,0.0,0.0,0.0,0.0,0.0,0.0,0.0,23,framework\entity\src\org\ofbiz\entity\connection\ConnectionFactoryInterface.java,0,0,0,0
org.ofbiz.entity.datasource.GenericHelperInfo, 0, 0, 0, 0, 0, 0, 0, 0, 0, 0, 0, 0, 0, 0,0.2,0.0,0.2,0.2,0.0,0.0,0.0,0.4,0.0,0.0,0.0,0.0,0.0,49,framework\entity\src\org\ofbiz\entity\datasource\GenericHelperInfo.java,0,0,0,0
org.ofbiz.entity.jdbc.AbstractCursorHandler, 0, 0, 0, 0, 0, 0, 0, 0, 0, 0, 0, 0, 0, 0,0.0,0.0,0.0,0.0,0.0,0.0,0.0,0.0,0.0,0.0,0.0,0.0,0.0,34,framework\entity\src\org\ofbiz\entity\jdbc\AbstractCursorHandler.java,0,0,0,0
org.ofbiz.entity.jdbc.ConnectionFactory, 0, 0, 0, 0, 0, 0, 0, 1, 0, 0, 0, 0, 0, 1,0.14285714285714285,0.0,0.14285714285714285,0.14285714285714285,0.0,0.0,0.0,0.2857142857142857,0.0,0.0,0.0,0.0,0.0,90,framework\entity\src\org\ofbiz\entity\jdbc\ConnectionFactory.java,0,0,0,0
org.ofbiz.entity.jdbc.CursorConnection, 0, 0, 0, 0, 0, 0, 0, 0, 0, 0, 0, 0, 0, 0,0.0,0.0,0.0,0.0,0.0,0.0,0.0,0.0,0.0,0.0,0.0,0.0,0.0,23,framework\entity\src\org\ofbiz\entity\jdbc\CursorConnection.java,0,0,0,0
org.ofbiz.entity.jdbc.CursorResultSet, 0, 0, 0, 0, 0, 0, 0, 0, 0, 0, 0, 0, 0, 0,0.0,0.0,0.0,0.0,0.0,0.0,0.0,0.0,0.0,0.0,0.0,0.0,0.0,34,framework\entity\src\org\ofbiz\entity\jdbc\CursorResultSet.java,0,0,0,0
org.ofbiz.entity.jdbc.CursorStatement, 0, 0, 0, 0, 0, 0, 0, 0, 0, 0, 0, 0, 0, 0,0.0,0.0,0.0,0.0,0.0,0.0,0.0,0.0,0.0,0.0,0.0,0.0,0.0,61,framework\entity\src\org\ofbiz\entity\jdbc\CursorStatement.java,0,0,0,0
org.ofbiz.entity.jdbc.ExecQueryCallbackFunctionIF, 0, 0, 0, 0, 0, 0, 0, 0, 0, 0, 0, 0, 0, 0,0.0,0.0,0.0,0.0,0.0,0.0,0.0,0.0,0.0,0.0,0.0,0.0,0.0,61,framework\entity\src\org\ofbiz\entity\jdbc\ExecQueryCallbackFunctionIF.java,0,0,0,0
org.ofbiz.entity.jdbc.SQLProcessor, 1, 0, 1, 1, 0, 0, 0, 1, 0, 0, 0, 0, 0, 4,0.0,0.0,0.0,0.16666666666666666,0.0,0.0,0.0,0.16666666666666666,0.0,0.0,0.0,0.0,0.0,463,framework\entity\src\org\ofbiz\entity\jdbc\SQLProcessor.java,0,0,0,0
org.ofbiz.entity.model.ModelChild, 0, 0, 0, 0, 0, 0, 0, 0, 0, 0, 0, 0, 0, 0,0.0,0.0,0.0,0.5,0.0,0.0,0.0,1.0,0.0,0.0,0.0,0.0,0.0,18,framework\entity\src\org\ofbiz\entity\model\ModelChild.java,0,0,0,0
org.ofbiz.entity.model.ModelField, 0, 0, 0, 1, 0, 0, 0, 1, 0, 0, 0, 0, 0, 2,0.0,0.0,0.0,0.0,0.0,0.0,0.0,0.0,0.0,0.0,0.0,0.0,0.0,163,framework\entity\src\org\ofbiz\entity\model\ModelField.java,0,0,0,0
org.ofbiz.entity.model.ModelFieldType, 0, 0, 0, 0, 0, 0, 0, 0, 0, 0, 0, 0, 0, 0,0.0,0.0,0.0,0.0,0.0,0.0,0.0,0.0,0.0,0.0,0.0,0.0,0.0,52,framework\entity\src\org\ofbiz\entity\model\ModelFieldType.java,0,0,0,0
org.ofbiz.entity.model.ModelIndex, 0, 0, 0, 0, 0, 0, 0, 1, 0, 0, 0, 0, 0, 1,0.0,0.0,0.0,0.0,0.0,0.0,0.0,0.0,0.0,0.0,0.0,0.0,0.0,90,framework\entity\src\org\ofbiz\entity\model\ModelIndex.java,0,0,0,0
org.ofbiz.entity.model.ModelInfo, 0, 0, 0, 0, 0, 0, 0, 1, 0, 0, 0, 0, 0, 1,0.0,0.0,0.0,0.0,0.0,0.0,0.0,0.0,0.0,0.0,0.0,0.0,0.0,93,framework\entity\src\org\ofbiz\entity\model\ModelInfo.java,0,0,0,0
org.ofbiz.entity.model.ModelKeyMap, 0, 0, 0, 0, 0, 0, 0, 1, 0, 0, 0, 0, 0, 1,0.0,0.0,0.0,0.0,0.0,0.0,0.0,1.0,0.0,0.0,0.0,0.0,0.0,64,framework\entity\src\org\ofbiz\entity\model\ModelKeyMap.java,0,0,0,0
org.ofbiz.entity.serialize.SerializeException, 0, 0, 0, 0, 0, 0, 0, 0, 0, 0, 0, 0, 0, 0,0.0,0.0,0.0,0.0,0.0,0.0,0.0,0.0,0.0,0.0,0.0,0.0,0.0,11,framework\entity\src\org\ofbiz\entity\serialize\SerializeException.java,0,0,0,0
org.ofbiz.entity.serialize.XmlSerializable, 0, 0, 0, 0, 0, 0, 0, 0, 0, 0, 0, 0, 0, 0,0.0,0.0,0.0,0.0,0.0,0.0,0.0,0.0,0.0,0.0,0.0,0.0,0.0,11,framework\entity\src\org\ofbiz\entity\serialize\XmlSerializable.java,0,0,0,0
org.ofbiz.entity.sql.EntityDeletePlan, 0, 0, 0, 0, 0, 0, 0, 0, 0, 0, 0, 0, 0, 0,0.0,0.0,0.0,0.0,0.0,0.0,0.0,0.5,0.0,0.0,0.0,0.0,0.0,5,framework\entity\src\org\ofbiz\entity\sql\EntityDeletePlan.java,0,0,0,0
org.ofbiz.entity.sql.EntityInsertPlan, 0, 0, 0, 0, 0, 0, 0, 0, 0, 0, 0, 0, 0, 0,0.0,0.0,0.0,0.0,0.0,0.0,0.0,0.5,0.0,0.0,0.0,0.0,0.0,2,framework\entity\src\org\ofbiz\entity\sql\EntityInsertPlan.java,0,0,0,0
org.ofbiz.entity.sql.EntityPlanner, 0, 0, 0, 0, 0, 0, 0, 1, 0, 0, 0, 0, 0, 1,0.0,0.0,0.0,0.0,0.0,0.0,0.0,0.1,0.0,0.0,0.0,0.0,0.0,170,framework\entity\src\org\ofbiz\entity\sql\EntityPlanner.java,0,0,0,0
org.ofbiz.entity.sql.EntityUpdatePlan, 0, 0, 0, 0, 0, 0, 0, 0, 0, 0, 0, 0, 0, 0,0.0,0.0,0.0,0.0,0.0,0.0,0.0,0.5,0.0,0.0,0.0,0.0,0.0,5,framework\entity\src\org\ofbiz\entity\sql\EntityUpdatePlan.java,0,0,0,0
org.ofbiz.entity.sql.EntityViewPlan, 0, 0, 0, 0, 0, 0, 0, 0, 0, 0, 0, 0, 0, 0,0.0,0.0,0.0,0.0,0.0,0.0,0.0,0.5,0.0,0.0,0.0,0.0,0.0,2,framework\entity\src\org\ofbiz\entity\sql\EntityViewPlan.java,0,0,0,0
org.ofbiz.entity.sql.SQLUtil, 0, 0, 0, 0, 0, 0, 0, 0, 0, 0, 0, 0, 0, 0,0.0,0.0,0.0,0.0,0.0,0.0,0.0,1.0,0.0,0.0,0.0,0.0,0.0,12,framework\entity\src\org\ofbiz\entity\sql\SQLUtil.java,0,0,0,0
org.ofbiz.entity.testtools.EntityTestCase, 0, 0, 0, 0, 0, 0, 0, 0, 0, 0, 0, 0, 0, 0,0.0,0.0,0.0,0.0,0.0,0.0,0.0,0.0,0.0,0.0,0.0,0.0,0.0,12,framework\entity\src\org\ofbiz\entity\testtools\EntityTestCase.java,0,0,0,0
org.ofbiz.entity.transaction.DebugXaResource, 0, 0, 1, 0, 0, 0, 0, 0, 0, 0, 0, 0, 0, 1,0.0,0.0,0.0,1.0,0.0,0.0,0.0,0.0,0.0,0.0,0.0,0.0,0.0,29,framework\entity\src\org\ofbiz\entity\transaction\DebugXaResource.java,0,0,0,0
org.ofbiz.entity.transaction.DumbFactory, 0, 0, 0, 0, 0, 0, 0, 0, 0, 0, 0, 0, 0, 0,0.0,0.0,0.0,0.25,0.0,0.0,0.0,0.25,0.0,0.0,0.0,0.0,0.0,59,framework\entity\src\org\ofbiz\entity\transaction\DumbFactory.java,0,0,0,0
org.ofbiz.entity.transaction.GenericTransactionException, 0, 0, 0, 0, 0, 0, 0, 0, 0, 0, 0, 0, 0, 0,0.2,0.0,0.2,0.2,0.0,0.0,0.0,0.2,0.0,0.0,0.0,0.0,0.0,11,framework\entity\src\org\ofbiz\entity\transaction\GenericTransactionException.java,0,0,0,0
org.ofbiz.entity.transaction.GenericXaResource, 0, 0, 0, 1, 0, 0, 0, 0, 0, 0, 0, 0, 0, 1,0.0,0.0,0.5,0.0,0.0,0.0,0.0,0.0,0.0,0.0,0.0,0.0,0.0,128,framework\entity\src\org\ofbiz\entity\transaction\GenericXaResource.java,0,0,0,0
org.ofbiz.entity.transaction.TransactionFactory, 0, 0, 0, 0, 0, 0, 0, 0, 0, 0, 0, 0, 0, 0,0.0,0.0,0.0,0.3333333333333333,0.0,0.0,0.0,0.16666666666666666,0.0,0.0,0.0,0.0,0.0,58,framework\entity\src\org\ofbiz\entity\transaction\TransactionFactory.java,0,0,0,0
org.ofbiz.entity.transaction.TransactionFactoryInterface, 0, 0, 0, 0, 0, 0, 0, 0, 0, 0, 0, 0, 0, 0,0.0,0.0,0.0,0.0,0.0,0.0,0.0,0.0,0.0,0.0,0.0,0.0,0.0,58,framework\entity\src\org\ofbiz\entity\transaction\TransactionFactoryInterface.java,0,0,0,0
org.ofbiz.entity.util.ByteWrapper, 0, 0, 0, 0, 0, 0, 0, 0, 0, 0, 0, 0, 0, 0,0.0,0.0,0.0,0.0,0.0,0.0,0.0,0.0,0.0,0.0,0.0,0.0,0.0,16,framework\entity\src\org\ofbiz\entity\util\ByteWrapper.java,0,0,0,0
org.ofbiz.entity.util.CachedClassLoaderInit, 0, 0, 0, 0, 0, 0, 0, 0, 0, 0, 0, 0, 0, 0,0.0,0.0,0.0,0.0,0.0,0.0,0.0,0.0,0.0,0.0,0.0,0.0,0.0,7,framework\entity\src\org\ofbiz\entity\util\CachedClassLoaderInit.java,0,0,0,0
org.ofbiz.entity.util.Converters, 0, 0, 0, 0, 0, 0, 0, 0, 0, 0, 0, 0, 0, 0,0.0,0.0,0.0,0.0,0.0,0.0,0.0,0.0,0.0,0.0,0.0,0.0,0.0,49,framework\entity\src\org\ofbiz\entity\util\Converters.java,0,0,0,0
org.ofbiz.entity.util.DistributedCacheClear, 0, 0, 0, 0, 0, 0, 0, 0, 0, 0, 0, 0, 0, 0,0.0,0.0,0.0,0.0,0.0,0.0,0.0,0.0,0.0,0.0,0.0,0.0,0.0,49,framework\entity\src\org\ofbiz\entity\util\DistributedCacheClear.java,0,0,0,0
org.ofbiz.entity.util.EntityDataAssert, 0, 0, 0, 0, 0, 0, 0, 0, 0, 0, 0, 0, 0, 0,0.0,0.0,0.0,0.0,0.0,0.0,0.0,0.0,0.0,0.0,0.0,0.0,0.0,69,framework\entity\src\org\ofbiz\entity\util\EntityDataAssert.java,0,0,0,0
org.ofbiz.entity.util.EntityFindOptions, 0, 0, 0, 1, 0, 0, 0, 1, 0, 0, 0, 0, 0, 2,0.0,0.0,0.0,0.0,0.0,0.0,0.0,0.0,0.0,0.0,0.0,0.0,0.0,75,framework\entity\src\org\ofbiz\entity\util\EntityFindOptions.java,0,0,0,0
org.ofbiz.entity.util.EntityTypeUtil, 0, 0, 0, 0, 0, 0, 0, 1, 0, 0, 0, 0, 0, 1,0.0,0.0,0.0,0.0,0.0,0.0,0.0,0.3333333333333333,0.0,0.0,0.0,0.0,0.0,72,framework\entity\src\org\ofbiz\entity\util\EntityTypeUtil.java,0,0,0,0
org.ofbiz.entityext.EntityGroupUtil, 0, 0, 0, 0, 0, 0, 0, 0, 0, 0, 0, 0, 0, 0,0.0,0.0,0.0,0.0,0.0,0.0,0.0,0.0,0.0,0.0,0.0,0.0,0.0,56,framework\entityext\src\org\ofbiz\entityext\EntityGroupUtil.java,0,0,0,0
org.ofbiz.entityext.EntityServiceFactory, 0, 0, 0, 0, 0, 0, 0, 0, 0, 0, 0, 0, 0, 0,0.0,0.0,0.0,0.0,0.0,0.0,0.0,0.0,0.0,0.0,0.0,0.0,0.0,12,framework\entityext\src\org\ofbiz\entityext\EntityServiceFactory.java,0,0,0,0
org.ofbiz.entityext.eca.EntityEcaException, 0, 0, 0, 0, 0, 0, 0, 0, 0, 0, 0, 0, 0, 0,0.0,0.0,0.0,0.0,0.0,0.0,0.0,0.0,0.0,0.0,0.0,0.0,0.0,11,framework\entityext\src\org\ofbiz\entityext\eca\EntityEcaException.java,0,0,0,0
org.ofbiz.geronimo.GeronimoTransactionFactory, 0, 0, 0, 0, 0, 0, 0, 0, 0, 0, 0, 0, 0, 0,0.0,0.0,0.0,0.3333333333333333,0.0,0.0,0.0,0.3333333333333333,0.0,0.0,0.0,0.0,0.0,35,framework\geronimo\src\org\ofbiz\geronimo\GeronimoTransactionFactory.java,0,0,0,0
org.ofbiz.manufacturing.bom.BOMHelper, 0, 0, 0, 0, 0, 0, 0, 1, 0, 0, 0, 0, 0, 1,0.0,0.0,0.0,0.0,0.0,0.0,0.0,0.0,0.0,0.0,0.0,0.0,0.0,71,applications\manufacturing\src\org\ofbiz\manufacturing\bom\BOMHelper.java,0,0,0,0
org.ofbiz.minilang.MiniLangException, 0, 0, 0, 0, 0, 0, 0, 0, 0, 0, 0, 0, 0, 0,0.0,0.0,0.0,0.0,0.0,0.0,0.0,0.0,0.0,0.0,0.0,0.0,0.0,14,framework\minilang\src\org\ofbiz\minilang\MiniLangException.java,0,0,0,0
org.ofbiz.minilang.artifact.ArtifactInfoContext, 0, 0, 0, 0, 0, 0, 0, 0, 0, 0, 0, 0, 0, 0,0.0,0.0,0.0,0.0,0.0,0.0,0.0,0.0,0.0,0.0,0.0,0.0,0.0,27,framework\minilang\src\org\ofbiz\minilang\artifact\ArtifactInfoContext.java,0,0,0,0
org.ofbiz.minilang.method.FieldObject, 0, 0, 0, 0, 0, 0, 0, 0, 0, 0, 0, 0, 0, 0,0.0,0.0,0.0,0.0,0.0,0.0,0.0,0.0,0.0,0.0,0.0,0.0,0.0,27,framework\minilang\src\org\ofbiz\minilang\method\FieldObject.java,0,0,0,0
org.ofbiz.minilang.method.MethodObject, 0, 0, 0, 0, 0, 0, 0, 0, 0, 0, 0, 0, 0, 0,0.0,0.0,0.0,0.0,0.0,0.0,0.0,0.0,0.0,0.0,0.0,0.0,0.0,8,framework\minilang\src\org\ofbiz\minilang\method\MethodObject.java,0,0,0,0
org.ofbiz.minilang.method.MethodOperation, 0, 0, 0, 0, 0, 0, 0, 0, 0, 0, 0, 0, 0, 0,0.0,0.0,0.0,0.0,0.0,0.0,0.0,0.0,0.0,0.0,0.0,0.0,0.0,23,framework\minilang\src\org\ofbiz\minilang\method\MethodOperation.java,0,0,0,0
org.ofbiz.minilang.method.StringObject, 0, 0, 0, 0, 0, 0, 0, 0, 0, 0, 0, 0, 0, 0,0.0,0.0,0.0,0.0,0.0,0.0,0.0,0.0,0.0,0.0,0.0,0.0,0.0,23,framework\minilang\src\org\ofbiz\minilang\method\StringObject.java,0,0,0,0
org.ofbiz.minilang.method.callops.FlexibleMessage, 0, 0, 0, 0, 0, 0, 0, 0, 0, 0, 0, 0, 0, 0,0.0,0.0,0.0,0.0,0.0,0.0,0.0,0.0,0.0,0.0,0.0,0.0,0.0,30,framework\minilang\src\org\ofbiz\minilang\method\callops\FlexibleMessage.java,0,0,0,0
org.ofbiz.minilang.method.conditional.Conditional, 0, 0, 0, 0, 0, 0, 0, 0, 0, 0, 0, 0, 0, 0,0.0,0.0,0.0,0.0,0.0,0.0,0.0,0.0,0.0,0.0,0.0,0.0,0.0,30,framework\minilang\src\org\ofbiz\minilang\method\conditional\Conditional.java,0,0,0,0
org.ofbiz.minilang.method.conditional.ElseIf, 0, 0, 0, 0, 0, 0, 0, 0, 0, 0, 0, 0, 0, 0,0.0,0.0,0.0,0.0,0.0,0.0,0.0,0.0,0.0,0.0,0.0,0.0,0.0,31,framework\minilang\src\org\ofbiz\minilang\method\conditional\ElseIf.java,0,0,0,0
org.ofbiz.minilang.method.conditional.MasterIf, 0, 0, 0, 0, 0, 0, 0, 0, 0, 0, 0, 0, 0, 0,0.0,0.0,0.0,0.0,0.0,0.0,0.0,0.0,0.0,0.0,0.0,0.0,0.0,84,framework\minilang\src\org\ofbiz\minilang\method\conditional\MasterIf.java,0,0,0,0
org.ofbiz.minilang.method.entityops.ClearEntityCaches, 0, 0, 0, 0, 0, 0, 0, 0, 0, 0, 0, 0, 0, 0,0.0,0.0,0.0,0.0,0.0,0.0,0.0,0.0,0.0,0.0,0.0,0.0,0.0,30,framework\minilang\src\org\ofbiz\minilang\method\entityops\ClearEntityCaches.java,0,0,0,0
org.ofbiz.minilang.method.entityops.EntityOperation, 0, 0, 0, 0, 0, 0, 0, 0, 0, 0, 0, 0, 0, 0,0.0,0.0,0.0,0.0,0.0,0.0,0.0,0.0,0.0,0.0,0.0,0.0,0.0,14,framework\minilang\src\org\ofbiz\minilang\method\entityops\EntityOperation.java,0,0,0,0
org.ofbiz.minilang.method.envops.While, 0, 0, 0, 0, 0, 0, 0, 0, 0, 0, 0, 0, 0, 0,0.0,0.0,0.0,0.0,0.0,0.0,0.0,0.0,0.0,0.0,0.0,0.0,0.0,59,framework\minilang\src\org\ofbiz\minilang\method\envops\While.java,0,0,0,0
org.ofbiz.minilang.method.ifops.test.IfRegexpTest, 0, 0, 0, 0, 0, 0, 0, 0, 0, 0, 0, 0, 0, 0,0.0,0.0,0.0,0.0,0.0,0.0,0.0,0.0,0.0,0.0,0.0,0.0,0.0,48,framework\minilang\src\org\ofbiz\minilang\method\ifops\test\IfRegexpTest.java,0,0,0,0
org.ofbiz.order.shoppingcart.CartEventListener, 0, 0, 0, 0, 0, 0, 0, 0, 0, 0, 0, 0, 0, 0,0.0,0.0,0.0,0.0,0.0,0.0,0.0,0.0,0.0,0.0,0.0,0.0,0.0,69,applications\order\src\org\ofbiz\order\shoppingcart\CartEventListener.java,0,0,0,0
org.ofbiz.order.shoppingcart.CartItemModifyException, 0, 0, 0, 0, 0, 0, 0, 0, 0, 0, 0, 0, 0, 0,0.0,0.0,0.0,0.0,0.0,0.0,0.0,0.0,0.0,0.0,0.0,0.0,0.0,14,applications\order\src\org\ofbiz\order\shoppingcart\CartItemModifyException.java,0,0,0,0
org.ofbiz.order.shoppingcart.ItemNotFoundException, 0, 0, 0, 0, 0, 0, 0, 0, 0, 0, 0, 0, 0, 0,0.0,0.0,0.0,0.0,0.0,0.0,0.0,0.0,0.0,0.0,0.0,0.0,0.0,14,applications\order\src\org\ofbiz\order\shoppingcart\ItemNotFoundException.java,0,0,0,0
org.ofbiz.order.shoppingcart.WebShoppingCart, 0, 0, 0, 0, 0, 0, 0, 0, 0, 0, 0, 0, 0, 0,0.0,0.0,0.0,0.0,0.0,0.0,0.0,0.0,0.0,0.0,0.0,0.0,0.0,19,applications\order\src\org\ofbiz\order\shoppingcart\WebShoppingCart.java,0,0,0,0
org.ofbiz.order.thirdparty.taxware.TaxwareException, 0, 0, 0, 0, 0, 0, 0, 0, 0, 0, 0, 0, 0, 0,0.0,0.0,0.0,0.0,0.0,0.0,0.0,0.0,0.0,0.0,0.0,0.0,0.0,11,applications\order\src\org\ofbiz\order\thirdparty\taxware\TaxwareException.java,0,0,0,0
org.ofbiz.party.party.PartyTypeHelper, 0, 0, 0, 0, 0, 0, 0, 0, 0, 0, 0, 0, 0, 0,0.0,0.0,0.0,0.0,0.0,0.0,0.0,0.5,0.0,0.0,0.0,0.0,0.0,20,applications\party\src\org\ofbiz\party\party\PartyTypeHelper.java,0,0,0,0
org.ofbiz.product.config.ProductConfigWrapperException, 0, 0, 0, 0, 0, 0, 0, 0, 0, 0, 0, 0, 0, 0,0.0,0.0,0.0,0.0,0.0,0.0,0.0,0.0,0.0,0.0,0.0,0.0,0.0,5,applications\product\src\org\ofbiz\product\config\ProductConfigWrapperException.java,0,0,0,0
org.ofbiz.product.imagemanagement.ImageManagementHelper, 1, 0, 0, 0, 0, 0, 0, 0, 0, 0, 0, 0, 0, 1,0.0,0.0,0.0,0.0,0.0,0.0,0.0,0.0,0.0,0.0,0.0,0.0,0.0,28,applications\product\src\org\ofbiz\product\imagemanagement\ImageManagementHelper.java,0,0,0,0
org.ofbiz.product.imagemanagement.ImageUrlServlet, 0, 0, 0, 0, 0, 0, 0, 0, 0, 0, 0, 0, 0, 0,0.0,0.0,0.0,0.0,0.0,0.0,0.0,0.0,0.0,0.0,0.0,0.0,0.0,58,applications\product\src\org\ofbiz\product\imagemanagement\ImageUrlServlet.java,0,0,0,0
org.ofbiz.security.Security, 0, 0, 0, 0, 0, 0, 0, 0, 0, 0, 0, 0, 0, 0,0.0,0.0,0.0,0.0,0.0,0.0,0.0,0.0,0.0,0.0,0.0,0.0,0.0,58,framework\security\src\org\ofbiz\security\Security.java,0,0,0,0
org.ofbiz.security.SecurityConfigurationException, 0, 0, 0, 0, 0, 0, 0, 0, 0, 0, 0, 0, 0, 0,0.0,0.0,0.0,0.0,0.0,0.0,0.0,0.0,0.0,0.0,0.0,0.0,0.0,11,framework\security\src\org\ofbiz\security\SecurityConfigurationException.java,0,0,0,0
org.ofbiz.security.SecurityFactory, 0, 0, 0, 0, 0, 0, 0, 0, 0, 0, 0, 0, 0, 0,0.0,0.0,0.0,0.0,0.0,0.0,0.0,0.0,0.0,0.0,0.0,0.0,0.0,76,framework\security\src\org\ofbiz\security\SecurityFactory.java,0,0,0,0
org.ofbiz.securityext.thirdparty.truition.TruitionCoReg, 0, 0, 0, 0, 0, 0, 0, 0, 0, 0, 0, 0, 0, 0,0.0,0.0,0.0,0.0,0.0,0.0,0.0,0.0,0.0,0.0,0.0,0.0,0.0,247,applications\securityext\src\org\ofbiz\securityext\thirdparty\truition\TruitionCoReg.java,0,0,0,0
org.ofbiz.service.ExecutionServiceException, 0, 0, 0, 0, 0, 0, 0, 0, 0, 0, 0, 0, 0, 0,0.0,0.0,0.0,0.0,0.0,0.0,0.0,0.0,0.0,0.0,0.0,0.0,0.0,14,framework\service\src\org\ofbiz\service\ExecutionServiceException.java,0,0,0,0
org.ofbiz.service.GenericServiceException, 0, 0, 0, 0, 0, 0, 0, 0, 0, 0, 0, 0, 0, 0,0.0,0.0,0.0,0.0,0.0,0.0,0.0,0.0,0.0,0.0,0.0,0.0,0.0,14,framework\service\src\org\ofbiz\service\GenericServiceException.java,0,0,0,0
org.ofbiz.service.LocalDispatcherFactory, 0, 0, 0, 0, 0, 0, 0, 0, 0, 0, 0, 0, 0, 0,0.0,0.0,0.0,0.0,0.0,0.0,0.0,0.0,0.0,0.0,0.0,0.0,0.0,14,framework\service\src\org\ofbiz\service\LocalDispatcherFactory.java,0,0,0,0
org.ofbiz.service.ModelServiceIface, 0, 0, 0, 0, 0, 0, 0, 0, 0, 0, 0, 0, 0, 0,0.0,0.0,0.0,0.0,0.0,0.0,0.0,0.0,0.0,0.0,0.0,0.0,0.0,24,framework\service\src\org\ofbiz\service\ModelServiceIface.java,0,0,0,0
org.ofbiz.service.RunningService, 0, 0, 0, 0, 0, 0, 0, 0, 0, 0, 0, 0, 0, 0,0.0,0.0,0.0,0.0,0.0,0.0,0.0,0.0,0.0,0.0,0.0,0.0,0.0,45,framework\service\src\org\ofbiz\service\RunningService.java,0,0,0,0
org.ofbiz.service.ServiceAuthException, 0, 0, 0, 0, 0, 0, 0, 0, 0, 0, 0, 0, 0, 0,0.0,0.0,0.0,0.0,0.0,0.0,0.0,0.0,0.0,0.0,0.0,0.0,0.0,11,framework\service\src\org\ofbiz\service\ServiceAuthException.java,0,0,0,0
org.ofbiz.service.calendar.RecurrenceInfo, 0, 0, 0, 1, 0, 0, 0, 1, 0, 0, 0, 0, 0, 2,0.0,0.0,0.0,0.0,0.0,0.0,0.0,0.0,0.0,0.0,0.0,0.0,0.0,255,framework\service\src\org\ofbiz\service\calendar\RecurrenceInfo.java,0,0,0,0
org.ofbiz.service.calendar.RecurrenceInfoException, 0, 0, 0, 0, 0, 0, 0, 0, 0, 0, 0, 0, 0, 0,0.0,0.0,0.0,0.5,0.0,0.0,0.0,0.5,0.0,0.0,0.0,0.0,0.0,11,framework\service\src\org\ofbiz\service\calendar\RecurrenceInfoException.java,0,0,0,0
org.ofbiz.service.calendar.RecurrenceRuleException, 0, 0, 0, 0, 0, 0, 0, 0, 0, 0, 0, 0, 0, 0,0.0,0.0,0.0,0.5,0.0,0.0,0.0,0.5,0.0,0.0,0.0,0.0,0.0,11,framework\service\src\org\ofbiz\service\calendar\RecurrenceRuleException.java,0,0,0,0
org.ofbiz.service.calendar.RecurrenceUtil, 0, 0, 0, 0, 0, 0, 0, 0, 0, 0, 0, 0, 0, 0,0.0,0.0,0.0,1.0,0.0,0.0,0.0,1.0,0.0,0.0,0.0,0.0,0.0,42,framework\service\src\org\ofbiz\service\calendar\RecurrenceUtil.java,0,0,0,0
org.ofbiz.service.calendar.TemporalExpressionVisitor, 0, 0, 0, 0, 0, 0, 0, 0, 0, 0, 0, 0, 0, 0,0.0,0.0,0.0,0.0,0.0,0.0,0.0,0.0,0.0,0.0,0.0,0.0,0.0,42,framework\service\src\org\ofbiz\service\calendar\TemporalExpressionVisitor.java,0,0,0,0
org.ofbiz.service.config.ServiceConfigException, 0, 0, 0, 0, 0, 0, 0, 0, 0, 0, 0, 0, 0, 0,0.0,0.0,0.0,0.125,0.0,0.0,0.0,0.0,0.0,0.0,0.0,0.0,0.0,11,framework\service\src\org\ofbiz\service\config\ServiceConfigException.java,0,0,0,0
org.ofbiz.service.config.ServiceConfigListener, 0, 0, 0, 0, 0, 0, 0, 0, 0, 0, 0, 0, 0, 0,0.0,0.0,0.0,0.0,0.0,0.0,0.0,0.0,0.0,0.0,0.0,0.0,0.0,11,framework\service\src\org\ofbiz\service\config\ServiceConfigListener.java,0,0,0,0
org.ofbiz.service.config.ServiceConfigUtil, 0, 0, 0, 0, 0, 0, 0, 0, 0, 0, 0, 0, 0, 0,0.0,0.0,0.0,0.0,0.0,0.0,0.0,0.0,0.0,0.0,0.0,0.0,0.0,52,framework\service\src\org\ofbiz\service\config\ServiceConfigUtil.java,0,0,0,0
org.ofbiz.service.config.model.Authorization, 0, 0, 0, 0, 0, 0, 0, 0, 0, 0, 0, 0, 0, 0,0.0,0.0,0.0,0.0,0.0,0.0,0.0,0.0,0.0,0.0,0.0,0.0,0.0,13,framework\service\src\org\ofbiz\service\config\model\Authorization.java,0,0,0,0
org.ofbiz.service.config.model.GlobalServices, 0, 0, 0, 0, 0, 0, 0, 0, 0, 0, 0, 0, 0, 0,0.0,0.0,0.0,0.0,0.0,0.0,0.0,0.0,0.0,0.0,0.0,0.0,0.0,22,framework\service\src\org\ofbiz\service\config\model\GlobalServices.java,0,0,0,0
org.ofbiz.service.config.model.JmsService, 0, 0, 0, 0, 0, 0, 0, 0, 0, 0, 0, 0, 0, 0,0.0,0.0,0.0,0.5,0.0,0.0,0.0,0.0,0.0,0.0,0.0,0.0,0.0,36,framework\service\src\org\ofbiz\service\config\model\JmsService.java,0,0,0,0
org.ofbiz.service.config.model.Notification, 0, 0, 0, 0, 0, 0, 0, 0, 0, 0, 0, 0, 0, 0,0.0,0.0,0.0,0.0,0.0,0.0,0.0,0.0,0.0,0.0,0.0,0.0,0.0,31,framework\service\src\org\ofbiz\service\config\model\Notification.java,0,0,0,0
org.ofbiz.service.config.model.NotificationGroup, 0, 0, 0, 0, 0, 0, 0, 0, 0, 0, 0, 0, 0, 0,0.0,0.0,0.0,0.0,0.0,0.0,0.0,0.0,0.0,0.0,0.0,0.0,0.0,36,framework\service\src\org\ofbiz\service\config\model\NotificationGroup.java,0,0,0,0
org.ofbiz.service.config.model.Notify, 0, 0, 0, 0, 0, 0, 0, 0, 0, 0, 0, 0, 0, 0,0.0,0.0,0.0,0.0,0.0,0.0,0.0,0.0,0.0,0.0,0.0,0.0,0.0,22,framework\service\src\org\ofbiz\service\config\model\Notify.java,0,0,0,0
org.ofbiz.service.config.model.Parameter, 0, 0, 0, 0, 0, 0, 0, 0, 0, 0, 0, 0, 0, 0,0.0,0.0,0.0,0.0,0.0,0.0,0.0,0.0,0.0,0.0,0.0,0.0,0.0,22,framework\service\src\org\ofbiz\service\config\model\Parameter.java,0,0,0,0
org.ofbiz.service.config.model.ResourceLoader, 0, 0, 0, 0, 0, 0, 0, 0, 0, 0, 0, 0, 0, 0,0.0,0.0,0.0,0.0,0.0,0.0,0.0,0.0,0.0,0.0,0.0,0.0,0.0,32,framework\service\src\org\ofbiz\service\config\model\ResourceLoader.java,0,0,0,0
org.ofbiz.service.config.model.RunFromPool, 0, 0, 0, 0, 0, 0, 0, 0, 0, 0, 0, 0, 0, 0,0.0,0.0,0.0,0.5,0.0,0.0,0.0,0.0,0.0,0.0,0.0,0.0,0.0,13,framework\service\src\org\ofbiz\service\config\model\RunFromPool.java,0,0,0,0
org.ofbiz.service.config.model.Server, 0, 0, 0, 1, 0, 0, 0, 0, 0, 0, 0, 0, 0, 1,0.0,0.0,0.0,0.0,0.0,0.0,0.0,0.0,0.0,0.0,0.0,0.0,0.0,65,framework\service\src\org\ofbiz\service\config\model\Server.java,0,0,0,0
org.ofbiz.service.config.model.ServiceEcas, 0, 0, 0, 0, 0, 0, 0, 0, 0, 0, 0, 0, 0, 0,0.0,0.0,0.0,0.0,0.0,0.0,0.0,0.0,0.0,0.0,0.0,0.0,0.0,22,framework\service\src\org\ofbiz\service\config\model\ServiceEcas.java,0,0,0,0
org.ofbiz.service.config.model.ServiceGroups, 0, 0, 0, 0, 0, 0, 0, 0, 0, 0, 0, 0, 0, 0,0.0,0.0,0.0,0.0,0.0,0.0,0.0,0.0,0.0,0.0,0.0,0.0,0.0,22,framework\service\src\org\ofbiz\service\config\model\ServiceGroups.java,0,0,0,0
org.ofbiz.service.config.model.ServiceLocation, 0, 0, 0, 0, 0, 0, 0, 0, 0, 0, 0, 0, 0, 0,0.0,0.0,0.0,0.0,0.0,0.0,0.0,0.0,0.0,0.0,0.0,0.0,0.0,21,framework\service\src\org\ofbiz\service\config\model\ServiceLocation.java,0,0,0,0
org.ofbiz.service.config.model.StartupService, 0, 0, 0, 0, 0, 0, 0, 0, 0, 0, 0, 0, 0, 0,0.0,0.0,0.0,0.0,0.0,0.0,0.0,0.0,0.0,0.0,0.0,0.0,0.0,37,framework\service\src\org\ofbiz\service\config\model\StartupService.java,0,0,0,0
org.ofbiz.service.config.model.ThreadPool, 0, 0, 0, 1, 0, 0, 0, 0, 0, 0, 0, 0, 0, 1,0.0,0.0,0.0,0.0,0.0,0.0,0.0,0.0,0.0,0.0,0.0,0.0,0.0,158,framework\service\src\org\ofbiz\service\config\model\ThreadPool.java,0,0,0,0
org.ofbiz.service.engine.SoapSerializer, 0, 0, 0, 0, 0, 0, 0, 0, 0, 0, 0, 0, 0, 0,0.0,0.0,0.0,0.0,0.0,0.0,0.0,0.0,0.0,0.0,0.0,0.0,0.0,18,framework\service\src\org\ofbiz\service\engine\SoapSerializer.java,0,0,0,0
org.ofbiz.service.jms.GenericMessageListener, 0, 0, 0, 0, 0, 0, 0, 0, 0, 0, 0, 0, 0, 0,0.0,0.0,0.0,0.0,0.0,0.0,0.0,0.0,0.0,0.0,0.0,0.0,0.0,18,framework\service\src\org\ofbiz\service\jms\GenericMessageListener.java,0,0,0,0
org.ofbiz.service.jms.JmsSerializer, 0, 0, 0, 0, 0, 0, 0, 0, 0, 0, 0, 0, 0, 0,0.0,0.0,0.0,0.0,0.0,0.0,0.0,0.0,0.0,0.0,0.0,0.0,0.0,18,framework\service\src\org\ofbiz\service\jms\JmsSerializer.java,0,0,0,0
org.ofbiz.service.job.AbstractJob, 0, 0, 0, 0, 0, 0, 0, 0, 0, 0, 0, 0, 0, 0,0.0,0.0,0.0,0.0,0.0,0.0,0.0,0.0,0.0,0.0,0.0,0.0,0.0,70,framework\service\src\org\ofbiz\service\job\AbstractJob.java,0,0,0,0
org.ofbiz.service.job.InvalidJobException, 0, 0, 0, 0, 0, 0, 0, 0, 0, 0, 0, 0, 0, 0,0.0,0.0,0.0,0.0,0.0,0.0,0.0,0.0,0.0,0.0,0.0,0.0,0.0,14,framework\service\src\org\ofbiz\service\job\InvalidJobException.java,0,0,0,0
org.ofbiz.service.job.Job, 0, 0, 0, 0, 0, 0, 0, 0, 0, 0, 0, 0, 0, 0,0.0,0.0,0.0,0.0,0.0,0.0,0.0,0.0,0.0,0.0,0.0,0.0,0.0,14,framework\service\src\org\ofbiz\service\job\Job.java,0,0,0,0
org.ofbiz.service.job.JobManagerException, 0, 0, 0, 0, 0, 0, 0, 0, 0, 0, 0, 0, 0, 0,0.0,0.0,0.0,0.0,0.0,0.0,0.0,0.0,0.0,0.0,0.0,0.0,0.0,14,framework\service\src\org\ofbiz\service\job\JobManagerException.java,0,0,0,0
org.ofbiz.service.job.PurgeJob, 0, 0, 0, 0, 0, 0, 0, 0, 0, 0, 0, 0, 0, 0,0.0,0.0,0.0,0.0,0.0,0.0,0.0,0.0,0.0,0.0,0.0,0.0,0.0,46,framework\service\src\org\ofbiz\service\job\PurgeJob.java,0,0,0,0
org.ofbiz.service.mail.ServiceMcaRule, 0, 0, 0, 0, 0, 0, 0, 0, 0, 0, 0, 0, 0, 0,0.0,0.0,0.0,0.0,0.0,0.0,0.0,0.0,0.0,0.0,0.0,0.0,0.0,52,framework\service\src\org\ofbiz\service\mail\ServiceMcaRule.java,0,0,0,0
org.ofbiz.service.rmi.socket.ssl.SSLClientSocketFactory, 0, 0, 0, 0, 0, 0, 0, 0, 0, 0, 0, 0, 0, 0,0.0,0.0,0.0,0.0,0.0,0.0,0.0,0.0,0.0,0.0,0.0,0.0,0.0,14,framework\service\src\org\ofbiz\service\rmi\socket\ssl\SSLClientSocketFactory.java,0,0,0,0
org.ofbiz.service.rmi.socket.ssl.SSLServerSocketFactory, 0, 0, 0, 0, 0, 0, 0, 0, 0, 0, 0, 0, 0, 0,0.0,0.0,0.0,0.0,0.0,0.0,0.0,0.0,0.0,0.0,0.0,0.0,0.0,63,framework\service\src\org\ofbiz\service\rmi\socket\ssl\SSLServerSocketFactory.java,0,0,0,0
org.ofbiz.service.semaphore.SemaphoreFailException, 0, 0, 0, 0, 0, 0, 0, 0, 0, 0, 0, 0, 0, 0,0.0,0.0,0.0,0.0,0.0,0.0,0.0,0.0,0.0,0.0,0.0,0.0,0.0,14,framework\service\src\org\ofbiz\service\semaphore\SemaphoreFailException.java,0,0,0,0
org.ofbiz.service.semaphore.SemaphoreWaitException, 0, 0, 0, 0, 0, 0, 0, 0, 0, 0, 0, 0, 0, 0,0.0,0.0,0.0,0.0,0.0,0.0,0.0,0.0,0.0,0.0,0.0,0.0,0.0,14,framework\service\src\org\ofbiz\service\semaphore\SemaphoreWaitException.java,0,0,0,0
org.ofbiz.service.semaphore.ServiceSemaphore, 0, 0, 0, 0, 0, 0, 0, 0, 0, 0, 0, 0, 0, 0,0.0,0.0,0.0,0.0,0.0,0.0,0.0,0.0,0.0,0.0,0.0,0.0,0.0,128,framework\service\src\org\ofbiz\service\semaphore\ServiceSemaphore.java,0,0,0,0
org.ofbiz.service.test.AbstractXmlRpcTestCase, 0, 0, 0, 0, 0, 0, 0, 0, 0, 0, 0, 0, 0, 0,0.0,0.0,0.0,0.0,0.0,0.0,0.0,0.0,0.0,0.0,0.0,0.0,0.0,36,framework\service\src\org\ofbiz\service\test\AbstractXmlRpcTestCase.java,0,0,0,0
org.ofbiz.service.testtools.OFBizTestCase, 0, 0, 0, 0, 0, 0, 0, 0, 0, 0, 0, 0, 0, 0,0.0,0.0,0.0,0.0,0.0,0.0,0.0,0.0,0.0,0.0,0.0,0.0,0.0,12,framework\service\src\org\ofbiz\service\testtools\OFBizTestCase.java,0,0,0,0
org.ofbiz.service.xmlrpc.AliasSupportedTransportFactory, 0, 0, 0, 0, 0, 0, 0, 0, 0, 0, 0, 0, 0, 0,0.0,0.0,0.0,0.0,0.0,0.0,0.0,0.0,0.0,0.0,0.0,0.0,0.0,81,framework\service\src\org\ofbiz\service\xmlrpc\AliasSupportedTransportFactory.java,0,0,0,0
org.ofbiz.service.xmlrpc.XmlRpcClient, 0, 0, 0, 0, 0, 0, 0, 0, 0, 0, 0, 0, 0, 0,0.0,0.0,0.0,0.0,0.0,0.0,0.0,0.0,0.0,0.0,0.0,0.0,0.0,30,framework\service\src\org\ofbiz\service\xmlrpc\XmlRpcClient.java,0,0,0,0
org.ofbiz.shipment.packing.PackingEvent, 0, 0, 0, 0, 0, 0, 0, 0, 0, 0, 0, 0, 0, 0,0.0,0.0,0.0,0.0,0.0,0.0,0.0,0.0,0.0,0.0,0.0,0.0,0.0,30,applications\product\src\org\ofbiz\shipment\packing\PackingEvent.java,0,0,0,0
org.ofbiz.shipment.test.IssuanceTest, 0, 0, 0, 0, 0, 0, 0, 0, 0, 0, 0, 0, 0, 0,0.0,0.0,0.0,0.0,0.0,0.0,0.0,0.0,0.0,0.0,0.0,0.0,0.0,61,applications\product\src\org\ofbiz\shipment\test\IssuanceTest.java,0,0,0,0
org.ofbiz.shipment.thirdparty.usps.UspsMockApiServlet, 0, 0, 0, 0, 0, 0, 0, 0, 0, 0, 0, 0, 0, 0,0.0,0.0,0.0,0.0,0.0,0.0,0.0,0.0,0.0,0.0,0.0,0.0,0.0,71,applications\product\src\org\ofbiz\shipment\thirdparty\usps\UspsMockApiServlet.java,0,0,0,0
org.ofbiz.sql.Condition, 0, 0, 0, 0, 0, 0, 0, 0, 0, 0, 0, 0, 0, 0,0.0,0.0,0.0,0.0,0.0,0.0,0.0,0.5,0.0,0.0,0.0,0.0,0.0,19,framework\sql\src\org\ofbiz\sql\Condition.java,0,0,0,0
org.ofbiz.sql.ConstantValue, 0, 0, 0, 0, 0, 0, 0, 0, 0, 0, 0, 0, 0, 0,0.0,0.0,0.0,0.0,0.0,0.0,0.0,0.6666666666666666,0.0,0.0,0.0,0.0,0.0,2,framework\sql\src\org\ofbiz\sql\ConstantValue.java,0,0,0,0
org.ofbiz.sql.DeletePlan, 0, 0, 0, 0, 0, 0, 0, 0, 0, 0, 0, 0, 0, 0,0.0,0.0,0.0,0.0,0.0,0.0,0.0,0.0,0.0,0.0,0.0,0.0,0.0,9,framework\sql\src\org\ofbiz\sql\DeletePlan.java,0,0,0,0
org.ofbiz.sql.InsertPlan, 0, 0, 0, 0, 0, 0, 0, 0, 0, 0, 0, 0, 0, 0,0.0,0.0,0.0,0.0,0.0,0.0,0.0,0.0,0.0,0.0,0.0,0.0,0.0,2,framework\sql\src\org\ofbiz\sql\InsertPlan.java,0,0,0,0
org.ofbiz.sql.InsertSource, 0, 0, 0, 0, 0, 0, 0, 0, 0, 0, 0, 0, 0, 0,0.0,0.0,0.0,0.0,0.0,0.0,0.0,0.0,0.0,0.0,0.0,0.0,0.0,2,framework\sql\src\org\ofbiz\sql\InsertSource.java,0,0,0,0
org.ofbiz.sql.KeyMap, 0, 0, 0, 0, 0, 0, 0, 0, 0, 0, 0, 0, 0, 0,0.0,0.0,0.0,0.0,0.0,0.0,0.0,0.5,0.0,0.0,0.0,0.0,0.0,23,framework\sql\src\org\ofbiz\sql\KeyMap.java,0,0,0,0
org.ofbiz.sql.ParameterizedConditionException, 0, 0, 0, 0, 0, 0, 0, 0, 0, 0, 0, 0, 0, 0,0.0,0.0,0.0,0.0,0.0,0.0,0.0,0.0,0.0,0.0,0.0,0.0,0.0,14,framework\sql\src\org\ofbiz\sql\ParameterizedConditionException.java,0,0,0,0
org.ofbiz.sql.Planner, 0, 0, 0, 0, 0, 0, 0, 0, 0, 0, 0, 0, 0, 0,0.0,0.0,0.0,0.0,0.0,0.0,0.0,0.3333333333333333,0.0,0.0,0.0,0.0,0.0,29,framework\sql\src\org\ofbiz\sql\Planner.java,0,0,0,0
org.ofbiz.sql.SQLStatement, 0, 0, 0, 0, 0, 0, 0, 0, 0, 0, 0, 0, 0, 0,0.0,0.0,0.0,0.0,0.0,0.0,0.0,0.0,0.0,0.0,0.0,0.0,0.0,25,framework\sql\src\org\ofbiz\sql\SQLStatement.java,0,0,0,0
org.ofbiz.sql.SelectPlan, 0, 0, 0, 0, 0, 0, 0, 0, 0, 0, 0, 0, 0, 0,0.0,0.0,0.0,0.0,0.0,0.0,0.0,0.0,0.0,0.0,0.0,0.0,0.0,14,framework\sql\src\org\ofbiz\sql\SelectPlan.java,0,0,0,0
org.ofbiz.sql.StaticValue, 0, 0, 0, 0, 0, 0, 0, 0, 0, 0, 0, 0, 0, 0,0.0,0.0,0.0,0.3333333333333333,0.0,0.0,0.0,0.6666666666666666,0.0,0.0,0.0,0.0,0.0,3,framework\sql\src\org\ofbiz\sql\StaticValue.java,0,0,0,0
org.ofbiz.sql.Table, 0, 0, 0, 0, 0, 0, 0, 0, 0, 0, 0, 0, 0, 0,0.0,0.0,0.0,0.0,0.0,0.0,0.0,0.5,0.0,0.0,0.0,0.0,0.0,33,framework\sql\src\org\ofbiz\sql\Table.java,0,0,0,0
org.ofbiz.sql.UpdatePlan, 0, 0, 0, 0, 0, 0, 0, 0, 0, 0, 0, 0, 0, 0,0.0,0.0,0.0,0.0,0.0,0.0,0.0,0.0,0.0,0.0,0.0,0.0,0.0,9,framework\sql\src\org\ofbiz\sql\UpdatePlan.java,0,0,0,0
org.ofbiz.sql.ViewPlan, 0, 0, 0, 0, 0, 0, 0, 0, 0, 0, 0, 0, 0, 0,0.0,0.0,0.0,0.0,0.0,0.0,0.0,0.0,0.0,0.0,0.0,0.0,0.0,2,framework\sql\src\org\ofbiz\sql\ViewPlan.java,0,0,0,0
org.ofbiz.sql.test.ConditionsTest, 0, 0, 0, 0, 0, 0, 0, 1, 0, 0, 0, 0, 0, 1,0.0,0.0,0.0,0.0,0.0,0.0,0.0,0.0,0.0,0.0,0.0,0.0,0.0,112,framework\sql\src\org\ofbiz\sql\test\ConditionsTest.java,0,0,0,0
org.ofbiz.sql.test.SQLTest, 0, 0, 0, 0, 0, 0, 0, 0, 0, 0, 0, 0, 0, 0,0.0,0.0,0.0,0.0,0.0,0.0,0.0,0.0,0.0,0.0,0.0,0.0,0.0,221,framework\sql\src\org\ofbiz\sql\test\SQLTest.java,0,0,0,0
org.ofbiz.sql.test.SelectTest, 0, 0, 0, 0, 0, 0, 0, 1, 0, 0, 0, 0, 0, 1,0.0,0.0,0.0,0.0,0.0,0.0,0.0,0.0,0.0,0.0,0.0,0.0,0.0,79,framework\sql\src\org\ofbiz\sql\test\SelectTest.java,0,0,0,0
org.ofbiz.sql.test.ValuesTest, 0, 0, 0, 1, 0, 0, 0, 1, 0, 0, 0, 0, 0, 2,0.0,0.0,0.0,0.0,0.0,0.0,0.0,0.0,0.0,0.0,0.0,0.0,0.0,173,framework\sql\src\org\ofbiz\sql\test\ValuesTest.java,0,0,0,0
org.ofbiz.testtools.EntityXmlAssertTest, 0, 0, 0, 0, 0, 0, 0, 0, 0, 0, 0, 0, 0, 0,0.0,0.0,0.0,0.0,0.0,0.0,0.0,0.0,0.0,0.0,0.0,0.0,0.0,47,framework\testtools\src\org\ofbiz\testtools\EntityXmlAssertTest.java,0,0,2,4
org.ofbiz.testtools.JunitSuiteWrapper, 0, 0, 0, 0, 0, 0, 0, 0, 0, 0, 0, 0, 0, 0,0.0,0.0,0.0,0.0,0.0,0.0,0.0,0.0,0.0,0.0,0.0,0.0,0.0,43,framework\testtools\src\org\ofbiz\testtools\JunitSuiteWrapper.java,0,0,0,0
org.ofbiz.testtools.ModelTestSuite, 0, 0, 0, 0, 0, 0, 0, 0, 0, 0, 0, 0, 0, 0,0.0,0.0,0.0,0.0,0.0,0.0,0.0,0.0,0.0,0.0,0.0,0.0,0.0,115,framework\testtools\src\org\ofbiz\testtools\ModelTestSuite.java,0,0,0,0
org.ofbiz.testtools.TestListContainer, 0, 0, 0, 0, 0, 0, 0, 0, 0, 0, 0, 0, 0, 0,0.0,0.0,0.0,0.0,0.0,0.0,0.0,0.0,0.0,0.0,0.0,0.0,0.0,76,framework\testtools\src\org\ofbiz\testtools\TestListContainer.java,0,0,0,0
org.ofbiz.webapp.control.ControlActivationEventListener, 0, 0, 0, 0, 0, 0, 0, 0, 0, 0, 0, 0, 0, 0,0.0,0.0,0.0,0.0,0.0,0.0,0.0,0.0,0.0,0.0,0.0,0.0,0.0,12,framework\webapp\src\org\ofbiz\webapp\control\ControlActivationEventListener.java,0,0,0,0
org.ofbiz.webapp.control.ControlServlet, 0, 0, 0, 0, 0, 0, 0, 0, 0, 0, 0, 0, 0, 0,0.16666666666666666,0.0,0.0,0.0,0.0,0.0,0.0,0.0,0.0,0.0,0.0,0.0,0.0,254,framework\webapp\src\org\ofbiz\webapp\control\ControlServlet.java,6,4,3,16
org.ofbiz.webapp.control.LoginCheck, 0, 0, 0, 0, 0, 0, 0, 0, 0, 0, 0, 0, 0, 0,0.0,0.0,0.0,0.0,0.0,0.0,0.0,0.0,0.0,0.0,0.0,0.0,0.0,254,framework\webapp\src\org\ofbiz\webapp\control\LoginCheck.java,0,0,0,0
org.ofbiz.webapp.control.LoginEventListener, 0, 0, 0, 0, 0, 0, 0, 0, 0, 0, 0, 0, 0, 0,0.0,0.0,0.0,0.0,0.0,0.0,0.0,0.0,0.0,0.0,0.0,0.0,0.0,10,framework\webapp\src\org\ofbiz\webapp\control\LoginEventListener.java,0,0,0,0
org.ofbiz.webapp.control.RequestHandlerException, 0, 0, 0, 0, 0, 0, 0, 0, 0, 0, 0, 0, 0, 0,0.0,0.0,0.0,0.0,0.0,0.0,0.0,0.0,0.0,0.0,0.0,0.0,0.0,11,framework\webapp\src\org\ofbiz\webapp\control\RequestHandlerException.java,0,0,0,0
org.ofbiz.webapp.control.RequestHandlerExceptionAllowExternalRequests, 0, 0, 0, 0, 0, 0, 0, 0, 0, 0, 0, 0, 0, 0,0.0,0.0,0.0,0.0,0.0,0.0,0.0,0.0,0.0,0.0,0.0,0.0,0.0,11,framework\webapp\src\org\ofbiz\webapp\control\RequestHandlerExceptionAllowExternalRequests.java,0,0,0,0
org.ofbiz.webapp.event.BsfEventHandler, 0, 0, 0, 0, 0, 0, 0, 0, 0, 0, 0, 0, 0, 0,0.0,0.0,0.0,0.0,0.0,0.0,0.0,0.0,0.0,0.0,0.0,0.0,0.0,63,framework\webapp\src\org\ofbiz\webapp\event\BsfEventHandler.java,0,0,0,0
org.ofbiz.webapp.event.EventHandler, 0, 0, 0, 0, 0, 0, 0, 0, 0, 0, 0, 0, 0, 0,0.0,0.0,0.0,0.0,0.0,0.0,0.0,0.0,0.0,0.0,0.0,0.0,0.0,63,framework\webapp\src\org\ofbiz\webapp\event\EventHandler.java,0,0,0,0
org.ofbiz.webapp.event.EventHandlerException, 0, 0, 0, 0, 0, 0, 0, 0, 0, 0, 0, 0, 0, 0,0.0,0.0,0.0,0.0,0.0,0.0,0.0,0.0,0.0,0.0,0.0,0.0,0.0,14,framework\webapp\src\org\ofbiz\webapp\event\EventHandlerException.java,0,0,0,0
org.ofbiz.webapp.event.FileUploadProgressListener, 0, 0, 0, 0, 0, 0, 0, 0, 0, 0, 0, 0, 0, 0,0.0,0.0,0.0,0.0,0.0,0.0,0.0,0.0,0.0,0.0,0.0,0.0,0.0,27,framework\webapp\src\org\ofbiz\webapp\event\FileUploadProgressListener.java,0,0,0,0
org.ofbiz.webapp.event.RomeEventHandler, 0, 0, 0, 0, 0, 0, 0, 0, 0, 0, 0, 0, 0, 0,0.0,0.0,0.0,0.0,0.0,0.0,0.0,0.0,0.0,0.0,0.0,0.0,0.0,42,framework\webapp\src\org\ofbiz\webapp\event\RomeEventHandler.java,0,0,0,0
org.ofbiz.webapp.event.SimpleEventHandler, 0, 0, 0, 0, 0, 0, 0, 0, 0, 0, 0, 0, 0, 0,0.0,0.0,0.0,0.0,0.0,0.0,0.0,0.0,0.0,0.0,0.0,0.0,0.0,29,framework\webapp\src\org\ofbiz\webapp\event\SimpleEventHandler.java,0,0,0,0
org.ofbiz.webapp.event.TestEvent, 0, 0, 0, 0, 0, 0, 0, 0, 0, 0, 0, 0, 0, 0,0.0,0.0,0.0,0.0,0.0,0.0,0.0,0.0,0.0,0.0,0.0,0.0,0.0,20,framework\webapp\src\org\ofbiz\webapp\event\TestEvent.java,0,0,0,0
org.ofbiz.webapp.ftl.OfbizCacheStorage, 0, 0, 0, 0, 0, 0, 0, 0, 0, 0, 0, 0, 0, 0,0.0,0.0,0.0,0.0,0.0,0.0,0.0,0.0,0.0,0.0,0.0,0.0,0.0,18,framework\webapp\src\org\ofbiz\webapp\ftl\OfbizCacheStorage.java,0,0,0,0
org.ofbiz.webapp.ftl.SetRequestAttributeMethod, 0, 0, 0, 0, 0, 0, 0, 0, 0, 0, 0, 0, 0, 0,0.0,0.0,0.0,0.0,0.0,0.0,0.0,0.0,0.0,0.0,0.0,0.0,0.0,25,framework\webapp\src\org\ofbiz\webapp\ftl\SetRequestAttributeMethod.java,0,0,0,0
org.ofbiz.webapp.region.Content, 0, 0, 0, 0, 0, 0, 0, 0, 0, 0, 0, 0, 0, 0,0.0,0.0,0.0,0.0,0.0,0.0,0.0,0.5,0.0,0.0,0.0,0.0,0.0,20,framework\webapp\src\org\ofbiz\webapp\region\Content.java,0,0,0,0
org.ofbiz.webapp.region.RegionStack, 0, 0, 0, 0, 0, 0, 0, 0, 0, 0, 0, 0, 0, 0,0.0,0.0,0.0,0.0,0.0,0.0,0.0,0.6666666666666666,0.0,0.0,0.0,0.0,0.0,20,framework\webapp\src\org\ofbiz\webapp\region\RegionStack.java,0,0,0,0
org.ofbiz.webapp.region.RegionTag, 0, 0, 0, 0, 0, 0, 0, 0, 0, 0, 0, 0, 0, 0,0.0,0.0,0.0,0.0,0.0,0.0,0.0,0.3333333333333333,0.0,0.0,0.0,0.0,0.0,47,framework\webapp\src\org\ofbiz\webapp\region\RegionTag.java,0,0,0,0
org.ofbiz.webapp.region.RenderTag, 0, 0, 0, 0, 0, 0, 0, 0, 0, 0, 0, 0, 0, 0,0.0,0.0,0.0,0.0,0.0,0.0,0.0,0.0,0.0,0.0,0.0,0.0,0.0,72,framework\webapp\src\org\ofbiz\webapp\region\RenderTag.java,0,0,0,0
org.ofbiz.webapp.region.Section, 0, 0, 0, 0, 0, 0, 0, 1, 0, 0, 0, 0, 0, 1,0.16666666666666666,0.0,0.0,0.0,0.0,0.0,0.0,0.0,0.0,0.0,0.0,0.0,0.0,86,framework\webapp\src\org\ofbiz\webapp\region\Section.java,0,0,0,0
org.ofbiz.webapp.stats.VisitHandler, 0, 0, 0, 0, 0, 0, 0, 0, 0, 0, 0, 0, 0, 0,0.0,0.0,0.0,0.0,0.0,0.0,0.0,0.0,0.0,0.0,0.0,0.0,0.0,196,framework\webapp\src\org\ofbiz\webapp\stats\VisitHandler.java,0,0,0,0
org.ofbiz.webapp.taglib.EntityFieldTag, 0, 0, 0, 1, 0, 0, 0, 0, 0, 0, 0, 0, 0, 1,0.3333333333333333,0.0,0.0,0.0,0.0,0.0,0.0,0.0,0.0,0.0,0.0,0.0,0.0,66,framework\webapp\src\org\ofbiz\webapp\taglib\EntityFieldTag.java,0,0,0,0
org.ofbiz.webapp.taglib.FormatTag, 0, 0, 0, 0, 0, 0, 0, 0, 0, 0, 0, 0, 0, 0,1.0,0.0,0.0,0.0,0.0,0.0,0.0,0.0,0.0,0.0,0.0,0.0,0.0,51,framework\webapp\src\org\ofbiz\webapp\taglib\FormatTag.java,0,0,0,0
org.ofbiz.webapp.taglib.I18nBundleTag, 0, 0, 0, 0, 0, 0, 0, 0, 0, 0, 0, 0, 0, 0,0.5,0.0,0.0,0.0,0.0,0.0,0.0,0.0,0.0,0.0,0.0,0.0,0.0,38,framework\webapp\src\org\ofbiz\webapp\taglib\I18nBundleTag.java,0,0,0,0
org.ofbiz.webapp.taglib.I18nMessageArgumentTag, 0, 0, 0, 0, 0, 0, 0, 0, 0, 0, 0, 0, 0, 0,0.5,0.0,0.0,0.0,0.0,0.0,0.0,0.0,0.0,0.0,0.0,0.0,0.0,16,framework\webapp\src\org\ofbiz\webapp\taglib\I18nMessageArgumentTag.java,0,0,0,0
org.ofbiz.webapp.taglib.I18nMessageTag, 0, 0, 0, 0, 0, 0, 0, 0, 0, 0, 0, 0, 0, 0,0.3333333333333333,0.0,0.0,0.0,0.0,0.0,0.0,0.0,0.0,0.0,0.0,0.0,0.0,64,framework\webapp\src\org\ofbiz\webapp\taglib\I18nMessageTag.java,0,0,0,0
org.ofbiz.webapp.taglib.IfTag, 0, 0, 0, 0, 0, 0, 0, 0, 0, 0, 0, 0, 0, 0,0.0,0.0,0.0,0.0,0.0,0.0,0.0,0.0,0.0,0.0,0.0,0.0,0.0,172,framework\webapp\src\org\ofbiz\webapp\taglib\IfTag.java,0,0,0,0
org.ofbiz.webapp.taglib.InputValueTag, 0, 0, 0, 1, 0, 0, 0, 0, 0, 0, 0, 0, 0, 1,1.0,0.0,0.0,0.0,0.0,0.0,0.0,0.0,0.0,0.0,0.0,0.0,0.0,59,framework\webapp\src\org\ofbiz\webapp\taglib\InputValueTag.java,0,0,0,0
org.ofbiz.webapp.taglib.IterateNextTEI, 0, 0, 0, 0, 0, 0, 0, 0, 0, 0, 0, 0, 0, 0,0.0,0.0,0.0,0.0,0.0,0.0,0.0,0.0,0.0,0.0,0.0,0.0,0.0,24,framework\webapp\src\org\ofbiz\webapp\taglib\IterateNextTEI.java,0,0,0,0
org.ofbiz.webapp.taglib.IteratorHasNextTag, 0, 0, 0, 0, 0, 0, 0, 0, 0, 0, 0, 0, 0, 0,0.0,0.0,0.0,0.0,0.0,0.0,0.0,0.0,0.0,0.0,0.0,0.0,0.0,32,framework\webapp\src\org\ofbiz\webapp\taglib\IteratorHasNextTag.java,0,0,0,0
org.ofbiz.webapp.taglib.IteratorTEI, 0, 0, 0, 0, 0, 0, 0, 0, 0, 0, 0, 0, 0, 0,0.0,0.0,0.0,0.0,0.0,0.0,0.0,0.0,0.0,0.0,0.0,0.0,0.0,22,framework\webapp\src\org\ofbiz\webapp\taglib\IteratorTEI.java,0,0,0,0
org.ofbiz.webapp.taglib.ObjectTEI, 0, 0, 0, 0, 0, 0, 0, 0, 0, 0, 0, 0, 0, 0,0.0,0.0,0.0,0.0,0.0,0.0,0.0,0.0,0.0,0.0,0.0,0.0,0.0,22,framework\webapp\src\org\ofbiz\webapp\taglib\ObjectTEI.java,0,0,0,0
org.ofbiz.webapp.taglib.ObjectTag, 0, 0, 0, 0, 0, 0, 0, 0, 0, 0, 0, 0, 0, 0,0.0,0.0,0.0,0.0,0.0,0.0,0.0,0.0,0.0,0.0,0.0,0.0,0.0,46,framework\webapp\src\org\ofbiz\webapp\taglib\ObjectTag.java,0,0,0,0
org.ofbiz.webapp.taglib.PrintTag, 0, 0, 0, 0, 0, 0, 0, 0, 0, 0, 0, 0, 0, 0,1.0,0.0,0.0,0.0,0.0,0.0,0.0,0.0,0.0,0.0,0.0,0.0,0.0,37,framework\webapp\src\org\ofbiz\webapp\taglib\PrintTag.java,0,0,0,0
org.ofbiz.webapp.taglib.UnlessTag, 0, 0, 0, 0, 0, 0, 0, 0, 0, 0, 0, 0, 0, 0,0.0,0.0,0.0,0.0,0.0,0.0,0.0,0.0,0.0,0.0,0.0,0.0,0.0,6,framework\webapp\src\org\ofbiz\webapp\taglib\UnlessTag.java,0,0,0,0
org.ofbiz.webapp.taglib.UrlTag, 0, 0, 0, 0, 0, 0, 0, 0, 0, 0, 0, 0, 0, 0,1.0,0.0,0.0,0.0,0.0,0.0,0.0,0.0,0.0,0.0,0.0,0.0,0.0,25,framework\webapp\src\org\ofbiz\webapp\taglib\UrlTag.java,0,0,0,0
org.ofbiz.webapp.view.AbstractViewHandler, 0, 0, 0, 0, 0, 0, 0, 0, 0, 0, 0, 0, 0, 0,0.0,0.0,0.0,0.0,0.0,0.0,0.0,1.0,0.0,0.0,0.0,0.0,0.0,9,framework\webapp\src\org\ofbiz\webapp\view\AbstractViewHandler.java,0,0,0,0
org.ofbiz.webapp.view.ApacheFopWorker, 1, 0, 0, 0, 0, 0, 0, 0, 0, 0, 0, 0, 0, 1,0.0,0.0,0.0,0.0,0.0,0.0,0.0,0.5,0.0,0.0,0.0,0.0,0.0,120,framework\webapp\src\org\ofbiz\webapp\view\ApacheFopWorker.java,0,7,0,7
org.ofbiz.webapp.view.DataVisionViewHandler, 0, 0, 0, 0, 0, 0, 0, 1, 0, 0, 0, 0, 0, 1,0.0,0.0,0.0,0.0,0.0,0.0,0.0,0.3333333333333333,0.0,0.0,0.0,0.0,0.0,45,framework\webapp\src\org\ofbiz\webapp\view\DataVisionViewHandler.java,0,0,0,0
org.ofbiz.webapp.view.FopPdfViewHandler, 0, 0, 0, 0, 0, 0, 0, 1, 0, 0, 0, 0, 0, 1,0.0,0.0,0.0,0.0,0.0,0.0,0.0,0.3333333333333333,0.0,0.0,0.0,0.0,0.0,30,framework\webapp\src\org\ofbiz\webapp\view\FopPdfViewHandler.java,0,0,0,0
org.ofbiz.webapp.view.FopRenderer, 0, 0, 0, 0, 0, 0, 0, 0, 0, 0, 0, 0, 0, 0,1.0,0.0,0.0,0.0,0.0,0.0,0.0,0.0,0.0,0.0,0.0,0.0,0.0,28,framework\webapp\src\org\ofbiz\webapp\view\FopRenderer.java,0,0,0,0
org.ofbiz.webapp.view.HttpViewHandler, 0, 0, 0, 0, 0, 0, 0, 1, 0, 0, 0, 0, 0, 1,0.0,0.0,0.0,0.0,0.0,0.0,0.0,0.0,0.0,0.0,0.0,0.0,0.0,23,framework\webapp\src\org\ofbiz\webapp\view\HttpViewHandler.java,0,0,0,0
org.ofbiz.webapp.view.JPublishViewHandler, 0, 0, 0, 0, 0, 0, 0, 1, 0, 0, 0, 0, 0, 1,0.2,0.0,0.0,0.0,0.0,0.0,0.0,0.2,0.0,0.0,0.0,0.0,0.0,34,framework\webapp\src\org\ofbiz\webapp\view\JPublishViewHandler.java,0,0,0,0
org.ofbiz.webapp.view.JspViewHandler, 0, 0, 0, 0, 0, 0, 0, 1, 0, 0, 0, 0, 0, 1,0.0,0.0,0.0,0.0,0.0,0.0,0.0,0.0,0.0,0.0,0.0,0.0,0.0,41,framework\webapp\src\org\ofbiz\webapp\view\JspViewHandler.java,0,0,0,0
org.ofbiz.webapp.view.RegionViewHandler, 0, 0, 0, 0, 0, 0, 0, 1, 0, 0, 0, 0, 0, 1,0.0,0.0,0.0,0.0,0.0,0.0,0.0,0.0,0.0,0.0,0.0,0.0,0.0,48,framework\webapp\src\org\ofbiz\webapp\view\RegionViewHandler.java,0,0,0,0
org.ofbiz.webapp.view.ViewHandler, 0, 0, 0, 0, 0, 0, 0, 0, 0, 0, 0, 0, 0, 0,0.0,0.0,0.0,0.0,0.0,0.0,0.0,0.0,0.0,0.0,0.0,0.0,0.0,48,framework\webapp\src\org\ofbiz\webapp\view\ViewHandler.java,0,0,0,0
org.ofbiz.webapp.view.ViewHandlerException, 0, 0, 0, 0, 0, 0, 0, 0, 0, 0, 0, 0, 0, 0,0.0,0.0,0.0,0.0,0.0,0.0,0.0,0.9090909090909091,0.0,0.0,0.0,0.0,0.0,14,framework\webapp\src\org\ofbiz\webapp\view\ViewHandlerException.java,0,0,0,0
org.ofbiz.webapp.webdav.PropFindHelper, 0, 0, 0, 0, 0, 0, 0, 0, 0, 0, 0, 0, 0, 0,0.0,0.0,0.0,0.0,0.0,0.0,0.0,0.0,0.0,0.0,0.0,0.0,0.0,43,framework\webapp\src\org\ofbiz\webapp\webdav\PropFindHelper.java,0,0,0,0
org.ofbiz.webapp.webdav.RequestHandler, 0, 0, 0, 0, 0, 0, 0, 0, 0, 0, 0, 0, 0, 0,0.0,0.0,0.0,0.0,0.0,0.0,0.0,0.0,0.0,0.0,0.0,0.0,0.0,43,framework\webapp\src\org\ofbiz\webapp\webdav\RequestHandler.java,0,0,0,0
org.ofbiz.webapp.webdav.RequestHandlerFactory, 0, 0, 0, 0, 0, 0, 0, 0, 0, 0, 0, 0, 0, 0,0.0,0.0,0.0,0.0,0.0,0.0,0.0,0.0,0.0,0.0,0.0,0.0,0.0,43,framework\webapp\src\org\ofbiz\webapp\webdav\RequestHandlerFactory.java,0,0,0,0
org.ofbiz.webapp.webdav.ResponseHelper, 0, 0, 0, 0, 0, 0, 0, 0, 0, 0, 0, 0, 0, 0,0.0,0.0,0.0,0.0,0.0,0.0,0.0,0.0,0.0,0.0,0.0,0.0,0.0,60,framework\webapp\src\org\ofbiz\webapp\webdav\ResponseHelper.java,0,0,0,0
org.ofbiz.webapp.website.WebSiteWorker, 0, 0, 0, 0, 0, 0, 0, 0, 0, 0, 0, 0, 0, 0,0.0,0.0,0.0,0.0,0.0,0.0,0.0,0.25,0.0,0.0,0.0,0.0,0.0,28,framework\webapp\src\org\ofbiz\webapp\website\WebSiteWorker.java,0,0,0,0
org.ofbiz.webtools.UtilCacheEvents, 0, 0, 0, 0, 0, 0, 0, 0, 0, 0, 0, 0, 0, 0,0.0,0.0,0.0,0.0,0.0,0.0,0.0,0.0,0.0,0.0,0.0,0.0,0.0,139,framework\webtools\src\org\ofbiz\webtools\UtilCacheEvents.java,0,0,0,0
org.ofbiz.webtools.artifactinfo.ArtifactInfoBase, 0, 0, 0, 0, 0, 0, 0, 0, 0, 0, 0, 0, 0, 0,0.0,0.0,0.0,0.0,0.0,0.0,0.0,0.0,0.0,0.0,0.0,0.0,0.0,41,framework\webtools\src\org\ofbiz\webtools\artifactinfo\ArtifactInfoBase.java,0,0,0,0
org.ofbiz.webtools.artifactinfo.ControllerViewArtifactInfo, 0, 0, 0, 0, 0, 0, 0, 0, 0, 0, 0, 0, 0, 0,0.0,0.0,0.0,0.0,0.0,0.0,0.0,0.0,0.0,0.0,0.0,0.0,0.0,76,framework\webtools\src\org\ofbiz\webtools\artifactinfo\ControllerViewArtifactInfo.java,0,0,0,0
org.ofbiz.webtools.labelmanager.LabelFile, 0, 0, 0, 0, 0, 0, 0, 0, 0, 0, 0, 0, 0, 0,0.0,0.0,0.0,0.0,0.0,0.0,0.0,0.0,0.0,0.0,0.0,0.0,0.0,19,framework\webtools\src\org\ofbiz\webtools\labelmanager\LabelFile.java,0,0,0,0
org.ofbiz.webtools.labelmanager.LabelValue, 0, 0, 0, 0, 0, 0, 0, 0, 0, 0, 0, 0, 0, 0,0.0,0.0,0.0,0.0,0.0,0.0,0.0,0.0,0.0,0.0,0.0,0.0,0.0,21,framework\webtools\src\org\ofbiz\webtools\labelmanager\LabelValue.java,0,0,0,0
org.ofbiz.widget.WidgetContentWorker, 1, 0, 1, 0, 0, 0, 0, 0, 0, 0, 0, 0, 0, 2,0.0,0.0,0.0,0.0,0.0,0.0,0.0,0.0,0.0,0.0,0.0,0.0,0.0,16,framework\widget\src\org\ofbiz\widget\WidgetContentWorker.java,0,0,0,0
org.ofbiz.widget.WidgetDataResourceWorker, 1, 0, 1, 0, 0, 0, 0, 0, 0, 0, 0, 0, 0, 2,0.0,0.0,0.0,0.0,0.0,0.0,0.0,0.0,0.0,0.0,0.0,0.0,0.0,16,framework\widget\src\org\ofbiz\widget\WidgetDataResourceWorker.java,0,0,0,0
org.ofbiz.widget.WidgetLoader, 0, 0, 0, 0, 0, 0, 0, 0, 0, 0, 0, 0, 0, 0,0.0,0.0,0.0,0.0,0.0,0.0,0.0,0.0,0.0,0.0,0.0,0.0,0.0,16,framework\widget\src\org\ofbiz\widget\WidgetLoader.java,0,0,0,0
org.ofbiz.widget.WidgetPortalPageWorker, 1, 0, 1, 0, 0, 0, 0, 0, 0, 0, 0, 0, 0, 2,0.0,0.0,0.0,0.0,0.0,0.0,0.0,0.0,0.0,0.0,0.0,0.0,0.0,16,framework\widget\src\org\ofbiz\widget\WidgetPortalPageWorker.java,0,0,0,0
org.ofbiz.widget.cache.AbstractCache, 0, 0, 0, 0, 0, 0, 0, 0, 0, 0, 0, 0, 0, 0,0.0,0.0,0.0,0.0,0.0,0.0,0.0,0.0,0.0,0.0,0.0,0.0,0.0,25,framework\widget\src\org\ofbiz\widget\cache\AbstractCache.java,0,0,0,0
org.ofbiz.widget.cache.GenericWidgetOutput, 0, 0, 0, 0, 0, 0, 0, 0, 0, 0, 0, 0, 0, 0,0.0,0.0,0.0,0.0,0.0,0.0,0.0,0.0,0.0,0.0,0.0,0.0,0.0,11,framework\widget\src\org\ofbiz\widget\cache\GenericWidgetOutput.java,0,0,0,0
org.ofbiz.widget.cache.ScreenCache, 0, 0, 0, 0, 0, 0, 0, 0, 0, 0, 0, 0, 0, 0,0.0,0.0,0.0,0.0,0.0,0.0,0.0,0.0,0.0,0.0,0.0,0.0,0.0,23,framework\widget\src\org\ofbiz\widget\cache\ScreenCache.java,0,0,0,0
org.ofbiz.widget.form.UtilHelpText, 0, 0, 0, 0, 0, 0, 0, 0, 0, 0, 0, 0, 0, 0,0.0,0.0,0.0,0.0,0.0,0.0,0.0,0.0,0.0,0.0,0.0,0.0,0.0,41,framework\widget\src\org\ofbiz\widget\form\UtilHelpText.java,0,0,0,0
org.ofbiz.widget.screen.MacroScreenViewHandler, 0, 0, 0, 0, 0, 0, 0, 1, 0, 0, 0, 0, 0, 1,0.25,0.0,0.0,0.0,0.0,0.0,0.0,0.0,0.0,0.0,0.0,0.0,0.0,58,framework\widget\src\org\ofbiz\widget\screen\MacroScreenViewHandler.java,0,0,0,0
org.ofbiz.widget.screen.ScreenFopViewHandler, 0, 0, 0, 0, 0, 0, 0, 1, 0, 0, 0, 0, 0, 1,0.3333333333333333,0.0,0.0,0.0,0.0,0.0,0.0,0.0,0.0,0.0,0.0,0.0,0.0,65,framework\widget\src\org\ofbiz\widget\screen\ScreenFopViewHandler.java,0,0,0,0
org.ofbiz.widget.screen.ScreenRenderException, 0, 0, 0, 0, 0, 0, 0, 0, 0, 0, 0, 0, 0, 0,0.0,0.0,0.0,0.0,0.0,0.0,0.0,0.0,0.0,0.0,0.0,0.0,0.0,14,framework\widget\src\org\ofbiz\widget\screen\ScreenRenderException.java,0,0,0,0
org.ofbiz.workeffort.workeffort.ICalRecurConverter, 0, 0, 0, 1, 0, 0, 0, 0, 0, 0, 0, 0, 0, 1,0.0,0.0,0.0,0.0,0.0,0.0,0.0,0.0,0.0,0.0,0.0,0.0,0.0,256,applications\workeffort\src\org\ofbiz\workeffort\workeffort\ICalRecurConverter.java,0,0,0,0
org.ofbiz.workeffort.workeffort.WorkEffortWorker, 0, 0, 0, 0, 0, 0, 0, 1, 0, 0, 0, 0, 0, 1,0.0,0.0,0.0,0.0,0.0,0.0,0.0,0.0,0.0,0.0,0.0,0.0,0.0,59,applications\workeffort\src\org\ofbiz\workeffort\workeffort\WorkEffortWorker.java,0,0,0,0
