ClassName,AntiSingleton,Blob,ClassDataShouldBePrivate,ComplexClass,LargeClass,LazyClass,LongMethod,LongParameterList,MessageChains,RefusedParentBequest,SpaghettiCode,SpeculativeGenerality,SwissArmyKnife,NumOfAPs,AntiSingleton,Blob,ClassDataShouldBePrivate,ComplexClass,LargeClass,LazyClass,LongMethod,LongParameterList,MessageChains,RefusedParentBequest,SpaghettiCode,SpeculativeGenerality,SwissArmyKnife,LOC,name,deleted,added,changed,all
org.apache.aurora.GuavaUtils, 0, 0, 0, 0, 0, 0, 0, 0, 0, 0, 0, 0, 0, 0,0.0,0.0,0.0,0.0,0.0,0.0,0.0,0.0,0.0,0.0,0.0,0.0,0.0,37,src\main\java\org\apache\aurora\GuavaUtils.java,0,0,0,0
org.apache.aurora.GuiceUtils, 0, 0, 0, 0, 0, 0, 0, 0, 0, 0, 0, 0, 0, 0,0.0,0.0,0.0,0.0,0.0,0.0,0.0,0.0,0.0,0.0,0.0,0.0,0.0,90,src\main\java\org\apache\aurora\GuiceUtils.java,0,0,0,0
org.apache.aurora.GuiceUtilsTest, 0, 0, 0, 0, 0, 0, 0, 0, 0, 0, 0, 0, 0, 0,0.0,0.0,0.0,0.0,0.0,0.0,0.0,0.0,0.0,0.0,0.0,0.0,0.0,90,src\test\java\org\apache\aurora\GuiceUtilsTest.java,0,0,0,0
org.apache.aurora.Protobufs, 0, 0, 0, 0, 0, 0, 0, 0, 0, 0, 0, 0, 0, 0,0.0,0.0,0.0,0.0,0.0,0.0,0.0,0.0,0.0,0.0,0.0,0.0,0.0,13,src\main\java\org\apache\aurora\Protobufs.java,0,0,0,0
org.apache.aurora.auth.CapabilityValidator, 0, 0, 0, 0, 0, 0, 0, 0, 0, 0, 0, 0, 0, 0,0.0,0.0,0.0,0.0,0.0,0.0,0.0,0.0,0.0,0.0,0.0,0.0,0.0,13,src\main\java\org\apache\aurora\auth\CapabilityValidator.java,0,1,1,3
org.apache.aurora.auth.SessionValidator, 0, 0, 0, 0, 0, 0, 0, 0, 0, 0, 0, 0, 0, 0,0.0,0.0,0.0,0.0,0.0,0.0,0.0,0.0,0.0,0.0,0.0,0.0,0.0,13,src\main\java\org\apache\aurora\auth\SessionValidator.java,0,0,0,0
org.apache.aurora.benchmark.SchedulerBenchmark, 0, 0, 0, 0, 0, 0, 0, 0, 0, 0, 0, 0, 0, 0,0.0,0.0,0.0,0.0,0.0,0.0,0.0,0.0,0.0,0.0,0.0,0.0,0.0,5,src\jmh\java\org\apache\aurora\benchmark\SchedulerBenchmark.java,7,0,0,7
org.apache.aurora.codec.ThriftBinaryCodec, 0, 0, 0, 0, 0, 0, 0, 0, 0, 0, 0, 0, 0, 0,0.0,0.0,0.0,0.2,0.0,0.0,0.0,0.2,0.0,0.0,0.0,0.0,0.0,98,src\main\java\org\apache\aurora\codec\ThriftBinaryCodec.java,0,0,0,0
org.apache.aurora.codec.ThriftBinaryCodecTest, 0, 0, 0, 0, 0, 0, 0, 0, 0, 0, 0, 0, 0, 0,0.0,0.0,0.0,0.0,0.0,0.0,0.0,0.0,0.0,0.0,0.0,0.0,0.0,33,src\test\java\org\apache\aurora\codec\ThriftBinaryCodecTest.java,0,0,0,0
org.apache.aurora.scheduler.HostOffer, 0, 0, 0, 0, 0, 0, 0, 0, 0, 0, 0, 0, 0, 0,0.0,0.0,0.0,0.5,0.0,0.0,0.0,0.16666666666666666,0.0,0.0,0.0,0.0,0.0,34,src\main\java\org\apache\aurora\scheduler\HostOffer.java,0,0,0,0
org.apache.aurora.scheduler.ResourceSlot, 0, 0, 0, 0, 0, 0, 0, 0, 0, 0, 0, 0, 0, 0,0.0,0.0,0.0,0.42857142857142855,0.0,0.0,0.0,0.7142857142857143,0.0,0.0,0.0,0.0,0.0,87,src\main\java\org\apache\aurora\scheduler\ResourceSlot.java,0,0,0,0
org.apache.aurora.scheduler.ResourceSlotTest, 0, 0, 0, 0, 0, 0, 0, 0, 0, 0, 0, 0, 0, 0,0.0,0.0,0.0,0.5,0.0,0.0,0.0,0.5,0.0,0.0,0.0,0.0,0.0,12,src\test\java\org\apache\aurora\scheduler\ResourceSlotTest.java,0,0,0,0
org.apache.aurora.scheduler.SchedulerLifecycleTest, 0, 0, 0, 0, 0, 0, 0, 0, 0, 0, 0, 0, 0, 0,0.0,0.0,0.0,0.0,0.0,0.0,0.0,0.0,0.0,0.0,0.0,0.0,0.0,153,src\test\java\org\apache\aurora\scheduler\SchedulerLifecycleTest.java,4,0,0,4
org.apache.aurora.scheduler.SchedulerModule, 0, 0, 0, 0, 0, 0, 0, 0, 0, 0, 0, 0, 0, 0,0.0,0.0,0.0,0.0,0.0,0.0,0.0,0.0,0.0,0.0,0.0,0.0,0.0,39,src\main\java\org\apache\aurora\scheduler\SchedulerModule.java,0,0,0,0
org.apache.aurora.scheduler.SchedulerServicesModule, 0, 0, 0, 0, 0, 0, 0, 0, 0, 0, 0, 0, 0, 0,0.0,0.0,0.0,0.25,0.0,0.0,0.0,0.0,0.0,0.0,0.0,0.0,0.0,50,src\main\java\org\apache\aurora\scheduler\SchedulerServicesModule.java,0,0,0,0
org.apache.aurora.scheduler.TaskLauncher, 0, 0, 0, 0, 0, 0, 0, 0, 0, 0, 0, 0, 0, 0,0.0,0.0,0.0,0.0,0.0,0.0,0.0,0.0,0.0,0.0,0.0,0.0,0.0,50,src\main\java\org\apache\aurora\scheduler\TaskLauncher.java,0,0,0,0
org.apache.aurora.scheduler.UserTaskLauncherTest, 0, 0, 0, 0, 0, 0, 0, 0, 0, 0, 0, 0, 0, 0,0.0,0.0,0.0,0.0,0.0,0.0,0.0,0.0,0.0,0.0,0.0,0.0,0.0,104,src\test\java\org\apache\aurora\scheduler\UserTaskLauncherTest.java,0,0,5,10
org.apache.aurora.scheduler.app.LocalServiceRegistryWithOverridesTest, 0, 0, 0, 0, 0, 0, 0, 0, 0, 0, 0, 0, 0, 0,0.0,0.0,0.0,0.0,0.0,0.0,0.0,0.0,0.0,0.0,0.0,0.0,0.0,30,src\test\java\org\apache\aurora\scheduler\app\LocalServiceRegistryWithOverridesTest.java,41,0,0,41
org.apache.aurora.scheduler.app.Modules, 0, 0, 0, 0, 0, 0, 0, 0, 0, 0, 0, 0, 0, 0,0.0,0.0,0.0,0.0,0.0,0.0,0.0,1.0,0.0,0.0,0.0,0.0,0.0,38,src\main\java\org\apache\aurora\scheduler\app\Modules.java,0,12,4,20
org.apache.aurora.scheduler.app.SchedulerIT, 0, 0, 0, 1, 0, 0, 0, 0, 0, 0, 0, 0, 0, 1,0.0,0.0,0.0,0.0,0.0,0.0,0.0,1.0,0.0,0.0,0.0,0.0,0.0,246,src\test\java\org\apache\aurora\scheduler\app\SchedulerIT.java,8,2,5,20
org.apache.aurora.scheduler.app.SchedulerMain, 0, 0, 0, 0, 0, 0, 0, 1, 0, 0, 0, 0, 0, 1,0.0,0.0,0.0,0.2,0.0,0.0,0.0,0.0,0.0,0.0,0.0,0.0,0.0,167,src\main\java\org\apache\aurora\scheduler\app\SchedulerMain.java,35,25,20,100
org.apache.aurora.scheduler.app.local.FakeNonVolatileStorage, 0, 0, 0, 0, 0, 0, 0, 0, 0, 0, 0, 0, 0, 0,0.0,0.0,0.0,0.0,0.0,0.0,0.0,0.0,0.0,0.0,0.0,0.0,0.0,28,src\test\java\org\apache\aurora\scheduler\app\local\FakeNonVolatileStorage.java,0,5,0,5
org.apache.aurora.scheduler.app.local.LocalSchedulerMain, 0, 0, 0, 0, 0, 0, 0, 0, 0, 0, 0, 0, 0, 0,0.0,0.0,0.0,0.0,0.0,0.0,0.0,1.0,0.0,0.0,0.0,0.0,0.0,53,src\test\java\org\apache\aurora\scheduler\app\local\LocalSchedulerMain.java,1,5,1,8
org.apache.aurora.scheduler.app.local.simulator.ClusterSimulatorModule, 0, 0, 0, 0, 0, 0, 0, 1, 0, 0, 0, 0, 0, 1,0.0,0.0,0.0,0.0,0.0,0.0,0.0,0.0,0.0,0.0,0.0,0.0,0.0,70,src\test\java\org\apache\aurora\scheduler\app\local\simulator\ClusterSimulatorModule.java,0,0,0,0
org.apache.aurora.scheduler.app.local.simulator.Events, 0, 0, 0, 0, 0, 0, 0, 0, 0, 0, 0, 0, 0, 0,0.0,0.0,0.0,0.0,0.0,0.0,0.0,0.0,0.0,0.0,0.0,0.0,0.0,70,src\test\java\org\apache\aurora\scheduler\app\local\simulator\Events.java,0,0,0,0
org.apache.aurora.scheduler.app.local.simulator.FakeSlaves, 0, 0, 0, 0, 0, 0, 0, 0, 0, 0, 0, 0, 0, 0,0.0,0.0,0.0,0.0,0.0,0.0,0.0,0.0,0.0,0.0,0.0,0.0,0.0,37,src\test\java\org\apache\aurora\scheduler\app\local\simulator\FakeSlaves.java,0,0,0,0
org.apache.aurora.scheduler.async.AsyncModule, 0, 0, 0, 1, 0, 0, 0, 0, 0, 0, 0, 0, 0, 1,0.0,0.0,0.0,0.0,0.0,0.0,0.0,0.5,0.0,0.0,0.0,0.0,0.0,265,src\main\java\org\apache\aurora\scheduler\async\AsyncModule.java,17,15,7,46
org.apache.aurora.scheduler.async.AsyncModuleTest, 0, 0, 0, 0, 0, 0, 0, 0, 0, 0, 0, 0, 0, 0,0.0,0.0,0.0,0.0,0.0,0.0,0.0,0.0,0.0,0.0,0.0,0.0,0.0,48,src\test\java\org\apache\aurora\scheduler\async\AsyncModuleTest.java,0,0,0,0
org.apache.aurora.scheduler.async.JobUpdateHistoryPrunerTest, 0, 0, 0, 0, 0, 0, 0, 0, 0, 0, 0, 0, 0, 0,0.0,0.0,0.0,0.0,0.0,0.0,0.0,0.5,0.0,0.0,0.0,0.0,0.0,27,src\test\java\org\apache\aurora\scheduler\async\JobUpdateHistoryPrunerTest.java,0,7,2,11
org.apache.aurora.scheduler.async.KillRetryTest, 0, 0, 0, 0, 0, 0, 0, 1, 0, 0, 0, 0, 0, 1,0.0,0.0,0.0,0.0,0.0,0.0,0.0,0.5,0.0,0.0,0.0,0.0,0.0,87,src\test\java\org\apache\aurora\scheduler\async\KillRetryTest.java,0,0,0,0
org.apache.aurora.scheduler.async.OfferQueueImplTest, 0, 0, 0, 0, 0, 0, 0, 0, 0, 0, 0, 0, 0, 0,0.0,0.0,0.0,0.0,0.0,0.0,0.0,0.5,0.0,0.0,0.0,0.0,0.0,76,src\test\java\org\apache\aurora\scheduler\async\OfferQueueImplTest.java,101,0,0,101
org.apache.aurora.scheduler.async.Offers, 0, 0, 0, 0, 0, 0, 0, 0, 0, 0, 0, 0, 0, 0,0.0,0.0,0.0,1.0,0.0,0.0,0.0,1.0,0.0,0.0,0.0,0.0,0.0,16,src\test\java\org\apache\aurora\scheduler\async\Offers.java,0,0,0,0
org.apache.aurora.scheduler.async.RandomJitterReturnDelay, 0, 0, 0, 0, 0, 0, 0, 1, 0, 0, 0, 0, 0, 1,0.0,0.0,0.0,0.0,0.0,0.0,0.0,1.0,0.0,0.0,0.0,0.0,0.0,16,src\main\java\org\apache\aurora\scheduler\async\RandomJitterReturnDelay.java,0,0,1,2
org.apache.aurora.scheduler.async.RandomJitterReturnDelayTest, 0, 0, 0, 0, 0, 0, 0, 1, 0, 0, 0, 0, 0, 1,0.0,0.0,0.0,0.0,0.0,0.0,0.0,1.0,0.0,0.0,0.0,0.0,0.0,43,src\test\java\org\apache\aurora\scheduler\async\RandomJitterReturnDelayTest.java,0,0,0,0
org.apache.aurora.scheduler.async.TaskGroup, 0, 0, 0, 0, 0, 0, 0, 0, 0, 0, 0, 0, 0, 0,0.0,0.0,0.0,0.0,0.0,0.0,0.0,1.0,0.0,0.0,0.0,0.0,0.0,38,src\main\java\org\apache\aurora\scheduler\async\TaskGroup.java,0,0,4,8
org.apache.aurora.scheduler.async.TaskGroups, 0, 0, 0, 0, 0, 0, 0, 1, 0, 0, 0, 0, 0, 1,0.0,0.0,0.0,0.2,0.0,0.0,0.0,0.4,0.0,0.0,0.0,0.0,0.0,160,src\main\java\org\apache\aurora\scheduler\async\TaskGroups.java,24,0,4,32
org.apache.aurora.scheduler.async.TaskGroupsTest, 0, 0, 0, 0, 0, 0, 0, 0, 0, 0, 0, 0, 0, 0,0.0,0.0,0.0,0.0,0.0,0.0,0.0,1.0,0.0,0.0,0.0,0.0,0.0,76,src\test\java\org\apache\aurora\scheduler\async\TaskGroupsTest.java,0,0,0,0
org.apache.aurora.scheduler.async.TaskHistoryPrunerTest, 0, 0, 0, 1, 0, 0, 0, 1, 0, 0, 0, 0, 0, 2,0.0,0.0,0.0,0.0,0.0,0.0,0.0,0.0,0.0,0.0,0.0,0.0,0.0,265,src\test\java\org\apache\aurora\scheduler\async\TaskHistoryPrunerTest.java,0,0,0,0
org.apache.aurora.scheduler.async.TaskSchedulerImplTest, 0, 0, 0, 1, 0, 0, 0, 0, 0, 0, 0, 0, 0, 1,0.0,0.0,0.0,0.0,0.0,0.0,0.0,0.4,0.0,0.0,0.0,0.0,0.0,221,src\test\java\org\apache\aurora\scheduler\async\TaskSchedulerImplTest.java,73,62,62,259
org.apache.aurora.scheduler.async.TaskSchedulerTest, 0, 0, 0, 1, 0, 0, 0, 1, 0, 0, 0, 0, 0, 2,0.0,0.0,0.0,0.0,0.0,0.0,0.0,0.5,0.0,0.0,0.0,0.0,0.0,445,src\test\java\org\apache\aurora\scheduler\async\TaskSchedulerTest.java,30,45,93,261
org.apache.aurora.scheduler.async.TaskThrottler, 0, 0, 0, 0, 0, 0, 0, 1, 0, 0, 0, 0, 0, 1,0.0,0.0,0.0,0.0,0.0,0.0,0.0,0.0,0.0,0.0,0.0,0.0,0.0,49,src\main\java\org\apache\aurora\scheduler\async\TaskThrottler.java,0,0,0,0
org.apache.aurora.scheduler.async.TaskThrottlerTest, 0, 0, 0, 0, 0, 0, 0, 0, 0, 0, 0, 0, 0, 0,0.0,0.0,0.0,0.0,0.0,0.0,0.0,0.5,0.0,0.0,0.0,0.0,0.0,79,src\test\java\org\apache\aurora\scheduler\async\TaskThrottlerTest.java,0,0,0,0
org.apache.aurora.scheduler.async.TaskTimeoutTest, 0, 0, 0, 0, 0, 0, 0, 1, 0, 0, 0, 0, 0, 1,0.0,0.0,0.0,0.0,0.0,0.0,0.0,0.0,0.0,0.0,0.0,0.0,0.0,155,src\test\java\org\apache\aurora\scheduler\async\TaskTimeoutTest.java,0,0,0,0
org.apache.aurora.scheduler.async.preemptor.CachedClusterState, 0, 0, 0, 0, 0, 0, 0, 0, 0, 0, 0, 0, 0, 0,0.0,0.0,0.0,0.0,0.0,0.0,0.0,0.5,0.0,0.0,0.0,0.0,0.0,20,src\main\java\org\apache\aurora\scheduler\async\preemptor\CachedClusterState.java,28,0,0,28
org.apache.aurora.scheduler.async.preemptor.CachedClusterStateTest, 0, 0, 0, 0, 0, 0, 0, 0, 0, 0, 0, 0, 0, 0,0.0,0.0,0.0,0.0,0.0,0.0,0.0,0.5,0.0,0.0,0.0,0.0,0.0,83,src\test\java\org\apache\aurora\scheduler\async\preemptor\CachedClusterStateTest.java,105,0,0,105
org.apache.aurora.scheduler.async.preemptor.ClusterState, 0, 0, 0, 0, 0, 0, 0, 0, 0, 0, 0, 0, 0, 0,0.0,0.0,0.0,0.0,0.0,0.0,0.0,0.0,0.0,0.0,0.0,0.0,0.0,83,src\main\java\org\apache\aurora\scheduler\async\preemptor\ClusterState.java,0,2,1,4
org.apache.aurora.scheduler.async.preemptor.LiveClusterState, 0, 0, 0, 0, 0, 0, 0, 0, 0, 0, 0, 0, 0, 0,0.0,0.0,0.0,0.3333333333333333,0.0,0.0,0.0,0.6666666666666666,0.0,0.0,0.0,0.0,0.0,21,src\main\java\org\apache\aurora\scheduler\async\preemptor\LiveClusterState.java,36,0,0,36
org.apache.aurora.scheduler.async.preemptor.LiveClusterStateTest, 0, 0, 0, 0, 0, 0, 0, 0, 0, 0, 0, 0, 0, 0,0.0,0.0,0.0,0.0,0.0,0.0,0.0,0.3333333333333333,0.0,0.0,0.0,0.0,0.0,47,src\test\java\org\apache\aurora\scheduler\async\preemptor\LiveClusterStateTest.java,59,0,0,59
org.apache.aurora.scheduler.async.preemptor.PreemptionVictim, 0, 0, 0, 0, 0, 0, 0, 1, 0, 0, 0, 0, 0, 1,0.0,0.0,0.0,0.14285714285714285,0.0,0.0,0.0,0.14285714285714285,0.0,0.0,0.0,0.0,0.0,78,src\main\java\org\apache\aurora\scheduler\async\preemptor\PreemptionVictim.java,0,0,1,2
org.apache.aurora.scheduler.async.preemptor.PreemptionVictimTest, 0, 0, 0, 0, 0, 0, 0, 0, 0, 0, 0, 0, 0, 0,0.0,0.0,0.0,0.0,0.0,0.0,0.0,1.0,0.0,0.0,0.0,0.0,0.0,22,src\test\java\org\apache\aurora\scheduler\async\preemptor\PreemptionVictimTest.java,1,0,2,5
org.apache.aurora.scheduler.async.preemptor.Preemptor, 0, 0, 0, 0, 0, 0, 0, 0, 0, 0, 0, 0, 0, 0,0.0,0.0,0.0,0.0,0.0,0.0,0.0,0.0,0.0,0.0,0.0,0.0,0.0,22,src\main\java\org\apache\aurora\scheduler\async\preemptor\Preemptor.java,0,71,1,73
org.apache.aurora.scheduler.async.preemptor.PreemptorImpl, 0, 0, 0, 1, 0, 0, 0, 1, 0, 0, 0, 0, 0, 2,0.0,0.0,0.0,0.25,0.0,0.0,0.0,0.75,0.0,0.0,0.0,0.0,0.0,230,src\main\java\org\apache\aurora\scheduler\async\preemptor\PreemptorImpl.java,278,0,0,278
org.apache.aurora.scheduler.async.preemptor.PreemptorImplTest, 0, 0, 0, 1, 0, 0, 0, 1, 0, 0, 0, 0, 0, 2,0.0,0.0,0.0,0.4,0.0,0.0,0.0,0.6,0.0,0.0,0.0,0.0,0.0,432,src\test\java\org\apache\aurora\scheduler\async\preemptor\PreemptorImplTest.java,394,7,77,555
org.apache.aurora.scheduler.async.preemptor.PreemptorModuleTest, 0, 0, 0, 0, 0, 0, 0, 0, 0, 0, 0, 0, 0, 0,0.0,0.0,0.0,0.0,0.0,0.0,0.0,0.0,0.0,0.0,0.0,0.0,0.0,40,src\test\java\org\apache\aurora\scheduler\async\preemptor\PreemptorModuleTest.java,4,5,7,23
org.apache.aurora.scheduler.base.AsyncUtil, 0, 0, 0, 0, 0, 0, 0, 1, 0, 0, 0, 0, 0, 1,0.0,0.0,0.0,0.25,0.0,0.0,0.0,0.25,0.0,0.0,0.0,0.0,0.0,39,src\main\java\org\apache\aurora\scheduler\base\AsyncUtil.java,7,33,0,40
org.apache.aurora.scheduler.base.AsyncUtilTest, 0, 0, 0, 0, 0, 0, 0, 0, 0, 0, 0, 0, 0, 0,0.0,0.0,0.0,0.0,0.0,0.0,0.0,1.0,0.0,0.0,0.0,0.0,0.0,55,src\test\java\org\apache\aurora\scheduler\base\AsyncUtilTest.java,31,40,2,75
org.apache.aurora.scheduler.base.CommandUtil, 0, 0, 0, 0, 0, 0, 0, 1, 0, 0, 0, 0, 0, 1,0.0,0.0,0.0,0.0,0.0,0.0,0.0,0.0,0.0,0.0,0.0,0.0,0.0,43,src\main\java\org\apache\aurora\scheduler\base\CommandUtil.java,0,0,0,0
org.apache.aurora.scheduler.base.Conversions, 0, 0, 0, 0, 0, 0, 0, 0, 0, 0, 0, 0, 0, 0,0.0,0.0,0.0,1.0,0.0,0.0,0.0,0.0,0.0,0.0,0.0,0.0,0.0,70,src\main\java\org\apache\aurora\scheduler\base\Conversions.java,0,2,0,2
org.apache.aurora.scheduler.base.InstanceKeys, 0, 0, 0, 0, 0, 0, 0, 0, 0, 0, 0, 0, 0, 0,0.0,0.0,0.0,0.0,0.0,0.0,0.0,0.5,0.0,0.0,0.0,0.0,0.0,12,src\main\java\org\apache\aurora\scheduler\base\InstanceKeys.java,0,0,0,0
org.apache.aurora.scheduler.base.JobKeys, 0, 0, 0, 0, 0, 0, 0, 1, 0, 0, 0, 0, 0, 1,0.0,0.0,0.07142857142857142,0.14285714285714285,0.0,0.0,0.0,0.35714285714285715,0.0,0.0,0.0,0.0,0.0,85,src\main\java\org\apache\aurora\scheduler\base\JobKeys.java,0,0,0,0
org.apache.aurora.scheduler.base.Jobs, 0, 0, 0, 0, 0, 0, 0, 0, 0, 0, 0, 0, 0, 0,0.0,0.0,0.0,0.0,0.0,0.0,0.0,0.0,0.0,0.0,0.0,0.0,0.0,39,src\main\java\org\apache\aurora\scheduler\base\Jobs.java,0,0,0,0
org.apache.aurora.scheduler.base.JobsTest, 0, 0, 0, 0, 0, 0, 0, 0, 0, 0, 0, 0, 0, 0,0.0,0.0,0.0,0.0,0.0,0.0,0.0,0.0,0.0,0.0,0.0,0.0,0.0,20,src\test\java\org\apache\aurora\scheduler\base\JobsTest.java,1,1,1,4
org.apache.aurora.scheduler.base.Numbers, 0, 0, 0, 0, 0, 0, 0, 0, 0, 0, 0, 0, 0, 0,0.0,0.0,0.0,0.5,0.0,0.0,0.0,0.5,0.0,0.0,0.0,0.0,0.0,29,src\main\java\org\apache\aurora\scheduler\base\Numbers.java,0,0,0,0
org.apache.aurora.scheduler.base.NumbersTest, 0, 0, 0, 0, 0, 0, 0, 0, 0, 0, 0, 0, 0, 0,0.0,0.0,0.0,0.0,0.0,0.0,0.0,0.0,0.0,0.0,0.0,0.0,0.0,18,src\test\java\org\apache\aurora\scheduler\base\NumbersTest.java,0,0,0,0
org.apache.aurora.scheduler.base.Query, 0, 0, 0, 0, 0, 0, 0, 1, 0, 0, 0, 0, 0, 1,0.0,0.0,0.0,0.2,0.0,0.0,0.0,0.5,0.0,0.0,0.0,0.0,0.0,163,src\main\java\org\apache\aurora\scheduler\base\Query.java,0,0,0,0
org.apache.aurora.scheduler.base.ResourceAggregates, 0, 0, 0, 0, 0, 0, 0, 0, 0, 0, 0, 0, 0, 0,0.0,0.0,0.0,0.0,0.0,0.0,0.0,0.0,0.0,0.0,0.0,0.0,0.0,30,src\main\java\org\apache\aurora\scheduler\base\ResourceAggregates.java,0,0,0,0
org.apache.aurora.scheduler.base.SchedulerException, 0, 0, 0, 0, 0, 0, 0, 0, 0, 0, 0, 0, 0, 0,0.0,0.0,0.0,0.0,0.0,0.0,0.0,0.0,0.0,0.0,0.0,0.0,0.0,11,src\main\java\org\apache\aurora\scheduler\base\SchedulerException.java,0,0,0,0
org.apache.aurora.scheduler.base.TaskTestUtil, 0, 0, 0, 0, 0, 0, 0, 1, 0, 0, 0, 0, 0, 1,0.0,0.0,0.0,0.0,0.0,0.0,0.0,0.0,0.0,0.0,0.0,0.0,0.0,30,src\main\java\org\apache\aurora\scheduler\base\TaskTestUtil.java,0,84,0,84
org.apache.aurora.scheduler.base.TasksTest, 0, 0, 0, 0, 0, 0, 0, 0, 0, 0, 0, 0, 0, 0,0.0,0.0,0.0,0.0,0.0,0.0,0.0,1.0,0.0,0.0,0.0,0.0,0.0,42,src\test\java\org\apache\aurora\scheduler\base\TasksTest.java,2,6,6,20
org.apache.aurora.scheduler.configuration.ConfigurationManager, 0, 0, 0, 1, 0, 0, 0, 0, 0, 0, 0, 0, 0, 1,0.0,0.0,0.0,0.0,0.0,0.0,0.0,0.5,0.0,0.0,0.0,0.0,0.0,283,src\main\java\org\apache\aurora\scheduler\configuration\ConfigurationManager.java,0,0,0,0
org.apache.aurora.scheduler.configuration.ConfigurationManagerTest, 0, 0, 0, 0, 0, 0, 0, 0, 0, 0, 0, 0, 0, 0,0.0,0.0,0.0,1.0,0.0,0.0,0.0,0.0,0.0,0.0,0.0,0.0,0.0,89,src\test\java\org\apache\aurora\scheduler\configuration\ConfigurationManagerTest.java,0,0,0,0
org.apache.aurora.scheduler.configuration.Resources, 0, 0, 0, 1, 0, 0, 0, 1, 0, 0, 0, 0, 0, 2,0.0,0.0,0.0,0.25,0.0,0.0,0.0,0.375,0.0,0.0,0.0,0.0,0.0,250,src\main\java\org\apache\aurora\scheduler\configuration\Resources.java,0,0,0,0
org.apache.aurora.scheduler.configuration.ResourcesTest, 0, 0, 0, 1, 0, 0, 0, 0, 0, 0, 0, 0, 0, 1,0.0,0.0,0.0,1.0,0.0,0.0,0.0,1.0,0.0,0.0,0.0,0.0,0.0,190,src\test\java\org\apache\aurora\scheduler\configuration\ResourcesTest.java,0,0,0,0
org.apache.aurora.scheduler.configuration.SanitizedConfiguration, 0, 0, 0, 0, 0, 0, 0, 0, 0, 0, 0, 0, 0, 0,0.0,0.0,0.0,0.3333333333333333,0.0,0.0,0.0,0.3333333333333333,0.0,0.0,0.0,0.0,0.0,40,src\main\java\org\apache\aurora\scheduler\configuration\SanitizedConfiguration.java,0,0,0,0
org.apache.aurora.scheduler.cron.CronException, 0, 0, 0, 0, 0, 0, 0, 0, 0, 0, 0, 0, 0, 0,0.0,0.0,0.0,0.0,0.0,0.0,0.0,0.0,0.0,0.0,0.0,0.0,0.0,11,src\main\java\org\apache\aurora\scheduler\cron\CronException.java,0,0,0,0
org.apache.aurora.scheduler.cron.CronPredictor, 0, 0, 0, 0, 0, 0, 0, 0, 0, 0, 0, 0, 0, 0,0.0,0.0,0.0,0.0,0.0,0.0,0.0,0.0,0.0,0.0,0.0,0.0,0.0,11,src\main\java\org\apache\aurora\scheduler\cron\CronPredictor.java,0,0,0,0
org.apache.aurora.scheduler.cron.CronScheduler, 0, 0, 0, 0, 0, 0, 0, 0, 0, 0, 0, 0, 0, 0,0.0,0.0,0.0,0.0,0.0,0.0,0.0,0.0,0.0,0.0,0.0,0.0,0.0,11,src\main\java\org\apache\aurora\scheduler\cron\CronScheduler.java,0,0,0,0
org.apache.aurora.scheduler.cron.CrontabEntryTest, 0, 0, 0, 0, 0, 0, 0, 0, 0, 0, 0, 0, 0, 0,0.0,0.0,0.0,0.0,0.0,0.0,0.0,0.0,0.0,0.0,0.0,0.0,0.0,118,src\test\java\org\apache\aurora\scheduler\cron\CrontabEntryTest.java,0,0,0,0
org.apache.aurora.scheduler.cron.ExpectedPrediction, 0, 0, 0, 0, 0, 0, 0, 0, 0, 0, 0, 0, 0, 0,0.0,0.0,0.0,0.0,0.0,0.0,0.0,0.0,0.0,0.0,0.0,0.0,0.0,23,src\test\java\org\apache\aurora\scheduler\cron\ExpectedPrediction.java,0,0,0,0
org.apache.aurora.scheduler.cron.SanitizedCronJob, 0, 0, 0, 0, 0, 0, 0, 0, 0, 0, 0, 0, 0, 0,0.0,0.0,0.0,0.0,0.0,0.0,0.0,0.0,0.0,0.0,0.0,0.0,0.0,65,src\main\java\org\apache\aurora\scheduler\cron\SanitizedCronJob.java,0,0,0,0
org.apache.aurora.scheduler.cron.quartz.AuroraCronJob, 0, 0, 0, 0, 0, 0, 0, 1, 0, 0, 0, 0, 0, 1,0.0,0.0,0.0,0.0,0.0,0.0,0.0,0.25,0.0,0.0,0.0,0.0,0.0,150,src\main\java\org\apache\aurora\scheduler\cron\quartz\AuroraCronJob.java,5,1,3,12
org.apache.aurora.scheduler.cron.quartz.AuroraCronJobFactory, 0, 0, 0, 0, 0, 0, 0, 0, 0, 0, 0, 0, 0, 0,0.0,0.0,0.0,0.0,0.0,0.0,0.0,0.0,0.0,0.0,0.0,0.0,0.0,14,src\main\java\org\apache\aurora\scheduler\cron\quartz\AuroraCronJobFactory.java,0,0,0,0
org.apache.aurora.scheduler.cron.quartz.AuroraCronJobTest, 0, 0, 0, 0, 0, 0, 0, 0, 0, 0, 0, 0, 0, 0,0.0,0.0,0.0,0.0,0.0,0.0,0.0,1.0,0.0,0.0,0.0,0.0,0.0,113,src\test\java\org\apache\aurora\scheduler\cron\quartz\AuroraCronJobTest.java,7,1,6,20
org.apache.aurora.scheduler.cron.quartz.CronIT, 0, 0, 0, 0, 0, 0, 0, 0, 0, 0, 0, 0, 0, 0,0.0,0.0,0.0,0.0,0.0,0.0,0.0,0.6666666666666666,0.0,0.0,0.0,0.0,0.0,148,src\test\java\org\apache\aurora\scheduler\cron\quartz\CronIT.java,4,1,2,9
org.apache.aurora.scheduler.cron.quartz.CronPredictorImpl, 0, 0, 0, 0, 0, 0, 0, 0, 0, 0, 0, 0, 0, 0,0.0,0.0,0.0,0.0,0.0,0.0,0.0,0.0,0.0,0.0,0.0,0.0,0.0,14,src\main\java\org\apache\aurora\scheduler\cron\quartz\CronPredictorImpl.java,0,0,0,0
org.apache.aurora.scheduler.cron.quartz.CronPredictorImplTest, 0, 0, 0, 0, 0, 0, 0, 0, 0, 0, 0, 0, 0, 0,0.0,0.0,0.0,0.0,0.0,0.0,0.0,0.0,0.0,0.0,0.0,0.0,0.0,47,src\test\java\org\apache\aurora\scheduler\cron\quartz\CronPredictorImplTest.java,0,0,0,0
org.apache.aurora.scheduler.cron.quartz.CronSchedulerImpl, 0, 0, 0, 0, 0, 0, 0, 0, 0, 0, 0, 0, 0, 0,0.0,0.0,0.0,0.0,0.0,0.0,0.0,0.5,0.0,0.0,0.0,0.0,0.0,28,src\main\java\org\apache\aurora\scheduler\cron\quartz\CronSchedulerImpl.java,0,0,0,0
org.apache.aurora.scheduler.cron.quartz.Quartz, 0, 0, 0, 0, 0, 0, 0, 0, 0, 0, 0, 0, 0, 0,0.0,0.0,0.0,0.0,0.0,0.0,0.0,0.4,0.0,0.0,0.0,0.0,0.0,61,src\main\java\org\apache\aurora\scheduler\cron\quartz\Quartz.java,0,0,0,0
org.apache.aurora.scheduler.cron.quartz.QuartzTestUtil, 0, 0, 0, 0, 0, 0, 0, 0, 0, 0, 0, 0, 0, 0,0.0,0.0,0.0,0.0,0.0,0.0,0.0,0.0,0.0,0.0,0.0,0.0,0.0,39,src\test\java\org\apache\aurora\scheduler\cron\quartz\QuartzTestUtil.java,0,0,0,0
org.apache.aurora.scheduler.events.EventSink, 0, 0, 0, 0, 0, 0, 0, 0, 0, 0, 0, 0, 0, 0,0.0,0.0,0.0,0.0,0.0,0.0,0.0,0.0,0.0,0.0,0.0,0.0,0.0,39,src\main\java\org\apache\aurora\scheduler\events\EventSink.java,0,0,0,0
org.apache.aurora.scheduler.events.NotifyingSchedulingFilter, 0, 0, 0, 0, 0, 0, 0, 0, 0, 0, 0, 0, 0, 0,0.0,0.0,0.0,0.0,0.0,0.0,0.0,0.0,0.0,0.0,0.0,0.0,0.0,22,src\main\java\org\apache\aurora\scheduler\events\NotifyingSchedulingFilter.java,0,1,1,3
org.apache.aurora.scheduler.events.NotifyingSchedulingFilterTest, 0, 0, 0, 0, 0, 0, 0, 0, 0, 0, 0, 0, 0, 0,0.0,0.0,0.0,0.0,0.0,0.0,0.0,0.0,0.0,0.0,0.0,0.0,0.0,41,src\test\java\org\apache\aurora\scheduler\events\NotifyingSchedulingFilterTest.java,7,2,7,23
org.apache.aurora.scheduler.events.PubsubEvent, 0, 0, 0, 0, 0, 0, 0, 0, 0, 0, 0, 0, 0, 0,0.0,0.0,0.0,0.0,0.0,0.0,0.0,0.0,0.0,0.0,0.0,0.0,0.0,41,src\main\java\org\apache\aurora\scheduler\events\PubsubEvent.java,0,46,8,62
org.apache.aurora.scheduler.filter.AttributeFilter, 0, 0, 0, 0, 0, 0, 0, 1, 0, 0, 0, 0, 0, 1,0.0,0.0,0.0,0.0,0.0,0.0,0.0,1.0,0.0,0.0,0.0,0.0,0.0,19,src\main\java\org\apache\aurora\scheduler\filter\AttributeFilter.java,0,0,0,0
org.apache.aurora.scheduler.filter.ConstraintMatcher, 0, 0, 0, 0, 0, 0, 0, 1, 0, 0, 0, 0, 0, 1,0.0,0.0,0.0,0.0,0.0,0.0,0.0,1.0,0.0,0.0,0.0,0.0,0.0,61,src\main\java\org\apache\aurora\scheduler\filter\ConstraintMatcher.java,0,0,0,0
org.apache.aurora.scheduler.filter.SchedulingFilter, 0, 0, 0, 0, 0, 0, 0, 0, 0, 0, 0, 0, 0, 0,0.0,0.0,0.0,0.0,0.0,0.0,0.0,0.0,0.0,0.0,0.0,0.0,0.0,61,src\main\java\org\apache\aurora\scheduler\filter\SchedulingFilter.java,8,36,14,72
org.apache.aurora.scheduler.filter.SchedulingFilterImplTest, 0, 0, 0, 1, 0, 0, 0, 1, 0, 0, 0, 0, 0, 2,0.0,0.0,0.0,0.0,0.0,0.0,0.0,0.5,0.0,0.0,0.0,0.0,0.0,471,src\test\java\org\apache\aurora\scheduler\filter\SchedulingFilterImplTest.java,44,41,27,139
org.apache.aurora.scheduler.http.AbstractFilter, 0, 0, 0, 0, 0, 0, 0, 1, 0, 0, 0, 0, 0, 1,0.0,0.0,0.0,0.0,0.0,0.0,0.0,1.0,0.0,0.0,0.0,0.0,0.0,19,src\main\java\org\apache\aurora\scheduler\http\AbstractFilter.java,0,0,0,0
org.apache.aurora.scheduler.http.CorsFilter, 0, 0, 0, 0, 0, 0, 0, 1, 0, 0, 0, 0, 0, 1,0.0,0.0,0.0,0.0,0.0,0.0,0.0,0.5,0.0,0.0,0.0,0.0,0.0,30,src\main\java\org\apache\aurora\scheduler\http\CorsFilter.java,0,0,0,0
org.apache.aurora.scheduler.http.CorsFilterTest, 0, 0, 0, 0, 0, 0, 0, 0, 0, 0, 0, 0, 0, 0,0.0,0.0,0.0,0.0,0.0,0.0,0.0,1.0,0.0,0.0,0.0,0.0,0.0,22,src\test\java\org\apache\aurora\scheduler\http\CorsFilterTest.java,0,0,0,0
org.apache.aurora.scheduler.http.CronTest, 0, 0, 0, 0, 0, 0, 0, 0, 0, 0, 0, 0, 0, 0,0.0,0.0,0.0,0.0,0.0,0.0,0.0,1.0,0.0,0.0,0.0,0.0,0.0,21,src\test\java\org\apache\aurora\scheduler\http\CronTest.java,0,0,0,0
org.apache.aurora.scheduler.http.HttpStatsFilter, 0, 0, 0, 0, 0, 0, 0, 1, 0, 0, 0, 0, 0, 1,0.0,0.0,0.0,0.0,0.0,0.0,0.0,1.0,0.0,0.0,0.0,0.0,0.0,33,src\main\java\org\apache\aurora\scheduler\http\HttpStatsFilter.java,0,0,0,0
org.apache.aurora.scheduler.http.JerseyTemplateServlet, 0, 0, 0, 0, 0, 0, 0, 0, 0, 0, 0, 0, 0, 0,0.0,0.0,0.0,0.0,0.0,0.0,0.0,0.5,0.0,0.0,0.0,0.0,0.0,15,src\main\java\org\apache\aurora\scheduler\http\JerseyTemplateServlet.java,0,0,0,0
org.apache.aurora.scheduler.http.JettyServerModuleTest, 0, 0, 0, 0, 0, 0, 0, 0, 0, 0, 0, 0, 0, 0,0.0,0.0,0.0,0.0,0.0,0.0,0.0,0.0,0.0,0.0,0.0,0.0,0.0,81,src\test\java\org\apache\aurora\scheduler\http\JettyServerModuleTest.java,12,14,10,46
org.apache.aurora.scheduler.http.LeaderRedirectFilter, 0, 0, 0, 0, 0, 0, 0, 1, 0, 0, 0, 0, 0, 1,0.0,0.0,0.0,0.0,0.0,0.0,0.0,1.0,0.0,0.0,0.0,0.0,0.0,17,src\main\java\org\apache\aurora\scheduler\http\LeaderRedirectFilter.java,0,0,0,0
org.apache.aurora.scheduler.http.LeaderRedirectTest, 0, 0, 0, 0, 0, 0, 0, 0, 0, 0, 0, 0, 0, 0,0.0,0.0,0.0,0.0,0.0,0.0,0.0,0.0,0.0,0.0,0.0,0.0,0.0,127,src\test\java\org\apache\aurora\scheduler\http\LeaderRedirectTest.java,18,0,4,26
org.apache.aurora.scheduler.http.Locks, 0, 0, 0, 0, 0, 0, 0, 0, 0, 0, 0, 0, 0, 0,0.0,0.0,0.0,0.0,0.0,0.0,0.0,0.0,0.0,0.0,0.0,0.0,0.0,49,src\main\java\org\apache\aurora\scheduler\http\Locks.java,0,0,0,0
org.apache.aurora.scheduler.http.PendingTasks, 0, 0, 0, 0, 0, 0, 0, 0, 0, 0, 0, 0, 0, 0,0.0,0.0,0.0,0.0,0.0,0.0,0.0,1.0,0.0,0.0,0.0,0.0,0.0,12,src\main\java\org\apache\aurora\scheduler\http\PendingTasks.java,0,0,0,0
org.apache.aurora.scheduler.http.QuitCallbackTest, 0, 0, 0, 0, 0, 0, 0, 0, 0, 0, 0, 0, 0, 0,0.0,0.0,0.0,0.0,0.0,0.0,0.0,0.0,0.0,0.0,0.0,0.0,0.0,16,src\test\java\org\apache\aurora\scheduler\http\QuitCallbackTest.java,0,0,0,0
org.apache.aurora.scheduler.http.RequestLoggerTest, 0, 0, 0, 0, 0, 0, 0, 0, 0, 0, 0, 0, 0, 0,0.0,0.0,0.0,0.0,0.0,0.0,0.0,0.0,0.0,0.0,0.0,0.0,0.0,62,src\test\java\org\apache\aurora\scheduler\http\RequestLoggerTest.java,0,0,0,0
org.apache.aurora.scheduler.http.SchedulerAPIServlet, 0, 0, 0, 0, 0, 1, 0, 0, 0, 0, 0, 0, 0, 1,0.0,0.0,0.0,0.0,0.0,0.0,0.0,0.0,0.0,0.0,0.0,0.0,0.0,6,src\main\java\org\apache\aurora\scheduler\http\SchedulerAPIServlet.java,11,0,0,11
org.apache.aurora.scheduler.http.ServicesTest, 0, 0, 0, 0, 0, 0, 0, 0, 0, 0, 0, 0, 0, 0,0.0,0.0,0.0,0.0,0.0,0.0,0.0,0.0,0.0,0.0,0.0,0.0,0.0,43,src\test\java\org\apache\aurora\scheduler\http\ServicesTest.java,0,0,0,0
org.apache.aurora.scheduler.http.ServletFilterTest, 0, 0, 0, 0, 0, 0, 0, 0, 0, 0, 0, 0, 0, 0,0.0,0.0,0.0,0.0,0.0,0.0,0.0,0.0,0.0,0.0,0.0,0.0,0.0,69,src\test\java\org\apache\aurora\scheduler\http\ServletFilterTest.java,5,0,1,7
org.apache.aurora.scheduler.http.Slaves, 0, 0, 0, 0, 0, 0, 0, 0, 0, 0, 0, 0, 0, 0,0.0,0.0,0.0,0.0,0.0,0.0,0.0,0.0,0.0,0.0,0.0,0.0,0.0,70,src\main\java\org\apache\aurora\scheduler\http\Slaves.java,0,0,0,0
org.apache.aurora.scheduler.http.StructDump, 0, 0, 0, 0, 0, 0, 0, 1, 0, 0, 0, 0, 0, 1,0.0,0.0,0.0,0.0,0.0,0.0,0.0,0.5,0.0,0.0,0.0,0.0,0.0,66,src\main\java\org\apache\aurora\scheduler\http\StructDump.java,3,0,2,7
org.apache.aurora.scheduler.http.api.ApiBetaTest, 0, 0, 0, 0, 0, 0, 0, 0, 0, 0, 0, 0, 0, 0,0.0,0.0,0.0,0.0,0.0,0.0,0.0,0.0,0.0,0.0,0.0,0.0,0.0,131,src\test\java\org\apache\aurora\scheduler\http\api\ApiBetaTest.java,0,22,0,22
org.apache.aurora.scheduler.log.Log, 0, 0, 0, 0, 0, 0, 0, 0, 0, 0, 0, 0, 0, 0,0.0,0.0,0.0,0.0,0.0,0.0,0.0,0.0,0.0,0.0,0.0,0.0,0.0,131,src\main\java\org\apache\aurora\scheduler\log\Log.java,0,0,0,0
org.apache.aurora.scheduler.log.mesos.LogInterface, 0, 0, 0, 0, 0, 0, 0, 0, 0, 0, 0, 0, 0, 0,0.0,0.0,0.0,0.0,0.0,0.0,0.0,0.0,0.0,0.0,0.0,0.0,0.0,131,src\main\java\org\apache\aurora\scheduler\log\mesos\LogInterface.java,0,0,0,0
org.apache.aurora.scheduler.log.mesos.MesosLogStreamModule, 0, 0, 0, 0, 0, 0, 0, 0, 0, 0, 0, 0, 0, 0,0.0,0.0,0.0,0.0,0.0,0.0,0.0,0.0,0.0,0.0,0.0,0.0,0.0,120,src\main\java\org\apache\aurora\scheduler\log\mesos\MesosLogStreamModule.java,0,0,0,0
org.apache.aurora.scheduler.log.mesos.MesosLogTest, 0, 0, 0, 1, 0, 0, 0, 0, 0, 0, 0, 0, 0, 1,0.0,0.0,0.0,0.0,0.0,0.0,0.0,0.0,0.0,0.0,0.0,0.0,0.0,200,src\test\java\org\apache\aurora\scheduler\log\mesos\MesosLogTest.java,0,0,0,0
org.apache.aurora.scheduler.mesos.Driver, 0, 0, 0, 0, 0, 0, 0, 0, 0, 0, 0, 0, 0, 0,0.0,0.0,0.0,0.0,0.0,0.0,0.0,0.0,0.0,0.0,0.0,0.0,0.0,200,src\main\java\org\apache\aurora\scheduler\mesos\Driver.java,0,0,0,0
org.apache.aurora.scheduler.mesos.DriverFactory, 0, 0, 0, 0, 0, 0, 0, 0, 0, 0, 0, 0, 0, 0,0.0,0.0,0.0,0.0,0.0,0.0,0.0,0.0,0.0,0.0,0.0,0.0,0.0,200,src\main\java\org\apache\aurora\scheduler\mesos\DriverFactory.java,0,0,0,0
org.apache.aurora.scheduler.mesos.DriverFactoryImpl, 0, 0, 0, 0, 0, 0, 0, 1, 0, 0, 0, 0, 0, 1,0.0,0.0,0.0,0.0,0.0,0.0,0.0,0.0,0.0,0.0,0.0,0.0,0.0,14,src\main\java\org\apache\aurora\scheduler\mesos\DriverFactoryImpl.java,0,9,2,13
org.apache.aurora.scheduler.mesos.DriverSettings, 0, 0, 0, 0, 0, 0, 0, 1, 0, 0, 0, 0, 0, 1,0.0,0.0,0.0,0.3333333333333333,0.0,0.0,0.0,0.0,0.0,0.0,0.0,0.0,0.0,22,src\main\java\org\apache\aurora\scheduler\mesos\DriverSettings.java,0,0,0,0
org.apache.aurora.scheduler.mesos.ExecutorSettings, 0, 0, 0, 0, 0, 0, 0, 1, 0, 0, 0, 0, 0, 1,0.0,0.0,0.0,0.4,0.0,0.0,0.0,0.4,0.0,0.0,0.0,0.0,0.0,34,src\main\java\org\apache\aurora\scheduler\mesos\ExecutorSettings.java,0,58,3,64
org.apache.aurora.scheduler.mesos.LibMesosLoadingModule, 0, 0, 0, 0, 0, 0, 0, 0, 0, 0, 0, 0, 0, 0,0.0,0.0,0.0,0.0,0.0,0.0,0.0,0.0,0.0,0.0,0.0,0.0,0.0,6,src\main\java\org\apache\aurora\scheduler\mesos\LibMesosLoadingModule.java,0,0,0,0
org.apache.aurora.scheduler.mesos.MesosSchedulerImplTest, 0, 0, 0, 1, 0, 0, 0, 0, 0, 0, 0, 0, 0, 1,0.0,0.0,0.0,0.0,0.0,0.0,0.0,0.0,0.0,0.0,0.0,0.0,0.0,268,src\test\java\org\apache\aurora\scheduler\mesos\MesosSchedulerImplTest.java,13,94,49,205
org.apache.aurora.scheduler.mesos.MesosTaskFactoryImplTest, 0, 0, 0, 0, 0, 0, 0, 0, 0, 0, 0, 0, 0, 0,0.0,0.0,0.0,0.5,0.0,0.0,0.0,1.0,0.0,0.0,0.0,0.0,0.0,129,src\test\java\org\apache\aurora\scheduler\mesos\MesosTaskFactoryImplTest.java,4,23,9,45
org.apache.aurora.scheduler.mesos.Offers, 0, 0, 0, 0, 0, 0, 0, 1, 0, 0, 0, 0, 0, 1,0.0,0.0,0.0,1.0,0.0,0.0,0.0,1.0,0.0,0.0,0.0,0.0,0.0,31,src\test\java\org\apache\aurora\scheduler\mesos\Offers.java,0,0,0,0
org.apache.aurora.scheduler.mesos.SchedulerDriverModule, 0, 0, 0, 0, 0, 0, 0, 0, 0, 0, 0, 0, 0, 0,0.0,0.0,0.0,0.0,0.0,0.0,0.0,1.0,0.0,0.0,0.0,0.0,0.0,13,src\main\java\org\apache\aurora\scheduler\mesos\SchedulerDriverModule.java,0,10,1,12
org.apache.aurora.scheduler.mesos.SchedulerDriverServiceTest, 0, 0, 0, 0, 0, 0, 0, 0, 0, 0, 0, 0, 0, 0,0.0,0.0,0.0,0.0,0.0,0.0,0.0,0.5,0.0,0.0,0.0,0.0,0.0,96,src\test\java\org\apache\aurora\scheduler\mesos\SchedulerDriverServiceTest.java,0,0,0,0
org.apache.aurora.scheduler.mesos.TaskExecutors, 0, 0, 0, 0, 0, 0, 0, 0, 0, 0, 0, 0, 0, 0,0.0,0.0,0.0,0.0,0.0,0.0,0.0,1.0,0.0,0.0,0.0,0.0,0.0,17,src\test\java\org\apache\aurora\scheduler\mesos\TaskExecutors.java,5,3,9,26
org.apache.aurora.scheduler.metadata.MetadataModule, 0, 0, 0, 0, 0, 0, 0, 0, 0, 0, 0, 0, 0, 0,0.0,0.0,0.0,0.0,0.0,0.0,0.0,0.0,0.0,0.0,0.0,0.0,0.0,7,src\main\java\org\apache\aurora\scheduler\metadata\MetadataModule.java,0,0,0,0
org.apache.aurora.scheduler.metadata.NearestFit, 0, 0, 0, 0, 0, 0, 0, 0, 0, 0, 0, 0, 0, 0,0.0,0.0,0.0,0.0,0.0,0.0,0.0,0.0,0.0,0.0,0.0,0.0,0.0,78,src\main\java\org\apache\aurora\scheduler\metadata\NearestFit.java,15,10,11,47
org.apache.aurora.scheduler.metadata.NearestFitTest, 0, 0, 0, 0, 0, 0, 0, 0, 0, 0, 0, 0, 0, 0,0.0,0.0,0.0,0.0,0.0,0.0,0.0,0.0,0.0,0.0,0.0,0.0,0.0,80,src\test\java\org\apache\aurora\scheduler\metadata\NearestFitTest.java,17,13,21,72
org.apache.aurora.scheduler.quota.QuotaCheckResultTest, 0, 0, 0, 0, 0, 0, 0, 0, 0, 0, 0, 0, 0, 0,0.0,0.0,0.0,0.0,0.0,0.0,0.0,0.0,0.0,0.0,0.0,0.0,0.0,58,src\test\java\org\apache\aurora\scheduler\quota\QuotaCheckResultTest.java,0,0,0,0
org.apache.aurora.scheduler.quota.QuotaInfo, 0, 0, 0, 0, 0, 0, 0, 1, 0, 0, 0, 0, 0, 1,0.0,0.0,0.0,1.0,0.0,0.0,0.0,1.0,0.0,0.0,0.0,0.0,0.0,44,src\main\java\org\apache\aurora\scheduler\quota\QuotaInfo.java,0,0,0,0
org.apache.aurora.scheduler.quota.QuotaManagerImplTest, 0, 0, 0, 1, 0, 0, 0, 1, 0, 0, 0, 0, 0, 2,0.0,0.0,0.0,0.0,0.0,0.0,0.0,0.5,0.0,0.0,0.0,0.0,0.0,588,src\test\java\org\apache\aurora\scheduler\quota\QuotaManagerImplTest.java,5,113,69,256
org.apache.aurora.scheduler.quota.QuotaModule, 0, 0, 0, 0, 0, 0, 0, 0, 0, 0, 0, 0, 0, 0,0.0,0.0,0.0,0.0,0.0,0.0,0.0,0.0,0.0,0.0,0.0,0.0,0.0,8,src\main\java\org\apache\aurora\scheduler\quota\QuotaModule.java,0,0,0,0
org.apache.aurora.scheduler.sla.SlaModuleTest, 0, 0, 0, 0, 0, 0, 0, 0, 0, 0, 0, 0, 0, 0,0.0,0.0,0.0,0.0,0.0,0.0,0.0,0.5,0.0,0.0,0.0,0.0,0.0,60,src\test\java\org\apache\aurora\scheduler\sla\SlaModuleTest.java,0,0,0,0
org.apache.aurora.scheduler.sla.SlaUtil, 0, 0, 0, 0, 0, 0, 0, 0, 0, 0, 0, 0, 0, 0,0.0,0.0,0.0,0.0,0.0,0.0,0.0,0.0,0.0,0.0,0.0,0.0,0.0,14,src\main\java\org\apache\aurora\scheduler\sla\SlaUtil.java,0,0,0,0
org.apache.aurora.scheduler.state.LockManager, 0, 0, 0, 0, 0, 0, 0, 0, 0, 0, 0, 0, 0, 0,0.0,0.0,0.0,0.0,0.0,0.0,0.0,0.0,0.0,0.0,0.0,0.0,0.0,14,src\main\java\org\apache\aurora\scheduler\state\LockManager.java,0,0,0,0
org.apache.aurora.scheduler.state.LockManagerImpl, 0, 0, 0, 0, 0, 0, 0, 1, 0, 0, 0, 0, 0, 1,0.0,0.0,0.5,0.0,0.0,0.0,0.0,0.5,0.0,0.0,0.0,0.0,0.0,79,src\main\java\org\apache\aurora\scheduler\state\LockManagerImpl.java,0,0,0,0
org.apache.aurora.scheduler.state.LockManagerImplTest, 0, 0, 1, 0, 0, 0, 0, 0, 0, 0, 0, 0, 0, 1,0.0,0.0,0.0,0.0,0.0,0.0,0.0,0.75,0.0,0.0,0.0,0.0,0.0,133,src\test\java\org\apache\aurora\scheduler\state\LockManagerImplTest.java,1,1,1,4
org.apache.aurora.scheduler.state.MaintenanceControllerImplTest, 0, 0, 0, 0, 0, 0, 0, 1, 0, 0, 0, 0, 0, 1,0.0,0.0,0.0,0.0,0.0,0.0,0.0,0.3333333333333333,0.0,0.0,0.0,0.0,0.0,116,src\test\java\org\apache\aurora\scheduler\state\MaintenanceControllerImplTest.java,5,18,9,41
org.apache.aurora.scheduler.state.PubsubTestUtil, 0, 0, 0, 0, 0, 0, 0, 0, 0, 0, 0, 0, 0, 0,0.0,0.0,0.0,0.3333333333333333,0.0,0.0,0.0,0.6666666666666666,0.0,0.0,0.0,0.0,0.0,12,src\test\java\org\apache\aurora\scheduler\state\PubsubTestUtil.java,0,0,0,0
org.apache.aurora.scheduler.state.SideEffect, 0, 0, 0, 0, 0, 0, 0, 0, 0, 0, 0, 0, 0, 0,0.0,0.0,0.0,0.0,0.0,0.0,0.0,0.0,0.0,0.0,0.0,0.0,0.0,48,src\main\java\org\apache\aurora\scheduler\state\SideEffect.java,0,0,0,0
org.apache.aurora.scheduler.state.StateManager, 0, 0, 0, 0, 0, 0, 0, 0, 0, 0, 0, 0, 0, 0,0.0,0.0,0.0,0.0,0.0,0.0,0.0,0.0,0.0,0.0,0.0,0.0,0.0,48,src\main\java\org\apache\aurora\scheduler\state\StateManager.java,0,1,1,3
org.apache.aurora.scheduler.state.StateModule, 0, 0, 0, 0, 0, 0, 0, 0, 0, 0, 0, 0, 0, 0,0.0,0.0,0.0,0.0,0.0,0.0,0.0,0.0,0.0,0.0,0.0,0.0,0.0,21,src\main\java\org\apache\aurora\scheduler\state\StateModule.java,0,0,0,0
org.apache.aurora.scheduler.state.TaskAssignerImplTest, 0, 0, 0, 0, 0, 0, 0, 0, 0, 0, 0, 0, 0, 0,0.0,0.0,0.0,0.0,0.0,0.0,0.0,0.0,0.0,0.0,0.0,0.0,0.0,82,src\test\java\org\apache\aurora\scheduler\state\TaskAssignerImplTest.java,7,5,9,30
org.apache.aurora.scheduler.state.TransitionResult, 0, 0, 0, 0, 0, 0, 0, 0, 0, 0, 0, 0, 0, 0,0.0,0.0,0.0,0.0,0.0,0.0,0.0,0.0,0.0,0.0,0.0,0.0,0.0,34,src\main\java\org\apache\aurora\scheduler\state\TransitionResult.java,0,0,0,0
org.apache.aurora.scheduler.state.UUIDGenerator, 0, 0, 0, 0, 0, 0, 0, 0, 0, 0, 0, 0, 0, 0,0.0,0.0,0.0,0.0,0.0,0.0,0.0,0.0,0.0,0.0,0.0,0.0,0.0,34,src\main\java\org\apache\aurora\scheduler\state\UUIDGenerator.java,0,0,0,0
org.apache.aurora.scheduler.stats.AsyncStatsModule, 0, 0, 0, 0, 0, 0, 0, 0, 0, 0, 0, 0, 0, 0,0.0,0.0,0.0,0.0,0.0,0.0,0.0,0.0,0.0,0.0,0.0,0.0,0.0,103,src\main\java\org\apache\aurora\scheduler\stats\AsyncStatsModule.java,0,0,5,10
org.apache.aurora.scheduler.stats.CachedCounters, 0, 0, 0, 0, 0, 0, 0, 0, 0, 0, 0, 0, 0, 0,0.0,0.0,0.0,0.0,0.0,0.0,0.0,0.0,0.0,0.0,0.0,0.0,0.0,18,src\main\java\org\apache\aurora\scheduler\stats\CachedCounters.java,0,0,0,0
org.apache.aurora.scheduler.storage.AttributeStore, 0, 0, 0, 0, 0, 0, 0, 0, 0, 0, 0, 0, 0, 0,0.0,0.0,0.0,0.0,0.0,0.0,0.0,0.0,0.0,0.0,0.0,0.0,0.0,18,src\main\java\org\apache\aurora\scheduler\storage\AttributeStore.java,0,0,0,0
org.apache.aurora.scheduler.storage.CallOrderEnforcingStorage, 0, 0, 0, 0, 0, 0, 0, 0, 0, 0, 0, 0, 0, 0,0.0,0.0,0.0,0.0,0.0,0.0,0.0,0.0,0.0,0.0,0.0,0.0,0.0,87,src\main\java\org\apache\aurora\scheduler\storage\CallOrderEnforcingStorage.java,0,6,0,6
org.apache.aurora.scheduler.storage.DistributedSnapshotStore, 0, 0, 0, 0, 0, 0, 0, 0, 0, 0, 0, 0, 0, 0,0.0,0.0,0.0,0.0,0.0,0.0,0.0,0.0,0.0,0.0,0.0,0.0,0.0,87,src\main\java\org\apache\aurora\scheduler\storage\DistributedSnapshotStore.java,0,0,0,0
org.apache.aurora.scheduler.storage.JobStore, 0, 0, 0, 0, 0, 0, 0, 0, 0, 0, 0, 0, 0, 0,0.0,0.0,0.0,0.0,0.0,0.0,0.0,0.0,0.0,0.0,0.0,0.0,0.0,87,src\main\java\org\apache\aurora\scheduler\storage\JobStore.java,15,0,0,15
org.apache.aurora.scheduler.storage.JobUpdateStore, 0, 0, 0, 0, 0, 0, 0, 0, 0, 0, 0, 0, 0, 0,0.0,0.0,0.0,0.0,0.0,0.0,0.0,0.0,0.0,0.0,0.0,0.0,0.0,87,src\main\java\org\apache\aurora\scheduler\storage\JobUpdateStore.java,0,3,8,19
org.apache.aurora.scheduler.storage.LockStore, 0, 0, 0, 0, 0, 0, 0, 0, 0, 0, 0, 0, 0, 0,0.0,0.0,0.0,0.0,0.0,0.0,0.0,0.0,0.0,0.0,0.0,0.0,0.0,87,src\main\java\org\apache\aurora\scheduler\storage\LockStore.java,0,0,0,0
org.apache.aurora.scheduler.storage.SchedulerStore, 0, 0, 0, 0, 0, 0, 0, 0, 0, 0, 0, 0, 0, 0,0.0,0.0,0.0,0.0,0.0,0.0,0.0,0.0,0.0,0.0,0.0,0.0,0.0,87,src\main\java\org\apache\aurora\scheduler\storage\SchedulerStore.java,0,0,0,0
org.apache.aurora.scheduler.storage.SnapshotStore, 0, 0, 0, 0, 0, 0, 0, 0, 0, 0, 0, 0, 0, 0,0.0,0.0,0.0,0.0,0.0,0.0,0.0,0.0,0.0,0.0,0.0,0.0,0.0,87,src\main\java\org\apache\aurora\scheduler\storage\SnapshotStore.java,0,0,0,0
org.apache.aurora.scheduler.storage.Storage, 0, 0, 0, 0, 0, 0, 0, 0, 0, 0, 0, 0, 0, 0,0.0,0.0,0.0,0.0,0.0,0.0,0.0,0.0,0.0,0.0,0.0,0.0,0.0,87,src\main\java\org\apache\aurora\scheduler\storage\Storage.java,1,10,5,21
org.apache.aurora.scheduler.storage.StorageBackfillTest, 0, 0, 0, 0, 0, 0, 0, 1, 0, 0, 0, 0, 0, 1,0.0,0.0,0.0,0.25,0.0,0.0,0.0,0.5,0.0,0.0,0.0,0.0,0.0,176,src\test\java\org\apache\aurora\scheduler\storage\StorageBackfillTest.java,140,7,17,181
org.apache.aurora.scheduler.storage.TaskStore, 0, 0, 0, 0, 0, 0, 0, 0, 0, 0, 0, 0, 0, 0,0.0,0.0,0.0,0.0,0.0,0.0,0.0,0.0,0.0,0.0,0.0,0.0,0.0,176,src\main\java\org\apache\aurora\scheduler\storage\TaskStore.java,0,0,1,2
org.apache.aurora.scheduler.storage.backup.Recovery, 0, 0, 0, 0, 0, 0, 0, 0, 0, 0, 0, 0, 0, 0,0.0,0.0,0.0,0.0,0.0,0.0,0.0,0.0,0.0,0.0,0.0,0.0,0.0,176,src\main\java\org\apache\aurora\scheduler\storage\backup\Recovery.java,0,0,3,6
org.apache.aurora.scheduler.storage.backup.RecoveryTest, 0, 0, 0, 0, 0, 0, 0, 0, 0, 0, 0, 0, 0, 0,0.0,0.0,0.0,0.0,0.0,0.0,0.0,1.0,0.0,0.0,0.0,0.0,0.0,106,src\test\java\org\apache\aurora\scheduler\storage\backup\RecoveryTest.java,13,8,10,41
org.apache.aurora.scheduler.storage.backup.StorageBackup, 0, 0, 0, 0, 0, 0, 0, 0, 0, 0, 0, 0, 0, 0,0.0,0.0,0.0,0.0,0.0,0.0,0.0,0.0,0.0,0.0,0.0,0.0,0.0,106,src\main\java\org\apache\aurora\scheduler\storage\backup\StorageBackup.java,0,14,4,22
org.apache.aurora.scheduler.storage.backup.StorageBackupTest, 0, 0, 0, 0, 0, 0, 0, 0, 0, 0, 0, 0, 0, 0,0.0,0.0,0.0,0.0,0.0,0.0,0.0,0.0,0.0,0.0,0.0,0.0,0.0,112,src\test\java\org\apache\aurora\scheduler\storage\backup\StorageBackupTest.java,4,8,6,24
org.apache.aurora.scheduler.storage.backup.TemporaryStorage, 0, 0, 0, 0, 0, 0, 0, 0, 0, 0, 0, 0, 0, 0,0.0,0.0,0.0,0.0,0.0,0.0,0.0,0.0,0.0,0.0,0.0,0.0,0.0,112,src\main\java\org\apache\aurora\scheduler\storage\backup\TemporaryStorage.java,1,1,5,12
org.apache.aurora.scheduler.storage.db.AttributeMapper, 0, 0, 0, 0, 0, 0, 0, 0, 0, 0, 0, 0, 0, 0,0.0,0.0,0.0,0.0,0.0,0.0,0.0,0.0,0.0,0.0,0.0,0.0,0.0,112,src\main\java\org\apache\aurora\scheduler\storage\db\AttributeMapper.java,0,0,0,0
org.apache.aurora.scheduler.storage.db.DBJobUpdateStore, 0, 0, 0, 0, 0, 0, 0, 1, 0, 0, 0, 0, 0, 1,0.0,0.0,0.0,0.0,0.0,0.0,0.0,0.0,0.0,0.0,0.0,0.0,0.0,144,src\main\java\org\apache\aurora\scheduler\storage\db\DBJobUpdateStore.java,0,48,27,102
org.apache.aurora.scheduler.storage.db.DBJobUpdateStoreTest, 0, 0, 0, 1, 0, 0, 0, 1, 0, 0, 0, 0, 0, 2,0.0,0.0,0.0,0.0,0.0,0.0,0.0,0.5,0.0,0.0,0.0,0.0,0.0,692,src\test\java\org\apache\aurora\scheduler\storage\db\DBJobUpdateStoreTest.java,28,136,115,394
org.apache.aurora.scheduler.storage.db.DbAttributeStore, 0, 0, 0, 0, 0, 0, 0, 0, 0, 0, 0, 0, 0, 0,0.0,0.0,0.0,0.0,0.0,0.0,0.0,0.0,0.0,0.0,0.0,0.0,0.0,52,src\main\java\org\apache\aurora\scheduler\storage\db\DbAttributeStore.java,0,0,0,0
org.apache.aurora.scheduler.storage.db.DbAttributeStoreTest, 0, 0, 0, 0, 0, 0, 0, 0, 0, 0, 0, 0, 0, 0,0.0,0.0,0.0,0.0,0.0,0.0,0.0,0.0,0.0,0.0,0.0,0.0,0.0,112,src\test\java\org\apache\aurora\scheduler\storage\db\DbAttributeStoreTest.java,0,0,0,0
org.apache.aurora.scheduler.storage.db.DbLockStore, 0, 0, 0, 0, 0, 0, 0, 0, 0, 0, 0, 0, 0, 0,0.0,0.0,0.0,0.0,0.0,0.0,0.0,0.0,0.0,0.0,0.0,0.0,0.0,41,src\main\java\org\apache\aurora\scheduler\storage\db\DbLockStore.java,0,0,0,0
org.apache.aurora.scheduler.storage.db.DbLockStoreTest, 0, 0, 0, 0, 0, 0, 0, 0, 0, 0, 0, 0, 0, 0,0.0,0.0,0.0,0.0,0.0,0.0,0.0,0.5,0.0,0.0,0.0,0.0,0.0,147,src\test\java\org\apache\aurora\scheduler\storage\db\DbLockStoreTest.java,0,1,1,3
org.apache.aurora.scheduler.storage.db.DbSchedulerStore, 0, 0, 0, 0, 0, 0, 0, 0, 0, 0, 0, 0, 0, 0,0.0,0.0,0.0,0.0,0.0,0.0,0.0,0.0,0.0,0.0,0.0,0.0,0.0,17,src\main\java\org\apache\aurora\scheduler\storage\db\DbSchedulerStore.java,0,0,0,0
org.apache.aurora.scheduler.storage.db.DbSchedulerStoreTest, 0, 0, 0, 0, 0, 0, 0, 0, 0, 0, 0, 0, 0, 0,0.0,0.0,0.0,0.0,0.0,0.0,0.0,0.0,0.0,0.0,0.0,0.0,0.0,31,src\test\java\org\apache\aurora\scheduler\storage\db\DbSchedulerStoreTest.java,0,0,0,0
org.apache.aurora.scheduler.storage.db.DbStorage, 0, 0, 0, 0, 0, 0, 0, 1, 0, 0, 0, 0, 0, 1,0.0,0.0,0.0,0.0,0.0,0.0,0.0,0.0,0.0,0.0,0.0,0.0,0.0,112,src\main\java\org\apache\aurora\scheduler\storage\db\DbStorage.java,6,33,10,59
org.apache.aurora.scheduler.storage.db.DbUtil, 0, 0, 0, 0, 0, 0, 0, 0, 0, 0, 0, 0, 0, 0,0.0,0.0,0.0,0.25,0.0,0.0,0.0,0.25,0.0,0.0,0.0,0.0,0.0,10,src\main\java\org\apache\aurora\scheduler\storage\db\DbUtil.java,0,29,0,29
org.apache.aurora.scheduler.storage.db.EnumValueMapper, 0, 0, 0, 0, 0, 0, 0, 0, 0, 0, 0, 0, 0, 0,0.0,0.0,0.0,0.0,0.0,0.0,0.0,0.0,0.0,0.0,0.0,0.0,0.0,10,src\main\java\org\apache\aurora\scheduler\storage\db\EnumValueMapper.java,0,0,0,0
org.apache.aurora.scheduler.storage.db.FrameworkIdMapper, 0, 0, 0, 0, 0, 0, 0, 0, 0, 0, 0, 0, 0, 0,0.0,0.0,0.0,0.0,0.0,0.0,0.0,0.0,0.0,0.0,0.0,0.0,0.0,10,src\main\java\org\apache\aurora\scheduler\storage\db\FrameworkIdMapper.java,0,0,0,0
org.apache.aurora.scheduler.storage.db.InsertResult, 0, 0, 0, 0, 0, 0, 0, 0, 0, 0, 0, 0, 0, 0,0.0,0.0,0.0,0.0,0.0,0.0,0.0,1.0,0.0,0.0,0.0,0.0,0.0,14,src\main\java\org\apache\aurora\scheduler\storage\db\InsertResult.java,0,0,0,0
org.apache.aurora.scheduler.storage.db.JobInstanceUpdateEventMapper, 0, 0, 0, 0, 0, 0, 0, 0, 0, 0, 0, 0, 0, 0,0.0,0.0,0.0,0.0,0.0,0.0,0.0,0.0,0.0,0.0,0.0,0.0,0.0,14,src\main\java\org\apache\aurora\scheduler\storage\db\JobInstanceUpdateEventMapper.java,0,1,1,3
org.apache.aurora.scheduler.storage.db.JobKeyMapper, 0, 0, 0, 0, 0, 0, 0, 0, 0, 0, 0, 0, 0, 0,0.0,0.0,0.0,0.0,0.0,0.0,0.0,0.0,0.0,0.0,0.0,0.0,0.0,14,src\main\java\org\apache\aurora\scheduler\storage\db\JobKeyMapper.java,0,0,0,0
org.apache.aurora.scheduler.storage.db.JobUpdateDetailsMapper, 0, 0, 0, 0, 0, 0, 0, 0, 0, 0, 0, 0, 0, 0,0.0,0.0,0.0,0.0,0.0,0.0,0.0,0.0,0.0,0.0,0.0,0.0,0.0,14,src\main\java\org\apache\aurora\scheduler\storage\db\JobUpdateDetailsMapper.java,4,5,11,31
org.apache.aurora.scheduler.storage.db.JobUpdateEventMapper, 0, 0, 0, 0, 0, 0, 0, 0, 0, 0, 0, 0, 0, 0,0.0,0.0,0.0,0.0,0.0,0.0,0.0,0.0,0.0,0.0,0.0,0.0,0.0,14,src\main\java\org\apache\aurora\scheduler\storage\db\JobUpdateEventMapper.java,0,1,1,3
org.apache.aurora.scheduler.storage.db.LockKeyMapper, 0, 0, 0, 0, 0, 0, 0, 0, 0, 0, 0, 0, 0, 0,0.0,0.0,0.0,0.0,0.0,0.0,0.0,0.0,0.0,0.0,0.0,0.0,0.0,14,src\main\java\org\apache\aurora\scheduler\storage\db\LockKeyMapper.java,0,0,0,0
org.apache.aurora.scheduler.storage.db.LockMapper, 0, 0, 0, 0, 0, 0, 0, 0, 0, 0, 0, 0, 0, 0,0.0,0.0,0.0,0.0,0.0,0.0,0.0,0.0,0.0,0.0,0.0,0.0,0.0,14,src\main\java\org\apache\aurora\scheduler\storage\db\LockMapper.java,0,0,0,0
org.apache.aurora.scheduler.storage.db.MigrationModule, 0, 0, 0, 0, 0, 0, 0, 0, 0, 0, 0, 0, 0, 0,0.0,0.0,0.0,0.0,0.0,0.0,0.0,1.0,0.0,0.0,0.0,0.0,0.0,19,src\main\java\org\apache\aurora\scheduler\storage\db\MigrationModule.java,28,0,0,28
org.apache.aurora.scheduler.storage.db.QuotaMapper, 0, 0, 0, 0, 0, 0, 0, 0, 0, 0, 0, 0, 0, 0,0.0,0.0,0.0,0.0,0.0,0.0,0.0,0.0,0.0,0.0,0.0,0.0,0.0,19,src\main\java\org\apache\aurora\scheduler\storage\db\QuotaMapper.java,0,0,0,0
org.apache.aurora.scheduler.storage.db.typehandlers.AbstractTEnumTypeHandler, 0, 0, 0, 0, 0, 0, 0, 1, 0, 0, 0, 0, 0, 1,0.0,0.0,0.0,0.0,0.0,0.0,0.0,0.0,0.0,0.0,0.0,0.0,0.0,20,src\main\java\org\apache\aurora\scheduler\storage\db\typehandlers\AbstractTEnumTypeHandler.java,0,0,0,0
org.apache.aurora.scheduler.storage.db.typehandlers.JobUpdateActionTypeHandler, 0, 0, 0, 0, 0, 0, 0, 0, 0, 0, 0, 0, 0, 0,0.0,0.0,0.0,0.0,0.0,0.0,0.0,1.0,0.0,0.0,0.0,0.0,0.0,6,src\main\java\org\apache\aurora\scheduler\storage\db\typehandlers\JobUpdateActionTypeHandler.java,0,0,0,0
org.apache.aurora.scheduler.storage.db.typehandlers.JobUpdateStatusTypeHandler, 0, 0, 0, 0, 0, 0, 0, 0, 0, 0, 0, 0, 0, 0,0.0,0.0,0.0,0.0,0.0,0.0,0.0,1.0,0.0,0.0,0.0,0.0,0.0,6,src\main\java\org\apache\aurora\scheduler\storage\db\typehandlers\JobUpdateStatusTypeHandler.java,0,0,0,0
org.apache.aurora.scheduler.storage.db.typehandlers.MaintenanceModeTypeHandler, 0, 0, 0, 0, 0, 0, 0, 0, 0, 0, 0, 0, 0, 0,0.0,0.0,0.0,0.0,0.0,0.0,0.0,1.0,0.0,0.0,0.0,0.0,0.0,6,src\main\java\org\apache\aurora\scheduler\storage\db\typehandlers\MaintenanceModeTypeHandler.java,0,0,0,0
org.apache.aurora.scheduler.storage.db.typehandlers.TaskConfigTypeHandler, 0, 0, 0, 0, 0, 0, 0, 1, 0, 0, 0, 0, 0, 1,0.0,0.0,0.0,0.0,0.0,0.0,0.0,0.0,0.0,0.0,0.0,0.0,0.0,33,src\main\java\org\apache\aurora\scheduler\storage\db\typehandlers\TaskConfigTypeHandler.java,0,0,0,0
org.apache.aurora.scheduler.storage.db.typehandlers.TypeHandlers, 0, 0, 0, 0, 0, 0, 0, 0, 0, 0, 0, 0, 0, 0,0.0,0.0,0.0,0.0,0.0,0.0,0.0,0.0,0.0,0.0,0.0,0.0,0.0,11,src\main\java\org\apache\aurora\scheduler\storage\db\typehandlers\TypeHandlers.java,0,0,0,0
org.apache.aurora.scheduler.storage.db.views.LockRow, 0, 0, 0, 0, 0, 0, 0, 0, 0, 0, 0, 0, 0, 0,0.0,0.0,0.0,0.0,0.0,0.0,0.0,0.0,0.0,0.0,0.0,0.0,0.0,11,src\main\java\org\apache\aurora\scheduler\storage\db\views\LockRow.java,0,0,0,0
org.apache.aurora.scheduler.storage.entities.IHostAttributesTest, 0, 0, 0, 0, 0, 0, 0, 0, 0, 0, 0, 0, 0, 0,0.0,0.0,0.0,0.0,0.0,0.0,0.0,0.0,0.0,0.0,0.0,0.0,0.0,18,src\test\java\org\apache\aurora\scheduler\storage\entities\IHostAttributesTest.java,0,0,0,0
org.apache.aurora.scheduler.storage.log.LogManager, 0, 0, 0, 0, 0, 0, 0, 0, 0, 0, 0, 0, 0, 0,0.0,0.0,0.0,1.0,0.0,0.0,0.0,0.0,0.0,0.0,0.0,0.0,0.0,30,src\main\java\org\apache\aurora\scheduler\storage\log\LogManager.java,0,0,0,0
org.apache.aurora.scheduler.storage.log.LogStorageModule, 0, 0, 0, 0, 0, 0, 0, 0, 0, 0, 0, 0, 0, 0,0.0,0.0,0.0,0.0,0.0,0.0,0.0,0.0,0.0,0.0,0.0,0.0,0.0,46,src\main\java\org\apache\aurora\scheduler\storage\log\LogStorageModule.java,0,0,0,0
org.apache.aurora.scheduler.storage.log.LogStorageTest, 0, 0, 0, 1, 0, 0, 0, 0, 0, 0, 0, 0, 0, 1,0.0,0.0,0.0,0.0,0.0,0.0,0.0,0.0,0.0,0.0,0.0,0.0,0.0,723,src\test\java\org\apache\aurora\scheduler\storage\log\LogStorageTest.java,4,69,26,125
org.apache.aurora.scheduler.storage.log.SnapshotStoreImplTest, 0, 0, 0, 0, 0, 0, 0, 0, 0, 0, 0, 0, 0, 0,0.0,0.0,0.0,0.0,0.0,0.0,0.0,0.5,0.0,0.0,0.0,0.0,0.0,102,src\test\java\org\apache\aurora\scheduler\storage\log\SnapshotStoreImplTest.java,5,18,13,49
org.apache.aurora.scheduler.storage.log.StreamManager, 0, 0, 0, 0, 0, 0, 0, 0, 0, 0, 0, 0, 0, 0,0.0,0.0,0.0,0.0,0.0,0.0,0.0,0.0,0.0,0.0,0.0,0.0,0.0,102,src\main\java\org\apache\aurora\scheduler\storage\log\StreamManager.java,0,0,0,0
org.apache.aurora.scheduler.storage.log.StreamManagerFactory, 0, 0, 0, 0, 0, 0, 0, 0, 0, 0, 0, 0, 0, 0,0.0,0.0,0.0,0.0,0.0,0.0,0.0,0.0,0.0,0.0,0.0,0.0,0.0,102,src\main\java\org\apache\aurora\scheduler\storage\log\StreamManagerFactory.java,0,0,0,0
org.apache.aurora.scheduler.storage.log.StreamTransaction, 0, 0, 0, 0, 0, 0, 0, 0, 0, 0, 0, 0, 0, 0,0.0,0.0,0.0,0.0,0.0,0.0,0.0,0.0,0.0,0.0,0.0,0.0,0.0,102,src\main\java\org\apache\aurora\scheduler\storage\log\StreamTransaction.java,0,0,0,0
org.apache.aurora.scheduler.storage.mem.InternerTest, 0, 0, 0, 0, 0, 0, 0, 0, 0, 0, 0, 0, 0, 0,0.0,0.0,0.0,0.0,0.0,0.0,0.0,0.0,0.0,0.0,0.0,0.0,0.0,74,src\test\java\org\apache\aurora\scheduler\storage\mem\InternerTest.java,0,0,0,0
org.apache.aurora.scheduler.storage.mem.MemJobStoreTest, 0, 0, 0, 0, 0, 0, 0, 0, 0, 0, 0, 0, 0, 0,0.0,0.0,0.0,0.0,0.0,0.0,0.0,1.0,0.0,0.0,0.0,0.0,0.0,61,src\test\java\org\apache\aurora\scheduler\storage\mem\MemJobStoreTest.java,72,0,0,72
org.apache.aurora.scheduler.storage.mem.MemStorage, 0, 0, 0, 0, 0, 0, 0, 1, 0, 0, 0, 0, 0, 1,0.0,0.0,0.1111111111111111,0.3333333333333333,0.0,0.0,0.0,0.3333333333333333,0.0,0.0,0.0,0.0,0.0,90,src\main\java\org\apache\aurora\scheduler\storage\mem\MemStorage.java,113,0,0,113
org.apache.aurora.scheduler.storage.mem.MemStorageModule, 0, 0, 0, 0, 0, 0, 0, 0, 0, 0, 0, 0, 0, 0,0.0,0.0,0.0,0.0,0.0,0.0,0.0,1.0,0.0,0.0,0.0,0.0,0.0,25,src\main\java\org\apache\aurora\scheduler\storage\mem\MemStorageModule.java,35,0,0,35
org.apache.aurora.scheduler.storage.mem.MemStorageTest, 0, 0, 0, 0, 0, 0, 0, 0, 0, 0, 0, 0, 0, 0,0.0,0.0,0.0,0.0,0.0,0.0,0.0,1.0,0.0,0.0,0.0,0.0,0.0,175,src\test\java\org\apache\aurora\scheduler\storage\mem\MemStorageTest.java,210,0,0,210
org.apache.aurora.scheduler.storage.mem.Util, 0, 0, 0, 0, 0, 0, 0, 0, 0, 0, 0, 0, 0, 0,0.0,0.0,0.0,0.0,0.0,0.0,0.0,0.0,0.0,0.0,0.0,0.0,0.0,17,src\main\java\org\apache\aurora\scheduler\storage\mem\Util.java,0,0,0,0
org.apache.aurora.scheduler.storage.testing.StorageTestUtil, 0, 0, 0, 0, 0, 0, 0, 0, 0, 0, 0, 0, 0, 0,0.0,0.0,0.047619047619047616,0.2857142857142857,0.0,0.0,0.0,0.2857142857142857,0.0,0.0,0.0,0.0,0.0,70,src\test\java\org\apache\aurora\scheduler\storage\testing\StorageTestUtil.java,0,0,5,10
org.apache.aurora.scheduler.testing.FakeScheduledExecutor, 0, 0, 0, 0, 0, 0, 0, 1, 0, 0, 0, 0, 0, 1,0.0,0.0,0.0,0.0,0.0,0.0,0.0,0.3333333333333333,0.0,0.0,0.0,0.0,0.0,89,src\test\java\org\apache\aurora\scheduler\testing\FakeScheduledExecutor.java,0,13,0,13
org.apache.aurora.scheduler.thrift.ThriftModule, 0, 0, 0, 0, 0, 0, 0, 0, 0, 0, 0, 0, 0, 0,0.0,0.0,0.0,0.0,0.0,0.0,0.0,0.0,0.0,0.0,0.0,0.0,0.0,12,src\main\java\org\apache\aurora\scheduler\thrift\ThriftModule.java,7,9,2,20
org.apache.aurora.scheduler.thrift.Util, 0, 0, 0, 0, 0, 0, 0, 1, 0, 0, 0, 0, 0, 1,0.0,0.0,0.0,0.0,0.0,0.0,0.0,0.0,0.0,0.0,0.0,0.0,0.0,23,src\main\java\org\apache\aurora\scheduler\thrift\Util.java,30,0,0,30
org.apache.aurora.scheduler.thrift.aop.FeatureToggleInterceptor, 0, 0, 0, 0, 0, 0, 0, 0, 0, 0, 0, 0, 0, 0,0.0,0.0,0.0,0.0,0.0,0.0,0.0,1.0,0.0,0.0,0.0,0.0,0.0,15,src\main\java\org\apache\aurora\scheduler\thrift\aop\FeatureToggleInterceptor.java,0,0,3,6
org.apache.aurora.scheduler.thrift.aop.FeatureToggleInterceptorTest, 0, 0, 0, 0, 0, 0, 0, 0, 0, 0, 0, 0, 0, 0,0.0,0.0,0.0,0.0,0.0,0.0,0.0,0.0,0.0,0.0,0.0,0.0,0.0,39,src\test\java\org\apache\aurora\scheduler\thrift\aop\FeatureToggleInterceptorTest.java,1,0,4,9
org.apache.aurora.scheduler.thrift.aop.ForwardingThrift, 0, 0, 0, 1, 0, 0, 0, 1, 0, 0, 0, 0, 0, 2,0.0,0.0,0.0,0.0,0.0,0.0,0.0,0.0,0.0,0.0,0.0,0.0,0.0,199,src\test\java\org\apache\aurora\scheduler\thrift\aop\ForwardingThrift.java,1,3,15,34
org.apache.aurora.scheduler.thrift.aop.MockDecoratedThrift, 0, 0, 0, 0, 0, 0, 0, 0, 0, 0, 0, 0, 0, 0,0.0,0.0,0.0,1.0,0.0,0.0,0.0,1.0,0.0,0.0,0.0,0.0,0.0,14,src\test\java\org\apache\aurora\scheduler\thrift\aop\MockDecoratedThrift.java,0,1,4,9
org.apache.aurora.scheduler.thrift.aop.ServerInfoInterceptor, 0, 0, 0, 0, 0, 0, 0, 0, 0, 0, 0, 0, 0, 0,0.0,0.0,0.0,0.0,0.0,0.0,0.0,0.0,0.0,0.0,0.0,0.0,0.0,10,src\main\java\org\apache\aurora\scheduler\thrift\aop\ServerInfoInterceptor.java,0,0,0,0
org.apache.aurora.scheduler.thrift.aop.ServerInfoInterceptorTest, 0, 0, 0, 0, 0, 0, 0, 0, 0, 0, 0, 0, 0, 0,0.0,0.0,0.0,0.0,0.0,0.0,0.0,0.0,0.0,0.0,0.0,0.0,0.0,45,src\test\java\org\apache\aurora\scheduler\thrift\aop\ServerInfoInterceptorTest.java,1,0,4,9
org.apache.aurora.scheduler.thrift.aop.ThriftStatsExporterInterceptor, 0, 0, 0, 0, 0, 0, 0, 0, 0, 0, 0, 0, 0, 0,0.0,0.0,0.0,0.0,0.0,0.0,0.0,0.0,0.0,0.0,0.0,0.0,0.0,21,src\main\java\org\apache\aurora\scheduler\thrift\aop\ThriftStatsExporterInterceptor.java,0,0,0,0
org.apache.aurora.scheduler.thrift.aop.ThriftStatsExporterInterceptorTest, 0, 0, 0, 0, 0, 0, 0, 0, 0, 0, 0, 0, 0, 0,0.0,0.0,0.0,0.0,0.0,0.0,0.0,0.0,0.0,0.0,0.0,0.0,0.0,36,src\test\java\org\apache\aurora\scheduler\thrift\aop\ThriftStatsExporterInterceptorTest.java,1,0,4,9
org.apache.aurora.scheduler.updater.AddTaskTest, 0, 0, 0, 0, 0, 0, 0, 0, 0, 0, 0, 0, 0, 0,0.0,0.0,0.0,0.0,0.0,0.0,0.0,0.0,0.0,0.0,0.0,0.0,0.0,28,src\test\java\org\apache\aurora\scheduler\updater\AddTaskTest.java,0,0,0,0
org.apache.aurora.scheduler.updater.EnumsTest, 0, 0, 0, 0, 0, 0, 0, 0, 0, 0, 0, 0, 0, 0,0.0,0.0,0.0,0.0,0.0,0.0,0.0,0.0,0.0,0.0,0.0,0.0,0.0,32,src\test\java\org\apache\aurora\scheduler\updater\EnumsTest.java,0,0,0,0
org.apache.aurora.scheduler.updater.InstanceStateProvider, 0, 0, 0, 0, 0, 0, 0, 0, 0, 0, 0, 0, 0, 0,0.0,0.0,0.0,0.0,0.0,0.0,0.0,0.0,0.0,0.0,0.0,0.0,0.0,32,src\main\java\org\apache\aurora\scheduler\updater\InstanceStateProvider.java,0,0,0,0
org.apache.aurora.scheduler.updater.InstanceUpdaterTest, 0, 0, 0, 0, 0, 0, 0, 0, 0, 0, 0, 0, 0, 0,0.0,0.0,0.0,0.0,0.0,0.0,0.0,0.0,0.0,0.0,0.0,0.0,0.0,191,src\test\java\org\apache\aurora\scheduler\updater\InstanceUpdaterTest.java,11,35,21,88
org.apache.aurora.scheduler.updater.JobDiffTest, 0, 0, 0, 0, 0, 0, 0, 0, 0, 0, 0, 0, 0, 0,0.0,0.0,0.0,0.0,0.0,0.0,0.0,1.0,0.0,0.0,0.0,0.0,0.0,108,src\test\java\org\apache\aurora\scheduler\updater\JobDiffTest.java,0,0,0,0
org.apache.aurora.scheduler.updater.JobUpdateController, 0, 0, 0, 0, 0, 0, 0, 0, 0, 0, 0, 0, 0, 0,0.0,0.0,0.0,0.0,0.0,0.0,0.0,0.0,0.0,0.0,0.0,0.0,0.0,108,src\main\java\org\apache\aurora\scheduler\updater\JobUpdateController.java,1,38,9,57
org.apache.aurora.scheduler.updater.JobUpdateEventSubscriber, 0, 0, 0, 0, 0, 0, 0, 0, 0, 0, 0, 0, 0, 0,0.0,0.0,0.0,0.0,0.0,0.0,0.0,0.0,0.0,0.0,0.0,0.0,0.0,49,src\main\java\org\apache\aurora\scheduler\updater\JobUpdateEventSubscriber.java,0,0,0,0
org.apache.aurora.scheduler.updater.JobUpdateEventSubscriberTest, 0, 0, 0, 0, 0, 0, 0, 0, 0, 0, 0, 0, 0, 0,0.0,0.0,0.0,0.0,0.0,0.0,0.0,0.0,0.0,0.0,0.0,0.0,0.0,66,src\test\java\org\apache\aurora\scheduler\updater\JobUpdateEventSubscriberTest.java,0,0,0,0
org.apache.aurora.scheduler.updater.SideEffect, 0, 0, 0, 0, 0, 0, 0, 0, 0, 0, 0, 0, 0, 0,0.0,0.0,0.0,0.0,0.0,0.0,0.0,0.0,0.0,0.0,0.0,0.0,0.0,48,src\main\java\org\apache\aurora\scheduler\updater\SideEffect.java,0,10,1,12
org.apache.aurora.scheduler.updater.StateEvaluator, 0, 0, 0, 0, 0, 0, 0, 0, 0, 0, 0, 0, 0, 0,0.0,0.0,0.0,0.0,0.0,0.0,0.0,0.0,0.0,0.0,0.0,0.0,0.0,48,src\main\java\org\apache\aurora\scheduler\updater\StateEvaluator.java,1,17,8,34
org.apache.aurora.scheduler.updater.TaskUtil, 0, 0, 0, 0, 0, 0, 0, 0, 0, 0, 0, 0, 0, 0,0.0,0.0,0.0,0.0,0.0,0.0,0.0,0.0,0.0,0.0,0.0,0.0,0.0,24,src\test\java\org\apache\aurora\scheduler\updater\TaskUtil.java,41,0,0,41
org.apache.aurora.scheduler.updater.UpdateConfigurationException, 0, 0, 0, 0, 0, 1, 0, 0, 0, 0, 0, 0, 0, 1,0.0,0.0,0.0,0.0,0.0,0.0,0.0,0.0,0.0,0.0,0.0,0.0,0.0,5,src\main\java\org\apache\aurora\scheduler\updater\UpdateConfigurationException.java,0,0,0,0
org.apache.aurora.scheduler.updater.UpdateFactory, 0, 0, 0, 0, 0, 0, 0, 0, 0, 0, 0, 0, 0, 0,0.0,0.0,0.0,0.0,0.0,0.0,0.0,0.0,0.0,0.0,0.0,0.0,0.0,5,src\main\java\org\apache\aurora\scheduler\updater\UpdateFactory.java,8,0,1,10
org.apache.aurora.scheduler.updater.UpdateFactoryImplTest, 0, 0, 0, 0, 0, 0, 0, 0, 0, 0, 0, 0, 0, 0,0.0,0.0,0.0,0.0,0.0,0.0,0.0,0.0,0.0,0.0,0.0,0.0,0.0,53,src\test\java\org\apache\aurora\scheduler\updater\UpdateFactoryImplTest.java,0,0,0,0
org.apache.aurora.scheduler.updater.UpdateStateException, 0, 0, 0, 0, 0, 0, 0, 0, 0, 0, 0, 0, 0, 0,0.0,0.0,0.0,0.0,0.0,0.0,0.0,0.0,0.0,0.0,0.0,0.0,0.0,8,src\main\java\org\apache\aurora\scheduler\updater\UpdateStateException.java,0,0,0,0
org.apache.aurora.scheduler.updater.UpdaterModule, 0, 0, 0, 0, 0, 0, 0, 0, 0, 0, 0, 0, 0, 0,0.0,0.0,0.0,0.0,0.0,0.0,0.0,0.0,0.0,0.0,0.0,0.0,0.0,28,src\main\java\org\apache\aurora\scheduler\updater\UpdaterModule.java,0,3,0,3
org.apache.aurora.scheduler.updater.strategy.ActiveLimitedStrategy, 0, 0, 0, 0, 0, 0, 0, 0, 0, 0, 0, 0, 0, 0,0.0,0.0,0.0,0.0,0.0,0.0,0.0,0.0,0.0,0.0,0.0,0.0,0.0,17,src\main\java\org\apache\aurora\scheduler\updater\strategy\ActiveLimitedStrategy.java,0,0,0,0
org.apache.aurora.scheduler.updater.strategy.BatchStrategy, 0, 0, 0, 0, 0, 0, 0, 0, 0, 0, 0, 0, 0, 0,0.0,0.0,0.0,0.0,0.0,0.0,0.0,0.0,0.0,0.0,0.0,0.0,0.0,9,src\main\java\org\apache\aurora\scheduler\updater\strategy\BatchStrategy.java,0,0,0,0
org.apache.aurora.scheduler.updater.strategy.BatchStrategyTest, 0, 0, 0, 0, 0, 0, 0, 0, 0, 0, 0, 0, 0, 0,0.0,0.0,0.0,0.0,0.0,0.0,0.0,0.0,0.0,0.0,0.0,0.0,0.0,41,src\test\java\org\apache\aurora\scheduler\updater\strategy\BatchStrategyTest.java,0,0,0,0
org.apache.aurora.scheduler.updater.strategy.QueueStrategy, 0, 0, 0, 0, 0, 0, 0, 0, 0, 0, 0, 0, 0, 0,0.0,0.0,0.0,0.0,0.0,0.0,0.0,0.0,0.0,0.0,0.0,0.0,0.0,9,src\main\java\org\apache\aurora\scheduler\updater\strategy\QueueStrategy.java,0,0,0,0
org.apache.aurora.scheduler.updater.strategy.QueueStrategyTest, 0, 0, 0, 0, 0, 0, 0, 0, 0, 0, 0, 0, 0, 0,0.0,0.0,0.0,0.0,0.0,0.0,0.0,0.0,0.0,0.0,0.0,0.0,0.0,38,src\test\java\org\apache\aurora\scheduler\updater\strategy\QueueStrategyTest.java,0,0,0,0
org.apache.aurora.scheduler.updater.strategy.UpdateStrategy, 0, 0, 0, 0, 0, 0, 0, 0, 0, 0, 0, 0, 0, 0,0.0,0.0,0.0,0.0,0.0,0.0,0.0,0.0,0.0,0.0,0.0,0.0,0.0,38,src\main\java\org\apache\aurora\scheduler\updater\strategy\UpdateStrategy.java,0,0,0,0
,0.0,0.0,0.0,0.0,0.0,0.0,0.0,0.0,0.0,0.0,0.0,0.0,0.0,38,src\jmh\java\org\apache\aurora\benchmark\fakes\FakeDriver.java,0,24,0,24
