ClassName,AntiSingleton,Blob,ClassDataShouldBePrivate,ComplexClass,LargeClass,LazyClass,LongMethod,LongParameterList,MessageChains,RefusedParentBequest,SpaghettiCode,SpeculativeGenerality,SwissArmyKnife,NumOfAPs,AntiSingleton,Blob,ClassDataShouldBePrivate,ComplexClass,LargeClass,LazyClass,LongMethod,LongParameterList,MessageChains,RefusedParentBequest,SpaghettiCode,SpeculativeGenerality,SwissArmyKnife,LOC,name,deleted,added,changed,all
MyRealm, 0, 0, 0, 0, 0, 0, 0, 0, 0, 0, 0, 0, 0, 0,0.0,0.0,0.0,0.5,0.0,0.0,0.0,0.0,0.0,0.0,0.0,0.0,0.0,20,samples\standalone\src\main\java\MyRealm.java,0,0,0,0
Quickstart, 0, 0, 0, 0, 0, 0, 0, 0, 0, 0, 0, 0, 0, 0,0.0,0.0,0.0,0.0,0.0,0.0,0.0,0.0,0.0,0.0,0.0,0.0,0.0,50,samples\quickstart\src\main\java\Quickstart.java,0,0,0,0
Standalone, 0, 0, 0, 0, 0, 0, 0, 0, 0, 0, 0, 0, 0, 0,0.0,0.0,0.0,0.0,0.0,0.0,0.0,0.0,0.0,0.0,0.0,0.0,0.0,10,samples\standalone\src\main\java\Standalone.java,0,0,0,0
org.apache.shiro.AtUnitTestBase, 0, 0, 0, 0, 0, 0, 0, 0, 0, 0, 0, 0, 0, 0,0.0,0.0,0.0,0.0,0.0,0.0,0.0,0.0,0.0,0.0,0.0,0.0,0.0,2,core\src\test\java\org\apache\shiro\AtUnitTestBase.java,0,0,0,0
org.apache.shiro.ExceptionTest, 0, 0, 0, 0, 0, 0, 0, 0, 0, 0, 0, 0, 0, 0,0.0,0.0,0.0,0.0,0.0,0.0,0.0,0.0,0.0,0.0,0.0,0.0,0.0,19,core\src\test\java\org\apache\shiro\ExceptionTest.java,0,0,0,0
org.apache.shiro.SecurityUtils, 0, 0, 0, 0, 0, 0, 0, 0, 0, 0, 0, 0, 0, 0,0.0,0.0,0.0,0.1724137931034483,0.0,0.0,0.0,0.034482758620689655,0.0,0.0,0.0,0.0,0.0,27,core\src\main\java\org\apache\shiro\SecurityUtils.java,0,0,0,0
org.apache.shiro.ShiroException, 0, 0, 0, 0, 0, 0, 0, 0, 0, 0, 0, 0, 0, 0,0.0,0.0,0.0,0.0,0.0,0.0,0.0,0.0,0.0,0.0,0.0,0.0,0.0,14,core\src\main\java\org\apache\shiro\ShiroException.java,0,0,0,0
org.apache.shiro.UnavailableSecurityManagerException, 0, 0, 0, 0, 0, 0, 0, 0, 0, 0, 0, 0, 0, 0,0.0,0.0,0.0,0.25,0.0,0.0,0.0,0.0,0.0,0.0,0.0,0.0,0.0,8,core\src\main\java\org\apache\shiro\UnavailableSecurityManagerException.java,0,0,0,0
org.apache.shiro.aop.AnnotationHandler, 0, 0, 0, 0, 0, 0, 0, 0, 0, 0, 0, 0, 0, 0,0.0,0.0,0.0,0.0,0.0,0.0,0.0,0.0,0.0,0.0,0.0,0.0,0.0,20,core\src\main\java\org\apache\shiro\aop\AnnotationHandler.java,0,0,0,0
org.apache.shiro.aop.AnnotationMethodInterceptor, 0, 0, 0, 0, 0, 0, 0, 0, 0, 0, 0, 0, 0, 0,0.0,0.0,0.0,0.0,0.0,0.0,0.0,0.0,0.0,0.0,0.0,0.0,0.0,32,core\src\main\java\org\apache\shiro\aop\AnnotationMethodInterceptor.java,0,0,0,0
org.apache.shiro.aop.AnnotationResolver, 0, 0, 0, 0, 0, 0, 0, 0, 0, 0, 0, 0, 0, 0,0.0,0.0,0.0,0.0,0.0,0.0,0.0,0.0,0.0,0.0,0.0,0.0,0.0,32,core\src\main\java\org\apache\shiro\aop\AnnotationResolver.java,0,0,0,0
org.apache.shiro.aop.AnnotationResolverTest, 0, 0, 0, 0, 0, 0, 0, 0, 0, 0, 0, 0, 0, 0,0.0,0.0,0.0,0.0,0.0,0.0,0.0,0.0,0.0,0.0,0.0,0.0,0.0,28,core\src\test\java\org\apache\shiro\aop\AnnotationResolverTest.java,0,0,0,0
org.apache.shiro.aop.DefaultAnnotationResolver, 0, 0, 0, 0, 0, 0, 0, 0, 0, 0, 0, 0, 0, 0,0.0,0.0,0.0,0.0,0.0,0.0,0.0,0.0,0.0,0.0,0.0,0.0,0.0,14,core\src\main\java\org\apache\shiro\aop\DefaultAnnotationResolver.java,0,0,0,0
org.apache.shiro.aop.MethodInterceptor, 0, 0, 0, 0, 0, 0, 0, 0, 0, 0, 0, 0, 0, 0,0.0,0.0,0.0,0.0,0.0,0.0,0.0,0.0,0.0,0.0,0.0,0.0,0.0,14,core\src\main\java\org\apache\shiro\aop\MethodInterceptor.java,0,0,0,0
org.apache.shiro.aop.MethodInterceptorSupport, 0, 0, 0, 0, 0, 0, 0, 0, 0, 0, 0, 0, 0, 0,0.0,0.0,0.0,0.0,0.0,0.0,0.0,0.0,0.0,0.0,0.0,0.0,0.0,7,core\src\main\java\org\apache\shiro\aop\MethodInterceptorSupport.java,0,0,0,0
org.apache.shiro.aop.MethodInvocation, 0, 0, 0, 0, 0, 0, 0, 0, 0, 0, 0, 0, 0, 0,0.0,0.0,0.0,0.0,0.0,0.0,0.0,0.0,0.0,0.0,0.0,0.0,0.0,7,core\src\main\java\org\apache\shiro\aop\MethodInvocation.java,0,0,0,0
org.apache.shiro.aspectj.AspectjAnnotationsAuthorizingMethodInterceptor, 0, 0, 0, 0, 0, 0, 0, 0, 0, 0, 0, 0, 0, 0,0.0,0.0,0.0,0.0,0.0,0.0,0.0,0.0,0.0,0.0,0.0,0.0,0.0,13,support\aspectj\src\main\java\org\apache\shiro\aspectj\AspectjAnnotationsAuthorizingMethodInterceptor.java,0,0,0,0
org.apache.shiro.aspectj.BeforeAdviceMethodInvocationAdapter, 0, 0, 0, 0, 0, 0, 0, 0, 0, 0, 0, 0, 0, 0,0.0,0.0,0.0,0.0,0.0,0.0,0.0,0.0,0.0,0.0,0.0,0.0,0.0,35,support\aspectj\src\main\java\org\apache\shiro\aspectj\BeforeAdviceMethodInvocationAdapter.java,0,0,0,0
org.apache.shiro.aspectj.DummyService, 0, 0, 0, 0, 0, 0, 0, 0, 0, 0, 0, 0, 0, 0,0.0,0.0,0.0,0.0,0.0,0.0,0.0,0.0,0.0,0.0,0.0,0.0,0.0,35,support\aspectj\src\test\java\org\apache\shiro\aspectj\DummyService.java,0,0,0,0
org.apache.shiro.aspectj.DummyServiceTest, 0, 0, 0, 1, 0, 0, 0, 0, 0, 0, 0, 0, 0, 1,0.0,0.0,0.0,0.0,0.0,0.0,0.0,0.0,0.0,0.0,0.0,0.0,0.0,118,support\aspectj\src\test\java\org\apache\shiro\aspectj\DummyServiceTest.java,0,0,0,0
org.apache.shiro.aspectj.RestrictedDummyService, 0, 0, 0, 0, 0, 0, 0, 0, 0, 0, 0, 0, 0, 0,0.0,0.0,0.0,0.0,0.0,0.0,0.0,0.0,0.0,0.0,0.0,0.0,0.0,7,support\aspectj\src\test\java\org\apache\shiro\aspectj\RestrictedDummyService.java,0,0,0,0
org.apache.shiro.aspectj.SecuredDummyService, 0, 0, 0, 0, 0, 0, 0, 0, 0, 0, 0, 0, 0, 0,0.0,0.0,0.0,0.0,0.0,0.0,0.0,0.0,0.0,0.0,0.0,0.0,0.0,31,support\aspectj\src\test\java\org\apache\shiro\aspectj\SecuredDummyService.java,0,0,0,0
org.apache.shiro.aspectj.ShiroAnnotationAuthorizingAspect, 0, 0, 0, 0, 0, 0, 0, 0, 0, 0, 0, 0, 0, 0,0.0,0.0,0.0,0.0,0.0,0.0,0.0,0.0,0.0,0.0,0.0,0.0,0.0,19,support\aspectj\src\main\aspect\org\apache\shiro\aspectj\ShiroAnnotationAuthorizingAspect.java,0,0,0,0
org.apache.shiro.authc.AbstractAuthenticator, 0, 0, 0, 0, 0, 0, 0, 0, 0, 0, 0, 0, 0, 0,0.0,0.0,0.0,0.0,0.0,0.0,0.0,0.0,0.0,0.0,0.0,0.0,0.0,78,core\src\main\java\org\apache\shiro\authc\AbstractAuthenticator.java,0,0,0,0
org.apache.shiro.authc.AbstractAuthenticatorTest, 0, 0, 0, 0, 0, 0, 0, 0, 0, 0, 0, 0, 0, 0,0.0,0.0,0.0,0.0,0.0,0.0,0.0,0.0,0.0,0.0,0.0,0.0,0.0,92,core\src\test\java\org\apache\shiro\authc\AbstractAuthenticatorTest.java,0,0,0,0
org.apache.shiro.authc.Account, 0, 0, 0, 0, 0, 0, 0, 0, 0, 0, 0, 0, 0, 0,0.0,0.0,0.0,0.0,0.0,0.0,0.0,0.0,0.0,0.0,0.0,0.0,0.0,92,core\src\main\java\org\apache\shiro\authc\Account.java,0,0,0,0
org.apache.shiro.authc.AccountException, 0, 0, 0, 0, 0, 0, 0, 0, 0, 0, 0, 0, 0, 0,0.0,0.0,0.0,0.14285714285714285,0.0,0.0,0.0,0.0,0.0,0.0,0.0,0.0,0.0,14,core\src\main\java\org\apache\shiro\authc\AccountException.java,0,0,0,0
org.apache.shiro.authc.AuthenticationException, 0, 0, 0, 0, 0, 0, 0, 0, 0, 0, 0, 0, 0, 0,0.0,0.0,0.0,0.25,0.0,0.0,0.0,0.05,0.0,0.0,0.0,0.0,0.0,15,core\src\main\java\org\apache\shiro\authc\AuthenticationException.java,0,0,0,0
org.apache.shiro.authc.AuthenticationInfo, 0, 0, 0, 0, 0, 0, 0, 0, 0, 0, 0, 0, 0, 0,0.0,0.0,0.0,0.0,0.0,0.0,0.0,0.0,0.0,0.0,0.0,0.0,0.0,15,core\src\main\java\org\apache\shiro\authc\AuthenticationInfo.java,0,0,0,0
org.apache.shiro.authc.AuthenticationListener, 0, 0, 0, 0, 0, 0, 0, 0, 0, 0, 0, 0, 0, 0,0.0,0.0,0.0,0.0,0.0,0.0,0.0,0.0,0.0,0.0,0.0,0.0,0.0,15,core\src\main\java\org\apache\shiro\authc\AuthenticationListener.java,0,0,0,0
org.apache.shiro.authc.AuthenticationToken, 0, 0, 0, 0, 0, 0, 0, 0, 0, 0, 0, 0, 0, 0,0.0,0.0,0.0,0.0,0.0,0.0,0.0,0.0,0.0,0.0,0.0,0.0,0.0,15,core\src\main\java\org\apache\shiro\authc\AuthenticationToken.java,0,0,0,0
org.apache.shiro.authc.Authenticator, 0, 0, 0, 0, 0, 0, 0, 0, 0, 0, 0, 0, 0, 0,0.0,0.0,0.0,0.0,0.0,0.0,0.0,0.0,0.0,0.0,0.0,0.0,0.0,15,core\src\main\java\org\apache\shiro\authc\Authenticator.java,0,0,0,0
org.apache.shiro.authc.ConcurrentAccessException, 0, 0, 0, 0, 0, 0, 0, 0, 0, 0, 0, 0, 0, 0,0.0,0.0,0.0,0.0,0.0,0.0,0.0,0.0,0.0,0.0,0.0,0.0,0.0,14,core\src\main\java\org\apache\shiro\authc\ConcurrentAccessException.java,0,0,0,0
org.apache.shiro.authc.ConcurrentAccessExceptionTest, 0, 0, 0, 0, 0, 0, 0, 0, 0, 0, 0, 0, 0, 0,0.0,0.0,0.0,0.0,0.0,0.0,0.0,0.0,0.0,0.0,0.0,0.0,0.0,5,core\src\test\java\org\apache\shiro\authc\ConcurrentAccessExceptionTest.java,0,0,0,0
org.apache.shiro.authc.CredentialsException, 0, 0, 0, 0, 0, 0, 0, 0, 0, 0, 0, 0, 0, 0,0.0,0.0,0.0,0.0,0.0,0.0,0.0,0.0,0.0,0.0,0.0,0.0,0.0,14,core\src\main\java\org\apache\shiro\authc\CredentialsException.java,0,0,0,0
org.apache.shiro.authc.DisabledAccountException, 0, 0, 0, 0, 0, 0, 0, 0, 0, 0, 0, 0, 0, 0,0.0,0.0,0.0,0.0,0.0,0.0,0.0,0.0,0.0,0.0,0.0,0.0,0.0,14,core\src\main\java\org\apache\shiro\authc\DisabledAccountException.java,0,0,0,0
org.apache.shiro.authc.ExcessiveAttemptsException, 0, 0, 0, 0, 0, 0, 0, 0, 0, 0, 0, 0, 0, 0,0.0,0.0,0.0,0.0,0.0,0.0,0.0,0.0,0.0,0.0,0.0,0.0,0.0,14,core\src\main\java\org\apache\shiro\authc\ExcessiveAttemptsException.java,0,0,0,0
org.apache.shiro.authc.ExcessiveAttemptsExceptionTest, 0, 0, 0, 0, 0, 0, 0, 0, 0, 0, 0, 0, 0, 0,0.0,0.0,0.0,0.0,0.0,0.0,0.0,0.0,0.0,0.0,0.0,0.0,0.0,5,core\src\test\java\org\apache\shiro\authc\ExcessiveAttemptsExceptionTest.java,0,0,0,0
org.apache.shiro.authc.ExpiredCredentialsException, 0, 0, 0, 0, 0, 0, 0, 0, 0, 0, 0, 0, 0, 0,0.0,0.0,0.0,0.0,0.0,0.0,0.0,0.0,0.0,0.0,0.0,0.0,0.0,14,core\src\main\java\org\apache\shiro\authc\ExpiredCredentialsException.java,0,0,0,0
org.apache.shiro.authc.ExpiredCredentialsExceptionTest, 0, 0, 0, 0, 0, 0, 0, 0, 0, 0, 0, 0, 0, 0,0.0,0.0,0.0,0.0,0.0,0.0,0.0,0.0,0.0,0.0,0.0,0.0,0.0,5,core\src\test\java\org\apache\shiro\authc\ExpiredCredentialsExceptionTest.java,0,0,0,0
org.apache.shiro.authc.HostAuthenticationToken, 0, 0, 0, 0, 0, 0, 0, 0, 0, 0, 0, 0, 0, 0,0.0,0.0,0.0,0.0,0.0,0.0,0.0,0.0,0.0,0.0,0.0,0.0,0.0,5,core\src\main\java\org\apache\shiro\authc\HostAuthenticationToken.java,0,0,0,0
org.apache.shiro.authc.IncorrectCredentialsException, 0, 0, 0, 0, 0, 0, 0, 0, 0, 0, 0, 0, 0, 0,0.0,0.0,0.0,0.3333333333333333,0.0,0.0,0.0,0.0,0.0,0.0,0.0,0.0,0.0,14,core\src\main\java\org\apache\shiro\authc\IncorrectCredentialsException.java,0,0,0,0
org.apache.shiro.authc.IncorrectCredentialsExceptionTest, 0, 0, 0, 0, 0, 0, 0, 0, 0, 0, 0, 0, 0, 0,0.0,0.0,0.0,0.0,0.0,0.0,0.0,0.0,0.0,0.0,0.0,0.0,0.0,5,core\src\test\java\org\apache\shiro\authc\IncorrectCredentialsExceptionTest.java,0,0,0,0
org.apache.shiro.authc.LockedAccountException, 0, 0, 0, 0, 0, 0, 0, 0, 0, 0, 0, 0, 0, 0,0.0,0.0,0.0,0.0,0.0,0.0,0.0,0.0,0.0,0.0,0.0,0.0,0.0,14,core\src\main\java\org\apache\shiro\authc\LockedAccountException.java,0,0,0,0
org.apache.shiro.authc.LockedAccountExceptionTest, 0, 0, 0, 0, 0, 0, 0, 0, 0, 0, 0, 0, 0, 0,0.0,0.0,0.0,0.0,0.0,0.0,0.0,0.0,0.0,0.0,0.0,0.0,0.0,5,core\src\test\java\org\apache\shiro\authc\LockedAccountExceptionTest.java,0,0,0,0
org.apache.shiro.authc.LogoutAware, 0, 0, 0, 0, 0, 0, 0, 0, 0, 0, 0, 0, 0, 0,0.0,0.0,0.0,0.0,0.0,0.0,0.0,0.0,0.0,0.0,0.0,0.0,0.0,5,core\src\main\java\org\apache\shiro\authc\LogoutAware.java,0,0,0,0
org.apache.shiro.authc.MergableAuthenticationInfo, 0, 0, 0, 0, 0, 0, 0, 0, 0, 0, 0, 0, 0, 0,0.0,0.0,0.0,0.0,0.0,0.0,0.0,0.0,0.0,0.0,0.0,0.0,0.0,5,core\src\main\java\org\apache\shiro\authc\MergableAuthenticationInfo.java,0,0,0,0
org.apache.shiro.authc.RememberMeAuthenticationToken, 0, 0, 0, 0, 0, 0, 0, 0, 0, 0, 0, 0, 0, 0,0.0,0.0,0.0,0.0,0.0,0.0,0.0,0.0,0.0,0.0,0.0,0.0,0.0,5,core\src\main\java\org\apache\shiro\authc\RememberMeAuthenticationToken.java,0,0,0,0
org.apache.shiro.authc.SaltedAuthenticationInfo, 0, 0, 0, 0, 0, 0, 0, 0, 0, 0, 0, 0, 0, 0,0.0,0.0,0.0,0.0,0.0,0.0,0.0,0.0,0.0,0.0,0.0,0.0,0.0,5,core\src\main\java\org\apache\shiro\authc\SaltedAuthenticationInfo.java,0,0,0,0
org.apache.shiro.authc.SimpleAccount, 0, 0, 0, 1, 0, 0, 0, 1, 0, 0, 0, 0, 0, 2,0.0,0.0,0.0,0.0,0.0,0.0,0.0,0.0,0.0,0.0,0.0,0.0,0.0,138,core\src\main\java\org\apache\shiro\authc\SimpleAccount.java,0,0,0,0
org.apache.shiro.authc.SimpleAuthenticationInfo, 0, 0, 0, 0, 0, 0, 0, 0, 0, 0, 0, 0, 0, 0,0.0,0.0,0.0,0.18181818181818182,0.0,0.0,0.0,0.18181818181818182,0.0,0.0,0.0,0.0,0.0,93,core\src\main\java\org\apache\shiro\authc\SimpleAuthenticationInfo.java,0,0,0,0
org.apache.shiro.authc.SimpleAuthenticationInfoTest, 0, 0, 0, 0, 0, 0, 0, 0, 0, 0, 0, 0, 0, 0,0.0,0.0,0.0,0.0,0.0,0.0,0.0,0.0,0.0,0.0,0.0,0.0,0.0,46,core\src\test\java\org\apache\shiro\authc\SimpleAuthenticationInfoTest.java,0,0,0,0
org.apache.shiro.authc.UnknownAccountException, 0, 0, 0, 0, 0, 0, 0, 0, 0, 0, 0, 0, 0, 0,0.0,0.0,0.0,0.16666666666666666,0.0,0.0,0.0,0.16666666666666666,0.0,0.0,0.0,0.0,0.0,14,core\src\main\java\org\apache\shiro\authc\UnknownAccountException.java,0,0,0,0
org.apache.shiro.authc.UnknownAccountExceptionTest, 0, 0, 0, 0, 0, 0, 0, 0, 0, 0, 0, 0, 0, 0,0.0,0.0,0.0,0.0,0.0,0.0,0.0,0.0,0.0,0.0,0.0,0.0,0.0,5,core\src\test\java\org\apache\shiro\authc\UnknownAccountExceptionTest.java,0,0,0,0
org.apache.shiro.authc.credential.AbstractHashedCredentialsMatcherTest, 0, 0, 0, 0, 0, 0, 0, 0, 0, 0, 0, 0, 0, 0,0.0,0.0,0.0,0.1111111111111111,0.0,0.0,0.0,0.0,0.0,0.0,0.0,0.0,0.0,12,core\src\test\java\org\apache\shiro\authc\credential\AbstractHashedCredentialsMatcherTest.java,0,0,0,0
org.apache.shiro.authc.credential.AllowAllCredentialsMatcher, 0, 0, 0, 0, 0, 0, 0, 0, 0, 0, 0, 0, 0, 0,0.0,0.0,0.0,0.0,0.0,0.0,0.0,0.0,0.0,0.0,0.0,0.0,0.0,5,core\src\main\java\org\apache\shiro\authc\credential\AllowAllCredentialsMatcher.java,0,0,0,0
org.apache.shiro.authc.credential.AllowAllCredentialsMatcherTest, 0, 0, 0, 0, 0, 0, 0, 0, 0, 0, 0, 0, 0, 0,0.0,0.0,0.0,0.0,0.0,0.0,0.0,0.0,0.0,0.0,0.0,0.0,0.0,6,core\src\test\java\org\apache\shiro\authc\credential\AllowAllCredentialsMatcherTest.java,0,0,0,0
org.apache.shiro.authc.credential.CredentialsMatcher, 0, 0, 0, 0, 0, 0, 0, 0, 0, 0, 0, 0, 0, 0,0.0,0.0,0.0,0.0,0.0,0.0,0.0,0.0,0.0,0.0,0.0,0.0,0.0,6,core\src\main\java\org\apache\shiro\authc\credential\CredentialsMatcher.java,0,0,0,0
org.apache.shiro.authc.credential.DefaultPasswordService, 0, 0, 0, 1, 0, 0, 0, 0, 0, 0, 0, 0, 0, 1,0.0,0.0,0.0,0.5,0.0,0.0,0.0,0.0,0.0,0.0,0.0,0.0,0.0,110,core\src\main\java\org\apache\shiro\authc\credential\DefaultPasswordService.java,0,0,0,0
org.apache.shiro.authc.credential.HashedCredentialsMatcher, 0, 0, 0, 1, 0, 0, 0, 0, 0, 0, 0, 0, 0, 1,0.0,0.0,0.0,0.23076923076923078,0.0,0.0,0.0,0.0,0.0,0.0,0.0,0.0,0.0,101,core\src\main\java\org\apache\shiro\authc\credential\HashedCredentialsMatcher.java,0,0,0,0
org.apache.shiro.authc.credential.HashedCredentialsMatcherTest, 0, 0, 0, 0, 0, 0, 0, 0, 0, 0, 0, 0, 0, 0,0.0,0.0,0.0,0.4,0.0,0.0,0.0,0.0,0.0,0.0,0.0,0.0,0.0,46,core\src\test\java\org\apache\shiro\authc\credential\HashedCredentialsMatcherTest.java,0,0,0,0
org.apache.shiro.authc.credential.HashingPasswordService, 0, 0, 0, 0, 0, 0, 0, 0, 0, 0, 0, 0, 0, 0,0.0,0.0,0.0,0.0,0.0,0.0,0.0,0.0,0.0,0.0,0.0,0.0,0.0,46,core\src\main\java\org\apache\shiro\authc\credential\HashingPasswordService.java,0,0,0,0
org.apache.shiro.authc.credential.Md2CredentialsMatcher, 0, 0, 0, 0, 0, 0, 0, 0, 0, 0, 0, 0, 0, 0,0.0,0.0,0.0,1.0,0.0,0.0,0.0,0.0,0.0,0.0,0.0,0.0,0.0,6,core\src\main\java\org\apache\shiro\authc\credential\Md2CredentialsMatcher.java,0,0,0,0
org.apache.shiro.authc.credential.Md2CredentialsMatcherTest, 0, 0, 0, 0, 0, 0, 0, 0, 0, 0, 0, 0, 0, 0,0.0,0.0,0.0,0.0,0.0,0.0,0.0,0.0,0.0,0.0,0.0,0.0,0.0,8,core\src\test\java\org\apache\shiro\authc\credential\Md2CredentialsMatcherTest.java,0,0,0,0
org.apache.shiro.authc.credential.Md5CredentialsMatcher, 0, 0, 0, 0, 0, 0, 0, 0, 0, 0, 0, 0, 0, 0,0.0,0.0,0.0,1.0,0.0,0.0,0.0,0.0,0.0,0.0,0.0,0.0,0.0,6,core\src\main\java\org\apache\shiro\authc\credential\Md5CredentialsMatcher.java,0,0,0,0
org.apache.shiro.authc.credential.Md5CredentialsMatcherTest, 0, 0, 0, 0, 0, 0, 0, 0, 0, 0, 0, 0, 0, 0,0.0,0.0,0.0,0.0,0.0,0.0,0.0,0.0,0.0,0.0,0.0,0.0,0.0,7,core\src\test\java\org\apache\shiro\authc\credential\Md5CredentialsMatcherTest.java,0,0,0,0
org.apache.shiro.authc.credential.PasswordMatcher, 0, 0, 0, 0, 0, 0, 0, 0, 0, 0, 0, 0, 0, 0,0.0,0.0,0.0,1.0,0.0,0.0,0.0,0.0,0.0,0.0,0.0,0.0,0.0,61,core\src\main\java\org\apache\shiro\authc\credential\PasswordMatcher.java,0,0,0,0
org.apache.shiro.authc.credential.PasswordService, 0, 0, 0, 0, 0, 0, 0, 0, 0, 0, 0, 0, 0, 0,0.0,0.0,0.0,0.0,0.0,0.0,0.0,0.0,0.0,0.0,0.0,0.0,0.0,61,core\src\main\java\org\apache\shiro\authc\credential\PasswordService.java,0,0,0,0
org.apache.shiro.authc.credential.Sha1CredentialsMatcher, 0, 0, 0, 0, 0, 0, 0, 0, 0, 0, 0, 0, 0, 0,0.0,0.0,0.0,1.0,0.0,0.0,0.0,0.0,0.0,0.0,0.0,0.0,0.0,6,core\src\main\java\org\apache\shiro\authc\credential\Sha1CredentialsMatcher.java,0,0,0,0
org.apache.shiro.authc.credential.Sha1CredentialsMatcherTest, 0, 0, 0, 0, 0, 0, 0, 0, 0, 0, 0, 0, 0, 0,0.0,0.0,0.0,0.0,0.0,0.0,0.0,0.0,0.0,0.0,0.0,0.0,0.0,8,core\src\test\java\org\apache\shiro\authc\credential\Sha1CredentialsMatcherTest.java,0,0,0,0
org.apache.shiro.authc.credential.Sha256CredentialsMatcher, 0, 0, 0, 0, 0, 0, 0, 0, 0, 0, 0, 0, 0, 0,0.0,0.0,0.0,0.5,0.0,0.0,0.0,0.0,0.0,0.0,0.0,0.0,0.0,6,core\src\main\java\org\apache\shiro\authc\credential\Sha256CredentialsMatcher.java,0,0,0,0
org.apache.shiro.authc.credential.Sha256CredentialsMatcherTest, 0, 0, 0, 0, 0, 0, 0, 0, 0, 0, 0, 0, 0, 0,0.0,0.0,0.0,0.0,0.0,0.0,0.0,0.0,0.0,0.0,0.0,0.0,0.0,8,core\src\test\java\org\apache\shiro\authc\credential\Sha256CredentialsMatcherTest.java,0,0,0,0
org.apache.shiro.authc.credential.Sha384CredentialsMatcher, 0, 0, 0, 0, 0, 0, 0, 0, 0, 0, 0, 0, 0, 0,0.0,0.0,0.0,1.0,0.0,0.0,0.0,0.0,0.0,0.0,0.0,0.0,0.0,6,core\src\main\java\org\apache\shiro\authc\credential\Sha384CredentialsMatcher.java,0,0,0,0
org.apache.shiro.authc.credential.Sha384CredentialsMatcherTest, 0, 0, 0, 0, 0, 0, 0, 0, 0, 0, 0, 0, 0, 0,0.0,0.0,0.0,0.0,0.0,0.0,0.0,0.0,0.0,0.0,0.0,0.0,0.0,8,core\src\test\java\org\apache\shiro\authc\credential\Sha384CredentialsMatcherTest.java,0,0,0,0
org.apache.shiro.authc.credential.Sha512CredentialsMatcher, 0, 0, 0, 0, 0, 0, 0, 0, 0, 0, 0, 0, 0, 0,0.0,0.0,0.0,1.0,0.0,0.0,0.0,0.0,0.0,0.0,0.0,0.0,0.0,6,core\src\main\java\org\apache\shiro\authc\credential\Sha512CredentialsMatcher.java,0,0,0,0
org.apache.shiro.authc.credential.Sha512CredentialsMatcherTest, 0, 0, 0, 0, 0, 0, 0, 0, 0, 0, 0, 0, 0, 0,0.0,0.0,0.0,0.0,0.0,0.0,0.0,0.0,0.0,0.0,0.0,0.0,0.0,8,core\src\test\java\org\apache\shiro\authc\credential\Sha512CredentialsMatcherTest.java,0,0,0,0
org.apache.shiro.authc.credential.SimpleCredentialsMatcher, 0, 0, 0, 0, 0, 0, 0, 0, 0, 0, 0, 0, 0, 0,0.0,0.0,0.0,0.5,0.0,0.0,0.0,0.0,0.0,0.0,0.0,0.0,0.0,32,core\src\main\java\org\apache\shiro\authc\credential\SimpleCredentialsMatcher.java,0,0,0,0
org.apache.shiro.authc.pam.AbstractAuthenticationStrategy, 0, 0, 0, 0, 0, 0, 0, 1, 0, 0, 0, 0, 0, 1,0.0,0.0,0.0,0.0,0.0,0.0,0.0,0.2,0.0,0.0,0.0,0.0,0.0,33,core\src\main\java\org\apache\shiro\authc\pam\AbstractAuthenticationStrategy.java,0,0,0,0
org.apache.shiro.authc.pam.AllSuccessfulStrategy, 0, 0, 0, 0, 0, 0, 0, 1, 0, 0, 0, 0, 0, 1,0.0,0.0,0.0,0.0,0.0,0.0,0.0,0.2,0.0,0.0,0.0,0.0,0.0,36,core\src\main\java\org\apache\shiro\authc\pam\AllSuccessfulStrategy.java,0,0,0,0
org.apache.shiro.authc.pam.AllSuccessfulStrategyTest, 0, 0, 0, 0, 0, 0, 0, 0, 0, 0, 0, 0, 0, 0,0.0,0.0,0.0,0.0,0.0,0.0,0.0,1.0,0.0,0.0,0.0,0.0,0.0,31,core\src\test\java\org\apache\shiro\authc\pam\AllSuccessfulStrategyTest.java,0,0,0,0
org.apache.shiro.authc.pam.AtLeastOneSuccessfulStrategy, 0, 0, 0, 0, 0, 0, 0, 0, 0, 0, 0, 0, 0, 0,0.0,0.0,0.0,0.0,0.0,0.0,0.0,0.5,0.0,0.0,0.0,0.0,0.0,10,core\src\main\java\org\apache\shiro\authc\pam\AtLeastOneSuccessfulStrategy.java,0,0,0,0
org.apache.shiro.authc.pam.AuthenticationStrategy, 0, 0, 0, 0, 0, 0, 0, 0, 0, 0, 0, 0, 0, 0,0.0,0.0,0.0,0.0,0.0,0.0,0.0,0.0,0.0,0.0,0.0,0.0,0.0,10,core\src\main\java\org\apache\shiro\authc\pam\AuthenticationStrategy.java,0,0,0,0
org.apache.shiro.authc.pam.FirstSuccessfulStrategy, 0, 0, 0, 0, 0, 0, 0, 0, 0, 0, 0, 0, 0, 0,0.0,0.0,0.0,0.0,0.0,0.0,0.0,1.0,0.0,0.0,0.0,0.0,0.0,11,core\src\main\java\org\apache\shiro\authc\pam\FirstSuccessfulStrategy.java,0,0,0,0
org.apache.shiro.authc.pam.ModularRealmAuthenticator, 0, 0, 0, 0, 0, 0, 0, 0, 0, 0, 0, 0, 0, 0,0.0,0.0,0.0,0.0,0.0,0.0,0.0,0.0,0.0,0.0,0.0,0.0,0.0,92,core\src\main\java\org\apache\shiro\authc\pam\ModularRealmAuthenticator.java,0,0,0,0
org.apache.shiro.authc.pam.UnsupportedTokenException, 0, 0, 0, 0, 0, 0, 0, 0, 0, 0, 0, 0, 0, 0,0.0,0.0,0.0,0.0,0.0,0.0,0.0,0.3333333333333333,0.0,0.0,0.0,0.0,0.0,14,core\src\main\java\org\apache\shiro\authc\pam\UnsupportedTokenException.java,0,0,0,0
org.apache.shiro.authz.AuthorizationException, 0, 0, 0, 0, 0, 0, 0, 0, 0, 0, 0, 0, 0, 0,0.0,0.0,0.0,0.3333333333333333,0.0,0.0,0.0,0.0,0.0,0.0,0.0,0.0,0.0,15,core\src\main\java\org\apache\shiro\authz\AuthorizationException.java,0,0,0,0
org.apache.shiro.authz.AuthorizationExceptionTest, 0, 0, 0, 0, 0, 0, 0, 0, 0, 0, 0, 0, 0, 0,0.0,0.0,0.0,0.0,0.0,0.0,0.0,0.0,0.0,0.0,0.0,0.0,0.0,5,core\src\test\java\org\apache\shiro\authz\AuthorizationExceptionTest.java,0,0,0,0
org.apache.shiro.authz.AuthorizationInfo, 0, 0, 0, 0, 0, 0, 0, 0, 0, 0, 0, 0, 0, 0,0.0,0.0,0.0,0.0,0.0,0.0,0.0,0.0,0.0,0.0,0.0,0.0,0.0,5,core\src\main\java\org\apache\shiro\authz\AuthorizationInfo.java,0,0,0,0
org.apache.shiro.authz.Authorizer, 0, 0, 0, 0, 0, 0, 0, 0, 0, 0, 0, 0, 0, 0,0.0,0.0,0.0,0.0,0.0,0.0,0.0,0.0,0.0,0.0,0.0,0.0,0.0,5,core\src\main\java\org\apache\shiro\authz\Authorizer.java,0,0,0,0
org.apache.shiro.authz.HostUnauthorizedException, 0, 0, 0, 0, 0, 0, 0, 0, 0, 0, 0, 0, 0, 0,0.0,0.0,0.0,0.0,0.0,0.0,0.0,0.0,0.0,0.0,0.0,0.0,0.0,21,core\src\main\java\org\apache\shiro\authz\HostUnauthorizedException.java,0,0,0,0
org.apache.shiro.authz.HostUnauthorizedExceptionTest, 0, 0, 0, 0, 0, 0, 0, 0, 0, 0, 0, 0, 0, 0,0.0,0.0,0.0,0.0,0.0,0.0,0.0,0.0,0.0,0.0,0.0,0.0,0.0,5,core\src\test\java\org\apache\shiro\authz\HostUnauthorizedExceptionTest.java,0,0,0,0
org.apache.shiro.authz.ModularRealmAuthorizerTest, 0, 0, 0, 0, 0, 0, 0, 0, 0, 0, 0, 0, 0, 0,0.0,0.0,0.0,1.0,0.0,0.0,0.0,0.0,0.0,0.0,0.0,0.0,0.0,50,core\src\test\java\org\apache\shiro\authz\ModularRealmAuthorizerTest.java,0,0,0,0
org.apache.shiro.authz.Permission, 0, 0, 0, 0, 0, 0, 0, 0, 0, 0, 0, 0, 0, 0,0.0,0.0,0.0,0.0,0.0,0.0,0.0,0.0,0.0,0.0,0.0,0.0,0.0,50,core\src\main\java\org\apache\shiro\authz\Permission.java,0,0,0,0
org.apache.shiro.authz.SimpleAuthorizationInfo, 0, 0, 0, 0, 0, 0, 0, 0, 0, 0, 0, 0, 0, 0,0.0,0.0,0.0,0.6666666666666666,0.0,0.0,0.0,0.3333333333333333,0.0,0.0,0.0,0.0,0.0,64,core\src\main\java\org\apache\shiro\authz\SimpleAuthorizationInfo.java,0,0,0,0
org.apache.shiro.authz.SimpleRole, 0, 0, 0, 0, 0, 0, 0, 0, 0, 0, 0, 0, 0, 0,0.0,0.0,0.0,0.0,0.0,0.0,0.0,0.0,0.0,0.0,0.0,0.0,0.0,70,core\src\main\java\org\apache\shiro\authz\SimpleRole.java,0,0,0,0
org.apache.shiro.authz.UnauthenticatedException, 0, 0, 0, 0, 0, 0, 0, 0, 0, 0, 0, 0, 0, 0,0.0,0.0,0.0,0.2,0.0,0.0,0.0,0.2,0.0,0.0,0.0,0.0,0.0,14,core\src\main\java\org\apache\shiro\authz\UnauthenticatedException.java,0,0,0,0
org.apache.shiro.authz.UnauthenticatedExceptionTest, 0, 0, 0, 0, 0, 0, 0, 0, 0, 0, 0, 0, 0, 0,0.0,0.0,0.0,0.0,0.0,0.0,0.0,0.0,0.0,0.0,0.0,0.0,0.0,5,core\src\test\java\org\apache\shiro\authz\UnauthenticatedExceptionTest.java,0,0,0,0
org.apache.shiro.authz.UnauthorizedException, 0, 0, 0, 0, 0, 0, 0, 0, 0, 0, 0, 0, 0, 0,0.0,0.0,0.0,0.25,0.0,0.0,0.0,0.0,0.0,0.0,0.0,0.0,0.0,14,core\src\main\java\org\apache\shiro\authz\UnauthorizedException.java,0,0,0,0
org.apache.shiro.authz.UnauthorizedExceptionTest, 0, 0, 0, 0, 0, 0, 0, 0, 0, 0, 0, 0, 0, 0,0.0,0.0,0.0,0.0,0.0,0.0,0.0,0.0,0.0,0.0,0.0,0.0,0.0,5,core\src\test\java\org\apache\shiro\authz\UnauthorizedExceptionTest.java,0,0,0,0
org.apache.shiro.authz.aop.AnnotationsAuthorizingMethodInterceptor, 0, 0, 0, 0, 0, 0, 0, 0, 0, 0, 0, 0, 0, 0,0.0,0.0,0.0,0.0,0.0,0.0,0.0,0.0,0.0,0.0,0.0,0.0,0.0,27,core\src\main\java\org\apache\shiro\authz\aop\AnnotationsAuthorizingMethodInterceptor.java,0,0,0,0
org.apache.shiro.authz.aop.AuthenticatedAnnotationHandler, 0, 0, 0, 0, 0, 0, 0, 0, 0, 0, 0, 0, 0, 0,0.0,0.0,0.0,0.0,0.0,0.0,0.0,0.0,0.0,0.0,0.0,0.0,0.0,10,core\src\main\java\org\apache\shiro\authz\aop\AuthenticatedAnnotationHandler.java,0,0,0,0
org.apache.shiro.authz.aop.AuthenticatedAnnotationMethodInterceptor, 0, 0, 0, 0, 0, 0, 0, 0, 0, 0, 0, 0, 0, 0,0.0,0.0,0.0,0.0,0.0,0.0,0.0,0.0,0.0,0.0,0.0,0.0,0.0,8,core\src\main\java\org\apache\shiro\authz\aop\AuthenticatedAnnotationMethodInterceptor.java,0,0,0,0
org.apache.shiro.authz.aop.AuthorizingAnnotationHandler, 0, 0, 0, 0, 0, 0, 0, 0, 0, 0, 0, 0, 0, 0,0.0,0.0,0.0,0.0,0.0,0.0,0.0,0.0,0.0,0.0,0.0,0.0,0.0,6,core\src\main\java\org\apache\shiro\authz\aop\AuthorizingAnnotationHandler.java,0,0,0,0
org.apache.shiro.authz.aop.AuthorizingAnnotationMethodInterceptor, 0, 0, 0, 0, 0, 0, 0, 0, 0, 0, 0, 0, 0, 0,0.0,0.0,0.0,0.0,0.0,0.0,0.0,0.0,0.0,0.0,0.0,0.0,0.0,23,core\src\main\java\org\apache\shiro\authz\aop\AuthorizingAnnotationMethodInterceptor.java,0,0,0,0
org.apache.shiro.authz.aop.AuthorizingMethodInterceptor, 0, 0, 0, 0, 0, 0, 0, 0, 0, 0, 0, 0, 0, 0,0.0,0.0,0.0,0.0,0.0,0.0,0.0,0.0,0.0,0.0,0.0,0.0,0.0,7,core\src\main\java\org\apache\shiro\authz\aop\AuthorizingMethodInterceptor.java,0,0,0,0
org.apache.shiro.authz.aop.GuestAnnotationHandler, 0, 0, 0, 0, 0, 0, 0, 0, 0, 0, 0, 0, 0, 0,0.0,0.0,0.0,0.0,0.0,0.0,0.0,0.0,0.0,0.0,0.0,0.0,0.0,12,core\src\main\java\org\apache\shiro\authz\aop\GuestAnnotationHandler.java,0,0,0,0
org.apache.shiro.authz.aop.GuestAnnotationMethodInterceptor, 0, 0, 0, 0, 0, 0, 0, 0, 0, 0, 0, 0, 0, 0,0.0,0.0,0.0,0.0,0.0,0.0,0.0,0.0,0.0,0.0,0.0,0.0,0.0,8,core\src\main\java\org\apache\shiro\authz\aop\GuestAnnotationMethodInterceptor.java,0,0,0,0
org.apache.shiro.authz.aop.PermissionAnnotationHandler, 0, 0, 0, 0, 0, 0, 0, 0, 0, 0, 0, 0, 0, 0,0.0,0.0,0.0,0.0,0.0,0.0,0.0,0.0,0.0,0.0,0.0,0.0,0.0,28,core\src\main\java\org\apache\shiro\authz\aop\PermissionAnnotationHandler.java,0,0,0,0
org.apache.shiro.authz.aop.PermissionAnnotationHandlerTest, 0, 0, 0, 0, 0, 0, 0, 0, 0, 0, 0, 0, 0, 0,0.0,0.0,0.0,0.0,0.0,0.0,0.0,0.0,0.0,0.0,0.0,0.0,0.0,34,core\src\test\java\org\apache\shiro\authz\aop\PermissionAnnotationHandlerTest.java,0,0,0,0
org.apache.shiro.authz.aop.PermissionAnnotationMethodInterceptor, 0, 0, 0, 0, 0, 0, 0, 0, 0, 0, 0, 0, 0, 0,0.0,0.0,0.0,0.0,0.0,0.0,0.0,0.0,0.0,0.0,0.0,0.0,0.0,8,core\src\main\java\org\apache\shiro\authz\aop\PermissionAnnotationMethodInterceptor.java,0,0,0,0
org.apache.shiro.authz.aop.RoleAnnotationHandler, 0, 0, 0, 0, 0, 0, 0, 0, 0, 0, 0, 0, 0, 0,0.0,0.0,0.0,0.0,0.0,0.0,0.0,0.0,0.0,0.0,0.0,0.0,0.0,23,core\src\main\java\org\apache\shiro\authz\aop\RoleAnnotationHandler.java,0,0,0,0
org.apache.shiro.authz.aop.RoleAnnotationHandlerTest, 0, 0, 0, 0, 0, 0, 0, 0, 0, 0, 0, 0, 0, 0,0.0,0.0,0.0,0.0,0.0,0.0,0.0,0.0,0.0,0.0,0.0,0.0,0.0,60,core\src\test\java\org\apache\shiro\authz\aop\RoleAnnotationHandlerTest.java,0,0,0,0
org.apache.shiro.authz.aop.RoleAnnotationMethodInterceptor, 0, 0, 0, 0, 0, 0, 0, 0, 0, 0, 0, 0, 0, 0,0.0,0.0,0.0,0.0,0.0,0.0,0.0,0.0,0.0,0.0,0.0,0.0,0.0,8,core\src\main\java\org\apache\shiro\authz\aop\RoleAnnotationMethodInterceptor.java,0,0,0,0
org.apache.shiro.authz.aop.UserAnnotationHandler, 0, 0, 0, 0, 0, 0, 0, 0, 0, 0, 0, 0, 0, 0,0.0,0.0,0.0,0.0,0.0,0.0,0.0,0.0,0.0,0.0,0.0,0.0,0.0,12,core\src\main\java\org\apache\shiro\authz\aop\UserAnnotationHandler.java,0,0,0,0
org.apache.shiro.authz.aop.UserAnnotationMethodInterceptor, 0, 0, 0, 0, 0, 0, 0, 0, 0, 0, 0, 0, 0, 0,0.0,0.0,0.0,0.0,0.0,0.0,0.0,0.0,0.0,0.0,0.0,0.0,0.0,8,core\src\main\java\org\apache\shiro\authz\aop\UserAnnotationMethodInterceptor.java,0,0,0,0
org.apache.shiro.authz.permission.AllPermission, 0, 0, 0, 0, 0, 0, 0, 0, 0, 0, 0, 0, 0, 0,0.0,0.0,0.0,0.0,0.0,0.0,0.0,0.0,0.0,0.0,0.0,0.0,0.0,5,core\src\main\java\org\apache\shiro\authz\permission\AllPermission.java,0,0,0,0
org.apache.shiro.authz.permission.AllPermissionTest, 0, 0, 0, 0, 0, 0, 0, 0, 0, 0, 0, 0, 0, 0,0.0,0.0,0.0,0.0,0.0,0.0,0.0,0.0,0.0,0.0,0.0,0.0,0.0,10,core\src\test\java\org\apache\shiro\authz\permission\AllPermissionTest.java,0,0,0,0
org.apache.shiro.authz.permission.DomainPermissionTest, 0, 0, 0, 0, 0, 0, 0, 0, 0, 0, 0, 0, 0, 0,0.0,0.0,0.0,0.0,0.0,0.0,0.0,0.0,0.0,0.0,0.0,0.0,0.0,183,core\src\test\java\org\apache\shiro\authz\permission\DomainPermissionTest.java,0,0,0,0
org.apache.shiro.authz.permission.InvalidPermissionStringException, 0, 0, 0, 0, 0, 0, 0, 0, 0, 0, 0, 0, 0, 0,0.0,0.0,0.0,0.0,0.0,0.0,0.0,0.0,0.0,0.0,0.0,0.0,0.0,11,core\src\main\java\org\apache\shiro\authz\permission\InvalidPermissionStringException.java,0,0,0,0
org.apache.shiro.authz.permission.PermissionResolver, 0, 0, 0, 0, 0, 0, 0, 0, 0, 0, 0, 0, 0, 0,0.0,0.0,0.0,0.0,0.0,0.0,0.0,0.0,0.0,0.0,0.0,0.0,0.0,11,core\src\main\java\org\apache\shiro\authz\permission\PermissionResolver.java,0,0,0,0
org.apache.shiro.authz.permission.PermissionResolverAware, 0, 0, 0, 0, 0, 0, 0, 0, 0, 0, 0, 0, 0, 0,0.0,0.0,0.0,0.0,0.0,0.0,0.0,0.0,0.0,0.0,0.0,0.0,0.0,11,core\src\main\java\org\apache\shiro\authz\permission\PermissionResolverAware.java,0,0,0,0
org.apache.shiro.authz.permission.RolePermissionResolver, 0, 0, 0, 0, 0, 0, 0, 0, 0, 0, 0, 0, 0, 0,0.0,0.0,0.0,0.0,0.0,0.0,0.0,0.0,0.0,0.0,0.0,0.0,0.0,11,core\src\main\java\org\apache\shiro\authz\permission\RolePermissionResolver.java,0,0,0,0
org.apache.shiro.authz.permission.RolePermissionResolverAware, 0, 0, 0, 0, 0, 0, 0, 0, 0, 0, 0, 0, 0, 0,0.0,0.0,0.0,0.0,0.0,0.0,0.0,0.0,0.0,0.0,0.0,0.0,0.0,11,core\src\main\java\org\apache\shiro\authz\permission\RolePermissionResolverAware.java,0,0,0,0
org.apache.shiro.authz.permission.WildcardPermissionResolver, 0, 0, 0, 0, 0, 0, 0, 0, 0, 0, 0, 0, 0, 0,0.0,0.0,0.0,0.0,0.0,0.0,0.0,0.0,0.0,0.0,0.0,0.0,0.0,5,core\src\main\java\org\apache\shiro\authz\permission\WildcardPermissionResolver.java,0,0,0,0
org.apache.shiro.authz.permission.WildcardPermissionTest, 0, 0, 0, 0, 0, 0, 0, 0, 0, 0, 0, 0, 0, 0,0.0,0.0,0.0,0.0,0.0,0.0,0.0,0.0,0.0,0.0,0.0,0.0,0.0,135,core\src\test\java\org\apache\shiro\authz\permission\WildcardPermissionTest.java,0,0,0,0
org.apache.shiro.cache.Cache, 0, 0, 0, 0, 0, 0, 0, 0, 0, 0, 0, 0, 0, 0,0.0,0.0,0.0,0.0,0.0,0.0,0.0,0.0,0.0,0.0,0.0,0.0,0.0,135,core\src\main\java\org\apache\shiro\cache\Cache.java,0,0,0,0
org.apache.shiro.cache.CacheException, 0, 0, 0, 0, 0, 0, 0, 0, 0, 0, 0, 0, 0, 0,0.0,0.0,0.0,0.0,0.0,0.0,0.0,0.0,0.0,0.0,0.0,0.0,0.0,15,core\src\main\java\org\apache\shiro\cache\CacheException.java,0,0,0,0
org.apache.shiro.cache.CacheManager, 0, 0, 0, 0, 0, 0, 0, 0, 0, 0, 0, 0, 0, 0,0.0,0.0,0.0,0.0,0.0,0.0,0.0,0.0,0.0,0.0,0.0,0.0,0.0,15,core\src\main\java\org\apache\shiro\cache\CacheManager.java,0,0,0,0
org.apache.shiro.cache.CacheManagerAware, 0, 0, 0, 0, 0, 0, 0, 0, 0, 0, 0, 0, 0, 0,0.0,0.0,0.0,0.0,0.0,0.0,0.0,0.0,0.0,0.0,0.0,0.0,0.0,15,core\src\main\java\org\apache\shiro\cache\CacheManagerAware.java,0,0,0,0
org.apache.shiro.cache.MemoryConstrainedCacheManager, 0, 0, 0, 0, 0, 0, 0, 0, 0, 0, 0, 0, 0, 0,0.0,0.0,0.0,0.0,0.0,0.0,0.0,0.0,0.0,0.0,0.0,0.0,0.0,6,core\src\main\java\org\apache\shiro\cache\MemoryConstrainedCacheManager.java,0,0,0,0
org.apache.shiro.cache.ehcache.EhCache, 0, 0, 0, 0, 0, 0, 0, 0, 0, 0, 0, 0, 0, 0,0.0,0.0,0.0,0.0,0.0,0.0,0.0,0.0,0.0,0.0,0.0,0.0,0.0,133,support\ehcache\src\main\java\org\apache\shiro\cache\ehcache\EhCache.java,0,0,0,0
org.apache.shiro.cache.ehcache.EhCacheManager, 0, 0, 0, 0, 0, 0, 0, 0, 0, 0, 0, 0, 0, 0,0.0,0.0,0.0,0.0,0.0,0.0,0.0,0.0,0.0,0.0,0.0,0.0,0.0,91,support\ehcache\src\main\java\org\apache\shiro\cache\ehcache\EhCacheManager.java,0,0,0,0
org.apache.shiro.cache.ehcache.EhCacheManagerTest, 0, 0, 0, 0, 0, 0, 0, 0, 0, 0, 0, 0, 0, 0,0.0,0.0,0.0,0.0,0.0,0.0,0.0,0.0,0.0,0.0,0.0,0.0,0.0,32,support\ehcache\src\test\java\org\apache\shiro\cache\ehcache\EhCacheManagerTest.java,0,0,0,0
org.apache.shiro.cas.CasAuthenticationException, 0, 0, 0, 0, 0, 0, 0, 0, 0, 0, 0, 0, 0, 0,0.0,0.0,0.0,0.0,0.0,0.0,0.0,0.0,0.0,0.0,0.0,0.0,0.0,14,support\cas\src\main\java\org\apache\shiro\cas\CasAuthenticationException.java,0,0,0,0
org.apache.shiro.cas.CasFilter, 0, 0, 0, 0, 0, 0, 0, 0, 0, 0, 0, 0, 0, 0,0.0,0.0,0.0,0.0,0.0,0.0,0.0,0.0,0.0,0.0,0.0,0.0,0.0,47,support\cas\src\main\java\org\apache\shiro\cas\CasFilter.java,0,0,0,0
org.apache.shiro.cas.CasSubjectFactory, 0, 0, 0, 0, 0, 0, 0, 0, 0, 0, 0, 0, 0, 0,0.0,0.0,0.0,0.0,0.0,0.0,0.0,0.5,0.0,0.0,0.0,0.0,0.0,16,support\cas\src\main\java\org\apache\shiro\cas\CasSubjectFactory.java,0,0,0,0
org.apache.shiro.cas.CasToken, 0, 0, 0, 0, 0, 0, 0, 0, 0, 0, 0, 0, 0, 0,0.0,0.0,0.0,0.0,0.0,0.0,0.0,0.0,0.0,0.0,0.0,0.0,0.0,24,support\cas\src\main\java\org\apache\shiro\cas\CasToken.java,0,0,0,0
org.apache.shiro.codec.Base64, 0, 0, 0, 1, 0, 0, 0, 0, 0, 0, 0, 0, 0, 1,0.0,0.0,0.0,0.3076923076923077,0.0,0.0,0.0,0.0,0.0,0.0,0.0,0.0,0.0,240,core\src\main\java\org\apache\shiro\codec\Base64.java,0,0,0,0
org.apache.shiro.codec.CodecException, 0, 0, 0, 0, 0, 0, 0, 0, 0, 0, 0, 0, 0, 0,0.0,0.0,0.0,0.0,0.0,0.0,0.0,0.0,0.0,0.0,0.0,0.0,0.0,15,core\src\main\java\org\apache\shiro\codec\CodecException.java,0,0,0,0
org.apache.shiro.codec.CodecSupport, 0, 0, 0, 0, 0, 0, 0, 0, 0, 0, 0, 0, 0, 0,0.0,0.0,0.0,0.4,0.0,0.0,0.0,0.0,0.0,0.0,0.0,0.0,0.0,128,core\src\main\java\org\apache\shiro\codec\CodecSupport.java,0,0,0,0
org.apache.shiro.codec.Hex, 0, 0, 0, 0, 0, 0, 0, 0, 0, 0, 0, 0, 0, 0,0.0,0.0,0.0,0.2727272727272727,0.0,0.0,0.0,0.0,0.0,0.0,0.0,0.0,0.0,48,core\src\main\java\org\apache\shiro\codec\Hex.java,0,0,0,0
org.apache.shiro.concurrent.SubjectAwareExecutor, 0, 0, 0, 0, 0, 0, 0, 0, 0, 0, 0, 0, 0, 0,0.0,0.0,0.0,0.25,0.0,0.0,0.0,0.0,0.0,0.0,0.0,0.0,0.0,28,core\src\main\java\org\apache\shiro\concurrent\SubjectAwareExecutor.java,0,0,0,0
org.apache.shiro.concurrent.SubjectAwareExecutorService, 0, 0, 0, 1, 0, 0, 0, 0, 0, 0, 0, 0, 0, 1,0.0,0.0,0.0,0.0,0.0,0.0,0.0,0.0,0.0,0.0,0.0,0.0,0.0,81,core\src\main\java\org\apache\shiro\concurrent\SubjectAwareExecutorService.java,0,0,0,0
org.apache.shiro.concurrent.SubjectAwareExecutorServiceTest, 0, 0, 0, 0, 0, 0, 0, 0, 0, 0, 0, 0, 0, 0,0.0,0.0,0.0,0.5,0.0,0.0,0.0,0.0,0.0,0.0,0.0,0.0,0.0,34,core\src\test\java\org\apache\shiro\concurrent\SubjectAwareExecutorServiceTest.java,0,0,0,0
org.apache.shiro.concurrent.SubjectAwareExecutorTest, 0, 0, 0, 0, 0, 0, 0, 0, 0, 0, 0, 0, 0, 0,0.0,0.0,0.0,0.0,0.0,0.0,0.0,0.0,0.0,0.0,0.0,0.0,0.0,16,core\src\test\java\org\apache\shiro\concurrent\SubjectAwareExecutorTest.java,0,0,0,0
org.apache.shiro.concurrent.SubjectAwareScheduledExecutorService, 0, 0, 0, 0, 0, 0, 0, 0, 0, 0, 0, 0, 0, 0,0.0,0.0,0.0,0.5,0.0,0.0,0.0,0.0,0.0,0.0,0.0,0.0,0.0,49,core\src\main\java\org\apache\shiro\concurrent\SubjectAwareScheduledExecutorService.java,0,0,0,0
org.apache.shiro.config.ConfigurationException, 0, 0, 0, 0, 0, 0, 0, 0, 0, 0, 0, 0, 0, 0,0.0,0.0,0.0,0.2,0.0,0.0,0.0,0.0,0.0,0.0,0.0,0.0,0.0,15,core\src\main\java\org\apache\shiro\config\ConfigurationException.java,0,0,0,0
org.apache.shiro.config.IniFactorySupport, 0, 0, 0, 0, 0, 0, 0, 0, 0, 0, 0, 0, 0, 0,0.0,0.0,0.0,0.0,0.0,0.0,0.0,0.0,0.0,0.0,0.0,0.0,0.0,61,core\src\main\java\org\apache\shiro\config\IniFactorySupport.java,0,0,0,0
org.apache.shiro.config.IniTest, 0, 0, 0, 0, 0, 0, 0, 0, 0, 0, 0, 0, 0, 0,0.0,0.0,0.0,0.0,0.0,0.0,0.0,0.0,0.0,0.0,0.0,0.0,0.0,107,core\src\test\java\org\apache\shiro\config\IniTest.java,0,0,0,0
org.apache.shiro.config.InitializableBean, 0, 0, 0, 0, 0, 0, 0, 0, 0, 0, 0, 0, 0, 0,0.0,0.0,0.0,0.0,0.0,0.0,0.0,0.0,0.0,0.0,0.0,0.0,0.0,9,core\src\test\java\org\apache\shiro\config\InitializableBean.java,0,0,0,0
org.apache.shiro.config.ResourceConfigurable, 0, 0, 0, 0, 0, 0, 0, 0, 0, 0, 0, 0, 0, 0,0.0,0.0,0.0,0.0,0.0,0.0,0.0,0.0,0.0,0.0,0.0,0.0,0.0,9,core\src\main\java\org\apache\shiro\config\ResourceConfigurable.java,0,0,0,0
org.apache.shiro.config.SimpleBean, 0, 0, 0, 0, 0, 0, 0, 0, 0, 0, 0, 0, 0, 0,0.0,0.0,0.0,0.0,0.0,0.0,0.0,0.0,0.0,0.0,0.0,0.0,0.0,42,core\src\test\java\org\apache\shiro\config\SimpleBean.java,0,0,0,0
org.apache.shiro.config.SimpleBeanFactory, 0, 0, 0, 0, 0, 0, 0, 0, 0, 0, 0, 0, 0, 0,0.0,0.0,0.0,0.0,0.0,0.0,0.0,0.0,0.0,0.0,0.0,0.0,0.0,22,core\src\test\java\org\apache\shiro\config\SimpleBeanFactory.java,0,0,0,0
org.apache.shiro.config.UnresolveableReferenceException, 0, 0, 0, 0, 0, 0, 0, 0, 0, 0, 0, 0, 0, 0,0.0,0.0,0.0,0.0,0.0,0.0,0.0,0.0,0.0,0.0,0.0,0.0,0.0,14,core\src\main\java\org\apache\shiro\config\UnresolveableReferenceException.java,0,0,0,0
org.apache.shiro.crypto.AbstractSymmetricCipherService, 0, 0, 0, 0, 0, 0, 0, 0, 0, 0, 0, 0, 0, 0,0.0,0.0,0.0,0.0,0.0,0.0,0.0,0.0,0.0,0.0,0.0,0.0,0.0,19,core\src\main\java\org\apache\shiro\crypto\AbstractSymmetricCipherService.java,0,0,0,0
org.apache.shiro.crypto.AesCipherService, 0, 0, 0, 0, 0, 0, 0, 0, 0, 0, 0, 0, 0, 0,0.0,0.0,0.0,0.5,0.0,0.0,0.0,0.0,0.0,0.0,0.0,0.0,0.0,6,core\src\main\java\org\apache\shiro\crypto\AesCipherService.java,0,0,0,0
org.apache.shiro.crypto.AesCipherServiceTest, 0, 0, 0, 0, 0, 0, 0, 0, 0, 0, 0, 0, 0, 0,0.0,0.0,0.0,0.0,0.0,0.0,0.0,0.0,0.0,0.0,0.0,0.0,0.0,34,core\src\test\java\org\apache\shiro\crypto\AesCipherServiceTest.java,0,0,0,0
org.apache.shiro.crypto.BlowfishCipherService, 0, 0, 0, 0, 0, 0, 0, 0, 0, 0, 0, 0, 0, 0,0.0,0.0,0.0,0.0,0.0,0.0,0.0,0.0,0.0,0.0,0.0,0.0,0.0,8,core\src\main\java\org\apache\shiro\crypto\BlowfishCipherService.java,0,0,0,0
org.apache.shiro.crypto.BlowfishCipherServiceTest, 0, 0, 0, 0, 0, 0, 0, 0, 0, 0, 0, 0, 0, 0,0.0,0.0,0.0,0.0,0.0,0.0,0.0,0.0,0.0,0.0,0.0,0.0,0.0,34,core\src\test\java\org\apache\shiro\crypto\BlowfishCipherServiceTest.java,0,0,0,0
org.apache.shiro.crypto.CipherService, 0, 0, 0, 0, 0, 0, 0, 0, 0, 0, 0, 0, 0, 0,0.0,0.0,0.0,0.0,0.0,0.0,0.0,0.0,0.0,0.0,0.0,0.0,0.0,34,core\src\main\java\org\apache\shiro\crypto\CipherService.java,0,0,0,0
org.apache.shiro.crypto.CryptoException, 0, 0, 0, 0, 0, 0, 0, 0, 0, 0, 0, 0, 0, 0,0.0,0.0,0.0,0.0,0.0,0.0,0.0,0.0,0.0,0.0,0.0,0.0,0.0,11,core\src\main\java\org\apache\shiro\crypto\CryptoException.java,0,0,0,0
org.apache.shiro.crypto.JcaCipherServiceTest, 0, 0, 0, 0, 0, 0, 0, 0, 0, 0, 0, 0, 0, 0,0.0,0.0,0.0,0.0,0.0,0.0,0.0,0.0,0.0,0.0,0.0,0.0,0.0,10,core\src\test\java\org\apache\shiro\crypto\JcaCipherServiceTest.java,0,0,0,0
org.apache.shiro.crypto.RandomNumberGenerator, 0, 0, 0, 0, 0, 0, 0, 0, 0, 0, 0, 0, 0, 0,0.0,0.0,0.0,0.0,0.0,0.0,0.0,0.0,0.0,0.0,0.0,0.0,0.0,10,core\src\main\java\org\apache\shiro\crypto\RandomNumberGenerator.java,0,0,0,0
org.apache.shiro.crypto.SecureRandomNumberGenerator, 0, 0, 0, 0, 0, 0, 0, 0, 0, 0, 0, 0, 0, 0,0.0,0.0,0.0,0.3333333333333333,0.0,0.0,0.0,0.0,0.0,0.0,0.0,0.0,0.0,41,core\src\main\java\org\apache\shiro\crypto\SecureRandomNumberGenerator.java,0,0,0,0
org.apache.shiro.crypto.SecureRandomNumberGeneratorTest, 0, 0, 0, 0, 0, 0, 0, 0, 0, 0, 0, 0, 0, 0,0.0,0.0,0.0,0.0,0.0,0.0,0.0,0.0,0.0,0.0,0.0,0.0,0.0,56,core\src\test\java\org\apache\shiro\crypto\SecureRandomNumberGeneratorTest.java,0,0,0,0
org.apache.shiro.crypto.UnknownAlgorithmException, 0, 0, 0, 0, 0, 0, 0, 0, 0, 0, 0, 0, 0, 0,0.0,0.0,0.0,0.6666666666666666,0.0,0.0,0.0,0.0,0.0,0.0,0.0,0.0,0.0,11,core\src\main\java\org\apache\shiro\crypto\UnknownAlgorithmException.java,0,0,0,0
org.apache.shiro.crypto.hash.AbstractHash, 0, 0, 0, 1, 0, 0, 0, 0, 0, 0, 0, 0, 0, 1,0.0,0.0,0.0,0.375,0.0,0.0,0.0,0.0,0.0,0.0,0.0,0.0,0.0,147,core\src\main\java\org\apache\shiro\crypto\hash\AbstractHash.java,0,0,0,0
org.apache.shiro.crypto.hash.ConfigurableHashService, 0, 0, 0, 0, 0, 0, 0, 0, 0, 0, 0, 0, 0, 0,0.0,0.0,0.0,0.0,0.0,0.0,0.0,0.0,0.0,0.0,0.0,0.0,0.0,147,core\src\main\java\org\apache\shiro\crypto\hash\ConfigurableHashService.java,0,0,0,0
org.apache.shiro.crypto.hash.DefaultHashService, 0, 0, 0, 1, 0, 0, 0, 0, 0, 0, 0, 0, 0, 1,0.0,0.0,0.0,0.6666666666666666,0.0,0.0,0.0,0.0,0.0,0.0,0.0,0.0,0.0,108,core\src\main\java\org\apache\shiro\crypto\hash\DefaultHashService.java,0,0,0,0
org.apache.shiro.crypto.hash.Hash, 0, 0, 0, 0, 0, 0, 0, 0, 0, 0, 0, 0, 0, 0,0.0,0.0,0.0,0.0,0.0,0.0,0.0,0.0,0.0,0.0,0.0,0.0,0.0,108,core\src\main\java\org\apache\shiro\crypto\hash\Hash.java,0,0,0,0
org.apache.shiro.crypto.hash.HashRequest, 0, 0, 0, 0, 0, 0, 0, 0, 0, 0, 0, 0, 0, 0,0.0,0.0,0.0,0.0,0.0,0.0,0.0,0.0,0.0,0.0,0.0,0.0,0.0,108,core\src\main\java\org\apache\shiro\crypto\hash\HashRequest.java,0,0,0,0
org.apache.shiro.crypto.hash.HashService, 0, 0, 0, 0, 0, 0, 0, 0, 0, 0, 0, 0, 0, 0,0.0,0.0,0.0,0.0,0.0,0.0,0.0,0.0,0.0,0.0,0.0,0.0,0.0,108,core\src\main\java\org\apache\shiro\crypto\hash\HashService.java,0,0,0,0
org.apache.shiro.crypto.hash.Md2Hash, 0, 0, 0, 0, 0, 0, 0, 0, 0, 0, 0, 0, 0, 0,0.0,0.0,0.0,0.6,0.0,0.0,0.0,0.0,0.0,0.0,0.0,0.0,0.0,25,core\src\main\java\org\apache\shiro\crypto\hash\Md2Hash.java,0,0,0,0
org.apache.shiro.crypto.hash.Md5Hash, 0, 0, 0, 0, 0, 0, 0, 0, 0, 0, 0, 0, 0, 0,0.0,0.0,0.0,0.5,0.0,0.0,0.0,0.0,0.0,0.0,0.0,0.0,0.0,25,core\src\main\java\org\apache\shiro\crypto\hash\Md5Hash.java,0,0,0,0
org.apache.shiro.crypto.hash.Sha1Hash, 0, 0, 0, 0, 0, 0, 0, 0, 0, 0, 0, 0, 0, 0,0.0,0.0,0.0,0.4,0.0,0.0,0.0,0.0,0.0,0.0,0.0,0.0,0.0,25,core\src\main\java\org\apache\shiro\crypto\hash\Sha1Hash.java,0,0,0,0
org.apache.shiro.crypto.hash.Sha256Hash, 0, 0, 0, 0, 0, 0, 0, 0, 0, 0, 0, 0, 0, 0,0.0,0.0,0.0,0.25,0.0,0.0,0.0,0.0,0.0,0.0,0.0,0.0,0.0,25,core\src\main\java\org\apache\shiro\crypto\hash\Sha256Hash.java,0,0,0,0
org.apache.shiro.crypto.hash.Sha384Hash, 0, 0, 0, 0, 0, 0, 0, 0, 0, 0, 0, 0, 0, 0,0.0,0.0,0.0,0.5,0.0,0.0,0.0,0.0,0.0,0.0,0.0,0.0,0.0,25,core\src\main\java\org\apache\shiro\crypto\hash\Sha384Hash.java,0,0,0,0
org.apache.shiro.crypto.hash.Sha512Hash, 0, 0, 0, 0, 0, 0, 0, 0, 0, 0, 0, 0, 0, 0,0.0,0.0,0.0,0.5,0.0,0.0,0.0,0.0,0.0,0.0,0.0,0.0,0.0,25,core\src\main\java\org\apache\shiro\crypto\hash\Sha512Hash.java,0,0,0,0
org.apache.shiro.crypto.hash.SimpleHash, 0, 0, 0, 1, 0, 0, 0, 0, 0, 0, 0, 0, 0, 1,0.0,0.0,0.0,0.2222222222222222,0.0,0.0,0.0,0.0,0.0,0.0,0.0,0.0,0.0,137,core\src\main\java\org\apache\shiro\crypto\hash\SimpleHash.java,0,0,0,0
org.apache.shiro.crypto.hash.SimpleHashRequest, 0, 0, 0, 0, 0, 0, 0, 0, 0, 0, 0, 0, 0, 0,0.0,0.0,0.0,0.0,0.0,0.0,0.0,0.0,0.0,0.0,0.0,0.0,0.0,27,core\src\main\java\org\apache\shiro\crypto\hash\SimpleHashRequest.java,0,0,0,0
org.apache.shiro.crypto.hash.format.Base64Format, 0, 0, 0, 0, 0, 0, 0, 0, 0, 0, 0, 0, 0, 0,0.0,0.0,0.0,0.0,0.0,0.0,0.0,0.0,0.0,0.0,0.0,0.0,0.0,5,core\src\main\java\org\apache\shiro\crypto\hash\format\Base64Format.java,0,0,0,0
org.apache.shiro.crypto.hash.format.HashFormat, 0, 0, 0, 0, 0, 0, 0, 0, 0, 0, 0, 0, 0, 0,0.0,0.0,0.0,0.0,0.0,0.0,0.0,0.0,0.0,0.0,0.0,0.0,0.0,5,core\src\main\java\org\apache\shiro\crypto\hash\format\HashFormat.java,0,0,0,0
org.apache.shiro.crypto.hash.format.HashFormatFactory, 0, 0, 0, 0, 0, 0, 0, 0, 0, 0, 0, 0, 0, 0,0.0,0.0,0.0,0.0,0.0,0.0,0.0,0.0,0.0,0.0,0.0,0.0,0.0,5,core\src\main\java\org\apache\shiro\crypto\hash\format\HashFormatFactory.java,0,0,0,0
org.apache.shiro.crypto.hash.format.HexFormat, 0, 0, 0, 0, 0, 0, 0, 0, 0, 0, 0, 0, 0, 0,0.0,0.0,0.0,0.0,0.0,0.0,0.0,0.0,0.0,0.0,0.0,0.0,0.0,5,core\src\main\java\org\apache\shiro\crypto\hash\format\HexFormat.java,0,0,0,0
org.apache.shiro.crypto.hash.format.ModularCryptFormat, 0, 0, 0, 0, 0, 0, 0, 0, 0, 0, 0, 0, 0, 0,0.0,0.0,0.0,0.0,0.0,0.0,0.0,0.0,0.0,0.0,0.0,0.0,0.0,5,core\src\main\java\org\apache\shiro\crypto\hash\format\ModularCryptFormat.java,0,0,0,0
org.apache.shiro.crypto.hash.format.ParsableHashFormat, 0, 0, 0, 0, 0, 0, 0, 0, 0, 0, 0, 0, 0, 0,0.0,0.0,0.0,0.0,0.0,0.0,0.0,0.0,0.0,0.0,0.0,0.0,0.0,5,core\src\main\java\org\apache\shiro\crypto\hash\format\ParsableHashFormat.java,0,0,0,0
org.apache.shiro.dao.DataAccessException, 0, 0, 0, 0, 0, 0, 0, 0, 0, 0, 0, 0, 0, 0,0.0,0.0,0.0,0.0,0.0,0.0,0.0,0.0,0.0,0.0,0.0,0.0,0.0,8,core\src\main\java\org\apache\shiro\dao\DataAccessException.java,0,0,0,0
org.apache.shiro.dao.InvalidResourceUsageException, 0, 0, 0, 0, 0, 0, 0, 0, 0, 0, 0, 0, 0, 0,0.0,0.0,0.0,0.0,0.0,0.0,0.0,0.0,0.0,0.0,0.0,0.0,0.0,8,core\src\main\java\org\apache\shiro\dao\InvalidResourceUsageException.java,0,0,0,0
org.apache.shiro.env.Environment, 0, 0, 0, 0, 0, 0, 0, 0, 0, 0, 0, 0, 0, 0,0.0,0.0,0.0,0.0,0.0,0.0,0.0,0.0,0.0,0.0,0.0,0.0,0.0,8,core\src\main\java\org\apache\shiro\env\Environment.java,0,0,0,0
org.apache.shiro.env.EnvironmentException, 0, 0, 0, 0, 0, 0, 0, 0, 0, 0, 0, 0, 0, 0,0.0,0.0,0.0,0.0,0.0,0.0,0.0,0.0,0.0,0.0,0.0,0.0,0.0,8,core\src\main\java\org\apache\shiro\env\EnvironmentException.java,0,0,0,0
org.apache.shiro.env.NamedObjectEnvironment, 0, 0, 0, 0, 0, 0, 0, 0, 0, 0, 0, 0, 0, 0,0.0,0.0,0.0,0.0,0.0,0.0,0.0,0.0,0.0,0.0,0.0,0.0,0.0,8,core\src\main\java\org\apache\shiro\env\NamedObjectEnvironment.java,0,0,0,0
org.apache.shiro.env.RequiredTypeException, 0, 0, 0, 0, 0, 0, 0, 0, 0, 0, 0, 0, 0, 0,0.0,0.0,0.0,0.0,0.0,0.0,0.0,0.0,0.0,0.0,0.0,0.0,0.0,8,core\src\main\java\org\apache\shiro\env\RequiredTypeException.java,0,0,0,0
org.apache.shiro.functor.Translator, 0, 0, 0, 0, 0, 0, 0, 0, 0, 0, 0, 0, 0, 0,0.0,0.0,0.0,0.0,0.0,0.0,0.0,0.0,0.0,0.0,0.0,0.0,0.0,8,core\src\main\java\org\apache\shiro\functor\Translator.java,0,0,0,0
org.apache.shiro.guice.DestroyableInjectionListener, 0, 0, 0, 0, 0, 0, 0, 0, 0, 0, 0, 0, 0, 0,0.0,0.0,0.0,0.0,0.0,0.0,0.0,0.0,0.0,0.0,0.0,0.0,0.0,13,support\guice\src\main\java\org\apache\shiro\guice\DestroyableInjectionListener.java,0,0,0,0
org.apache.shiro.guice.DestroyableInjectionListenerTest, 0, 0, 0, 0, 0, 0, 0, 0, 0, 0, 0, 0, 0, 0,0.0,0.0,0.0,0.0,0.0,0.0,0.0,0.0,0.0,0.0,0.0,0.0,0.0,12,support\guice\src\test\java\org\apache\shiro\guice\DestroyableInjectionListenerTest.java,0,0,0,0
org.apache.shiro.guice.GuiceEnvironment, 0, 0, 0, 0, 0, 0, 0, 0, 0, 0, 0, 0, 0, 0,0.0,0.0,0.0,0.0,0.0,0.0,0.0,0.0,0.0,0.0,0.0,0.0,0.0,10,support\guice\src\main\java\org\apache\shiro\guice\GuiceEnvironment.java,0,0,0,0
org.apache.shiro.guice.GuiceEnvironmentTest, 0, 0, 0, 0, 0, 0, 0, 0, 0, 0, 0, 0, 0, 0,0.0,0.0,0.0,0.0,0.0,0.0,0.0,0.0,0.0,0.0,0.0,0.0,0.0,16,support\guice\src\test\java\org\apache\shiro\guice\GuiceEnvironmentTest.java,0,0,0,0
org.apache.shiro.guice.InitializableInjectionListener, 0, 0, 0, 0, 0, 0, 0, 0, 0, 0, 0, 0, 0, 0,0.0,0.0,0.0,0.0,0.0,0.0,0.0,0.0,0.0,0.0,0.0,0.0,0.0,6,support\guice\src\main\java\org\apache\shiro\guice\InitializableInjectionListener.java,0,0,0,0
org.apache.shiro.guice.InitializableInjectionListenerTest, 0, 0, 0, 0, 0, 0, 0, 0, 0, 0, 0, 0, 0, 0,0.0,0.0,0.0,0.0,0.0,0.0,0.0,0.0,0.0,0.0,0.0,0.0,0.0,11,support\guice\src\test\java\org\apache\shiro\guice\InitializableInjectionListenerTest.java,0,0,0,0
org.apache.shiro.guice.LifecycleTypeListener, 0, 0, 0, 0, 0, 0, 0, 0, 0, 0, 0, 0, 0, 0,0.0,0.0,0.0,0.0,0.0,0.0,0.0,0.0,0.0,0.0,0.0,0.0,0.0,19,support\guice\src\main\java\org\apache\shiro\guice\LifecycleTypeListener.java,0,0,0,0
org.apache.shiro.guice.LifecycleTypeListenerTest, 0, 0, 0, 0, 0, 0, 0, 0, 0, 0, 0, 0, 0, 0,0.0,0.0,0.0,0.0,0.0,0.0,0.0,0.0,0.0,0.0,0.0,0.0,0.0,28,support\guice\src\test\java\org\apache\shiro\guice\LifecycleTypeListenerTest.java,0,0,0,0
org.apache.shiro.guice.ShiroMatchers, 1, 0, 1, 0, 0, 0, 0, 0, 0, 0, 0, 0, 0, 2,0.0,0.0,0.0,0.0,0.0,0.0,0.0,0.0,0.0,0.0,0.0,0.0,0.0,14,support\guice\src\main\java\org\apache\shiro\guice\ShiroMatchers.java,0,0,0,0
org.apache.shiro.guice.ShiroMatchersTest, 0, 0, 0, 0, 0, 0, 0, 0, 0, 0, 0, 0, 0, 0,1.0,0.0,1.0,0.0,0.0,0.0,0.0,0.0,0.0,0.0,0.0,0.0,0.0,17,support\guice\src\test\java\org\apache\shiro\guice\ShiroMatchersTest.java,0,0,0,0
org.apache.shiro.guice.ShiroModuleTest, 0, 0, 0, 0, 0, 0, 0, 0, 0, 0, 0, 0, 0, 0,0.0,0.0,0.0,0.0,0.0,0.0,0.0,0.0,0.0,0.0,0.0,0.0,0.0,149,support\guice\src\test\java\org\apache\shiro\guice\ShiroModuleTest.java,0,0,0,0
org.apache.shiro.guice.ShiroSessionScope, 0, 0, 0, 0, 0, 0, 0, 0, 0, 0, 0, 0, 0, 0,0.0,0.0,0.0,0.0,0.0,0.0,0.0,0.0,0.0,0.0,0.0,0.0,0.0,30,support\guice\src\main\java\org\apache\shiro\guice\ShiroSessionScope.java,0,0,0,0
org.apache.shiro.guice.ShiroSessionScopeTest, 0, 0, 0, 0, 0, 0, 0, 0, 0, 0, 0, 0, 0, 0,0.0,0.0,0.0,0.0,0.0,0.0,0.0,0.0,0.0,0.0,0.0,0.0,0.0,34,support\guice\src\test\java\org\apache\shiro\guice\ShiroSessionScopeTest.java,0,0,0,0
org.apache.shiro.guice.aop.AopAllianceMethodInterceptorAdapter, 0, 0, 0, 0, 0, 0, 0, 0, 0, 0, 0, 0, 0, 0,0.0,0.0,0.0,0.0,0.0,0.0,0.0,0.0,0.0,0.0,0.0,0.0,0.0,13,support\guice\src\main\java\org\apache\shiro\guice\aop\AopAllianceMethodInterceptorAdapter.java,0,0,0,0
org.apache.shiro.guice.aop.AopAllianceMethodInterceptorAdapterTest, 0, 0, 0, 0, 0, 0, 0, 0, 0, 0, 0, 0, 0, 0,0.0,0.0,0.0,0.0,0.0,0.0,0.0,0.0,0.0,0.0,0.0,0.0,0.0,20,support\guice\src\test\java\org\apache\shiro\guice\aop\AopAllianceMethodInterceptorAdapterTest.java,0,0,0,0
org.apache.shiro.guice.aop.AopAllianceMethodInvocationAdapter, 0, 0, 0, 0, 0, 0, 0, 0, 0, 0, 0, 0, 0, 0,0.0,0.0,0.0,0.0,0.0,0.0,0.0,0.0,0.0,0.0,0.0,0.0,0.0,21,support\guice\src\main\java\org\apache\shiro\guice\aop\AopAllianceMethodInvocationAdapter.java,0,0,0,0
org.apache.shiro.guice.aop.AopAllianceMethodInvocationAdapterTest, 0, 0, 0, 0, 0, 0, 0, 0, 0, 0, 0, 0, 0, 0,0.0,0.0,0.0,0.0,0.0,0.0,0.0,0.0,0.0,0.0,0.0,0.0,0.0,42,support\guice\src\test\java\org\apache\shiro\guice\aop\AopAllianceMethodInvocationAdapterTest.java,0,0,0,0
org.apache.shiro.guice.aop.ShiroAopModule, 0, 0, 0, 0, 0, 0, 0, 0, 0, 0, 0, 0, 0, 0,0.0,0.0,0.0,0.0,0.0,0.0,0.0,0.0,0.0,0.0,0.0,0.0,0.0,29,support\guice\src\main\java\org\apache\shiro\guice\aop\ShiroAopModule.java,0,0,0,0
org.apache.shiro.guice.web.AbstractInjectionProvider, 0, 0, 0, 0, 0, 0, 0, 0, 0, 0, 0, 0, 0, 0,1.0,0.0,0.0,0.0,0.0,0.0,0.0,0.0,0.0,0.0,0.0,0.0,0.0,42,support\guice\src\main\java\org\apache\shiro\guice\web\AbstractInjectionProvider.java,0,0,0,0
org.apache.shiro.guice.web.AbstractInjectionProviderTest, 1, 0, 0, 0, 0, 0, 0, 0, 0, 0, 0, 0, 0, 1,0.0,0.0,0.0,0.0,0.0,0.0,0.0,0.0,0.0,0.0,0.0,0.0,0.0,92,support\guice\src\test\java\org\apache\shiro\guice\web\AbstractInjectionProviderTest.java,0,0,0,0
org.apache.shiro.guice.web.DefaultFiltersTest, 0, 0, 0, 0, 0, 0, 0, 0, 0, 0, 0, 0, 0, 0,0.0,0.0,0.0,0.0,0.0,0.0,0.0,0.0,0.0,0.0,0.0,0.0,0.0,25,support\guice\src\test\java\org\apache\shiro\guice\web\DefaultFiltersTest.java,0,0,0,0
org.apache.shiro.guice.web.FilterConfigTest, 0, 0, 0, 0, 0, 0, 0, 0, 0, 0, 0, 0, 0, 0,0.0,0.0,0.0,1.0,0.0,0.0,0.0,0.0,0.0,0.0,0.0,0.0,0.0,48,support\guice\src\test\java\org\apache\shiro\guice\web\FilterConfigTest.java,0,0,0,0
org.apache.shiro.guice.web.GuiceShiroFilter, 0, 0, 0, 0, 0, 0, 0, 0, 0, 0, 0, 0, 0, 0,0.0,0.0,0.0,0.5,0.0,0.0,0.0,0.0,0.0,0.0,0.0,0.0,0.0,7,support\guice\src\main\java\org\apache\shiro\guice\web\GuiceShiroFilter.java,0,0,0,0
org.apache.shiro.guice.web.GuiceShiroFilterTest, 0, 0, 0, 0, 0, 0, 0, 0, 0, 0, 0, 0, 0, 0,0.0,0.0,0.0,0.5,0.0,0.0,0.0,0.0,0.0,0.0,0.0,0.0,0.0,18,support\guice\src\test\java\org\apache\shiro\guice\web\GuiceShiroFilterTest.java,0,0,0,0
org.apache.shiro.guice.web.ShiroWebModuleTest, 0, 0, 0, 0, 0, 0, 0, 0, 0, 0, 0, 0, 0, 0,0.0,0.0,0.0,0.0,0.0,0.0,0.0,0.0,0.0,0.0,0.0,0.0,0.0,95,support\guice\src\test\java\org\apache\shiro\guice\web\ShiroWebModuleTest.java,0,0,0,0
org.apache.shiro.guice.web.SimpleFilterChain, 0, 0, 0, 0, 0, 0, 0, 0, 0, 0, 0, 0, 0, 0,0.0,0.0,0.0,0.0,0.0,0.0,0.0,0.0,0.0,0.0,0.0,0.0,0.0,18,support\guice\src\main\java\org\apache\shiro\guice\web\SimpleFilterChain.java,0,0,0,0
org.apache.shiro.guice.web.SimpleFilterChainTest, 0, 0, 0, 0, 0, 0, 0, 0, 0, 0, 0, 0, 0, 0,0.0,0.0,0.0,0.0,0.0,0.0,0.0,0.0,0.0,0.0,0.0,0.0,0.0,22,support\guice\src\test\java\org\apache\shiro\guice\web\SimpleFilterChainTest.java,0,0,0,0
org.apache.shiro.guice.web.WebGuiceEnvironment, 0, 0, 0, 0, 0, 0, 0, 0, 0, 0, 0, 0, 0, 0,0.0,0.0,0.0,0.0,0.0,0.0,0.0,0.0,0.0,0.0,0.0,0.0,0.0,24,support\guice\src\main\java\org\apache\shiro\guice\web\WebGuiceEnvironment.java,0,0,0,0
org.apache.shiro.guice.web.WebGuiceEnvironmentTest, 0, 0, 0, 0, 0, 0, 0, 0, 0, 0, 0, 0, 0, 0,0.0,0.0,0.0,0.0,0.0,0.0,0.0,0.0,0.0,0.0,0.0,0.0,0.0,26,support\guice\src\test\java\org\apache\shiro\guice\web\WebGuiceEnvironmentTest.java,0,0,0,0
org.apache.shiro.io.ClassResolvingObjectInputStream, 0, 0, 0, 0, 0, 0, 0, 0, 0, 0, 0, 0, 0, 0,0.0,0.0,0.0,0.0,0.0,0.0,0.0,0.0,0.0,0.0,0.0,0.0,0.0,13,core\src\main\java\org\apache\shiro\io\ClassResolvingObjectInputStream.java,0,0,0,0
org.apache.shiro.io.DefaultSerializer, 0, 0, 0, 0, 0, 0, 0, 0, 0, 0, 0, 0, 0, 0,0.0,0.0,0.0,0.0,0.0,0.0,0.0,0.0,0.0,0.0,0.0,0.0,0.0,39,core\src\main\java\org\apache\shiro\io\DefaultSerializer.java,0,0,0,0
org.apache.shiro.io.ResourceUtils, 0, 0, 0, 0, 0, 0, 0, 0, 0, 0, 0, 0, 0, 0,0.0,0.0,0.0,0.0,0.0,0.0,0.0,0.0,0.0,0.0,0.0,0.0,0.0,76,core\src\main\java\org\apache\shiro\io\ResourceUtils.java,0,0,0,0
org.apache.shiro.io.SerializationException, 0, 0, 0, 0, 0, 0, 0, 0, 0, 0, 0, 0, 0, 0,0.0,0.0,0.0,0.0,0.0,0.0,0.0,0.0,0.0,0.0,0.0,0.0,0.0,15,core\src\main\java\org\apache\shiro\io\SerializationException.java,0,0,0,0
org.apache.shiro.io.SerializationExceptionTest, 0, 0, 0, 0, 0, 0, 0, 0, 0, 0, 0, 0, 0, 0,0.0,0.0,0.0,0.0,0.0,0.0,0.0,0.0,0.0,0.0,0.0,0.0,0.0,5,core\src\test\java\org\apache\shiro\io\SerializationExceptionTest.java,0,0,0,0
org.apache.shiro.io.Serializer, 0, 0, 0, 0, 0, 0, 0, 0, 0, 0, 0, 0, 0, 0,0.0,0.0,0.0,0.0,0.0,0.0,0.0,0.0,0.0,0.0,0.0,0.0,0.0,5,core\src\main\java\org\apache\shiro\io\Serializer.java,0,0,0,0
org.apache.shiro.io.XmlSerializer, 0, 0, 0, 0, 0, 0, 0, 0, 0, 0, 0, 0, 0, 0,0.0,0.0,0.0,0.0,0.0,0.0,0.0,0.0,0.0,0.0,0.0,0.0,0.0,23,core\src\main\java\org\apache\shiro\io\XmlSerializer.java,0,0,0,0
org.apache.shiro.jndi.JndiCallback, 0, 0, 0, 0, 0, 0, 0, 0, 0, 0, 0, 0, 0, 0,0.0,0.0,0.0,0.0,0.0,0.0,0.0,0.0,0.0,0.0,0.0,0.0,0.0,23,core\src\main\java\org\apache\shiro\jndi\JndiCallback.java,0,0,0,0
org.apache.shiro.jndi.JndiLocator, 0, 0, 0, 0, 0, 0, 0, 0, 0, 0, 0, 0, 0, 0,0.0,0.0,0.0,0.0,0.0,0.0,0.0,0.0,0.0,0.0,0.0,0.0,0.0,56,core\src\main\java\org\apache\shiro\jndi\JndiLocator.java,0,0,0,0
org.apache.shiro.jndi.JndiObjectFactory, 0, 0, 0, 0, 0, 0, 0, 0, 0, 0, 0, 0, 0, 0,0.0,0.0,0.0,0.0,0.0,0.0,0.0,0.0,0.0,0.0,0.0,0.0,0.0,28,core\src\main\java\org\apache\shiro\jndi\JndiObjectFactory.java,0,0,0,0
org.apache.shiro.jndi.JndiObjectFactoryTest, 0, 0, 0, 0, 0, 0, 0, 0, 0, 0, 0, 0, 0, 0,0.0,0.0,0.0,0.0,0.0,0.0,0.0,0.0,0.0,0.0,0.0,0.0,0.0,57,core\src\test\java\org\apache\shiro\jndi\JndiObjectFactoryTest.java,0,0,0,0
org.apache.shiro.ldap.UnsupportedAuthenticationMechanismException, 0, 0, 0, 0, 0, 0, 0, 0, 0, 0, 0, 0, 0, 0,0.0,0.0,0.0,0.0,0.0,0.0,0.0,0.0,0.0,0.0,0.0,0.0,0.0,8,core\src\main\java\org\apache\shiro\ldap\UnsupportedAuthenticationMechanismException.java,0,0,0,0
org.apache.shiro.mgt.AbstractRememberMeManager, 0, 0, 0, 1, 0, 0, 0, 0, 0, 0, 0, 0, 0, 1,0.0,0.0,0.0,0.0,0.0,0.0,0.0,0.0,0.0,0.0,0.0,0.0,0.0,138,core\src\main\java\org\apache\shiro\mgt\AbstractRememberMeManager.java,0,0,0,0
org.apache.shiro.mgt.AbstractRememberMeManagerTest, 0, 0, 0, 0, 0, 0, 0, 0, 0, 0, 0, 0, 0, 0,0.0,0.0,0.0,1.0,0.0,0.0,0.0,0.0,0.0,0.0,0.0,0.0,0.0,30,core\src\test\java\org\apache\shiro\mgt\AbstractRememberMeManagerTest.java,0,0,0,0
org.apache.shiro.mgt.AbstractSecurityManagerTest, 0, 0, 0, 0, 0, 0, 0, 0, 0, 0, 0, 0, 0, 0,0.0,0.0,0.0,0.0,0.0,0.0,0.0,0.0,0.0,0.0,0.0,0.0,0.0,13,core\src\test\java\org\apache\shiro\mgt\AbstractSecurityManagerTest.java,0,0,0,0
org.apache.shiro.mgt.AuthenticatingSecurityManager, 0, 0, 0, 0, 0, 0, 0, 0, 0, 0, 0, 0, 0, 0,0.0,0.0,0.0,0.4,0.0,0.0,0.0,0.0,0.0,0.0,0.0,0.0,0.0,31,core\src\main\java\org\apache\shiro\mgt\AuthenticatingSecurityManager.java,0,0,0,0
org.apache.shiro.mgt.AuthorizingSecurityManager, 0, 0, 0, 1, 0, 0, 0, 0, 0, 0, 0, 0, 0, 1,0.0,0.0,0.0,0.0,0.0,0.0,0.0,0.0,0.0,0.0,0.0,0.0,0.0,76,core\src\main\java\org\apache\shiro\mgt\AuthorizingSecurityManager.java,0,0,0,0
org.apache.shiro.mgt.CachingSecurityManager, 0, 0, 0, 0, 0, 0, 0, 0, 0, 0, 0, 0, 0, 0,0.0,0.0,0.0,0.0,0.0,0.0,0.0,0.0,0.0,0.0,0.0,0.0,0.0,18,core\src\main\java\org\apache\shiro\mgt\CachingSecurityManager.java,0,0,0,0
org.apache.shiro.mgt.DefaultSecurityManager, 0, 0, 0, 1, 0, 0, 0, 0, 0, 0, 0, 0, 0, 1,0.0,0.0,0.0,0.13333333333333333,0.0,0.0,0.0,0.06666666666666667,0.0,0.0,0.0,0.0,0.0,286,core\src\main\java\org\apache\shiro\mgt\DefaultSecurityManager.java,0,0,0,0
org.apache.shiro.mgt.DefaultSecurityManagerTest, 0, 0, 0, 0, 0, 0, 0, 0, 0, 0, 0, 0, 0, 0,0.0,0.0,0.0,0.14285714285714285,0.0,0.0,0.0,0.0,0.0,0.0,0.0,0.0,0.0,82,core\src\test\java\org\apache\shiro\mgt\DefaultSecurityManagerTest.java,0,0,0,0
org.apache.shiro.mgt.DefaultSessionStorageEvaluator, 0, 0, 0, 0, 0, 0, 0, 0, 0, 0, 0, 0, 0, 0,0.0,0.0,0.0,0.0,0.0,0.0,0.0,0.0,0.0,0.0,0.0,0.0,0.0,12,core\src\main\java\org\apache\shiro\mgt\DefaultSessionStorageEvaluator.java,0,0,0,0
org.apache.shiro.mgt.DefaultSubjectDAO, 0, 0, 0, 0, 0, 0, 0, 0, 0, 0, 0, 0, 0, 0,0.0,0.0,0.0,1.0,0.0,0.0,0.0,0.0,0.0,0.0,0.0,0.0,0.0,93,core\src\main\java\org\apache\shiro\mgt\DefaultSubjectDAO.java,0,0,0,0
org.apache.shiro.mgt.DefaultSubjectFactory, 0, 0, 0, 0, 0, 0, 0, 1, 0, 0, 0, 0, 0, 1,0.0,0.0,0.0,0.6666666666666666,0.0,0.0,0.0,0.6666666666666666,0.0,0.0,0.0,0.0,0.0,18,core\src\main\java\org\apache\shiro\mgt\DefaultSubjectFactory.java,0,0,0,0
org.apache.shiro.mgt.RealmSecurityManager, 0, 0, 0, 0, 0, 0, 0, 0, 0, 0, 0, 0, 0, 0,0.0,0.0,0.0,0.3,0.0,0.0,0.0,0.0,0.0,0.0,0.0,0.0,0.0,49,core\src\main\java\org\apache\shiro\mgt\RealmSecurityManager.java,0,0,0,0
org.apache.shiro.mgt.RememberMeManager, 0, 0, 0, 0, 0, 0, 0, 0, 0, 0, 0, 0, 0, 0,0.0,0.0,0.0,0.0,0.0,0.0,0.0,0.0,0.0,0.0,0.0,0.0,0.0,49,core\src\main\java\org\apache\shiro\mgt\RememberMeManager.java,0,0,0,0
org.apache.shiro.mgt.SecurityManager, 0, 0, 0, 0, 0, 0, 0, 0, 0, 0, 0, 0, 0, 0,0.0,0.0,0.0,0.0,0.0,0.0,0.0,0.0,0.0,0.0,0.0,0.0,0.0,49,core\src\main\java\org\apache\shiro\mgt\SecurityManager.java,0,0,0,0
org.apache.shiro.mgt.SessionStorageEvaluator, 0, 0, 0, 0, 0, 0, 0, 0, 0, 0, 0, 0, 0, 0,0.0,0.0,0.0,0.0,0.0,0.0,0.0,0.0,0.0,0.0,0.0,0.0,0.0,49,core\src\main\java\org\apache\shiro\mgt\SessionStorageEvaluator.java,0,0,0,0
org.apache.shiro.mgt.SessionsSecurityManager, 0, 0, 0, 0, 0, 0, 0, 0, 0, 0, 0, 0, 0, 0,0.0,0.0,0.0,0.2857142857142857,0.0,0.0,0.0,0.0,0.0,0.0,0.0,0.0,0.0,38,core\src\main\java\org\apache\shiro\mgt\SessionsSecurityManager.java,0,0,0,0
org.apache.shiro.mgt.SubjectDAO, 0, 0, 0, 0, 0, 0, 0, 0, 0, 0, 0, 0, 0, 0,0.0,0.0,0.0,0.0,0.0,0.0,0.0,0.0,0.0,0.0,0.0,0.0,0.0,38,core\src\main\java\org\apache\shiro\mgt\SubjectDAO.java,0,0,0,0
org.apache.shiro.mgt.VMSingletonDefaultSecurityManagerTest, 0, 0, 0, 0, 0, 0, 0, 0, 0, 0, 0, 0, 0, 0,0.0,0.0,0.0,0.16666666666666666,0.0,0.0,0.0,0.0,0.0,0.0,0.0,0.0,0.0,32,core\src\test\java\org\apache\shiro\mgt\VMSingletonDefaultSecurityManagerTest.java,0,0,0,0
org.apache.shiro.realm.AuthenticatingRealm, 0, 0, 0, 1, 0, 0, 0, 0, 0, 0, 0, 0, 0, 1,0.0,0.0,0.0,0.125,0.0,0.0,0.0,0.0,0.0,0.0,0.0,0.0,0.0,189,core\src\main\java\org\apache\shiro\realm\AuthenticatingRealm.java,0,0,0,0
org.apache.shiro.realm.AuthorizingRealm, 0, 0, 0, 1, 0, 0, 0, 0, 0, 0, 0, 0, 0, 1,0.0,0.0,0.0,0.2727272727272727,0.0,0.0,0.0,0.0,0.0,0.0,0.0,0.0,0.0,381,core\src\main\java\org\apache\shiro\realm\AuthorizingRealm.java,0,0,0,0
org.apache.shiro.realm.AuthorizingRealmTest, 0, 0, 0, 0, 0, 0, 0, 0, 0, 0, 0, 0, 0, 0,0.0,0.0,0.0,0.4,0.0,0.0,0.0,0.0,0.0,0.0,0.0,0.0,0.0,173,core\src\test\java\org\apache\shiro\realm\AuthorizingRealmTest.java,0,0,0,0
org.apache.shiro.realm.CachingRealm, 0, 0, 0, 0, 0, 0, 0, 0, 0, 0, 0, 0, 0, 0,0.0,0.0,0.0,0.5,0.0,0.0,0.0,0.0,0.0,0.0,0.0,0.0,0.0,55,core\src\main\java\org\apache\shiro\realm\CachingRealm.java,0,0,0,0
org.apache.shiro.realm.Realm, 0, 0, 0, 0, 0, 0, 0, 0, 0, 0, 0, 0, 0, 0,0.0,0.0,0.0,0.0,0.0,0.0,0.0,0.0,0.0,0.0,0.0,0.0,0.0,55,core\src\main\java\org\apache\shiro\realm\Realm.java,0,0,0,0
org.apache.shiro.realm.RealmFactory, 0, 0, 0, 0, 0, 0, 0, 0, 0, 0, 0, 0, 0, 0,0.0,0.0,0.0,0.0,0.0,0.0,0.0,0.0,0.0,0.0,0.0,0.0,0.0,55,core\src\main\java\org\apache\shiro\realm\RealmFactory.java,0,0,0,0
org.apache.shiro.realm.UserIdPrincipal, 0, 0, 0, 0, 0, 0, 0, 0, 0, 0, 0, 0, 0, 0,0.0,0.0,0.0,0.0,0.0,0.0,0.0,0.0,0.0,0.0,0.0,0.0,0.0,11,core\src\test\java\org\apache\shiro\realm\UserIdPrincipal.java,0,0,0,0
org.apache.shiro.realm.UsernamePrincipal, 0, 0, 0, 0, 0, 0, 0, 0, 0, 0, 0, 0, 0, 0,0.0,0.0,0.0,0.0,0.0,0.0,0.0,0.0,0.0,0.0,0.0,0.0,0.0,12,core\src\test\java\org\apache\shiro\realm\UsernamePrincipal.java,0,0,0,0
org.apache.shiro.realm.activedirectory.ActiveDirectoryRealmTest, 0, 0, 0, 0, 0, 0, 0, 0, 0, 0, 0, 0, 0, 0,0.0,0.0,0.0,0.2857142857142857,0.0,0.0,0.0,0.0,0.0,0.0,0.0,0.0,0.0,64,core\src\test\java\org\apache\shiro\realm\activedirectory\ActiveDirectoryRealmTest.java,0,0,0,0
org.apache.shiro.realm.jdbc.JdbcRealm, 0, 0, 0, 1, 0, 0, 0, 0, 0, 0, 0, 0, 0, 1,0.0,0.0,0.0,0.09090909090909091,0.0,0.0,0.0,0.0,0.0,0.0,0.0,0.0,0.0,194,core\src\main\java\org\apache\shiro\realm\jdbc\JdbcRealm.java,0,0,0,0
org.apache.shiro.realm.ldap.AbstractLdapRealm, 0, 0, 0, 1, 0, 0, 0, 0, 0, 0, 0, 0, 0, 1,0.0,0.0,0.0,0.5,0.0,0.0,0.0,0.0,0.0,0.0,0.0,0.0,0.0,70,core\src\main\java\org\apache\shiro\realm\ldap\AbstractLdapRealm.java,0,0,0,0
org.apache.shiro.realm.ldap.JndiLdapRealmTest, 0, 0, 0, 0, 0, 0, 0, 0, 0, 0, 0, 0, 0, 0,0.0,0.0,0.0,1.0,0.0,0.0,0.0,0.0,0.0,0.0,0.0,0.0,0.0,100,core\src\test\java\org\apache\shiro\realm\ldap\JndiLdapRealmTest.java,0,0,0,0
org.apache.shiro.realm.ldap.LdapContextFactory, 0, 0, 0, 0, 0, 0, 0, 0, 0, 0, 0, 0, 0, 0,0.0,0.0,0.0,0.0,0.0,0.0,0.0,0.0,0.0,0.0,0.0,0.0,0.0,100,core\src\main\java\org\apache\shiro\realm\ldap\LdapContextFactory.java,0,0,0,0
org.apache.shiro.realm.ldap.LdapUtils, 0, 0, 0, 0, 0, 0, 0, 0, 0, 0, 0, 0, 0, 0,0.0,0.0,0.0,0.0,0.0,0.0,0.0,0.0,0.0,0.0,0.0,0.0,0.0,35,core\src\main\java\org\apache\shiro\realm\ldap\LdapUtils.java,0,0,0,0
org.apache.shiro.realm.text.IniRealm, 0, 0, 0, 0, 0, 0, 0, 0, 0, 0, 0, 0, 0, 0,0.0,0.0,0.0,0.0,0.0,0.0,0.0,0.0,0.0,0.0,0.0,0.0,0.0,86,core\src\main\java\org\apache\shiro\realm\text\IniRealm.java,0,0,0,0
org.apache.shiro.realm.text.IniRealmTest, 0, 0, 0, 0, 0, 0, 0, 0, 0, 0, 0, 0, 0, 0,0.0,0.0,0.0,0.6666666666666666,0.0,0.0,0.0,0.0,0.0,0.0,0.0,0.0,0.0,32,core\src\test\java\org\apache\shiro\realm\text\IniRealmTest.java,0,0,0,0
org.apache.shiro.samples.aspectj.bank.Account, 0, 0, 0, 1, 0, 0, 0, 0, 0, 0, 0, 0, 0, 1,0.0,0.0,0.0,0.0,0.0,0.0,0.0,0.0,0.0,0.0,0.0,0.0,0.0,79,samples\aspectj\src\main\java\org\apache\shiro\samples\aspectj\bank\Account.java,0,0,0,0
org.apache.shiro.samples.aspectj.bank.AccountNotFoundException, 0, 0, 0, 0, 0, 0, 0, 0, 0, 0, 0, 0, 0, 0,0.0,0.0,0.0,0.0,0.0,0.0,0.0,0.0,0.0,0.0,0.0,0.0,0.0,5,samples\aspectj\src\main\java\org\apache\shiro\samples\aspectj\bank\AccountNotFoundException.java,0,0,0,0
org.apache.shiro.samples.aspectj.bank.AccountTransaction, 0, 0, 0, 0, 0, 0, 0, 0, 0, 0, 0, 0, 0, 0,0.0,0.0,0.0,1.0,0.0,0.0,0.0,0.0,0.0,0.0,0.0,0.0,0.0,58,samples\aspectj\src\main\java\org\apache\shiro\samples\aspectj\bank\AccountTransaction.java,0,0,0,0
org.apache.shiro.samples.aspectj.bank.BankServerRunner, 0, 0, 0, 0, 0, 0, 0, 0, 0, 0, 0, 0, 0, 0,0.0,0.0,0.0,0.0,0.0,0.0,0.0,0.0,0.0,0.0,0.0,0.0,0.0,30,samples\aspectj\src\main\java\org\apache\shiro\samples\aspectj\bank\BankServerRunner.java,0,0,0,0
org.apache.shiro.samples.aspectj.bank.BankService, 0, 0, 0, 0, 0, 0, 0, 0, 0, 0, 0, 0, 0, 0,0.0,0.0,0.0,0.0,0.0,0.0,0.0,0.0,0.0,0.0,0.0,0.0,0.0,30,samples\aspectj\src\main\java\org\apache\shiro\samples\aspectj\bank\BankService.java,0,0,0,0
org.apache.shiro.samples.aspectj.bank.BankServiceException, 0, 0, 0, 0, 0, 0, 0, 0, 0, 0, 0, 0, 0, 0,0.0,0.0,0.0,0.0,0.0,0.0,0.0,0.0,0.0,0.0,0.0,0.0,0.0,8,samples\aspectj\src\main\java\org\apache\shiro\samples\aspectj\bank\BankServiceException.java,0,0,0,0
org.apache.shiro.samples.aspectj.bank.InactiveAccountException, 0, 0, 0, 0, 0, 0, 0, 0, 0, 0, 0, 0, 0, 0,0.0,0.0,0.0,0.5,0.0,0.0,0.0,0.0,0.0,0.0,0.0,0.0,0.0,5,samples\aspectj\src\main\java\org\apache\shiro\samples\aspectj\bank\InactiveAccountException.java,0,0,0,0
org.apache.shiro.samples.aspectj.bank.NotEnoughFundsException, 0, 0, 0, 0, 0, 0, 0, 0, 0, 0, 0, 0, 0, 0,0.0,0.0,0.0,0.5,0.0,0.0,0.0,0.0,0.0,0.0,0.0,0.0,0.0,5,samples\aspectj\src\main\java\org\apache\shiro\samples\aspectj\bank\NotEnoughFundsException.java,0,0,0,0
org.apache.shiro.samples.aspectj.bank.SecureBankServiceTest, 0, 0, 0, 1, 0, 0, 0, 1, 0, 0, 0, 0, 0, 2,0.0,0.0,0.0,0.0,0.0,0.0,0.0,0.0,0.0,0.0,0.0,0.0,0.0,172,samples\aspectj\src\test\java\org\apache\shiro\samples\aspectj\bank\SecureBankServiceTest.java,0,0,0,0
org.apache.shiro.samples.sprhib.dao.BootstrapDataPopulator, 0, 0, 0, 0, 0, 0, 0, 0, 0, 0, 0, 0, 0, 0,0.0,0.0,0.0,0.5,0.0,0.0,0.0,0.0,0.0,0.0,0.0,0.0,0.0,21,samples\spring-hibernate\src\main\java\org\apache\shiro\samples\sprhib\dao\BootstrapDataPopulator.java,0,0,0,0
org.apache.shiro.samples.sprhib.dao.HibernateDao, 0, 0, 0, 0, 0, 0, 0, 0, 0, 0, 0, 0, 0, 0,0.0,0.0,0.0,0.0,0.0,0.0,0.0,0.0,0.0,0.0,0.0,0.0,0.0,10,samples\spring-hibernate\src\main\java\org\apache\shiro\samples\sprhib\dao\HibernateDao.java,0,0,0,0
org.apache.shiro.samples.sprhib.dao.HibernateUserDAO, 0, 0, 0, 0, 0, 0, 0, 0, 0, 0, 0, 0, 0, 0,0.0,0.0,0.0,0.0,0.0,0.0,0.0,0.0,0.0,0.0,0.0,0.0,0.0,25,samples\spring-hibernate\src\main\java\org\apache\shiro\samples\sprhib\dao\HibernateUserDAO.java,0,0,0,0
org.apache.shiro.samples.sprhib.dao.UserDAO, 0, 0, 0, 0, 0, 0, 0, 0, 0, 0, 0, 0, 0, 0,0.0,0.0,0.0,0.0,0.0,0.0,0.0,0.0,0.0,0.0,0.0,0.0,0.0,25,samples\spring-hibernate\src\main\java\org\apache\shiro\samples\sprhib\dao\UserDAO.java,0,0,0,0
org.apache.shiro.samples.sprhib.model.Role, 0, 0, 0, 0, 0, 0, 0, 0, 0, 0, 0, 0, 0, 0,0.0,0.0,0.0,0.0,0.0,0.0,0.0,0.0,0.0,0.0,0.0,0.0,0.0,45,samples\spring-hibernate\src\main\java\org\apache\shiro\samples\sprhib\model\Role.java,0,0,0,0
org.apache.shiro.samples.sprhib.model.User, 0, 0, 0, 0, 0, 0, 0, 0, 0, 0, 0, 0, 0, 0,0.0,0.0,0.0,0.0,0.0,0.0,0.0,0.0,0.0,0.0,0.0,0.0,0.0,49,samples\spring-hibernate\src\main\java\org\apache\shiro\samples\sprhib\model\User.java,0,0,0,0
org.apache.shiro.samples.sprhib.security.SampleRealm, 0, 0, 0, 0, 0, 0, 0, 0, 0, 0, 0, 0, 0, 0,0.0,0.0,0.0,0.25,0.0,0.0,0.0,0.0,0.0,0.0,0.0,0.0,0.0,34,samples\spring-hibernate\src\main\java\org\apache\shiro\samples\sprhib\security\SampleRealm.java,0,0,0,0
org.apache.shiro.samples.sprhib.service.DefaultUserService, 0, 0, 0, 0, 0, 0, 0, 0, 0, 0, 0, 0, 0, 0,0.0,0.0,0.0,0.25,0.0,0.0,0.0,0.0,0.0,0.0,0.0,0.0,0.0,34,samples\spring-hibernate\src\main\java\org\apache\shiro\samples\sprhib\service\DefaultUserService.java,0,0,0,0
org.apache.shiro.samples.sprhib.service.UserService, 0, 0, 0, 0, 0, 0, 0, 0, 0, 0, 0, 0, 0, 0,0.0,0.0,0.0,0.0,0.0,0.0,0.0,0.0,0.0,0.0,0.0,0.0,0.0,34,samples\spring-hibernate\src\main\java\org\apache\shiro\samples\sprhib\service\UserService.java,0,0,0,0
org.apache.shiro.samples.sprhib.web.CurrentUserInterceptor, 0, 0, 0, 0, 0, 0, 0, 0, 0, 0, 0, 0, 0, 0,0.0,0.0,0.0,0.0,0.0,0.0,0.0,0.0,0.0,0.0,0.0,0.0,0.0,14,samples\spring-hibernate\src\main\java\org\apache\shiro\samples\sprhib\web\CurrentUserInterceptor.java,0,0,0,0
org.apache.shiro.samples.sprhib.web.EditUserCommand, 0, 0, 0, 0, 0, 0, 0, 0, 0, 0, 0, 0, 0, 0,0.0,0.0,0.0,0.2,0.0,0.0,0.0,0.0,0.0,0.0,0.0,0.0,0.0,38,samples\spring-hibernate\src\main\java\org\apache\shiro\samples\sprhib\web\EditUserCommand.java,0,0,0,0
org.apache.shiro.samples.sprhib.web.EditUserValidator, 0, 0, 0, 0, 0, 0, 0, 0, 0, 0, 0, 0, 0, 0,0.0,0.0,0.0,0.0,0.0,0.0,0.0,0.0,0.0,0.0,0.0,0.0,0.0,14,samples\spring-hibernate\src\main\java\org\apache\shiro\samples\sprhib\web\EditUserValidator.java,0,0,0,0
org.apache.shiro.samples.sprhib.web.HomeController, 0, 0, 0, 0, 0, 0, 0, 0, 0, 0, 0, 0, 0, 0,0.0,0.0,0.0,0.0,0.0,0.0,0.0,0.0,0.0,0.0,0.0,0.0,0.0,11,samples\spring-hibernate\src\main\java\org\apache\shiro\samples\sprhib\web\HomeController.java,0,0,0,0
org.apache.shiro.samples.sprhib.web.LoginCommand, 0, 0, 0, 0, 0, 0, 0, 0, 0, 0, 0, 0, 0, 0,0.0,0.0,0.0,0.0,0.0,0.0,0.0,0.0,0.0,0.0,0.0,0.0,0.0,23,samples\spring-hibernate\src\main\java\org\apache\shiro\samples\sprhib\web\LoginCommand.java,0,0,0,0
org.apache.shiro.samples.sprhib.web.LoginValidator, 0, 0, 0, 0, 0, 0, 0, 0, 0, 0, 0, 0, 0, 0,0.0,0.0,0.0,0.0,0.0,0.0,0.0,0.0,0.0,0.0,0.0,0.0,0.0,9,samples\spring-hibernate\src\main\java\org\apache\shiro\samples\sprhib\web\LoginValidator.java,0,0,0,0
org.apache.shiro.samples.sprhib.web.ManageUsersController, 0, 0, 0, 0, 0, 0, 0, 0, 0, 0, 0, 0, 0, 0,0.0,0.0,0.0,0.0,0.0,0.0,0.0,0.0,0.0,0.0,0.0,0.0,0.0,41,samples\spring-hibernate\src\main\java\org\apache\shiro\samples\sprhib\web\ManageUsersController.java,0,0,0,0
org.apache.shiro.samples.sprhib.web.SecurityController, 0, 0, 0, 0, 0, 0, 0, 0, 0, 0, 0, 0, 0, 0,0.0,0.0,0.0,0.0,0.0,0.0,0.0,0.0,0.0,0.0,0.0,0.0,0.0,30,samples\spring-hibernate\src\main\java\org\apache\shiro\samples\sprhib\web\SecurityController.java,0,0,0,0
org.apache.shiro.samples.sprhib.web.SignupCommand, 0, 0, 0, 0, 0, 0, 0, 0, 0, 0, 0, 0, 0, 0,0.0,0.0,0.0,0.0,0.0,0.0,0.0,0.0,0.0,0.0,0.0,0.0,0.0,23,samples\spring-hibernate\src\main\java\org\apache\shiro\samples\sprhib\web\SignupCommand.java,0,0,0,0
org.apache.shiro.samples.sprhib.web.SignupController, 0, 0, 0, 0, 0, 0, 0, 0, 0, 0, 0, 0, 0, 0,0.0,0.0,0.0,0.0,0.0,0.0,0.0,0.0,0.0,0.0,0.0,0.0,0.0,22,samples\spring-hibernate\src\main\java\org\apache\shiro\samples\sprhib\web\SignupController.java,0,0,0,0
org.apache.shiro.samples.sprhib.web.SignupValidator, 0, 0, 0, 0, 0, 0, 0, 0, 0, 0, 0, 0, 0, 0,0.0,0.0,0.0,0.0,0.0,0.0,0.0,0.0,0.0,0.0,0.0,0.0,0.0,15,samples\spring-hibernate\src\main\java\org\apache\shiro\samples\sprhib\web\SignupValidator.java,0,0,0,0
org.apache.shiro.samples.spring.BootstrapDataPopulator, 0, 0, 0, 0, 0, 0, 0, 0, 0, 0, 0, 0, 0, 0,0.0,0.0,0.0,0.5,0.0,0.0,0.0,0.0,0.0,0.0,0.0,0.0,0.0,60,samples\spring\src\main\java\org\apache\shiro\samples\spring\BootstrapDataPopulator.java,0,0,0,0
org.apache.shiro.samples.spring.DefaultSampleManager, 0, 0, 0, 0, 0, 0, 0, 0, 0, 0, 0, 0, 0, 0,0.0,0.0,0.0,0.0,0.0,0.0,0.0,0.0,0.0,0.0,0.0,0.0,0.0,39,samples\spring\src\main\java\org\apache\shiro\samples\spring\DefaultSampleManager.java,0,0,0,0
org.apache.shiro.samples.spring.SampleManager, 0, 0, 0, 0, 0, 0, 0, 0, 0, 0, 0, 0, 0, 0,0.0,0.0,0.0,0.0,0.0,0.0,0.0,0.0,0.0,0.0,0.0,0.0,0.0,39,samples\spring-client\src\main\java\org\apache\shiro\samples\spring\SampleManager.java,0,0,0,0
org.apache.shiro.samples.spring.realm.SaltAwareJdbcRealm, 0, 0, 0, 0, 0, 0, 0, 0, 0, 0, 0, 0, 0, 0,0.0,0.0,0.0,0.14285714285714285,0.0,0.0,0.0,0.0,0.0,0.0,0.0,0.0,0.0,54,samples\spring\src\main\java\org\apache\shiro\samples\spring\realm\SaltAwareJdbcRealm.java,0,0,0,0
org.apache.shiro.samples.spring.ui.WebStartDriver, 1, 0, 1, 0, 0, 0, 0, 0, 0, 0, 0, 0, 0, 2,0.0,0.0,0.0,0.0,0.0,0.0,0.0,0.0,0.0,0.0,0.0,0.0,0.0,7,samples\spring-client\src\main\java\org\apache\shiro\samples\spring\ui\WebStartDriver.java,0,0,0,0
org.apache.shiro.samples.spring.web.LoginCommand, 0, 0, 0, 0, 0, 0, 0, 0, 0, 0, 0, 0, 0, 0,0.0,0.0,0.0,0.0,0.0,0.0,0.0,0.0,0.0,0.0,0.0,0.0,0.0,15,samples\spring\src\main\java\org\apache\shiro\samples\spring\web\LoginCommand.java,0,0,0,0
org.apache.shiro.samples.spring.web.LoginController, 0, 0, 0, 0, 0, 0, 0, 0, 0, 0, 0, 0, 0, 0,0.0,0.0,0.0,0.0,0.0,0.0,0.0,0.0,0.0,0.0,0.0,0.0,0.0,17,samples\spring\src\main\java\org\apache\shiro\samples\spring\web\LoginController.java,0,0,0,0
org.apache.shiro.samples.spring.web.LogoutController, 0, 0, 0, 0, 0, 0, 0, 0, 0, 0, 0, 0, 0, 0,0.0,0.0,0.0,0.0,0.0,0.0,0.0,0.0,0.0,0.0,0.0,0.0,0.0,5,samples\spring\src\main\java\org\apache\shiro\samples\spring\web\LogoutController.java,0,0,0,0
org.apache.shiro.samples.spring.web.SessionValueCommand, 0, 0, 0, 0, 0, 0, 0, 0, 0, 0, 0, 0, 0, 0,0.0,0.0,0.0,0.0,0.0,0.0,0.0,0.0,0.0,0.0,0.0,0.0,0.0,9,samples\spring\src\main\java\org\apache\shiro\samples\spring\web\SessionValueCommand.java,0,0,0,0
org.apache.shiro.session.ExpiredSessionException, 0, 0, 0, 0, 0, 0, 0, 0, 0, 0, 0, 0, 0, 0,0.0,0.0,0.0,0.2,0.0,0.0,0.0,0.0,0.0,0.0,0.0,0.0,0.0,14,core\src\main\java\org\apache\shiro\session\ExpiredSessionException.java,0,0,0,0
org.apache.shiro.session.InvalidSessionException, 0, 0, 0, 0, 0, 0, 0, 0, 0, 0, 0, 0, 0, 0,0.0,0.0,0.0,0.5,0.0,0.0,0.0,0.0,0.0,0.0,0.0,0.0,0.0,14,core\src\main\java\org\apache\shiro\session\InvalidSessionException.java,0,0,0,0
org.apache.shiro.session.ProxiedSession, 0, 0, 0, 0, 0, 0, 0, 0, 0, 0, 0, 0, 0, 0,0.0,0.0,0.0,0.0,0.0,0.0,0.0,0.0,0.0,0.0,0.0,0.0,0.0,45,core\src\main\java\org\apache\shiro\session\ProxiedSession.java,0,0,0,0
org.apache.shiro.session.Session, 0, 0, 0, 0, 0, 0, 0, 0, 0, 0, 0, 0, 0, 0,0.0,0.0,0.0,0.0,0.0,0.0,0.0,0.0,0.0,0.0,0.0,0.0,0.0,45,core\src\main\java\org\apache\shiro\session\Session.java,0,0,0,0
org.apache.shiro.session.SessionException, 0, 0, 0, 0, 0, 0, 0, 0, 0, 0, 0, 0, 0, 0,0.0,0.0,0.0,0.2,0.0,0.0,0.0,0.2,0.0,0.0,0.0,0.0,0.0,14,core\src\main\java\org\apache\shiro\session\SessionException.java,0,0,0,0
org.apache.shiro.session.SessionListener, 0, 0, 0, 0, 0, 0, 0, 0, 0, 0, 0, 0, 0, 0,0.0,0.0,0.0,0.0,0.0,0.0,0.0,0.0,0.0,0.0,0.0,0.0,0.0,14,core\src\main\java\org\apache\shiro\session\SessionListener.java,0,0,0,0
org.apache.shiro.session.SessionListenerAdapter, 0, 0, 0, 0, 0, 0, 0, 0, 0, 0, 0, 0, 0, 0,0.0,0.0,0.0,0.0,0.0,0.0,0.0,0.0,0.0,0.0,0.0,0.0,0.0,8,core\src\main\java\org\apache\shiro\session\SessionListenerAdapter.java,0,0,0,0
org.apache.shiro.session.StoppedSessionException, 0, 0, 0, 0, 0, 0, 0, 0, 0, 0, 0, 0, 0, 0,0.0,0.0,0.0,0.0,0.0,0.0,0.0,0.0,0.0,0.0,0.0,0.0,0.0,14,core\src\main\java\org\apache\shiro\session\StoppedSessionException.java,0,0,0,0
org.apache.shiro.session.UnknownSessionException, 0, 0, 0, 0, 0, 0, 0, 0, 0, 0, 0, 0, 0, 0,0.0,0.0,0.0,0.5,0.0,0.0,0.0,0.0,0.0,0.0,0.0,0.0,0.0,14,core\src\main\java\org\apache\shiro\session\UnknownSessionException.java,0,0,0,0
org.apache.shiro.session.mgt.AbstractNativeSessionManager, 0, 0, 0, 1, 0, 0, 0, 0, 0, 0, 0, 0, 0, 1,0.0,0.0,0.0,0.1111111111111111,0.0,0.0,0.0,0.0,0.0,0.0,0.0,0.0,0.0,156,core\src\main\java\org\apache\shiro\session\mgt\AbstractNativeSessionManager.java,0,0,0,0
org.apache.shiro.session.mgt.AbstractSessionManager, 0, 0, 0, 0, 0, 0, 0, 0, 0, 0, 0, 0, 0, 0,0.0,0.0,0.0,0.5,0.0,0.0,0.0,0.0,0.0,0.0,0.0,0.0,0.0,15,core\src\main\java\org\apache\shiro\session\mgt\AbstractSessionManager.java,0,0,0,0
org.apache.shiro.session.mgt.AbstractValidatingSessionManager, 0, 0, 0, 1, 0, 0, 0, 0, 0, 0, 0, 0, 0, 1,0.0,0.0,0.0,0.2222222222222222,0.0,0.0,0.0,0.0,0.0,0.0,0.0,0.0,0.0,188,core\src\main\java\org\apache\shiro\session\mgt\AbstractValidatingSessionManager.java,0,0,0,0
org.apache.shiro.session.mgt.AbstractValidatingSessionManagerTest, 0, 0, 0, 0, 0, 0, 0, 0, 0, 0, 0, 0, 0, 0,0.0,0.0,0.0,1.0,0.0,0.0,0.0,0.0,0.0,0.0,0.0,0.0,0.0,70,core\src\test\java\org\apache\shiro\session\mgt\AbstractValidatingSessionManagerTest.java,0,0,0,0
org.apache.shiro.session.mgt.DefaultSessionKey, 0, 0, 0, 0, 0, 0, 0, 0, 0, 0, 0, 0, 0, 0,0.0,0.0,0.0,0.5,0.0,0.0,0.0,0.0,0.0,0.0,0.0,0.0,0.0,14,core\src\main\java\org\apache\shiro\session\mgt\DefaultSessionKey.java,0,0,0,0
org.apache.shiro.session.mgt.DefaultSessionManager, 0, 0, 0, 1, 0, 0, 0, 0, 0, 0, 0, 0, 0, 1,0.0,0.0,0.0,0.2,0.0,0.0,0.0,0.0,0.0,0.0,0.0,0.0,0.0,115,core\src\main\java\org\apache\shiro\session\mgt\DefaultSessionManager.java,0,0,0,0
org.apache.shiro.session.mgt.DelegatingSession, 0, 0, 0, 0, 0, 0, 0, 0, 0, 0, 0, 0, 0, 0,0.0,0.0,0.0,0.5,0.0,0.0,0.0,0.0,0.0,0.0,0.0,0.0,0.0,68,core\src\main\java\org\apache\shiro\session\mgt\DelegatingSession.java,0,0,0,0
org.apache.shiro.session.mgt.DelegatingSessionTest, 0, 0, 0, 0, 0, 0, 0, 0, 0, 0, 0, 0, 0, 0,0.0,0.0,0.0,0.42857142857142855,0.0,0.0,0.0,0.0,0.0,0.0,0.0,0.0,0.0,36,core\src\test\java\org\apache\shiro\session\mgt\DelegatingSessionTest.java,0,0,0,0
org.apache.shiro.session.mgt.ExecutorServiceSessionValidationScheduler, 0, 0, 0, 0, 0, 0, 0, 0, 0, 0, 0, 0, 0, 0,0.0,0.0,0.0,1.0,0.0,0.0,0.0,0.0,0.0,0.0,0.0,0.0,0.0,56,core\src\main\java\org\apache\shiro\session\mgt\ExecutorServiceSessionValidationScheduler.java,0,0,0,0
org.apache.shiro.session.mgt.ImmutableProxiedSession, 0, 0, 0, 0, 0, 0, 0, 0, 0, 0, 0, 0, 0, 0,0.0,0.0,0.0,0.3333333333333333,0.0,0.0,0.0,0.0,0.0,0.0,0.0,0.0,0.0,26,core\src\main\java\org\apache\shiro\session\mgt\ImmutableProxiedSession.java,0,0,0,0
org.apache.shiro.session.mgt.NativeSessionManager, 0, 0, 0, 0, 0, 0, 0, 0, 0, 0, 0, 0, 0, 0,0.0,0.0,0.0,0.0,0.0,0.0,0.0,0.0,0.0,0.0,0.0,0.0,0.0,26,core\src\main\java\org\apache\shiro\session\mgt\NativeSessionManager.java,0,0,0,0
org.apache.shiro.session.mgt.SessionFactory, 0, 0, 0, 0, 0, 0, 0, 0, 0, 0, 0, 0, 0, 0,0.0,0.0,0.0,0.0,0.0,0.0,0.0,0.0,0.0,0.0,0.0,0.0,0.0,26,core\src\main\java\org\apache\shiro\session\mgt\SessionFactory.java,0,0,0,0
org.apache.shiro.session.mgt.SessionKey, 0, 0, 0, 0, 0, 0, 0, 0, 0, 0, 0, 0, 0, 0,0.0,0.0,0.0,0.0,0.0,0.0,0.0,0.0,0.0,0.0,0.0,0.0,0.0,26,core\src\main\java\org\apache\shiro\session\mgt\SessionKey.java,0,0,0,0
org.apache.shiro.session.mgt.SessionManager, 0, 0, 0, 0, 0, 0, 0, 0, 0, 0, 0, 0, 0, 0,0.0,0.0,0.0,0.0,0.0,0.0,0.0,0.0,0.0,0.0,0.0,0.0,0.0,26,core\src\main\java\org\apache\shiro\session\mgt\SessionManager.java,0,0,0,0
org.apache.shiro.session.mgt.SessionValidationScheduler, 0, 0, 0, 0, 0, 0, 0, 0, 0, 0, 0, 0, 0, 0,0.0,0.0,0.0,0.0,0.0,0.0,0.0,0.0,0.0,0.0,0.0,0.0,0.0,26,core\src\main\java\org\apache\shiro\session\mgt\SessionValidationScheduler.java,0,0,0,0
org.apache.shiro.session.mgt.SimpleSessionFactory, 0, 0, 0, 0, 0, 0, 0, 0, 0, 0, 0, 0, 0, 0,0.0,0.0,0.0,0.0,0.0,0.0,0.0,0.0,0.0,0.0,0.0,0.0,0.0,11,core\src\main\java\org\apache\shiro\session\mgt\SimpleSessionFactory.java,0,0,0,0
org.apache.shiro.session.mgt.SimpleSessionTest, 0, 0, 0, 0, 0, 0, 0, 0, 0, 0, 0, 0, 0, 0,0.0,0.0,0.0,0.0,0.0,0.0,0.0,0.0,0.0,0.0,0.0,0.0,0.0,31,core\src\test\java\org\apache\shiro\session\mgt\SimpleSessionTest.java,0,0,0,0
org.apache.shiro.session.mgt.ValidatingSession, 0, 0, 0, 0, 0, 0, 0, 0, 0, 0, 0, 0, 0, 0,0.0,0.0,0.0,0.0,0.0,0.0,0.0,0.0,0.0,0.0,0.0,0.0,0.0,31,core\src\main\java\org\apache\shiro\session\mgt\ValidatingSession.java,0,0,0,0
org.apache.shiro.session.mgt.ValidatingSessionManager, 0, 0, 0, 0, 0, 0, 0, 0, 0, 0, 0, 0, 0, 0,0.0,0.0,0.0,0.0,0.0,0.0,0.0,0.0,0.0,0.0,0.0,0.0,0.0,31,core\src\main\java\org\apache\shiro\session\mgt\ValidatingSessionManager.java,0,0,0,0
org.apache.shiro.session.mgt.eis.AbstractSessionDAO, 0, 0, 0, 0, 0, 0, 0, 0, 0, 0, 0, 0, 0, 0,0.0,0.0,0.0,0.5,0.0,0.0,0.0,0.0,0.0,0.0,0.0,0.0,0.0,42,core\src\main\java\org\apache\shiro\session\mgt\eis\AbstractSessionDAO.java,0,0,0,0
org.apache.shiro.session.mgt.eis.CachingSessionDAO, 0, 0, 0, 1, 0, 0, 0, 0, 0, 0, 0, 0, 0, 1,0.0,0.0,0.0,0.0,0.0,0.0,0.0,0.0,0.0,0.0,0.0,0.0,0.0,118,core\src\main\java\org\apache\shiro\session\mgt\eis\CachingSessionDAO.java,0,0,0,0
org.apache.shiro.session.mgt.eis.SessionDAO, 0, 0, 0, 0, 0, 0, 0, 0, 0, 0, 0, 0, 0, 0,0.0,0.0,0.0,0.0,0.0,0.0,0.0,0.0,0.0,0.0,0.0,0.0,0.0,118,core\src\main\java\org\apache\shiro\session\mgt\eis\SessionDAO.java,0,0,0,0
org.apache.shiro.session.mgt.eis.SessionIdGenerator, 0, 0, 0, 0, 0, 0, 0, 0, 0, 0, 0, 0, 0, 0,0.0,0.0,0.0,0.0,0.0,0.0,0.0,0.0,0.0,0.0,0.0,0.0,0.0,118,core\src\main\java\org\apache\shiro\session\mgt\eis\SessionIdGenerator.java,0,0,0,0
org.apache.shiro.session.mgt.quartz.QuartzSessionValidationJob, 0, 0, 0, 0, 0, 0, 0, 0, 0, 0, 0, 0, 0, 0,0.0,0.0,0.0,0.0,0.0,0.0,0.0,0.0,0.0,0.0,0.0,0.0,0.0,15,support\quartz\src\main\java\org\apache\shiro\session\mgt\quartz\QuartzSessionValidationJob.java,0,0,0,0
org.apache.shiro.session.mgt.quartz.QuartzSessionValidationScheduler, 0, 0, 0, 0, 0, 0, 0, 0, 0, 0, 0, 0, 0, 0,0.0,0.0,0.0,0.0,0.0,0.0,0.0,0.0,0.0,0.0,0.0,0.0,0.0,109,support\quartz\src\main\java\org\apache\shiro\session\mgt\quartz\QuartzSessionValidationScheduler.java,0,0,0,0
org.apache.shiro.spring.LifecycleBeanPostProcessor, 0, 0, 0, 0, 0, 0, 0, 0, 0, 0, 0, 0, 0, 0,0.0,0.0,0.0,0.0,0.0,0.0,0.0,0.0,0.0,0.0,0.0,0.0,0.0,41,support\spring\src\main\java\org\apache\shiro\spring\LifecycleBeanPostProcessor.java,0,0,0,0
org.apache.shiro.spring.aop.SpringAnnotationResolver, 0, 0, 0, 0, 0, 0, 0, 0, 0, 0, 0, 0, 0, 0,0.0,0.0,0.0,0.0,0.0,0.0,0.0,0.0,0.0,0.0,0.0,0.0,0.0,12,support\spring\src\main\java\org\apache\shiro\spring\aop\SpringAnnotationResolver.java,0,0,0,0
org.apache.shiro.spring.remoting.SecureRemoteInvocationExecutor, 0, 0, 0, 0, 0, 0, 0, 0, 0, 0, 0, 0, 0, 0,0.0,0.0,0.0,0.0,0.0,0.0,0.0,0.0,0.0,0.0,0.0,0.0,0.0,49,support\spring\src\main\java\org\apache\shiro\spring\remoting\SecureRemoteInvocationExecutor.java,0,0,0,0
org.apache.shiro.spring.remoting.SecureRemoteInvocationFactoryTest, 0, 0, 0, 0, 0, 0, 0, 0, 0, 0, 0, 0, 0, 0,0.0,0.0,0.0,0.0,0.0,0.0,0.0,0.0,0.0,0.0,0.0,0.0,0.0,47,support\spring\src\test\java\org\apache\shiro\spring\remoting\SecureRemoteInvocationFactoryTest.java,0,0,0,0
org.apache.shiro.spring.security.interceptor.AbstractAuthorizationAnnotationTest, 0, 0, 0, 1, 0, 0, 0, 0, 0, 0, 0, 0, 0, 1,0.0,0.0,0.0,0.0,0.0,0.0,0.0,0.0,0.0,0.0,0.0,0.0,0.0,77,support\spring\src\test\java\org\apache\shiro\spring\security\interceptor\AbstractAuthorizationAnnotationTest.java,0,0,0,0
org.apache.shiro.spring.security.interceptor.AopAllianceAnnotationsAuthorizingMethodInterceptor, 0, 0, 0, 0, 0, 0, 0, 0, 0, 0, 0, 0, 0, 0,0.0,0.0,0.0,0.0,0.0,0.0,0.0,0.0,0.0,0.0,0.0,0.0,0.0,42,support\spring\src\main\java\org\apache\shiro\spring\security\interceptor\AopAllianceAnnotationsAuthorizingMethodInterceptor.java,0,0,0,0
org.apache.shiro.spring.security.interceptor.AuthorizationAttributeSourceAdvisor, 0, 0, 0, 0, 0, 0, 0, 0, 0, 0, 0, 0, 0, 0,0.0,0.0,0.0,0.0,0.0,0.0,0.0,0.0,0.0,0.0,0.0,0.0,0.0,43,support\spring\src\main\java\org\apache\shiro\spring\security\interceptor\AuthorizationAttributeSourceAdvisor.java,0,0,0,0
org.apache.shiro.spring.security.interceptor.DapcAuthorizationAnnotationTest, 0, 0, 0, 0, 0, 0, 0, 0, 0, 0, 0, 0, 0, 0,0.0,0.0,0.0,1.0,0.0,0.0,0.0,0.0,0.0,0.0,0.0,0.0,0.0,17,support\spring\src\test\java\org\apache\shiro\spring\security\interceptor\DapcAuthorizationAnnotationTest.java,0,0,0,0
org.apache.shiro.spring.security.interceptor.DefaultTestService, 0, 0, 0, 0, 0, 0, 0, 0, 0, 0, 0, 0, 0, 0,0.0,0.0,0.0,0.0,0.0,0.0,0.0,0.0,0.0,0.0,0.0,0.0,0.0,27,support\spring\src\test\java\org\apache\shiro\spring\security\interceptor\DefaultTestService.java,0,0,0,0
org.apache.shiro.spring.security.interceptor.SchemaAuthorizationAnnotationTest, 0, 0, 0, 0, 0, 0, 0, 0, 0, 0, 0, 0, 0, 0,0.0,0.0,0.0,1.0,0.0,0.0,0.0,0.0,0.0,0.0,0.0,0.0,0.0,2,support\spring\src\test\java\org\apache\shiro\spring\security\interceptor\SchemaAuthorizationAnnotationTest.java,0,0,0,0
org.apache.shiro.spring.security.interceptor.TestService, 0, 0, 0, 0, 0, 0, 0, 0, 0, 0, 0, 0, 0, 0,0.0,0.0,0.0,0.0,0.0,0.0,0.0,0.0,0.0,0.0,0.0,0.0,0.0,2,support\spring\src\test\java\org\apache\shiro\spring\security\interceptor\TestService.java,0,0,0,0
org.apache.shiro.spring.web.DummyFilter, 0, 0, 0, 0, 0, 0, 0, 0, 0, 0, 0, 0, 0, 0,0.0,0.0,0.0,0.0,0.0,0.0,0.0,0.0,0.0,0.0,0.0,0.0,0.0,10,support\spring\src\test\java\org\apache\shiro\spring\web\DummyFilter.java,0,0,0,0
org.apache.shiro.spring.web.ShiroFilterFactoryBeanTest, 0, 0, 0, 0, 0, 0, 0, 0, 0, 0, 0, 0, 0, 0,0.0,0.0,0.0,0.25,0.0,0.0,0.0,0.0,0.0,0.0,0.0,0.0,0.0,47,support\spring\src\test\java\org\apache\shiro\spring\web\ShiroFilterFactoryBeanTest.java,0,0,0,0
org.apache.shiro.subject.DelegatingSubjectTest, 0, 0, 0, 0, 0, 0, 0, 0, 0, 0, 0, 0, 0, 0,0.0,0.0,0.0,0.3333333333333333,0.0,0.0,0.0,0.16666666666666666,0.0,0.0,0.0,0.0,0.0,128,core\src\test\java\org\apache\shiro\subject\DelegatingSubjectTest.java,0,0,0,0
org.apache.shiro.subject.ExecutionException, 0, 0, 0, 0, 0, 0, 0, 0, 0, 0, 0, 0, 0, 0,0.0,0.0,0.0,0.5,0.0,0.0,0.0,0.25,0.0,0.0,0.0,0.0,0.0,8,core\src\main\java\org\apache\shiro\subject\ExecutionException.java,0,0,0,0
org.apache.shiro.subject.MutablePrincipalCollection, 0, 0, 0, 0, 0, 0, 0, 0, 0, 0, 0, 0, 0, 0,0.0,0.0,0.0,0.0,0.0,0.0,0.0,0.0,0.0,0.0,0.0,0.0,0.0,8,core\src\main\java\org\apache\shiro\subject\MutablePrincipalCollection.java,0,0,0,0
org.apache.shiro.subject.Subject, 0, 0, 0, 0, 0, 0, 0, 0, 0, 0, 0, 0, 0, 0,0.0,0.0,0.0,0.0,0.0,0.0,0.0,0.0,0.0,0.0,0.0,0.0,0.0,8,core\src\main\java\org\apache\shiro\subject\Subject.java,0,0,0,0
org.apache.shiro.subject.support.DefaultSubjectContext, 0, 0, 0, 1, 0, 0, 0, 0, 0, 0, 0, 0, 0, 1,0.0,0.0,0.0,0.2,0.0,0.0,0.0,0.0,0.0,0.0,0.0,0.0,0.0,167,core\src\main\java\org\apache\shiro\subject\support\DefaultSubjectContext.java,0,0,0,0
org.apache.shiro.subject.support.DelegatingSubject, 0, 0, 0, 1, 0, 0, 0, 1, 0, 0, 0, 0, 0, 2,0.0,0.0,0.0,0.0,0.0,0.0,0.0,0.2222222222222222,0.0,0.0,0.0,0.0,0.0,344,core\src\main\java\org\apache\shiro\subject\support\DelegatingSubject.java,0,0,0,0
org.apache.shiro.subject.support.DisabledSessionException, 0, 0, 0, 0, 0, 0, 0, 0, 0, 0, 0, 0, 0, 0,0.0,0.0,0.0,0.6666666666666666,0.0,0.0,0.0,0.3333333333333333,0.0,0.0,0.0,0.0,0.0,5,core\src\main\java\org\apache\shiro\subject\support\DisabledSessionException.java,0,0,0,0
org.apache.shiro.subject.support.SubjectCallable, 0, 0, 0, 0, 0, 0, 0, 0, 0, 0, 0, 0, 0, 0,0.0,0.0,0.0,1.0,0.0,0.0,0.0,1.0,0.0,0.0,0.0,0.0,0.0,28,core\src\main\java\org\apache\shiro\subject\support\SubjectCallable.java,0,0,0,0
org.apache.shiro.subject.support.SubjectRunnable, 0, 0, 0, 0, 0, 0, 0, 0, 0, 0, 0, 0, 0, 0,0.0,0.0,0.0,1.0,0.0,0.0,0.0,1.0,0.0,0.0,0.0,0.0,0.0,28,core\src\main\java\org\apache\shiro\subject\support\SubjectRunnable.java,0,0,0,0
org.apache.shiro.test.AbstractContainerTest, 1, 0, 0, 0, 0, 0, 0, 0, 0, 0, 0, 0, 0, 1,0.0,0.0,0.0,0.0,0.0,0.0,0.0,0.0,0.0,0.0,0.0,0.0,0.0,48,samples\web\src\test\java\org\apache\shiro\test\AbstractContainerTest.java,0,0,0,0
org.apache.shiro.test.AbstractShiroTest, 0, 0, 0, 0, 0, 0, 0, 0, 0, 0, 0, 0, 0, 0,0.0,0.0,0.0,0.0,0.0,0.0,0.0,0.0,0.0,0.0,0.0,0.0,0.0,41,core\src\test\java\org\apache\shiro\test\AbstractShiroTest.java,0,0,0,0
org.apache.shiro.test.ContainerIntegrationTest, 0, 0, 0, 0, 0, 0, 0, 0, 0, 0, 0, 0, 0, 0,1.0,0.0,0.0,0.0,0.0,0.0,0.0,0.0,0.0,0.0,0.0,0.0,0.0,36,samples\web\src\test\java\org\apache\shiro\test\ContainerIntegrationTest.java,0,0,0,0
org.apache.shiro.test.ExampleShiroIntegrationTest, 0, 0, 0, 0, 0, 0, 0, 0, 0, 0, 0, 0, 0, 0,0.0,0.0,0.0,0.0,0.0,0.0,0.0,0.0,0.0,0.0,0.0,0.0,0.0,16,core\src\test\java\org\apache\shiro\test\ExampleShiroIntegrationTest.java,0,0,0,0
org.apache.shiro.test.ExampleShiroUnitTest, 0, 0, 0, 0, 0, 0, 0, 0, 0, 0, 0, 0, 0, 0,0.0,0.0,0.0,0.0,0.0,0.0,0.0,0.0,0.0,0.0,0.0,0.0,0.0,12,core\src\test\java\org\apache\shiro\test\ExampleShiroUnitTest.java,0,0,0,0
org.apache.shiro.test.SecurityManagerTestSupport, 0, 0, 0, 0, 0, 0, 0, 0, 0, 0, 0, 0, 0, 0,0.0,0.0,0.0,0.1,0.0,0.0,0.0,0.0,0.0,0.0,0.0,0.0,0.0,30,core\src\test\java\org\apache\shiro\test\SecurityManagerTestSupport.java,0,0,0,0
org.apache.shiro.util.AbstractFactory, 0, 0, 0, 0, 0, 0, 0, 0, 0, 0, 0, 0, 0, 0,0.0,0.0,0.0,0.0,0.0,0.0,0.0,0.0,0.0,0.0,0.0,0.0,0.0,30,core\src\main\java\org\apache\shiro\util\AbstractFactory.java,0,0,0,0
org.apache.shiro.util.ClassUtils, 0, 0, 0, 0, 0, 0, 0, 0, 0, 0, 0, 0, 0, 0,0.0,0.0,0.0,0.0,0.0,0.0,0.0,0.0,0.0,0.0,0.0,0.0,0.0,153,core\src\main\java\org\apache\shiro\util\ClassUtils.java,0,0,0,0
org.apache.shiro.util.Destroyable, 0, 0, 0, 0, 0, 0, 0, 0, 0, 0, 0, 0, 0, 0,0.0,0.0,0.0,0.0,0.0,0.0,0.0,0.0,0.0,0.0,0.0,0.0,0.0,153,core\src\main\java\org\apache\shiro\util\Destroyable.java,0,0,0,0
org.apache.shiro.util.Factory, 0, 0, 0, 0, 0, 0, 0, 0, 0, 0, 0, 0, 0, 0,0.0,0.0,0.0,0.0,0.0,0.0,0.0,0.0,0.0,0.0,0.0,0.0,0.0,153,core\src\main\java\org\apache\shiro\util\Factory.java,0,0,0,0
org.apache.shiro.util.Initializable, 0, 0, 0, 0, 0, 0, 0, 0, 0, 0, 0, 0, 0, 0,0.0,0.0,0.0,0.0,0.0,0.0,0.0,0.0,0.0,0.0,0.0,0.0,0.0,153,core\src\main\java\org\apache\shiro\util\Initializable.java,0,0,0,0
org.apache.shiro.util.InstantiationException, 0, 0, 0, 0, 0, 0, 0, 0, 0, 0, 0, 0, 0, 0,0.0,0.0,0.0,0.0,0.0,0.0,0.0,0.0,0.0,0.0,0.0,0.0,0.0,15,core\src\main\java\org\apache\shiro\util\InstantiationException.java,0,0,0,0
org.apache.shiro.util.JavaEnvironment, 0, 0, 0, 0, 0, 0, 0, 0, 0, 0, 0, 0, 0, 0,0.0,0.0,0.0,0.0,0.0,0.0,0.0,0.0,0.0,0.0,0.0,0.0,0.0,38,core\src\main\java\org\apache\shiro\util\JavaEnvironment.java,0,0,0,0
org.apache.shiro.util.JdbcUtils, 0, 0, 0, 0, 0, 0, 0, 0, 0, 0, 0, 0, 0, 0,0.0,0.0,0.0,0.5,0.0,0.0,0.0,0.0,0.0,0.0,0.0,0.0,0.0,50,core\src\main\java\org\apache\shiro\util\JdbcUtils.java,0,0,0,0
org.apache.shiro.util.LifecycleUtils, 0, 0, 0, 0, 0, 0, 0, 0, 0, 0, 0, 0, 0, 0,0.0,0.0,0.0,0.25,0.0,0.0,0.0,0.0,0.0,0.0,0.0,0.0,0.0,46,core\src\main\java\org\apache\shiro\util\LifecycleUtils.java,0,0,0,0
org.apache.shiro.util.Nameable, 0, 0, 0, 0, 0, 0, 0, 0, 0, 0, 0, 0, 0, 0,0.0,0.0,0.0,0.0,0.0,0.0,0.0,0.0,0.0,0.0,0.0,0.0,0.0,46,core\src\main\java\org\apache\shiro\util\Nameable.java,0,0,0,0
org.apache.shiro.util.PatternMatcher, 0, 0, 0, 0, 0, 0, 0, 0, 0, 0, 0, 0, 0, 0,0.0,0.0,0.0,0.0,0.0,0.0,0.0,0.0,0.0,0.0,0.0,0.0,0.0,46,core\src\main\java\org\apache\shiro\util\PatternMatcher.java,0,0,0,0
org.apache.shiro.util.PermissionUtils, 0, 0, 0, 0, 0, 0, 0, 0, 0, 0, 0, 0, 0, 0,0.0,0.0,0.0,0.0,0.0,0.0,0.0,0.0,0.0,0.0,0.0,0.0,0.0,20,core\src\main\java\org\apache\shiro\util\PermissionUtils.java,0,0,0,0
org.apache.shiro.util.RegExPatternMatcherTest, 0, 0, 0, 0, 0, 0, 0, 0, 0, 0, 0, 0, 0, 0,0.0,0.0,0.0,0.0,0.0,0.0,0.0,0.0,0.0,0.0,0.0,0.0,0.0,10,core\src\test\java\org\apache\shiro\util\RegExPatternMatcherTest.java,0,0,0,0
org.apache.shiro.util.SimpleByteSource, 0, 0, 0, 0, 0, 0, 0, 0, 0, 0, 0, 0, 0, 0,0.0,0.0,0.0,0.3333333333333333,0.0,0.0,0.0,0.0,0.0,0.0,0.0,0.0,0.0,72,core\src\main\java\org\apache\shiro\util\SimpleByteSource.java,0,0,0,0
org.apache.shiro.util.StringUtilsTest, 0, 0, 0, 0, 0, 0, 0, 0, 0, 0, 0, 0, 0, 0,0.0,0.0,0.0,0.0,0.0,0.0,0.0,0.0,0.0,0.0,0.0,0.0,0.0,87,core\src\test\java\org\apache\shiro\util\StringUtilsTest.java,0,0,0,0
org.apache.shiro.util.ThreadContext, 0, 0, 0, 0, 0, 0, 0, 0, 0, 0, 0, 0, 0, 0,0.0,0.0,0.0,0.0,0.0,0.0,0.0,0.0,0.0,0.0,0.0,0.0,0.0,96,core\src\main\java\org\apache\shiro\util\ThreadContext.java,0,0,0,0
org.apache.shiro.util.ThreadState, 0, 0, 0, 0, 0, 0, 0, 0, 0, 0, 0, 0, 0, 0,0.0,0.0,0.0,0.0,0.0,0.0,0.0,0.0,0.0,0.0,0.0,0.0,0.0,96,core\src\main\java\org\apache\shiro\util\ThreadState.java,0,0,0,0
org.apache.shiro.util.UnavailableConstructorException, 0, 0, 0, 0, 0, 0, 0, 0, 0, 0, 0, 0, 0, 0,0.0,0.0,0.0,0.0,0.0,0.0,0.0,0.0,0.0,0.0,0.0,0.0,0.0,15,core\src\main\java\org\apache\shiro\util\UnavailableConstructorException.java,0,0,0,0
org.apache.shiro.util.UnknownClassException, 0, 0, 0, 0, 0, 0, 0, 0, 0, 0, 0, 0, 0, 0,0.0,0.0,0.0,0.0,0.0,0.0,0.0,0.0,0.0,0.0,0.0,0.0,0.0,15,core\src\main\java\org\apache\shiro\util\UnknownClassException.java,0,0,0,0
org.apache.shiro.web.WebTest, 0, 0, 0, 0, 0, 0, 0, 0, 0, 0, 0, 0, 0, 0,0.0,0.0,0.0,0.0,0.0,0.0,0.0,0.0,0.0,0.0,0.0,0.0,0.0,8,web\src\test\java\org\apache\shiro\web\WebTest.java,0,0,0,0
org.apache.shiro.web.env.EnvironmentLoader, 0, 0, 0, 0, 0, 0, 0, 0, 0, 0, 0, 0, 0, 0,0.0,0.0,0.0,0.0,0.0,0.0,0.0,0.0,0.0,0.0,0.0,0.0,0.0,82,web\src\main\java\org\apache\shiro\web\env\EnvironmentLoader.java,0,0,0,0
org.apache.shiro.web.env.EnvironmentLoaderListener, 0, 0, 0, 0, 0, 0, 0, 0, 0, 0, 0, 0, 0, 0,0.0,0.0,0.0,0.0,0.0,0.0,0.0,0.0,0.0,0.0,0.0,0.0,0.0,8,web\src\main\java\org\apache\shiro\web\env\EnvironmentLoaderListener.java,0,0,0,0
org.apache.shiro.web.env.MutableWebEnvironment, 0, 0, 0, 0, 0, 0, 0, 0, 0, 0, 0, 0, 0, 0,0.0,0.0,0.0,0.0,0.0,0.0,0.0,0.0,0.0,0.0,0.0,0.0,0.0,8,web\src\main\java\org\apache\shiro\web\env\MutableWebEnvironment.java,0,0,0,0
org.apache.shiro.web.env.ResourceBasedWebEnvironment, 0, 0, 0, 0, 0, 0, 0, 0, 0, 0, 0, 0, 0, 0,0.0,0.0,0.0,0.0,0.0,0.0,0.0,0.0,0.0,0.0,0.0,0.0,0.0,16,web\src\main\java\org\apache\shiro\web\env\ResourceBasedWebEnvironment.java,0,0,0,0
org.apache.shiro.web.env.WebEnvironment, 0, 0, 0, 0, 0, 0, 0, 0, 0, 0, 0, 0, 0, 0,0.0,0.0,0.0,0.0,0.0,0.0,0.0,0.0,0.0,0.0,0.0,0.0,0.0,16,web\src\main\java\org\apache\shiro\web\env\WebEnvironment.java,0,0,0,0
org.apache.shiro.web.filter.AccessControlFilter, 0, 0, 0, 0, 0, 0, 0, 0, 0, 0, 0, 0, 0, 0,0.0,0.0,0.0,0.1,0.0,0.0,0.0,0.0,0.0,0.0,0.0,0.0,0.0,37,web\src\main\java\org\apache\shiro\web\filter\AccessControlFilter.java,0,0,0,0
org.apache.shiro.web.filter.PathConfigProcessor, 0, 0, 0, 0, 0, 0, 0, 0, 0, 0, 0, 0, 0, 0,0.0,0.0,0.0,0.0,0.0,0.0,0.0,0.0,0.0,0.0,0.0,0.0,0.0,37,web\src\main\java\org\apache\shiro\web\filter\PathConfigProcessor.java,0,0,0,0
org.apache.shiro.web.filter.PathMatchingFilterTest, 0, 0, 0, 0, 0, 0, 0, 0, 0, 0, 0, 0, 0, 0,0.0,0.0,0.0,0.0,0.0,0.0,0.0,0.0,0.0,0.0,0.0,0.0,0.0,56,web\src\test\java\org\apache\shiro\web\filter\PathMatchingFilterTest.java,0,0,0,0
org.apache.shiro.web.filter.authc.AnonymousFilter, 0, 0, 0, 0, 0, 0, 0, 0, 0, 0, 0, 0, 0, 0,0.0,0.0,0.0,0.0,0.0,0.0,0.0,0.0,0.0,0.0,0.0,0.0,0.0,6,web\src\main\java\org\apache\shiro\web\filter\authc\AnonymousFilter.java,0,0,0,0
org.apache.shiro.web.filter.authc.AnonymousFilterTest, 0, 0, 0, 0, 0, 0, 0, 0, 0, 0, 0, 0, 0, 0,0.0,0.0,0.0,0.0,0.0,0.0,0.0,0.0,0.0,0.0,0.0,0.0,0.0,8,web\src\test\java\org\apache\shiro\web\filter\authc\AnonymousFilterTest.java,0,0,0,0
org.apache.shiro.web.filter.authc.AuthenticatingFilter, 0, 0, 0, 0, 0, 0, 0, 0, 0, 0, 0, 0, 0, 0,0.0,0.0,0.0,0.2857142857142857,0.0,0.0,0.0,0.0,0.0,0.0,0.0,0.0,0.0,68,web\src\main\java\org\apache\shiro\web\filter\authc\AuthenticatingFilter.java,0,0,0,0
org.apache.shiro.web.filter.authc.AuthenticationFilter, 0, 0, 0, 0, 0, 0, 0, 0, 0, 0, 0, 0, 0, 0,0.0,0.0,0.0,0.2,0.0,0.0,0.0,0.0,0.0,0.0,0.0,0.0,0.0,17,web\src\main\java\org\apache\shiro\web\filter\authc\AuthenticationFilter.java,0,0,0,0
org.apache.shiro.web.filter.authc.BasicHttpAuthenticationFilter, 0, 0, 0, 1, 0, 0, 0, 0, 0, 0, 0, 0, 0, 1,0.0,0.0,0.0,0.3333333333333333,0.0,0.0,0.0,0.0,0.0,0.0,0.0,0.0,0.0,93,web\src\main\java\org\apache\shiro\web\filter\authc\BasicHttpAuthenticationFilter.java,0,0,0,0
org.apache.shiro.web.filter.authc.BasicHttpFilterAuthenticationTest, 0, 0, 0, 0, 0, 0, 0, 0, 0, 0, 0, 0, 0, 0,0.0,0.0,0.0,1.0,0.0,0.0,0.0,0.0,0.0,0.0,0.0,0.0,0.0,77,web\src\test\java\org\apache\shiro\web\filter\authc\BasicHttpFilterAuthenticationTest.java,0,0,0,0
org.apache.shiro.web.filter.authc.FormAuthenticationFilter, 0, 0, 0, 1, 0, 0, 0, 0, 0, 0, 0, 0, 0, 1,0.0,0.0,0.0,0.0,0.0,0.0,0.0,0.0,0.0,0.0,0.0,0.0,0.0,104,web\src\main\java\org\apache\shiro\web\filter\authc\FormAuthenticationFilter.java,0,0,0,0
org.apache.shiro.web.filter.authc.LogoutFilter, 0, 0, 0, 0, 0, 0, 0, 0, 0, 0, 0, 0, 0, 0,0.0,0.0,0.0,0.0,0.0,0.0,0.0,0.0,0.0,0.0,0.0,0.0,0.0,32,web\src\main\java\org\apache\shiro\web\filter\authc\LogoutFilter.java,0,0,0,0
org.apache.shiro.web.filter.authc.PassThruAuthenticationFilter, 0, 0, 0, 0, 0, 0, 0, 0, 0, 0, 0, 0, 0, 0,0.0,0.0,0.0,0.0,0.0,0.0,0.0,0.0,0.0,0.0,0.0,0.0,0.0,10,web\src\main\java\org\apache\shiro\web\filter\authc\PassThruAuthenticationFilter.java,0,0,0,0
org.apache.shiro.web.filter.authc.UserFilter, 0, 0, 0, 0, 0, 0, 0, 0, 0, 0, 0, 0, 0, 0,0.0,0.0,0.0,0.0,0.0,0.0,0.0,0.0,0.0,0.0,0.0,0.0,0.0,14,web\src\main\java\org\apache\shiro\web\filter\authc\UserFilter.java,0,0,0,0
org.apache.shiro.web.filter.authz.AuthorizationFilter, 0, 0, 0, 0, 0, 0, 0, 0, 0, 0, 0, 0, 0, 0,0.0,0.0,0.0,0.0,0.0,0.0,0.0,0.0,0.0,0.0,0.0,0.0,0.0,23,web\src\main\java\org\apache\shiro\web\filter\authz\AuthorizationFilter.java,0,0,0,0
org.apache.shiro.web.filter.authz.AuthorizationFilterTest, 0, 0, 0, 0, 0, 0, 0, 0, 0, 0, 0, 0, 0, 0,0.0,0.0,0.0,0.0,0.0,0.0,0.0,0.0,0.0,0.0,0.0,0.0,0.0,43,web\src\test\java\org\apache\shiro\web\filter\authz\AuthorizationFilterTest.java,0,0,0,0
org.apache.shiro.web.filter.authz.HostFilterTest, 0, 0, 0, 0, 0, 0, 0, 0, 0, 0, 0, 0, 0, 0,0.0,0.0,0.0,0.0,0.0,0.0,0.0,0.0,0.0,0.0,0.0,0.0,0.0,29,web\src\test\java\org\apache\shiro\web\filter\authz\HostFilterTest.java,0,0,0,0
org.apache.shiro.web.filter.authz.HttpMethodPermissionFilterTest, 0, 0, 0, 0, 0, 0, 0, 0, 0, 0, 0, 0, 0, 0,0.0,0.0,0.0,0.0,0.0,0.0,0.0,0.0,0.0,0.0,0.0,0.0,0.0,18,web\src\test\java\org\apache\shiro\web\filter\authz\HttpMethodPermissionFilterTest.java,0,0,0,0
org.apache.shiro.web.filter.authz.PermissionsAuthorizationFilter, 0, 0, 0, 0, 0, 0, 0, 0, 0, 0, 0, 0, 0, 0,0.0,0.0,0.0,0.0,0.0,0.0,0.0,0.0,0.0,0.0,0.0,0.0,0.0,19,web\src\main\java\org\apache\shiro\web\filter\authz\PermissionsAuthorizationFilter.java,0,0,0,0
org.apache.shiro.web.filter.authz.PortFilterTest, 0, 0, 0, 0, 0, 0, 0, 0, 0, 0, 0, 0, 0, 0,0.0,0.0,0.0,0.0,0.0,0.0,0.0,0.0,0.0,0.0,0.0,0.0,0.0,38,web\src\test\java\org\apache\shiro\web\filter\authz\PortFilterTest.java,0,0,0,0
org.apache.shiro.web.filter.authz.RolesAuthorizationFilter, 0, 0, 0, 0, 0, 0, 0, 0, 0, 0, 0, 0, 0, 0,0.0,0.0,0.0,0.0,0.0,0.0,0.0,0.0,0.0,0.0,0.0,0.0,0.0,12,web\src\main\java\org\apache\shiro\web\filter\authz\RolesAuthorizationFilter.java,0,0,0,0
org.apache.shiro.web.filter.authz.SslFilter, 0, 0, 0, 0, 0, 0, 0, 0, 0, 0, 0, 0, 0, 0,0.0,0.0,0.0,0.0,0.0,0.0,0.0,0.0,0.0,0.0,0.0,0.0,0.0,19,web\src\main\java\org\apache\shiro\web\filter\authz\SslFilter.java,0,0,0,0
org.apache.shiro.web.filter.mgt.FilterChainResolver, 0, 0, 0, 0, 0, 0, 0, 0, 0, 0, 0, 0, 0, 0,0.0,0.0,0.0,0.0,0.0,0.0,0.0,0.0,0.0,0.0,0.0,0.0,0.0,19,web\src\main\java\org\apache\shiro\web\filter\mgt\FilterChainResolver.java,0,0,0,0
org.apache.shiro.web.filter.mgt.PathMatchingFilterChainResolver, 0, 0, 0, 0, 0, 0, 0, 0, 0, 0, 0, 0, 0, 0,0.0,0.0,0.0,0.0,0.0,0.0,0.0,0.0,0.0,0.0,0.0,0.0,0.0,50,web\src\main\java\org\apache\shiro\web\filter\mgt\PathMatchingFilterChainResolver.java,0,0,0,0
org.apache.shiro.web.filter.mgt.PathMatchingFilterChainResolverTest, 0, 0, 0, 0, 0, 0, 0, 0, 0, 0, 0, 0, 0, 0,0.0,0.0,0.0,0.0,0.0,0.0,0.0,0.0,0.0,0.0,0.0,0.0,0.0,99,web\src\test\java\org\apache\shiro\web\filter\mgt\PathMatchingFilterChainResolverTest.java,0,0,0,0
org.apache.shiro.web.filter.mgt.SimpleNamedFilterList, 0, 0, 0, 1, 0, 0, 0, 0, 0, 0, 0, 0, 0, 1,0.0,0.0,0.0,0.0,0.0,0.0,0.0,0.0,0.0,0.0,0.0,0.0,0.0,95,web\src\main\java\org\apache\shiro\web\filter\mgt\SimpleNamedFilterList.java,0,0,0,0
org.apache.shiro.web.filter.mgt.SimpleNamedFilterListTest, 0, 0, 0, 0, 0, 0, 0, 0, 0, 0, 0, 0, 0, 0,0.0,0.0,0.0,0.5,0.0,0.0,0.0,0.0,0.0,0.0,0.0,0.0,0.0,85,web\src\test\java\org\apache\shiro\web\filter\mgt\SimpleNamedFilterListTest.java,0,0,0,0
org.apache.shiro.web.filter.session.NoSessionCreationFilter, 0, 0, 0, 0, 0, 0, 0, 0, 0, 0, 0, 0, 0, 0,0.0,0.0,0.0,0.0,0.0,0.0,0.0,0.0,0.0,0.0,0.0,0.0,0.0,7,web\src\main\java\org\apache\shiro\web\filter\session\NoSessionCreationFilter.java,0,0,0,0
org.apache.shiro.web.mgt.AbstractWebSecurityManagerTest, 0, 0, 0, 0, 0, 0, 0, 0, 0, 0, 0, 0, 0, 0,0.0,0.0,0.0,0.0,0.0,0.0,0.0,0.0,0.0,0.0,0.0,0.0,0.0,6,web\src\test\java\org\apache\shiro\web\mgt\AbstractWebSecurityManagerTest.java,0,0,0,0
org.apache.shiro.web.mgt.CookieRememberMeManagerTest, 0, 0, 0, 0, 0, 0, 0, 0, 0, 0, 0, 0, 0, 0,0.0,0.0,0.0,0.25,0.0,0.0,0.0,0.0,0.0,0.0,0.0,0.0,0.0,119,web\src\test\java\org\apache\shiro\web\mgt\CookieRememberMeManagerTest.java,0,0,0,0
org.apache.shiro.web.mgt.DefaultWebSecurityManager, 0, 0, 0, 1, 0, 0, 0, 0, 0, 0, 0, 0, 0, 1,0.0,0.0,0.0,0.16666666666666666,0.0,0.0,0.0,0.08333333333333333,0.0,0.0,0.0,0.0,0.0,159,web\src\main\java\org\apache\shiro\web\mgt\DefaultWebSecurityManager.java,0,0,0,0
org.apache.shiro.web.mgt.DefaultWebSecurityManagerTest, 0, 0, 0, 0, 0, 0, 0, 0, 0, 0, 0, 0, 0, 0,0.0,0.0,0.0,0.125,0.0,0.0,0.0,0.0,0.0,0.0,0.0,0.0,0.0,132,web\src\test\java\org\apache\shiro\web\mgt\DefaultWebSecurityManagerTest.java,0,0,0,0
org.apache.shiro.web.mgt.DefaultWebSessionStorageEvaluator, 0, 0, 0, 0, 0, 0, 0, 0, 0, 0, 0, 0, 0, 0,0.0,0.0,0.0,0.5,0.0,0.0,0.0,0.0,0.0,0.0,0.0,0.0,0.0,19,web\src\main\java\org\apache\shiro\web\mgt\DefaultWebSessionStorageEvaluator.java,0,0,0,0
org.apache.shiro.web.mgt.DefaultWebSubjectFactory, 0, 0, 0, 0, 0, 0, 0, 1, 0, 0, 0, 0, 0, 1,0.0,0.0,0.0,0.25,0.0,0.0,0.0,0.5,0.0,0.0,0.0,0.0,0.0,29,web\src\main\java\org\apache\shiro\web\mgt\DefaultWebSubjectFactory.java,0,0,0,0
org.apache.shiro.web.mgt.WebSecurityManager, 0, 0, 0, 0, 0, 0, 0, 0, 0, 0, 0, 0, 0, 0,0.0,0.0,0.0,0.0,0.0,0.0,0.0,0.0,0.0,0.0,0.0,0.0,0.0,29,web\src\main\java\org\apache\shiro\web\mgt\WebSecurityManager.java,0,0,0,0
org.apache.shiro.web.servlet.AbstractFilter, 0, 0, 0, 0, 0, 0, 0, 0, 0, 0, 0, 0, 0, 0,0.0,0.0,0.0,0.3333333333333333,0.0,0.0,0.0,0.0,0.0,0.0,0.0,0.0,0.0,36,web\src\main\java\org\apache\shiro\web\servlet\AbstractFilter.java,0,0,0,0
org.apache.shiro.web.servlet.AbstractShiroFilter, 0, 0, 0, 1, 0, 0, 0, 0, 0, 0, 0, 0, 0, 1,0.0,0.0,0.0,0.16666666666666666,0.0,0.0,0.0,0.0,0.0,0.0,0.0,0.0,0.0,156,web\src\main\java\org\apache\shiro\web\servlet\AbstractShiroFilter.java,0,0,0,0
org.apache.shiro.web.servlet.AdviceFilter, 0, 0, 0, 0, 0, 0, 0, 0, 0, 0, 0, 0, 0, 0,0.0,0.0,0.0,0.0,0.0,0.0,0.0,0.0,0.0,0.0,0.0,0.0,0.0,68,web\src\main\java\org\apache\shiro\web\servlet\AdviceFilter.java,0,0,0,0
org.apache.shiro.web.servlet.Cookie, 0, 0, 0, 0, 0, 0, 0, 0, 0, 0, 0, 0, 0, 0,0.0,0.0,0.0,0.0,0.0,0.0,0.0,0.0,0.0,0.0,0.0,0.0,0.0,68,web\src\main\java\org\apache\shiro\web\servlet\Cookie.java,0,0,0,0
org.apache.shiro.web.servlet.OncePerRequestFilter, 0, 0, 0, 0, 0, 0, 0, 0, 0, 0, 0, 0, 0, 0,0.0,0.0,0.0,0.25,0.0,0.0,0.0,0.0,0.0,0.0,0.0,0.0,0.0,51,web\src\main\java\org\apache\shiro\web\servlet\OncePerRequestFilter.java,0,0,0,0
org.apache.shiro.web.servlet.OncePerRequestFilterTest, 0, 0, 0, 0, 0, 0, 0, 0, 0, 0, 0, 0, 0, 0,0.0,0.0,0.0,0.0,0.0,0.0,0.0,0.0,0.0,0.0,0.0,0.0,0.0,47,web\src\test\java\org\apache\shiro\web\servlet\OncePerRequestFilterTest.java,0,0,0,0
org.apache.shiro.web.servlet.ProxiedFilterChain, 0, 0, 0, 0, 0, 0, 0, 0, 0, 0, 0, 0, 0, 0,0.0,0.0,0.0,1.0,0.0,0.0,0.0,0.0,0.0,0.0,0.0,0.0,0.0,27,web\src\main\java\org\apache\shiro\web\servlet\ProxiedFilterChain.java,0,0,0,0
org.apache.shiro.web.servlet.ServletContextSupport, 0, 0, 0, 0, 0, 0, 0, 0, 0, 0, 0, 0, 0, 0,0.0,0.0,0.0,0.3333333333333333,0.0,0.0,0.0,0.0,0.0,0.0,0.0,0.0,0.0,43,web\src\main\java\org\apache\shiro\web\servlet\ServletContextSupport.java,0,0,0,0
org.apache.shiro.web.servlet.ShiroFilter, 0, 0, 0, 0, 0, 0, 0, 0, 0, 0, 0, 0, 0, 0,0.0,0.0,0.0,0.5,0.0,0.0,0.0,0.0,0.0,0.0,0.0,0.0,0.0,11,web\src\main\java\org\apache\shiro\web\servlet\ShiroFilter.java,0,0,0,0
org.apache.shiro.web.servlet.ShiroHttpServletRequest, 0, 0, 0, 1, 0, 0, 0, 0, 0, 0, 0, 0, 0, 1,0.0,0.0,0.0,0.5,0.0,0.0,0.0,0.0,0.0,0.0,0.0,0.0,0.0,170,web\src\main\java\org\apache\shiro\web\servlet\ShiroHttpServletRequest.java,0,0,0,0
org.apache.shiro.web.servlet.ShiroHttpSession, 0, 0, 0, 1, 0, 0, 0, 0, 0, 0, 0, 0, 0, 1,0.0,0.0,0.0,0.5,0.0,0.0,0.0,0.0,0.0,0.0,0.0,0.0,0.0,171,web\src\main\java\org\apache\shiro\web\servlet\ShiroHttpSession.java,0,0,0,0
org.apache.shiro.web.session.HttpServletSession, 0, 0, 0, 0, 0, 0, 0, 0, 0, 0, 0, 0, 0, 0,0.0,0.0,0.0,0.0,0.0,0.0,0.0,0.0,0.0,0.0,0.0,0.0,0.0,112,web\src\main\java\org\apache\shiro\web\session\HttpServletSession.java,0,0,0,0
org.apache.shiro.web.session.mgt.ServletContainerSessionManager, 0, 0, 0, 0, 0, 0, 0, 0, 0, 0, 0, 0, 0, 0,0.0,0.0,0.0,0.5,0.0,0.0,0.0,0.0,0.0,0.0,0.0,0.0,0.0,46,web\src\main\java\org\apache\shiro\web\session\mgt\ServletContainerSessionManager.java,0,0,0,0
org.apache.shiro.web.session.mgt.WebSessionContext, 0, 0, 0, 0, 0, 0, 0, 0, 0, 0, 0, 0, 0, 0,0.0,0.0,0.0,0.0,0.0,0.0,0.0,0.0,0.0,0.0,0.0,0.0,0.0,46,web\src\main\java\org\apache\shiro\web\session\mgt\WebSessionContext.java,0,0,0,0
org.apache.shiro.web.session.mgt.WebSessionKey, 0, 0, 0, 0, 0, 0, 0, 0, 0, 0, 0, 0, 0, 0,0.0,0.0,0.0,0.5,0.0,0.0,0.0,0.0,0.0,0.0,0.0,0.0,0.0,24,web\src\main\java\org\apache\shiro\web\session\mgt\WebSessionKey.java,0,0,0,0
org.apache.shiro.web.session.mgt.WebSessionManager, 0, 0, 0, 0, 0, 0, 0, 0, 0, 0, 0, 0, 0, 0,0.0,0.0,0.0,0.0,0.0,0.0,0.0,0.0,0.0,0.0,0.0,0.0,0.0,24,web\src\main\java\org\apache\shiro\web\session\mgt\WebSessionManager.java,0,0,0,0
org.apache.shiro.web.subject.WebSubject, 0, 0, 0, 0, 0, 0, 0, 0, 0, 0, 0, 0, 0, 0,0.0,0.0,0.0,0.0,0.0,0.0,0.0,0.0,0.0,0.0,0.0,0.0,0.0,24,web\src\main\java\org\apache\shiro\web\subject\WebSubject.java,0,0,0,0
org.apache.shiro.web.subject.WebSubjectContext, 0, 0, 0, 0, 0, 0, 0, 0, 0, 0, 0, 0, 0, 0,0.0,0.0,0.0,0.0,0.0,0.0,0.0,0.0,0.0,0.0,0.0,0.0,0.0,24,web\src\main\java\org\apache\shiro\web\subject\WebSubjectContext.java,0,0,0,0
org.apache.shiro.web.subject.support.DefaultWebSubjectContext, 0, 0, 0, 0, 0, 0, 0, 0, 0, 0, 0, 0, 0, 0,0.0,0.0,0.0,0.6666666666666666,0.0,0.0,0.0,0.0,0.0,0.0,0.0,0.0,0.0,57,web\src\main\java\org\apache\shiro\web\subject\support\DefaultWebSubjectContext.java,0,0,0,0
org.apache.shiro.web.subject.support.WebDelegatingSubject, 0, 0, 0, 0, 0, 0, 0, 1, 0, 0, 0, 0, 0, 1,0.0,0.0,0.0,0.5,0.0,0.0,0.0,1.0,0.0,0.0,0.0,0.0,0.0,41,web\src\main\java\org\apache\shiro\web\subject\support\WebDelegatingSubject.java,0,0,0,0
org.apache.shiro.web.tags.AuthenticatedTag, 0, 0, 0, 0, 0, 0, 0, 0, 0, 0, 0, 0, 0, 0,0.0,0.0,0.0,0.0,0.0,0.0,0.0,0.0,0.0,0.0,0.0,0.0,0.0,15,web\src\main\java\org\apache\shiro\web\tags\AuthenticatedTag.java,0,0,0,0
org.apache.shiro.web.tags.GuestTag, 0, 0, 0, 0, 0, 0, 0, 0, 0, 0, 0, 0, 0, 0,0.0,0.0,0.0,0.0,0.0,0.0,0.0,0.0,0.0,0.0,0.0,0.0,0.0,18,web\src\main\java\org\apache\shiro\web\tags\GuestTag.java,0,0,0,0
org.apache.shiro.web.tags.HasAnyRolesTag, 0, 0, 0, 0, 0, 0, 0, 0, 0, 0, 0, 0, 0, 0,0.0,0.0,0.0,0.0,0.0,0.0,0.0,0.0,0.0,0.0,0.0,0.0,0.0,18,web\src\main\java\org\apache\shiro\web\tags\HasAnyRolesTag.java,0,0,0,0
org.apache.shiro.web.tags.HasPermissionTag, 0, 0, 0, 0, 0, 0, 0, 0, 0, 0, 0, 0, 0, 0,0.0,0.0,0.0,0.0,0.0,0.0,0.0,0.0,0.0,0.0,0.0,0.0,0.0,7,web\src\main\java\org\apache\shiro\web\tags\HasPermissionTag.java,0,0,0,0
org.apache.shiro.web.tags.HasRoleTag, 0, 0, 0, 0, 0, 0, 0, 0, 0, 0, 0, 0, 0, 0,0.0,0.0,0.0,0.0,0.0,0.0,0.0,0.0,0.0,0.0,0.0,0.0,0.0,7,web\src\main\java\org\apache\shiro\web\tags\HasRoleTag.java,0,0,0,0
org.apache.shiro.web.tags.LacksPermissionTag, 0, 0, 0, 0, 0, 0, 0, 0, 0, 0, 0, 0, 0, 0,0.0,0.0,0.0,0.0,0.0,0.0,0.0,0.0,0.0,0.0,0.0,0.0,0.0,7,web\src\main\java\org\apache\shiro\web\tags\LacksPermissionTag.java,0,0,0,0
org.apache.shiro.web.tags.LacksRoleTag, 0, 0, 0, 0, 0, 0, 0, 0, 0, 0, 0, 0, 0, 0,0.0,0.0,0.0,0.0,0.0,0.0,0.0,0.0,0.0,0.0,0.0,0.0,0.0,8,web\src\main\java\org\apache\shiro\web\tags\LacksRoleTag.java,0,0,0,0
org.apache.shiro.web.tags.NotAuthenticatedTag, 0, 0, 0, 0, 0, 0, 0, 0, 0, 0, 0, 0, 0, 0,0.0,0.0,0.0,0.0,0.0,0.0,0.0,0.0,0.0,0.0,0.0,0.0,0.0,15,web\src\main\java\org\apache\shiro\web\tags\NotAuthenticatedTag.java,0,0,0,0
org.apache.shiro.web.tags.PermissionTag, 0, 0, 0, 0, 0, 0, 0, 0, 0, 0, 0, 0, 0, 0,0.0,0.0,0.0,0.0,0.0,0.0,0.0,0.0,0.0,0.0,0.0,0.0,0.0,31,web\src\main\java\org\apache\shiro\web\tags\PermissionTag.java,0,0,0,0
org.apache.shiro.web.tags.PrincipalTag, 0, 0, 0, 0, 0, 0, 0, 0, 0, 0, 0, 0, 0, 0,0.0,0.0,0.0,0.0,0.0,0.0,0.0,0.0,0.0,0.0,0.0,0.0,0.0,92,web\src\main\java\org\apache\shiro\web\tags\PrincipalTag.java,0,0,0,0
org.apache.shiro.web.tags.RoleTag, 0, 0, 0, 0, 0, 0, 0, 0, 0, 0, 0, 0, 0, 0,0.0,0.0,0.0,0.0,0.0,0.0,0.0,0.0,0.0,0.0,0.0,0.0,0.0,20,web\src\main\java\org\apache\shiro\web\tags\RoleTag.java,0,0,0,0
org.apache.shiro.web.tags.SecureTag, 0, 0, 0, 0, 0, 0, 0, 0, 0, 0, 0, 0, 0, 0,0.0,0.0,0.0,0.0,0.0,0.0,0.0,0.0,0.0,0.0,0.0,0.0,0.0,15,web\src\main\java\org\apache\shiro\web\tags\SecureTag.java,0,0,0,0
org.apache.shiro.web.tags.UserTag, 0, 0, 0, 0, 0, 0, 0, 0, 0, 0, 0, 0, 0, 0,0.0,0.0,0.0,0.0,0.0,0.0,0.0,0.0,0.0,0.0,0.0,0.0,0.0,18,web\src\main\java\org\apache\shiro\web\tags\UserTag.java,0,0,0,0
org.apache.shiro.web.util.RequestPairSource, 0, 0, 0, 0, 0, 0, 0, 0, 0, 0, 0, 0, 0, 0,0.0,0.0,0.0,0.0,0.0,0.0,0.0,0.0,0.0,0.0,0.0,0.0,0.0,18,web\src\main\java\org\apache\shiro\web\util\RequestPairSource.java,0,0,0,0
,0.0,0.0,0.0,0.0,0.0,0.0,0.0,0.0,0.0,0.0,0.0,0.0,0.0,18,core\src\main\java\org\apache\shiro\aop\AnnotationHandler.java,0,0,0,0
