ClassName,AntiSingleton,Blob,ClassDataShouldBePrivate,ComplexClass,LargeClass,LazyClass,LongMethod,LongParameterList,MessageChains,RefusedParentBequest,SpaghettiCode,SpeculativeGenerality,SwissArmyKnife,NumOfAPs,AntiSingleton,Blob,ClassDataShouldBePrivate,ComplexClass,LargeClass,LazyClass,LongMethod,LongParameterList,MessageChains,RefusedParentBequest,SpaghettiCode,SpeculativeGenerality,SwissArmyKnife,LOC,name,deleted,added,changed,all
org.apache.gora.GoraTestDriver, 0, 0, 0, 0, 0, 0, 0, 0, 0, 0, 0, 0, 0, 0,0.4,0.0,0.1,0.2,0.0,0.0,0.0,0.0,0.0,0.0,0.0,0.0,0.0,53,gora-core\src\test\java\org\apache\gora\GoraTestDriver.java,0,0,0,0
org.apache.gora.accumulo.encoders.BinaryEncoder, 0, 0, 0, 0, 0, 0, 0, 0, 0, 0, 0, 0, 0, 0,0.0,0.0,0.0,0.0,0.0,0.0,0.0,0.25,0.0,0.0,0.0,0.0,0.0,153,gora-accumulo\src\main\java\org\apache\gora\accumulo\encoders\BinaryEncoder.java,0,0,0,0
org.apache.gora.accumulo.encoders.Encoder, 0, 0, 0, 0, 0, 0, 0, 0, 0, 0, 0, 0, 0, 0,0.0,0.0,0.0,0.0,0.0,0.0,0.0,0.0,0.0,0.0,0.0,0.0,0.0,153,gora-accumulo\src\main\java\org\apache\gora\accumulo\encoders\Encoder.java,0,0,0,0
org.apache.gora.accumulo.encoders.HexEncoder, 0, 0, 0, 0, 0, 0, 0, 0, 0, 0, 0, 0, 0, 0,0.0,0.0,0.0,0.0,0.0,0.0,0.0,0.0,0.0,0.0,0.0,0.0,0.0,148,gora-accumulo\src\main\java\org\apache\gora\accumulo\encoders\HexEncoder.java,0,0,0,0
org.apache.gora.accumulo.encoders.SignedBinaryEncoder, 0, 0, 0, 0, 0, 0, 0, 0, 0, 0, 0, 0, 0, 0,0.0,0.0,0.0,0.0,0.0,0.0,0.0,0.0,0.0,0.0,0.0,0.0,0.0,61,gora-accumulo\src\main\java\org\apache\gora\accumulo\encoders\SignedBinaryEncoder.java,0,0,0,0
org.apache.gora.accumulo.encoders.Utils, 0, 0, 0, 0, 0, 0, 0, 0, 0, 0, 0, 0, 0, 0,0.0,0.0,0.0,0.0,0.0,0.0,0.0,0.0,0.0,0.0,0.0,0.0,0.0,50,gora-accumulo\src\main\java\org\apache\gora\accumulo\encoders\Utils.java,0,0,0,0
org.apache.gora.accumulo.query.AccumuloQuery, 0, 0, 0, 0, 0, 0, 0, 0, 0, 0, 0, 0, 0, 0,0.0,0.0,0.0,1.0,0.0,0.0,0.0,0.0,0.0,0.0,0.0,0.0,0.0,8,gora-accumulo\src\main\java\org\apache\gora\accumulo\query\AccumuloQuery.java,0,0,0,0
org.apache.gora.accumulo.store.AccumuloStoreTest, 0, 0, 0, 0, 0, 0, 0, 0, 0, 0, 0, 0, 0, 0,1.0,0.0,0.0,1.0,0.0,0.0,0.0,0.0,0.0,0.0,0.0,0.0,0.0,14,gora-accumulo\src\test\java\org\apache\gora\accumulo\store\AccumuloStoreTest.java,0,0,0,0
org.apache.gora.accumulo.store.PartitionTest, 0, 0, 0, 0, 0, 0, 0, 0, 0, 0, 0, 0, 0, 0,0.0,0.0,0.0,0.0,0.0,0.0,0.0,0.0,0.0,0.0,0.0,0.0,0.0,52,gora-accumulo\src\test\java\org\apache\gora\accumulo\store\PartitionTest.java,0,0,0,0
org.apache.gora.accumulo.util.FixedByteArrayOutputStream, 0, 0, 0, 0, 0, 0, 0, 1, 0, 0, 0, 0, 0, 1,0.0,0.0,0.0,0.0,0.0,0.0,0.0,0.0,0.0,0.0,0.0,0.0,0.0,15,gora-accumulo\src\main\java\org\apache\gora\accumulo\util\FixedByteArrayOutputStream.java,0,0,0,0
org.apache.gora.accumulo.util.HexEncoderTest, 0, 0, 0, 0, 0, 0, 0, 0, 0, 0, 0, 0, 0, 0,0.0,0.0,0.0,0.0,0.0,0.0,0.0,0.0,0.0,0.0,0.0,0.0,0.0,24,gora-accumulo\src\test\java\org\apache\gora\accumulo\util\HexEncoderTest.java,0,0,0,0
org.apache.gora.accumulo.util.SignedBinaryEncoderTest, 0, 0, 0, 0, 0, 0, 0, 0, 0, 0, 0, 0, 0, 0,0.0,0.0,0.0,0.0,0.0,0.0,0.0,0.0,0.0,0.0,0.0,0.0,0.0,115,gora-accumulo\src\test\java\org\apache\gora\accumulo\util\SignedBinaryEncoderTest.java,0,0,0,0
org.apache.gora.avro.mapreduce.FsInput, 0, 0, 0, 0, 0, 0, 0, 1, 0, 0, 0, 0, 0, 1,0.0,0.0,0.0,0.0,0.0,0.0,0.0,0.0,0.0,0.0,0.0,0.0,0.0,23,gora-core\src\main\java\org\apache\gora\avro\mapreduce\FsInput.java,0,0,0,0
org.apache.gora.avro.mapreduce.TestDataFileAvroStoreMapReduce, 0, 0, 0, 0, 0, 0, 0, 0, 0, 0, 0, 0, 0, 0,0.0,0.0,0.0,0.0,0.0,0.0,0.0,0.6666666666666666,0.0,0.0,0.0,0.0,0.0,14,gora-core\src\test\java\org\apache\gora\avro\mapreduce\TestDataFileAvroStoreMapReduce.java,0,0,0,0
org.apache.gora.avro.query.AvroQuery, 0, 0, 0, 0, 0, 0, 0, 0, 0, 0, 0, 0, 0, 0,0.0,0.0,0.0,0.6666666666666666,0.0,0.0,0.0,0.6666666666666666,0.0,0.0,0.0,0.0,0.0,8,gora-core\src\main\java\org\apache\gora\avro\query\AvroQuery.java,0,0,0,0
org.apache.gora.avro.query.AvroResult, 0, 0, 0, 0, 0, 0, 0, 1, 0, 0, 0, 0, 0, 1,0.0,0.0,0.0,0.3333333333333333,0.0,0.0,0.0,0.3333333333333333,0.0,0.0,0.0,0.0,0.0,27,gora-core\src\main\java\org\apache\gora\avro\query\AvroResult.java,0,0,0,0
org.apache.gora.avro.query.DataFileAvroResult, 0, 0, 0, 0, 0, 0, 0, 1, 0, 0, 0, 0, 0, 1,0.0,0.0,0.0,0.0,0.0,0.0,0.0,0.0,0.0,0.0,0.0,0.0,0.0,46,gora-core\src\main\java\org\apache\gora\avro\query\DataFileAvroResult.java,0,0,0,0
org.apache.gora.avro.store.AvroStore, 0, 0, 0, 1, 0, 0, 0, 1, 0, 0, 0, 0, 0, 2,0.0,0.0,0.0,0.0,0.0,0.0,0.0,0.3333333333333333,0.0,0.0,0.0,0.0,0.0,168,gora-core\src\main\java\org\apache\gora\avro\store\AvroStore.java,0,0,0,0
org.apache.gora.avro.store.DataFileAvroStore, 0, 0, 0, 0, 0, 0, 0, 0, 0, 0, 0, 0, 0, 0,0.0,0.0,0.0,0.125,0.0,0.0,0.0,0.5,0.0,0.0,0.0,0.0,0.0,82,gora-core\src\main\java\org\apache\gora\avro\store\DataFileAvroStore.java,0,0,0,0
org.apache.gora.avro.store.TestAvroStore, 0, 0, 0, 0, 0, 0, 0, 0, 0, 0, 0, 0, 0, 0,0.0,0.0,0.0,0.3333333333333333,0.0,0.0,0.0,0.6666666666666666,0.0,0.0,0.0,0.0,0.0,84,gora-core\src\test\java\org\apache\gora\avro\store\TestAvroStore.java,0,0,0,0
org.apache.gora.avro.store.TestDataFileAvroStore, 0, 0, 0, 0, 0, 0, 0, 0, 0, 0, 0, 0, 0, 0,0.0,0.0,0.0,0.0,0.0,0.0,0.0,0.0,0.0,0.0,0.0,0.0,0.0,10,gora-core\src\test\java\org\apache\gora\avro\store\TestDataFileAvroStore.java,0,0,0,0
org.apache.gora.cassandra.GoraCassandraTestDriver, 0, 0, 0, 0, 0, 0, 0, 0, 0, 0, 0, 0, 0, 0,0.0,0.0,0.0,0.0,0.0,0.0,0.0,0.0,0.0,0.0,0.0,0.0,0.0,71,gora-cassandra\src\test\java\org\apache\gora\cassandra\GoraCassandraTestDriver.java,0,0,0,0
org.apache.gora.cassandra.serializers.CharSequenceSerializer, 0, 0, 0, 0, 0, 0, 0, 0, 0, 0, 0, 0, 0, 0,0.0,0.0,0.0,0.0,0.0,0.0,0.0,0.0,0.0,0.0,0.0,0.0,0.0,24,gora-cassandra\src\main\java\org\apache\gora\cassandra\serializers\CharSequenceSerializer.java,0,0,0,0
org.apache.gora.cassandra.store.HectorUtils, 0, 0, 0, 0, 0, 0, 0, 1, 0, 0, 0, 0, 0, 1,0.0,0.0,0.0,0.0,0.0,0.0,0.0,0.0,0.0,0.0,0.0,0.0,0.0,56,gora-cassandra\src\main\java\org\apache\gora\cassandra\store\HectorUtils.java,0,0,0,0
org.apache.gora.cassandra.store.TestCassandraStore, 0, 0, 0, 0, 0, 0, 0, 0, 0, 0, 0, 0, 0, 0,0.5,0.0,0.0,0.5,0.0,0.0,0.0,0.0,0.0,0.0,0.0,0.0,0.0,56,gora-cassandra\src\test\java\org\apache\gora\cassandra\store\TestCassandraStore.java,0,0,0,0
org.apache.gora.compiler.cli.GoraCompilerCLI, 0, 0, 0, 0, 0, 0, 0, 0, 0, 0, 0, 0, 0, 0,0.0,0.0,0.0,0.0,0.0,0.0,0.0,0.0,0.0,0.0,0.0,0.0,0.0,41,gora-compiler-cli\src\main\java\org\apache\gora\compiler\cli\GoraCompilerCLI.java,0,0,0,0
org.apache.gora.dynamodb.GoraDynamoDBTestDriver, 1, 0, 0, 0, 0, 0, 0, 0, 0, 0, 0, 0, 0, 1,0.0,0.0,0.0,0.3333333333333333,0.0,0.0,0.0,0.6666666666666666,0.0,0.0,0.0,0.0,0.0,83,gora-dynamodb\src\test\java\org\apache\gora\dynamodb\GoraDynamoDBTestDriver.java,0,0,0,0
org.apache.gora.dynamodb.TestDynamoDBStore, 0, 0, 0, 0, 0, 0, 0, 1, 0, 0, 0, 0, 0, 1,0.4,0.0,0.2,0.6,0.0,0.0,0.0,0.0,0.0,0.0,0.0,0.0,0.0,272,gora-dynamodb\src\test\java\org\apache\gora\dynamodb\TestDynamoDBStore.java,0,0,0,0
org.apache.gora.dynamodb.query.DynamoDBKey, 0, 0, 0, 0, 0, 0, 0, 0, 0, 0, 0, 0, 0, 0,0.0,0.0,0.0,0.5,0.0,0.0,0.0,1.0,0.0,0.0,0.0,0.0,0.0,16,gora-dynamodb\src\main\java\org\apache\gora\dynamodb\query\DynamoDBKey.java,0,0,0,0
org.apache.gora.dynamodb.query.DynamoDBQuery, 0, 0, 0, 1, 0, 0, 0, 0, 0, 0, 0, 0, 0, 1,0.0,0.0,0.0,0.6666666666666666,0.0,0.0,0.0,0.6666666666666666,0.0,0.0,0.0,0.0,0.0,183,gora-dynamodb\src\main\java\org\apache\gora\dynamodb\query\DynamoDBQuery.java,0,0,0,0
org.apache.gora.dynamodb.query.DynamoDBResult, 0, 0, 0, 0, 0, 0, 0, 1, 0, 0, 0, 0, 0, 1,0.0,0.0,0.0,0.5,0.0,0.0,0.0,0.5,0.0,0.0,0.0,0.0,0.0,27,gora-dynamodb\src\main\java\org\apache\gora\dynamodb\query\DynamoDBResult.java,0,0,0,0
org.apache.gora.dynamodb.store.DynamoDBStore, 0, 0, 0, 1, 0, 0, 0, 1, 0, 0, 0, 0, 0, 2,0.16666666666666666,0.0,0.0,0.16666666666666666,0.0,0.0,0.0,0.3333333333333333,0.0,0.0,0.0,0.0,0.0,460,gora-dynamodb\src\main\java\org\apache\gora\dynamodb\store\DynamoDBStore.java,0,0,0,0
org.apache.gora.examples.TestWebPageDataCreator, 0, 0, 0, 0, 0, 0, 0, 0, 0, 0, 0, 0, 0, 0,0.0,0.0,0.0,0.0,0.0,0.0,0.0,0.0,0.0,0.0,0.0,0.0,0.0,7,gora-core\src\test\java\org\apache\gora\examples\TestWebPageDataCreator.java,0,0,0,0
org.apache.gora.examples.generated.ImmutableFields, 0, 0, 0, 0, 0, 0, 0, 0, 0, 1, 0, 0, 0, 1,0.0,0.0,0.0,0.0,0.0,0.0,0.0,0.0,0.0,1.0,0.0,0.0,0.0,184,gora-core\src\examples\java\org\apache\gora\examples\generated\ImmutableFields.java,0,0,4,8
org.apache.gora.examples.generated.TokenDatum, 0, 0, 0, 0, 0, 0, 0, 0, 0, 1, 0, 0, 0, 1,0.0,0.0,0.0,0.0,0.0,0.0,0.0,0.0,0.0,1.0,0.0,0.0,0.0,137,gora-core\src\examples\java\org\apache\gora\examples\generated\TokenDatum.java,0,0,2,4
org.apache.gora.examples.generated.V2, 0, 0, 0, 0, 0, 0, 0, 0, 0, 1, 0, 0, 0, 1,0.0,0.0,0.0,0.0,0.0,0.0,0.0,0.0,0.0,1.0,0.0,0.0,0.0,137,gora-core\src\examples\java\org\apache\gora\examples\generated\V2.java,0,0,2,4
org.apache.gora.examples.generated.person, 0, 0, 0, 1, 0, 0, 0, 0, 0, 0, 0, 0, 0, 1,0.0,0.0,0.0,0.0,0.0,0.0,0.0,1.0,0.0,0.0,0.0,0.0,0.0,79,gora-dynamodb\src\examples\java\org\apache\gora\examples\generated\person.java,0,0,0,0
org.apache.gora.examples.mapreduce.QueryCounter, 0, 0, 0, 0, 0, 0, 0, 0, 0, 0, 0, 0, 0, 0,0.0,0.0,0.0,0.0,0.0,0.0,0.0,0.5,0.0,0.0,0.0,0.0,0.0,70,gora-core\src\examples\java\org\apache\gora\examples\mapreduce\QueryCounter.java,0,0,0,0
org.apache.gora.examples.mapreduce.WordCount, 0, 0, 0, 0, 0, 0, 0, 1, 0, 0, 0, 0, 0, 1,0.0,0.0,0.0,0.0,0.0,0.0,0.0,1.0,0.0,0.0,0.0,0.0,0.0,79,gora-core\src\examples\java\org\apache\gora\examples\mapreduce\WordCount.java,0,0,0,0
org.apache.gora.filter.Filter, 0, 0, 0, 0, 0, 0, 0, 0, 0, 0, 0, 0, 0, 0,0.0,0.0,0.0,0.0,0.0,0.0,0.0,0.0,0.0,0.0,0.0,0.0,0.0,79,gora-core\src\main\java\org\apache\gora\filter\Filter.java,0,0,0,0
org.apache.gora.filter.FilterList, 0, 0, 0, 0, 0, 0, 0, 0, 0, 0, 0, 0, 0, 0,0.25,0.0,0.25,0.0,0.0,0.0,0.0,0.25,0.0,0.0,0.0,0.0,0.0,62,gora-core\src\main\java\org\apache\gora\filter\FilterList.java,0,0,0,0
org.apache.gora.filter.SingleFieldValueFilter, 0, 0, 0, 0, 0, 0, 0, 0, 0, 0, 0, 0, 0, 0,0.0,0.0,0.0,0.0,0.0,0.0,0.0,0.25,0.0,0.0,0.0,0.0,0.0,107,gora-core\src\main\java\org\apache\gora\filter\SingleFieldValueFilter.java,0,0,0,0
org.apache.gora.filter.TestMapFieldValueFilter, 0, 0, 0, 0, 0, 0, 0, 0, 0, 0, 0, 0, 0, 0,0.0,0.0,0.0,0.0,0.0,0.0,0.0,0.0,0.0,0.0,0.0,0.0,0.0,52,gora-core\src\test\java\org\apache\gora\filter\TestMapFieldValueFilter.java,0,0,0,0
org.apache.gora.filter.TestSingleFieldValueFilter, 0, 0, 0, 0, 0, 0, 0, 0, 0, 0, 0, 0, 0, 0,0.0,0.0,0.0,0.0,0.0,0.0,0.0,0.0,0.0,0.0,0.0,0.0,0.0,47,gora-core\src\test\java\org\apache\gora\filter\TestSingleFieldValueFilter.java,0,0,0,0
org.apache.gora.goraci.Delete, 0, 0, 0, 0, 0, 0, 0, 0, 0, 0, 0, 0, 0, 0,0.0,0.0,0.0,0.0,0.0,0.0,0.0,0.0,0.0,0.0,0.0,0.0,0.0,18,gora-goraci\src\main\java\org\apache\gora\goraci\Delete.java,0,0,0,0
org.apache.gora.goraci.Generator, 0, 0, 0, 0, 0, 0, 0, 1, 0, 0, 0, 0, 0, 1,0.0,0.0,0.0,0.0,0.0,0.0,0.0,1.0,0.0,0.0,0.0,0.0,0.0,194,gora-goraci\src\main\java\org\apache\gora\goraci\Generator.java,0,0,0,0
org.apache.gora.goraci.Loop, 0, 0, 0, 0, 0, 0, 0, 1, 0, 0, 0, 0, 0, 1,0.0,0.0,0.0,0.0,0.0,0.0,0.0,1.0,0.0,0.0,0.0,0.0,0.0,100,gora-goraci\src\main\java\org\apache\gora\goraci\Loop.java,0,0,0,0
org.apache.gora.goraci.Print, 0, 0, 0, 0, 0, 0, 0, 0, 0, 0, 0, 0, 0, 0,0.0,0.0,0.0,0.0,0.0,0.0,0.0,0.0,0.0,0.0,0.0,0.0,0.0,43,gora-goraci\src\main\java\org\apache\gora\goraci\Print.java,0,0,0,0
org.apache.gora.goraci.Walker, 0, 0, 0, 0, 0, 0, 0, 0, 0, 0, 0, 0, 0, 0,0.0,0.0,0.0,0.0,0.0,0.0,0.0,0.0,0.0,0.0,0.0,0.0,0.0,70,gora-goraci\src\main\java\org\apache\gora\goraci\Walker.java,0,0,0,0
org.apache.gora.goraci.generated.Flushed, 0, 0, 0, 0, 0, 0, 0, 0, 0, 1, 0, 0, 0, 1,0.0,0.0,0.0,0.0,0.0,0.0,0.0,0.0,0.0,1.0,0.0,0.0,0.0,137,gora-goraci\src\main\java\org\apache\gora\goraci\generated\Flushed.java,0,0,2,4
org.apache.gora.hbase.GoraHBaseTestDriver, 0, 0, 0, 0, 0, 0, 0, 0, 0, 0, 0, 0, 0, 0,0.0,0.0,0.0,0.0,0.0,0.0,0.0,0.0,0.0,0.0,0.0,0.0,0.0,33,gora-hbase\src\test\java\org\apache\gora\hbase\GoraHBaseTestDriver.java,0,0,0,0
org.apache.gora.hbase.mapreduce.TestHBaseStoreCountQuery, 0, 0, 0, 0, 0, 0, 0, 0, 0, 0, 0, 0, 0, 0,0.0,0.0,0.0,0.0,0.0,0.0,0.0,0.0,0.0,0.0,0.0,0.0,0.0,18,gora-hbase\src\test\java\org\apache\gora\hbase\mapreduce\TestHBaseStoreCountQuery.java,0,0,0,0
org.apache.gora.hbase.mapreduce.TestHBaseStoreWordCount, 0, 0, 0, 0, 0, 0, 0, 0, 0, 0, 0, 0, 0, 0,0.0,0.0,0.0,0.0,0.0,0.0,0.0,0.0,0.0,0.0,0.0,0.0,0.0,22,gora-hbase\src\test\java\org\apache\gora\hbase\mapreduce\TestHBaseStoreWordCount.java,0,0,0,0
org.apache.gora.hbase.query.HBaseGetResult, 0, 0, 0, 0, 0, 0, 0, 1, 0, 0, 0, 0, 0, 1,0.0,0.0,0.0,0.0,0.0,0.0,0.0,0.0,0.0,0.0,0.0,0.0,0.0,27,gora-hbase\src\main\java\org\apache\gora\hbase\query\HBaseGetResult.java,0,0,0,0
org.apache.gora.hbase.query.HBaseQuery, 0, 0, 0, 0, 0, 0, 0, 0, 0, 0, 0, 0, 0, 0,0.0,0.0,0.0,1.0,0.0,0.0,0.0,0.0,0.0,0.0,0.0,0.0,0.0,8,gora-hbase\src\main\java\org\apache\gora\hbase\query\HBaseQuery.java,0,0,0,0
org.apache.gora.hbase.query.HBaseResult, 0, 0, 0, 0, 0, 0, 0, 0, 0, 0, 0, 0, 0, 0,0.0,0.0,0.0,0.0,0.0,0.0,0.0,0.6666666666666666,0.0,0.0,0.0,0.0,0.0,14,gora-hbase\src\main\java\org\apache\gora\hbase\query\HBaseResult.java,0,0,0,0
org.apache.gora.hbase.query.HBaseScannerResult, 0, 0, 0, 0, 0, 0, 0, 1, 0, 0, 0, 0, 0, 1,0.0,0.0,0.0,0.0,0.0,0.0,0.0,0.0,0.0,0.0,0.0,0.0,0.0,27,gora-hbase\src\main\java\org\apache\gora\hbase\query\HBaseScannerResult.java,0,0,0,0
org.apache.gora.hbase.store.HBaseColumn, 0, 0, 0, 0, 0, 0, 0, 0, 0, 0, 0, 0, 0, 0,0.0,0.0,0.0,0.0,0.0,0.0,0.0,0.0,0.0,0.0,0.0,0.0,0.0,43,gora-hbase\src\main\java\org\apache\gora\hbase\store\HBaseColumn.java,0,0,0,0
org.apache.gora.hbase.util.BaseFactory, 0, 0, 0, 0, 0, 0, 0, 0, 0, 0, 0, 0, 0, 0,0.0,0.0,0.0,0.0,0.0,0.0,0.0,0.0,0.0,0.0,0.0,0.0,0.0,11,gora-hbase\src\main\java\org\apache\gora\hbase\util\BaseFactory.java,0,0,0,0
org.apache.gora.hbase.util.DefaultFactory, 0, 0, 0, 0, 0, 0, 0, 0, 0, 0, 0, 0, 0, 0,0.0,0.0,0.0,0.0,0.0,0.0,0.0,0.0,0.0,0.0,0.0,0.0,0.0,72,gora-hbase\src\main\java\org\apache\gora\hbase\util\DefaultFactory.java,0,0,0,0
org.apache.gora.hbase.util.FilterFactory, 0, 0, 0, 0, 0, 0, 0, 0, 0, 0, 0, 0, 0, 0,0.0,0.0,0.0,0.0,0.0,0.0,0.0,0.0,0.0,0.0,0.0,0.0,0.0,72,gora-hbase\src\main\java\org\apache\gora\hbase\util\FilterFactory.java,0,0,0,0
org.apache.gora.hbase.util.HBaseClusterSingleton, 0, 0, 0, 0, 0, 0, 0, 0, 0, 0, 0, 0, 0, 0,0.0,0.0,0.0,0.0,0.0,0.0,0.0,0.0,0.0,0.0,0.0,0.0,0.0,93,gora-hbase\src\test\java\org\apache\gora\hbase\util\HBaseClusterSingleton.java,0,0,0,0
org.apache.gora.mapreduce.DataStoreMapReduceTestBase, 0, 0, 0, 0, 0, 0, 0, 1, 0, 0, 0, 0, 0, 1,0.0,0.0,0.0,0.0,0.0,0.0,0.0,0.0,0.0,0.0,0.0,0.0,0.0,37,gora-core\src\test\java\org\apache\gora\mapreduce\DataStoreMapReduceTestBase.java,0,0,0,0
org.apache.gora.mapreduce.GoraInputFormat, 0, 0, 0, 0, 0, 0, 0, 1, 0, 0, 0, 0, 0, 1,0.0,0.0,0.0,0.0,0.0,0.0,0.0,0.2857142857142857,0.0,0.0,0.0,0.0,0.0,79,gora-core\src\main\java\org\apache\gora\mapreduce\GoraInputFormat.java,0,0,0,0
org.apache.gora.mapreduce.GoraInputSplit, 0, 0, 0, 0, 0, 0, 0, 0, 0, 0, 0, 0, 0, 0,0.0,0.0,0.0,0.0,0.0,0.0,0.0,0.5,0.0,0.0,0.0,0.0,0.0,48,gora-core\src\main\java\org\apache\gora\mapreduce\GoraInputSplit.java,0,0,0,0
org.apache.gora.mapreduce.GoraMapReduceUtils, 0, 0, 0, 0, 0, 0, 0, 0, 0, 0, 0, 0, 0, 0,0.2,0.0,0.2,0.0,0.0,0.0,0.0,0.6,0.0,0.0,0.0,0.0,0.0,35,gora-core\src\main\java\org\apache\gora\mapreduce\GoraMapReduceUtils.java,0,0,0,0
org.apache.gora.mapreduce.GoraMapper, 0, 0, 0, 0, 0, 0, 0, 1, 0, 0, 0, 0, 0, 1,0.0,0.0,0.0,0.0,0.0,0.0,0.0,0.6666666666666666,0.0,0.0,0.0,0.0,0.0,75,gora-core\src\main\java\org\apache\gora\mapreduce\GoraMapper.java,0,0,0,0
org.apache.gora.mapreduce.GoraOutputFormat, 0, 0, 0, 0, 0, 0, 0, 1, 0, 0, 0, 0, 0, 1,0.0,0.0,0.0,0.0,0.0,0.0,0.0,0.3333333333333333,0.0,0.0,0.0,0.0,0.0,60,gora-core\src\main\java\org\apache\gora\mapreduce\GoraOutputFormat.java,0,0,0,0
org.apache.gora.mapreduce.GoraRecordCounter, 0, 0, 0, 0, 0, 0, 0, 0, 0, 0, 0, 0, 0, 0,0.0,0.0,0.0,0.0,0.0,0.0,0.0,0.0,0.0,0.0,0.0,0.0,0.0,19,gora-core\src\main\java\org\apache\gora\mapreduce\GoraRecordCounter.java,0,0,0,0
org.apache.gora.mapreduce.GoraRecordReader, 0, 0, 0, 0, 0, 0, 0, 0, 0, 0, 0, 0, 0, 0,0.0,0.0,0.0,0.0,0.0,0.0,0.0,0.5,0.0,0.0,0.0,0.0,0.0,76,gora-core\src\main\java\org\apache\gora\mapreduce\GoraRecordReader.java,0,0,0,0
org.apache.gora.mapreduce.GoraRecordWriter, 0, 0, 0, 0, 0, 0, 0, 0, 0, 0, 0, 0, 0, 0,0.0,0.0,0.0,0.0,0.0,0.0,0.0,0.5,0.0,0.0,0.0,0.0,0.0,36,gora-core\src\main\java\org\apache\gora\mapreduce\GoraRecordWriter.java,0,4,0,4
org.apache.gora.mapreduce.GoraReducer, 0, 0, 0, 0, 0, 0, 0, 1, 0, 0, 0, 0, 0, 1,0.0,0.0,0.0,0.0,0.0,0.0,0.0,1.0,0.0,0.0,0.0,0.0,0.0,30,gora-core\src\main\java\org\apache\gora\mapreduce\GoraReducer.java,0,0,0,0
org.apache.gora.mapreduce.NullOutputCommitter, 0, 0, 0, 0, 0, 0, 0, 0, 0, 0, 0, 0, 0, 0,0.0,0.0,0.0,0.0,0.0,0.0,0.0,0.0,0.0,0.0,0.0,0.0,0.0,21,gora-core\src\main\java\org\apache\gora\mapreduce\NullOutputCommitter.java,0,0,0,0
org.apache.gora.mapreduce.PersistentDeserializer, 0, 0, 0, 0, 0, 0, 0, 0, 0, 0, 0, 0, 0, 0,0.0,0.0,0.0,0.0,0.0,0.0,0.0,0.0,0.0,0.0,0.0,0.0,0.0,27,gora-core\src\main\java\org\apache\gora\mapreduce\PersistentDeserializer.java,0,0,0,0
org.apache.gora.mapreduce.PersistentSerialization, 0, 0, 0, 0, 0, 0, 0, 0, 0, 0, 0, 0, 0, 0,0.0,0.0,0.0,0.0,0.0,0.0,0.0,0.0,0.0,0.0,0.0,0.0,0.0,15,gora-core\src\main\java\org\apache\gora\mapreduce\PersistentSerialization.java,0,0,0,0
org.apache.gora.mapreduce.PersistentSerializer, 0, 0, 0, 0, 0, 0, 0, 0, 0, 0, 0, 0, 0, 0,0.0,0.0,0.0,0.0,0.0,0.0,0.0,0.0,0.0,0.0,0.0,0.0,0.0,20,gora-core\src\main\java\org\apache\gora\mapreduce\PersistentSerializer.java,0,0,0,0
org.apache.gora.mapreduce.StringComparator, 0, 0, 0, 0, 0, 0, 0, 1, 0, 0, 0, 0, 0, 1,0.0,0.0,0.0,0.0,0.0,0.0,0.0,0.0,0.0,0.0,0.0,0.0,0.0,10,gora-core\src\main\java\org\apache\gora\mapreduce\StringComparator.java,0,0,0,0
org.apache.gora.mapreduce.StringSerialization, 0, 0, 0, 0, 0, 0, 0, 0, 0, 0, 0, 0, 0, 0,0.0,0.0,0.0,0.0,0.0,0.0,0.0,0.0,0.0,0.0,0.0,0.0,0.0,42,gora-core\src\main\java\org\apache\gora\mapreduce\StringSerialization.java,0,0,0,0
org.apache.gora.mapreduce.TestGoraInputFormat, 0, 0, 0, 0, 0, 0, 0, 0, 0, 0, 0, 0, 0, 0,0.0,0.0,0.0,0.0,0.0,0.0,0.0,0.3333333333333333,0.0,0.0,0.0,0.0,0.0,30,gora-core\src\test\java\org\apache\gora\mapreduce\TestGoraInputFormat.java,0,5,1,7
org.apache.gora.mapreduce.TestGoraInputSplit, 0, 0, 0, 0, 0, 0, 0, 0, 0, 0, 0, 0, 0, 0,0.0,0.0,0.0,0.0,0.0,0.0,0.0,0.0,0.0,0.0,0.0,0.0,0.0,31,gora-core\src\test\java\org\apache\gora\mapreduce\TestGoraInputSplit.java,0,0,0,0
org.apache.gora.memory.store.MemStoreTest, 0, 0, 0, 0, 0, 0, 0, 0, 0, 0, 0, 0, 0, 0,0.0,0.0,0.0,0.0,0.0,0.0,0.0,0.0,0.0,0.0,0.0,0.0,0.0,18,gora-core\src\test\java\org\apache\gora\memory\store\MemStoreTest.java,0,0,0,0
org.apache.gora.mock.persistency.MockPersistent, 0, 0, 0, 0, 0, 0, 0, 0, 0, 0, 0, 0, 0, 0,0.0,0.0,0.0,0.0,0.0,0.0,0.0,0.0,0.0,0.5,0.0,0.0,0.0,52,gora-core\src\test\java\org\apache\gora\mock\persistency\MockPersistent.java,0,0,0,0
org.apache.gora.mock.query.MockQuery, 0, 0, 0, 0, 0, 0, 0, 0, 0, 0, 0, 0, 0, 0,0.0,0.0,0.0,0.3333333333333333,0.0,0.0,0.0,0.0,0.0,0.0,0.0,0.0,0.0,8,gora-core\src\test\java\org\apache\gora\mock\query\MockQuery.java,0,0,0,0
org.apache.gora.mock.store.MockDataStore, 0, 0, 0, 0, 0, 0, 0, 0, 0, 0, 0, 0, 0, 0,0.0,0.0,0.0,0.0,0.0,0.0,0.0,0.125,0.0,0.0,0.0,0.0,0.0,85,gora-core\src\test\java\org\apache\gora\mock\store\MockDataStore.java,0,0,0,0
org.apache.gora.mongodb.GoraMongodbTestDriver, 0, 0, 0, 0, 0, 0, 0, 0, 0, 0, 0, 0, 0, 0,0.0,0.0,0.0,0.0,0.0,0.0,0.0,0.0,0.0,0.0,0.0,0.0,0.0,39,gora-mongodb\src\test\java\org\apache\gora\mongodb\GoraMongodbTestDriver.java,0,0,0,0
org.apache.gora.mongodb.filters.BaseFactory, 0, 0, 0, 0, 0, 0, 0, 0, 0, 0, 0, 0, 0, 0,0.0,0.0,0.0,0.0,0.0,0.0,0.0,1.0,0.0,0.0,0.0,0.0,0.0,12,gora-mongodb\src\main\java\org\apache\gora\mongodb\filters\BaseFactory.java,0,0,0,0
org.apache.gora.mongodb.filters.DefaultFactory, 0, 0, 0, 0, 0, 0, 0, 1, 0, 0, 0, 0, 0, 1,0.0,0.0,0.0,0.0,0.0,0.0,0.0,0.0,0.0,0.0,0.0,0.0,0.0,106,gora-mongodb\src\main\java\org\apache\gora\mongodb\filters\DefaultFactory.java,0,10,1,12
org.apache.gora.mongodb.filters.DefaultFactoryTest, 0, 0, 0, 0, 0, 0, 0, 0, 0, 0, 0, 0, 0, 0,0.0,0.0,0.0,0.0,0.0,0.0,0.0,0.0,0.0,0.0,0.0,0.0,0.0,86,gora-mongodb\src\test\java\org\apache\gora\mongodb\filters\DefaultFactoryTest.java,0,11,0,11
org.apache.gora.mongodb.filters.FilterFactory, 0, 0, 0, 0, 0, 0, 0, 0, 0, 0, 0, 0, 0, 0,0.0,0.0,0.0,0.0,0.0,0.0,0.0,0.0,0.0,0.0,0.0,0.0,0.0,86,gora-mongodb\src\main\java\org\apache\gora\mongodb\filters\FilterFactory.java,0,0,0,0
org.apache.gora.mongodb.mapreduce.GoraMongoMapredTest, 1, 0, 0, 0, 0, 0, 0, 0, 0, 0, 0, 0, 0, 1,0.0,0.0,0.0,0.0,0.0,0.0,0.0,0.0,0.0,0.0,0.0,0.0,0.0,11,gora-mongodb\src\test\java\org\apache\gora\mongodb\mapreduce\GoraMongoMapredTest.java,0,0,0,0
org.apache.gora.mongodb.mapreduce.TestMongoStoreCountQuery, 0, 0, 0, 0, 0, 0, 0, 0, 0, 0, 0, 0, 0, 0,0.5,0.0,0.0,0.0,0.0,0.0,0.0,0.0,0.0,0.0,0.0,0.0,0.0,19,gora-mongodb\src\test\java\org\apache\gora\mongodb\mapreduce\TestMongoStoreCountQuery.java,0,0,0,0
org.apache.gora.mongodb.mapreduce.TestMongoStoreWordCount, 0, 0, 0, 0, 0, 0, 0, 0, 0, 0, 0, 0, 0, 0,0.5,0.0,0.0,0.0,0.0,0.0,0.0,0.0,0.0,0.0,0.0,0.0,0.0,21,gora-mongodb\src\test\java\org\apache\gora\mongodb\mapreduce\TestMongoStoreWordCount.java,0,0,0,0
org.apache.gora.mongodb.query.MongoDBQuery, 0, 0, 0, 0, 0, 0, 0, 0, 0, 0, 0, 0, 0, 0,0.0,0.0,0.0,1.0,0.0,0.0,0.0,0.0,0.0,0.0,0.0,0.0,0.0,31,gora-mongodb\src\main\java\org\apache\gora\mongodb\query\MongoDBQuery.java,0,0,0,0
org.apache.gora.mongodb.query.MongoDBResult, 0, 0, 0, 0, 0, 0, 0, 0, 0, 0, 0, 0, 0, 0,0.0,0.0,0.0,0.0,0.0,0.0,0.0,0.0,0.0,0.5,0.0,0.0,0.0,39,gora-mongodb\src\main\java\org\apache\gora\mongodb\query\MongoDBResult.java,3,0,0,3
org.apache.gora.mongodb.store.MongoMappingBuilder, 0, 0, 0, 0, 0, 0, 0, 0, 0, 0, 0, 0, 0, 0,0.0,0.0,0.0,0.0,0.0,0.0,0.0,0.0,0.0,0.0,0.0,0.0,0.0,92,gora-mongodb\src\main\java\org\apache\gora\mongodb\store\MongoMappingBuilder.java,0,0,0,0
org.apache.gora.mongodb.store.TestMongoMapping, 0, 0, 0, 0, 0, 0, 0, 0, 0, 0, 0, 0, 0, 0,0.0,0.0,0.0,0.0,0.0,0.0,0.0,0.0,0.0,0.0,0.0,0.0,0.0,139,gora-mongodb\src\test\java\org\apache\gora\mongodb\store\TestMongoMapping.java,0,0,0,0
org.apache.gora.mongodb.store.TestMongoMappingBuilder, 0, 0, 0, 0, 0, 0, 0, 0, 0, 0, 0, 0, 0, 0,0.0,0.0,0.0,0.0,0.0,0.0,0.0,0.0,0.0,0.0,0.0,0.0,0.0,78,gora-mongodb\src\test\java\org\apache\gora\mongodb\store\TestMongoMappingBuilder.java,0,0,0,0
org.apache.gora.mongodb.store.TestMongoStore, 0, 0, 0, 0, 0, 0, 0, 0, 0, 0, 0, 0, 0, 0,0.5,0.0,0.0,0.5,0.0,0.0,0.0,0.0,0.0,0.0,0.0,0.0,0.0,36,gora-mongodb\src\test\java\org\apache\gora\mongodb\store\TestMongoStore.java,0,41,0,41
org.apache.gora.mongodb.utils.BSONDecorator, 0, 0, 0, 0, 0, 0, 0, 0, 0, 0, 0, 0, 0, 0,0.0,0.0,0.0,0.0,0.0,0.0,0.0,0.0,0.0,0.0,0.0,0.0,0.0,99,gora-mongodb\src\main\java\org\apache\gora\mongodb\utils\BSONDecorator.java,0,0,0,0
org.apache.gora.mongodb.utils.GoraDBEncoder, 1, 0, 1, 0, 0, 0, 0, 0, 0, 0, 0, 0, 0, 2,0.0,0.0,0.0,0.0,0.0,0.0,0.0,0.0,0.0,0.0,0.0,0.0,0.0,21,gora-mongodb\src\main\java\org\apache\gora\mongodb\utils\GoraDBEncoder.java,0,0,0,0
org.apache.gora.mongodb.utils.TestBSONDecorator, 0, 0, 0, 0, 0, 0, 0, 0, 0, 0, 0, 0, 0, 0,0.0,0.0,0.0,0.0,0.0,0.0,0.0,0.0,0.0,0.0,0.0,0.0,0.0,43,gora-mongodb\src\test\java\org\apache\gora\mongodb\utils\TestBSONDecorator.java,0,0,0,0
org.apache.gora.persistency.BeanFactory, 0, 0, 0, 0, 0, 0, 0, 0, 0, 0, 0, 0, 0, 0,0.0,0.0,0.0,0.0,0.0,0.0,0.0,0.0,0.0,0.0,0.0,0.0,0.0,43,gora-core\src\main\java\org\apache\gora\persistency\BeanFactory.java,0,0,0,0
org.apache.gora.persistency.Dirtyable, 0, 0, 0, 0, 0, 0, 0, 0, 0, 0, 0, 0, 0, 0,0.0,0.0,0.0,0.0,0.0,0.0,0.0,0.0,0.0,0.0,0.0,0.0,0.0,43,gora-core\src\main\java\org\apache\gora\persistency\Dirtyable.java,0,0,0,0
org.apache.gora.persistency.Persistent, 0, 0, 0, 0, 0, 0, 0, 0, 0, 0, 0, 0, 0, 0,0.0,0.0,0.0,0.0,0.0,0.0,0.0,0.0,0.0,0.0,0.0,0.0,0.0,43,gora-core\src\main\java\org\apache\gora\persistency\Persistent.java,0,0,0,0
org.apache.gora.persistency.impl.BeanFactoryImpl, 0, 0, 0, 0, 0, 0, 0, 0, 0, 0, 0, 0, 0, 0,1.0,0.0,1.0,0.0,0.0,0.0,0.0,0.0,0.0,0.0,0.0,0.0,0.0,49,gora-core\src\main\java\org\apache\gora\persistency\impl\BeanFactoryImpl.java,0,0,0,0
org.apache.gora.persistency.impl.DirtyFlag, 0, 0, 0, 0, 0, 0, 0, 0, 0, 0, 0, 0, 0, 0,0.0,0.0,0.0,0.0,0.0,0.0,0.0,0.0,0.0,0.0,0.0,0.0,0.0,20,gora-core\src\main\java\org\apache\gora\persistency\impl\DirtyFlag.java,0,0,0,0
org.apache.gora.persistency.impl.PersistentBase, 0, 0, 0, 0, 0, 0, 0, 0, 0, 4, 0, 0, 0, 4,0.0,0.0,0.0,0.0,0.0,0.0,0.0,0.0,0.0,0.5714285714285714,0.0,0.0,0.0,158,gora-core\src\main\java\org\apache\gora\persistency\impl\PersistentBase.java,0,0,0,0
org.apache.gora.persistency.impl.TestPersistentBase, 0, 0, 0, 0, 0, 0, 0, 0, 0, 0, 0, 0, 0, 0,0.0,0.0,0.0,0.0,0.0,0.0,0.0,0.0,0.0,1.0,0.0,0.0,0.0,64,gora-core\src\test\java\org\apache\gora\persistency\impl\TestPersistentBase.java,0,0,0,0
org.apache.gora.persistency.ws.impl.BeanFactoryWSImpl, 0, 0, 0, 0, 0, 0, 0, 0, 0, 0, 0, 0, 0, 0,1.0,0.0,1.0,0.0,0.0,0.0,0.0,0.0,0.0,0.0,0.0,0.0,0.0,63,gora-core\src\main\java\org\apache\gora\persistency\ws\impl\BeanFactoryWSImpl.java,0,0,0,0
org.apache.gora.query.PartitionQuery, 0, 0, 0, 0, 0, 0, 0, 0, 0, 0, 0, 0, 0, 0,0.0,0.0,0.0,0.0,0.0,0.0,0.0,0.0,0.0,0.0,0.0,0.0,0.0,63,gora-core\src\main\java\org\apache\gora\query\PartitionQuery.java,0,0,0,0
org.apache.gora.query.Query, 0, 0, 0, 0, 0, 0, 0, 0, 0, 0, 0, 0, 0, 0,0.0,0.0,0.0,0.0,0.0,0.0,0.0,0.0,0.0,0.0,0.0,0.0,0.0,63,gora-core\src\main\java\org\apache\gora\query\Query.java,0,0,0,0
org.apache.gora.query.Result, 0, 0, 0, 0, 0, 0, 0, 0, 0, 0, 0, 0, 0, 0,0.0,0.0,0.0,0.0,0.0,0.0,0.0,0.0,0.0,0.0,0.0,0.0,0.0,63,gora-core\src\main\java\org\apache\gora\query\Result.java,0,0,0,0
org.apache.gora.query.impl.FileSplitPartitionQuery, 0, 0, 0, 0, 0, 0, 0, 0, 0, 0, 0, 0, 0, 0,0.0,0.0,0.0,0.0,0.0,0.0,0.0,0.75,0.0,0.0,0.0,0.0,0.0,42,gora-core\src\main\java\org\apache\gora\query\impl\FileSplitPartitionQuery.java,0,0,0,0
org.apache.gora.query.impl.PartitionQueryImpl, 0, 0, 0, 0, 0, 0, 0, 1, 0, 0, 0, 0, 0, 1,0.0,0.0,0.0,0.2,0.0,0.0,0.0,0.2,0.0,0.0,0.0,0.0,0.0,110,gora-core\src\main\java\org\apache\gora\query\impl\PartitionQueryImpl.java,0,0,0,0
org.apache.gora.query.impl.QueryBase, 0, 0, 0, 1, 0, 0, 0, 0, 0, 0, 0, 0, 0, 1,0.0,0.0,0.0,0.0,0.0,0.0,0.0,0.16666666666666666,0.0,0.0,0.0,0.0,0.0,226,gora-core\src\main\java\org\apache\gora\query\impl\QueryBase.java,0,0,0,0
org.apache.gora.query.impl.ResultBase, 0, 0, 0, 0, 0, 0, 0, 0, 0, 0, 0, 0, 0, 0,0.0,0.0,0.0,0.0,0.0,0.0,0.0,0.6,0.0,0.0,0.0,0.0,0.0,93,gora-core\src\main\java\org\apache\gora\query\impl\ResultBase.java,0,0,0,0
org.apache.gora.query.impl.TestPartitionQueryImpl, 0, 0, 0, 0, 0, 0, 0, 0, 0, 0, 0, 0, 0, 0,0.0,0.0,0.0,0.3333333333333333,0.0,0.0,0.0,0.3333333333333333,0.0,0.0,0.0,0.0,0.0,12,gora-core\src\test\java\org\apache\gora\query\impl\TestPartitionQueryImpl.java,0,0,0,0
org.apache.gora.query.impl.TestQueryBase, 0, 0, 0, 0, 0, 0, 0, 0, 0, 0, 0, 0, 0, 0,0.25,0.0,0.25,0.25,0.0,0.0,0.0,0.0,0.0,0.0,0.0,0.0,0.0,24,gora-core\src\test\java\org\apache\gora\query\impl\TestQueryBase.java,0,0,0,0
org.apache.gora.query.ws.impl.PartitionWSQueryImpl, 0, 0, 0, 0, 0, 0, 0, 1, 0, 0, 0, 0, 0, 1,0.0,0.0,0.0,1.0,0.0,0.0,0.0,0.0,0.0,0.0,0.0,0.0,0.0,101,gora-core\src\main\java\org\apache\gora\query\ws\impl\PartitionWSQueryImpl.java,0,0,0,0
org.apache.gora.query.ws.impl.QueryWSBase, 0, 0, 0, 1, 0, 0, 0, 0, 0, 0, 0, 0, 0, 1,0.0,0.0,0.0,0.5,0.0,0.0,0.0,0.5,0.0,0.0,0.0,0.0,0.0,152,gora-core\src\main\java\org\apache\gora\query\ws\impl\QueryWSBase.java,0,0,0,0
org.apache.gora.query.ws.impl.ResultWSBase, 0, 0, 0, 0, 0, 0, 0, 0, 0, 0, 0, 0, 0, 0,0.0,0.0,0.0,0.0,0.0,0.0,0.0,1.0,0.0,0.0,0.0,0.0,0.0,74,gora-core\src\main\java\org\apache\gora\query\ws\impl\ResultWSBase.java,0,0,0,0
org.apache.gora.shims.hadoop.HadoopShim, 0, 0, 0, 0, 0, 0, 0, 0, 0, 0, 0, 0, 0, 0,0.0,0.0,0.0,0.0,0.0,0.0,0.0,0.0,0.0,0.0,0.0,0.0,0.0,8,gora-shims-hadoop\src\main\java\org\apache\gora\shims\hadoop\HadoopShim.java,0,0,0,0
org.apache.gora.shims.hadoop.HadoopShimTest, 0, 0, 0, 0, 0, 0, 0, 0, 0, 0, 0, 0, 0, 0,0.0,0.0,0.0,0.0,0.0,0.0,0.0,0.0,0.0,0.0,0.0,0.0,0.0,12,gora-shims-hadoop\src\test\java\org\apache\gora\shims\hadoop\HadoopShimTest.java,0,0,0,0
org.apache.gora.shims.hadoop1.HadoopShim1, 0, 0, 0, 0, 0, 0, 0, 0, 0, 0, 0, 0, 0, 0,0.0,0.0,0.0,0.0,0.0,0.0,0.0,0.0,0.0,0.0,0.0,0.0,0.0,11,gora-shims-hadoop1\src\main\java\org\apache\gora\shims\hadoop1\HadoopShim1.java,0,0,0,0
org.apache.gora.shims.hadoop1.TestHadoopShim1, 0, 0, 0, 0, 0, 0, 0, 0, 0, 0, 0, 0, 0, 0,0.0,0.0,0.0,0.0,0.0,0.0,0.0,0.0,0.0,0.0,0.0,0.0,0.0,7,gora-shims-hadoop1\src\test\java\org\apache\gora\shims\hadoop1\TestHadoopShim1.java,0,0,0,0
org.apache.gora.shims.hadoop2.HadoopShim2, 0, 0, 0, 0, 0, 0, 0, 0, 0, 0, 0, 0, 0, 0,0.0,0.0,0.0,0.0,0.0,0.0,0.0,0.0,0.0,0.0,0.0,0.0,0.0,12,gora-shims-hadoop2\src\main\java\org\apache\gora\shims\hadoop2\HadoopShim2.java,0,0,0,0
org.apache.gora.shims.hadoop2.TestHadoopShim2, 0, 0, 0, 0, 0, 0, 0, 0, 0, 0, 0, 0, 0, 0,0.0,0.0,0.0,0.0,0.0,0.0,0.0,0.0,0.0,0.0,0.0,0.0,0.0,7,gora-shims-hadoop2\src\test\java\org\apache\gora\shims\hadoop2\TestHadoopShim2.java,0,0,0,0
org.apache.gora.solr.GoraSolrTestDriver, 0, 0, 0, 0, 0, 0, 0, 0, 0, 0, 0, 0, 0, 0,0.0,0.0,0.0,0.0,0.0,0.0,0.0,0.0,0.0,0.0,0.0,0.0,0.0,49,gora-solr\src\test\java\org\apache\gora\solr\GoraSolrTestDriver.java,0,0,0,0
org.apache.gora.solr.query.SolrQuery, 0, 0, 0, 0, 0, 0, 0, 0, 0, 0, 0, 0, 0, 0,0.0,0.0,0.0,1.0,0.0,0.0,0.0,0.0,0.0,0.0,0.0,0.0,0.0,34,gora-solr\src\main\java\org\apache\gora\solr\query\SolrQuery.java,0,0,0,0
org.apache.gora.solr.store.TestSolrStore, 0, 0, 0, 0, 0, 0, 0, 0, 0, 0, 0, 0, 0, 0,1.0,0.0,0.0,1.0,0.0,0.0,0.0,0.0,0.0,0.0,0.0,0.0,0.0,22,gora-solr\src\test\java\org\apache\gora\solr\store\TestSolrStore.java,0,0,0,0
org.apache.gora.sql.query.SqlQuery, 0, 0, 0, 0, 0, 0, 0, 0, 0, 0, 0, 0, 0, 0,0.0,0.0,0.0,1.0,0.0,0.0,0.0,0.0,0.0,0.0,0.0,0.0,0.0,8,gora-sql\src\main\java\org\apache\gora\sql\query\SqlQuery.java,0,0,0,0
org.apache.gora.sql.query.SqlResult, 0, 0, 0, 0, 0, 0, 0, 1, 0, 0, 0, 0, 0, 1,0.0,0.0,0.0,0.0,0.0,0.0,0.0,0.0,0.0,0.0,0.0,0.0,0.0,34,gora-sql\src\main\java\org\apache\gora\sql\query\SqlResult.java,0,0,0,0
org.apache.gora.sql.statement.InsertUpdateStatementFactory, 0, 0, 0, 0, 0, 0, 0, 1, 0, 0, 0, 0, 0, 1,0.0,0.0,0.0,0.0,0.0,0.0,0.0,0.0,0.0,0.0,0.0,0.0,0.0,15,gora-sql\src\main\java\org\apache\gora\sql\statement\InsertUpdateStatementFactory.java,0,0,0,0
org.apache.gora.sql.store.Column, 0, 0, 0, 0, 0, 0, 0, 1, 0, 0, 0, 0, 0, 1,0.0,0.0,0.0,0.0,0.0,0.0,0.0,0.0,0.0,0.0,0.0,0.0,0.0,85,gora-sql\src\main\java\org\apache\gora\sql\store\Column.java,0,0,0,0
org.apache.gora.sql.store.TestSqlStore, 0, 0, 0, 0, 0, 0, 0, 0, 0, 0, 0, 0, 0, 0,1.0,0.0,0.0,1.0,0.0,0.0,0.0,0.0,0.0,0.0,0.0,0.0,0.0,69,gora-sql\src\test\java\org\apache\gora\sql\store\TestSqlStore.java,0,0,0,0
org.apache.gora.sql.util.SqlUtils, 0, 0, 0, 0, 0, 0, 0, 0, 0, 0, 0, 0, 0, 0,0.0,0.0,0.0,0.0,0.0,0.0,0.0,1.0,0.0,0.0,0.0,0.0,0.0,16,gora-sql\src\main\java\org\apache\gora\sql\util\SqlUtils.java,0,0,0,0
org.apache.gora.store.DataStore, 0, 0, 0, 0, 0, 0, 0, 0, 0, 0, 0, 0, 0, 0,0.0,0.0,0.0,0.0,0.0,0.0,0.0,0.0,0.0,0.0,0.0,0.0,0.0,16,gora-core\src\main\java\org\apache\gora\store\DataStore.java,0,0,0,0
org.apache.gora.store.DataStoreTestBase, 1, 0, 0, 1, 0, 0, 0, 0, 0, 0, 0, 0, 0, 2,0.0,0.0,0.0,0.0,0.0,0.0,0.0,0.0,0.0,0.0,0.0,0.0,0.0,241,gora-core\src\test\java\org\apache\gora\store\DataStoreTestBase.java,0,0,0,0
org.apache.gora.store.FileBackedDataStore, 0, 0, 0, 0, 0, 0, 0, 0, 0, 0, 0, 0, 0, 0,0.0,0.0,0.0,0.0,0.0,0.0,0.0,0.0,0.0,0.0,0.0,0.0,0.0,241,gora-core\src\main\java\org\apache\gora\store\FileBackedDataStore.java,0,0,0,0
org.apache.gora.store.TestDataStoreFactory, 0, 0, 0, 0, 0, 0, 0, 0, 0, 0, 0, 0, 0, 0,0.0,0.0,0.0,0.0,0.0,0.0,0.0,0.0,0.0,0.0,0.0,0.0,0.0,70,gora-core\src\test\java\org\apache\gora\store\TestDataStoreFactory.java,0,0,0,0
org.apache.gora.store.WSDataStoreTestBase, 1, 0, 1, 1, 0, 0, 0, 0, 0, 0, 0, 0, 0, 3,0.0,0.0,0.0,0.0,0.0,0.0,0.0,0.5,0.0,0.0,0.0,0.0,0.0,188,gora-core\src\test\java\org\apache\gora\store\WSDataStoreTestBase.java,0,0,0,0
org.apache.gora.store.WebServiceBackedDataStore, 0, 0, 0, 0, 0, 0, 0, 0, 0, 0, 0, 0, 0, 0,0.0,0.0,0.0,0.0,0.0,0.0,0.0,0.0,0.0,0.0,0.0,0.0,0.0,188,gora-core\src\main\java\org\apache\gora\store\WebServiceBackedDataStore.java,0,0,0,0
org.apache.gora.store.impl.FileBackedDataStoreBase, 0, 0, 0, 0, 0, 0, 0, 1, 0, 0, 0, 0, 0, 1,0.0,0.0,0.0,0.14285714285714285,0.0,0.0,0.0,0.2857142857142857,0.0,0.0,0.0,0.0,0.0,180,gora-core\src\main\java\org\apache\gora\store\impl\FileBackedDataStoreBase.java,0,0,0,0
org.apache.gora.store.ws.impl.WSBackedDataStoreBase, 0, 0, 0, 0, 0, 0, 0, 1, 0, 0, 0, 0, 0, 1,0.0,0.0,0.0,0.0,0.0,0.0,0.0,1.0,0.0,0.0,0.0,0.0,0.0,45,gora-core\src\main\java\org\apache\gora\store\ws\impl\WSBackedDataStoreBase.java,0,0,0,0
org.apache.gora.store.ws.impl.WSDataStoreBase, 0, 0, 0, 0, 0, 0, 0, 1, 0, 0, 0, 0, 0, 1,0.0,0.0,0.0,0.5,0.0,0.0,0.0,1.0,0.0,0.0,0.0,0.0,0.0,73,gora-core\src\main\java\org\apache\gora\store\ws\impl\WSDataStoreBase.java,0,0,0,0
org.apache.gora.tutorial.log.KeyValueWritable, 0, 0, 0, 0, 0, 0, 0, 0, 0, 0, 0, 0, 0, 0,0.0,0.0,0.0,0.0,0.0,1.0,0.0,0.0,0.0,0.0,0.0,0.0,0.0,71,gora-tutorial\src\main\java\org\apache\gora\tutorial\log\KeyValueWritable.java,0,0,0,0
org.apache.gora.tutorial.log.LogManager, 0, 0, 0, 0, 0, 0, 0, 0, 0, 0, 0, 0, 0, 0,0.0,0.0,0.0,0.0,0.0,0.0,0.0,0.0,0.0,0.0,0.0,0.0,0.0,148,gora-tutorial\src\main\java\org\apache\gora\tutorial\log\LogManager.java,0,0,0,0
org.apache.gora.tutorial.log.TextLong, 0, 0, 0, 0, 0, 1, 0, 0, 0, 0, 0, 0, 0, 1,0.0,0.0,0.0,0.0,0.0,0.0,0.0,0.0,0.0,0.0,0.0,0.0,0.0,6,gora-tutorial\src\main\java\org\apache\gora\tutorial\log\TextLong.java,0,0,0,0
org.apache.gora.util.ByteUtils, 0, 0, 0, 1, 0, 0, 0, 1, 0, 0, 0, 0, 0, 2,0.0,0.0,0.0,0.0,0.0,0.0,0.0,1.0,0.0,0.0,0.0,0.0,0.0,354,gora-core\src\main\java\org\apache\gora\util\ByteUtils.java,0,0,0,0
org.apache.gora.util.ClassLoadingUtils, 0, 0, 0, 0, 0, 0, 0, 0, 0, 0, 0, 0, 0, 0,0.25,0.0,0.25,0.25,0.0,0.0,0.0,0.25,0.0,0.0,0.0,0.0,0.0,30,gora-core\src\main\java\org\apache\gora\util\ClassLoadingUtils.java,0,0,0,0
org.apache.gora.util.GoraException, 0, 0, 0, 0, 0, 0, 0, 0, 0, 0, 0, 0, 0, 0,0.0,0.0,0.0,0.5,0.0,0.0,0.0,0.5,0.0,0.0,0.0,0.0,0.0,15,gora-core\src\main\java\org\apache\gora\util\GoraException.java,0,0,0,0
org.apache.gora.util.IOUtils, 0, 0, 0, 0, 0, 0, 0, 1, 0, 0, 0, 0, 0, 1,0.125,0.0,0.125,0.25,0.0,0.0,0.0,0.5,0.0,0.0,0.0,0.0,0.0,308,gora-core\src\main\java\org\apache\gora\util\IOUtils.java,0,0,0,0
org.apache.gora.util.NodeWalker, 0, 0, 0, 0, 0, 0, 0, 0, 0, 0, 0, 0, 0, 0,0.0,0.0,0.0,0.0,0.0,0.0,0.0,0.0,0.0,0.0,0.0,0.0,0.0,33,gora-core\src\main\java\org\apache\gora\util\NodeWalker.java,0,0,0,0
org.apache.gora.util.Null, 0, 0, 0, 0, 0, 0, 0, 0, 0, 0, 0, 0, 0, 0,0.0,0.0,0.0,0.0,0.0,0.0,0.0,0.0,0.0,0.0,0.0,0.0,0.0,8,gora-core\src\main\java\org\apache\gora\util\Null.java,0,0,0,0
org.apache.gora.util.OperationNotSupportedException, 0, 0, 0, 0, 0, 0, 0, 0, 0, 0, 0, 0, 0, 0,0.0,0.0,0.0,1.0,0.0,0.0,0.0,1.0,0.0,0.0,0.0,0.0,0.0,15,gora-core\src\main\java\org\apache\gora\util\OperationNotSupportedException.java,0,0,0,0
org.apache.gora.util.ReflectionUtils, 1, 0, 1, 0, 0, 0, 0, 0, 0, 0, 0, 0, 0, 2,0.0,0.0,0.0,0.0,0.0,0.0,0.0,0.0,0.0,0.0,0.0,0.0,0.0,52,gora-core\src\main\java\org\apache\gora\util\ReflectionUtils.java,0,0,0,0
org.apache.gora.util.TestIOUtils, 1, 0, 1, 0, 0, 0, 0, 0, 0, 0, 0, 0, 0, 2,0.0,0.0,0.0,0.0,0.0,0.0,0.0,0.3333333333333333,0.0,0.0,0.0,0.0,0.0,175,gora-core\src\test\java\org\apache\gora\util\TestIOUtils.java,0,0,0,0
,0.0,0.0,0.0,0.0,0.0,0.0,0.0,0.0,0.0,0.0,0.0,0.0,0.0,175,gora-accumulo\src\main\java\org\apache\gora\accumulo\encoders\BinaryEncoder.java,0,0,0,0
