ClassName,AntiSingleton,Blob,ClassDataShouldBePrivate,ComplexClass,LargeClass,LazyClass,LongMethod,LongParameterList,MessageChains,RefusedParentBequest,SpaghettiCode,SpeculativeGenerality,SwissArmyKnife,NumOfAPs,AntiSingleton,Blob,ClassDataShouldBePrivate,ComplexClass,LargeClass,LazyClass,LongMethod,LongParameterList,MessageChains,RefusedParentBequest,SpaghettiCode,SpeculativeGenerality,SwissArmyKnife,LOC,name,deleted,added,changed,all
Tika.Tika, 0, 0, 0, 0, 0, 0, 0, 0, 0, 0, 0, 0, 0, 0,0.0,0.0,0.0,0.0,0.0,0.0,0.0,0.0,0.0,0.0,0.0,0.0,0.0,44,tika-dotnet\src\main\java\Tika\Tika.java,0,0,0,0
org.apache.tika.TestRereadableInputStream, 0, 0, 0, 0, 0, 0, 0, 0, 0, 0, 0, 0, 0, 0,0.0,0.0,0.0,0.0,0.0,0.0,0.0,0.0,0.0,0.0,0.0,0.0,0.0,88,tika-core\src\test\java\org\apache\tika\TestRereadableInputStream.java,0,0,0,0
org.apache.tika.TikaDetectionTest, 0, 0, 0, 0, 0, 0, 0, 0, 0, 0, 0, 0, 0, 0,0.0,0.0,0.0,0.0,0.0,0.0,0.0,0.0,0.0,0.0,0.0,0.0,0.0,798,tika-core\src\test\java\org\apache\tika\TikaDetectionTest.java,0,0,1,2
org.apache.tika.TikaIT, 0, 0, 0, 0, 0, 0, 0, 0, 0, 0, 0, 0, 0, 0,0.0,0.0,0.0,0.0,0.0,0.0,0.0,0.0,0.0,0.0,0.0,0.0,0.0,9,tika-core\src\test\java\org\apache\tika\TikaIT.java,0,0,0,0
org.apache.tika.TypeDetectionBenchmark, 0, 0, 0, 0, 0, 0, 0, 0, 0, 0, 0, 0, 0, 0,0.0,0.0,0.0,0.0,0.0,0.0,0.0,0.0,0.0,0.0,0.0,0.0,0.0,42,tika-core\src\test\java\org\apache\tika\TypeDetectionBenchmark.java,0,0,0,0
org.apache.tika.batch.AutoDetectParserFactory, 0, 0, 0, 0, 0, 0, 0, 0, 0, 0, 0, 0, 0, 0,0.0,0.0,0.0,0.0,0.0,0.0,0.0,0.0,0.0,0.0,0.0,0.0,0.0,6,tika-batch\src\main\java\org\apache\tika\batch\AutoDetectParserFactory.java,0,0,0,0
org.apache.tika.batch.BatchNoRestartError, 0, 0, 0, 0, 0, 0, 0, 0, 0, 0, 0, 0, 0, 0,0.0,0.0,0.0,0.5,0.0,0.0,0.0,0.0,0.0,0.0,0.0,0.0,0.0,8,tika-batch\src\main\java\org\apache\tika\batch\BatchNoRestartError.java,0,0,0,0
org.apache.tika.batch.BatchProcess, 0, 0, 0, 1, 0, 0, 0, 0, 0, 0, 0, 0, 0, 1,0.2222222222222222,0.0,0.1111111111111111,0.2222222222222222,0.0,0.0,0.0,0.0,0.0,0.0,0.0,0.0,0.0,404,tika-batch\src\main\java\org\apache\tika\batch\BatchProcess.java,0,0,0,0
org.apache.tika.batch.BatchProcessDriverCLI, 0, 0, 0, 1, 0, 0, 0, 0, 0, 0, 0, 0, 0, 1,0.0,0.0,0.0,0.0,0.0,0.0,0.0,0.0,0.0,0.0,0.0,0.0,0.0,270,tika-batch\src\main\java\org\apache\tika\batch\BatchProcessDriverCLI.java,0,0,0,0
org.apache.tika.batch.CommandLineParserBuilderTest, 0, 0, 0, 0, 0, 0, 0, 0, 0, 0, 0, 0, 0, 0,0.0,0.0,0.0,0.0,0.0,0.0,0.0,0.0,0.0,0.0,0.0,0.0,0.0,15,tika-batch\src\test\java\org\apache\tika\batch\CommandLineParserBuilderTest.java,0,0,0,0
org.apache.tika.batch.ConsumersManager, 0, 0, 0, 0, 0, 0, 0, 0, 0, 0, 0, 0, 0, 0,0.0,0.0,0.0,0.25,0.0,0.0,0.0,0.0,0.0,0.0,0.0,0.0,0.0,20,tika-batch\src\main\java\org\apache\tika\batch\ConsumersManager.java,0,0,0,0
org.apache.tika.batch.FileConsumerFutureResult, 0, 0, 0, 0, 0, 0, 0, 0, 0, 0, 0, 0, 0, 0,0.5,0.0,0.5,1.0,0.0,0.0,0.0,0.0,0.0,0.0,0.0,0.0,0.0,14,tika-batch\src\main\java\org\apache\tika\batch\FileConsumerFutureResult.java,0,0,0,0
org.apache.tika.batch.FileResource, 0, 0, 0, 0, 0, 0, 0, 0, 0, 0, 0, 0, 0, 0,0.0,0.0,0.0,0.0,0.0,0.0,0.0,0.0,0.0,0.0,0.0,0.0,0.0,14,tika-batch\src\main\java\org\apache\tika\batch\FileResource.java,0,0,0,0
org.apache.tika.batch.FileResourceConsumer, 1, 0, 1, 1, 0, 0, 0, 0, 0, 0, 0, 0, 0, 3,0.0,0.0,0.0,0.16666666666666666,0.0,0.0,0.0,0.0,0.0,0.0,0.0,0.0,0.0,241,tika-batch\src\main\java\org\apache\tika\batch\FileResourceConsumer.java,0,0,0,0
org.apache.tika.batch.FileResourceCrawler, 1, 0, 0, 1, 0, 0, 0, 0, 0, 0, 0, 0, 0, 2,0.0,0.0,0.0,0.2,0.0,0.0,0.0,0.0,0.0,0.0,0.0,0.0,0.0,141,tika-batch\src\main\java\org\apache\tika\batch\FileResourceCrawler.java,0,0,0,0
org.apache.tika.batch.FileResourceCrawlerFutureResult, 0, 0, 0, 0, 0, 0, 0, 0, 0, 0, 0, 0, 0, 0,0.5,0.0,0.0,1.0,0.0,0.0,0.0,0.0,0.0,0.0,0.0,0.0,0.0,14,tika-batch\src\main\java\org\apache\tika\batch\FileResourceCrawlerFutureResult.java,0,0,0,0
org.apache.tika.batch.IFileProcessorFutureResult, 0, 0, 0, 0, 0, 0, 0, 0, 0, 0, 0, 0, 0, 0,0.0,0.0,0.0,0.0,0.0,0.0,0.0,0.0,0.0,0.0,0.0,0.0,0.0,14,tika-batch\src\main\java\org\apache\tika\batch\IFileProcessorFutureResult.java,0,0,0,0
org.apache.tika.batch.Interrupter, 0, 0, 0, 0, 0, 0, 0, 0, 0, 0, 0, 0, 0, 0,0.0,0.0,0.0,1.0,0.0,0.0,0.0,0.0,0.0,0.0,0.0,0.0,0.0,20,tika-batch\src\main\java\org\apache\tika\batch\Interrupter.java,0,0,0,0
org.apache.tika.batch.InterrupterFutureResult, 0, 0, 0, 0, 0, 1, 0, 0, 0, 0, 0, 0, 0, 1,0.0,0.0,0.0,0.0,0.0,0.0,0.0,0.0,0.0,0.0,0.0,0.0,0.0,2,tika-batch\src\main\java\org\apache\tika\batch\InterrupterFutureResult.java,0,0,0,0
org.apache.tika.batch.OutputStreamFactory, 0, 0, 0, 0, 0, 0, 0, 0, 0, 0, 0, 0, 0, 0,0.0,0.0,0.0,0.0,0.0,0.0,0.0,0.0,0.0,0.0,0.0,0.0,0.0,2,tika-batch\src\main\java\org\apache\tika\batch\OutputStreamFactory.java,0,0,0,0
org.apache.tika.batch.ParallelFileProcessingResult, 0, 0, 0, 0, 0, 0, 0, 0, 0, 0, 0, 0, 0, 0,0.0,0.0,0.0,1.0,0.0,0.0,0.0,0.0,0.0,0.0,0.0,0.0,0.0,55,tika-batch\src\main\java\org\apache\tika\batch\ParallelFileProcessingResult.java,0,0,0,0
org.apache.tika.batch.ParserFactory, 0, 0, 0, 0, 0, 0, 0, 0, 0, 0, 0, 0, 0, 0,0.0,0.0,0.0,0.0,0.0,0.0,0.0,0.0,0.0,0.0,0.0,0.0,0.0,55,tika-batch\src\main\java\org\apache\tika\batch\ParserFactory.java,0,0,0,0
org.apache.tika.batch.PoisonFileResource, 0, 0, 0, 0, 0, 0, 0, 0, 0, 0, 0, 0, 0, 0,0.0,0.0,0.0,0.0,0.0,0.0,0.0,0.0,0.0,0.0,0.0,0.0,0.0,14,tika-batch\src\main\java\org\apache\tika\batch\PoisonFileResource.java,0,0,0,0
org.apache.tika.batch.StatusReporter, 0, 0, 0, 0, 0, 0, 0, 0, 0, 0, 0, 0, 0, 0,0.5,0.0,0.25,0.75,0.0,0.0,0.0,0.0,0.0,0.0,0.0,0.0,0.0,129,tika-batch\src\main\java\org\apache\tika\batch\StatusReporter.java,0,0,0,0
org.apache.tika.batch.StatusReporterFutureResult, 0, 0, 0, 0, 0, 1, 0, 0, 0, 0, 0, 0, 0, 1,0.0,0.0,0.0,0.0,0.0,0.0,0.0,0.0,0.0,0.0,0.0,0.0,0.0,2,tika-batch\src\main\java\org\apache\tika\batch\StatusReporterFutureResult.java,0,0,0,0
org.apache.tika.batch.builders.CommandLineParserBuilder, 0, 0, 0, 0, 0, 0, 0, 0, 0, 0, 0, 0, 0, 0,0.0,0.0,0.0,0.0,0.0,0.0,0.0,0.0,0.0,0.0,0.0,0.0,0.0,94,tika-batch\src\main\java\org\apache\tika\batch\builders\CommandLineParserBuilder.java,0,0,0,0
org.apache.tika.batch.fs.AbstractFSConsumer, 0, 0, 0, 0, 0, 0, 0, 0, 0, 0, 0, 0, 0, 0,0.25,0.0,0.25,0.25,0.0,0.0,0.0,0.0,0.0,0.0,0.0,0.0,0.0,29,tika-batch\src\main\java\org\apache\tika\batch\fs\AbstractFSConsumer.java,4,0,0,4
org.apache.tika.batch.fs.BasicTikaFSConsumer, 0, 0, 0, 0, 0, 0, 0, 0, 0, 0, 0, 0, 0, 0,0.5,0.0,0.5,0.5,0.0,0.0,0.0,0.0,0.0,0.0,0.0,0.0,0.0,68,tika-batch\src\main\java\org\apache\tika\batch\fs\BasicTikaFSConsumer.java,0,0,0,0
org.apache.tika.batch.fs.FSConsumersManager, 0, 0, 0, 0, 0, 0, 0, 0, 0, 0, 0, 0, 0, 0,0.0,0.0,0.0,0.0,0.0,0.0,0.0,0.0,0.0,0.0,0.0,0.0,0.0,11,tika-batch\src\main\java\org\apache\tika\batch\fs\FSConsumersManager.java,0,0,0,0
org.apache.tika.batch.fs.FSDirectoryCrawler, 0, 0, 0, 0, 0, 0, 0, 0, 0, 0, 0, 0, 0, 0,0.5,0.0,0.0,0.5,0.0,0.0,0.0,0.0,0.0,0.0,0.0,0.0,0.0,96,tika-batch\src\main\java\org\apache\tika\batch\fs\FSDirectoryCrawler.java,0,0,0,0
org.apache.tika.batch.fs.FSFileResource, 0, 0, 0, 0, 0, 0, 0, 0, 0, 0, 0, 0, 0, 0,0.0,0.0,0.0,0.3333333333333333,0.0,0.0,0.0,0.0,0.0,0.0,0.0,0.0,0.0,35,tika-batch\src\main\java\org\apache\tika\batch\fs\FSFileResource.java,0,0,0,0
org.apache.tika.batch.fs.FSListCrawler, 0, 0, 0, 0, 0, 0, 0, 0, 0, 0, 0, 0, 0, 0,0.5,0.0,0.0,0.5,0.0,0.0,0.0,0.0,0.0,0.0,0.0,0.0,0.0,41,tika-batch\src\main\java\org\apache\tika\batch\fs\FSListCrawler.java,0,0,0,0
org.apache.tika.batch.fs.FSOutputStreamFactory, 0, 0, 0, 0, 0, 0, 0, 0, 0, 0, 0, 0, 0, 0,0.0,0.0,0.0,0.0,0.0,0.0,0.0,0.0,0.0,0.0,0.0,0.0,0.0,42,tika-batch\src\main\java\org\apache\tika\batch\fs\FSOutputStreamFactory.java,0,0,0,0
org.apache.tika.batch.fs.FSProperties, 0, 0, 0, 0, 0, 0, 0, 0, 0, 0, 0, 0, 0, 0,0.0,0.0,0.0,0.0,0.0,0.0,0.0,0.0,0.0,0.0,0.0,0.0,0.0,4,tika-batch\src\main\java\org\apache\tika\batch\fs\FSProperties.java,0,0,0,0
org.apache.tika.batch.fs.RecursiveParserWrapperFSConsumer, 0, 0, 0, 0, 0, 0, 0, 0, 0, 0, 0, 0, 0, 0,0.2,0.0,0.2,0.4,0.0,0.0,0.0,0.0,0.0,0.0,0.0,0.0,0.0,85,tika-batch\src\main\java\org\apache\tika\batch\fs\RecursiveParserWrapperFSConsumer.java,1,0,2,5
org.apache.tika.batch.fs.strawman.StrawmanTest, 0, 0, 0, 0, 0, 0, 0, 0, 0, 0, 0, 0, 0, 0,0.0,0.0,0.0,0.0,0.0,0.0,0.0,0.0,0.0,0.0,0.0,0.0,0.0,5,tika-batch\src\test\java\org\apache\tika\batch\fs\strawman\StrawmanTest.java,0,0,0,0
org.apache.tika.batch.mock.MockConsumersManager, 0, 0, 0, 0, 0, 0, 0, 0, 0, 0, 0, 0, 0, 0,0.0,0.0,0.0,0.0,0.0,0.0,0.0,0.0,0.0,0.0,0.0,0.0,0.0,45,tika-batch\src\test\java\org\apache\tika\batch\mock\MockConsumersManager.java,0,0,0,0
org.apache.tika.config.LoadErrorHandler, 0, 0, 0, 0, 0, 0, 0, 0, 0, 0, 0, 0, 0, 0,0.0,0.0,0.0,0.0,0.0,0.0,0.0,0.0,0.0,0.0,0.0,0.0,0.0,45,tika-core\src\main\java\org\apache\tika\config\LoadErrorHandler.java,0,0,0,0
org.apache.tika.config.TikaActivator, 0, 0, 0, 0, 0, 0, 0, 0, 0, 0, 0, 0, 0, 0,0.0,0.0,0.0,0.0,0.0,0.0,0.0,0.0,0.0,0.0,0.0,0.0,0.0,32,tika-core\src\main\java\org\apache\tika\config\TikaActivator.java,0,0,0,0
org.apache.tika.config.TikaParserConfigTest, 1, 0, 0, 0, 0, 0, 0, 0, 0, 0, 0, 0, 0, 1,0.0,0.0,0.0,0.0,0.0,0.0,0.0,0.0,0.0,0.0,0.0,0.0,0.0,83,tika-parsers\src\test\java\org\apache\tika\config\TikaParserConfigTest.java,0,0,0,0
org.apache.tika.detect.CompositeDetector, 0, 0, 0, 0, 0, 0, 0, 0, 0, 0, 0, 0, 0, 0,0.0,0.0,0.0,0.0,0.0,0.0,0.0,0.0,0.0,0.0,0.0,0.0,0.0,30,tika-core\src\main\java\org\apache\tika\detect\CompositeDetector.java,0,0,0,0
org.apache.tika.detect.Detector, 0, 0, 0, 0, 0, 0, 0, 0, 0, 0, 0, 0, 0, 0,0.0,0.0,0.0,0.0,0.0,0.0,0.0,0.0,0.0,0.0,0.0,0.0,0.0,30,tika-core\src\main\java\org\apache\tika\detect\Detector.java,0,0,0,0
org.apache.tika.detect.EmptyDetector, 0, 0, 0, 0, 0, 0, 0, 0, 0, 0, 0, 0, 0, 0,0.0,0.0,0.0,0.0,0.0,0.0,0.0,0.0,0.0,0.0,0.0,0.0,0.0,7,tika-core\src\main\java\org\apache\tika\detect\EmptyDetector.java,0,0,0,0
org.apache.tika.detect.EncodingDetector, 0, 0, 0, 0, 0, 0, 0, 0, 0, 0, 0, 0, 0, 0,0.0,0.0,0.0,0.0,0.0,0.0,0.0,0.0,0.0,0.0,0.0,0.0,0.0,7,tika-core\src\main\java\org\apache\tika\detect\EncodingDetector.java,0,0,0,0
org.apache.tika.detect.MagicDetectorTest, 0, 0, 0, 0, 0, 0, 0, 0, 0, 0, 0, 0, 0, 0,0.0,0.0,0.0,0.0,0.0,0.0,0.0,0.0,0.0,0.0,0.0,0.0,0.0,183,tika-core\src\test\java\org\apache\tika\detect\MagicDetectorTest.java,0,0,0,0
org.apache.tika.detect.TestContainerAwareDetector, 0, 0, 0, 1, 0, 0, 0, 0, 0, 0, 0, 0, 0, 1,0.0,0.0,0.0,1.0,0.0,0.0,0.0,0.0,0.0,0.0,0.0,0.0,0.0,286,tika-parsers\src\test\java\org\apache\tika\detect\TestContainerAwareDetector.java,0,0,0,0
org.apache.tika.detect.TextDetector, 0, 0, 0, 0, 0, 0, 0, 0, 0, 0, 0, 0, 0, 0,0.0,0.0,0.0,0.0,0.0,0.0,0.0,0.0,0.0,0.0,0.0,0.0,0.0,45,tika-core\src\main\java\org\apache\tika\detect\TextDetector.java,0,0,0,0
org.apache.tika.detect.TextDetectorTest, 0, 0, 0, 0, 0, 0, 0, 0, 0, 0, 0, 0, 0, 0,0.0,0.0,0.0,0.0,0.0,0.0,0.0,0.0,0.0,0.0,0.0,0.0,0.0,64,tika-core\src\test\java\org\apache\tika\detect\TextDetectorTest.java,0,0,0,0
org.apache.tika.detect.TextStatistics, 0, 0, 0, 0, 0, 0, 0, 0, 0, 0, 0, 0, 0, 0,0.0,0.0,0.0,0.0,0.0,0.0,0.0,0.0,0.0,0.0,0.0,0.0,0.0,63,tika-core\src\main\java\org\apache\tika\detect\TextStatistics.java,0,0,0,0
org.apache.tika.detect.TypeDetector, 0, 0, 0, 0, 0, 0, 0, 0, 0, 0, 0, 0, 0, 0,0.0,0.0,0.0,0.0,0.0,0.0,0.0,0.0,0.0,0.0,0.0,0.0,0.0,12,tika-core\src\main\java\org\apache\tika\detect\TypeDetector.java,0,0,0,0
org.apache.tika.detect.XmlRootExtractor, 0, 0, 0, 0, 0, 0, 0, 0, 0, 0, 0, 0, 0, 0,0.0,0.0,0.0,0.0,0.0,0.0,0.0,0.0,0.0,0.0,0.0,0.0,0.0,32,tika-core\src\main\java\org\apache\tika\detect\XmlRootExtractor.java,0,0,0,0
org.apache.tika.embedder.Embedder, 0, 0, 0, 0, 0, 0, 0, 0, 0, 0, 0, 0, 0, 0,0.0,0.0,0.0,0.0,0.0,0.0,0.0,0.0,0.0,0.0,0.0,0.0,0.0,32,tika-core\src\main\java\org\apache\tika\embedder\Embedder.java,0,0,0,0
org.apache.tika.example.ContentHandlerExample, 0, 0, 0, 0, 0, 0, 0, 0, 0, 0, 0, 0, 0, 0,0.0,0.0,0.0,0.0,0.0,0.0,0.0,0.0,0.0,0.0,0.0,0.0,0.0,81,tika-example\src\main\java\org\apache\tika\example\ContentHandlerExample.java,0,0,0,0
org.apache.tika.example.ContentHandlerExampleTest, 0, 0, 0, 0, 0, 0, 0, 0, 0, 0, 0, 0, 0, 0,0.0,0.0,0.0,0.0,0.0,0.0,0.0,0.0,0.0,0.0,0.0,0.0,0.0,59,tika-example\src\test\java\org\apache\tika\example\ContentHandlerExampleTest.java,0,0,0,0
org.apache.tika.example.DumpTikaConfigExampleTest, 0, 0, 0, 0, 0, 0, 0, 0, 0, 0, 0, 0, 0, 0,0.0,0.0,0.0,0.0,0.0,0.0,0.0,0.0,0.0,0.0,0.0,0.0,0.0,38,tika-example\src\test\java\org\apache\tika\example\DumpTikaConfigExampleTest.java,0,0,0,0
org.apache.tika.example.GrabPhoneNumbersExample, 0, 0, 0, 0, 0, 0, 0, 0, 0, 0, 0, 0, 0, 0,0.0,0.0,0.0,0.0,0.0,0.0,0.0,0.0,0.0,0.0,0.0,0.0,0.0,45,tika-example\src\main\java\org\apache\tika\example\GrabPhoneNumbersExample.java,0,0,0,0
org.apache.tika.example.LanguageIdentifierExample, 0, 0, 0, 0, 0, 0, 0, 0, 0, 0, 0, 0, 0, 0,0.0,0.0,0.0,0.0,0.0,0.0,0.0,0.0,0.0,0.0,0.0,0.0,0.0,6,tika-example\src\main\java\org\apache\tika\example\LanguageIdentifierExample.java,0,0,0,0
org.apache.tika.example.LanguageIdentifierExampleTest, 0, 0, 0, 0, 0, 0, 0, 0, 0, 0, 0, 0, 0, 0,0.0,0.0,0.0,0.0,0.0,0.0,0.0,0.0,0.0,0.0,0.0,0.0,0.0,12,tika-example\src\test\java\org\apache\tika\example\LanguageIdentifierExampleTest.java,0,0,0,0
org.apache.tika.example.ParsingExample, 0, 0, 0, 0, 0, 0, 0, 0, 0, 0, 0, 0, 0, 0,0.0,0.0,0.0,0.16666666666666666,0.0,0.0,0.0,0.0,0.0,0.0,0.0,0.0,0.0,73,tika-example\src\main\java\org\apache\tika\example\ParsingExample.java,0,0,0,0
org.apache.tika.example.TranslatorExample, 0, 0, 0, 0, 0, 0, 0, 0, 0, 0, 0, 0, 0, 0,0.0,0.0,0.0,0.0,0.0,0.0,0.0,0.0,0.0,0.0,0.0,0.0,0.0,12,tika-example\src\main\java\org\apache\tika\example\TranslatorExample.java,0,0,0,0
org.apache.tika.example.TranslatorExampleTest, 0, 0, 0, 0, 0, 0, 0, 0, 0, 0, 0, 0, 0, 0,0.0,0.0,0.0,0.0,0.0,0.0,0.0,0.0,0.0,0.0,0.0,0.0,0.0,14,tika-example\src\test\java\org\apache\tika\example\TranslatorExampleTest.java,0,0,0,0
org.apache.tika.exception.AccessPermissionException, 0, 0, 0, 0, 0, 0, 0, 0, 0, 0, 0, 0, 0, 0,0.0,0.0,0.0,0.0,0.0,0.0,0.0,0.0,0.0,0.0,0.0,0.0,0.0,14,tika-core\src\main\java\org\apache\tika\exception\AccessPermissionException.java,0,0,0,0
org.apache.tika.exception.EncryptedDocumentException, 0, 0, 0, 0, 0, 0, 0, 0, 0, 0, 0, 0, 0, 0,0.0,0.0,0.0,0.0,0.0,0.0,0.0,0.0,0.0,0.0,0.0,0.0,0.0,14,tika-core\src\main\java\org\apache\tika\exception\EncryptedDocumentException.java,0,0,0,0
org.apache.tika.exception.TikaException, 0, 0, 0, 0, 0, 0, 0, 0, 0, 0, 0, 0, 0, 0,0.0,0.0,0.0,0.10204081632653061,0.0,0.0,0.0,0.0,0.0,0.0,0.0,0.0,0.0,8,tika-core\src\main\java\org\apache\tika\exception\TikaException.java,0,0,0,0
org.apache.tika.extractor.ContainerExtractor, 0, 0, 0, 0, 0, 0, 0, 0, 0, 0, 0, 0, 0, 0,0.0,0.0,0.0,0.0,0.0,0.0,0.0,0.0,0.0,0.0,0.0,0.0,0.0,8,tika-core\src\main\java\org\apache\tika\extractor\ContainerExtractor.java,0,0,0,0
org.apache.tika.extractor.DocumentSelector, 0, 0, 0, 0, 0, 0, 0, 0, 0, 0, 0, 0, 0, 0,0.0,0.0,0.0,0.0,0.0,0.0,0.0,0.0,0.0,0.0,0.0,0.0,0.0,8,tika-core\src\main\java\org\apache\tika\extractor\DocumentSelector.java,0,0,0,0
org.apache.tika.extractor.EmbeddedDocumentExtractor, 0, 0, 0, 0, 0, 0, 0, 0, 0, 0, 0, 0, 0, 0,0.0,0.0,0.0,0.0,0.0,0.0,0.0,0.0,0.0,0.0,0.0,0.0,0.0,8,tika-core\src\main\java\org\apache\tika\extractor\EmbeddedDocumentExtractor.java,0,0,0,0
org.apache.tika.extractor.EmbeddedResourceHandler, 0, 0, 0, 0, 0, 0, 0, 0, 0, 0, 0, 0, 0, 0,0.0,0.0,0.0,0.0,0.0,0.0,0.0,0.0,0.0,0.0,0.0,0.0,0.0,8,tika-core\src\main\java\org\apache\tika\extractor\EmbeddedResourceHandler.java,0,0,0,0
org.apache.tika.extractor.ParserContainerExtractor, 0, 0, 0, 0, 0, 0, 0, 0, 0, 0, 0, 0, 0, 0,0.0,0.0,0.0,0.125,0.0,0.0,0.0,0.0,0.0,0.0,0.0,0.0,0.0,70,tika-core\src\main\java\org\apache\tika\extractor\ParserContainerExtractor.java,0,0,0,0
org.apache.tika.extractor.ParsingEmbeddedDocumentExtractor, 0, 0, 0, 0, 0, 0, 0, 0, 0, 0, 0, 0, 0, 0,0.0,0.0,0.0,0.14285714285714285,0.0,0.0,0.0,0.0,0.0,0.0,0.0,0.0,0.0,59,tika-core\src\main\java\org\apache\tika\extractor\ParsingEmbeddedDocumentExtractor.java,0,0,0,0
org.apache.tika.filetypedetector.TikaFileTypeDetector, 0, 0, 0, 0, 0, 0, 0, 0, 0, 0, 0, 0, 0, 0,0.0,0.0,0.0,0.0,0.0,0.0,0.0,0.0,0.0,0.0,0.0,0.0,0.0,18,tika-java7\src\main\java\org\apache\tika\filetypedetector\TikaFileTypeDetector.java,0,0,0,0
org.apache.tika.fork.ClassLoaderProxy, 0, 0, 0, 0, 0, 0, 0, 0, 0, 0, 0, 0, 0, 0,0.0,0.0,0.0,0.0,0.0,0.0,0.0,0.0,0.0,0.0,0.0,0.0,0.0,78,tika-core\src\main\java\org\apache\tika\fork\ClassLoaderProxy.java,0,0,0,0
org.apache.tika.fork.ClassLoaderResource, 0, 0, 0, 0, 0, 0, 0, 0, 0, 0, 0, 0, 0, 0,0.0,0.0,0.0,0.0,0.0,0.0,0.0,0.0,0.0,0.0,0.0,0.0,0.0,44,tika-core\src\main\java\org\apache\tika\fork\ClassLoaderResource.java,0,0,0,0
org.apache.tika.fork.ContentHandlerProxy, 0, 0, 0, 1, 0, 0, 0, 0, 0, 0, 0, 0, 0, 1,0.0,0.0,0.0,0.0,0.0,0.0,0.0,0.0,0.0,0.0,0.0,0.0,0.0,139,tika-core\src\main\java\org\apache\tika\fork\ContentHandlerProxy.java,0,0,0,0
org.apache.tika.fork.ContentHandlerResource, 0, 0, 0, 0, 0, 0, 0, 0, 0, 0, 0, 0, 0, 0,0.0,0.0,0.0,0.0,0.0,0.0,0.0,0.0,0.0,0.0,0.0,0.0,0.0,74,tika-core\src\main\java\org\apache\tika\fork\ContentHandlerResource.java,0,0,0,0
org.apache.tika.fork.ForkClient, 0, 0, 0, 0, 0, 0, 0, 0, 0, 0, 0, 0, 0, 0,0.0,0.0,0.0,0.1111111111111111,0.0,0.0,0.0,0.0,0.0,0.0,0.0,0.0,0.0,195,tika-core\src\main\java\org\apache\tika\fork\ForkClient.java,0,0,0,0
org.apache.tika.fork.ForkObjectInputStream, 0, 0, 0, 0, 0, 0, 0, 0, 0, 0, 0, 0, 0, 0,0.0,0.0,0.0,0.0,0.0,0.0,0.0,0.0,0.0,0.0,0.0,0.0,0.0,32,tika-core\src\main\java\org\apache\tika\fork\ForkObjectInputStream.java,0,0,0,0
org.apache.tika.fork.ForkParserTest, 0, 0, 0, 0, 0, 0, 0, 0, 0, 0, 0, 0, 0, 0,0.0,0.0,0.0,0.0,0.0,0.0,0.0,0.0,0.0,0.0,0.0,0.0,0.0,128,tika-core\src\test\java\org\apache\tika\fork\ForkParserTest.java,0,0,0,0
org.apache.tika.fork.ForkProxy, 0, 0, 0, 0, 0, 0, 0, 0, 0, 0, 0, 0, 0, 0,0.0,0.0,0.0,0.0,0.0,0.0,0.0,0.0,0.0,0.0,0.0,0.0,0.0,128,tika-core\src\main\java\org\apache\tika\fork\ForkProxy.java,0,0,0,0
org.apache.tika.fork.ForkResource, 0, 0, 0, 0, 0, 0, 0, 0, 0, 0, 0, 0, 0, 0,0.0,0.0,0.0,0.0,0.0,0.0,0.0,0.0,0.0,0.0,0.0,0.0,0.0,128,tika-core\src\main\java\org\apache\tika\fork\ForkResource.java,0,0,0,0
org.apache.tika.fork.ForkServer, 0, 0, 0, 0, 0, 0, 0, 0, 0, 0, 0, 0, 0, 0,0.0,0.0,0.0,0.0,0.0,0.0,0.0,0.0,0.0,0.0,0.0,0.0,0.0,121,tika-core\src\main\java\org\apache\tika\fork\ForkServer.java,0,0,0,0
org.apache.tika.fork.ForkTestParser, 0, 0, 0, 0, 0, 0, 0, 0, 0, 0, 0, 0, 0, 0,0.0,0.0,0.0,0.5,0.0,0.0,0.0,0.0,0.0,0.0,0.0,0.0,0.0,17,tika-core\src\test\java\org\apache\tika\fork\ForkTestParser.java,0,0,0,0
org.apache.tika.fork.InputStreamProxy, 0, 0, 0, 0, 0, 0, 0, 0, 0, 0, 0, 0, 0, 0,0.0,0.0,0.0,0.0,0.0,0.0,0.0,0.0,0.0,0.0,0.0,0.0,0.0,38,tika-core\src\main\java\org\apache\tika\fork\InputStreamProxy.java,0,0,0,0
org.apache.tika.fork.InputStreamResource, 0, 0, 0, 0, 0, 0, 0, 0, 0, 0, 0, 0, 0, 0,0.0,0.0,0.0,0.0,0.0,0.0,0.0,0.0,0.0,0.0,0.0,0.0,0.0,23,tika-core\src\main\java\org\apache\tika\fork\InputStreamResource.java,0,0,0,0
org.apache.tika.fork.MemoryURLConnection, 0, 0, 0, 0, 0, 0, 0, 0, 0, 0, 0, 0, 0, 0,0.0,0.0,0.0,0.0,0.0,0.0,0.0,0.0,0.0,0.0,0.0,0.0,0.0,13,tika-core\src\main\java\org\apache\tika\fork\MemoryURLConnection.java,0,0,0,0
org.apache.tika.fork.MemoryURLStreamHandler, 0, 0, 0, 0, 0, 0, 0, 0, 0, 0, 0, 0, 0, 0,0.0,0.0,0.0,0.0,0.0,0.0,0.0,0.0,0.0,0.0,0.0,0.0,0.0,32,tika-core\src\main\java\org\apache\tika\fork\MemoryURLStreamHandler.java,0,0,0,0
org.apache.tika.fork.MemoryURLStreamHandlerFactory, 0, 0, 0, 0, 0, 0, 0, 0, 0, 0, 0, 0, 0, 0,0.0,0.0,0.0,0.0,0.0,0.0,0.0,0.0,0.0,0.0,0.0,0.0,0.0,8,tika-core\src\main\java\org\apache\tika\fork\MemoryURLStreamHandlerFactory.java,0,0,0,0
org.apache.tika.fork.MemoryURLStreamRecord, 0, 0, 1, 0, 0, 0, 0, 0, 0, 0, 0, 0, 0, 1,0.0,0.0,0.0,0.0,0.0,0.0,0.0,0.0,0.0,0.0,0.0,0.0,0.0,3,tika-core\src\main\java\org\apache\tika\fork\MemoryURLStreamRecord.java,0,0,0,0
org.apache.tika.fork.MetadataContentHandler, 0, 0, 0, 0, 0, 0, 0, 0, 0, 0, 0, 0, 0, 0,0.0,0.0,0.0,0.0,0.0,0.0,0.0,0.0,0.0,0.0,0.0,0.0,0.0,15,tika-core\src\main\java\org\apache\tika\fork\MetadataContentHandler.java,0,0,0,0
org.apache.tika.io.CloseShieldInputStream, 0, 0, 0, 0, 0, 0, 0, 0, 0, 0, 0, 0, 0, 0,0.0,0.0,0.0,0.0,0.0,0.0,0.0,0.0,0.0,0.0,0.0,0.0,0.0,9,tika-core\src\main\java\org\apache\tika\io\CloseShieldInputStream.java,0,0,0,0
org.apache.tika.io.ClosedInputStream, 0, 0, 0, 0, 0, 0, 0, 0, 0, 0, 0, 0, 0, 0,0.0,0.0,0.0,0.0,0.0,0.0,0.0,0.0,0.0,0.0,0.0,0.0,0.0,6,tika-core\src\main\java\org\apache\tika\io\ClosedInputStream.java,0,0,0,0
org.apache.tika.io.CountingInputStream, 0, 0, 0, 0, 0, 0, 0, 0, 0, 0, 0, 0, 0, 0,0.0,0.0,0.0,0.0,0.0,0.0,0.0,0.0,0.0,0.0,0.0,0.0,0.0,55,tika-core\src\main\java\org\apache\tika\io\CountingInputStream.java,0,0,0,0
org.apache.tika.io.EndianUtils, 0, 0, 0, 1, 0, 0, 0, 0, 0, 0, 0, 0, 0, 1,0.0,0.0,0.0,0.0,0.0,0.0,0.0,0.0,0.0,0.0,0.0,0.0,0.0,188,tika-core\src\main\java\org\apache\tika\io\EndianUtils.java,0,0,0,0
org.apache.tika.io.EndianUtilsTest, 0, 0, 0, 0, 0, 0, 0, 0, 0, 0, 0, 0, 0, 0,0.0,0.0,0.0,1.0,0.0,0.0,0.0,0.0,0.0,0.0,0.0,0.0,0.0,12,tika-core\src\test\java\org\apache\tika\io\EndianUtilsTest.java,0,0,0,0
org.apache.tika.io.IOExceptionWithCause, 0, 0, 0, 0, 0, 0, 0, 0, 0, 0, 0, 0, 0, 0,0.0,0.0,0.0,0.16666666666666666,0.0,0.0,0.0,0.0,0.0,0.0,0.0,0.0,0.0,11,tika-core\src\main\java\org\apache\tika\io\IOExceptionWithCause.java,0,0,0,0
org.apache.tika.io.LookaheadInputStream, 0, 0, 0, 0, 0, 0, 0, 0, 0, 0, 0, 0, 0, 0,0.0,0.0,0.0,0.0,0.0,0.0,0.0,0.0,0.0,0.0,0.0,0.0,0.0,75,tika-core\src\main\java\org\apache\tika\io\LookaheadInputStream.java,0,0,0,0
org.apache.tika.io.LookaheadInputStreamTest, 0, 0, 0, 0, 0, 0, 0, 0, 0, 0, 0, 0, 0, 0,0.0,0.0,0.0,0.0,0.0,0.0,0.0,0.0,0.0,0.0,0.0,0.0,0.0,77,tika-core\src\test\java\org\apache\tika\io\LookaheadInputStreamTest.java,0,0,0,0
org.apache.tika.io.NullInputStream, 0, 0, 0, 1, 0, 0, 0, 0, 0, 0, 0, 0, 0, 1,0.0,0.0,0.0,0.0,0.0,0.0,0.0,0.0,0.0,0.0,0.0,0.0,0.0,128,tika-core\src\main\java\org\apache\tika\io\NullInputStream.java,0,0,0,0
org.apache.tika.io.NullOutputStream, 0, 0, 0, 0, 0, 0, 0, 0, 0, 0, 0, 0, 0, 0,0.0,0.0,0.0,0.0,0.0,0.0,0.0,0.0,0.0,0.0,0.0,0.0,0.0,12,tika-core\src\main\java\org\apache\tika\io\NullOutputStream.java,0,0,0,0
org.apache.tika.io.ProxyInputStream, 0, 0, 0, 0, 0, 0, 0, 0, 0, 0, 0, 0, 0, 0,0.0,0.0,0.0,0.2,0.0,0.0,0.0,0.0,0.0,0.0,0.0,0.0,0.0,90,tika-core\src\main\java\org\apache\tika\io\ProxyInputStream.java,0,0,0,0
org.apache.tika.io.TaggedIOException, 0, 0, 0, 0, 0, 0, 0, 0, 0, 0, 0, 0, 0, 0,0.0,0.0,0.0,0.0,0.0,0.0,0.0,0.0,0.0,0.0,0.0,0.0,0.0,14,tika-core\src\main\java\org\apache\tika\io\TaggedIOException.java,0,0,0,0
org.apache.tika.io.TaggedInputStream, 0, 0, 0, 0, 0, 0, 0, 0, 0, 0, 0, 0, 0, 0,0.0,0.0,0.0,0.16666666666666666,0.0,0.0,0.0,0.0,0.0,0.0,0.0,0.0,0.0,35,tika-core\src\main\java\org\apache\tika\io\TaggedInputStream.java,0,0,0,0
org.apache.tika.io.TaggedInputStreamTest, 0, 0, 0, 0, 0, 0, 0, 0, 0, 0, 0, 0, 0, 0,0.0,0.0,0.0,0.0,0.0,0.0,0.0,0.0,0.0,0.0,0.0,0.0,0.0,25,tika-core\src\test\java\org\apache\tika\io\TaggedInputStreamTest.java,0,0,0,0
org.apache.tika.io.TailStream, 0, 0, 0, 0, 0, 0, 0, 0, 0, 0, 0, 0, 0, 0,0.0,0.0,0.0,0.0,0.0,0.0,0.0,0.0,0.0,0.0,0.0,0.0,0.0,127,tika-core\src\main\java\org\apache\tika\io\TailStream.java,0,0,0,0
org.apache.tika.io.TemporaryResources, 0, 0, 0, 0, 0, 0, 0, 0, 0, 0, 0, 0, 0, 0,0.0,0.0,0.0,0.1,0.0,0.0,0.0,0.0,0.0,0.0,0.0,0.0,0.0,59,tika-core\src\main\java\org\apache\tika\io\TemporaryResources.java,0,0,0,0
org.apache.tika.io.TikaInputStream, 0, 0, 0, 1, 0, 0, 0, 0, 0, 0, 0, 0, 0, 1,0.0,0.0,0.0,0.10526315789473684,0.0,0.0,0.0,0.0,0.0,0.0,0.0,0.0,0.0,254,tika-core\src\main\java\org\apache\tika\io\TikaInputStream.java,0,0,0,0
org.apache.tika.io.TikaInputStreamTest, 0, 0, 0, 0, 0, 0, 0, 0, 0, 0, 0, 0, 0, 0,0.0,0.0,0.0,1.0,0.0,0.0,0.0,0.0,0.0,0.0,0.0,0.0,0.0,75,tika-core\src\test\java\org\apache\tika\io\TikaInputStreamTest.java,0,0,0,0
org.apache.tika.language.LanguageProfileTest, 0, 0, 0, 0, 0, 0, 0, 0, 0, 0, 0, 0, 0, 0,0.0,0.0,0.0,0.0,0.0,0.0,0.0,0.0,0.0,0.0,0.0,0.0,0.0,23,tika-core\src\test\java\org\apache\tika\language\LanguageProfileTest.java,0,0,0,0
org.apache.tika.language.LanguageProfilerBuilderTest, 0, 0, 0, 0, 0, 0, 0, 0, 0, 0, 0, 0, 0, 0,0.0,0.0,0.0,0.0,0.0,0.0,0.0,0.0,0.0,0.0,0.0,0.0,0.0,61,tika-core\src\test\java\org\apache\tika\language\LanguageProfilerBuilderTest.java,0,0,0,0
org.apache.tika.language.ProfilingHandler, 0, 0, 0, 0, 0, 0, 0, 0, 0, 0, 0, 0, 0, 0,0.0,0.0,0.0,0.0,0.0,0.0,0.0,0.0,0.0,0.0,0.0,0.0,0.0,19,tika-core\src\main\java\org\apache\tika\language\ProfilingHandler.java,0,0,0,0
org.apache.tika.language.ProfilingWriterTest, 0, 0, 0, 0, 0, 0, 0, 0, 0, 0, 0, 0, 0, 0,0.0,0.0,0.0,0.0,0.0,0.0,0.0,0.0,0.0,0.0,0.0,0.0,0.0,17,tika-core\src\test\java\org\apache\tika\language\ProfilingWriterTest.java,0,0,0,0
org.apache.tika.language.translate.CachedTranslatorTest, 0, 0, 0, 0, 0, 0, 0, 0, 0, 0, 0, 0, 0, 0,0.0,0.0,0.0,0.0,0.0,0.0,0.0,0.0,0.0,0.0,0.0,0.0,0.0,48,tika-translate\src\test\java\org\apache\tika\language\translate\CachedTranslatorTest.java,0,0,0,0
org.apache.tika.language.translate.ExternalTranslator, 0, 0, 0, 0, 0, 0, 0, 0, 0, 0, 0, 0, 0, 0,0.0,0.0,0.0,0.0,0.0,0.0,0.0,0.0,0.0,0.0,0.0,0.0,0.0,33,tika-translate\src\main\java\org\apache\tika\language\translate\ExternalTranslator.java,0,0,0,0
org.apache.tika.language.translate.GoogleTranslatorTest, 0, 0, 0, 0, 0, 0, 0, 0, 0, 0, 0, 0, 0, 0,0.0,0.0,0.0,0.0,0.0,0.0,0.0,0.0,0.0,0.0,0.0,0.0,0.0,43,tika-translate\src\test\java\org\apache\tika\language\translate\GoogleTranslatorTest.java,0,0,0,0
org.apache.tika.language.translate.Lingo24TranslatorTest, 0, 0, 0, 0, 0, 0, 0, 0, 0, 0, 0, 0, 0, 0,0.0,0.0,0.0,0.0,0.0,0.0,0.0,0.0,0.0,0.0,0.0,0.0,0.0,41,tika-translate\src\test\java\org\apache\tika\language\translate\Lingo24TranslatorTest.java,0,0,0,0
org.apache.tika.language.translate.MicrosoftTranslatorTest, 0, 0, 0, 0, 0, 0, 0, 0, 0, 0, 0, 0, 0, 0,0.0,0.0,0.0,0.0,0.0,0.0,0.0,0.0,0.0,0.0,0.0,0.0,0.0,43,tika-translate\src\test\java\org\apache\tika\language\translate\MicrosoftTranslatorTest.java,0,0,0,0
org.apache.tika.language.translate.MosesTranslatorTest, 0, 0, 0, 0, 0, 0, 0, 0, 0, 0, 0, 0, 0, 0,0.0,0.0,0.0,0.0,0.0,0.0,0.0,0.0,0.0,0.0,0.0,0.0,0.0,15,tika-translate\src\test\java\org\apache\tika\language\translate\MosesTranslatorTest.java,0,0,0,0
org.apache.tika.language.translate.Translator, 0, 0, 0, 0, 0, 0, 0, 0, 0, 0, 0, 0, 0, 0,0.0,0.0,0.0,0.0,0.0,0.0,0.0,0.0,0.0,0.0,0.0,0.0,0.0,15,tika-core\src\main\java\org\apache\tika\language\translate\Translator.java,0,0,0,0
org.apache.tika.metadata.AccessPermissions, 0, 0, 0, 0, 0, 0, 0, 0, 0, 0, 0, 0, 0, 0,0.0,0.0,0.0,0.0,0.0,0.0,0.0,0.0,0.0,0.0,0.0,0.0,0.0,15,tika-core\src\main\java\org\apache\tika\metadata\AccessPermissions.java,0,0,0,0
org.apache.tika.metadata.ClimateForcast, 0, 0, 0, 0, 0, 0, 0, 0, 0, 0, 0, 0, 0, 0,0.0,0.0,0.0,0.0,0.0,0.0,0.0,0.0,0.0,0.0,0.0,0.0,0.0,15,tika-core\src\main\java\org\apache\tika\metadata\ClimateForcast.java,0,0,0,0
org.apache.tika.metadata.CreativeCommons, 0, 0, 0, 0, 0, 0, 0, 0, 0, 0, 0, 0, 0, 0,0.0,0.0,0.0,0.0,0.0,0.0,0.0,0.0,0.0,0.0,0.0,0.0,0.0,15,tika-core\src\main\java\org\apache\tika\metadata\CreativeCommons.java,0,0,0,0
org.apache.tika.metadata.Database, 0, 0, 0, 0, 0, 0, 0, 0, 0, 0, 0, 0, 0, 0,0.0,0.0,0.0,0.0,0.0,0.0,0.0,0.0,0.0,0.0,0.0,0.0,0.0,15,tika-core\src\main\java\org\apache\tika\metadata\Database.java,0,0,0,0
org.apache.tika.metadata.DublinCore, 0, 0, 0, 0, 0, 0, 0, 0, 0, 0, 0, 0, 0, 0,0.0,0.0,0.0,0.0,0.0,0.0,0.0,0.0,0.0,0.0,0.0,0.0,0.0,15,tika-core\src\main\java\org\apache\tika\metadata\DublinCore.java,0,0,0,0
org.apache.tika.metadata.Geographic, 0, 0, 0, 0, 0, 0, 0, 0, 0, 0, 0, 0, 0, 0,0.0,0.0,0.0,0.0,0.0,0.0,0.0,0.0,0.0,0.0,0.0,0.0,0.0,15,tika-core\src\main\java\org\apache\tika\metadata\Geographic.java,0,0,0,0
org.apache.tika.metadata.HttpHeaders, 0, 0, 0, 0, 0, 0, 0, 0, 0, 0, 0, 0, 0, 0,0.0,0.0,0.0,0.0,0.0,0.0,0.0,0.0,0.0,0.0,0.0,0.0,0.0,15,tika-core\src\main\java\org\apache\tika\metadata\HttpHeaders.java,0,0,0,0
org.apache.tika.metadata.IPTC, 0, 0, 0, 0, 0, 0, 0, 0, 0, 0, 0, 0, 0, 0,0.0,0.0,0.0,0.0,0.0,0.0,0.0,0.0,0.0,0.0,0.0,0.0,0.0,15,tika-core\src\main\java\org\apache\tika\metadata\IPTC.java,0,0,0,0
org.apache.tika.metadata.MSOffice, 0, 0, 0, 0, 0, 0, 0, 0, 0, 0, 0, 0, 0, 0,0.0,0.0,0.0,0.0,0.0,0.0,0.0,0.0,0.0,0.0,0.0,0.0,0.0,15,tika-core\src\main\java\org\apache\tika\metadata\MSOffice.java,0,0,0,0
org.apache.tika.metadata.Message, 0, 0, 0, 0, 0, 0, 0, 0, 0, 0, 0, 0, 0, 0,0.0,0.0,0.0,0.0,0.0,0.0,0.0,0.0,0.0,0.0,0.0,0.0,0.0,15,tika-core\src\main\java\org\apache\tika\metadata\Message.java,0,0,0,0
org.apache.tika.metadata.Office, 0, 0, 0, 0, 0, 0, 0, 0, 0, 0, 0, 0, 0, 0,0.0,0.0,0.0,0.0,0.0,0.0,0.0,0.0,0.0,0.0,0.0,0.0,0.0,15,tika-core\src\main\java\org\apache\tika\metadata\Office.java,0,0,0,0
org.apache.tika.metadata.OfficeOpenXMLCore, 0, 0, 0, 0, 0, 0, 0, 0, 0, 0, 0, 0, 0, 0,0.0,0.0,0.0,0.0,0.0,0.0,0.0,0.0,0.0,0.0,0.0,0.0,0.0,15,tika-core\src\main\java\org\apache\tika\metadata\OfficeOpenXMLCore.java,0,0,0,0
org.apache.tika.metadata.OfficeOpenXMLExtended, 0, 0, 0, 0, 0, 0, 0, 0, 0, 0, 0, 0, 0, 0,0.0,0.0,0.0,0.0,0.0,0.0,0.0,0.0,0.0,0.0,0.0,0.0,0.0,15,tika-core\src\main\java\org\apache\tika\metadata\OfficeOpenXMLExtended.java,0,0,0,0
org.apache.tika.metadata.PagedText, 0, 0, 0, 0, 0, 0, 0, 0, 0, 0, 0, 0, 0, 0,0.0,0.0,0.0,0.0,0.0,0.0,0.0,0.0,0.0,0.0,0.0,0.0,0.0,15,tika-core\src\main\java\org\apache\tika\metadata\PagedText.java,0,0,0,0
org.apache.tika.metadata.Photoshop, 0, 0, 0, 0, 0, 0, 0, 0, 0, 0, 0, 0, 0, 0,0.0,0.0,0.0,0.0,0.0,0.0,0.0,0.0,0.0,0.0,0.0,0.0,0.0,15,tika-core\src\main\java\org\apache\tika\metadata\Photoshop.java,0,0,0,0
org.apache.tika.metadata.PropertyTypeException, 0, 0, 0, 0, 0, 0, 0, 0, 0, 0, 0, 0, 0, 0,0.0,0.0,0.0,0.0,0.0,0.0,0.0,0.0,0.0,0.0,0.0,0.0,0.0,17,tika-core\src\main\java\org\apache\tika\metadata\PropertyTypeException.java,0,0,0,0
org.apache.tika.metadata.RTFMetadata, 0, 0, 0, 0, 0, 0, 0, 0, 0, 0, 0, 0, 0, 0,0.0,0.0,0.0,0.0,0.0,0.0,0.0,0.0,0.0,0.0,0.0,0.0,0.0,17,tika-core\src\main\java\org\apache\tika\metadata\RTFMetadata.java,0,0,0,0
org.apache.tika.metadata.TIFF, 0, 0, 0, 0, 0, 0, 0, 0, 0, 0, 0, 0, 0, 0,0.0,0.0,0.0,0.0,0.0,0.0,0.0,0.0,0.0,0.0,0.0,0.0,0.0,17,tika-core\src\main\java\org\apache\tika\metadata\TIFF.java,0,0,0,0
org.apache.tika.metadata.TikaCoreProperties, 0, 0, 0, 0, 0, 0, 0, 0, 0, 0, 0, 0, 0, 0,0.0,0.0,0.0,0.0,0.0,0.0,0.0,0.0,0.0,0.0,0.0,0.0,0.0,17,tika-core\src\main\java\org\apache\tika\metadata\TikaCoreProperties.java,0,0,0,0
org.apache.tika.metadata.TikaMetadataKeys, 0, 0, 0, 0, 0, 0, 0, 0, 0, 0, 0, 0, 0, 0,0.0,0.0,0.0,0.0,0.0,0.0,0.0,0.0,0.0,0.0,0.0,0.0,0.0,17,tika-core\src\main\java\org\apache\tika\metadata\TikaMetadataKeys.java,0,0,0,0
org.apache.tika.metadata.TikaMimeKeys, 0, 0, 0, 0, 0, 0, 0, 0, 0, 0, 0, 0, 0, 0,0.0,0.0,0.0,0.0,0.0,0.0,0.0,0.0,0.0,0.0,0.0,0.0,0.0,17,tika-core\src\main\java\org\apache\tika\metadata\TikaMimeKeys.java,0,0,0,0
org.apache.tika.metadata.XMP, 0, 0, 0, 0, 0, 0, 0, 0, 0, 0, 0, 0, 0, 0,0.0,0.0,0.0,0.0,0.0,0.0,0.0,0.0,0.0,0.0,0.0,0.0,0.0,17,tika-core\src\main\java\org\apache\tika\metadata\XMP.java,0,0,0,0
org.apache.tika.metadata.XMPDM, 0, 0, 0, 0, 0, 0, 0, 0, 0, 0, 0, 0, 0, 0,0.0,0.0,0.0,0.0,0.0,0.0,0.0,0.0,0.0,0.0,0.0,0.0,0.0,17,tika-core\src\main\java\org\apache\tika\metadata\XMPDM.java,0,0,0,0
org.apache.tika.metadata.XMPIdq, 0, 0, 0, 0, 0, 0, 0, 0, 0, 0, 0, 0, 0, 0,0.0,0.0,0.0,0.0,0.0,0.0,0.0,0.0,0.0,0.0,0.0,0.0,0.0,17,tika-core\src\main\java\org\apache\tika\metadata\XMPIdq.java,0,0,0,0
org.apache.tika.metadata.XMPMM, 0, 0, 0, 0, 0, 0, 0, 0, 0, 0, 0, 0, 0, 0,0.0,0.0,0.0,0.0,0.0,0.0,0.0,0.0,0.0,0.0,0.0,0.0,0.0,17,tika-core\src\main\java\org\apache\tika\metadata\XMPMM.java,0,0,0,0
org.apache.tika.metadata.XMPRights, 0, 0, 0, 0, 0, 0, 0, 0, 0, 0, 0, 0, 0, 0,0.0,0.0,0.0,0.0,0.0,0.0,0.0,0.0,0.0,0.0,0.0,0.0,0.0,17,tika-core\src\main\java\org\apache\tika\metadata\XMPRights.java,0,0,0,0
org.apache.tika.metadata.serialization.JsonMetadata, 0, 0, 0, 0, 0, 0, 0, 0, 0, 0, 0, 0, 0, 0,0.0,0.0,0.0,0.0,0.0,0.0,0.0,0.0,0.0,0.0,0.0,0.0,0.0,32,tika-serialization\src\main\java\org\apache\tika\metadata\serialization\JsonMetadata.java,0,0,0,0
org.apache.tika.metadata.serialization.JsonMetadataBase, 0, 0, 0, 0, 0, 0, 0, 0, 0, 0, 0, 0, 0, 0,0.0,0.0,0.0,0.0,0.0,0.0,0.0,0.0,0.0,0.0,0.0,0.0,0.0,23,tika-serialization\src\main\java\org\apache\tika\metadata\serialization\JsonMetadataBase.java,0,0,0,0
org.apache.tika.metadata.serialization.JsonMetadataList, 0, 0, 0, 0, 0, 0, 0, 0, 0, 0, 0, 0, 0, 0,0.0,0.0,0.0,0.0,0.0,0.0,0.0,0.0,0.0,0.0,0.0,0.0,0.0,36,tika-serialization\src\main\java\org\apache\tika\metadata\serialization\JsonMetadataList.java,0,0,0,0
org.apache.tika.metadata.serialization.JsonMetadataSerializer, 0, 0, 0, 0, 0, 0, 0, 0, 0, 0, 0, 0, 0, 0,0.0,0.0,0.0,0.0,0.0,0.0,0.0,0.0,0.0,0.0,0.0,0.0,0.0,34,tika-serialization\src\main\java\org\apache\tika\metadata\serialization\JsonMetadataSerializer.java,0,0,0,0
org.apache.tika.metadata.serialization.PrettyMetadataKeyComparator, 0, 0, 0, 0, 0, 0, 0, 0, 0, 0, 0, 0, 0, 0,0.0,0.0,0.0,0.0,0.0,0.0,0.0,0.0,0.0,0.0,0.0,0.0,0.0,19,tika-serialization\src\main\java\org\apache\tika\metadata\serialization\PrettyMetadataKeyComparator.java,0,0,0,0
org.apache.tika.mime.AndClause, 0, 0, 0, 0, 0, 0, 0, 0, 0, 0, 0, 0, 0, 0,0.0,0.0,0.0,0.0,0.0,0.0,0.0,0.0,0.0,0.0,0.0,0.0,0.0,24,tika-core\src\main\java\org\apache\tika\mime\AndClause.java,0,0,0,0
org.apache.tika.mime.Clause, 0, 0, 0, 0, 0, 0, 0, 0, 0, 0, 0, 0, 0, 0,0.0,0.0,0.0,0.0,0.0,0.0,0.0,0.0,0.0,0.0,0.0,0.0,0.0,24,tika-core\src\main\java\org\apache\tika\mime\Clause.java,0,0,0,0
org.apache.tika.mime.HexCoDec, 0, 0, 0, 0, 0, 0, 0, 0, 0, 0, 0, 0, 0, 0,0.0,0.0,0.0,0.0,0.0,0.0,0.0,0.0,0.0,0.0,0.0,0.0,0.0,42,tika-core\src\main\java\org\apache\tika\mime\HexCoDec.java,0,0,0,0
org.apache.tika.mime.Magic, 0, 0, 0, 0, 0, 0, 0, 0, 0, 0, 0, 0, 0, 0,0.0,0.0,0.0,0.5,0.0,0.0,0.0,0.0,0.0,0.0,0.0,0.0,0.0,50,tika-core\src\main\java\org\apache\tika\mime\Magic.java,0,0,0,0
org.apache.tika.mime.MagicMatch, 0, 0, 0, 0, 0, 0, 0, 0, 0, 0, 0, 0, 0, 0,0.0,0.0,0.0,0.0,0.0,0.0,0.0,0.0,0.0,0.0,0.0,0.0,0.0,39,tika-core\src\main\java\org\apache\tika\mime\MagicMatch.java,0,0,0,0
org.apache.tika.mime.MimeDetectionTest, 0, 0, 0, 0, 0, 0, 0, 0, 0, 0, 0, 0, 0, 0,0.0,0.0,0.0,0.0,0.0,0.0,0.0,0.0,0.0,0.0,0.0,0.0,0.0,148,tika-core\src\test\java\org\apache\tika\mime\MimeDetectionTest.java,0,0,1,2
org.apache.tika.mime.MimeType, 0, 0, 0, 1, 0, 0, 0, 0, 0, 0, 0, 0, 0, 1,0.0,0.0,0.0,0.25,0.0,0.0,0.0,0.0,0.0,0.0,0.0,0.0,0.0,230,tika-core\src\main\java\org\apache\tika\mime\MimeType.java,0,0,0,0
org.apache.tika.mime.MimeTypeException, 0, 0, 0, 0, 0, 0, 0, 0, 0, 0, 0, 0, 0, 0,0.0,0.0,0.0,0.25,0.0,0.0,0.0,0.0,0.0,0.0,0.0,0.0,0.0,8,tika-core\src\main\java\org\apache\tika\mime\MimeTypeException.java,0,0,0,0
org.apache.tika.mime.MimeTypeTest, 0, 0, 0, 0, 0, 0, 0, 0, 0, 0, 0, 0, 0, 0,0.0,0.0,0.0,1.0,0.0,0.0,0.0,0.0,0.0,0.0,0.0,0.0,0.0,61,tika-parsers\src\test\java\org\apache\tika\mime\MimeTypeTest.java,0,0,0,0
org.apache.tika.mime.MimeTypesFactory, 0, 0, 0, 0, 0, 0, 0, 0, 0, 0, 0, 0, 0, 0,0.0,0.0,0.0,0.0,0.0,0.0,0.0,0.0,0.0,0.0,0.0,0.0,0.0,65,tika-core\src\main\java\org\apache\tika\mime\MimeTypesFactory.java,0,0,0,0
org.apache.tika.mime.MimeTypesReaderMetKeys, 0, 0, 0, 0, 0, 0, 0, 0, 0, 0, 0, 0, 0, 0,0.0,0.0,0.0,0.0,0.0,0.0,0.0,0.0,0.0,0.0,0.0,0.0,0.0,65,tika-core\src\main\java\org\apache\tika\mime\MimeTypesReaderMetKeys.java,0,0,0,0
org.apache.tika.mime.MimeTypesReaderTest, 0, 0, 0, 0, 0, 0, 0, 0, 0, 0, 0, 0, 0, 0,0.0,0.0,0.0,0.5,0.0,0.0,0.0,0.0,0.0,0.0,0.0,0.0,0.0,138,tika-core\src\test\java\org\apache\tika\mime\MimeTypesReaderTest.java,0,0,0,0
org.apache.tika.mime.MimeTypesTest, 0, 0, 0, 0, 0, 0, 0, 0, 0, 0, 0, 0, 0, 0,0.0,0.0,0.0,0.5,0.0,0.0,0.0,0.0,0.0,0.0,0.0,0.0,0.0,71,tika-parsers\src\test\java\org\apache\tika\mime\MimeTypesTest.java,0,0,0,0
org.apache.tika.mime.OrClause, 0, 0, 0, 0, 0, 0, 0, 0, 0, 0, 0, 0, 0, 0,0.0,0.0,0.0,0.0,0.0,0.0,0.0,0.0,0.0,0.0,0.0,0.0,0.0,24,tika-core\src\main\java\org\apache\tika\mime\OrClause.java,0,0,0,0
org.apache.tika.mime.PatternsTest, 0, 0, 0, 0, 0, 0, 0, 0, 0, 0, 0, 0, 0, 0,0.0,0.0,0.0,1.0,0.0,0.0,0.0,0.0,0.0,0.0,0.0,0.0,0.0,52,tika-core\src\test\java\org\apache\tika\mime\PatternsTest.java,0,0,0,0
org.apache.tika.mime.TestMimeTypes, 0, 0, 0, 1, 0, 0, 0, 0, 0, 0, 0, 0, 0, 1,0.0,0.0,0.0,1.0,0.0,0.0,0.0,0.0,0.0,0.0,0.0,0.0,0.0,707,tika-parsers\src\test\java\org\apache\tika\mime\TestMimeTypes.java,0,32,2,36
org.apache.tika.parser.AbstractParser, 0, 0, 0, 0, 0, 0, 0, 0, 0, 0, 0, 0, 0, 0,0.0,0.0,0.0,0.023255813953488372,0.0,0.0,0.0,0.0,0.0,0.0,0.0,0.0,0.0,8,tika-core\src\main\java\org\apache\tika\parser\AbstractParser.java,0,0,0,0
org.apache.tika.parser.AutoDetectParser, 0, 0, 0, 0, 0, 0, 0, 0, 0, 0, 0, 0, 0, 0,0.0,0.0,0.0,0.1111111111111111,0.0,0.0,0.0,0.0,0.0,0.0,0.0,0.0,0.0,56,tika-core\src\main\java\org\apache\tika\parser\AutoDetectParser.java,0,0,0,0
org.apache.tika.parser.DelegatingParser, 0, 0, 0, 0, 0, 0, 0, 0, 0, 0, 0, 0, 0, 0,0.0,0.0,0.0,0.0,0.0,0.0,0.0,0.0,0.0,0.0,0.0,0.0,0.0,14,tika-core\src\main\java\org\apache\tika\parser\DelegatingParser.java,0,0,0,0
org.apache.tika.parser.EmptyParser, 0, 0, 0, 0, 0, 0, 0, 0, 0, 0, 0, 0, 0, 0,0.0,0.0,0.0,0.3333333333333333,0.0,0.0,0.0,0.0,0.0,0.0,0.0,0.0,0.0,15,tika-core\src\main\java\org\apache\tika\parser\EmptyParser.java,0,0,0,0
org.apache.tika.parser.ErrorParser, 0, 0, 0, 0, 0, 0, 0, 0, 0, 0, 0, 0, 0, 0,0.0,0.0,0.0,0.0,0.0,0.0,0.0,0.0,0.0,0.0,0.0,0.0,0.0,13,tika-core\src\main\java\org\apache\tika\parser\ErrorParser.java,0,0,0,0
org.apache.tika.parser.NetworkParser, 0, 0, 0, 0, 0, 0, 0, 0, 0, 0, 0, 0, 0, 0,0.0,0.0,0.0,0.25,0.0,0.0,0.0,0.0,0.0,0.0,0.0,0.0,0.0,128,tika-core\src\main\java\org\apache\tika\parser\NetworkParser.java,0,0,0,0
org.apache.tika.parser.Parser, 0, 0, 0, 0, 0, 0, 0, 0, 0, 0, 0, 0, 0, 0,0.0,0.0,0.0,0.0,0.0,0.0,0.0,0.0,0.0,0.0,0.0,0.0,0.0,128,tika-core\src\main\java\org\apache\tika\parser\Parser.java,0,0,0,0
org.apache.tika.parser.ParserDecorator, 0, 0, 0, 0, 0, 0, 0, 0, 0, 0, 0, 0, 0, 0,0.3333333333333333,0.0,0.0,0.0,0.0,0.0,0.0,0.0,0.0,0.0,0.0,0.0,0.0,70,tika-core\src\main\java\org\apache\tika\parser\ParserDecorator.java,0,0,0,0
org.apache.tika.parser.ParserPostProcessor, 0, 0, 0, 0, 0, 0, 0, 0, 0, 0, 0, 0, 0, 0,0.0,0.0,0.0,0.0,0.0,0.0,0.0,0.0,0.0,0.0,0.0,0.0,0.0,20,tika-core\src\main\java\org\apache\tika\parser\ParserPostProcessor.java,0,0,0,0
org.apache.tika.parser.ParsingReaderTest, 0, 0, 0, 0, 0, 0, 0, 0, 0, 0, 0, 0, 0, 0,0.0,0.0,0.0,0.0,0.0,0.0,0.0,0.0,0.0,0.0,0.0,0.0,0.0,67,tika-parsers\src\test\java\org\apache\tika\parser\ParsingReaderTest.java,0,0,0,0
org.apache.tika.parser.PasswordProvider, 0, 0, 0, 0, 0, 0, 0, 0, 0, 0, 0, 0, 0, 0,0.0,0.0,0.0,0.0,0.0,0.0,0.0,0.0,0.0,0.0,0.0,0.0,0.0,67,tika-core\src\main\java\org\apache\tika\parser\PasswordProvider.java,0,0,0,0
org.apache.tika.parser.RecursiveParserWrapper, 0, 0, 0, 1, 0, 0, 0, 0, 0, 0, 0, 0, 0, 1,0.0,0.0,0.0,0.0,0.0,0.0,0.0,0.0,0.0,0.0,0.0,0.0,0.0,150,tika-core\src\main\java\org\apache\tika\parser\RecursiveParserWrapper.java,0,30,2,34
org.apache.tika.parser.RecursiveParserWrapperTest, 0, 0, 0, 0, 0, 0, 0, 0, 0, 0, 0, 0, 0, 0,0.0,0.0,0.0,0.3333333333333333,0.0,0.0,0.0,0.0,0.0,0.0,0.0,0.0,0.0,135,tika-parsers\src\test\java\org\apache\tika\parser\RecursiveParserWrapperTest.java,7,79,5,96
org.apache.tika.parser.asm.ClassParser, 0, 0, 0, 0, 0, 0, 0, 0, 0, 0, 0, 0, 0, 0,0.0,0.0,0.0,0.5,0.0,0.0,0.0,0.0,0.0,0.0,0.0,0.0,0.0,14,tika-parsers\src\main\java\org\apache\tika\parser\asm\ClassParser.java,0,0,0,0
org.apache.tika.parser.asm.XHTMLClassVisitor, 0, 0, 0, 1, 0, 0, 0, 0, 0, 0, 0, 0, 0, 1,0.0,0.0,0.0,0.3333333333333333,0.0,0.0,0.0,0.0,0.0,0.0,0.0,0.0,0.0,223,tika-parsers\src\main\java\org\apache\tika\parser\asm\XHTMLClassVisitor.java,0,0,0,0
org.apache.tika.parser.audio.AudioParserTest, 0, 0, 0, 0, 0, 0, 0, 0, 0, 0, 0, 0, 0, 0,0.0,0.0,0.0,0.0,0.0,0.0,0.0,0.0,0.0,0.0,0.0,0.0,0.0,41,tika-parsers\src\test\java\org\apache\tika\parser\audio\AudioParserTest.java,0,0,0,0
org.apache.tika.parser.audio.MidiParser, 0, 0, 0, 0, 0, 0, 0, 0, 0, 0, 0, 0, 0, 0,0.0,0.0,0.0,0.5,0.0,0.0,0.0,0.0,0.0,0.0,0.0,0.0,0.0,56,tika-parsers\src\main\java\org\apache\tika\parser\audio\MidiParser.java,0,0,0,0
org.apache.tika.parser.audio.MidiParserTest, 0, 0, 0, 0, 0, 0, 0, 0, 0, 0, 0, 0, 0, 0,0.0,0.0,0.0,0.0,0.0,0.0,0.0,0.0,0.0,0.0,0.0,0.0,0.0,14,tika-parsers\src\test\java\org\apache\tika\parser\audio\MidiParserTest.java,0,0,0,0
org.apache.tika.parser.chm.ChmParser, 0, 0, 0, 0, 0, 0, 0, 0, 0, 0, 0, 0, 0, 0,0.0,0.0,0.0,0.3333333333333333,0.0,0.0,0.0,0.0,0.0,0.0,0.0,0.0,0.0,45,tika-parsers\src\main\java\org\apache\tika\parser\chm\ChmParser.java,0,0,0,0
org.apache.tika.parser.chm.TestChmBlockInfo, 0, 0, 0, 0, 0, 0, 0, 0, 0, 0, 0, 0, 0, 0,0.0,0.0,0.0,0.0,0.0,0.0,0.0,0.0,0.0,0.0,0.0,0.0,0.0,62,tika-parsers\src\test\java\org\apache\tika\parser\chm\TestChmBlockInfo.java,0,0,0,0
org.apache.tika.parser.chm.TestChmExtraction, 0, 0, 0, 0, 0, 0, 0, 0, 0, 0, 0, 0, 0, 0,0.0,0.0,0.0,0.25,0.0,0.0,0.0,0.0,0.0,0.0,0.0,0.0,0.0,134,tika-parsers\src\test\java\org\apache\tika\parser\chm\TestChmExtraction.java,0,0,0,0
org.apache.tika.parser.chm.TestChmExtractor, 0, 0, 0, 0, 0, 0, 0, 0, 0, 0, 0, 0, 0, 0,0.0,0.0,0.0,1.0,0.0,0.0,0.0,0.0,0.0,0.0,0.0,0.0,0.0,28,tika-parsers\src\test\java\org\apache\tika\parser\chm\TestChmExtractor.java,0,0,0,0
org.apache.tika.parser.chm.TestChmItsfHeader, 0, 0, 0, 0, 0, 0, 0, 0, 0, 0, 0, 0, 0, 0,0.0,0.0,0.0,0.0,0.0,0.0,0.0,0.0,0.0,0.0,0.0,0.0,0.0,73,tika-parsers\src\test\java\org\apache\tika\parser\chm\TestChmItsfHeader.java,0,0,0,0
org.apache.tika.parser.chm.TestChmItspHeader, 0, 0, 0, 0, 0, 0, 0, 0, 0, 0, 0, 0, 0, 0,0.0,0.0,0.0,0.0,0.0,0.0,0.0,0.0,0.0,0.0,0.0,0.0,0.0,99,tika-parsers\src\test\java\org\apache\tika\parser\chm\TestChmItspHeader.java,0,0,0,0
org.apache.tika.parser.chm.TestChmLzxState, 0, 0, 0, 0, 0, 0, 0, 0, 0, 0, 0, 0, 0, 0,0.0,0.0,0.0,0.0,0.0,0.0,0.0,0.0,0.0,0.0,0.0,0.0,0.0,44,tika-parsers\src\test\java\org\apache\tika\parser\chm\TestChmLzxState.java,0,0,0,0
org.apache.tika.parser.chm.TestChmLzxcControlData, 0, 0, 0, 0, 0, 0, 0, 0, 0, 0, 0, 0, 0, 0,0.0,0.0,0.0,0.0,0.0,0.0,0.0,0.0,0.0,0.0,0.0,0.0,0.0,80,tika-parsers\src\test\java\org\apache\tika\parser\chm\TestChmLzxcControlData.java,0,0,0,0
org.apache.tika.parser.chm.TestChmLzxcResetTable, 0, 0, 0, 0, 0, 0, 0, 0, 0, 0, 0, 0, 0, 0,0.0,0.0,0.0,0.0,0.0,0.0,0.0,0.0,0.0,0.0,0.0,0.0,0.0,86,tika-parsers\src\test\java\org\apache\tika\parser\chm\TestChmLzxcResetTable.java,0,0,0,0
org.apache.tika.parser.chm.TestDirectoryListingEntry, 0, 0, 0, 0, 0, 0, 0, 0, 0, 0, 0, 0, 0, 0,0.0,0.0,0.0,0.0,0.0,0.0,0.0,0.0,0.0,0.0,0.0,0.0,0.0,45,tika-parsers\src\test\java\org\apache\tika\parser\chm\TestDirectoryListingEntry.java,0,0,0,0
org.apache.tika.parser.chm.TestParameters, 1, 0, 0, 1, 0, 0, 0, 0, 0, 0, 0, 0, 0, 2,0.0,0.0,0.0,0.0,0.0,0.0,0.0,0.0,0.0,0.0,0.0,0.0,0.0,71,tika-parsers\src\test\java\org\apache\tika\parser\chm\TestParameters.java,0,0,0,0
org.apache.tika.parser.chm.TestPmgiHeader, 0, 0, 0, 0, 0, 0, 0, 0, 0, 0, 0, 0, 0, 0,0.0,0.0,0.0,0.0,0.0,0.0,0.0,0.0,0.0,0.0,0.0,0.0,0.0,17,tika-parsers\src\test\java\org\apache\tika\parser\chm\TestPmgiHeader.java,0,0,0,0
org.apache.tika.parser.chm.TestPmglHeader, 0, 0, 0, 0, 0, 0, 0, 0, 0, 0, 0, 0, 0, 0,0.0,0.0,0.0,0.0,0.0,0.0,0.0,0.0,0.0,0.0,0.0,0.0,0.0,41,tika-parsers\src\test\java\org\apache\tika\parser\chm\TestPmglHeader.java,0,0,0,0
org.apache.tika.parser.chm.accessor.ChmAccessor, 0, 0, 0, 0, 0, 0, 0, 0, 0, 0, 0, 0, 0, 0,0.0,0.0,0.0,0.0,0.0,0.0,0.0,0.0,0.0,0.0,0.0,0.0,0.0,41,tika-parsers\src\main\java\org\apache\tika\parser\chm\accessor\ChmAccessor.java,0,0,0,0
org.apache.tika.parser.chm.assertion.ChmAssert, 0, 0, 0, 0, 0, 0, 0, 0, 0, 0, 0, 0, 0, 0,0.0,0.0,0.0,0.2,0.0,0.0,0.0,0.0,0.0,0.0,0.0,0.0,0.0,59,tika-parsers\src\main\java\org\apache\tika\parser\chm\assertion\ChmAssert.java,0,0,0,0
org.apache.tika.parser.chm.core.ChmCommons, 0, 0, 0, 0, 0, 0, 0, 0, 0, 0, 0, 0, 0, 0,0.0,0.0,0.0,0.23076923076923078,0.0,0.0,0.0,0.0,0.0,0.0,0.0,0.0,0.0,222,tika-parsers\src\main\java\org\apache\tika\parser\chm\core\ChmCommons.java,0,0,0,0
org.apache.tika.parser.chm.core.ChmConstants, 1, 0, 1, 1, 0, 0, 0, 0, 0, 0, 0, 0, 0, 3,0.0,0.0,0.0,0.0,0.0,0.0,0.0,0.0,0.0,0.0,0.0,0.0,0.0,60,tika-parsers\src\main\java\org\apache\tika\parser\chm\core\ChmConstants.java,0,0,0,0
org.apache.tika.parser.chm.core.ChmExtractor, 0, 0, 0, 1, 0, 0, 0, 0, 0, 0, 0, 0, 0, 1,0.0,0.0,0.0,0.14285714285714285,0.0,0.0,0.0,0.0,0.0,0.0,0.0,0.0,0.0,221,tika-parsers\src\main\java\org\apache\tika\parser\chm\core\ChmExtractor.java,0,0,0,0
org.apache.tika.parser.chm.core.ChmWrapper, 0, 0, 0, 1, 0, 0, 0, 0, 0, 0, 0, 0, 0, 1,0.0,0.0,0.0,0.0,0.0,0.0,0.0,0.0,0.0,0.0,0.0,0.0,0.0,93,tika-parsers\src\main\java\org\apache\tika\parser\chm\core\ChmWrapper.java,0,0,0,0
org.apache.tika.parser.chm.exception.ChmParsingException, 0, 0, 0, 0, 0, 0, 0, 0, 0, 0, 0, 0, 0, 0,0.0,0.0,0.0,0.25,0.0,0.0,0.0,0.0,0.0,0.0,0.0,0.0,0.0,6,tika-parsers\src\main\java\org\apache\tika\parser\chm\exception\ChmParsingException.java,0,0,0,0
org.apache.tika.parser.chm.lzx.ChmLzxBlock, 0, 0, 0, 1, 0, 0, 0, 0, 0, 0, 0, 0, 0, 1,0.0,0.0,0.0,0.4,0.0,0.0,0.0,0.0,0.0,0.0,0.0,0.0,0.0,756,tika-parsers\src\main\java\org\apache\tika\parser\chm\lzx\ChmLzxBlock.java,0,0,0,0
org.apache.tika.parser.chm.lzx.ChmSection, 0, 0, 0, 1, 0, 0, 0, 0, 0, 0, 0, 0, 0, 1,0.0,0.0,0.0,0.5,0.0,0.0,0.0,0.0,0.0,0.0,0.0,0.0,0.0,161,tika-parsers\src\main\java\org\apache\tika\parser\chm\lzx\ChmSection.java,0,0,0,0
org.apache.tika.parser.code.SourceCodeParserTest, 0, 0, 0, 0, 0, 0, 0, 0, 0, 0, 0, 0, 0, 0,0.0,0.0,0.0,0.0,0.0,0.0,0.0,0.0,0.0,0.0,0.0,0.0,0.0,51,tika-parsers\src\test\java\org\apache\tika\parser\code\SourceCodeParserTest.java,0,0,0,0
org.apache.tika.parser.crypto.Pkcs7Parser, 0, 0, 0, 0, 0, 0, 0, 0, 0, 0, 0, 0, 0, 0,0.0,0.0,0.0,0.0,0.0,0.0,0.0,0.0,0.0,0.0,0.0,0.0,0.0,41,tika-parsers\src\main\java\org\apache\tika\parser\crypto\Pkcs7Parser.java,0,0,0,0
org.apache.tika.parser.crypto.Pkcs7ParserTest, 0, 0, 0, 0, 0, 0, 0, 0, 0, 0, 0, 0, 0, 0,0.0,0.0,0.0,0.0,0.0,0.0,0.0,0.0,0.0,0.0,0.0,0.0,0.0,17,tika-parsers\src\test\java\org\apache\tika\parser\crypto\Pkcs7ParserTest.java,0,0,0,0
org.apache.tika.parser.dwg.DWGParser, 0, 0, 0, 0, 0, 0, 0, 0, 0, 0, 0, 0, 0, 0,0.0,0.0,0.0,0.4,0.0,0.0,0.0,0.0,0.0,0.0,0.0,0.0,0.0,223,tika-parsers\src\main\java\org\apache\tika\parser\dwg\DWGParser.java,0,0,0,0
org.apache.tika.parser.dwg.DWGParserTest, 0, 0, 0, 0, 0, 0, 0, 0, 0, 0, 0, 0, 0, 0,0.0,0.0,0.0,0.0,0.0,0.0,0.0,0.0,0.0,0.0,0.0,0.0,0.0,150,tika-parsers\src\test\java\org\apache\tika\parser\dwg\DWGParserTest.java,0,0,0,0
org.apache.tika.parser.envi.EnviHeaderParser, 0, 0, 0, 0, 0, 0, 0, 0, 0, 0, 0, 0, 0, 0,0.0,0.0,0.0,0.3333333333333333,0.0,0.0,0.0,0.0,0.0,0.0,0.0,0.0,0.0,33,tika-parsers\src\main\java\org\apache\tika\parser\envi\EnviHeaderParser.java,0,0,0,0
org.apache.tika.parser.envi.EnviHeaderParserTest, 0, 0, 0, 0, 0, 0, 0, 0, 0, 0, 0, 0, 0, 0,0.0,0.0,0.0,0.0,0.0,0.0,0.0,0.0,0.0,0.0,0.0,0.0,0.0,26,tika-parsers\src\test\java\org\apache\tika\parser\envi\EnviHeaderParserTest.java,0,0,0,0
org.apache.tika.parser.epub.EpubContentParser, 0, 0, 0, 0, 0, 0, 0, 0, 0, 0, 0, 0, 0, 0,0.0,0.0,0.0,0.2,0.0,0.0,0.0,0.0,0.0,0.0,0.0,0.0,0.0,27,tika-parsers\src\main\java\org\apache\tika\parser\epub\EpubContentParser.java,0,0,0,0
org.apache.tika.parser.epub.EpubParser, 0, 0, 0, 0, 0, 0, 0, 0, 0, 0, 0, 0, 0, 0,0.0,0.0,0.0,0.2,0.0,0.0,0.0,0.0,0.0,0.0,0.0,0.0,0.0,51,tika-parsers\src\main\java\org\apache\tika\parser\epub\EpubParser.java,0,0,0,0
org.apache.tika.parser.epub.EpubParserTest, 0, 0, 0, 0, 0, 0, 0, 0, 0, 0, 0, 0, 0, 0,0.0,0.0,0.0,0.0,0.0,0.0,0.0,0.0,0.0,0.0,0.0,0.0,0.0,27,tika-parsers\src\test\java\org\apache\tika\parser\epub\EpubParserTest.java,0,0,0,0
org.apache.tika.parser.executable.ExecutableParser, 0, 0, 0, 0, 0, 0, 0, 0, 0, 0, 0, 0, 0, 0,0.0,0.0,0.0,0.5,0.0,0.0,0.0,0.0,0.0,0.0,0.0,0.0,0.0,284,tika-parsers\src\main\java\org\apache\tika\parser\executable\ExecutableParser.java,0,0,0,0
org.apache.tika.parser.executable.ExecutableParserTest, 0, 0, 0, 0, 0, 0, 0, 0, 0, 0, 0, 0, 0, 0,0.0,0.0,0.0,0.0,0.0,0.0,0.0,0.0,0.0,0.0,0.0,0.0,0.0,50,tika-parsers\src\test\java\org\apache\tika\parser\executable\ExecutableParserTest.java,0,0,0,0
org.apache.tika.parser.executable.MachineMetadata, 0, 0, 0, 0, 0, 0, 0, 0, 0, 0, 0, 0, 0, 0,0.0,0.0,0.0,0.0,0.0,0.0,0.0,0.0,0.0,0.0,0.0,0.0,0.0,50,tika-parsers\src\main\java\org\apache\tika\parser\executable\MachineMetadata.java,0,0,0,0
org.apache.tika.parser.external.CompositeExternalParser, 0, 0, 0, 0, 0, 0, 0, 0, 0, 0, 0, 0, 0, 0,0.0,0.0,0.0,0.0,0.0,0.0,0.0,0.0,0.0,0.0,0.0,0.0,0.0,13,tika-core\src\main\java\org\apache\tika\parser\external\CompositeExternalParser.java,0,0,0,0
org.apache.tika.parser.external.ExternalParsersConfigReaderMetKeys, 0, 0, 0, 0, 0, 0, 0, 0, 0, 0, 0, 0, 0, 0,0.0,0.0,0.0,0.0,0.0,0.0,0.0,0.0,0.0,0.0,0.0,0.0,0.0,13,tika-core\src\main\java\org\apache\tika\parser\external\ExternalParsersConfigReaderMetKeys.java,0,0,0,0
org.apache.tika.parser.feed.FeedParserTest, 0, 0, 0, 0, 0, 0, 0, 0, 0, 0, 0, 0, 0, 0,0.0,0.0,0.0,0.0,0.0,0.0,0.0,0.0,0.0,0.0,0.0,0.0,0.0,38,tika-parsers\src\test\java\org\apache\tika\parser\feed\FeedParserTest.java,0,0,0,0
org.apache.tika.parser.font.AdobeFontMetricParser, 0, 0, 0, 0, 0, 0, 0, 0, 0, 0, 0, 0, 0, 0,0.0,0.0,0.0,0.5,0.0,0.0,0.0,0.0,0.0,0.0,0.0,0.0,0.0,76,tika-parsers\src\main\java\org\apache\tika\parser\font\AdobeFontMetricParser.java,0,0,0,0
org.apache.tika.parser.font.FontParsersTest, 0, 0, 0, 0, 0, 0, 0, 0, 0, 0, 0, 0, 0, 0,0.0,0.0,0.0,0.3333333333333333,0.0,0.0,0.0,0.0,0.0,0.0,0.0,0.0,0.0,60,tika-parsers\src\test\java\org\apache\tika\parser\font\FontParsersTest.java,0,0,0,0
org.apache.tika.parser.font.TrueTypeParser, 0, 0, 0, 0, 0, 0, 0, 0, 0, 0, 0, 0, 0, 0,0.0,0.0,0.0,0.6666666666666666,0.0,0.0,0.0,0.0,0.0,0.0,0.0,0.0,0.0,55,tika-parsers\src\main\java\org\apache\tika\parser\font\TrueTypeParser.java,0,0,0,0
org.apache.tika.parser.fork.ForkParserIntegrationTest, 0, 0, 0, 0, 0, 0, 0, 0, 0, 0, 0, 0, 0, 0,0.0,0.0,0.0,0.0,0.0,0.0,0.0,0.0,0.0,0.0,0.0,0.0,0.0,156,tika-parsers\src\test\java\org\apache\tika\parser\fork\ForkParserIntegrationTest.java,0,0,0,0
org.apache.tika.parser.gdal.TestGDALParser, 0, 0, 0, 0, 0, 0, 0, 0, 0, 0, 0, 0, 0, 0,0.0,0.0,0.0,0.0,0.0,0.0,0.0,0.0,0.0,0.0,0.0,0.0,0.0,121,tika-parsers\src\test\java\org\apache\tika\parser\gdal\TestGDALParser.java,0,0,0,0
org.apache.tika.parser.grib.GribParser, 0, 0, 0, 0, 0, 0, 0, 0, 0, 0, 0, 0, 0, 0,0.0,0.0,0.0,0.5,0.0,0.0,0.0,0.0,0.0,0.0,0.0,0.0,0.0,58,tika-parsers\src\main\java\org\apache\tika\parser\grib\GribParser.java,0,0,0,0
org.apache.tika.parser.hdf.HDFParser, 0, 0, 0, 0, 0, 0, 0, 0, 0, 0, 0, 0, 0, 0,0.0,0.0,0.0,0.3333333333333333,0.0,0.0,0.0,0.0,0.0,0.0,0.0,0.0,0.0,44,tika-parsers\src\main\java\org\apache\tika\parser\hdf\HDFParser.java,0,0,0,0
org.apache.tika.parser.hdf.HDFParserTest, 0, 0, 0, 0, 0, 0, 0, 0, 0, 0, 0, 0, 0, 0,0.0,0.0,0.0,0.0,0.0,0.0,0.0,0.0,0.0,0.0,0.0,0.0,0.0,41,tika-parsers\src\test\java\org\apache\tika\parser\hdf\HDFParserTest.java,0,0,0,0
org.apache.tika.parser.html.BoilerpipeContentHandler, 0, 0, 0, 0, 0, 0, 0, 0, 0, 0, 0, 0, 0, 0,0.0,0.0,0.0,0.0,0.0,0.0,0.0,0.0,0.0,0.0,0.0,0.0,0.0,200,tika-parsers\src\main\java\org\apache\tika\parser\html\BoilerpipeContentHandler.java,62,67,5,139
org.apache.tika.parser.html.HtmlMapper, 0, 0, 0, 0, 0, 0, 0, 0, 0, 0, 0, 0, 0, 0,0.0,0.0,0.0,0.0,0.0,0.0,0.0,0.0,0.0,0.0,0.0,0.0,0.0,200,tika-parsers\src\main\java\org\apache\tika\parser\html\HtmlMapper.java,0,0,0,0
org.apache.tika.parser.html.HtmlParser, 0, 0, 0, 0, 0, 0, 0, 0, 0, 0, 0, 0, 0, 0,0.0,0.0,0.0,0.0,0.0,0.0,0.0,0.0,0.0,0.0,0.0,0.0,0.0,78,tika-parsers\src\main\java\org\apache\tika\parser\html\HtmlParser.java,0,0,0,0
org.apache.tika.parser.html.IdentityHtmlMapper, 0, 0, 0, 0, 0, 0, 0, 0, 0, 0, 0, 0, 0, 0,0.0,0.0,0.0,0.0,0.0,0.0,0.0,0.0,0.0,0.0,0.0,0.0,0.0,12,tika-parsers\src\main\java\org\apache\tika\parser\html\IdentityHtmlMapper.java,0,0,0,0
org.apache.tika.parser.html.XHTMLDowngradeHandler, 0, 0, 0, 0, 0, 0, 0, 0, 0, 0, 0, 0, 0, 0,0.0,0.0,0.0,0.0,0.0,0.0,0.0,0.0,0.0,0.0,0.0,0.0,0.0,36,tika-parsers\src\main\java\org\apache\tika\parser\html\XHTMLDowngradeHandler.java,1,1,0,2
org.apache.tika.parser.ibooks.iBooksParserTest, 0, 0, 0, 0, 0, 0, 0, 0, 0, 0, 0, 0, 0, 0,0.0,0.0,0.0,0.0,0.0,0.0,0.0,0.0,0.0,0.0,0.0,0.0,0.0,22,tika-parsers\src\test\java\org\apache\tika\parser\ibooks\iBooksParserTest.java,0,0,0,0
org.apache.tika.parser.image.BPGParser, 0, 0, 0, 0, 0, 0, 0, 0, 0, 0, 0, 0, 0, 0,0.0,0.0,0.0,0.5,0.0,0.0,0.0,0.0,0.0,0.0,0.0,0.0,0.0,91,tika-parsers\src\main\java\org\apache\tika\parser\image\BPGParser.java,4,4,0,8
org.apache.tika.parser.image.BPGParserTest, 0, 0, 0, 0, 0, 0, 0, 0, 0, 0, 0, 0, 0, 0,0.0,0.0,0.0,0.0,0.0,0.0,0.0,0.0,0.0,0.0,0.0,0.0,0.0,77,tika-parsers\src\test\java\org\apache\tika\parser\image\BPGParserTest.java,3,2,0,5
org.apache.tika.parser.image.ImageMetadataExtractorTest, 0, 0, 0, 0, 0, 0, 0, 0, 0, 0, 0, 0, 0, 0,0.0,0.0,0.0,0.0,0.0,0.0,0.0,0.0,0.0,0.0,0.0,0.0,0.0,83,tika-parsers\src\test\java\org\apache\tika\parser\image\ImageMetadataExtractorTest.java,4,3,13,33
org.apache.tika.parser.image.ImageParserTest, 0, 0, 0, 0, 0, 0, 0, 0, 0, 0, 0, 0, 0, 0,0.0,0.0,0.0,0.0,0.0,0.0,0.0,0.0,0.0,0.0,0.0,0.0,0.0,118,tika-parsers\src\test\java\org\apache\tika\parser\image\ImageParserTest.java,0,0,0,0
org.apache.tika.parser.image.MetadataFields, 0, 0, 0, 0, 0, 0, 0, 0, 0, 0, 0, 0, 0, 0,0.0,0.0,0.0,0.0,0.0,0.0,0.0,0.0,0.0,0.0,0.0,0.0,0.0,47,tika-parsers\src\main\java\org\apache\tika\parser\image\MetadataFields.java,5,5,0,10
org.apache.tika.parser.image.MetadataFieldsTest, 0, 0, 0, 0, 0, 0, 0, 0, 0, 0, 0, 0, 0, 0,0.0,0.0,0.0,0.0,0.0,0.0,0.0,0.0,0.0,0.0,0.0,0.0,0.0,9,tika-parsers\src\test\java\org\apache\tika\parser\image\MetadataFieldsTest.java,0,0,0,0
org.apache.tika.parser.image.PSDParserTest, 0, 0, 0, 0, 0, 0, 0, 0, 0, 0, 0, 0, 0, 0,0.0,0.0,0.0,0.0,0.0,0.0,0.0,0.0,0.0,0.0,0.0,0.0,0.0,25,tika-parsers\src\test\java\org\apache\tika\parser\image\PSDParserTest.java,1,1,0,2
org.apache.tika.parser.image.TiffParser, 0, 0, 0, 0, 0, 0, 0, 0, 0, 0, 0, 0, 0, 0,0.0,0.0,0.0,0.5,0.0,0.0,0.0,0.0,0.0,0.0,0.0,0.0,0.0,24,tika-parsers\src\main\java\org\apache\tika\parser\image\TiffParser.java,0,0,0,0
org.apache.tika.parser.image.TiffParserTest, 0, 0, 0, 0, 0, 0, 0, 0, 0, 0, 0, 0, 0, 0,0.0,0.0,0.0,0.0,0.0,0.0,0.0,0.0,0.0,0.0,0.0,0.0,0.0,26,tika-parsers\src\test\java\org\apache\tika\parser\image\TiffParserTest.java,3,3,3,12
org.apache.tika.parser.image.WebPParser, 0, 0, 0, 0, 0, 0, 0, 0, 0, 0, 0, 0, 0, 0,0.0,0.0,0.0,0.5,0.0,0.0,0.0,0.0,0.0,0.0,0.0,0.0,0.0,23,tika-parsers\src\main\java\org\apache\tika\parser\image\WebPParser.java,0,0,0,0
org.apache.tika.parser.image.WebPParserTest, 0, 0, 0, 0, 0, 0, 0, 0, 0, 0, 0, 0, 0, 0,0.0,0.0,0.0,0.0,0.0,0.0,0.0,0.0,0.0,0.0,0.0,0.0,0.0,20,tika-parsers\src\test\java\org\apache\tika\parser\image\WebPParserTest.java,0,0,0,0
org.apache.tika.parser.image.xmp.JempboxExtractorTest, 0, 0, 0, 0, 0, 0, 0, 0, 0, 0, 0, 0, 0, 0,0.0,0.0,0.0,0.0,0.0,0.0,0.0,0.0,0.0,0.0,0.0,0.0,0.0,59,tika-parsers\src\test\java\org\apache\tika\parser\image\xmp\JempboxExtractorTest.java,1,0,0,1
org.apache.tika.parser.image.xmp.XMPPacketScanner, 0, 0, 0, 0, 0, 0, 0, 0, 0, 0, 0, 0, 0, 0,0.0,0.0,0.0,0.0,0.0,0.0,0.0,0.0,0.0,0.0,0.0,0.0,0.0,56,tika-parsers\src\main\java\org\apache\tika\parser\image\xmp\XMPPacketScanner.java,16,16,0,32
org.apache.tika.parser.internal.Activator, 0, 0, 0, 0, 0, 0, 0, 0, 0, 0, 0, 0, 0, 0,0.0,0.0,0.0,0.0,0.0,0.0,0.0,0.0,0.0,0.0,0.0,0.0,0.0,21,tika-parsers\src\main\java\org\apache\tika\parser\internal\Activator.java,0,0,0,0
org.apache.tika.parser.isatab.ISArchiveParser, 0, 0, 0, 0, 0, 0, 0, 0, 0, 0, 0, 0, 0, 0,0.0,0.0,0.0,0.6666666666666666,0.0,0.0,0.0,0.0,0.0,0.0,0.0,0.0,0.0,67,tika-parsers\src\main\java\org\apache\tika\parser\isatab\ISArchiveParser.java,0,0,0,0
org.apache.tika.parser.isatab.ISArchiveParserTest, 0, 0, 0, 0, 0, 0, 0, 0, 0, 0, 0, 0, 0, 0,0.0,0.0,0.0,0.0,0.0,0.0,0.0,0.0,0.0,0.0,0.0,0.0,0.0,24,tika-parsers\src\test\java\org\apache\tika\parser\isatab\ISArchiveParserTest.java,0,0,1,2
org.apache.tika.parser.iwork.AutoPageNumberUtilsTest, 0, 0, 0, 0, 0, 0, 0, 0, 0, 0, 0, 0, 0, 0,0.0,0.0,0.0,0.0,0.0,0.0,0.0,0.0,0.0,0.0,0.0,0.0,0.0,32,tika-parsers\src\test\java\org\apache\tika\parser\iwork\AutoPageNumberUtilsTest.java,0,0,0,0
org.apache.tika.parser.iwork.IWorkPackageParser, 0, 0, 0, 0, 0, 0, 0, 0, 0, 0, 0, 0, 0, 0,0.0,0.0,0.0,0.3333333333333333,0.0,0.0,0.0,0.0,0.0,0.0,0.0,0.0,0.0,127,tika-parsers\src\main\java\org\apache\tika\parser\iwork\IWorkPackageParser.java,0,0,0,0
org.apache.tika.parser.iwork.KeynoteContentHandler, 0, 0, 0, 1, 0, 0, 0, 0, 0, 0, 0, 0, 0, 1,0.0,0.0,0.0,0.5,0.0,0.0,0.0,0.0,0.0,0.0,0.0,0.0,0.0,134,tika-parsers\src\main\java\org\apache\tika\parser\iwork\KeynoteContentHandler.java,0,0,0,0
org.apache.tika.parser.jdbc.AbstractDBParser, 0, 0, 0, 0, 0, 0, 0, 0, 0, 0, 0, 0, 0, 0,0.0,0.0,0.0,0.25,0.0,0.0,0.0,0.0,0.0,0.0,0.0,0.0,0.0,80,tika-parsers\src\main\java\org\apache\tika\parser\jdbc\AbstractDBParser.java,4,4,0,8
org.apache.tika.parser.jdbc.JDBCTableReader, 0, 0, 0, 1, 0, 0, 0, 0, 0, 0, 0, 0, 0, 1,0.0,0.0,0.0,0.3333333333333333,0.0,0.0,0.0,0.0,0.0,0.0,0.0,0.0,0.0,202,tika-parsers\src\main\java\org\apache\tika\parser\jdbc\JDBCTableReader.java,0,0,0,0
org.apache.tika.parser.jdbc.SQLite3DBParser, 0, 0, 0, 0, 0, 0, 0, 0, 0, 0, 0, 0, 0, 0,0.0,0.0,0.0,0.25,0.0,0.0,0.0,0.0,0.0,0.0,0.0,0.0,0.0,56,tika-parsers\src\main\java\org\apache\tika\parser\jdbc\SQLite3DBParser.java,0,0,0,0
org.apache.tika.parser.jdbc.SQLite3Parser, 0, 0, 0, 0, 0, 0, 0, 0, 0, 0, 0, 0, 0, 0,0.0,0.0,0.0,0.0,0.0,0.0,0.0,0.0,0.0,0.0,0.0,0.0,0.0,24,tika-parsers\src\main\java\org\apache\tika\parser\jdbc\SQLite3Parser.java,0,0,0,0
org.apache.tika.parser.jdbc.SQLite3ParserTest, 0, 0, 0, 0, 0, 0, 0, 0, 0, 0, 0, 0, 0, 0,0.0,0.0,0.0,0.3333333333333333,0.0,0.0,0.0,0.0,0.0,0.0,0.0,0.0,0.0,159,tika-parsers\src\test\java\org\apache\tika\parser\jdbc\SQLite3ParserTest.java,0,1,1,3
org.apache.tika.parser.jdbc.SQLite3TableReader, 0, 0, 0, 0, 0, 0, 0, 0, 0, 0, 0, 0, 0, 0,0.0,0.0,0.0,0.5,0.0,0.0,0.0,0.0,0.0,0.0,0.0,0.0,0.0,28,tika-parsers\src\main\java\org\apache\tika\parser\jdbc\SQLite3TableReader.java,0,0,0,0
org.apache.tika.parser.jpeg.JpegParser, 0, 0, 0, 0, 0, 0, 0, 0, 0, 0, 0, 0, 0, 0,0.0,0.0,0.0,0.5,0.0,0.0,0.0,0.0,0.0,0.0,0.0,0.0,0.0,24,tika-parsers\src\main\java\org\apache\tika\parser\jpeg\JpegParser.java,0,0,0,0
org.apache.tika.parser.jpeg.JpegParserTest, 0, 0, 0, 0, 0, 0, 0, 0, 0, 0, 0, 0, 0, 0,0.0,0.0,0.0,0.0,0.0,0.0,0.0,0.0,0.0,0.0,0.0,0.0,0.0,164,tika-parsers\src\test\java\org\apache\tika\parser\jpeg\JpegParserTest.java,0,0,0,0
org.apache.tika.parser.mail.MailContentHandler, 0, 0, 0, 1, 0, 0, 0, 0, 0, 0, 0, 0, 0, 1,0.0,0.0,0.0,0.25,0.0,0.0,0.0,0.0,0.0,0.0,0.0,0.0,0.0,173,tika-parsers\src\main\java\org\apache\tika\parser\mail\MailContentHandler.java,0,0,0,0
org.apache.tika.parser.mail.RFC822Parser, 0, 0, 0, 0, 0, 0, 0, 0, 0, 0, 0, 0, 0, 0,0.0,0.0,0.0,0.4,0.0,0.0,0.0,0.0,0.0,0.0,0.0,0.0,0.0,38,tika-parsers\src\main\java\org\apache\tika\parser\mail\RFC822Parser.java,0,0,0,0
org.apache.tika.parser.mat.MatParserTest, 0, 0, 0, 0, 0, 0, 0, 0, 0, 0, 0, 0, 0, 0,0.0,0.0,0.0,0.0,0.0,0.0,0.0,0.0,0.0,0.0,0.0,0.0,0.0,43,tika-parsers\src\test\java\org\apache\tika\parser\mat\MatParserTest.java,0,0,0,0
org.apache.tika.parser.microsoft.AbstractPOIContainerExtractionTest, 0, 0, 0, 0, 0, 0, 0, 0, 0, 0, 0, 0, 0, 0,0.0,0.0,0.0,0.2,0.0,0.0,0.0,0.0,0.0,0.0,0.0,0.0,0.0,37,tika-parsers\src\test\java\org\apache\tika\parser\microsoft\AbstractPOIContainerExtractionTest.java,6,6,0,12
org.apache.tika.parser.microsoft.AbstractPOIFSExtractor, 0, 0, 0, 0, 0, 0, 0, 0, 0, 0, 0, 0, 0, 0,0.0,0.0,0.0,0.375,0.0,0.0,0.0,0.0,0.0,0.0,0.0,0.0,0.0,144,tika-parsers\src\main\java\org\apache\tika\parser\microsoft\AbstractPOIFSExtractor.java,1,1,0,2
org.apache.tika.parser.microsoft.Cell, 0, 0, 0, 0, 0, 0, 0, 0, 0, 0, 0, 0, 0, 0,0.0,0.0,0.0,0.0,0.0,0.0,0.0,0.0,0.0,0.0,0.0,0.0,0.0,144,tika-parsers\src\main\java\org\apache\tika\parser\microsoft\Cell.java,0,0,0,0
org.apache.tika.parser.microsoft.CellDecorator, 0, 0, 0, 0, 0, 0, 0, 0, 0, 0, 0, 0, 0, 0,0.0,0.0,0.0,0.5,0.0,0.0,0.0,0.0,0.0,0.0,0.0,0.0,0.0,9,tika-parsers\src\main\java\org\apache\tika\parser\microsoft\CellDecorator.java,0,0,0,0
org.apache.tika.parser.microsoft.HSLFExtractor, 0, 0, 0, 0, 0, 0, 0, 0, 0, 0, 0, 0, 0, 0,0.0,0.0,0.0,0.5,0.0,0.0,0.0,0.0,0.0,0.0,0.0,0.0,0.0,207,tika-parsers\src\main\java\org\apache\tika\parser\microsoft\HSLFExtractor.java,0,0,0,0
org.apache.tika.parser.microsoft.LinkedCell, 0, 0, 0, 0, 0, 0, 0, 0, 0, 0, 0, 0, 0, 0,0.0,0.0,0.0,0.5,0.0,0.0,0.0,0.0,0.0,0.0,0.0,0.0,0.0,13,tika-parsers\src\main\java\org\apache\tika\parser\microsoft\LinkedCell.java,0,0,0,0
org.apache.tika.parser.microsoft.NumberCell, 0, 0, 0, 0, 0, 0, 0, 0, 0, 0, 0, 0, 0, 0,0.0,0.0,0.0,1.0,0.0,0.0,0.0,0.0,0.0,0.0,0.0,0.0,0.0,14,tika-parsers\src\main\java\org\apache\tika\parser\microsoft\NumberCell.java,0,0,0,0
org.apache.tika.parser.microsoft.OfficeParser, 0, 0, 0, 0, 0, 0, 0, 0, 0, 0, 0, 0, 0, 0,0.0,0.0,0.0,0.13333333333333333,0.0,0.0,0.0,0.0,0.0,0.0,0.0,0.0,0.0,174,tika-parsers\src\main\java\org\apache\tika\parser\microsoft\OfficeParser.java,49,49,0,98
org.apache.tika.parser.microsoft.OldExcelParser, 0, 0, 0, 0, 0, 0, 0, 0, 0, 0, 0, 0, 0, 0,0.0,0.0,0.0,0.5,0.0,0.0,0.0,0.0,0.0,0.0,0.0,0.0,0.0,35,tika-parsers\src\main\java\org\apache\tika\parser\microsoft\OldExcelParser.java,13,13,0,26
org.apache.tika.parser.microsoft.OldExcelParserTest, 0, 0, 0, 0, 0, 0, 0, 0, 0, 0, 0, 0, 0, 0,0.0,0.0,0.0,0.3333333333333333,0.0,0.0,0.0,0.0,0.0,0.0,0.0,0.0,0.0,54,tika-parsers\src\test\java\org\apache\tika\parser\microsoft\OldExcelParserTest.java,0,0,0,0
org.apache.tika.parser.microsoft.OutlookExtractor, 0, 0, 0, 0, 0, 0, 0, 0, 0, 0, 0, 0, 0, 0,0.0,0.0,0.0,0.3333333333333333,0.0,0.0,0.0,0.0,0.0,0.0,0.0,0.0,0.0,172,tika-parsers\src\main\java\org\apache\tika\parser\microsoft\OutlookExtractor.java,0,2,2,6
org.apache.tika.parser.microsoft.POIContainerExtractionTest, 0, 0, 0, 0, 0, 0, 0, 0, 0, 0, 0, 0, 0, 0,0.0,0.0,0.0,0.0,0.0,0.0,0.0,0.0,0.0,0.0,0.0,0.0,0.0,215,tika-parsers\src\test\java\org\apache\tika\parser\microsoft\POIContainerExtractionTest.java,0,0,0,0
org.apache.tika.parser.microsoft.POIFSContainerDetector, 0, 0, 0, 1, 0, 0, 0, 0, 0, 0, 0, 0, 0, 1,0.0,0.0,0.0,1.0,0.0,0.0,0.0,0.0,0.0,0.0,0.0,0.0,0.0,212,tika-parsers\src\main\java\org\apache\tika\parser\microsoft\POIFSContainerDetector.java,49,49,0,98
org.apache.tika.parser.microsoft.PowerPointParserTest, 0, 0, 0, 0, 0, 0, 0, 0, 0, 0, 0, 0, 0, 0,0.0,0.0,0.0,0.0,0.0,0.0,0.0,0.0,0.0,0.0,0.0,0.0,0.0,169,tika-parsers\src\test\java\org\apache\tika\parser\microsoft\PowerPointParserTest.java,1,0,0,1
org.apache.tika.parser.microsoft.ProjectParserTest, 0, 0, 0, 0, 0, 0, 0, 0, 0, 0, 0, 0, 0, 0,0.0,0.0,0.0,0.0,0.0,0.0,0.0,0.0,0.0,0.0,0.0,0.0,0.0,51,tika-parsers\src\test\java\org\apache\tika\parser\microsoft\ProjectParserTest.java,0,0,0,0
org.apache.tika.parser.microsoft.PublisherParserTest, 0, 0, 0, 0, 0, 0, 0, 0, 0, 0, 0, 0, 0, 0,0.0,0.0,0.0,0.0,0.0,0.0,0.0,0.0,0.0,0.0,0.0,0.0,0.0,23,tika-parsers\src\test\java\org\apache\tika\parser\microsoft\PublisherParserTest.java,0,0,0,0
org.apache.tika.parser.microsoft.SummaryExtractor, 0, 0, 0, 0, 0, 0, 0, 0, 0, 0, 0, 0, 0, 0,0.0,0.0,0.0,0.0,0.0,0.0,0.0,0.0,0.0,0.0,0.0,0.0,0.0,149,tika-parsers\src\main\java\org\apache\tika\parser\microsoft\SummaryExtractor.java,0,0,0,0
org.apache.tika.parser.microsoft.TNEFParser, 0, 0, 0, 0, 0, 0, 0, 0, 0, 0, 0, 0, 0, 0,0.0,0.0,0.0,0.25,0.0,0.0,0.0,0.0,0.0,0.0,0.0,0.0,0.0,69,tika-parsers\src\main\java\org\apache\tika\parser\microsoft\TNEFParser.java,0,0,0,0
org.apache.tika.parser.microsoft.TNEFParserTest, 0, 0, 0, 0, 0, 0, 0, 0, 0, 0, 0, 0, 0, 0,0.0,0.0,0.0,0.25,0.0,0.0,0.0,0.0,0.0,0.0,0.0,0.0,0.0,44,tika-parsers\src\test\java\org\apache\tika\parser\microsoft\TNEFParserTest.java,0,0,0,0
org.apache.tika.parser.microsoft.TextCell, 0, 0, 0, 0, 0, 0, 0, 0, 0, 0, 0, 0, 0, 0,0.0,0.0,0.0,1.0,0.0,0.0,0.0,0.0,0.0,0.0,0.0,0.0,0.0,12,tika-parsers\src\main\java\org\apache\tika\parser\microsoft\TextCell.java,0,0,0,0
org.apache.tika.parser.microsoft.VisioParserTest, 0, 0, 0, 0, 0, 0, 0, 0, 0, 0, 0, 0, 0, 0,0.0,0.0,0.0,0.0,0.0,0.0,0.0,0.0,0.0,0.0,0.0,0.0,0.0,21,tika-parsers\src\test\java\org\apache\tika\parser\microsoft\VisioParserTest.java,0,0,0,0
org.apache.tika.parser.microsoft.WriteProtectedParserTest, 0, 0, 0, 0, 0, 0, 0, 0, 0, 0, 0, 0, 0, 0,0.0,0.0,0.0,0.0,0.0,0.0,0.0,0.0,0.0,0.0,0.0,0.0,0.0,12,tika-parsers\src\test\java\org\apache\tika\parser\microsoft\WriteProtectedParserTest.java,0,0,0,0
org.apache.tika.parser.microsoft.ooxml.AbstractOOXMLExtractor, 0, 0, 0, 0, 0, 0, 0, 0, 0, 0, 0, 0, 0, 0,0.0,0.0,0.0,0.2,0.0,0.0,0.0,0.0,0.0,0.0,0.0,0.0,0.0,179,tika-parsers\src\main\java\org\apache\tika\parser\microsoft\ooxml\AbstractOOXMLExtractor.java,1,0,1,3
org.apache.tika.parser.microsoft.ooxml.MetadataExtractor, 0, 0, 0, 0, 0, 0, 0, 0, 0, 0, 0, 0, 0, 0,0.0,0.0,0.0,0.0,0.0,0.0,0.0,0.0,0.0,0.0,0.0,0.0,0.0,221,tika-parsers\src\main\java\org\apache\tika\parser\microsoft\ooxml\MetadataExtractor.java,21,1,20,62
org.apache.tika.parser.microsoft.ooxml.OOXMLContainerExtractionTest, 0, 0, 0, 0, 0, 0, 0, 0, 0, 0, 0, 0, 0, 0,0.0,0.0,0.0,0.0,0.0,0.0,0.0,0.0,0.0,0.0,0.0,0.0,0.0,185,tika-parsers\src\test\java\org\apache\tika\parser\microsoft\ooxml\OOXMLContainerExtractionTest.java,0,0,0,0
org.apache.tika.parser.microsoft.ooxml.OOXMLExtractor, 0, 0, 0, 0, 0, 0, 0, 0, 0, 0, 0, 0, 0, 0,0.0,0.0,0.0,0.0,0.0,0.0,0.0,0.0,0.0,0.0,0.0,0.0,0.0,185,tika-parsers\src\main\java\org\apache\tika\parser\microsoft\ooxml\OOXMLExtractor.java,0,0,0,0
org.apache.tika.parser.microsoft.ooxml.OOXMLExtractorFactory, 0, 0, 0, 0, 0, 0, 0, 0, 0, 0, 0, 0, 0, 0,0.0,0.0,0.0,0.1,0.0,0.0,0.0,0.0,0.0,0.0,0.0,0.0,0.0,64,tika-parsers\src\main\java\org\apache\tika\parser\microsoft\ooxml\OOXMLExtractorFactory.java,0,1,1,3
org.apache.tika.parser.microsoft.ooxml.OOXMLParser, 0, 0, 0, 0, 0, 0, 0, 0, 0, 0, 0, 0, 0, 0,0.0,0.0,0.0,0.0,0.0,0.0,0.0,0.0,0.0,0.0,0.0,0.0,0.0,35,tika-parsers\src\main\java\org\apache\tika\parser\microsoft\ooxml\OOXMLParser.java,1,1,0,2
org.apache.tika.parser.microsoft.ooxml.POIXMLTextExtractorDecorator, 0, 0, 0, 0, 0, 0, 0, 0, 0, 0, 0, 0, 0, 0,0.0,0.0,0.0,0.3333333333333333,0.0,0.0,0.0,0.0,0.0,0.0,0.0,0.0,0.0,13,tika-parsers\src\main\java\org\apache\tika\parser\microsoft\ooxml\POIXMLTextExtractorDecorator.java,0,0,0,0
org.apache.tika.parser.microsoft.ooxml.XSLFPowerPointExtractorDecorator, 0, 0, 0, 0, 0, 0, 0, 0, 0, 0, 0, 0, 0, 0,0.0,0.0,0.0,0.25,0.0,0.0,0.0,0.0,0.0,0.0,0.0,0.0,0.0,132,tika-parsers\src\main\java\org\apache\tika\parser\microsoft\ooxml\XSLFPowerPointExtractorDecorator.java,0,0,0,0
org.apache.tika.parser.microsoft.ooxml.XSSFExcelExtractorDecorator, 0, 0, 0, 0, 0, 0, 0, 0, 0, 0, 0, 0, 0, 0,0.0,0.0,0.0,0.25,0.0,0.0,0.0,0.0,0.0,0.0,0.0,0.0,0.0,247,tika-parsers\src\main\java\org\apache\tika\parser\microsoft\ooxml\XSSFExcelExtractorDecorator.java,114,120,0,234
org.apache.tika.parser.microsoft.ooxml.XWPFWordExtractorDecorator, 0, 0, 0, 0, 0, 0, 0, 0, 0, 0, 0, 0, 0, 0,0.0,0.0,0.0,0.3333333333333333,0.0,0.0,0.0,0.0,0.0,0.0,0.0,0.0,0.0,290,tika-parsers\src\main\java\org\apache\tika\parser\microsoft\ooxml\XWPFWordExtractorDecorator.java,0,17,24,65
org.apache.tika.parser.mock.MockParser, 0, 0, 0, 0, 0, 0, 0, 0, 0, 0, 0, 0, 0, 0,0.0,0.0,0.0,0.5,0.0,0.0,0.0,0.0,0.0,0.0,0.0,0.0,0.0,220,tika-batch\src\test\java\org\apache\tika\parser\mock\MockParserFactory.java,0,0,0,0
org.apache.tika.parser.mock.MockParserFactory, 0, 0, 0, 0, 0, 0, 0, 0, 0, 0, 0, 0, 0, 0,0.0,0.0,0.0,0.0,0.0,0.0,0.0,0.0,0.0,0.0,0.0,0.0,0.0,6,tika-batch\src\test\java\org\apache\tika\parser\mock\MockParserFactory.java,0,0,0,0
org.apache.tika.parser.mock.MockParserTest, 0, 0, 0, 0, 0, 0, 0, 0, 0, 0, 0, 0, 0, 0,0.0,0.0,0.0,0.0,0.0,0.0,0.0,0.0,0.0,0.0,0.0,0.0,0.0,171,tika-parsers\src\test\java\org\apache\tika\parser\mock\MockParserTest.java,0,0,0,0
org.apache.tika.parser.mp3.CompositeTagHandler, 0, 0, 0, 0, 0, 0, 0, 0, 0, 0, 0, 0, 0, 0,0.0,0.0,0.0,0.0,0.0,0.0,0.0,0.0,0.0,0.0,0.0,0.0,0.0,103,tika-parsers\src\main\java\org\apache\tika\parser\mp3\CompositeTagHandler.java,0,0,0,0
org.apache.tika.parser.mp3.ID3Tags, 0, 0, 0, 0, 0, 0, 0, 0, 0, 0, 0, 0, 0, 0,0.0,0.0,0.0,0.0,0.0,0.0,0.0,0.0,0.0,0.0,0.0,0.0,0.0,103,tika-parsers\src\main\java\org\apache\tika\parser\mp3\ID3Tags.java,0,0,0,0
org.apache.tika.parser.mp3.ID3v1Handler, 0, 0, 0, 1, 0, 0, 0, 0, 0, 0, 0, 0, 0, 1,0.0,0.0,0.0,0.0,0.0,0.0,0.0,0.0,0.0,0.0,0.0,0.0,0.0,88,tika-parsers\src\main\java\org\apache\tika\parser\mp3\ID3v1Handler.java,0,0,0,0
org.apache.tika.parser.mp3.ID3v22Handler, 0, 0, 0, 1, 0, 0, 0, 0, 0, 0, 0, 0, 0, 1,0.0,0.0,0.0,1.0,0.0,0.0,0.0,0.0,0.0,0.0,0.0,0.0,0.0,106,tika-parsers\src\main\java\org\apache\tika\parser\mp3\ID3v22Handler.java,0,0,0,0
org.apache.tika.parser.mp3.ID3v23Handler, 0, 0, 0, 1, 0, 0, 0, 0, 0, 0, 0, 0, 0, 1,0.0,0.0,0.0,1.0,0.0,0.0,0.0,0.0,0.0,0.0,0.0,0.0,0.0,90,tika-parsers\src\main\java\org\apache\tika\parser\mp3\ID3v23Handler.java,0,0,0,0
org.apache.tika.parser.mp3.ID3v24Handler, 0, 0, 0, 1, 0, 0, 0, 0, 0, 0, 0, 0, 0, 1,0.0,0.0,0.0,1.0,0.0,0.0,0.0,0.0,0.0,0.0,0.0,0.0,0.0,94,tika-parsers\src\main\java\org\apache\tika\parser\mp3\ID3v24Handler.java,0,0,0,0
org.apache.tika.parser.mp3.LyricsHandler, 0, 0, 0, 0, 0, 0, 0, 0, 0, 0, 0, 0, 0, 0,0.0,0.0,0.0,1.0,0.0,0.0,0.0,0.0,0.0,0.0,0.0,0.0,0.0,81,tika-parsers\src\main\java\org\apache\tika\parser\mp3\LyricsHandler.java,0,0,0,0
org.apache.tika.parser.mp3.MP3Frame, 0, 0, 0, 0, 0, 0, 0, 0, 0, 0, 0, 0, 0, 0,0.0,0.0,0.0,0.0,0.0,0.0,0.0,0.0,0.0,0.0,0.0,0.0,0.0,81,tika-parsers\src\main\java\org\apache\tika\parser\mp3\MP3Frame.java,0,0,0,0
org.apache.tika.parser.mp3.Mp3ParserTest, 0, 0, 0, 0, 0, 0, 0, 0, 0, 0, 0, 0, 0, 0,0.0,0.0,0.0,0.0,0.0,0.0,0.0,0.0,0.0,0.0,0.0,0.0,0.0,296,tika-parsers\src\test\java\org\apache\tika\parser\mp3\Mp3ParserTest.java,0,0,0,0
org.apache.tika.parser.mp3.MpegStream, 0, 0, 0, 1, 0, 0, 0, 0, 0, 0, 0, 0, 0, 1,0.0,0.0,0.0,0.0,0.0,0.0,0.0,0.0,0.0,0.0,0.0,0.0,0.0,241,tika-parsers\src\main\java\org\apache\tika\parser\mp3\MpegStream.java,0,0,0,0
org.apache.tika.parser.mp3.MpegStreamTest, 0, 0, 0, 0, 0, 0, 0, 0, 0, 0, 0, 0, 0, 0,0.0,0.0,0.0,1.0,0.0,0.0,0.0,0.0,0.0,0.0,0.0,0.0,0.0,86,tika-parsers\src\test\java\org\apache\tika\parser\mp3\MpegStreamTest.java,0,0,0,0
org.apache.tika.parser.mp4.DirectFileReadDataSource, 0, 0, 0, 0, 0, 0, 0, 0, 0, 0, 0, 0, 0, 0,0.0,0.0,0.0,0.0,0.0,0.0,0.0,0.0,0.0,0.0,0.0,0.0,0.0,51,tika-parsers\src\main\java\org\apache\tika\parser\mp4\DirectFileReadDataSource.java,0,0,0,0
org.apache.tika.parser.mp4.MP4ParserTest, 0, 0, 0, 0, 0, 0, 0, 0, 0, 0, 0, 0, 0, 0,0.0,0.0,0.0,0.3333333333333333,0.0,0.0,0.0,0.0,0.0,0.0,0.0,0.0,0.0,53,tika-parsers\src\test\java\org\apache\tika\parser\mp4\MP4ParserTest.java,0,0,0,0
org.apache.tika.parser.netcdf.NetCDFParser, 0, 0, 0, 0, 0, 0, 0, 0, 0, 0, 0, 0, 0, 0,0.0,0.0,0.0,0.5,0.0,0.0,0.0,0.0,0.0,0.0,0.0,0.0,0.0,62,tika-parsers\src\main\java\org\apache\tika\parser\netcdf\NetCDFParser.java,0,0,0,0
org.apache.tika.parser.netcdf.NetCDFParserTest, 0, 0, 0, 0, 0, 0, 0, 0, 0, 0, 0, 0, 0, 0,0.0,0.0,0.0,0.0,0.0,0.0,0.0,0.0,0.0,0.0,0.0,0.0,0.0,32,tika-parsers\src\test\java\org\apache\tika\parser\netcdf\NetCDFParserTest.java,0,0,0,0
org.apache.tika.parser.ocr.TesseractOCRConfigTest, 0, 0, 0, 0, 0, 0, 0, 0, 0, 0, 0, 0, 0, 0,0.0,0.0,0.0,0.0,0.0,0.0,0.0,0.0,0.0,0.0,0.0,0.0,0.0,52,tika-parsers\src\test\java\org\apache\tika\parser\ocr\TesseractOCRConfigTest.java,0,0,0,0
org.apache.tika.parser.odf.NSNormalizerContentHandler, 0, 0, 0, 0, 0, 0, 0, 0, 0, 0, 0, 0, 0, 0,0.0,0.0,0.0,0.0,0.0,0.0,0.0,0.0,0.0,0.0,0.0,0.0,0.0,50,tika-parsers\src\main\java\org\apache\tika\parser\odf\NSNormalizerContentHandler.java,0,0,0,0
org.apache.tika.parser.odf.OpenDocumentMetaParser, 0, 0, 0, 0, 0, 0, 0, 0, 0, 0, 0, 0, 0, 0,0.0,0.0,0.0,0.0,0.0,0.0,0.0,0.0,0.0,0.0,0.0,0.0,0.0,113,tika-parsers\src\main\java\org\apache\tika\parser\odf\OpenDocumentMetaParser.java,0,0,0,0
org.apache.tika.parser.odf.OpenDocumentParser, 0, 0, 0, 0, 0, 0, 0, 0, 0, 0, 0, 0, 0, 0,0.0,0.0,0.0,0.4,0.0,0.2,0.0,0.0,0.0,0.0,0.0,0.0,0.0,124,tika-parsers\src\main\java\org\apache\tika\parser\odf\OpenDocumentParser.java,0,0,0,0
org.apache.tika.parser.opendocument.OpenOfficeParser, 0, 0, 0, 0, 0, 1, 0, 0, 0, 0, 0, 0, 0, 1,0.0,0.0,0.0,0.0,0.0,0.0,0.0,0.0,0.0,0.0,0.0,0.0,0.0,2,tika-parsers\src\main\java\org\apache\tika\parser\opendocument\OpenOfficeParser.java,0,0,0,0
org.apache.tika.parser.pdf.AccessChecker, 0, 0, 0, 0, 0, 0, 0, 0, 0, 0, 0, 0, 0, 0,0.0,0.0,0.0,0.0,0.0,0.0,0.0,0.0,0.0,0.0,0.0,0.0,0.0,27,tika-parsers\src\main\java\org\apache\tika\parser\pdf\AccessChecker.java,0,0,0,0
org.apache.tika.parser.pdf.AccessCheckerTest, 0, 0, 0, 0, 0, 0, 0, 0, 0, 0, 0, 0, 0, 0,0.0,0.0,0.0,0.0,0.0,0.0,0.0,0.0,0.0,0.0,0.0,0.0,0.0,88,tika-parsers\src\test\java\org\apache\tika\parser\pdf\AccessCheckerTest.java,0,0,0,0
org.apache.tika.parser.pkg.AbstractPkgTest, 0, 0, 0, 0, 0, 0, 0, 0, 0, 0, 0, 0, 0, 0,0.0,0.0,0.0,0.0,0.0,0.0,0.0,0.0,0.0,0.0,0.0,0.0,0.0,42,tika-parsers\src\test\java\org\apache\tika\parser\pkg\AbstractPkgTest.java,0,0,0,0
org.apache.tika.parser.pkg.ArParserTest, 0, 0, 0, 0, 0, 0, 0, 0, 0, 0, 0, 0, 0, 0,0.0,0.0,0.0,0.0,0.0,0.0,0.0,0.0,0.0,0.0,0.0,0.0,0.0,77,tika-parsers\src\test\java\org\apache\tika\parser\pkg\ArParserTest.java,0,0,0,0
org.apache.tika.parser.pkg.Bzip2ParserTest, 0, 0, 0, 0, 0, 0, 0, 0, 0, 0, 0, 0, 0, 0,0.0,0.0,0.0,0.0,0.0,0.0,0.0,0.0,0.0,0.0,0.0,0.0,0.0,56,tika-parsers\src\test\java\org\apache\tika\parser\pkg\Bzip2ParserTest.java,0,0,0,0
org.apache.tika.parser.pkg.CompressorParser, 0, 0, 0, 0, 0, 0, 0, 0, 0, 0, 0, 0, 0, 0,0.0,0.0,0.0,0.2,0.0,0.0,0.0,0.0,0.0,0.0,0.0,0.0,0.0,85,tika-parsers\src\main\java\org\apache\tika\parser\pkg\CompressorParser.java,0,6,0,6
org.apache.tika.parser.pkg.CompressorParserOptions, 0, 0, 0, 0, 0, 0, 0, 0, 0, 0, 0, 0, 0, 0,0.0,0.0,0.0,0.0,0.0,0.0,0.0,0.0,0.0,0.0,0.0,0.0,0.0,85,tika-parsers\src\main\java\org\apache\tika\parser\pkg\CompressorParserOptions.java,0,0,0,0
org.apache.tika.parser.pkg.GzipParserTest, 0, 0, 0, 0, 0, 0, 0, 0, 0, 0, 0, 0, 0, 0,0.0,0.0,0.0,0.0,0.0,0.0,0.0,0.0,0.0,0.0,0.0,0.0,0.0,71,tika-parsers\src\test\java\org\apache\tika\parser\pkg\GzipParserTest.java,0,0,0,0
org.apache.tika.parser.pkg.RarParser, 0, 0, 0, 0, 0, 0, 0, 0, 0, 0, 0, 0, 0, 0,0.0,0.0,0.0,0.2857142857142857,0.0,0.0,0.0,0.0,0.0,0.0,0.0,0.0,0.0,58,tika-parsers\src\main\java\org\apache\tika\parser\pkg\RarParser.java,0,0,0,0
org.apache.tika.parser.pkg.RarParserTest, 0, 0, 0, 0, 0, 0, 0, 0, 0, 0, 0, 0, 0, 0,0.0,0.0,0.0,0.0,0.0,0.0,0.0,0.0,0.0,0.0,0.0,0.0,0.0,79,tika-parsers\src\test\java\org\apache\tika\parser\pkg\RarParserTest.java,0,0,0,0
org.apache.tika.parser.pkg.Seven7ParserTest, 0, 0, 0, 0, 0, 0, 0, 0, 0, 0, 0, 0, 0, 0,0.0,0.0,0.0,0.0,0.0,0.0,0.0,0.0,0.0,0.0,0.0,0.0,0.0,154,tika-parsers\src\test\java\org\apache\tika\parser\pkg\Seven7ParserTest.java,0,0,0,0
org.apache.tika.parser.pkg.TarParserTest, 0, 0, 0, 0, 0, 0, 0, 0, 0, 0, 0, 0, 0, 0,0.0,0.0,0.0,0.0,0.0,0.0,0.0,0.0,0.0,0.0,0.0,0.0,0.0,70,tika-parsers\src\test\java\org\apache\tika\parser\pkg\TarParserTest.java,0,0,0,0
org.apache.tika.parser.pkg.ZipParserTest, 0, 0, 0, 0, 0, 0, 0, 0, 0, 0, 0, 0, 0, 0,0.0,0.0,0.0,0.0,0.0,0.0,0.0,0.0,0.0,0.0,0.0,0.0,0.0,134,tika-parsers\src\test\java\org\apache\tika\parser\pkg\ZipParserTest.java,0,0,0,0
org.apache.tika.parser.prt.PRTParserTest, 0, 0, 0, 0, 0, 0, 0, 0, 0, 0, 0, 0, 0, 0,0.0,0.0,0.0,0.0,0.0,0.0,0.0,0.0,0.0,0.0,0.0,0.0,0.0,69,tika-parsers\src\test\java\org\apache\tika\parser\prt\PRTParserTest.java,0,0,0,0
org.apache.tika.parser.rtf.GroupState, 0, 0, 1, 0, 0, 0, 0, 0, 0, 0, 0, 0, 0, 1,0.0,0.0,0.0,0.0,0.0,0.0,0.0,0.0,0.0,0.0,0.0,0.0,0.0,29,tika-parsers\src\main\java\org\apache\tika\parser\rtf\GroupState.java,0,0,0,0
org.apache.tika.parser.rtf.ListDescriptor, 0, 0, 1, 0, 0, 0, 0, 0, 0, 0, 0, 0, 0, 1,0.0,0.0,0.0,0.0,0.0,0.0,0.0,0.0,0.0,0.0,0.0,0.0,0.0,11,tika-parsers\src\main\java\org\apache\tika\parser\rtf\ListDescriptor.java,1,0,1,3
org.apache.tika.parser.rtf.RTFParser, 0, 0, 0, 0, 0, 0, 0, 0, 0, 0, 0, 0, 0, 0,0.0,0.0,0.0,0.25,0.0,0.0,0.0,0.0,0.0,0.0,0.0,0.0,0.0,31,tika-parsers\src\main\java\org\apache\tika\parser\rtf\RTFParser.java,3,3,2,10
org.apache.tika.parser.solidworks.SolidworksParserTest, 0, 0, 0, 0, 0, 0, 0, 0, 0, 0, 0, 0, 0, 0,0.0,0.0,0.0,0.0,0.0,0.0,0.0,0.0,0.0,0.0,0.0,0.0,0.0,134,tika-parsers\src\test\java\org\apache\tika\parser\solidworks\SolidworksParserTest.java,0,0,0,0
org.apache.tika.parser.strings.FileConfig, 0, 0, 0, 0, 0, 0, 0, 0, 0, 0, 0, 0, 0, 0,0.0,0.0,0.0,0.0,0.0,0.0,0.0,0.0,0.0,0.0,0.0,0.0,0.0,19,tika-parsers\src\main\java\org\apache\tika\parser\strings\FileConfig.java,0,0,0,0
org.apache.tika.parser.strings.FileConfigTest, 0, 0, 0, 0, 0, 0, 0, 0, 0, 0, 0, 0, 0, 0,0.0,0.0,0.0,0.0,0.0,0.0,0.0,0.0,0.0,0.0,0.0,0.0,0.0,8,tika-parsers\src\test\java\org\apache\tika\parser\strings\FileConfigTest.java,0,0,0,0
org.apache.tika.parser.strings.Latin1StringsParser, 0, 0, 0, 1, 0, 0, 0, 0, 0, 0, 0, 0, 0, 1,0.0,0.0,0.0,0.5,0.0,0.0,0.0,0.0,0.0,0.0,0.0,0.0,0.0,127,tika-parsers\src\main\java\org\apache\tika\parser\strings\Latin1StringsParser.java,0,0,0,0
org.apache.tika.parser.strings.Latin1StringsParserTest, 0, 0, 0, 0, 0, 0, 0, 0, 0, 0, 0, 0, 0, 0,0.0,0.0,0.0,0.0,0.0,0.0,0.0,0.0,0.0,0.0,0.0,0.0,0.0,32,tika-parsers\src\test\java\org\apache\tika\parser\strings\Latin1StringsParserTest.java,0,0,0,0
org.apache.tika.parser.strings.StringsConfigTest, 0, 0, 0, 0, 0, 0, 0, 0, 0, 0, 0, 0, 0, 0,0.0,0.0,0.0,0.0,0.0,0.0,0.0,0.0,0.0,0.0,0.0,0.0,0.0,33,tika-parsers\src\test\java\org\apache\tika\parser\strings\StringsConfigTest.java,0,0,0,0
org.apache.tika.parser.txt.CharsetDetector, 0, 0, 0, 1, 0, 0, 0, 0, 0, 0, 0, 0, 0, 1,0.0,0.0,0.0,0.0,0.0,0.0,0.0,0.0,0.0,0.0,0.0,0.0,0.0,240,tika-parsers\src\main\java\org\apache\tika\parser\txt\CharsetDetector.java,161,158,4,327
org.apache.tika.parser.txt.CharsetDetectorTest, 0, 0, 0, 0, 0, 0, 0, 0, 0, 0, 0, 0, 0, 0,0.0,0.0,0.0,1.0,0.0,0.0,0.0,0.0,0.0,0.0,0.0,0.0,0.0,35,tika-parsers\src\test\java\org\apache\tika\parser\txt\CharsetDetectorTest.java,1,1,0,2
org.apache.tika.parser.txt.CharsetRecog_2022, 0, 0, 0, 0, 0, 0, 0, 0, 0, 0, 0, 0, 0, 0,0.0,0.0,0.0,0.0,0.0,0.0,0.0,0.0,0.0,0.0,0.0,0.0,0.0,99,tika-parsers\src\main\java\org\apache\tika\parser\txt\CharsetRecog_2022.java,0,0,0,0
org.apache.tika.parser.txt.CharsetRecog_UTF8, 0, 0, 0, 0, 0, 0, 0, 0, 0, 0, 0, 0, 0, 0,0.0,0.0,0.0,0.0,0.0,0.0,0.0,0.0,0.0,0.0,0.0,0.0,0.0,67,tika-parsers\src\main\java\org\apache\tika\parser\txt\CharsetRecog_UTF8.java,0,0,0,0
org.apache.tika.parser.txt.CharsetRecog_Unicode, 0, 0, 0, 0, 0, 0, 0, 0, 0, 0, 0, 0, 0, 0,0.0,0.0,0.0,0.0,0.0,0.0,0.0,0.0,0.0,0.0,0.0,0.0,0.0,102,tika-parsers\src\main\java\org\apache\tika\parser\txt\CharsetRecog_Unicode.java,15,0,15,45
org.apache.tika.parser.txt.CharsetRecog_mbcs, 0, 0, 0, 0, 0, 0, 0, 0, 0, 0, 0, 0, 0, 0,0.0,0.0,0.0,0.5,0.0,0.0,0.0,0.0,0.0,0.0,0.0,0.0,0.0,317,tika-parsers\src\main\java\org\apache\tika\parser\txt\CharsetRecog_mbcs.java,45,42,8,103
org.apache.tika.parser.txt.CharsetRecog_sbcs, 0, 0, 0, 0, 0, 0, 0, 0, 0, 0, 0, 0, 0, 0,0.0,0.0,0.0,0.5,0.0,0.0,0.0,0.0,0.0,0.0,0.0,0.0,0.0,1243,tika-parsers\src\main\java\org\apache\tika\parser\txt\CharsetRecog_sbcs.java,154,16,134,438
org.apache.tika.parser.txt.CharsetRecognizer, 0, 0, 0, 0, 0, 0, 0, 0, 0, 0, 0, 0, 0, 0,0.0,0.0,0.0,0.16666666666666666,0.0,0.0,0.0,0.0,0.0,0.0,0.0,0.0,0.0,8,tika-parsers\src\main\java\org\apache\tika\parser\txt\CharsetRecognizer.java,1,0,1,3
org.apache.tika.parser.txt.Icu4jEncodingDetector, 0, 0, 0, 0, 0, 0, 0, 0, 0, 0, 0, 0, 0, 0,0.0,0.0,0.0,1.0,0.0,0.0,0.0,0.0,0.0,0.0,0.0,0.0,0.0,33,tika-parsers\src\main\java\org\apache\tika\parser\txt\Icu4jEncodingDetector.java,0,0,0,0
org.apache.tika.parser.txt.TXTParser, 0, 0, 0, 0, 0, 0, 0, 0, 0, 0, 0, 0, 0, 0,0.0,0.0,0.0,0.3333333333333333,0.0,0.0,0.0,0.0,0.0,0.0,0.0,0.0,0.0,38,tika-parsers\src\main\java\org\apache\tika\parser\txt\TXTParser.java,0,0,0,0
org.apache.tika.parser.txt.TXTParserTest, 0, 0, 0, 0, 0, 0, 0, 0, 0, 0, 0, 0, 0, 0,0.0,0.0,0.0,0.0,0.0,0.0,0.0,0.0,0.0,0.0,0.0,0.0,0.0,180,tika-parsers\src\test\java\org\apache\tika\parser\txt\TXTParserTest.java,0,0,0,0
org.apache.tika.parser.txt.UniversalEncodingDetector, 0, 0, 0, 0, 0, 0, 0, 0, 0, 0, 0, 0, 0, 0,0.0,0.0,0.0,0.0,0.0,0.0,0.0,0.0,0.0,0.0,0.0,0.0,0.0,28,tika-parsers\src\main\java\org\apache\tika\parser\txt\UniversalEncodingDetector.java,0,0,0,0
org.apache.tika.parser.txt.UniversalEncodingListener, 0, 0, 0, 0, 0, 0, 0, 0, 0, 0, 0, 0, 0, 0,0.0,0.0,0.0,0.0,0.0,0.0,0.0,0.0,0.0,0.0,0.0,0.0,0.0,47,tika-parsers\src\main\java\org\apache\tika\parser\txt\UniversalEncodingListener.java,0,0,0,0
org.apache.tika.parser.video.FLVParserTest, 0, 0, 0, 0, 0, 0, 0, 0, 0, 0, 0, 0, 0, 0,0.0,0.0,0.0,0.0,0.0,0.0,0.0,0.0,0.0,0.0,0.0,0.0,0.0,16,tika-parsers\src\test\java\org\apache\tika\parser\video\FLVParserTest.java,0,0,0,0
org.apache.tika.parser.xml.AbstractMetadataHandler, 0, 0, 0, 0, 0, 0, 0, 0, 0, 0, 0, 0, 0, 0,0.0,0.0,0.0,0.0,0.0,0.0,0.0,0.0,0.0,0.0,0.0,0.0,0.0,50,tika-parsers\src\main\java\org\apache\tika\parser\xml\AbstractMetadataHandler.java,0,0,0,0
org.apache.tika.parser.xml.AttributeMetadataHandler, 0, 0, 0, 0, 0, 0, 0, 0, 0, 0, 0, 0, 0, 0,0.0,0.0,0.0,0.0,0.0,0.0,0.0,0.0,0.0,0.0,0.0,0.0,0.0,27,tika-parsers\src\main\java\org\apache\tika\parser\xml\AttributeMetadataHandler.java,0,0,0,0
org.apache.tika.parser.xml.DcXMLParser, 0, 0, 0, 0, 0, 0, 0, 0, 0, 0, 0, 0, 0, 0,0.0,0.0,0.0,0.0,0.0,0.0,0.0,0.0,0.0,0.0,0.0,0.0,0.0,26,tika-parsers\src\main\java\org\apache\tika\parser\xml\DcXMLParser.java,0,0,0,0
org.apache.tika.parser.xml.EmptyAndDuplicateElementsXMLParserTest, 0, 0, 0, 0, 0, 0, 0, 0, 0, 0, 0, 0, 0, 0,0.0,0.0,0.0,0.0,0.0,0.0,0.0,0.0,0.0,0.0,0.0,0.0,0.0,77,tika-parsers\src\test\java\org\apache\tika\parser\xml\EmptyAndDuplicateElementsXMLParserTest.java,0,0,0,0
org.apache.tika.parser.xml.FictionBookParserTest, 0, 0, 0, 0, 0, 0, 0, 0, 0, 0, 0, 0, 0, 0,0.0,0.0,0.0,0.25,0.0,0.0,0.0,0.0,0.0,0.0,0.0,0.0,0.0,29,tika-parsers\src\test\java\org\apache\tika\parser\xml\FictionBookParserTest.java,0,0,0,0
org.apache.tika.parser.xml.XMLParser, 0, 0, 0, 0, 0, 0, 0, 0, 0, 0, 0, 0, 0, 0,0.0,0.0,0.0,0.08333333333333333,0.0,0.0,0.0,0.0,0.0,0.0,0.0,0.0,0.0,39,tika-parsers\src\main\java\org\apache\tika\parser\xml\XMLParser.java,0,0,0,0
org.apache.tika.sax.BasicContentHandlerFactory, 0, 0, 0, 0, 0, 0, 0, 0, 0, 0, 0, 0, 0, 0,0.0,0.0,0.0,0.0,0.0,0.0,0.0,0.0,0.0,0.0,0.0,0.0,0.0,81,tika-core\src\main\java\org\apache\tika\sax\BasicContentHandlerFactory.java,0,0,0,0
org.apache.tika.sax.BodyContentHandler, 0, 0, 0, 0, 0, 0, 0, 0, 0, 0, 0, 0, 0, 0,0.0,0.0,0.0,0.0,0.0,0.0,0.0,0.0,0.0,0.0,0.0,0.0,0.0,21,tika-core\src\main\java\org\apache\tika\sax\BodyContentHandler.java,0,0,0,0
org.apache.tika.sax.BodyContentHandlerTest, 0, 0, 0, 0, 0, 0, 0, 0, 0, 0, 0, 0, 0, 0,0.0,0.0,0.0,1.0,0.0,0.0,0.0,0.0,0.0,0.0,0.0,0.0,0.0,12,tika-core\src\test\java\org\apache\tika\sax\BodyContentHandlerTest.java,0,0,0,0
org.apache.tika.sax.ContentHandlerDecorator, 0, 0, 0, 0, 0, 0, 0, 0, 0, 0, 0, 0, 0, 0,0.0,0.0,0.0,0.11764705882352941,0.0,0.0,0.0,0.0,0.0,0.0,0.0,0.0,0.0,112,tika-core\src\main\java\org\apache\tika\sax\ContentHandlerDecorator.java,0,0,0,0
org.apache.tika.sax.ContentHandlerFactory, 0, 0, 0, 0, 0, 0, 0, 0, 0, 0, 0, 0, 0, 0,0.0,0.0,0.0,0.0,0.0,0.0,0.0,0.0,0.0,0.0,0.0,0.0,0.0,112,tika-core\src\main\java\org\apache\tika\sax\ContentHandlerFactory.java,0,0,0,0
org.apache.tika.sax.EmbeddedContentHandler, 0, 0, 0, 0, 0, 0, 0, 0, 0, 0, 0, 0, 0, 0,0.0,0.0,0.0,0.0,0.0,0.0,0.0,0.0,0.0,0.0,0.0,0.0,0.0,11,tika-core\src\main\java\org\apache\tika\sax\EmbeddedContentHandler.java,0,0,0,0
org.apache.tika.sax.EndDocumentShieldingContentHandler, 0, 0, 0, 0, 0, 0, 0, 0, 0, 0, 0, 0, 0, 0,0.0,0.0,0.0,0.0,0.0,0.0,0.0,0.0,0.0,0.0,0.0,0.0,0.0,17,tika-core\src\main\java\org\apache\tika\sax\EndDocumentShieldingContentHandler.java,0,0,0,0
org.apache.tika.sax.ExpandedTitleContentHandler, 0, 0, 0, 0, 0, 0, 0, 0, 0, 0, 0, 0, 0, 0,0.0,0.0,0.0,0.0,0.0,0.0,0.0,0.0,0.0,0.0,0.0,0.0,0.0,43,tika-core\src\main\java\org\apache\tika\sax\ExpandedTitleContentHandler.java,0,0,0,0
org.apache.tika.sax.LinkContentHandler, 0, 0, 0, 0, 0, 0, 0, 0, 0, 0, 0, 0, 0, 0,0.0,0.0,0.0,0.0,0.0,0.0,0.0,0.0,0.0,0.0,0.0,0.0,0.0,58,tika-core\src\main\java\org\apache\tika\sax\LinkContentHandler.java,0,0,0,0
org.apache.tika.sax.LinkContentHandlerTest, 0, 0, 0, 0, 0, 0, 0, 0, 0, 0, 0, 0, 0, 0,0.0,0.0,0.0,0.0,0.0,0.0,0.0,0.0,0.0,0.0,0.0,0.0,0.0,20,tika-core\src\test\java\org\apache\tika\sax\LinkContentHandlerTest.java,0,0,0,0
org.apache.tika.sax.OfflineContentHandler, 0, 0, 0, 0, 0, 0, 0, 0, 0, 0, 0, 0, 0, 0,0.0,0.0,0.0,0.0,0.0,0.0,0.0,0.0,0.0,0.0,0.0,0.0,0.0,9,tika-core\src\main\java\org\apache\tika\sax\OfflineContentHandler.java,0,0,0,0
org.apache.tika.sax.OfflineContentHandlerTest, 0, 0, 0, 0, 0, 0, 0, 0, 0, 0, 0, 0, 0, 0,0.0,0.0,0.0,0.0,0.0,0.0,0.0,0.0,0.0,0.0,0.0,0.0,0.0,31,tika-core\src\test\java\org\apache\tika\sax\OfflineContentHandlerTest.java,0,0,0,0
org.apache.tika.sax.PhoneExtractingContentHandlerTest, 0, 0, 0, 0, 0, 0, 0, 0, 0, 0, 0, 0, 0, 0,0.0,0.0,0.0,0.0,0.0,0.0,0.0,0.0,0.0,0.0,0.0,0.0,0.0,23,tika-parsers\src\test\java\org\apache\tika\sax\PhoneExtractingContentHandlerTest.java,0,0,0,0
org.apache.tika.sax.SafeContentHandlerTest, 0, 0, 0, 0, 0, 0, 0, 0, 0, 0, 0, 0, 0, 0,0.0,0.0,0.0,0.0,0.0,0.0,0.0,0.0,0.0,0.0,0.0,0.0,0.0,44,tika-core\src\test\java\org\apache\tika\sax\SafeContentHandlerTest.java,0,0,0,0
org.apache.tika.sax.SecureContentHandler, 0, 0, 0, 1, 0, 0, 0, 0, 0, 0, 0, 0, 0, 1,0.0,0.0,0.0,0.2,0.0,0.0,0.0,0.0,0.0,0.0,0.0,0.0,0.0,120,tika-core\src\main\java\org\apache\tika\sax\SecureContentHandler.java,0,0,0,0
org.apache.tika.sax.SecureContentHandlerTest, 0, 0, 0, 0, 0, 0, 0, 0, 0, 0, 0, 0, 0, 0,0.0,0.0,0.0,0.6,0.0,0.0,0.0,0.0,0.0,0.0,0.0,0.0,0.0,114,tika-core\src\test\java\org\apache\tika\sax\SecureContentHandlerTest.java,0,0,0,0
org.apache.tika.sax.SerializerTest, 0, 0, 0, 0, 0, 0, 0, 0, 0, 0, 0, 0, 0, 0,0.0,0.0,0.0,0.0,0.0,0.0,0.0,0.0,0.0,0.0,0.0,0.0,0.0,114,tika-core\src\test\java\org\apache\tika\sax\SerializerTest.java,0,0,0,0
org.apache.tika.sax.TaggedContentHandler, 0, 0, 0, 0, 0, 0, 0, 0, 0, 0, 0, 0, 0, 0,0.0,0.0,0.0,0.0,0.0,0.0,0.0,0.0,0.0,0.0,0.0,0.0,0.0,25,tika-core\src\main\java\org\apache\tika\sax\TaggedContentHandler.java,0,0,0,0
org.apache.tika.sax.TaggedSAXException, 0, 0, 0, 0, 0, 0, 0, 0, 0, 0, 0, 0, 0, 0,0.0,0.0,0.0,0.0,0.0,0.0,0.0,0.0,0.0,0.0,0.0,0.0,0.0,15,tika-core\src\main\java\org\apache\tika\sax\TaggedSAXException.java,0,0,0,0
org.apache.tika.sax.TeeContentHandler, 0, 0, 0, 0, 0, 0, 0, 0, 0, 0, 0, 0, 0, 0,0.0,0.0,0.0,0.0,0.0,0.0,0.0,0.0,0.0,0.0,0.0,0.0,0.0,79,tika-core\src\main\java\org\apache\tika\sax\TeeContentHandler.java,0,0,0,0
org.apache.tika.sax.TextContentHandler, 0, 0, 0, 0, 0, 0, 0, 0, 0, 0, 0, 0, 0, 0,0.0,0.0,0.0,0.0,0.0,0.0,0.0,0.0,0.0,0.0,0.0,0.0,0.0,45,tika-core\src\main\java\org\apache\tika\sax\TextContentHandler.java,0,0,0,0
org.apache.tika.sax.ToHTMLContentHandler, 0, 0, 0, 0, 0, 0, 0, 0, 0, 0, 0, 0, 0, 0,0.0,0.0,0.0,0.0,0.0,0.0,0.0,0.0,0.0,0.0,0.0,0.0,0.0,29,tika-core\src\main\java\org\apache\tika\sax\ToHTMLContentHandler.java,0,0,0,0
org.apache.tika.sax.ToTextContentHandler, 0, 0, 0, 0, 0, 0, 0, 0, 0, 0, 0, 0, 0, 0,0.0,0.0,0.0,0.0,0.0,0.0,0.0,0.0,0.0,0.0,0.0,0.0,0.0,43,tika-core\src\main\java\org\apache\tika\sax\ToTextContentHandler.java,0,0,0,0
org.apache.tika.sax.WriteOutContentHandler, 0, 0, 0, 0, 0, 0, 0, 0, 0, 0, 0, 0, 0, 0,0.0,0.0,0.0,0.0,0.0,0.0,0.0,0.0,0.0,0.0,0.0,0.0,0.0,73,tika-core\src\main\java\org\apache\tika\sax\WriteOutContentHandler.java,0,0,0,0
org.apache.tika.sax.XHTMLContentHandler, 0, 0, 0, 1, 0, 0, 0, 0, 0, 0, 0, 0, 0, 1,0.0,0.0,0.0,0.08,0.0,0.0,0.0,0.0,0.0,0.0,0.0,0.0,0.0,160,tika-core\src\main\java\org\apache\tika\sax\XHTMLContentHandler.java,0,0,0,0
org.apache.tika.sax.XHTMLContentHandlerTest, 0, 0, 0, 0, 0, 0, 0, 0, 0, 0, 0, 0, 0, 0,0.0,0.0,0.0,0.25,0.0,0.0,0.0,0.0,0.0,0.0,0.0,0.0,0.0,89,tika-core\src\test\java\org\apache\tika\sax\XHTMLContentHandlerTest.java,0,0,0,0
org.apache.tika.sax.XMPContentHandler, 0, 0, 0, 0, 0, 0, 0, 0, 0, 0, 0, 0, 0, 0,0.0,0.0,0.0,0.0,0.0,0.0,0.0,0.0,0.0,0.0,0.0,0.0,0.0,79,tika-core\src\main\java\org\apache\tika\sax\XMPContentHandler.java,0,0,0,0
org.apache.tika.sax.xpath.AttributeMatcher, 0, 0, 0, 0, 0, 0, 0, 0, 0, 0, 0, 0, 0, 0,0.0,0.0,0.0,0.0,0.0,0.0,0.0,0.0,0.0,0.0,0.0,0.0,0.0,6,tika-core\src\main\java\org\apache\tika\sax\xpath\AttributeMatcher.java,0,0,0,0
org.apache.tika.sax.xpath.ChildMatcher, 0, 0, 0, 0, 0, 0, 0, 0, 0, 0, 0, 0, 0, 0,0.0,0.0,0.0,0.0,0.0,0.0,0.0,0.0,0.0,0.0,0.0,0.0,0.0,9,tika-core\src\main\java\org\apache\tika\sax\xpath\ChildMatcher.java,0,0,0,0
org.apache.tika.sax.xpath.CompositeMatcher, 0, 0, 0, 0, 0, 0, 0, 0, 0, 0, 0, 0, 0, 0,0.0,0.0,0.0,0.0,0.0,0.0,0.0,0.0,0.0,0.0,0.0,0.0,0.0,31,tika-core\src\main\java\org\apache\tika\sax\xpath\CompositeMatcher.java,0,0,0,0
org.apache.tika.sax.xpath.ElementMatcher, 0, 0, 0, 0, 0, 0, 0, 0, 0, 0, 0, 0, 0, 0,0.0,0.0,0.0,0.0,0.0,0.0,0.0,0.0,0.0,0.0,0.0,0.0,0.0,6,tika-core\src\main\java\org\apache\tika\sax\xpath\ElementMatcher.java,0,0,0,0
org.apache.tika.sax.xpath.Matcher, 0, 0, 0, 0, 0, 0, 0, 0, 0, 0, 0, 0, 0, 0,0.0,0.0,0.0,0.0,0.0,0.0,0.0,0.0,0.0,0.0,0.0,0.0,0.0,15,tika-core\src\main\java\org\apache\tika\sax\xpath\Matcher.java,0,0,0,0
org.apache.tika.sax.xpath.MatchingContentHandler, 0, 0, 0, 0, 0, 0, 0, 0, 0, 0, 0, 0, 0, 0,0.0,0.0,0.0,0.0,0.0,0.0,0.0,0.0,0.0,0.0,0.0,0.0,0.0,59,tika-core\src\main\java\org\apache\tika\sax\xpath\MatchingContentHandler.java,0,0,0,0
org.apache.tika.sax.xpath.NamedAttributeMatcher, 0, 0, 0, 0, 0, 0, 0, 0, 0, 0, 0, 0, 0, 0,0.0,0.0,0.0,0.0,0.0,0.0,0.0,0.0,0.0,0.0,0.0,0.0,0.0,14,tika-core\src\main\java\org\apache\tika\sax\xpath\NamedAttributeMatcher.java,0,0,0,0
org.apache.tika.sax.xpath.NamedElementMatcher, 0, 0, 0, 0, 0, 0, 0, 0, 0, 0, 0, 0, 0, 0,0.0,0.0,0.0,0.0,0.0,0.0,0.0,0.0,0.0,0.0,0.0,0.0,0.0,19,tika-core\src\main\java\org\apache\tika\sax\xpath\NamedElementMatcher.java,0,0,0,0
org.apache.tika.sax.xpath.NodeMatcher, 0, 0, 0, 0, 0, 0, 0, 0, 0, 0, 0, 0, 0, 0,0.0,0.0,0.0,0.0,0.0,0.0,0.0,0.0,0.0,0.0,0.0,0.0,0.0,15,tika-core\src\main\java\org\apache\tika\sax\xpath\NodeMatcher.java,0,0,0,0
org.apache.tika.sax.xpath.SubtreeMatcher, 0, 0, 0, 0, 0, 0, 0, 0, 0, 0, 0, 0, 0, 0,0.0,0.0,0.0,0.0,0.0,0.0,0.0,0.0,0.0,0.0,0.0,0.0,0.0,27,tika-core\src\main\java\org\apache\tika\sax\xpath\SubtreeMatcher.java,0,0,0,0
org.apache.tika.sax.xpath.TextMatcher, 0, 0, 0, 0, 0, 0, 0, 0, 0, 0, 0, 0, 0, 0,0.0,0.0,0.0,0.0,0.0,0.0,0.0,0.0,0.0,0.0,0.0,0.0,0.0,6,tika-core\src\main\java\org\apache\tika\sax\xpath\TextMatcher.java,0,0,0,0
org.apache.tika.sax.xpath.XPathParserTest, 0, 0, 0, 0, 0, 0, 0, 0, 0, 0, 0, 0, 0, 0,0.0,0.0,0.0,0.0,0.0,0.0,0.0,0.0,0.0,0.0,0.0,0.0,0.0,98,tika-core\src\test\java\org\apache\tika\sax\xpath\XPathParserTest.java,0,0,0,0
org.apache.tika.server.DetectorResourceTest, 0, 0, 0, 0, 0, 0, 0, 0, 0, 0, 0, 0, 0, 0,0.0,0.0,0.0,0.0,0.0,0.0,0.0,0.0,0.0,0.0,0.0,0.0,0.0,60,tika-server\src\test\java\org\apache\tika\server\DetectorResourceTest.java,0,0,0,0
org.apache.tika.server.MetadataList, 0, 0, 0, 0, 0, 0, 0, 0, 0, 0, 0, 0, 0, 0,0.0,0.0,0.0,0.0,0.0,0.0,0.0,0.0,0.0,0.0,0.0,0.0,0.0,9,tika-server\src\main\java\org\apache\tika\server\MetadataList.java,0,0,0,0
org.apache.tika.server.RecursiveMetadataResourceTest, 0, 0, 0, 0, 0, 0, 0, 0, 0, 0, 0, 0, 0, 0,0.0,0.0,0.0,0.0,0.0,0.0,0.0,0.0,0.0,0.0,0.0,0.0,0.0,50,tika-server\src\test\java\org\apache\tika\server\RecursiveMetadataResourceTest.java,0,0,2,4
org.apache.tika.server.RichTextContentHandler, 0, 0, 0, 0, 0, 0, 0, 0, 0, 0, 0, 0, 0, 0,0.0,0.0,0.0,0.0,0.0,0.0,0.0,0.0,0.0,0.0,0.0,0.0,0.0,17,tika-server\src\main\java\org\apache\tika\server\RichTextContentHandler.java,0,0,0,0
org.apache.tika.server.StackTraceOffTest, 0, 0, 0, 0, 0, 0, 0, 0, 0, 0, 0, 0, 0, 0,0.0,0.0,0.0,0.0,0.0,0.0,0.0,0.0,0.0,0.0,0.0,0.0,0.0,87,tika-server\src\test\java\org\apache\tika\server\StackTraceOffTest.java,0,0,0,0
org.apache.tika.server.StackTraceTest, 0, 0, 0, 0, 0, 0, 0, 0, 0, 0, 0, 0, 0, 0,0.0,0.0,0.0,0.0,0.0,0.0,0.0,0.0,0.0,0.0,0.0,0.0,0.0,89,tika-server\src\test\java\org\apache\tika\server\StackTraceTest.java,0,0,0,0
org.apache.tika.server.TikaLoggingFilter, 0, 0, 0, 0, 0, 0, 0, 0, 0, 0, 0, 0, 0, 0,0.0,0.0,0.0,0.0,0.0,0.0,0.0,0.0,0.0,0.0,0.0,0.0,0.0,17,tika-server\src\main\java\org\apache\tika\server\TikaLoggingFilter.java,0,0,0,0
org.apache.tika.server.TikaServerCli, 0, 0, 0, 0, 0, 0, 0, 0, 0, 0, 0, 0, 0, 0,0.0,0.0,0.0,0.0,0.0,0.0,0.0,0.0,0.0,0.0,0.0,0.0,0.0,103,tika-server\src\main\java\org\apache\tika\server\TikaServerCli.java,0,13,1,15
org.apache.tika.server.TikaServerParseException, 0, 0, 0, 0, 0, 0, 0, 0, 0, 0, 0, 0, 0, 0,0.0,0.0,0.0,0.0,0.0,0.0,0.0,0.0,0.0,0.0,0.0,0.0,0.0,8,tika-server\src\main\java\org\apache\tika\server\TikaServerParseException.java,0,0,0,0
org.apache.tika.server.TikaServerParseExceptionMapper, 0, 0, 0, 0, 0, 0, 0, 0, 0, 0, 0, 0, 0, 0,0.0,0.0,0.0,0.0,0.0,0.0,0.0,0.0,0.0,0.0,0.0,0.0,0.0,49,tika-server\src\main\java\org\apache\tika\server\TikaServerParseExceptionMapper.java,0,1,1,3
org.apache.tika.server.TikaVersionTest, 0, 0, 0, 0, 0, 0, 0, 0, 0, 0, 0, 0, 0, 0,0.0,0.0,0.0,0.0,0.0,0.0,0.0,0.0,0.0,0.0,0.0,0.0,0.0,24,tika-server\src\test\java\org\apache\tika\server\TikaVersionTest.java,0,0,0,0
org.apache.tika.server.TikaWelcomeTest, 0, 0, 0, 0, 0, 0, 0, 0, 0, 0, 0, 0, 0, 0,0.0,0.0,0.0,0.0,0.0,0.0,0.0,0.0,0.0,0.0,0.0,0.0,0.0,58,tika-server\src\test\java\org\apache\tika\server\TikaWelcomeTest.java,0,0,0,0
org.apache.tika.server.resource.DetectorResource, 0, 0, 0, 0, 0, 0, 0, 0, 0, 0, 0, 0, 0, 0,0.0,0.0,0.0,0.16666666666666666,0.0,0.0,0.0,0.0,0.0,0.0,0.0,0.0,0.0,29,tika-server\src\main\java\org\apache\tika\server\resource\DetectorResource.java,0,0,0,0
org.apache.tika.server.resource.MetadataResource, 0, 0, 0, 0, 0, 0, 0, 0, 0, 0, 0, 0, 0, 0,0.0,0.0,0.0,0.0,0.0,0.0,0.0,0.0,0.0,0.0,0.0,0.0,0.0,55,tika-server\src\main\java\org\apache\tika\server\resource\MetadataResource.java,0,6,3,12
org.apache.tika.server.resource.RecursiveMetadataResource, 0, 0, 0, 0, 0, 0, 0, 0, 0, 0, 0, 0, 0, 0,0.0,0.0,0.0,0.14285714285714285,0.0,0.0,0.0,0.0,0.0,0.0,0.0,0.0,0.0,35,tika-server\src\main\java\org\apache\tika\server\resource\RecursiveMetadataResource.java,0,7,2,11
org.apache.tika.server.resource.TikaVersion, 0, 0, 0, 0, 0, 0, 0, 0, 0, 0, 0, 0, 0, 0,0.0,0.0,0.0,0.0,0.0,0.0,0.0,0.0,0.0,0.0,0.0,0.0,0.0,11,tika-server\src\main\java\org\apache\tika\server\resource\TikaVersion.java,0,0,0,0
org.apache.tika.server.writer.CSVMessageBodyWriter, 0, 0, 0, 0, 0, 0, 0, 0, 0, 0, 0, 0, 0, 0,0.0,0.0,0.0,0.0,0.0,0.0,0.0,0.0,0.0,0.0,0.0,0.0,0.0,23,tika-server\src\main\java\org\apache\tika\server\writer\CSVMessageBodyWriter.java,0,0,0,0
org.apache.tika.server.writer.JSONMessageBodyWriter, 0, 0, 0, 0, 0, 0, 0, 0, 0, 0, 0, 0, 0, 0,0.0,0.0,0.0,0.0,0.0,0.0,0.0,0.0,0.0,0.0,0.0,0.0,0.0,21,tika-server\src\main\java\org\apache\tika\server\writer\JSONMessageBodyWriter.java,0,0,0,0
org.apache.tika.server.writer.MetadataListMessageBodyWriter, 0, 0, 0, 0, 0, 0, 0, 0, 0, 0, 0, 0, 0, 0,0.0,0.0,0.0,0.0,0.0,0.0,0.0,0.0,0.0,0.0,0.0,0.0,0.0,24,tika-server\src\main\java\org\apache\tika\server\writer\MetadataListMessageBodyWriter.java,0,0,0,0
org.apache.tika.server.writer.TarWriter, 0, 0, 0, 0, 0, 0, 0, 0, 0, 0, 0, 0, 0, 0,0.0,0.0,0.0,0.0,0.0,0.0,0.0,0.0,0.0,0.0,0.0,0.0,0.0,22,tika-server\src\main\java\org\apache\tika\server\writer\TarWriter.java,0,0,0,0
org.apache.tika.server.writer.TextMessageBodyWriter, 0, 0, 0, 0, 0, 0, 0, 0, 0, 0, 0, 0, 0, 0,0.0,0.0,0.0,0.0,0.0,0.0,0.0,0.0,0.0,0.0,0.0,0.0,0.0,22,tika-server\src\main\java\org\apache\tika\server\writer\TextMessageBodyWriter.java,0,0,0,0
org.apache.tika.server.writer.XMPMessageBodyWriter, 0, 0, 0, 0, 0, 0, 0, 0, 0, 0, 0, 0, 0, 0,0.0,0.0,0.0,0.0,0.0,0.0,0.0,0.0,0.0,0.0,0.0,0.0,0.0,23,tika-server\src\main\java\org\apache\tika\server\writer\XMPMessageBodyWriter.java,0,0,0,0
org.apache.tika.server.writer.ZipWriter, 0, 0, 0, 0, 0, 0, 0, 0, 0, 0, 0, 0, 0, 0,0.0,0.0,0.0,0.0,0.0,0.0,0.0,0.0,0.0,0.0,0.0,0.0,0.0,34,tika-server\src\main\java\org\apache\tika\server\writer\ZipWriter.java,0,0,0,0
org.apache.tika.util.ClassLoaderUtil, 0, 0, 0, 0, 0, 0, 0, 0, 0, 0, 0, 0, 0, 0,0.0,0.0,0.0,0.0,0.0,0.0,0.0,0.0,0.0,0.0,0.0,0.0,0.0,20,tika-batch\src\main\java\org\apache\tika\util\ClassLoaderUtil.java,0,0,0,0
org.apache.tika.util.PropsUtil, 0, 0, 0, 0, 0, 0, 0, 0, 0, 0, 0, 0, 0, 0,0.0,0.0,0.0,0.0,0.0,0.0,0.0,0.0,0.0,0.0,0.0,0.0,0.0,52,tika-batch\src\main\java\org\apache\tika\util\PropsUtil.java,0,0,0,0
org.apache.tika.util.TikaExceptionFilter, 0, 0, 0, 0, 0, 0, 0, 0, 0, 0, 0, 0, 0, 0,0.0,0.0,0.0,0.0,0.0,0.0,0.0,0.0,0.0,0.0,0.0,0.0,0.0,20,tika-batch\src\main\java\org\apache\tika\util\TikaExceptionFilter.java,24,0,0,24
org.apache.tika.util.TikaExceptionFilterTest, 0, 0, 0, 0, 0, 0, 0, 0, 0, 0, 0, 0, 0, 0,0.0,0.0,0.0,0.0,0.0,0.0,0.0,0.0,0.0,0.0,0.0,0.0,0.0,14,tika-batch\src\test\java\org\apache\tika\util\TikaExceptionFilterTest.java,18,0,0,18
org.apache.tika.utils.CharsetUtilsTest, 0, 0, 0, 0, 0, 0, 0, 0, 0, 0, 0, 0, 0, 0,0.0,0.0,0.0,0.0,0.0,0.0,0.0,0.0,0.0,0.0,0.0,0.0,0.0,38,tika-core\src\test\java\org\apache\tika\utils\CharsetUtilsTest.java,0,0,0,0
org.apache.tika.utils.DateUtils, 0, 0, 0, 0, 0, 0, 0, 0, 0, 0, 0, 0, 0, 0,0.0,0.0,0.0,0.0,0.0,0.0,0.0,0.0,0.0,0.0,0.0,0.0,0.0,30,tika-core\src\main\java\org\apache\tika\utils\DateUtils.java,0,0,0,0
org.apache.tika.utils.RegexUtilsTest, 0, 0, 0, 0, 0, 0, 0, 0, 0, 0, 0, 0, 0, 0,0.0,0.0,0.0,0.0,0.0,0.0,0.0,0.0,0.0,0.0,0.0,0.0,0.0,37,tika-core\src\test\java\org\apache\tika\utils\RegexUtilsTest.java,0,0,0,0
org.apache.tika.utils.RereadableInputStream, 0, 0, 0, 0, 0, 0, 0, 0, 0, 0, 0, 0, 0, 0,0.0,0.0,0.0,0.0,0.0,0.0,0.0,0.0,0.0,0.0,0.0,0.0,0.0,84,tika-core\src\main\java\org\apache\tika\utils\RereadableInputStream.java,0,0,0,0
org.apache.tika.xmp.TikaToXMPTest, 0, 0, 0, 0, 0, 0, 0, 0, 0, 0, 0, 0, 0, 0,0.0,0.0,0.0,0.0,0.0,0.0,0.0,0.0,0.0,0.0,0.0,0.0,0.0,122,tika-xmp\src\test\java\org\apache\tika\xmp\TikaToXMPTest.java,0,0,0,0
org.apache.tika.xmp.convert.AbstractConverter, 0, 0, 0, 0, 0, 0, 0, 0, 0, 0, 0, 0, 0, 0,0.0,0.0,0.0,0.0,0.0,0.0,0.0,0.0,0.0,0.0,0.0,0.0,0.0,77,tika-xmp\src\main\java\org\apache\tika\xmp\convert\AbstractConverter.java,0,0,0,0
org.apache.tika.xmp.convert.GenericConverter, 0, 0, 0, 0, 0, 0, 0, 0, 0, 0, 0, 0, 0, 0,0.0,0.0,0.0,0.0,0.0,0.0,0.0,0.0,0.0,0.0,0.0,0.0,0.0,54,tika-xmp\src\main\java\org\apache\tika\xmp\convert\GenericConverter.java,0,0,0,0
org.apache.tika.xmp.convert.ITikaToXMPConverter, 0, 0, 0, 0, 0, 0, 0, 0, 0, 0, 0, 0, 0, 0,0.0,0.0,0.0,0.0,0.0,0.0,0.0,0.0,0.0,0.0,0.0,0.0,0.0,54,tika-xmp\src\main\java\org\apache\tika\xmp\convert\ITikaToXMPConverter.java,0,0,0,0
org.apache.tika.xmp.convert.MSOfficeBinaryConverter, 0, 0, 0, 0, 0, 0, 0, 0, 0, 0, 0, 0, 0, 0,0.0,0.0,0.0,0.0,0.0,0.0,0.0,0.0,0.0,0.0,0.0,0.0,0.0,40,tika-xmp\src\main\java\org\apache\tika\xmp\convert\MSOfficeBinaryConverter.java,0,0,0,0
org.apache.tika.xmp.convert.MSOfficeXMLConverter, 0, 0, 0, 0, 0, 0, 0, 0, 0, 0, 0, 0, 0, 0,0.0,0.0,0.0,0.0,0.0,0.0,0.0,0.0,0.0,0.0,0.0,0.0,0.0,70,tika-xmp\src\main\java\org\apache\tika\xmp\convert\MSOfficeXMLConverter.java,0,0,0,0
org.apache.tika.xmp.convert.Namespace, 0, 0, 1, 0, 0, 0, 0, 0, 0, 0, 0, 0, 0, 1,0.0,0.0,0.0,0.0,0.0,0.0,0.0,0.0,0.0,0.0,0.0,0.0,0.0,8,tika-xmp\src\main\java\org\apache\tika\xmp\convert\Namespace.java,0,0,0,0
org.apache.tika.xmp.convert.OpenDocumentConverter, 0, 0, 0, 0, 0, 0, 0, 0, 0, 0, 0, 0, 0, 0,0.0,0.0,0.0,0.0,0.0,0.0,0.0,0.0,0.0,0.0,0.0,0.0,0.0,38,tika-xmp\src\main\java\org\apache\tika\xmp\convert\OpenDocumentConverter.java,0,0,0,0
org.apache.tika.xmp.convert.RTFConverter, 0, 0, 0, 0, 0, 0, 0, 0, 0, 0, 0, 0, 0, 0,0.0,0.0,0.0,0.0,0.0,0.0,0.0,0.0,0.0,0.0,0.0,0.0,0.0,32,tika-xmp\src\main\java\org\apache\tika\xmp\convert\RTFConverter.java,0,0,0,0
