ClassName,AntiSingleton,Blob,ClassDataShouldBePrivate,ComplexClass,LargeClass,LazyClass,LongMethod,LongParameterList,MessageChains,RefusedParentBequest,SpaghettiCode,SpeculativeGenerality,SwissArmyKnife,NumOfAPs,AntiSingleton,Blob,ClassDataShouldBePrivate,ComplexClass,LargeClass,LazyClass,LongMethod,LongParameterList,MessageChains,RefusedParentBequest,SpaghettiCode,SpeculativeGenerality,SwissArmyKnife,LOC,name,deleted,added,changed,all
org.apache.hadoop.chukwa.ChukwaArchive, 1, 0, 0, 0, 0, 0, 0, 0, 0, 0, 0, 0, 0, 1,0.0,0.0,0.0,0.0,0.0,0.0,0.0,0.0,0.0,0.0,0.0,0.0,0.0,67,contrib\chukwa-pig\src\java\org\apache\hadoop\chukwa\ChukwaArchive.java,0,0,0,0
org.apache.hadoop.chukwa.ChukwaArchiveKey, 0, 0, 0, 1, 0, 0, 0, 0, 0, 0, 0, 0, 0, 1,0.4,0.0,0.05,0.05,0.0,0.0,0.0,0.05,0.0,0.0,0.0,0.0,0.0,328,src\main\java\org\apache\hadoop\chukwa\ChukwaArchiveKey.java,0,0,0,0
org.apache.hadoop.chukwa.Chunk, 0, 0, 0, 0, 0, 0, 0, 0, 0, 0, 0, 0, 0, 0,0.0,0.0,0.0,0.0,0.0,0.0,0.0,0.0,0.0,0.0,0.0,0.0,0.0,328,src\main\java\org\apache\hadoop\chukwa\Chunk.java,0,0,0,0
org.apache.hadoop.chukwa.ChunkBuilder, 0, 0, 0, 0, 0, 0, 0, 0, 0, 0, 0, 0, 0, 0,0.25,0.0,0.25,0.0,0.0,0.0,0.0,0.0,0.0,0.0,0.0,0.0,0.0,24,src\main\java\org\apache\hadoop\chukwa\ChunkBuilder.java,0,0,0,0
org.apache.hadoop.chukwa.ChunkImplTest, 0, 0, 0, 0, 0, 0, 0, 0, 0, 0, 0, 0, 0, 0,0.0,0.0,0.0,0.0,0.0,0.0,0.0,0.0,0.0,0.0,0.0,0.0,0.0,47,src\test\java\org\apache\hadoop\chukwa\ChunkImplTest.java,0,0,0,0
org.apache.hadoop.chukwa.PARSEDOUBLE, 0, 0, 0, 0, 0, 0, 0, 0, 0, 0, 0, 0, 0, 0,0.0,0.0,0.0,0.0,0.0,0.0,0.0,0.0,0.0,0.0,0.0,0.0,0.0,24,contrib\chukwa-pig\src\java\org\apache\hadoop\chukwa\PARSEDOUBLE.java,0,0,0,0
org.apache.hadoop.chukwa.PigTest, 0, 0, 0, 0, 0, 0, 0, 0, 0, 0, 0, 0, 0, 0,0.0,0.0,0.0,0.0,0.0,0.0,0.0,0.0,0.0,0.0,0.0,0.0,0.0,24,contrib\chukwa-pig\test\src\java\org\apache\hadoop\chukwa\PigTest.java,0,0,0,0
org.apache.hadoop.chukwa.RecordMerger, 0, 0, 0, 0, 0, 0, 0, 0, 0, 0, 0, 0, 0, 0,0.0,0.0,0.0,0.0,0.0,0.0,0.0,0.0,0.0,0.0,0.0,0.0,0.0,29,contrib\chukwa-pig\src\java\org\apache\hadoop\chukwa\RecordMerger.java,0,0,0,0
org.apache.hadoop.chukwa.TestChunkBuilder, 0, 0, 0, 0, 0, 0, 0, 0, 0, 0, 0, 0, 0, 0,0.0,0.0,0.0,0.0,0.0,0.0,0.0,0.0,0.0,0.0,0.0,0.0,0.0,14,src\test\java\org\apache\hadoop\chukwa\TestChunkBuilder.java,0,0,0,0
org.apache.hadoop.chukwa.TestParseDouble, 0, 0, 0, 0, 0, 0, 0, 0, 0, 0, 0, 0, 0, 0,0.0,0.0,0.0,0.0,0.0,0.0,0.0,0.0,0.0,0.0,0.0,0.0,0.0,53,contrib\chukwa-pig\test\src\java\org\apache\hadoop\chukwa\TestParseDouble.java,0,0,0,0
org.apache.hadoop.chukwa.TestTimePartition, 0, 0, 0, 0, 0, 0, 0, 0, 0, 0, 0, 0, 0, 0,0.0,0.0,0.0,0.0,0.0,0.0,0.0,0.0,0.0,0.0,0.0,0.0,0.0,60,contrib\chukwa-pig\test\src\java\org\apache\hadoop\chukwa\TestTimePartition.java,0,0,0,0
org.apache.hadoop.chukwa.TimePartition, 0, 0, 0, 0, 0, 0, 0, 0, 0, 0, 0, 0, 0, 0,0.0,0.0,0.0,0.0,0.0,0.0,0.0,0.0,0.0,0.0,0.0,0.0,0.0,30,contrib\chukwa-pig\src\java\org\apache\hadoop\chukwa\TimePartition.java,0,0,0,0
org.apache.hadoop.chukwa.analysis.salsa.fsm.FSMBuilder, 0, 0, 0, 0, 0, 0, 0, 0, 0, 0, 0, 0, 0, 0,0.0,0.0,0.0,0.0,0.0,0.0,0.0,0.0,0.0,0.0,0.0,0.0,0.0,314,src\main\java\org\apache\hadoop\chukwa\analysis\salsa\fsm\FSMBuilder.java,0,0,0,0
org.apache.hadoop.chukwa.analysis.salsa.fsm.FSMIntermedEntryPartitioner, 0, 0, 0, 0, 0, 0, 0, 0, 0, 0, 0, 0, 0, 0,0.0,0.0,0.0,1.0,0.0,0.0,0.0,0.0,0.0,0.0,0.0,0.0,0.0,10,src\main\java\org\apache\hadoop\chukwa\analysis\salsa\fsm\FSMIntermedEntryPartitioner.java,0,0,0,0
org.apache.hadoop.chukwa.analysis.salsa.fsm.FSMType, 0, 0, 1, 0, 0, 0, 0, 0, 0, 0, 0, 0, 0, 1,1.0,0.0,0.0,0.0,0.0,0.0,0.0,1.0,0.0,0.0,0.0,0.0,0.0,10,src\main\java\org\apache\hadoop\chukwa\analysis\salsa\fsm\FSMType.java,0,0,0,0
org.apache.hadoop.chukwa.analysis.salsa.fsm.HDFSState, 0, 0, 1, 0, 0, 0, 0, 0, 0, 0, 0, 0, 0, 1,0.0,0.0,0.0,0.0,0.0,0.0,0.0,0.0,0.0,0.0,0.0,0.0,0.0,12,src\main\java\org\apache\hadoop\chukwa\analysis\salsa\fsm\HDFSState.java,0,0,0,0
org.apache.hadoop.chukwa.analysis.salsa.fsm.JobHistoryTaskDataMapper, 1, 0, 0, 0, 0, 0, 0, 1, 0, 0, 0, 0, 0, 2,0.0,0.0,0.6,0.2,0.0,0.0,0.0,0.0,0.0,0.0,0.0,0.0,0.0,292,src\main\java\org\apache\hadoop\chukwa\analysis\salsa\fsm\JobHistoryTaskDataMapper.java,0,0,0,0
org.apache.hadoop.chukwa.analysis.salsa.fsm.MapRedState, 0, 0, 1, 0, 0, 0, 0, 0, 0, 0, 0, 0, 0, 1,1.0,0.0,0.0,0.0,0.0,0.0,0.0,1.0,0.0,0.0,0.0,0.0,0.0,15,src\main\java\org\apache\hadoop\chukwa\analysis\salsa\fsm\MapRedState.java,0,0,0,0
org.apache.hadoop.chukwa.analysis.salsa.fsm.ParseUtilities, 0, 0, 0, 0, 0, 0, 0, 0, 0, 0, 0, 0, 0, 0,1.0,0.0,0.0,0.0,0.0,0.0,0.0,1.0,0.0,0.0,0.0,0.0,0.0,34,src\main\java\org\apache\hadoop\chukwa\analysis\salsa\fsm\ParseUtilities.java,0,0,0,0
org.apache.hadoop.chukwa.analysis.salsa.fsm.StateType, 0, 0, 1, 0, 0, 0, 0, 0, 0, 0, 0, 0, 0, 1,1.0,0.0,0.0,0.0,0.0,0.0,0.0,1.0,0.0,0.0,0.0,0.0,0.0,10,src\main\java\org\apache\hadoop\chukwa\analysis\salsa\fsm\StateType.java,0,0,0,0
org.apache.hadoop.chukwa.datacollection.ChunkQueue, 0, 0, 0, 0, 0, 0, 0, 0, 0, 0, 0, 0, 0, 0,0.0,0.0,0.0,0.0,0.0,0.0,0.0,0.0,0.0,0.0,0.0,0.0,0.0,10,src\main\java\org\apache\hadoop\chukwa\datacollection\ChunkQueue.java,0,0,0,0
org.apache.hadoop.chukwa.datacollection.ChunkReceiver, 0, 0, 0, 0, 0, 0, 0, 0, 0, 0, 0, 0, 0, 0,0.0,0.0,0.0,0.0,0.0,0.0,0.0,0.0,0.0,0.0,0.0,0.0,0.0,10,src\main\java\org\apache\hadoop\chukwa\datacollection\ChunkReceiver.java,0,0,0,0
org.apache.hadoop.chukwa.datacollection.TestOffsetStatsManager, 0, 0, 0, 0, 0, 0, 0, 0, 0, 0, 0, 0, 0, 0,0.0,0.0,0.0,0.0,0.0,0.0,0.0,0.0,0.0,0.0,0.0,0.0,0.0,34,src\test\java\org\apache\hadoop\chukwa\datacollection\TestOffsetStatsManager.java,0,0,2,4
org.apache.hadoop.chukwa.datacollection.adaptor.AbstractAdaptor, 0, 0, 0, 0, 0, 0, 0, 0, 0, 0, 0, 0, 0, 0,0.38461538461538464,0.0,0.07692307692307693,0.23076923076923078,0.0,0.0,0.0,0.0,0.0,0.0,0.0,0.0,0.0,35,src\main\java\org\apache\hadoop\chukwa\datacollection\adaptor\AbstractAdaptor.java,0,0,0,0
org.apache.hadoop.chukwa.datacollection.adaptor.Adaptor, 0, 0, 0, 0, 0, 0, 0, 0, 0, 0, 0, 0, 0, 0,0.0,0.0,0.0,0.0,0.0,0.0,0.0,0.0,0.0,0.0,0.0,0.0,0.0,35,src\main\java\org\apache\hadoop\chukwa\datacollection\adaptor\Adaptor.java,0,0,0,0
org.apache.hadoop.chukwa.datacollection.adaptor.AdaptorException, 0, 0, 0, 0, 0, 0, 0, 0, 0, 0, 0, 0, 0, 0,0.0,0.0,0.0,0.0,0.0,0.0,0.0,0.0,0.0,0.0,0.0,0.0,0.0,15,src\main\java\org\apache\hadoop\chukwa\datacollection\adaptor\AdaptorException.java,0,0,0,0
org.apache.hadoop.chukwa.datacollection.adaptor.ChukwaTestAdaptor, 0, 0, 0, 0, 0, 0, 0, 0, 0, 0, 0, 0, 0, 0,0.0,0.0,0.0,0.0,0.0,0.0,0.0,0.0,0.0,0.0,0.0,0.0,0.0,35,src\test\java\org\apache\hadoop\chukwa\datacollection\adaptor\ChukwaTestAdaptor.java,0,0,0,0
org.apache.hadoop.chukwa.datacollection.adaptor.DirTailingAdaptor, 1, 0, 0, 0, 0, 0, 0, 0, 0, 0, 0, 0, 0, 1,0.0,0.0,0.0,0.0,0.0,0.0,0.0,0.0,0.0,0.0,0.0,0.0,0.0,90,src\main\java\org\apache\hadoop\chukwa\datacollection\adaptor\DirTailingAdaptor.java,0,0,0,0
org.apache.hadoop.chukwa.datacollection.adaptor.FileAdaptor, 1, 0, 0, 1, 0, 0, 0, 0, 0, 0, 0, 0, 0, 2,0.3333333333333333,0.0,0.0,0.0,0.0,0.0,0.0,0.0,0.0,0.0,0.0,0.0,0.0,165,src\main\java\org\apache\hadoop\chukwa\datacollection\adaptor\FileAdaptor.java,0,0,0,0
org.apache.hadoop.chukwa.datacollection.adaptor.FileAdaptorTailer, 1, 0, 0, 0, 0, 0, 0, 0, 0, 0, 0, 0, 0, 1,1.0,0.0,0.0,1.0,0.0,0.0,0.0,0.0,0.0,0.0,0.0,0.0,0.0,60,src\main\java\org\apache\hadoop\chukwa\datacollection\adaptor\FileAdaptor.java,0,0,0,0
org.apache.hadoop.chukwa.datacollection.adaptor.NotifyOnCommitAdaptor, 0, 0, 0, 0, 0, 0, 0, 0, 0, 0, 0, 0, 0, 0,0.0,0.0,0.0,0.0,0.0,0.0,0.0,0.0,0.0,0.0,0.0,0.0,0.0,60,src\main\java\org\apache\hadoop\chukwa\datacollection\adaptor\NotifyOnCommitAdaptor.java,0,0,0,0
org.apache.hadoop.chukwa.datacollection.adaptor.RegExDirTailingAdaptor, 0, 0, 0, 0, 0, 0, 0, 0, 0, 0, 0, 0, 0, 0,1.0,0.0,0.0,0.0,0.0,0.0,0.0,0.0,0.0,0.0,0.0,0.0,0.0,6,src\main\java\org\apache\hadoop\chukwa\datacollection\adaptor\RegExDirTailingAdaptor.java,0,0,0,0
org.apache.hadoop.chukwa.datacollection.adaptor.SocketAdaptor, 0, 0, 0, 0, 0, 0, 0, 0, 0, 0, 0, 0, 0, 0,0.0,0.0,0.0,0.0,0.0,0.0,0.0,0.0,0.0,0.0,0.0,0.0,0.0,127,src\main\java\org\apache\hadoop\chukwa\datacollection\adaptor\SocketAdaptor.java,0,35,1,37
org.apache.hadoop.chukwa.datacollection.adaptor.TestBufferingWrappers, 1, 0, 0, 0, 0, 0, 0, 0, 0, 0, 0, 0, 0, 1,0.0,0.0,0.0,0.0,0.0,0.0,0.0,0.0,0.0,0.0,0.0,0.0,0.0,63,src\test\java\org\apache\hadoop\chukwa\datacollection\adaptor\TestBufferingWrappers.java,0,0,0,0
org.apache.hadoop.chukwa.datacollection.adaptor.TestExecAdaptor, 0, 0, 0, 0, 0, 0, 0, 0, 0, 0, 0, 0, 0, 0,0.0,0.0,0.0,0.0,0.0,0.0,0.0,0.0,0.0,0.0,0.0,0.0,0.0,30,src\test\java\org\apache\hadoop\chukwa\datacollection\adaptor\TestExecAdaptor.java,5,7,3,18
org.apache.hadoop.chukwa.datacollection.adaptor.TestFileAdaptor, 1, 0, 0, 0, 0, 0, 0, 0, 0, 0, 0, 0, 0, 1,0.0,0.0,0.0,0.0,0.0,0.0,0.0,0.0,0.0,0.0,0.0,0.0,0.0,56,src\test\java\org\apache\hadoop\chukwa\datacollection\adaptor\TestFileAdaptor.java,0,0,0,0
org.apache.hadoop.chukwa.datacollection.adaptor.TestSyslogAdaptor, 0, 0, 0, 0, 0, 0, 0, 0, 0, 0, 0, 0, 0, 0,0.0,0.0,0.0,0.0,0.0,0.0,0.0,0.0,0.0,0.0,0.0,0.0,0.0,28,src\test\java\org\apache\hadoop\chukwa\datacollection\adaptor\TestSyslogAdaptor.java,0,0,1,2
org.apache.hadoop.chukwa.datacollection.adaptor.TestUDPAdaptor, 0, 0, 0, 0, 0, 0, 0, 0, 0, 0, 0, 0, 0, 0,0.0,0.0,0.0,0.0,0.0,0.0,0.0,0.0,0.0,0.0,0.0,0.0,0.0,27,src\test\java\org\apache\hadoop\chukwa\datacollection\adaptor\TestUDPAdaptor.java,0,0,0,0
org.apache.hadoop.chukwa.datacollection.adaptor.UDPAdaptor, 1, 0, 0, 0, 0, 0, 0, 0, 0, 0, 0, 0, 0, 1,0.0,0.0,0.0,0.0,0.0,0.0,0.0,0.0,0.0,0.0,0.0,0.0,0.0,63,src\main\java\org\apache\hadoop\chukwa\datacollection\adaptor\UDPAdaptor.java,0,0,0,0
org.apache.hadoop.chukwa.datacollection.adaptor.WriteaheadBuffered, 1, 0, 0, 0, 0, 0, 0, 0, 0, 0, 0, 0, 0, 1,0.0,0.0,0.0,0.0,0.0,0.0,0.0,0.0,0.0,0.0,0.0,0.0,0.0,83,src\main\java\org\apache\hadoop\chukwa\datacollection\adaptor\WriteaheadBuffered.java,0,0,0,0
org.apache.hadoop.chukwa.datacollection.adaptor.filetailer.CharFileTailingAdaptorUTF8, 0, 0, 0, 0, 0, 0, 0, 0, 0, 0, 0, 0, 0, 0,1.0,0.0,1.0,0.0,0.0,0.0,0.0,0.0,0.0,0.0,0.0,0.0,0.0,27,src\main\java\org\apache\hadoop\chukwa\datacollection\adaptor\filetailer\CharFileTailingAdaptorUTF8.java,0,0,0,0
org.apache.hadoop.chukwa.datacollection.adaptor.filetailer.CharFileTailingAdaptorUTF8NewLineEscaped, 0, 0, 0, 0, 0, 0, 0, 0, 0, 0, 0, 0, 0, 0,1.0,0.0,1.0,0.0,0.0,0.0,0.0,0.0,0.0,0.0,0.0,0.0,0.0,44,src\main\java\org\apache\hadoop\chukwa\datacollection\adaptor\filetailer\CharFileTailingAdaptorUTF8NewLineEscaped.java,0,0,0,0
org.apache.hadoop.chukwa.datacollection.adaptor.filetailer.FileTailer, 1, 0, 0, 0, 0, 0, 0, 0, 0, 0, 0, 0, 0, 1,1.0,0.0,1.0,0.0,0.0,0.0,0.0,0.0,0.0,0.0,0.0,0.0,0.0,43,src\main\java\org\apache\hadoop\chukwa\datacollection\adaptor\filetailer\FileTailer.java,0,0,1,2
org.apache.hadoop.chukwa.datacollection.adaptor.filetailer.FileTailingAdaptor, 1, 0, 1, 0, 0, 0, 0, 0, 0, 0, 0, 0, 0, 2,0.16666666666666666,0.0,0.0,0.0,0.0,0.0,0.0,0.0,0.0,0.0,0.0,0.0,0.0,162,src\main\java\org\apache\hadoop\chukwa\datacollection\adaptor\filetailer\FileTailingAdaptor.java,21,23,4,52
org.apache.hadoop.chukwa.datacollection.adaptor.filetailer.TerminatorThread, 0, 0, 0, 0, 0, 0, 0, 0, 0, 0, 0, 0, 0, 0,0.5,0.0,0.5,0.0,0.0,0.0,0.0,0.0,0.0,0.0,0.0,0.0,0.0,44,src\main\java\org\apache\hadoop\chukwa\datacollection\adaptor\filetailer\TerminatorThread.java,0,0,0,0
org.apache.hadoop.chukwa.datacollection.adaptor.filetailer.TestFileExpirationPolicy, 0, 0, 0, 0, 0, 0, 0, 0, 0, 0, 0, 0, 0, 0,0.0,0.0,0.0,0.0,0.0,0.0,0.0,0.0,0.0,0.0,0.0,0.0,0.0,81,src\test\java\org\apache\hadoop\chukwa\datacollection\adaptor\filetailer\TestFileExpirationPolicy.java,0,0,0,0
org.apache.hadoop.chukwa.datacollection.adaptor.filetailer.TestFileTailingAdaptorBigRecord, 0, 0, 0, 0, 0, 0, 0, 0, 0, 0, 0, 0, 0, 0,0.0,0.0,0.0,0.0,0.0,0.0,0.0,0.0,0.0,0.0,0.0,0.0,0.0,72,src\test\java\org\apache\hadoop\chukwa\datacollection\adaptor\filetailer\TestFileTailingAdaptorBigRecord.java,0,0,0,0
org.apache.hadoop.chukwa.datacollection.adaptor.filetailer.TestRCheckAdaptor, 0, 0, 0, 0, 0, 0, 0, 0, 0, 0, 0, 0, 0, 0,0.0,0.0,0.0,0.0,0.0,0.0,0.0,0.0,0.0,0.0,0.0,0.0,0.0,104,src\test\java\org\apache\hadoop\chukwa\datacollection\adaptor\filetailer\TestRCheckAdaptor.java,3,25,6,40
org.apache.hadoop.chukwa.datacollection.adaptor.jms.JMSAdaptor, 1, 0, 0, 1, 0, 0, 0, 0, 0, 0, 0, 0, 0, 2,0.0,0.0,0.0,0.0,0.0,0.0,0.0,0.0,0.0,0.0,0.0,0.0,0.0,191,src\main\java\org\apache\hadoop\chukwa\datacollection\adaptor\jms\JMSAdaptor.java,0,0,0,0
org.apache.hadoop.chukwa.datacollection.adaptor.jms.JMSMessageTransformer, 0, 0, 0, 0, 0, 0, 0, 0, 0, 0, 0, 0, 0, 0,0.0,0.0,0.0,0.0,0.0,0.0,0.0,0.0,0.0,0.0,0.0,0.0,0.0,191,src\main\java\org\apache\hadoop\chukwa\datacollection\adaptor\jms\JMSMessageTransformer.java,0,0,0,0
org.apache.hadoop.chukwa.datacollection.adaptor.jms.JMSTextMessageTransformer, 0, 0, 0, 0, 0, 0, 0, 0, 0, 0, 0, 0, 0, 0,0.0,0.0,0.0,0.0,0.0,0.0,0.0,0.0,0.0,0.0,0.0,0.0,0.0,17,src\main\java\org\apache\hadoop\chukwa\datacollection\adaptor\jms\JMSTextMessageTransformer.java,0,0,0,0
org.apache.hadoop.chukwa.datacollection.adaptor.jms.TestJMSAdaptor, 0, 0, 0, 0, 0, 0, 0, 0, 0, 0, 0, 0, 0, 0,0.0,0.0,0.0,0.0,0.0,0.0,0.0,0.0,0.0,0.0,0.0,0.0,0.0,91,src\test\java\org\apache\hadoop\chukwa\datacollection\adaptor\jms\TestJMSAdaptor.java,0,0,0,0
org.apache.hadoop.chukwa.datacollection.adaptor.jms.TestJMSMessagePropertyTransformer, 0, 0, 0, 1, 0, 0, 0, 0, 0, 0, 0, 0, 0, 1,0.0,0.0,0.0,0.0,0.0,0.0,0.0,0.0,0.0,0.0,0.0,0.0,0.0,197,src\test\java\org\apache\hadoop\chukwa\datacollection\adaptor\jms\TestJMSMessagePropertyTransformer.java,0,0,0,0
org.apache.hadoop.chukwa.datacollection.agent.AdaptorFactory, 1, 0, 0, 0, 0, 0, 0, 0, 0, 0, 0, 0, 0, 1,1.0,0.0,0.0,0.0,0.0,0.0,0.0,1.0,0.0,0.0,0.0,0.0,0.0,34,src\main\java\org\apache\hadoop\chukwa\datacollection\agent\AdaptorFactory.java,0,0,0,0
org.apache.hadoop.chukwa.datacollection.agent.MemLimitQueue, 1, 0, 0, 0, 0, 0, 0, 0, 0, 0, 0, 0, 0, 1,0.0,0.0,1.0,0.0,0.0,0.0,0.0,0.0,0.0,0.0,0.0,0.0,0.0,62,src\main\java\org\apache\hadoop\chukwa\datacollection\agent\MemLimitQueue.java,0,19,3,25
org.apache.hadoop.chukwa.datacollection.agent.TestAgent, 0, 0, 0, 0, 0, 0, 0, 0, 0, 0, 0, 0, 0, 0,0.0,0.0,0.0,0.0,0.0,0.0,0.0,0.0,0.0,0.0,0.0,0.0,0.0,59,src\test\java\org\apache\hadoop\chukwa\datacollection\agent\TestAgent.java,0,0,0,0
org.apache.hadoop.chukwa.datacollection.agent.TestAgentConfig, 0, 0, 0, 0, 0, 0, 0, 0, 0, 0, 0, 0, 0, 0,0.0,0.0,0.0,0.0,0.0,0.0,0.0,0.0,0.0,0.0,0.0,0.0,0.0,108,src\test\java\org\apache\hadoop\chukwa\datacollection\agent\TestAgentConfig.java,0,0,0,0
org.apache.hadoop.chukwa.datacollection.agent.TestCmd, 0, 0, 0, 0, 0, 0, 0, 0, 0, 0, 0, 0, 0, 0,0.0,0.0,0.0,0.0,0.0,0.0,0.0,0.0,0.0,0.0,0.0,0.0,0.0,112,src\test\java\org\apache\hadoop\chukwa\datacollection\agent\TestCmd.java,0,0,0,0
org.apache.hadoop.chukwa.datacollection.agent.WaitingQueue, 1, 0, 0, 0, 0, 0, 0, 0, 0, 0, 0, 0, 0, 1,0.0,0.0,0.0,0.0,0.0,0.0,0.0,0.0,0.0,0.0,0.0,0.0,0.0,29,src\main\java\org\apache\hadoop\chukwa\datacollection\agent\WaitingQueue.java,0,0,0,0
org.apache.hadoop.chukwa.datacollection.agent.metrics.AgentActivityMBean, 0, 0, 0, 0, 0, 0, 0, 0, 0, 0, 0, 0, 0, 0,0.0,0.0,1.0,0.0,0.0,0.0,0.0,0.0,0.0,0.0,0.0,0.0,0.0,12,src\main\java\org\apache\hadoop\chukwa\datacollection\agent\metrics\AgentActivityMBean.java,0,0,0,0
org.apache.hadoop.chukwa.datacollection.agent.metrics.AgentMetrics, 0, 0, 1, 0, 0, 0, 0, 0, 0, 0, 0, 0, 0, 1,0.0,0.0,0.0,0.0,0.0,0.0,0.0,0.0,0.0,0.0,0.0,0.0,0.0,31,src\main\java\org\apache\hadoop\chukwa\datacollection\agent\metrics\AgentMetrics.java,0,0,0,0
org.apache.hadoop.chukwa.datacollection.agent.metrics.ChunkQueueActivityMBean, 0, 0, 0, 0, 0, 0, 0, 0, 0, 0, 0, 0, 0, 0,0.0,0.0,1.0,0.0,0.0,0.0,0.0,0.0,0.0,0.0,0.0,0.0,0.0,12,src\main\java\org\apache\hadoop\chukwa\datacollection\agent\metrics\ChunkQueueActivityMBean.java,0,0,0,0
org.apache.hadoop.chukwa.datacollection.agent.metrics.ChunkQueueMetrics, 0, 0, 1, 0, 0, 0, 0, 0, 0, 0, 0, 0, 0, 1,0.5,0.0,0.0,0.0,0.0,0.0,0.0,0.0,0.0,0.0,0.0,0.0,0.0,33,src\main\java\org\apache\hadoop\chukwa\datacollection\agent\metrics\ChunkQueueMetrics.java,0,0,0,0
org.apache.hadoop.chukwa.datacollection.agent.rest.TestAdaptorController, 0, 0, 0, 1, 0, 0, 0, 0, 0, 0, 0, 0, 0, 1,0.0,0.0,0.0,0.0,0.0,0.0,0.0,0.0,0.0,0.0,0.0,0.0,0.0,173,src\test\java\org\apache\hadoop\chukwa\datacollection\agent\rest\TestAdaptorController.java,48,11,22,103
org.apache.hadoop.chukwa.datacollection.collector.CaptureWriter, 1, 0, 1, 0, 0, 0, 0, 0, 0, 0, 0, 0, 0, 2,0.0,0.0,0.0,0.0,0.0,0.0,0.0,0.0,0.0,0.0,0.0,0.0,0.0,17,src\test\java\org\apache\hadoop\chukwa\datacollection\collector\CaptureWriter.java,0,0,0,0
org.apache.hadoop.chukwa.datacollection.collector.TestAdaptorTimeout, 1, 0, 0, 0, 0, 0, 0, 0, 0, 0, 0, 0, 0, 1,0.5,0.0,0.0,0.5,0.0,0.0,0.0,0.0,0.0,0.0,0.0,0.0,0.0,31,src\test\java\org\apache\hadoop\chukwa\datacollection\collector\TestAdaptorTimeout.java,0,0,0,0
org.apache.hadoop.chukwa.datacollection.collector.TestBackpressure, 0, 0, 0, 0, 0, 0, 0, 0, 0, 0, 0, 0, 0, 0,1.0,0.0,0.0,1.0,0.0,0.0,0.0,0.0,0.0,0.0,0.0,0.0,0.0,39,src\test\java\org\apache\hadoop\chukwa\datacollection\collector\TestBackpressure.java,0,0,1,2
org.apache.hadoop.chukwa.datacollection.collector.TestCollector, 0, 0, 0, 0, 0, 0, 0, 0, 0, 0, 0, 0, 0, 0,1.0,0.0,0.0,1.0,0.0,0.0,0.0,0.0,0.0,0.0,0.0,0.0,0.0,33,src\test\java\org\apache\hadoop\chukwa\datacollection\collector\TestCollector.java,0,0,0,0
org.apache.hadoop.chukwa.datacollection.collector.TestFailedCollectorAck, 0, 0, 0, 0, 0, 0, 0, 0, 0, 0, 0, 0, 0, 0,0.6666666666666666,0.0,0.0,0.6666666666666666,0.0,0.0,0.0,0.0,0.0,0.0,0.0,0.0,0.0,84,src\test\java\org\apache\hadoop\chukwa\datacollection\collector\TestFailedCollectorAck.java,0,0,0,0
org.apache.hadoop.chukwa.datacollection.connector.ChunkCatcherConnector, 0, 0, 0, 0, 0, 0, 0, 0, 0, 0, 0, 0, 0, 0,0.3333333333333333,0.0,0.0,0.0,0.0,0.0,0.0,0.0,0.0,0.0,0.0,0.0,0.0,50,src\main\java\org\apache\hadoop\chukwa\datacollection\connector\ChunkCatcherConnector.java,0,0,0,0
org.apache.hadoop.chukwa.datacollection.connector.Connector, 0, 0, 0, 0, 0, 0, 0, 0, 0, 0, 0, 0, 0, 0,0.0,0.0,0.0,0.0,0.0,0.0,0.0,0.0,0.0,0.0,0.0,0.0,0.0,50,src\main\java\org\apache\hadoop\chukwa\datacollection\connector\Connector.java,0,0,0,0
org.apache.hadoop.chukwa.datacollection.connector.TestFailedCollector, 0, 0, 0, 0, 0, 0, 0, 0, 0, 0, 0, 0, 0, 0,0.5,0.0,0.0,0.5,0.0,0.0,0.0,0.0,0.0,0.0,0.0,0.0,0.0,26,src\test\java\org\apache\hadoop\chukwa\datacollection\connector\TestFailedCollector.java,0,0,1,2
org.apache.hadoop.chukwa.datacollection.connector.http.HttpConnector, 1, 0, 0, 1, 0, 0, 0, 0, 0, 0, 0, 0, 0, 2,0.42857142857142855,0.0,0.0,0.14285714285714285,0.0,0.0,0.0,0.0,0.0,0.0,0.0,0.0,0.0,135,src\main\java\org\apache\hadoop\chukwa\datacollection\connector\http\HttpConnector.java,0,0,0,0
org.apache.hadoop.chukwa.datacollection.controller.ClientFinalizer, 0, 0, 0, 0, 0, 0, 0, 0, 0, 0, 0, 0, 0, 0,1.0,0.0,0.0,0.0,0.0,0.0,0.0,0.0,0.0,0.0,0.0,0.0,0.0,17,src\main\java\org\apache\hadoop\chukwa\datacollection\controller\ClientFinalizer.java,0,0,0,0
org.apache.hadoop.chukwa.datacollection.sender.ChukwaHttpSender, 1, 0, 0, 1, 0, 0, 0, 0, 0, 0, 0, 0, 0, 2,0.25,0.0,0.25,0.25,0.0,0.0,0.0,0.0,0.0,0.0,0.0,0.0,0.0,191,src\main\java\org\apache\hadoop\chukwa\datacollection\sender\ChukwaHttpSender.java,1,50,5,61
org.apache.hadoop.chukwa.datacollection.sender.ChukwaSender, 0, 0, 0, 0, 0, 0, 0, 0, 0, 0, 0, 0, 0, 0,0.0,0.0,0.0,0.0,0.0,0.0,0.0,0.0,0.0,0.0,0.0,0.0,0.0,191,src\main\java\org\apache\hadoop\chukwa\datacollection\sender\ChukwaSender.java,0,0,0,0
org.apache.hadoop.chukwa.datacollection.sender.TestAcksOnFailure, 0, 0, 0, 0, 0, 0, 0, 0, 0, 0, 0, 0, 0, 0,1.0,0.0,0.0,1.0,0.0,0.0,0.0,0.0,0.0,0.0,0.0,0.0,0.0,21,src\test\java\org\apache\hadoop\chukwa\datacollection\sender\TestAcksOnFailure.java,0,0,0,0
org.apache.hadoop.chukwa.datacollection.sender.TestRetryListOfCollectors, 0, 0, 0, 0, 0, 0, 0, 0, 0, 0, 0, 0, 0, 0,0.0,0.0,0.0,0.0,0.0,0.0,0.0,0.0,0.0,0.0,0.0,0.0,0.0,63,src\test\java\org\apache\hadoop\chukwa\datacollection\sender\TestRetryListOfCollectors.java,0,0,0,0
org.apache.hadoop.chukwa.datacollection.sender.metrics.HttpSenderActivityMBean, 0, 0, 0, 0, 0, 0, 0, 0, 0, 0, 0, 0, 0, 0,0.0,0.0,1.0,0.0,0.0,0.0,0.0,0.0,0.0,0.0,0.0,0.0,0.0,12,src\main\java\org\apache\hadoop\chukwa\datacollection\sender\metrics\HttpSenderActivityMBean.java,0,0,0,0
org.apache.hadoop.chukwa.datacollection.sender.metrics.HttpSenderMetrics, 0, 0, 1, 0, 0, 0, 0, 0, 0, 0, 0, 0, 0, 1,0.5,0.0,0.0,0.5,0.0,0.0,0.0,0.0,0.0,0.0,0.0,0.0,0.0,34,src\main\java\org\apache\hadoop\chukwa\datacollection\sender\metrics\HttpSenderMetrics.java,0,0,0,0
org.apache.hadoop.chukwa.datacollection.test.ConsoleOutConnector, 0, 0, 0, 0, 0, 0, 0, 0, 0, 0, 0, 0, 0, 0,0.0,0.0,0.0,0.0,0.0,0.0,0.0,0.0,0.0,0.0,0.0,0.0,0.0,48,src\main\java\org\apache\hadoop\chukwa\datacollection\test\ConsoleOutConnector.java,0,0,0,0
org.apache.hadoop.chukwa.datacollection.test.FilePerPostWriter, 0, 0, 0, 0, 0, 0, 0, 0, 0, 0, 0, 0, 0, 0,0.0,0.0,0.0,1.0,0.0,0.0,0.0,0.0,0.0,0.0,0.0,0.0,0.0,66,src\main\java\org\apache\hadoop\chukwa\datacollection\test\FilePerPostWriter.java,0,0,0,0
org.apache.hadoop.chukwa.datacollection.test.FileTailerStressTest, 1, 0, 0, 0, 0, 0, 0, 0, 0, 0, 0, 0, 0, 1,0.5,0.0,0.0,0.5,0.0,0.0,0.0,0.0,0.0,0.0,0.0,0.0,0.0,61,src\main\java\org\apache\hadoop\chukwa\datacollection\test\FileTailerStressTest.java,0,0,1,2
org.apache.hadoop.chukwa.datacollection.test.SinkFileValidator, 0, 0, 0, 0, 0, 0, 0, 0, 0, 0, 0, 0, 0, 0,0.0,0.0,0.0,1.0,0.0,0.0,0.0,0.0,0.0,0.0,0.0,0.0,0.0,44,src\main\java\org\apache\hadoop\chukwa\datacollection\test\SinkFileValidator.java,0,0,0,0
org.apache.hadoop.chukwa.datacollection.writer.ChukwaWriter, 0, 0, 0, 0, 0, 0, 0, 0, 0, 0, 0, 0, 0, 0,0.0,0.0,0.0,0.0,0.0,0.0,0.0,0.0,0.0,0.0,0.0,0.0,0.0,44,src\main\java\org\apache\hadoop\chukwa\datacollection\writer\ChukwaWriter.java,0,0,0,0
org.apache.hadoop.chukwa.datacollection.writer.ClientAck, 1, 0, 0, 0, 0, 0, 0, 0, 0, 0, 0, 0, 0, 1,0.0,0.0,0.0,0.0,0.0,0.0,0.0,0.0,0.0,0.0,0.0,0.0,0.0,53,src\main\java\org\apache\hadoop\chukwa\datacollection\writer\ClientAck.java,0,0,0,0
org.apache.hadoop.chukwa.datacollection.writer.ConsoleWriter, 0, 0, 0, 0, 0, 0, 0, 0, 0, 0, 0, 0, 0, 0,1.0,0.0,0.0,0.0,0.0,0.0,0.0,0.0,0.0,0.0,0.0,0.0,0.0,58,src\main\java\org\apache\hadoop\chukwa\datacollection\writer\ConsoleWriter.java,0,0,0,0
org.apache.hadoop.chukwa.datacollection.writer.Dedup, 0, 0, 0, 0, 0, 0, 0, 0, 0, 0, 0, 0, 0, 0,0.0,0.0,0.0,0.0,0.0,0.0,0.0,0.0,0.0,0.0,0.0,0.0,0.0,73,src\main\java\org\apache\hadoop\chukwa\datacollection\writer\Dedup.java,0,0,0,0
org.apache.hadoop.chukwa.datacollection.writer.ExtractorWriter, 1, 0, 1, 0, 0, 0, 0, 0, 0, 0, 0, 0, 0, 2,0.0,0.0,0.0,0.0,0.0,0.0,0.0,0.0,0.0,0.0,0.0,0.0,0.0,18,src\main\java\org\apache\hadoop\chukwa\datacollection\writer\ExtractorWriter.java,1,0,0,1
org.apache.hadoop.chukwa.datacollection.writer.InMemoryWriter, 0, 0, 0, 0, 0, 0, 0, 0, 0, 0, 0, 0, 0, 0,0.0,0.0,0.0,0.0,0.0,0.0,0.0,0.0,0.0,0.0,0.0,0.0,0.0,47,src\main\java\org\apache\hadoop\chukwa\datacollection\writer\InMemoryWriter.java,0,0,0,0
org.apache.hadoop.chukwa.datacollection.writer.NullWriter, 0, 0, 0, 0, 0, 0, 0, 0, 0, 0, 0, 0, 0, 0,0.0,0.0,0.0,0.0,0.0,0.0,0.0,0.0,0.0,0.0,0.0,0.0,0.0,25,src\main\java\org\apache\hadoop\chukwa\datacollection\writer\NullWriter.java,0,0,0,0
org.apache.hadoop.chukwa.datacollection.writer.PipelineStageWriter, 0, 0, 0, 0, 0, 0, 0, 0, 0, 0, 0, 0, 0, 0,0.0,0.0,0.0,0.0,0.0,0.0,0.0,0.0,0.0,0.0,0.0,0.0,0.0,60,src\main\java\org\apache\hadoop\chukwa\datacollection\writer\PipelineStageWriter.java,0,22,4,30
org.apache.hadoop.chukwa.datacollection.writer.PipelineableWriter, 0, 0, 0, 0, 0, 0, 0, 0, 0, 0, 0, 0, 0, 0,0.3333333333333333,0.0,0.3333333333333333,0.0,0.0,0.0,0.0,0.0,0.0,0.0,0.0,0.0,0.0,12,src\main\java\org\apache\hadoop\chukwa\datacollection\writer\PipelineableWriter.java,0,0,0,0
org.apache.hadoop.chukwa.datacollection.writer.TestClientAck, 0, 0, 0, 0, 0, 0, 0, 0, 0, 0, 0, 0, 0, 0,1.0,0.0,0.0,0.0,0.0,0.0,0.0,0.0,0.0,0.0,0.0,0.0,0.0,13,src\test\java\org\apache\hadoop\chukwa\datacollection\writer\TestClientAck.java,0,0,0,0
org.apache.hadoop.chukwa.datacollection.writer.TestHBaseWriter, 1, 0, 0, 0, 0, 0, 0, 0, 0, 0, 0, 0, 0, 1,0.0,0.0,0.0,0.0,0.0,0.0,0.0,0.0,0.0,0.0,0.0,0.0,0.0,60,src\test\java\org\apache\hadoop\chukwa\datacollection\writer\TestHBaseWriter.java,8,7,9,33
org.apache.hadoop.chukwa.datacollection.writer.TestSocketTee, 0, 0, 0, 0, 0, 0, 0, 0, 0, 0, 0, 0, 0, 0,0.0,0.0,0.0,0.0,0.0,0.0,0.0,0.0,0.0,0.0,0.0,0.0,0.0,79,src\test\java\org\apache\hadoop\chukwa\datacollection\writer\TestSocketTee.java,0,0,2,4
org.apache.hadoop.chukwa.datacollection.writer.WriterException, 0, 0, 0, 0, 0, 0, 0, 0, 0, 0, 0, 0, 0, 0,0.0,0.0,0.0,0.0,0.0,0.0,0.0,0.0,0.0,0.0,0.0,0.0,0.0,14,src\main\java\org\apache\hadoop\chukwa\datacollection\writer\WriterException.java,0,0,0,0
org.apache.hadoop.chukwa.datacollection.writer.hbase.Annotation, 0, 0, 0, 0, 0, 0, 0, 0, 0, 0, 0, 0, 0, 0,0.0,0.0,0.0,0.0,0.0,0.0,0.0,0.0,0.0,0.0,0.0,0.0,0.0,21,src\main\java\org\apache\hadoop\chukwa\datacollection\writer\hbase\Annotation.java,0,0,0,0
org.apache.hadoop.chukwa.datacollection.writer.hbase.Reporter, 0, 0, 0, 0, 0, 0, 0, 0, 0, 0, 0, 0, 0, 0,0.0,0.0,0.0,0.0,0.0,0.0,0.0,0.0,0.0,0.0,0.0,0.0,0.0,28,src\main\java\org\apache\hadoop\chukwa\datacollection\writer\hbase\Reporter.java,0,4,0,4
org.apache.hadoop.chukwa.datacollection.writer.test.demux.TextParser, 1, 0, 0, 0, 0, 0, 0, 0, 0, 0, 0, 0, 0, 1,0.5,0.0,0.0,1.0,0.0,0.0,0.0,0.0,0.0,0.0,0.0,0.0,0.0,22,src\test\java\org\apache\hadoop\chukwa\datacollection\writer\test\demux\TextParser.java,0,0,0,0
org.apache.hadoop.chukwa.dataloader.DataLoaderFactory, 1, 0, 0, 0, 0, 0, 0, 0, 0, 0, 0, 0, 0, 1,0.0,0.0,0.0,0.0,0.0,0.0,0.0,0.0,0.0,0.0,0.0,0.0,0.0,12,src\main\java\org\apache\hadoop\chukwa\dataloader\DataLoaderFactory.java,0,0,0,0
org.apache.hadoop.chukwa.dataloader.FSMDataLoader, 0, 0, 0, 0, 0, 0, 0, 0, 0, 0, 0, 0, 0, 0,0.5,0.0,0.0,0.0,0.0,0.0,0.0,0.0,0.0,0.0,0.0,0.0,0.0,98,src\main\java\org\apache\hadoop\chukwa\dataloader\FSMDataLoader.java,0,0,0,0
org.apache.hadoop.chukwa.dataloader.MetricDataLoaderPool, 0, 0, 0, 0, 0, 0, 0, 0, 0, 0, 0, 0, 0, 0,0.5,0.0,0.0,0.0,0.0,0.0,0.0,0.0,0.0,0.0,0.0,0.0,0.0,41,src\main\java\org\apache\hadoop\chukwa\dataloader\MetricDataLoaderPool.java,0,0,0,0
org.apache.hadoop.chukwa.dataloader.TestSocketDataLoader, 0, 0, 0, 0, 0, 0, 0, 0, 0, 0, 0, 0, 0, 0,0.0,0.0,0.0,0.0,0.0,0.0,0.0,0.0,0.0,0.0,0.0,0.0,0.0,25,src\test\java\org\apache\hadoop\chukwa\dataloader\TestSocketDataLoader.java,0,0,2,4
org.apache.hadoop.chukwa.datatrigger.TriggerAction, 0, 0, 0, 0, 0, 0, 0, 0, 0, 0, 0, 0, 0, 0,0.0,0.0,0.0,0.0,0.0,0.0,0.0,0.0,0.0,0.0,0.0,0.0,0.0,25,src\main\java\org\apache\hadoop\chukwa\datatrigger\TriggerAction.java,0,0,0,0
org.apache.hadoop.chukwa.extraction.CHUKWA_CONSTANT, 0, 0, 0, 0, 0, 0, 0, 0, 0, 0, 0, 0, 0, 0,0.0,0.0,0.0,0.0,0.0,0.0,0.0,0.0,0.0,0.0,0.0,0.0,0.0,25,src\main\java\org\apache\hadoop\chukwa\extraction\CHUKWA_CONSTANT.java,0,2,0,2
org.apache.hadoop.chukwa.extraction.archive.ChukwaArchiveBuilder, 1, 0, 0, 0, 0, 0, 0, 0, 0, 0, 0, 0, 0, 1,0.0,0.0,0.0,0.0,0.0,0.0,0.0,0.0,0.0,0.0,0.0,0.0,0.0,74,src\main\java\org\apache\hadoop\chukwa\extraction\archive\ChukwaArchiveBuilder.java,0,0,0,0
org.apache.hadoop.chukwa.extraction.archive.ChukwaArchiveDailyOutputFormat, 1, 0, 0, 0, 0, 0, 0, 0, 0, 0, 0, 0, 0, 1,0.0,0.0,0.0,1.0,0.0,0.0,0.0,0.0,0.0,0.0,0.0,0.0,0.0,14,src\main\java\org\apache\hadoop\chukwa\extraction\archive\ChukwaArchiveDailyOutputFormat.java,0,0,0,0
org.apache.hadoop.chukwa.extraction.archive.ChukwaArchiveDailyPartitioner, 0, 0, 0, 0, 0, 0, 0, 0, 0, 0, 0, 0, 0, 0,0.0,0.0,0.0,1.0,0.0,0.0,0.0,0.0,0.0,0.0,0.0,0.0,0.0,11,src\main\java\org\apache\hadoop\chukwa\extraction\archive\ChukwaArchiveDailyPartitioner.java,0,0,0,0
org.apache.hadoop.chukwa.extraction.archive.ChukwaArchiveDataTypeOutputFormat, 1, 0, 0, 0, 0, 0, 0, 0, 0, 0, 0, 0, 0, 1,0.0,0.0,0.0,1.0,0.0,0.0,0.0,0.0,0.0,0.0,0.0,0.0,0.0,29,src\main\java\org\apache\hadoop\chukwa\extraction\archive\ChukwaArchiveDataTypeOutputFormat.java,0,0,0,0
org.apache.hadoop.chukwa.extraction.archive.ChukwaArchiveDataTypePartitioner, 0, 0, 0, 0, 0, 0, 0, 0, 0, 0, 0, 0, 0, 0,0.0,0.0,0.0,1.0,0.0,0.0,0.0,0.0,0.0,0.0,0.0,0.0,0.0,22,src\main\java\org\apache\hadoop\chukwa\extraction\archive\ChukwaArchiveDataTypePartitioner.java,0,0,0,0
org.apache.hadoop.chukwa.extraction.archive.ChukwaArchiveHourlyOutputFormat, 1, 0, 0, 0, 0, 0, 0, 0, 0, 0, 0, 0, 0, 1,0.0,0.0,0.0,1.0,0.0,0.0,0.0,0.0,0.0,0.0,0.0,0.0,0.0,14,src\main\java\org\apache\hadoop\chukwa\extraction\archive\ChukwaArchiveHourlyOutputFormat.java,0,0,0,0
org.apache.hadoop.chukwa.extraction.archive.ChukwaArchiveHourlyPartitioner, 0, 0, 0, 0, 0, 0, 0, 0, 0, 0, 0, 0, 0, 0,0.0,0.0,0.0,1.0,0.0,0.0,0.0,0.0,0.0,0.0,0.0,0.0,0.0,11,src\main\java\org\apache\hadoop\chukwa\extraction\archive\ChukwaArchiveHourlyPartitioner.java,0,0,0,0
org.apache.hadoop.chukwa.extraction.archive.ChukwaArchiveManager, 1, 0, 0, 0, 0, 0, 0, 0, 0, 0, 0, 0, 0, 1,0.0,0.0,0.0,0.0,0.0,0.0,0.0,0.0,0.0,0.0,0.0,0.0,0.0,184,src\main\java\org\apache\hadoop\chukwa\extraction\archive\ChukwaArchiveManager.java,0,0,0,0
org.apache.hadoop.chukwa.extraction.archive.ChukwaArchiveStreamNameOutputFormat, 0, 0, 0, 0, 0, 0, 0, 0, 0, 0, 0, 0, 0, 0,0.0,0.0,0.0,0.0,0.0,0.0,0.0,0.0,0.0,0.0,0.0,0.0,0.0,7,src\main\java\org\apache\hadoop\chukwa\extraction\archive\ChukwaArchiveStreamNameOutputFormat.java,0,0,0,0
org.apache.hadoop.chukwa.extraction.archive.ChukwaArchiveStreamNamePartitioner, 0, 0, 0, 0, 0, 0, 0, 0, 0, 0, 0, 0, 0, 0,0.0,0.0,0.0,1.0,0.0,0.0,0.0,0.0,0.0,0.0,0.0,0.0,0.0,10,src\main\java\org\apache\hadoop\chukwa\extraction\archive\ChukwaArchiveStreamNamePartitioner.java,0,0,0,0
org.apache.hadoop.chukwa.extraction.archive.SinkArchiver, 1, 0, 0, 0, 0, 0, 0, 0, 0, 0, 0, 0, 0, 1,0.0,0.0,0.0,0.0,0.0,0.0,0.0,0.0,0.0,0.0,0.0,0.0,0.0,106,src\main\java\org\apache\hadoop\chukwa\extraction\archive\SinkArchiver.java,0,0,0,0
org.apache.hadoop.chukwa.extraction.archive.TestArchive, 0, 0, 0, 0, 0, 0, 0, 0, 0, 0, 0, 0, 0, 0,0.5,0.0,0.0,0.0,0.0,0.0,0.0,0.0,0.0,0.0,0.0,0.0,0.0,76,src\test\java\org\apache\hadoop\chukwa\extraction\archive\TestArchive.java,0,0,0,0
org.apache.hadoop.chukwa.extraction.demux.ChukwaRecordOutputFormat, 1, 0, 0, 0, 0, 0, 0, 0, 0, 0, 0, 0, 0, 1,0.5,0.0,0.0,0.5,0.0,0.0,0.0,0.0,0.0,0.0,0.0,0.0,0.0,12,src\main\java\org\apache\hadoop\chukwa\extraction\demux\ChukwaRecordOutputFormat.java,0,2,1,4
org.apache.hadoop.chukwa.extraction.demux.ChukwaRecordPartitioner, 1, 0, 0, 0, 0, 0, 0, 0, 0, 0, 0, 0, 0, 1,0.0,0.0,0.0,1.0,0.0,0.0,0.0,0.0,0.0,0.0,0.0,0.0,0.0,20,src\main\java\org\apache\hadoop\chukwa\extraction\demux\ChukwaRecordPartitioner.java,0,3,1,5
org.apache.hadoop.chukwa.extraction.demux.DailyChukwaRecordRolling, 1, 0, 0, 0, 0, 0, 0, 0, 0, 0, 0, 0, 0, 1,0.3333333333333333,0.0,0.0,0.0,0.0,0.0,0.0,0.3333333333333333,0.0,0.0,0.0,0.0,0.0,184,src\main\java\org\apache\hadoop\chukwa\extraction\demux\DailyChukwaRecordRolling.java,0,5,2,9
org.apache.hadoop.chukwa.extraction.demux.Demux, 1, 0, 1, 0, 0, 0, 0, 0, 0, 0, 0, 0, 0, 2,0.5,0.0,0.0,0.5,0.0,0.0,0.0,0.5,0.0,0.0,0.0,0.0,0.0,151,src\main\java\org\apache\hadoop\chukwa\extraction\demux\Demux.java,1,10,6,23
org.apache.hadoop.chukwa.extraction.demux.DemuxManager, 1, 0, 0, 1, 0, 0, 0, 1, 0, 0, 0, 0, 0, 3,0.5,0.0,0.25,0.0,0.0,0.0,0.0,0.25,0.0,0.0,0.0,0.0,0.0,288,src\main\java\org\apache\hadoop\chukwa\extraction\demux\DemuxManager.java,0,4,2,8
org.apache.hadoop.chukwa.extraction.demux.DoMerge, 0, 0, 0, 0, 0, 0, 0, 1, 0, 0, 0, 0, 0, 1,1.0,0.0,0.0,0.0,0.0,0.0,0.0,0.0,0.0,0.0,0.0,0.0,0.0,35,src\main\java\org\apache\hadoop\chukwa\extraction\demux\DemuxManager.java,0,4,2,8
org.apache.hadoop.chukwa.extraction.demux.EventFileFilter, 0, 0, 0, 0, 0, 0, 0, 0, 0, 0, 0, 0, 0, 0,0.0,0.0,0.0,0.0,0.0,0.0,0.0,0.0,0.0,0.0,0.0,0.0,0.0,4,src\main\java\org\apache\hadoop\chukwa\extraction\demux\DemuxManager.java,0,4,2,8
org.apache.hadoop.chukwa.extraction.demux.HourlyChukwaRecordRolling, 1, 0, 0, 0, 0, 0, 0, 1, 0, 0, 0, 0, 0, 2,0.5,0.0,0.0,0.0,0.0,0.0,0.0,0.5,0.0,0.0,0.0,0.0,0.0,149,src\main\java\org\apache\hadoop\chukwa\extraction\demux\HourlyChukwaRecordRolling.java,0,5,2,9
org.apache.hadoop.chukwa.extraction.demux.MockTriggerAction, 0, 0, 0, 0, 0, 0, 0, 0, 0, 0, 0, 0, 0, 0,0.0,0.0,0.0,0.0,0.0,0.0,0.0,0.0,0.0,0.0,0.0,0.0,0.0,13,src\test\java\org\apache\hadoop\chukwa\extraction\demux\MockTriggerAction.java,0,0,0,0
org.apache.hadoop.chukwa.extraction.demux.MoveOrMergeRecordFile, 1, 0, 0, 0, 0, 0, 0, 0, 0, 0, 0, 0, 0, 1,0.0,0.0,0.0,0.0,0.0,0.0,0.0,1.0,0.0,0.0,0.0,0.0,0.0,100,src\main\java\org\apache\hadoop\chukwa\extraction\demux\MoveOrMergeRecordFile.java,0,0,0,0
org.apache.hadoop.chukwa.extraction.demux.MoveToRepository, 1, 0, 0, 0, 0, 0, 0, 1, 0, 0, 0, 0, 0, 2,0.0,0.0,0.0,0.0,0.0,0.0,0.0,0.0,0.0,0.0,0.0,0.0,0.0,194,src\main\java\org\apache\hadoop\chukwa\extraction\demux\MoveToRepository.java,0,20,11,42
org.apache.hadoop.chukwa.extraction.demux.RecordMerger, 1, 0, 0, 0, 0, 0, 0, 1, 0, 0, 0, 0, 0, 2,0.6666666666666666,0.0,0.0,0.0,0.0,0.0,0.0,0.3333333333333333,0.0,0.0,0.0,0.0,0.0,84,src\main\java\org\apache\hadoop\chukwa\extraction\demux\RecordMerger.java,0,0,0,0
org.apache.hadoop.chukwa.extraction.demux.TaggerPlugin, 0, 0, 0, 0, 0, 0, 0, 0, 0, 0, 0, 0, 0, 0,0.0,0.0,0.0,0.0,0.0,0.0,0.0,0.0,0.0,0.0,0.0,0.0,0.0,84,src\main\java\org\apache\hadoop\chukwa\extraction\demux\TaggerPlugin.java,0,0,0,0
org.apache.hadoop.chukwa.extraction.demux.TestDemux, 0, 0, 0, 0, 0, 0, 0, 0, 0, 0, 0, 0, 0, 0,0.0,0.0,0.0,1.0,0.0,0.0,0.0,0.0,0.0,0.0,0.0,0.0,0.0,71,src\test\java\org\apache\hadoop\chukwa\extraction\demux\TestDemux.java,0,10,1,12
org.apache.hadoop.chukwa.extraction.demux.TestDemuxManager, 0, 0, 0, 0, 0, 0, 0, 0, 0, 0, 0, 0, 0, 0,1.0,0.0,0.0,1.0,0.0,0.0,0.0,1.0,0.0,0.0,0.0,0.0,0.0,467,src\test\java\org\apache\hadoop\chukwa\extraction\demux\TestDemuxManager.java,0,0,0,0
org.apache.hadoop.chukwa.extraction.demux.TestDemuxMapperConfigs, 1, 0, 1, 0, 0, 0, 0, 0, 0, 0, 0, 0, 0, 2,0.0,0.0,0.0,0.6666666666666666,0.0,0.0,0.0,0.0,0.0,0.0,0.0,0.0,0.0,20,src\test\java\org\apache\hadoop\chukwa\extraction\demux\TestDemuxMapperConfigs.java,0,19,1,21
org.apache.hadoop.chukwa.extraction.demux.TestDemuxReducerConfigs, 1, 0, 1, 0, 0, 0, 0, 0, 0, 0, 0, 0, 0, 2,0.0,0.0,0.0,1.0,0.0,0.0,0.0,0.0,0.0,0.0,0.0,0.0,0.0,18,src\test\java\org\apache\hadoop\chukwa\extraction\demux\TestDemuxReducerConfigs.java,0,19,1,21
org.apache.hadoop.chukwa.extraction.demux.TestPostDemuxTrigger, 0, 0, 0, 0, 0, 0, 0, 0, 0, 0, 0, 0, 0, 0,0.0,0.0,0.0,0.0,0.0,0.0,0.0,0.0,0.0,0.0,0.0,0.0,0.0,35,src\test\java\org\apache\hadoop\chukwa\extraction\demux\TestPostDemuxTrigger.java,0,0,0,0
org.apache.hadoop.chukwa.extraction.demux.processor.ChukwaOutputCollector, 0, 0, 0, 0, 0, 0, 0, 0, 0, 0, 0, 0, 0, 0,0.0,0.0,0.0,1.0,0.0,0.0,0.0,0.0,0.0,0.0,0.0,0.0,0.0,21,src\main\java\org\apache\hadoop\chukwa\extraction\demux\processor\ChukwaOutputCollector.java,0,0,0,0
org.apache.hadoop.chukwa.extraction.demux.processor.Util, 1, 0, 0, 0, 0, 0, 0, 0, 0, 0, 0, 0, 0, 1,1.0,0.0,0.0,0.0,0.0,0.0,0.0,0.0,0.0,0.0,0.0,0.0,0.0,43,src\main\java\org\apache\hadoop\chukwa\extraction\demux\processor\Util.java,0,0,0,0
org.apache.hadoop.chukwa.extraction.demux.processor.mapper.AbstractProcessor, 1, 0, 0, 1, 0, 0, 0, 0, 0, 0, 0, 0, 0, 2,0.5882352941176471,0.0,0.0,0.11764705882352941,0.0,0.0,0.0,0.0,0.0,0.0,0.0,0.0,0.0,78,src\main\java\org\apache\hadoop\chukwa\extraction\demux\processor\mapper\AbstractProcessor.java,0,12,2,16
org.apache.hadoop.chukwa.extraction.demux.processor.mapper.ChukwaMetricsProcessor, 1, 0, 0, 0, 0, 0, 0, 0, 0, 0, 0, 0, 0, 1,0.0,0.0,0.0,0.0,0.0,0.0,0.0,0.0,0.0,0.0,0.0,0.0,0.0,3,src\main\java\org\apache\hadoop\chukwa\extraction\demux\processor\mapper\ChukwaMetricsProcessor.java,0,0,0,0
org.apache.hadoop.chukwa.extraction.demux.processor.mapper.ChunkProcessor, 0, 0, 0, 0, 0, 0, 0, 0, 0, 0, 0, 0, 0, 0,0.0,0.0,0.0,0.0,0.0,0.0,0.0,0.0,0.0,0.0,0.0,0.0,0.0,3,src\main\java\org\apache\hadoop\chukwa\extraction\demux\processor\mapper\ChunkProcessor.java,0,0,0,0
org.apache.hadoop.chukwa.extraction.demux.processor.mapper.ChunkSaver, 1, 0, 0, 0, 0, 0, 0, 0, 0, 0, 0, 0, 0, 1,0.3333333333333333,0.0,0.0,0.6666666666666666,0.0,0.0,0.0,0.0,0.0,0.0,0.0,0.0,0.0,45,src\main\java\org\apache\hadoop\chukwa\extraction\demux\processor\mapper\ChunkSaver.java,0,0,0,0
org.apache.hadoop.chukwa.extraction.demux.processor.mapper.DFInvalidRecord, 0, 0, 0, 0, 0, 0, 0, 0, 0, 0, 0, 0, 0, 0,1.0,0.0,0.0,0.0,0.0,0.0,0.0,0.0,0.0,0.0,0.0,0.0,0.0,14,src\main\java\org\apache\hadoop\chukwa\extraction\demux\processor\mapper\DFInvalidRecord.java,0,0,0,0
org.apache.hadoop.chukwa.extraction.demux.processor.mapper.DebugOutputProcessor, 1, 0, 0, 0, 0, 0, 0, 0, 0, 0, 0, 0, 0, 1,0.5,0.0,0.0,1.0,0.0,0.0,0.0,0.0,0.0,0.0,0.0,0.0,0.0,20,src\main\java\org\apache\hadoop\chukwa\extraction\demux\processor\mapper\DebugOutputProcessor.java,0,0,0,0
org.apache.hadoop.chukwa.extraction.demux.processor.mapper.DefaultProcessor, 1, 0, 0, 0, 0, 0, 0, 0, 0, 0, 0, 0, 0, 1,0.5,0.0,0.0,1.0,0.0,0.0,0.0,0.0,0.0,0.0,0.0,0.0,0.0,17,src\main\java\org\apache\hadoop\chukwa\extraction\demux\processor\mapper\DefaultProcessor.java,0,0,0,0
org.apache.hadoop.chukwa.extraction.demux.processor.mapper.Df, 1, 0, 0, 0, 0, 0, 0, 0, 0, 0, 0, 0, 0, 1,0.3333333333333333,0.0,0.0,0.6666666666666666,0.0,0.0,0.0,0.0,0.0,0.0,0.0,0.0,0.0,67,src\main\java\org\apache\hadoop\chukwa\extraction\demux\processor\mapper\Df.java,0,0,0,0
org.apache.hadoop.chukwa.extraction.demux.processor.mapper.DuplicateProcessorException, 0, 0, 0, 0, 0, 0, 0, 0, 0, 0, 0, 0, 0, 0,0.0,0.0,0.0,0.0,0.0,0.0,0.0,0.0,0.0,0.0,0.0,0.0,0.0,14,src\main\java\org\apache\hadoop\chukwa\extraction\demux\processor\mapper\DuplicateProcessorException.java,0,0,0,0
org.apache.hadoop.chukwa.extraction.demux.processor.mapper.HadoopLogProcessor, 1, 0, 0, 0, 0, 0, 0, 0, 0, 0, 0, 0, 0, 1,0.5,0.0,0.0,0.5,0.0,0.0,0.0,0.0,0.0,0.0,0.0,0.0,0.0,44,src\main\java\org\apache\hadoop\chukwa\extraction\demux\processor\mapper\HadoopLogProcessor.java,0,0,0,0
org.apache.hadoop.chukwa.extraction.demux.processor.mapper.JobSummary, 1, 0, 0, 0, 0, 0, 0, 0, 0, 0, 0, 0, 0, 1,0.5,0.0,0.0,1.0,0.0,0.0,0.0,0.0,0.0,0.0,0.0,0.0,0.0,65,src\main\java\org\apache\hadoop\chukwa\extraction\demux\processor\mapper\JobSummary.java,0,0,0,0
org.apache.hadoop.chukwa.extraction.demux.processor.mapper.Log4JMetricsContextProcessor, 1, 0, 0, 0, 0, 0, 0, 0, 0, 0, 0, 0, 0, 1,1.0,0.0,0.0,1.0,0.0,0.0,0.0,0.0,0.0,0.0,0.0,0.0,0.0,48,src\main\java\org\apache\hadoop\chukwa\extraction\demux\processor\mapper\Log4JMetricsContextProcessor.java,0,0,0,0
org.apache.hadoop.chukwa.extraction.demux.processor.mapper.LogEntry, 0, 0, 0, 0, 0, 0, 0, 0, 0, 0, 0, 0, 0, 0,0.0,0.0,0.0,0.0,0.0,0.0,0.0,0.0,0.0,0.0,0.0,0.0,0.0,34,src\main\java\org\apache\hadoop\chukwa\extraction\demux\processor\mapper\LogEntry.java,0,0,0,0
org.apache.hadoop.chukwa.extraction.demux.processor.mapper.MapProcessor, 0, 0, 0, 0, 0, 0, 0, 0, 0, 0, 0, 0, 0, 0,0.0,0.0,0.0,0.0,0.0,0.0,0.0,0.0,0.0,0.0,0.0,0.0,0.0,34,src\main\java\org\apache\hadoop\chukwa\extraction\demux\processor\mapper\MapProcessor.java,0,0,0,0
org.apache.hadoop.chukwa.extraction.demux.processor.mapper.MockMapProcessor, 0, 0, 0, 0, 0, 0, 0, 0, 0, 0, 0, 0, 0, 0,0.5,0.0,0.0,1.0,0.0,0.0,0.0,0.0,0.0,0.0,0.0,0.0,0.0,8,src\test\java\org\apache\hadoop\chukwa\extraction\demux\processor\mapper\MockMapProcessor.java,0,0,0,0
org.apache.hadoop.chukwa.extraction.demux.processor.mapper.PbsInvalidEntry, 0, 0, 0, 0, 0, 0, 0, 0, 0, 0, 0, 0, 0, 0,0.0,0.0,0.0,0.0,0.0,0.0,0.0,0.0,0.0,0.0,0.0,0.0,0.0,14,src\main\java\org\apache\hadoop\chukwa\extraction\demux\processor\mapper\PbsInvalidEntry.java,0,0,0,0
org.apache.hadoop.chukwa.extraction.demux.processor.mapper.SysLog, 1, 0, 0, 0, 0, 0, 0, 0, 0, 0, 0, 0, 0, 1,1.0,0.0,0.0,1.0,0.0,0.0,0.0,0.0,0.0,0.0,0.0,0.0,0.0,45,src\main\java\org\apache\hadoop\chukwa\extraction\demux\processor\mapper\SysLog.java,0,0,0,0
org.apache.hadoop.chukwa.extraction.demux.processor.mapper.SystemMetrics, 0, 0, 0, 0, 0, 0, 0, 0, 0, 0, 0, 0, 0, 0,1.0,0.0,0.0,1.0,0.0,0.0,0.0,0.0,0.0,0.0,0.0,0.0,0.0,138,src\main\java\org\apache\hadoop\chukwa\extraction\demux\processor\mapper\SystemMetrics.java,0,24,4,32
org.apache.hadoop.chukwa.extraction.demux.processor.mapper.TProcessor, 0, 0, 0, 0, 0, 0, 0, 0, 0, 0, 0, 0, 0, 0,1.0,0.0,0.0,1.0,0.0,0.0,0.0,0.0,0.0,0.0,0.0,0.0,0.0,15,src\main\java\org\apache\hadoop\chukwa\extraction\demux\processor\mapper\SystemMetrics.java,0,24,4,32
org.apache.hadoop.chukwa.extraction.demux.processor.mapper.TestAbtractProcessor, 0, 0, 0, 0, 0, 0, 0, 0, 0, 0, 0, 0, 0, 0,0.3333333333333333,0.0,0.0,0.3333333333333333,0.0,0.0,0.0,0.0,0.0,0.0,0.0,0.0,0.0,18,src\test\java\org\apache\hadoop\chukwa\extraction\demux\processor\mapper\TestAbtractProcessor.java,0,0,0,0
org.apache.hadoop.chukwa.extraction.demux.processor.mapper.TestHadoopLogProcessor, 0, 0, 0, 0, 0, 0, 0, 0, 0, 0, 0, 0, 0, 0,1.0,0.0,0.0,0.0,0.0,0.0,0.0,0.0,0.0,0.0,0.0,0.0,0.0,35,src\test\java\org\apache\hadoop\chukwa\extraction\demux\processor\mapper\TestHadoopLogProcessor.java,0,0,0,0
org.apache.hadoop.chukwa.extraction.demux.processor.mapper.TestLog4JMetricsContextChukwaRecord, 0, 0, 0, 0, 0, 0, 0, 0, 0, 0, 0, 0, 0, 0,0.0,0.0,0.0,0.0,0.0,0.0,0.0,0.0,0.0,0.0,0.0,0.0,0.0,28,src\test\java\org\apache\hadoop\chukwa\extraction\demux\processor\mapper\TestLog4JMetricsContextChukwaRecord.java,0,0,0,0
org.apache.hadoop.chukwa.extraction.demux.processor.mapper.Torque, 1, 0, 0, 0, 0, 0, 0, 0, 0, 0, 0, 0, 0, 1,1.0,0.0,0.0,1.0,0.0,0.0,0.0,0.0,0.0,0.0,0.0,0.0,0.0,54,src\main\java\org\apache\hadoop\chukwa\extraction\demux\processor\mapper\Torque.java,0,0,0,0
org.apache.hadoop.chukwa.extraction.demux.processor.mapper.UnknownRecordTypeException, 0, 0, 0, 0, 0, 0, 0, 0, 0, 0, 0, 0, 0, 0,0.0,0.0,0.0,0.0,0.0,0.0,0.0,0.0,0.0,0.0,0.0,0.0,0.0,14,src\main\java\org\apache\hadoop\chukwa\extraction\demux\processor\mapper\UnknownRecordTypeException.java,0,0,0,0
org.apache.hadoop.chukwa.extraction.demux.processor.mapper.YwatchInvalidEntry, 0, 0, 0, 0, 0, 0, 0, 0, 0, 0, 0, 0, 0, 0,0.0,0.0,0.0,0.0,0.0,0.0,0.0,0.0,0.0,0.0,0.0,0.0,0.0,14,src\main\java\org\apache\hadoop\chukwa\extraction\demux\processor\mapper\YwatchInvalidEntry.java,0,0,0,0
org.apache.hadoop.chukwa.extraction.demux.processor.reducer.ClientTrace, 0, 0, 0, 0, 0, 0, 0, 0, 0, 0, 0, 0, 0, 0,0.0,0.0,0.0,1.0,0.0,0.0,0.0,0.0,0.0,0.0,0.0,0.0,0.0,41,src\main\java\org\apache\hadoop\chukwa\extraction\demux\processor\reducer\ClientTrace.java,0,0,0,0
org.apache.hadoop.chukwa.extraction.demux.processor.reducer.DuplicateReduceProcessorException, 0, 0, 0, 0, 0, 0, 0, 0, 0, 0, 0, 0, 0, 0,0.0,0.0,0.0,0.0,0.0,0.0,0.0,0.0,0.0,0.0,0.0,0.0,0.0,14,src\main\java\org\apache\hadoop\chukwa\extraction\demux\processor\reducer\DuplicateReduceProcessorException.java,0,0,0,0
org.apache.hadoop.chukwa.extraction.demux.processor.reducer.IdentityReducer, 0, 0, 0, 0, 0, 0, 0, 0, 0, 0, 0, 0, 0, 0,0.0,0.0,0.0,1.0,0.0,0.0,0.0,0.0,0.0,0.0,0.0,0.0,0.0,17,src\main\java\org\apache\hadoop\chukwa\extraction\demux\processor\reducer\IdentityReducer.java,0,0,0,0
org.apache.hadoop.chukwa.extraction.demux.processor.reducer.JobLogHistoryReduceProcessor, 1, 0, 0, 0, 0, 0, 0, 0, 0, 0, 0, 0, 0, 1,0.0,0.0,0.0,1.0,0.0,0.0,0.0,0.0,0.0,0.0,0.0,0.0,0.0,46,src\main\java\org\apache\hadoop\chukwa\extraction\demux\processor\reducer\JobLogHistoryReduceProcessor.java,0,0,0,0
org.apache.hadoop.chukwa.extraction.demux.processor.reducer.MockReduceProcessor, 0, 0, 0, 0, 0, 0, 0, 0, 0, 0, 0, 0, 0, 0,0.0,0.0,0.0,1.0,0.0,0.0,0.0,0.0,0.0,0.0,0.0,0.0,0.0,15,src\test\java\org\apache\hadoop\chukwa\extraction\demux\processor\reducer\MockReduceProcessor.java,0,0,0,0
org.apache.hadoop.chukwa.extraction.demux.processor.reducer.ReduceProcessor, 0, 0, 0, 0, 0, 0, 0, 0, 0, 0, 0, 0, 0, 0,0.0,0.0,0.0,0.0,0.0,0.0,0.0,0.0,0.0,0.0,0.0,0.0,0.0,15,src\main\java\org\apache\hadoop\chukwa\extraction\demux\processor\reducer\ReduceProcessor.java,0,0,0,0
org.apache.hadoop.chukwa.extraction.demux.processor.reducer.SystemMetrics, 1, 0, 0, 0, 0, 0, 0, 0, 0, 0, 0, 0, 0, 1,0.0,0.0,0.0,1.0,0.0,0.0,0.0,0.0,0.0,0.0,0.0,0.0,0.0,113,src\main\java\org\apache\hadoop\chukwa\extraction\demux\processor\reducer\SystemMetrics.java,0,0,0,0
org.apache.hadoop.chukwa.extraction.demux.processor.reducer.UnknownReduceTypeException, 0, 0, 0, 0, 0, 0, 0, 0, 0, 0, 0, 0, 0, 0,0.0,0.0,0.0,0.0,0.0,0.0,0.0,0.0,0.0,0.0,0.0,0.0,0.0,14,src\main\java\org\apache\hadoop\chukwa\extraction\demux\processor\reducer\UnknownReduceTypeException.java,0,0,0,0
org.apache.hadoop.chukwa.extraction.engine.ChukwaRecordKey, 0, 0, 0, 1, 0, 0, 0, 0, 0, 0, 0, 0, 0, 1,0.625,0.0,0.125,0.041666666666666664,0.0,0.0,0.0,0.08333333333333333,0.0,0.0,0.0,0.0,0.0,240,src\main\java\org\apache\hadoop\chukwa\extraction\engine\ChukwaRecordKey.java,0,0,0,0
org.apache.hadoop.chukwa.extraction.engine.Record, 0, 0, 0, 0, 0, 0, 0, 0, 0, 0, 0, 0, 0, 0,0.0,0.0,0.0,0.0,0.0,0.0,0.0,0.0,0.0,0.0,0.0,0.0,0.0,240,src\main\java\org\apache\hadoop\chukwa\extraction\engine\Record.java,0,0,0,0
org.apache.hadoop.chukwa.extraction.engine.SearchService, 0, 0, 0, 0, 0, 0, 0, 0, 0, 0, 0, 0, 0, 0,0.0,0.0,0.0,0.0,0.0,0.0,0.0,0.0,0.0,0.0,0.0,0.0,0.0,240,src\main\java\org\apache\hadoop\chukwa\extraction\engine\SearchService.java,0,0,0,0
org.apache.hadoop.chukwa.extraction.engine.Token, 0, 0, 1, 0, 0, 0, 0, 0, 0, 0, 0, 0, 0, 1,0.0,0.0,0.0,0.0,0.0,0.0,0.0,0.0,0.0,0.0,0.0,0.0,0.0,4,src\main\java\org\apache\hadoop\chukwa\extraction\engine\Token.java,0,0,0,0
org.apache.hadoop.chukwa.extraction.engine.datasource.DataSource, 0, 0, 0, 0, 0, 0, 0, 0, 0, 0, 0, 0, 0, 0,0.0,0.0,0.0,0.0,0.0,0.0,0.0,0.0,0.0,0.0,0.0,0.0,0.0,4,src\main\java\org\apache\hadoop\chukwa\extraction\engine\datasource\DataSource.java,0,0,0,0
org.apache.hadoop.chukwa.extraction.engine.datasource.DataSourceException, 0, 0, 0, 0, 0, 0, 0, 0, 0, 0, 0, 0, 0, 0,0.0,0.0,0.0,0.0,0.0,0.0,0.0,0.0,0.0,0.0,0.0,0.0,0.0,14,src\main\java\org\apache\hadoop\chukwa\extraction\engine\datasource\DataSourceException.java,0,0,0,0
org.apache.hadoop.chukwa.extraction.engine.datasource.DsDirectory, 0, 0, 0, 0, 0, 0, 0, 0, 0, 0, 0, 0, 0, 0,0.0,0.0,0.0,0.0,0.0,0.0,0.0,0.0,0.0,0.0,0.0,0.0,0.0,52,src\main\java\org\apache\hadoop\chukwa\extraction\engine\datasource\DsDirectory.java,0,0,0,0
org.apache.hadoop.chukwa.extraction.engine.datasource.record.ChukwaDSInternalResult, 0, 0, 0, 0, 0, 0, 0, 0, 0, 0, 0, 0, 0, 0,0.0,0.0,0.0,1.0,0.0,0.0,0.0,0.0,0.0,0.0,0.0,0.0,0.0,11,src\main\java\org\apache\hadoop\chukwa\extraction\engine\datasource\record\ChukwaDSInternalResult.java,0,0,0,0
org.apache.hadoop.chukwa.extraction.engine.datasource.record.ChukwaFileParser, 0, 0, 0, 0, 0, 0, 0, 1, 0, 0, 0, 0, 0, 1,0.0,0.0,0.0,0.0,0.0,0.0,0.0,0.0,0.0,0.0,0.0,0.0,0.0,76,src\main\java\org\apache\hadoop\chukwa\extraction\engine\datasource\record\ChukwaFileParser.java,0,0,0,0
org.apache.hadoop.chukwa.extraction.engine.datasource.record.ChukwaSequenceFileParser, 0, 0, 0, 0, 0, 0, 0, 1, 0, 0, 0, 0, 0, 1,0.0,0.0,0.0,1.0,0.0,0.0,0.0,0.0,0.0,0.0,0.0,0.0,0.0,90,src\main\java\org\apache\hadoop\chukwa\extraction\engine\datasource\record\ChukwaSequenceFileParser.java,0,0,0,0
org.apache.hadoop.chukwa.extraction.engine.datasource.record.MalformedFileFormat, 0, 0, 0, 0, 0, 0, 0, 0, 0, 0, 0, 0, 0, 0,0.0,0.0,0.0,0.0,0.0,0.0,0.0,0.0,0.0,0.0,0.0,0.0,0.0,15,src\main\java\org\apache\hadoop\chukwa\extraction\engine\datasource\record\MalformedFileFormat.java,0,0,0,0
org.apache.hadoop.chukwa.hicc.ColorPicker, 0, 0, 0, 0, 0, 0, 0, 0, 0, 0, 0, 0, 0, 0,0.0,0.0,0.0,0.0,0.0,0.0,0.0,0.0,0.0,0.0,0.0,0.0,0.0,33,src\main\java\org\apache\hadoop\chukwa\hicc\ColorPicker.java,0,0,0,0
org.apache.hadoop.chukwa.hicc.Config, 0, 0, 0, 0, 0, 0, 0, 0, 0, 0, 0, 0, 0, 0,0.0,0.0,0.0,0.0,0.0,0.0,0.0,0.0,0.0,0.0,0.0,0.0,0.0,2,src\main\java\org\apache\hadoop\chukwa\hicc\Config.java,0,0,0,0
org.apache.hadoop.chukwa.hicc.TimeHandler, 0, 0, 0, 1, 0, 0, 0, 0, 0, 0, 0, 0, 0, 1,0.0,0.0,0.0,0.0,0.0,0.0,0.0,1.0,0.0,0.0,0.0,0.0,0.0,169,src\main\java\org\apache\hadoop\chukwa\hicc\TimeHandler.java,0,0,0,0
org.apache.hadoop.chukwa.hicc.ViewsTag, 0, 0, 0, 0, 0, 0, 0, 0, 0, 0, 0, 0, 0, 0,0.0,0.0,0.0,0.0,0.0,0.0,0.0,0.0,0.0,0.0,0.0,0.0,0.0,19,src\main\java\org\apache\hadoop\chukwa\hicc\ViewsTag.java,0,0,0,0
org.apache.hadoop.chukwa.hicc.bean.Series, 1, 0, 0, 0, 0, 0, 0, 0, 0, 0, 0, 0, 0, 1,0.0,0.0,0.0,0.0,0.0,0.0,0.0,0.5,0.0,0.0,0.0,0.0,0.0,31,src\main\java\org\apache\hadoop\chukwa\hicc\bean\Series.java,0,0,0,0
org.apache.hadoop.chukwa.hicc.rest.MetricsController, 0, 0, 0, 0, 0, 0, 0, 1, 0, 0, 0, 0, 0, 1,0.5,0.0,0.0,0.5,0.0,0.0,0.0,0.0,0.0,0.0,0.0,0.0,0.0,159,src\main\java\org\apache\hadoop\chukwa\hicc\rest\MetricsController.java,0,3,0,3
org.apache.hadoop.chukwa.inputtools.ChukwaInputFormat, 0, 0, 0, 0, 0, 0, 0, 0, 0, 0, 0, 0, 0, 0,0.0,0.0,0.0,0.0,0.0,0.0,0.0,0.0,0.0,0.0,0.0,0.0,0.0,78,src\main\java\org\apache\hadoop\chukwa\inputtools\ChukwaInputFormat.java,1,10,1,13
org.apache.hadoop.chukwa.inputtools.hdfsusage.Employee, 0, 0, 0, 0, 0, 0, 0, 0, 0, 0, 0, 0, 0, 0,0.0,0.0,0.0,0.0,0.0,0.0,0.0,0.0,0.0,0.0,0.0,0.0,0.0,16,src\main\java\org\apache\hadoop\chukwa\inputtools\hdfsusage\Employee.java,0,0,0,0
org.apache.hadoop.chukwa.inputtools.hdfsusage.HDFSUsageMetricsList, 0, 0, 0, 0, 0, 0, 0, 0, 0, 0, 0, 0, 0, 0,0.0,0.0,0.0,0.0,0.0,0.0,0.0,0.0,0.0,0.0,0.0,0.0,0.0,5,src\main\java\org\apache\hadoop\chukwa\inputtools\hdfsusage\HDFSUsageMetricsList.java,0,0,0,0
org.apache.hadoop.chukwa.inputtools.hdfsusage.HDFSUsagePlugin, 0, 0, 0, 0, 0, 0, 0, 0, 0, 0, 0, 0, 0, 0,0.0,0.0,0.0,0.0,0.0,0.0,0.0,0.0,0.0,0.0,0.0,0.0,0.0,71,src\main\java\org\apache\hadoop\chukwa\inputtools\hdfsusage\HDFSUsagePlugin.java,0,0,0,0
org.apache.hadoop.chukwa.inputtools.hdfsusage.OrgChart, 0, 0, 0, 0, 0, 0, 0, 0, 0, 0, 0, 0, 0, 0,0.0,0.0,0.0,0.0,0.0,0.0,0.0,0.0,0.0,0.0,0.0,0.0,0.0,71,src\main\java\org\apache\hadoop\chukwa\inputtools\hdfsusage\OrgChart.java,0,0,0,0
org.apache.hadoop.chukwa.inputtools.jplugin.JPlugin, 0, 0, 0, 0, 0, 0, 0, 0, 0, 0, 0, 0, 0, 0,0.0,0.0,0.0,0.0,0.0,0.0,0.0,0.0,0.0,0.0,0.0,0.0,0.0,71,src\main\java\org\apache\hadoop\chukwa\inputtools\jplugin\JPlugin.java,0,0,0,0
org.apache.hadoop.chukwa.inputtools.jplugin.JPluginAgent, 0, 0, 0, 0, 0, 0, 0, 0, 0, 0, 0, 0, 0, 0,0.0,0.0,0.0,0.0,0.0,0.0,0.0,0.0,0.0,0.0,0.0,0.0,0.0,90,src\main\java\org\apache\hadoop\chukwa\inputtools\jplugin\JPluginAgent.java,0,0,0,0
org.apache.hadoop.chukwa.inputtools.jplugin.JPluginStatusMetricsList, 0, 0, 0, 0, 0, 0, 0, 0, 0, 0, 0, 0, 0, 0,0.0,0.0,0.0,0.0,0.0,0.0,0.0,0.0,0.0,0.0,0.0,0.0,0.0,13,src\main\java\org\apache\hadoop\chukwa\inputtools\jplugin\JPluginStatusMetricsList.java,0,0,0,0
org.apache.hadoop.chukwa.inputtools.log4j.Log4jMetricsSink, 0, 0, 0, 0, 0, 0, 0, 0, 0, 0, 0, 0, 0, 0,0.0,0.0,0.0,0.0,0.0,0.0,0.0,0.0,0.0,0.0,0.0,0.0,0.0,54,src\main\java\org\apache\hadoop\chukwa\inputtools\log4j\Log4jMetricsSink.java,0,0,0,0
org.apache.hadoop.chukwa.inputtools.log4j.TaskLogAppender, 1, 0, 0, 0, 0, 0, 0, 0, 0, 0, 0, 0, 0, 1,0.0,0.0,0.0,0.0,0.0,0.0,0.0,0.0,0.0,0.0,0.0,0.0,0.0,47,src\main\java\org\apache\hadoop\chukwa\inputtools\log4j\TaskLogAppender.java,0,0,0,0
org.apache.hadoop.chukwa.inputtools.mdl.TorqueDataLoader, 0, 0, 0, 0, 0, 0, 0, 0, 0, 0, 0, 0, 0, 0,0.0,0.0,0.0,0.0,0.0,0.0,0.0,0.0,0.0,0.0,0.0,0.0,0.0,62,src\main\java\org\apache\hadoop\chukwa\inputtools\mdl\TorqueDataLoader.java,0,0,0,0
org.apache.hadoop.chukwa.inputtools.mdl.TorqueTimerTask, 1, 0, 1, 0, 0, 0, 0, 0, 0, 0, 0, 0, 0, 2,0.0,0.0,0.0,0.0,0.0,0.0,0.0,0.0,0.0,0.0,0.0,0.0,0.0,18,src\main\java\org\apache\hadoop\chukwa\inputtools\mdl\TorqueTimerTask.java,0,0,0,0
org.apache.hadoop.chukwa.inputtools.plugin.IPlugin, 0, 0, 0, 0, 0, 0, 0, 0, 0, 0, 0, 0, 0, 0,0.0,0.0,0.0,0.0,0.0,0.0,0.0,0.0,0.0,0.0,0.0,0.0,0.0,18,src\main\java\org\apache\hadoop\chukwa\inputtools\plugin\IPlugin.java,0,0,0,0
org.apache.hadoop.chukwa.inputtools.plugin.nodeactivity.NodeActivityPlugin, 0, 0, 0, 0, 0, 0, 0, 0, 0, 0, 0, 0, 0, 0,0.0,0.0,0.0,0.0,0.0,0.0,0.0,0.0,0.0,0.0,0.0,0.0,0.0,60,src\main\java\org\apache\hadoop\chukwa\inputtools\plugin\nodeactivity\NodeActivityPlugin.java,0,0,0,0
org.apache.hadoop.chukwa.inputtools.plugin.pbsnode.PbsNodePlugin, 0, 0, 0, 0, 0, 0, 0, 0, 0, 0, 0, 0, 0, 0,0.0,0.0,0.0,0.0,0.0,0.0,0.0,0.0,0.0,0.0,0.0,0.0,0.0,25,src\main\java\org\apache\hadoop\chukwa\inputtools\plugin\pbsnode\PbsNodePlugin.java,0,0,0,0
org.apache.hadoop.chukwa.rest.bean.CatalogBean, 0, 0, 0, 0, 0, 0, 0, 0, 0, 0, 0, 0, 0, 0,0.0,0.0,0.0,1.0,0.0,0.0,0.0,0.0,0.0,0.0,0.0,0.0,0.0,65,src\main\java\org\apache\hadoop\chukwa\rest\bean\CatalogBean.java,0,0,0,0
org.apache.hadoop.chukwa.rest.bean.CategoryBean, 0, 0, 0, 0, 0, 0, 0, 0, 0, 0, 0, 0, 0, 0,0.0,0.0,0.0,0.0,0.0,0.0,0.0,0.0,0.0,0.0,0.0,0.0,0.0,29,src\main\java\org\apache\hadoop\chukwa\rest\bean\CategoryBean.java,0,0,0,0
org.apache.hadoop.chukwa.rest.bean.ClientTraceBean, 0, 0, 0, 0, 0, 0, 0, 0, 0, 0, 0, 0, 0, 0,0.0,0.0,0.0,0.0,0.0,0.0,0.0,0.0,0.0,0.0,0.0,0.0,0.0,42,src\main\java\org\apache\hadoop\chukwa\rest\bean\ClientTraceBean.java,0,0,0,0
org.apache.hadoop.chukwa.rest.bean.ColumnBean, 0, 0, 0, 0, 0, 0, 0, 0, 0, 0, 0, 0, 0, 0,0.0,0.0,0.0,0.3333333333333333,0.0,0.0,0.0,0.0,0.0,0.0,0.0,0.0,0.0,36,src\main\java\org\apache\hadoop\chukwa\rest\bean\ColumnBean.java,0,0,0,0
org.apache.hadoop.chukwa.rest.bean.ConfigBean, 0, 0, 0, 0, 0, 0, 0, 0, 0, 0, 0, 0, 0, 0,0.0,0.0,0.0,0.0,0.0,0.0,0.0,0.0,0.0,0.0,0.0,0.0,0.0,30,src\main\java\org\apache\hadoop\chukwa\rest\bean\ConfigBean.java,0,0,0,0
org.apache.hadoop.chukwa.rest.bean.OptionBean, 0, 0, 0, 0, 0, 0, 0, 0, 0, 0, 0, 0, 0, 0,0.0,0.0,0.0,0.5,0.0,0.0,0.0,0.0,0.0,0.0,0.0,0.0,0.0,41,src\main\java\org\apache\hadoop\chukwa\rest\bean\OptionBean.java,0,0,0,0
org.apache.hadoop.chukwa.rest.bean.PagesBean, 0, 0, 0, 0, 0, 0, 0, 0, 0, 0, 0, 0, 0, 0,0.0,0.0,0.0,0.3333333333333333,0.0,0.0,0.0,0.0,0.0,0.0,0.0,0.0,0.0,86,src\main\java\org\apache\hadoop\chukwa\rest\bean\PagesBean.java,0,0,0,0
org.apache.hadoop.chukwa.rest.bean.ParametersBean, 0, 0, 0, 1, 0, 0, 0, 0, 0, 0, 0, 0, 0, 1,0.0,0.0,0.0,0.3333333333333333,0.0,0.0,0.0,0.0,0.0,0.0,0.0,0.0,0.0,148,src\main\java\org\apache\hadoop\chukwa\rest\bean\ParametersBean.java,0,0,0,0
org.apache.hadoop.chukwa.rest.bean.ReturnCodeBean, 0, 0, 0, 0, 0, 0, 0, 0, 0, 0, 0, 0, 0, 0,0.0,0.0,0.0,0.0,0.0,0.0,0.0,0.0,0.0,0.0,0.0,0.0,0.0,26,src\main\java\org\apache\hadoop\chukwa\rest\bean\ReturnCodeBean.java,0,0,0,0
org.apache.hadoop.chukwa.rest.bean.UserBean, 0, 0, 0, 0, 0, 0, 0, 0, 0, 0, 0, 0, 0, 0,0.0,0.0,0.0,0.0,0.0,0.0,0.0,0.0,0.0,0.0,0.0,0.0,0.0,71,src\main\java\org\apache\hadoop\chukwa\rest\bean\UserBean.java,0,0,0,0
org.apache.hadoop.chukwa.rest.bean.ViewBean, 0, 0, 0, 1, 0, 0, 0, 0, 0, 0, 0, 0, 0, 1,0.0,0.0,0.0,0.0,0.0,0.0,0.0,0.0,0.0,0.0,0.0,0.0,0.0,99,src\main\java\org\apache\hadoop\chukwa\rest\bean\ViewBean.java,0,0,0,0
org.apache.hadoop.chukwa.rest.bean.WidgetBean, 0, 0, 0, 1, 0, 0, 0, 0, 0, 0, 0, 0, 0, 1,0.0,0.0,0.0,0.2,0.0,0.0,0.0,0.0,0.0,0.0,0.0,0.0,0.0,149,src\main\java\org\apache\hadoop\chukwa\rest\bean\WidgetBean.java,0,0,0,0
org.apache.hadoop.chukwa.rest.resource.SetupTestEnv, 1, 0, 1, 0, 0, 0, 0, 0, 0, 0, 0, 0, 0, 2,0.0,0.0,0.0,0.0,0.0,0.0,0.0,0.0,0.0,0.0,0.0,0.0,0.0,22,src\test\java\org\apache\hadoop\chukwa\rest\resource\SetupTestEnv.java,0,0,0,0
org.apache.hadoop.chukwa.rest.resource.TestClientTrace, 0, 0, 0, 0, 0, 0, 0, 0, 0, 0, 0, 0, 0, 0,0.2,0.0,0.2,0.0,0.0,0.0,0.0,0.0,0.0,0.0,0.0,0.0,0.0,31,src\test\java\org\apache\hadoop\chukwa\rest\resource\TestClientTrace.java,1,1,0,2
org.apache.hadoop.chukwa.rest.resource.TestUserResource, 0, 0, 0, 0, 0, 0, 0, 0, 0, 0, 0, 0, 0, 0,0.25,0.0,0.25,0.0,0.0,0.0,0.0,0.0,0.0,0.0,0.0,0.0,0.0,31,src\test\java\org\apache\hadoop\chukwa\rest\resource\TestUserResource.java,0,0,0,0
org.apache.hadoop.chukwa.rest.resource.TestViewResource, 0, 0, 0, 0, 0, 0, 0, 0, 0, 0, 0, 0, 0, 0,0.3333333333333333,0.0,0.3333333333333333,0.3333333333333333,0.0,0.0,0.0,0.0,0.0,0.0,0.0,0.0,0.0,43,src\test\java\org\apache\hadoop\chukwa\rest\resource\TestViewResource.java,0,0,0,0
org.apache.hadoop.chukwa.rest.resource.TestWidgetResource, 0, 0, 0, 0, 0, 0, 0, 0, 0, 0, 0, 0, 0, 0,0.3333333333333333,0.0,0.3333333333333333,0.3333333333333333,0.0,0.0,0.0,0.0,0.0,0.0,0.0,0.0,0.0,14,src\test\java\org\apache\hadoop\chukwa\rest\resource\TestWidgetResource.java,0,0,0,0
org.apache.hadoop.chukwa.rest.resource.UserResource, 0, 0, 0, 0, 0, 0, 0, 0, 0, 0, 0, 0, 0, 0,0.0,0.0,0.0,0.0,0.0,0.0,0.0,0.0,0.0,0.0,0.0,0.0,0.0,45,src\main\java\org\apache\hadoop\chukwa\rest\resource\UserResource.java,0,0,0,0
org.apache.hadoop.chukwa.rest.resource.ViewResource, 0, 0, 0, 0, 0, 0, 0, 0, 0, 0, 0, 0, 0, 0,0.0,0.0,0.0,0.3333333333333333,0.0,0.0,0.0,0.0,0.0,0.0,0.0,0.0,0.0,118,src\main\java\org\apache\hadoop\chukwa\rest\resource\ViewResource.java,0,0,0,0
org.apache.hadoop.chukwa.tools.PigMover, 0, 0, 0, 0, 0, 0, 0, 0, 0, 0, 0, 0, 0, 0,0.0,0.0,0.0,0.0,0.0,0.0,0.0,0.0,0.0,0.0,0.0,0.0,0.0,52,contrib\chukwa-pig\src\java\org\apache\hadoop\chukwa\tools\PigMover.java,0,0,0,0
org.apache.hadoop.chukwa.tools.backfilling.BackfillingLoader, 1, 0, 0, 0, 0, 0, 0, 1, 0, 0, 0, 0, 0, 2,0.6666666666666666,0.0,0.0,0.0,0.0,0.0,0.0,0.3333333333333333,0.0,0.0,0.0,0.0,0.0,57,src\main\java\org\apache\hadoop\chukwa\tools\backfilling\BackfillingLoader.java,0,0,0,0
org.apache.hadoop.chukwa.tools.backfilling.QueueToWriterConnector, 1, 0, 0, 0, 0, 0, 0, 0, 0, 0, 0, 0, 0, 1,0.5,0.0,0.0,0.0,0.0,0.0,0.0,0.5,0.0,0.0,0.0,0.0,0.0,92,src\main\java\org\apache\hadoop\chukwa\tools\backfilling\QueueToWriterConnector.java,0,0,0,0
org.apache.hadoop.chukwa.tools.backfilling.TestBackfillingLoader, 0, 0, 0, 0, 0, 0, 0, 1, 0, 0, 0, 0, 0, 1,0.3333333333333333,0.0,0.0,0.3333333333333333,0.0,0.0,0.0,0.3333333333333333,0.0,0.0,0.0,0.0,0.0,249,src\test\java\org\apache\hadoop\chukwa\tools\backfilling\TestBackfillingLoader.java,3,3,1,8
org.apache.hadoop.chukwa.util.CopySequenceFile, 1, 0, 0, 0, 0, 0, 0, 0, 0, 0, 0, 0, 0, 1,0.0,0.0,0.0,1.0,0.0,0.0,0.0,0.0,0.0,0.0,0.0,0.0,0.0,58,src\main\java\org\apache\hadoop\chukwa\util\CopySequenceFile.java,0,0,0,0
org.apache.hadoop.chukwa.util.DaemonWatcher, 0, 0, 0, 0, 0, 0, 0, 0, 0, 0, 0, 0, 0, 0,0.8571428571428571,0.0,0.0,0.2857142857142857,0.0,0.0,0.0,0.2857142857142857,0.0,0.0,0.0,0.0,0.0,19,src\main\java\org\apache\hadoop\chukwa\util\DaemonWatcher.java,0,0,0,0
org.apache.hadoop.chukwa.util.DatabaseWriter, 0, 0, 0, 0, 0, 0, 0, 0, 0, 0, 0, 0, 0, 0,0.0,0.0,0.0,0.0,0.0,0.0,0.0,0.0,0.0,0.0,0.0,0.0,0.0,130,src\main\java\org\apache\hadoop\chukwa\util\DatabaseWriter.java,0,0,0,0
org.apache.hadoop.chukwa.util.DriverManagerUtilTest, 0, 0, 0, 0, 0, 0, 0, 0, 0, 0, 0, 0, 0, 0,0.0,0.0,0.0,0.0,0.0,0.0,0.0,0.0,0.0,0.0,0.0,0.0,0.0,59,src\test\java\org\apache\hadoop\chukwa\util\DriverManagerUtilTest.java,0,0,0,0
org.apache.hadoop.chukwa.util.DumpRecord, 0, 0, 0, 0, 0, 0, 0, 0, 0, 0, 0, 0, 0, 0,0.0,0.0,0.0,1.0,0.0,0.0,0.0,0.0,0.0,0.0,0.0,0.0,0.0,26,src\main\java\org\apache\hadoop\chukwa\util\DumpRecord.java,0,0,0,0
org.apache.hadoop.chukwa.util.ExceptionUtil, 0, 0, 0, 0, 0, 0, 0, 0, 0, 0, 0, 0, 0, 0,0.25,0.0,0.07142857142857142,0.14285714285714285,0.0,0.0,0.0,0.03571428571428571,0.0,0.0,0.0,0.0,0.0,9,src\main\java\org\apache\hadoop\chukwa\util\ExceptionUtil.java,0,0,0,0
org.apache.hadoop.chukwa.util.GenerateTestFile, 1, 0, 1, 0, 0, 0, 0, 0, 0, 0, 0, 0, 0, 2,0.0,0.0,0.0,1.0,0.0,0.0,0.0,0.0,0.0,0.0,0.0,0.0,0.0,200,contrib\chukwa-pig\test\src\java\org\apache\hadoop\chukwa\util\GenerateTestFile.java,0,0,0,0
org.apache.hadoop.chukwa.util.MaxRateSender, 0, 0, 0, 0, 0, 0, 0, 0, 0, 0, 0, 0, 0, 0,0.0,0.0,0.0,0.0,0.0,0.0,0.0,0.0,0.0,0.0,0.0,0.0,0.0,49,src\main\java\org\apache\hadoop\chukwa\util\MaxRateSender.java,0,0,0,0
org.apache.hadoop.chukwa.util.NagiosHelper, 1, 0, 0, 0, 0, 0, 0, 1, 0, 0, 0, 0, 0, 2,1.0,0.0,0.0,1.0,0.0,0.0,0.0,1.0,0.0,0.0,0.0,0.0,0.0,15,src\main\java\org\apache\hadoop\chukwa\util\NagiosHelper.java,0,0,0,0
org.apache.hadoop.chukwa.util.RecordConstants, 0, 0, 0, 0, 0, 0, 0, 0, 0, 0, 0, 0, 0, 0,0.5,0.0,0.0,0.25,0.0,0.0,0.0,0.0,0.0,0.0,0.0,0.0,0.0,30,src\main\java\org\apache\hadoop\chukwa\util\RecordConstants.java,0,0,0,0
org.apache.hadoop.chukwa.util.TempFileUtil, 0, 0, 0, 0, 0, 0, 0, 0, 0, 0, 0, 0, 0, 0,0.2,0.0,0.0,0.2,0.0,0.0,0.0,0.0,0.0,0.0,0.0,0.0,0.0,78,src\main\java\org\apache\hadoop\chukwa\util\TempFileUtil.java,0,0,0,0
org.apache.hadoop.chukwa.util.TestCRValidator, 0, 0, 0, 0, 0, 0, 0, 0, 0, 0, 0, 0, 0, 0,0.0,0.0,0.0,0.5,0.0,0.0,0.0,0.0,0.0,0.0,0.0,0.0,0.0,57,src\test\java\org\apache\hadoop\chukwa\util\TestCRValidator.java,0,0,0,0
org.apache.hadoop.chukwa.util.TestDumpChunks, 0, 0, 0, 0, 0, 0, 0, 0, 0, 0, 0, 0, 0, 0,0.0,0.0,0.0,1.0,0.0,0.0,0.0,0.0,0.0,0.0,0.0,0.0,0.0,41,src\test\java\org\apache\hadoop\chukwa\util\TestDumpChunks.java,0,11,0,11
org.apache.hadoop.chukwa.util.TestFilter, 0, 0, 0, 0, 0, 0, 0, 0, 0, 0, 0, 0, 0, 0,0.0,0.0,0.0,0.0,0.0,0.0,0.0,0.0,0.0,0.0,0.0,0.0,0.0,43,src\test\java\org\apache\hadoop\chukwa\util\TestFilter.java,0,15,1,17
org.apache.hadoop.chukwa.util.TestRecordConsts, 0, 0, 0, 0, 0, 0, 0, 0, 0, 0, 0, 0, 0, 0,0.0,0.0,0.0,0.0,0.0,0.0,0.0,0.0,0.0,0.0,0.0,0.0,0.0,14,src\test\java\org\apache\hadoop\chukwa\util\TestRecordConsts.java,0,0,0,0
org.apache.hadoop.chukwa.util.TestXSSFilter, 0, 0, 0, 0, 0, 0, 0, 0, 0, 0, 0, 0, 0, 0,0.0,0.0,0.0,0.0,0.0,0.0,0.0,0.0,0.0,0.0,0.0,0.0,0.0,14,src\test\java\org\apache\hadoop\chukwa\util\TestXSSFilter.java,0,0,0,0
org.apache.hadoop.chukwa.validationframework.DemuxDirectoryValidator, 1, 0, 0, 0, 0, 0, 0, 0, 0, 0, 0, 0, 0, 1,1.0,0.0,0.0,0.0,0.0,0.0,0.0,0.0,0.0,0.0,0.0,0.0,0.0,114,src\test\java\org\apache\hadoop\chukwa\validationframework\DemuxDirectoryValidator.java,0,0,0,0
org.apache.hadoop.chukwa.validationframework.interceptor.ChunkQueueInterceptor, 0, 0, 0, 0, 0, 0, 0, 0, 0, 0, 0, 0, 0, 0,0.0,0.0,0.0,0.0,0.0,0.0,0.0,0.0,0.0,0.0,0.0,0.0,0.0,24,src\test\java\org\apache\hadoop\chukwa\validationframework\interceptor\ChunkQueueInterceptor.java,0,0,0,0
org.apache.hadoop.chukwa.validationframework.interceptor.SetupTestClasses, 0, 0, 0, 0, 0, 0, 0, 0, 0, 0, 0, 0, 0, 0,0.0,0.0,0.0,0.0,0.0,0.0,0.0,0.0,0.0,0.0,0.0,0.0,0.0,20,src\test\java\org\apache\hadoop\chukwa\validationframework\interceptor\SetupTestClasses.java,0,0,0,0
org.apache.hadoop.chukwa.validationframework.util.DataOperations, 1, 0, 0, 0, 0, 0, 0, 0, 0, 0, 0, 0, 0, 1,0.25,0.0,0.0,0.5,0.0,0.0,0.0,0.0,0.0,0.0,0.0,0.0,0.0,123,src\test\java\org\apache\hadoop\chukwa\validationframework\util\DataOperations.java,0,0,0,0
org.apache.hadoop.chukwa.validationframework.util.MD5, 0, 0, 0, 0, 0, 0, 0, 0, 0, 0, 0, 0, 0, 0,0.5,0.0,0.0,0.0,0.0,0.0,0.0,0.5,0.0,0.0,0.0,0.0,0.0,52,src\test\java\org\apache\hadoop\chukwa\validationframework\util\MD5.java,0,0,0,0
,0.0,0.0,0.0,0.0,0.0,0.0,0.0,0.0,0.0,0.0,0.0,0.0,0.0,52,contrib\chukwa-pig\src\java\org\apache\hadoop\chukwa\pig\ChukwaLoader.java,0,0,0,0
