ClassName,AntiSingleton,Blob,ClassDataShouldBePrivate,ComplexClass,LargeClass,LazyClass,LongMethod,LongParameterList,MessageChains,RefusedParentBequest,SpaghettiCode,SpeculativeGenerality,SwissArmyKnife,NumOfAPs,AntiSingleton,Blob,ClassDataShouldBePrivate,ComplexClass,LargeClass,LazyClass,LongMethod,LongParameterList,MessageChains,RefusedParentBequest,SpaghettiCode,SpeculativeGenerality,SwissArmyKnife,LOC,name,deleted,added,changed,all
elements.Source, 0, 0, 0, 0, 0, 0, 0, 0, 0, 0, 0, 0, 0, 0,0.0,0.0,0.0,0.0,0.0,0.0,0.0,0.0,0.0,0.0,0.0,0.0,0.0,2,apache-rat-core\src\test\resources\elements\Source.java,0,0,0,0
org.apache.rat.Defaults, 0, 0, 0, 0, 0, 0, 0, 0, 0, 0, 0, 0, 0, 0,0.0,0.0,0.0,0.25,0.0,0.0,0.0,0.0,0.0,0.0,0.0,0.0,0.0,31,apache-rat-core\src\main\java\org\apache\rat\Defaults.java,0,0,0,0
org.apache.rat.ReportConfiguration, 0, 0, 0, 0, 0, 0, 0, 0, 0, 0, 0, 0, 0, 0,0.0,0.0,0.0,0.3333333333333333,0.0,0.0,0.0,0.0,0.0,0.0,0.0,0.0,0.0,37,apache-rat-core\src\main\java\org\apache\rat\ReportConfiguration.java,0,0,0,0
org.apache.rat.ReportFailedRuntimeException, 0, 0, 0, 0, 0, 0, 0, 0, 0, 0, 0, 0, 0, 0,0.0,0.0,0.0,0.0,0.0,0.0,0.0,0.0,0.0,0.0,0.0,0.0,0.0,15,apache-rat-core\src\main\java\org\apache\rat\ReportFailedRuntimeException.java,0,0,0,0
org.apache.rat.ReportTest, 0, 0, 0, 0, 0, 0, 0, 0, 0, 0, 0, 0, 0, 0,0.0,0.0,0.0,0.0,0.0,0.0,0.0,0.0,0.0,0.0,0.0,0.0,0.0,93,apache-rat-core\src\test\java\org\apache\rat\ReportTest.java,0,0,0,0
org.apache.rat.ReportTransformer, 0, 0, 0, 0, 0, 0, 0, 0, 0, 0, 0, 0, 0, 0,0.0,0.0,0.0,0.0,0.0,0.0,0.0,0.0,0.0,0.0,0.0,0.0,0.0,29,apache-rat-core\src\main\java\org\apache\rat\ReportTransformer.java,0,0,0,0
org.apache.rat.ReportTransformerTest, 0, 0, 0, 0, 0, 0, 0, 0, 0, 0, 0, 0, 0, 0,0.0,0.0,0.0,0.0,0.0,0.0,0.0,0.0,0.0,0.0,0.0,0.0,0.0,20,apache-rat-core\src\test\java\org\apache\rat\ReportTransformerTest.java,0,0,0,0
org.apache.rat.analysis.AnalyserFactoryTest, 0, 0, 0, 0, 0, 0, 0, 0, 0, 0, 0, 0, 0, 0,0.0,0.0,0.0,0.3333333333333333,0.0,0.0,0.0,0.0,0.0,0.0,0.0,0.0,0.0,70,apache-rat-core\src\test\java\org\apache\rat\analysis\AnalyserFactoryTest.java,0,0,0,0
org.apache.rat.analysis.DefaultAnalyserFactory, 0, 0, 0, 0, 0, 0, 0, 0, 0, 0, 0, 0, 0, 0,0.0,0.0,0.0,0.0,0.0,0.0,0.0,0.0,0.0,0.0,0.0,0.0,0.0,27,apache-rat-core\src\main\java\org\apache\rat\analysis\DefaultAnalyserFactory.java,0,0,0,0
org.apache.rat.analysis.DocumentHeaderAnalyser, 0, 0, 0, 0, 0, 0, 0, 0, 0, 0, 0, 0, 0, 0,0.0,0.0,0.0,0.0,0.0,0.0,0.0,0.0,0.0,0.0,0.0,0.0,0.0,26,apache-rat-core\src\main\java\org\apache\rat\analysis\DocumentHeaderAnalyser.java,0,0,0,0
org.apache.rat.analysis.HeaderCheckWorkerTest, 0, 0, 0, 0, 0, 0, 0, 0, 0, 0, 0, 0, 0, 0,0.0,0.0,0.5,0.0,0.0,0.0,0.0,0.0,0.0,0.0,0.0,0.0,0.0,10,apache-rat-core\src\test\java\org\apache\rat\analysis\HeaderCheckWorkerTest.java,0,0,0,0
org.apache.rat.analysis.IHeaderMatcher, 0, 0, 0, 0, 0, 0, 0, 0, 0, 0, 0, 0, 0, 0,0.0,0.0,0.0,0.0,0.0,0.0,0.0,0.0,0.0,0.0,0.0,0.0,0.0,10,apache-rat-core\src\main\java\org\apache\rat\analysis\IHeaderMatcher.java,0,0,2,4
org.apache.rat.analysis.MockLicenseMatcher, 0, 0, 1, 0, 0, 0, 0, 0, 0, 0, 0, 0, 0, 1,0.0,0.0,0.0,0.0,0.0,0.0,0.0,0.0,0.0,0.0,0.0,0.0,0.0,12,apache-rat-core\src\test\java\org\apache\rat\analysis\MockLicenseMatcher.java,0,0,0,0
org.apache.rat.analysis.RatHeaderAnalysisException, 0, 0, 0, 0, 0, 0, 0, 0, 0, 0, 0, 0, 0, 0,0.0,0.0,0.0,0.0,0.0,0.0,0.0,0.0,0.0,0.0,0.0,0.0,0.0,15,apache-rat-core\src\main\java\org\apache\rat\analysis\RatHeaderAnalysisException.java,0,0,0,0
org.apache.rat.analysis.RatReportAnalysisResultException, 0, 0, 0, 0, 0, 0, 0, 0, 0, 0, 0, 0, 0, 0,0.0,0.0,0.0,0.0,0.0,0.0,0.0,0.0,0.0,0.0,0.0,0.0,0.0,13,apache-rat-core\src\main\java\org\apache\rat\analysis\RatReportAnalysisResultException.java,0,0,0,0
org.apache.rat.analysis.generation.GeneratedLicenseNotRequiredTest, 0, 0, 0, 0, 0, 0, 0, 0, 0, 0, 0, 0, 0, 0,0.0,0.0,0.5,0.0,0.0,0.0,0.0,0.0,0.0,0.0,0.0,0.0,0.0,16,apache-rat-core\src\test\java\org\apache\rat\analysis\generation\GeneratedLicenseNotRequiredTest.java,0,0,0,0
org.apache.rat.analysis.generation.JavaDocLicenseNotRequiredTest, 0, 0, 0, 0, 0, 0, 0, 0, 0, 0, 0, 0, 0, 0,0.0,0.0,0.3333333333333333,0.0,0.0,0.0,0.0,0.0,0.0,0.0,0.0,0.0,0.0,37,apache-rat-core\src\test\java\org\apache\rat\analysis\generation\JavaDocLicenseNotRequiredTest.java,0,0,0,0
org.apache.rat.analysis.license.ApacheSoftwareLicense20, 0, 0, 0, 0, 0, 0, 0, 0, 0, 0, 0, 0, 0, 0,0.0,0.0,0.0,0.0,0.0,0.0,0.0,0.0,0.0,0.0,0.0,0.0,0.0,8,apache-rat-core\src\main\java\org\apache\rat\analysis\license\ApacheSoftwareLicense20.java,0,0,0,0
org.apache.rat.analysis.license.ApacheSoftwareLicense20Test, 0, 0, 0, 0, 0, 0, 0, 0, 0, 0, 0, 0, 0, 0,0.0,0.0,0.25,0.0,0.0,0.0,0.0,0.0,0.0,0.0,0.0,0.0,0.0,36,apache-rat-core\src\test\java\org\apache\rat\analysis\license\ApacheSoftwareLicense20Test.java,0,0,0,0
org.apache.rat.analysis.license.AppliedApacheSoftwareLicense20, 0, 0, 0, 0, 0, 0, 0, 0, 0, 0, 0, 0, 0, 0,0.0,0.0,0.0,0.0,0.0,0.0,0.0,0.0,0.0,0.0,0.0,0.0,0.0,37,apache-rat-core\src\main\java\org\apache\rat\analysis\license\AppliedApacheSoftwareLicense20.java,0,0,0,0
org.apache.rat.analysis.license.AppliedApacheSoftwareLicense20Test, 0, 0, 0, 0, 0, 0, 0, 0, 0, 0, 0, 0, 0, 0,0.0,0.0,0.2,0.0,0.0,0.0,0.0,0.0,0.0,0.0,0.0,0.0,0.0,61,apache-rat-core\src\test\java\org\apache\rat\analysis\license\AppliedApacheSoftwareLicense20Test.java,0,0,0,0
org.apache.rat.analysis.license.CDDL1License, 0, 0, 0, 0, 0, 0, 0, 0, 0, 0, 0, 0, 0, 0,0.0,0.0,0.0,0.0,0.0,0.0,0.0,0.0,0.0,0.0,0.0,0.0,0.0,40,apache-rat-core\src\main\java\org\apache\rat\analysis\license\CDDL1License.java,19,2,5,31
org.apache.rat.analysis.license.CopyrightHeader, 0, 0, 0, 0, 0, 0, 0, 0, 0, 0, 0, 0, 0, 0,0.0,0.0,0.0,0.0,0.0,0.0,0.0,0.0,0.0,0.0,0.0,0.0,0.0,45,apache-rat-core\src\main\java\org\apache\rat\analysis\license\CopyrightHeader.java,0,0,0,0
org.apache.rat.analysis.license.CopyrightHeaderTest, 0, 0, 0, 0, 0, 0, 0, 0, 0, 0, 0, 0, 0, 0,0.0,0.0,0.3333333333333333,0.0,0.0,0.0,0.0,0.0,0.0,0.0,0.0,0.0,0.0,41,apache-rat-core\src\test\java\org\apache\rat\analysis\license\CopyrightHeaderTest.java,0,0,0,0
org.apache.rat.analysis.license.DirectoryScanner, 0, 0, 0, 0, 0, 0, 0, 0, 0, 0, 0, 0, 0, 0,0.0,0.0,0.25,0.0,0.0,0.0,0.0,0.0,0.0,0.0,0.0,0.0,0.0,25,apache-rat-core\src\test\java\org\apache\rat\analysis\license\DirectoryScanner.java,0,0,0,0
org.apache.rat.analysis.license.DojoLicenseHeader, 0, 0, 0, 0, 0, 0, 0, 0, 0, 0, 0, 0, 0, 0,0.0,0.0,0.0,0.0,0.0,0.0,0.0,0.0,0.0,0.0,0.0,0.0,0.0,7,apache-rat-core\src\main\java\org\apache\rat\analysis\license\DojoLicenseHeader.java,0,0,0,0
org.apache.rat.analysis.license.GPL1License, 0, 0, 0, 0, 0, 0, 0, 0, 0, 0, 0, 0, 0, 0,0.0,0.0,0.0,0.0,0.0,0.0,0.0,0.0,0.0,0.0,0.0,0.0,0.0,10,apache-rat-core\src\main\java\org\apache\rat\analysis\license\GPL1License.java,0,0,0,0
org.apache.rat.analysis.license.GPL2License, 0, 0, 0, 0, 0, 0, 0, 0, 0, 0, 0, 0, 0, 0,0.0,0.0,0.0,0.0,0.0,0.0,0.0,0.0,0.0,0.0,0.0,0.0,0.0,11,apache-rat-core\src\main\java\org\apache\rat\analysis\license\GPL2License.java,0,0,0,0
org.apache.rat.analysis.license.GPL3License, 0, 0, 0, 0, 0, 0, 0, 0, 0, 0, 0, 0, 0, 0,0.0,0.0,0.0,0.0,0.0,0.0,0.0,0.0,0.0,0.0,0.0,0.0,0.0,11,apache-rat-core\src\main\java\org\apache\rat\analysis\license\GPL3License.java,0,0,0,0
org.apache.rat.analysis.license.MITLicense, 0, 0, 0, 0, 0, 0, 0, 0, 0, 0, 0, 0, 0, 0,0.0,0.0,0.0,0.0,0.0,0.0,0.0,0.0,0.0,0.0,0.0,0.0,0.0,10,apache-rat-core\src\main\java\org\apache\rat\analysis\license\MITLicense.java,0,0,0,0
org.apache.rat.analysis.license.MockStandardLicense, 0, 0, 0, 0, 0, 0, 0, 0, 0, 0, 0, 0, 0, 0,0.0,0.0,0.0,0.0,0.0,0.0,0.0,0.0,0.0,0.0,0.0,0.0,0.0,6,apache-rat-core\src\test\java\org\apache\rat\analysis\license\MockStandardLicense.java,0,0,0,0
org.apache.rat.analysis.license.OASISLicense, 0, 0, 0, 0, 0, 0, 0, 0, 0, 0, 0, 0, 0, 0,0.0,0.0,0.0,0.0,0.0,0.0,0.0,0.0,0.0,0.0,0.0,0.0,0.0,30,apache-rat-core\src\main\java\org\apache\rat\analysis\license\OASISLicense.java,0,0,0,0
org.apache.rat.analysis.license.OASISLicenseTest, 0, 0, 0, 0, 0, 0, 0, 0, 0, 0, 0, 0, 0, 0,0.0,0.0,0.2,0.0,0.0,0.0,0.0,0.0,0.0,0.0,0.0,0.0,0.0,64,apache-rat-core\src\test\java\org\apache\rat\analysis\license\OASISLicenseTest.java,0,0,0,0
org.apache.rat.analysis.license.SimplePatternBasedLicense, 0, 0, 0, 0, 0, 0, 0, 0, 0, 0, 0, 0, 0, 0,0.0,0.0,0.0,0.0,0.0,0.0,0.0,0.0,0.0,0.0,0.0,0.0,0.0,38,apache-rat-core\src\main\java\org\apache\rat\analysis\license\SimplePatternBasedLicense.java,0,0,0,0
org.apache.rat.analysis.license.TMF854LicenseHeader, 0, 0, 0, 0, 0, 0, 0, 0, 0, 0, 0, 0, 0, 0,0.0,0.0,0.0,0.0,0.0,0.0,0.0,0.0,0.0,0.0,0.0,0.0,0.0,8,apache-rat-core\src\main\java\org\apache\rat\analysis\license\TMF854LicenseHeader.java,0,0,0,0
org.apache.rat.analysis.license.W3CDocLicense, 0, 0, 0, 0, 0, 0, 0, 0, 0, 0, 0, 0, 0, 0,0.0,0.0,0.0,0.0,0.0,0.0,0.0,0.0,0.0,0.0,0.0,0.0,0.0,11,apache-rat-core\src\main\java\org\apache\rat\analysis\license\W3CDocLicense.java,0,0,0,0
org.apache.rat.analysis.license.W3CLicense, 0, 0, 0, 0, 0, 0, 0, 0, 0, 0, 0, 0, 0, 0,0.0,0.0,0.0,0.0,0.0,0.0,0.0,0.0,0.0,0.0,0.0,0.0,0.0,11,apache-rat-core\src\main\java\org\apache\rat\analysis\license\W3CLicense.java,0,0,0,0
org.apache.rat.analysis.license.W3CLicenseTest, 0, 0, 0, 0, 0, 0, 0, 0, 0, 0, 0, 0, 0, 0,0.0,0.0,0.25,0.0,0.0,0.0,0.0,0.0,0.0,0.0,0.0,0.0,0.0,23,apache-rat-core\src\test\java\org\apache\rat\analysis\license\W3CLicenseTest.java,0,0,0,0
org.apache.rat.analysis.util.HeaderMatcherMultiplexer, 0, 0, 0, 0, 0, 0, 0, 0, 0, 0, 0, 0, 0, 0,0.0,0.0,0.0,0.4,0.0,0.0,0.0,0.0,0.0,0.0,0.0,0.0,0.0,21,apache-rat-core\src\main\java\org\apache\rat\analysis\util\HeaderMatcherMultiplexer.java,0,0,0,0
org.apache.rat.analysis.util.MatcherMultiplexerTest, 0, 0, 0, 0, 0, 0, 0, 0, 0, 0, 0, 0, 0, 0,0.0,0.0,0.5,0.0,0.0,0.0,0.0,0.0,0.0,0.0,0.0,0.0,0.0,44,apache-rat-core\src\test\java\org\apache\rat\analysis\util\MatcherMultiplexerTest.java,0,0,0,0
org.apache.rat.annotation.TestLicenceAppender, 0, 0, 0, 1, 0, 0, 0, 0, 0, 0, 0, 0, 0, 1,0.0,0.0,0.0,0.0,0.0,0.0,0.0,0.0,0.0,0.0,0.0,0.0,0.0,586,apache-rat-core\src\test\java\org\apache\rat\annotation\TestLicenceAppender.java,0,25,26,77
org.apache.rat.anttasks.FullTextLicenseMatcher, 0, 0, 0, 0, 0, 0, 0, 0, 0, 0, 0, 0, 0, 0,0.0,0.0,0.0,0.0,0.0,0.0,0.0,0.0,0.0,0.0,0.0,0.0,0.0,34,apache-rat-tasks\src\main\java\org\apache\rat\anttasks\FullTextLicenseMatcher.java,0,0,0,0
org.apache.rat.anttasks.Report, 0, 0, 0, 1, 0, 0, 0, 0, 0, 0, 0, 0, 0, 1,0.0,0.0,0.0,0.0,0.0,0.0,0.0,0.0,0.0,0.0,0.0,0.0,0.0,196,apache-rat-tasks\src\main\java\org\apache\rat\anttasks\Report.java,0,0,2,4
org.apache.rat.anttasks.ReportTest, 0, 0, 0, 0, 0, 0, 0, 0, 0, 0, 0, 0, 0, 0,0.0,0.0,0.0,0.0,0.0,0.0,0.0,0.0,0.0,0.0,0.0,0.0,0.0,77,apache-rat-tasks\src\test\java\org\apache\rat\anttasks\ReportTest.java,0,0,1,2
org.apache.rat.anttasks.ResourceCollectionContainer, 0, 0, 0, 0, 0, 0, 0, 0, 0, 0, 0, 0, 0, 0,0.0,0.0,0.0,1.0,0.0,0.0,0.0,0.0,0.0,0.0,0.0,0.0,0.0,54,apache-rat-tasks\src\main\java\org\apache\rat\anttasks\ResourceCollectionContainer.java,0,0,0,0
org.apache.rat.anttasks.SubstringLicenseMatcher, 0, 0, 0, 0, 0, 0, 0, 0, 0, 0, 0, 0, 0, 0,0.0,0.0,0.0,0.0,0.0,0.0,0.0,0.0,0.0,0.0,0.0,0.0,0.0,34,apache-rat-tasks\src\main\java\org\apache\rat\anttasks\SubstringLicenseMatcher.java,0,0,0,0
org.apache.rat.api.Document, 0, 0, 0, 0, 0, 0, 0, 0, 0, 0, 0, 0, 0, 0,0.0,0.0,0.0,0.0,0.0,0.0,0.0,0.0,0.0,0.0,0.0,0.0,0.0,34,apache-rat-core\src\main\java\org\apache\rat\api\Document.java,0,0,5,10
org.apache.rat.api.MetaData, 0, 0, 0, 1, 0, 0, 0, 0, 0, 0, 0, 0, 0, 1,0.0,0.0,0.16666666666666666,0.08333333333333333,0.0,0.0,0.0,0.0,0.0,0.0,0.0,0.0,0.0,175,apache-rat-core\src\main\java\org\apache\rat\api\MetaData.java,0,0,0,0
org.apache.rat.api.MimeTyper, 0, 0, 0, 0, 0, 0, 0, 0, 0, 0, 0, 0, 0, 0,0.0,0.0,0.0,0.0,0.0,0.0,0.0,0.0,0.0,0.0,0.0,0.0,0.0,175,apache-rat-core\src\main\java\org\apache\rat\api\MimeTyper.java,0,0,1,2
org.apache.rat.api.RatException, 0, 0, 0, 0, 0, 0, 0, 0, 0, 0, 0, 0, 0, 0,0.0,0.0,0.0,0.5,0.0,0.0,0.0,0.0,0.0,0.0,0.0,0.0,0.0,15,apache-rat-core\src\main\java\org\apache\rat\api\RatException.java,0,0,0,0
org.apache.rat.document.CompositeDocumentException, 0, 0, 0, 0, 0, 0, 0, 0, 0, 0, 0, 0, 0, 0,0.0,0.0,0.0,0.0,0.0,0.0,0.0,0.0,0.0,0.0,0.0,0.0,0.0,9,apache-rat-core\src\main\java\org\apache\rat\document\CompositeDocumentException.java,0,0,0,0
org.apache.rat.document.IDocumentAnalyser, 0, 0, 0, 0, 0, 0, 0, 0, 0, 0, 0, 0, 0, 0,0.0,0.0,0.0,0.0,0.0,0.0,0.0,0.0,0.0,0.0,0.0,0.0,0.0,9,apache-rat-core\src\main\java\org\apache\rat\document\IDocumentAnalyser.java,0,0,0,0
org.apache.rat.document.MockDocument, 0, 0, 1, 0, 0, 0, 0, 0, 0, 0, 0, 0, 0, 1,0.0,0.0,0.0,0.25,0.0,0.0,0.0,0.0,0.0,0.0,0.0,0.0,0.0,31,apache-rat-core\src\test\java\org\apache\rat\document\MockDocument.java,0,0,0,0
org.apache.rat.document.MockDocumentAnalyser, 0, 0, 1, 0, 0, 0, 0, 0, 0, 0, 0, 0, 0, 1,0.0,0.0,0.0,0.0,0.0,0.0,0.0,0.0,0.0,0.0,0.0,0.0,0.0,6,apache-rat-core\src\test\java\org\apache\rat\document\MockDocumentAnalyser.java,0,0,0,0
org.apache.rat.document.MockLocation, 0, 0, 1, 0, 0, 0, 0, 0, 0, 0, 0, 0, 0, 1,0.0,0.0,0.0,0.07692307692307693,0.0,0.0,0.0,0.0,0.0,0.0,0.0,0.0,0.0,34,apache-rat-core\src\test\java\org\apache\rat\document\MockLocation.java,0,0,0,0
org.apache.rat.document.RatDocumentAnalysisException, 0, 0, 0, 0, 0, 0, 0, 0, 0, 0, 0, 0, 0, 0,0.0,0.0,0.0,0.0,0.0,0.0,0.0,0.0,0.0,0.0,0.0,0.0,0.0,14,apache-rat-core\src\main\java\org\apache\rat\document\RatDocumentAnalysisException.java,0,0,0,0
org.apache.rat.document.ToNameTransformer, 0, 0, 0, 0, 0, 0, 0, 0, 0, 0, 0, 0, 0, 0,0.0,0.0,0.0,0.0,0.0,0.0,0.0,0.0,0.0,0.0,0.0,0.0,0.0,14,apache-rat-core\src\main\java\org\apache\rat\document\ToNameTransformer.java,0,0,0,0
org.apache.rat.document.ToNameTransformerTest, 0, 0, 0, 0, 0, 0, 0, 0, 0, 0, 0, 0, 0, 0,0.0,0.0,0.5,0.0,0.0,0.0,0.0,0.0,0.0,0.0,0.0,0.0,0.0,15,apache-rat-core\src\test\java\org\apache\rat\document\ToNameTransformerTest.java,0,0,0,0
org.apache.rat.document.UnsuitableDocumentException, 0, 0, 0, 0, 0, 0, 0, 0, 0, 0, 0, 0, 0, 0,0.0,0.0,0.0,0.0,0.0,0.0,0.0,0.0,0.0,0.0,0.0,0.0,0.0,15,apache-rat-core\src\main\java\org\apache\rat\document\UnsuitableDocumentException.java,0,0,0,0
org.apache.rat.document.impl.AbstractMonolithicDocument, 0, 0, 0, 0, 0, 0, 0, 0, 0, 0, 0, 0, 0, 0,0.0,0.0,0.0,0.5,0.0,0.0,0.0,0.0,0.0,0.0,0.0,0.0,0.0,17,apache-rat-core\src\main\java\org\apache\rat\document\impl\AbstractMonolithicDocument.java,0,0,0,0
org.apache.rat.document.impl.ArchiveEntryDocument, 0, 0, 0, 0, 0, 0, 0, 0, 0, 0, 0, 0, 0, 0,0.0,0.0,0.0,0.3333333333333333,0.0,0.0,0.0,0.0,0.0,0.0,0.0,0.0,0.0,33,apache-rat-core\src\main\java\org\apache\rat\document\impl\ArchiveEntryDocument.java,0,0,0,0
org.apache.rat.document.impl.DocumentImplUtils, 0, 0, 0, 0, 0, 0, 0, 0, 0, 0, 0, 0, 0, 0,0.0,0.0,0.0,0.0,0.0,0.0,0.0,0.0,0.0,0.0,0.0,0.0,0.0,27,apache-rat-core\src\main\java\org\apache\rat\document\impl\DocumentImplUtils.java,0,0,0,0
org.apache.rat.document.impl.FileDocument, 0, 0, 0, 0, 0, 0, 0, 0, 0, 0, 0, 0, 0, 0,0.0,0.0,0.0,0.3333333333333333,0.0,0.0,0.0,0.0,0.0,0.0,0.0,0.0,0.0,34,apache-rat-core\src\main\java\org\apache\rat\document\impl\FileDocument.java,0,0,0,0
org.apache.rat.document.impl.MonolithicFileDocument, 0, 0, 0, 0, 0, 0, 0, 0, 0, 0, 0, 0, 0, 0,0.0,0.0,0.0,0.0,0.0,0.0,0.0,0.0,0.0,0.0,0.0,0.0,0.0,27,apache-rat-core\src\main\java\org\apache\rat\document\impl\MonolithicFileDocument.java,0,2,2,6
org.apache.rat.document.impl.SingularFileDocumentTest, 0, 0, 0, 0, 0, 0, 0, 0, 0, 0, 0, 0, 0, 0,0.0,0.0,0.0,0.0,0.0,0.0,0.0,0.0,0.0,0.0,0.0,0.0,0.0,22,apache-rat-core\src\test\java\org\apache\rat\document\impl\SingularFileDocumentTest.java,0,0,0,0
org.apache.rat.document.impl.guesser.ArchiveGuesser, 0, 0, 0, 0, 0, 0, 0, 0, 0, 0, 0, 0, 0, 0,0.0,0.0,0.0,0.0,0.0,0.0,0.0,0.0,0.0,0.0,0.0,0.0,0.0,21,apache-rat-core\src\main\java\org\apache\rat\document\impl\guesser\ArchiveGuesser.java,0,6,1,8
org.apache.rat.document.impl.guesser.ArchiveGuesserTest, 0, 0, 0, 0, 0, 0, 0, 0, 0, 0, 0, 0, 0, 0,0.0,0.0,0.5,0.0,0.0,0.0,0.0,0.0,0.0,0.0,0.0,0.0,0.0,20,apache-rat-core\src\test\java\org\apache\rat\document\impl\guesser\ArchiveGuesserTest.java,0,12,0,12
org.apache.rat.document.impl.guesser.GuessUtils, 0, 0, 0, 0, 0, 0, 0, 0, 0, 0, 0, 0, 0, 0,0.0,0.0,0.0,0.0,0.0,0.0,0.0,0.0,0.0,0.0,0.0,0.0,0.0,12,apache-rat-core\src\main\java\org\apache\rat\document\impl\guesser\GuessUtils.java,0,0,0,0
org.apache.rat.document.impl.guesser.GuessUtilsTest, 0, 0, 0, 0, 0, 0, 0, 0, 0, 0, 0, 0, 0, 0,0.0,0.0,0.0,0.0,0.0,0.0,0.0,0.0,0.0,0.0,0.0,0.0,0.0,11,apache-rat-core\src\test\java\org\apache\rat\document\impl\guesser\GuessUtilsTest.java,0,0,0,0
org.apache.rat.document.impl.guesser.NoteGuesser, 0, 0, 0, 0, 0, 0, 0, 0, 0, 0, 0, 0, 0, 0,0.0,0.0,0.0,0.0,0.0,0.0,0.0,0.0,0.0,0.0,0.0,0.0,0.0,43,apache-rat-core\src\main\java\org\apache\rat\document\impl\guesser\NoteGuesser.java,0,1,1,3
org.apache.rat.document.impl.guesser.NoteGuesserTest, 0, 0, 0, 0, 0, 0, 0, 0, 0, 0, 0, 0, 0, 0,0.0,0.0,0.5,0.0,0.0,0.0,0.0,0.0,0.0,0.0,0.0,0.0,0.0,35,apache-rat-core\src\test\java\org\apache\rat\document\impl\guesser\NoteGuesserTest.java,0,0,0,0
org.apache.rat.document.impl.util.DocumentAnalyserMultiplexer, 0, 0, 0, 0, 0, 0, 0, 0, 0, 0, 0, 0, 0, 0,0.0,0.0,0.0,0.0,0.0,0.0,0.0,0.0,0.0,0.0,0.0,0.0,0.0,12,apache-rat-core\src\main\java\org\apache\rat\document\impl\util\DocumentAnalyserMultiplexer.java,0,0,0,0
org.apache.rat.document.impl.util.DocumentAnalyserMultiplexerTest, 0, 0, 0, 0, 0, 0, 0, 0, 0, 0, 0, 0, 0, 0,0.0,0.0,0.5,0.0,0.0,0.0,0.0,0.0,0.0,0.0,0.0,0.0,0.0,33,apache-rat-core\src\test\java\org\apache\rat\document\impl\util\DocumentAnalyserMultiplexerTest.java,0,0,0,0
org.apache.rat.header.ArrayCharFilter, 0, 0, 0, 0, 0, 0, 0, 0, 0, 0, 0, 0, 0, 0,0.0,0.0,0.0,0.0,0.0,0.0,0.0,0.0,0.0,0.0,0.0,0.0,0.0,19,apache-rat-core\src\main\java\org\apache\rat\header\ArrayCharFilter.java,0,0,0,0
org.apache.rat.header.ArrayCharFilterTest, 0, 0, 0, 0, 0, 0, 0, 0, 0, 0, 0, 0, 0, 0,0.0,0.0,0.0,0.0,0.0,0.0,0.0,0.0,0.0,0.0,0.0,0.0,0.0,17,apache-rat-core\src\test\java\org\apache\rat\header\ArrayCharFilterTest.java,0,0,0,0
org.apache.rat.header.CharFilter, 0, 0, 0, 0, 0, 0, 0, 0, 0, 0, 0, 0, 0, 0,0.0,0.0,0.0,0.0,0.0,0.0,0.0,0.0,0.0,0.0,0.0,0.0,0.0,17,apache-rat-core\src\main\java\org\apache\rat\header\CharFilter.java,0,0,0,0
org.apache.rat.header.HeaderBean, 0, 0, 0, 0, 0, 0, 0, 0, 0, 0, 0, 0, 0, 0,0.0,0.0,0.0,0.0,0.0,0.0,0.0,0.0,0.0,0.0,0.0,0.0,0.0,24,apache-rat-core\src\main\java\org\apache\rat\header\HeaderBean.java,0,0,0,0
org.apache.rat.header.HeaderMatcherTest, 0, 0, 0, 0, 0, 0, 0, 0, 0, 0, 0, 0, 0, 0,0.0,0.0,1.0,0.0,0.0,0.0,0.0,0.0,0.0,0.0,0.0,0.0,0.0,62,apache-rat-core\src\test\java\org\apache\rat\header\HeaderMatcherTest.java,0,0,0,0
org.apache.rat.header.HeaderMatcherWithBeansTest, 0, 0, 0, 0, 0, 0, 0, 0, 0, 0, 0, 0, 0, 0,0.0,0.0,0.5,0.0,0.0,0.0,0.0,0.0,0.0,0.0,0.0,0.0,0.0,46,apache-rat-core\src\test\java\org\apache\rat\header\HeaderMatcherWithBeansTest.java,0,0,0,0
org.apache.rat.header.SimpleCharFilter, 0, 0, 1, 0, 0, 0, 0, 0, 0, 0, 0, 0, 0, 1,0.0,0.0,0.0,0.0,0.0,0.0,0.0,0.0,0.0,0.0,0.0,0.0,0.0,7,apache-rat-core\src\test\java\org\apache\rat\header\SimpleCharFilter.java,0,0,0,0
org.apache.rat.license.AcademicFree21LicenseFamily, 0, 0, 0, 0, 0, 0, 0, 0, 0, 0, 0, 0, 0, 0,0.0,0.0,0.0,0.0,0.0,0.0,0.0,0.0,0.0,0.0,0.0,0.0,0.0,5,apache-rat-core\src\main\java\org\apache\rat\license\AcademicFree21LicenseFamily.java,0,0,0,0
org.apache.rat.license.Apache20LicenseFamily, 0, 0, 0, 0, 0, 0, 0, 0, 0, 0, 0, 0, 0, 0,0.0,0.0,0.0,0.0,0.0,0.0,0.0,0.0,0.0,0.0,0.0,0.0,0.0,5,apache-rat-core\src\main\java\org\apache\rat\license\Apache20LicenseFamily.java,0,0,0,0
org.apache.rat.license.CDDL1LicenseFamily, 0, 0, 0, 0, 0, 0, 0, 0, 0, 0, 0, 0, 0, 0,0.0,0.0,0.0,0.0,0.0,0.0,0.0,0.0,0.0,0.0,0.0,0.0,0.0,5,apache-rat-core\src\main\java\org\apache\rat\license\CDDL1LicenseFamily.java,0,0,0,0
org.apache.rat.license.GPL1LicenseFamily, 0, 0, 0, 0, 0, 0, 0, 0, 0, 0, 0, 0, 0, 0,0.0,0.0,0.0,0.0,0.0,0.0,0.0,0.0,0.0,0.0,0.0,0.0,0.0,5,apache-rat-core\src\main\java\org\apache\rat\license\GPL1LicenseFamily.java,0,0,0,0
org.apache.rat.license.GPL2LicenseFamily, 0, 0, 0, 0, 0, 0, 0, 0, 0, 0, 0, 0, 0, 0,0.0,0.0,0.0,0.0,0.0,0.0,0.0,0.0,0.0,0.0,0.0,0.0,0.0,5,apache-rat-core\src\main\java\org\apache\rat\license\GPL2LicenseFamily.java,0,0,0,0
org.apache.rat.license.GPL3LicenseFamily, 0, 0, 0, 0, 0, 0, 0, 0, 0, 0, 0, 0, 0, 0,0.0,0.0,0.0,0.0,0.0,0.0,0.0,0.0,0.0,0.0,0.0,0.0,0.0,5,apache-rat-core\src\main\java\org\apache\rat\license\GPL3LicenseFamily.java,0,0,0,0
org.apache.rat.license.ILicenseFamily, 0, 0, 0, 0, 0, 0, 0, 0, 0, 0, 0, 0, 0, 0,0.0,0.0,0.0,0.0,0.0,0.0,0.0,0.0,0.0,0.0,0.0,0.0,0.0,5,apache-rat-core\src\main\java\org\apache\rat\license\ILicenseFamily.java,0,0,0,0
org.apache.rat.license.MITLicenseFamily, 0, 0, 0, 0, 0, 0, 0, 0, 0, 0, 0, 0, 0, 0,0.0,0.0,0.0,0.0,0.0,0.0,0.0,0.0,0.0,0.0,0.0,0.0,0.0,5,apache-rat-core\src\main\java\org\apache\rat\license\MITLicenseFamily.java,0,0,0,0
org.apache.rat.license.ModifiedBSDLicenseFamily, 0, 0, 0, 0, 0, 0, 0, 0, 0, 0, 0, 0, 0, 0,0.0,0.0,0.0,0.0,0.0,0.0,0.0,0.0,0.0,0.0,0.0,0.0,0.0,5,apache-rat-core\src\main\java\org\apache\rat\license\ModifiedBSDLicenseFamily.java,0,0,0,0
org.apache.rat.license.OASISLicenseFamily, 0, 0, 0, 0, 0, 0, 0, 0, 0, 0, 0, 0, 0, 0,0.0,0.0,0.0,0.0,0.0,0.0,0.0,0.0,0.0,0.0,0.0,0.0,0.0,5,apache-rat-core\src\main\java\org\apache\rat\license\OASISLicenseFamily.java,0,0,0,0
org.apache.rat.license.SimpleLicenseFamily, 0, 0, 0, 0, 0, 0, 0, 0, 0, 0, 0, 0, 0, 0,0.0,0.0,0.0,0.0,0.0,0.0,0.0,0.0,0.0,0.0,0.0,0.0,0.0,15,apache-rat-core\src\main\java\org\apache\rat\license\SimpleLicenseFamily.java,0,0,0,0
org.apache.rat.license.W3CDocumentLicenseFamily, 0, 0, 0, 0, 0, 0, 0, 0, 0, 0, 0, 0, 0, 0,0.0,0.0,0.0,0.0,0.0,0.0,0.0,0.0,0.0,0.0,0.0,0.0,0.0,5,apache-rat-core\src\main\java\org\apache\rat\license\W3CDocumentLicenseFamily.java,0,0,0,0
org.apache.rat.license.W3CSoftwareLicenseFamily, 0, 0, 0, 0, 0, 0, 0, 0, 0, 0, 0, 0, 0, 0,0.0,0.0,0.0,0.0,0.0,0.0,0.0,0.0,0.0,0.0,0.0,0.0,0.0,5,apache-rat-core\src\main\java\org\apache\rat\license\W3CSoftwareLicenseFamily.java,0,0,0,0
org.apache.rat.mp.AbstractRatMojo, 0, 0, 0, 1, 0, 0, 0, 0, 0, 0, 0, 0, 0, 1,0.0,0.0,0.0,0.0,0.0,0.0,0.0,0.0,0.0,0.0,0.0,0.0,0.0,305,apache-rat-plugin\src\main\java\org\apache\rat\mp\AbstractRatMojo.java,58,33,97,285
org.apache.rat.mp.FilesReportable, 0, 0, 0, 0, 0, 0, 0, 0, 0, 0, 0, 0, 0, 0,0.0,0.0,0.0,1.0,0.0,0.0,0.0,0.0,0.0,0.0,0.0,0.0,0.0,60,apache-rat-plugin\src\main\java\org\apache\rat\mp\FilesReportable.java,0,0,0,0
org.apache.rat.mp.HeaderMatcherSpecification, 0, 0, 0, 0, 0, 0, 0, 0, 0, 0, 0, 0, 0, 0,0.0,0.0,0.0,1.0,0.0,0.0,0.0,0.0,0.0,0.0,0.0,0.0,0.0,12,apache-rat-plugin\src\main\java\org\apache\rat\mp\HeaderMatcherSpecification.java,0,0,0,0
org.apache.rat.mp.LicenseFamilySpecification, 0, 0, 0, 0, 0, 0, 0, 0, 0, 0, 0, 0, 0, 0,0.0,0.0,0.0,1.0,0.0,0.0,0.0,0.0,0.0,0.0,0.0,0.0,0.0,12,apache-rat-plugin\src\main\java\org\apache\rat\mp\LicenseFamilySpecification.java,0,0,0,0
org.apache.rat.mp.RatCheckException, 0, 0, 0, 0, 0, 0, 0, 0, 0, 0, 0, 0, 0, 0,0.0,0.0,0.0,0.0,0.0,0.0,0.0,0.0,0.0,0.0,0.0,0.0,0.0,8,apache-rat-plugin\src\main\java\org\apache\rat\mp\RatCheckException.java,0,0,0,0
org.apache.rat.mp.RatCheckMojo, 0, 0, 0, 0, 0, 0, 0, 0, 0, 0, 0, 0, 0, 0,0.0,0.0,0.0,0.25,0.0,0.0,0.0,0.0,0.0,0.0,0.0,0.0,0.0,111,apache-rat-plugin\src\main\java\org\apache\rat\mp\RatCheckMojo.java,0,6,1,8
org.apache.rat.policy.DefaultPolicy, 0, 0, 0, 0, 0, 0, 0, 0, 0, 0, 0, 0, 0, 0,0.0,0.0,0.0,0.3333333333333333,0.0,0.0,0.0,0.0,0.0,0.0,0.0,0.0,0.0,57,apache-rat-core\src\main\java\org\apache\rat\policy\DefaultPolicy.java,0,0,0,0
org.apache.rat.policy.DefaultPolicyTest, 0, 0, 0, 0, 0, 0, 0, 0, 0, 0, 0, 0, 0, 0,0.0,0.0,0.25,0.25,0.0,0.0,0.0,0.0,0.0,0.0,0.0,0.0,0.0,45,apache-rat-core\src\test\java\org\apache\rat\policy\DefaultPolicyTest.java,0,0,0,0
org.apache.rat.report.AbstractReport, 0, 0, 0, 0, 0, 0, 0, 0, 0, 0, 0, 0, 0, 0,0.0,0.0,0.0,0.25,0.0,0.0,0.0,0.0,0.0,0.0,0.0,0.0,0.0,8,apache-rat-core\src\main\java\org\apache\rat\report\AbstractReport.java,0,0,0,0
org.apache.rat.report.IReportable, 0, 0, 0, 0, 0, 0, 0, 0, 0, 0, 0, 0, 0, 0,0.0,0.0,0.0,0.0,0.0,0.0,0.0,0.0,0.0,0.0,0.0,0.0,0.0,8,apache-rat-core\src\main\java\org\apache\rat\report\IReportable.java,0,0,1,2
org.apache.rat.report.RatReport, 0, 0, 0, 0, 0, 0, 0, 0, 0, 0, 0, 0, 0, 0,0.0,0.0,0.0,0.0,0.0,0.0,0.0,0.0,0.0,0.0,0.0,0.0,0.0,8,apache-rat-core\src\main\java\org\apache\rat\report\RatReport.java,0,0,3,6
org.apache.rat.report.claim.impl.AbstractClaimReporter, 0, 0, 0, 0, 0, 0, 0, 0, 0, 0, 0, 0, 0, 0,0.0,0.0,0.0,0.5,0.0,0.0,0.0,0.0,0.0,0.0,0.0,0.0,0.0,57,apache-rat-core\src\main\java\org\apache\rat\report\claim\impl\AbstractClaimReporter.java,0,0,0,0
org.apache.rat.report.claim.impl.xml.MockClaimReporter, 0, 0, 0, 0, 0, 0, 0, 0, 0, 0, 0, 0, 0, 0,0.0,0.0,0.0,0.0,0.0,0.0,0.0,0.0,0.0,0.0,0.0,0.0,0.0,2,apache-rat-core\src\test\java\org\apache\rat\report\claim\impl\xml\MockClaimReporter.java,0,0,0,0
org.apache.rat.report.claim.impl.xml.SimpleXmlClaimReporter, 0, 0, 0, 1, 0, 0, 0, 0, 0, 0, 0, 0, 0, 1,0.0,0.0,0.0,0.16666666666666666,0.0,0.0,0.0,0.0,0.0,0.0,0.0,0.0,0.0,96,apache-rat-core\src\main\java\org\apache\rat\report\claim\impl\xml\SimpleXmlClaimReporter.java,0,0,0,0
org.apache.rat.report.claim.util.ClaimReporterMultiplexer, 0, 0, 0, 0, 0, 0, 0, 0, 0, 0, 0, 0, 0, 0,0.0,0.0,0.0,0.0,0.0,0.0,0.0,0.0,0.0,0.0,0.0,0.0,0.0,30,apache-rat-core\src\main\java\org\apache\rat\report\claim\util\ClaimReporterMultiplexer.java,0,0,0,0
org.apache.rat.report.claim.util.LicenseAddingReport, 0, 0, 0, 0, 0, 0, 0, 0, 0, 0, 0, 0, 0, 0,0.0,0.0,0.0,0.25,0.0,0.0,0.0,0.0,0.0,0.0,0.0,0.0,0.0,24,apache-rat-core\src\main\java\org\apache\rat\report\claim\util\LicenseAddingReport.java,2,0,1,4
org.apache.rat.report.xml.XmlReportFactory, 0, 0, 0, 0, 0, 0, 0, 0, 0, 0, 0, 0, 0, 0,0.0,0.0,0.0,0.125,0.0,0.0,0.0,0.0,0.0,0.0,0.0,0.0,0.0,19,apache-rat-core\src\main\java\org\apache\rat\report\xml\XmlReportFactory.java,0,0,0,0
org.apache.rat.report.xml.XmlReportFactoryTest, 0, 0, 0, 0, 0, 0, 0, 0, 0, 0, 0, 0, 0, 0,0.0,0.0,0.0,0.0,0.0,0.0,0.0,0.0,0.0,0.0,0.0,0.0,0.0,53,apache-rat-core\src\test\java\org\apache\rat\report\xml\XmlReportFactoryTest.java,0,0,0,0
org.apache.rat.report.xml.XmlReportTest, 0, 0, 0, 0, 0, 0, 0, 0, 0, 0, 0, 0, 0, 0,0.0,0.0,0.0,0.16666666666666666,0.0,0.0,0.0,0.0,0.0,0.0,0.0,0.0,0.0,145,apache-rat-core\src\test\java\org\apache\rat\report\xml\XmlReportTest.java,0,0,0,0
org.apache.rat.report.xml.XmlUtils, 0, 0, 0, 0, 0, 0, 0, 0, 0, 0, 0, 0, 0, 0,0.0,0.0,0.0,0.0,0.0,0.0,0.0,0.0,0.0,0.0,0.0,0.0,0.0,36,apache-rat-core\src\test\java\org\apache\rat\report\xml\XmlUtils.java,0,0,0,0
org.apache.rat.report.xml.writer.IXmlWriter, 0, 0, 0, 0, 0, 0, 0, 0, 0, 0, 0, 0, 0, 0,0.0,0.0,0.0,0.0,0.0,0.0,0.0,0.0,0.0,0.0,0.0,0.0,0.0,36,apache-rat-core\src\main\java\org\apache\rat\report\xml\writer\IXmlWriter.java,0,0,0,0
org.apache.rat.report.xml.writer.InvalidXmlException, 0, 0, 0, 0, 0, 0, 0, 0, 0, 0, 0, 0, 0, 0,0.0,0.0,0.0,1.0,0.0,0.0,0.0,0.0,0.0,0.0,0.0,0.0,0.0,6,apache-rat-core\src\main\java\org\apache\rat\report\xml\writer\InvalidXmlException.java,0,0,0,0
org.apache.rat.report.xml.writer.OperationNotAllowedException, 0, 0, 0, 0, 0, 0, 0, 0, 0, 0, 0, 0, 0, 0,0.0,0.0,0.0,1.0,0.0,0.0,0.0,0.0,0.0,0.0,0.0,0.0,0.0,6,apache-rat-core\src\main\java\org\apache\rat\report\xml\writer\OperationNotAllowedException.java,0,0,0,0
org.apache.rat.report.xml.writer.XmlWriterUtils, 0, 0, 0, 0, 0, 0, 0, 0, 0, 0, 0, 0, 0, 0,0.0,0.0,0.0,0.0,0.0,0.0,0.0,0.0,0.0,0.0,0.0,0.0,0.0,6,apache-rat-core\src\main\java\org\apache\rat\report\xml\writer\XmlWriterUtils.java,0,0,0,0
org.apache.rat.report.xml.writer.XmlWriterUtilsTest, 0, 0, 0, 0, 0, 0, 0, 0, 0, 0, 0, 0, 0, 0,0.0,0.0,0.0,0.0,0.0,0.0,0.0,0.0,0.0,0.0,0.0,0.0,0.0,20,apache-rat-core\src\test\java\org\apache\rat\report\xml\writer\XmlWriterUtilsTest.java,0,0,0,0
org.apache.rat.report.xml.writer.impl.base.XmlWriterTest, 0, 0, 0, 1, 0, 0, 0, 0, 0, 0, 0, 0, 0, 1,0.0,0.0,0.0,0.0,0.0,0.0,0.0,0.0,0.0,0.0,0.0,0.0,0.0,402,apache-rat-core\src\test\java\org\apache\rat\report\xml\writer\impl\base\XmlWriterTest.java,0,0,0,0
org.apache.rat.test.utils.Resources, 0, 0, 0, 0, 0, 0, 0, 0, 0, 0, 0, 0, 0, 0,0.0,0.0,0.0,0.09090909090909091,0.0,0.0,0.0,0.0,0.0,0.0,0.0,0.0,0.0,38,apache-rat-core\src\test\java\org\apache\rat\test\utils\Resources.java,0,0,0,0
org.apache.rat.walker.ArchiveWalker, 0, 0, 0, 0, 0, 0, 0, 0, 0, 0, 0, 0, 0, 0,0.0,0.0,0.0,0.0,0.0,0.0,0.0,0.0,0.0,0.0,0.0,0.0,0.0,42,apache-rat-core\src\main\java\org\apache\rat\walker\ArchiveWalker.java,0,0,0,0
org.apache.rat.walker.DirectoryWalker, 0, 0, 0, 0, 0, 0, 0, 0, 0, 0, 0, 0, 0, 0,0.0,0.0,0.0,0.0,0.0,0.0,0.0,0.0,0.0,0.0,0.0,0.0,0.0,53,apache-rat-core\src\main\java\org\apache\rat\walker\DirectoryWalker.java,0,0,0,0
org.apache.rat.walker.FileNameComparatorTest, 0, 0, 0, 0, 0, 0, 0, 0, 0, 0, 0, 0, 0, 0,0.0,0.0,0.0,0.0,0.0,0.0,0.0,0.0,0.0,0.0,0.0,0.0,0.0,9,apache-rat-core\src\test\java\org\apache\rat\walker\FileNameComparatorTest.java,0,0,0,0
org.apache.rat.walker.Walker, 0, 0, 0, 0, 0, 0, 0, 0, 0, 0, 0, 0, 0, 0,0.0,0.0,0.0,0.0,0.0,0.0,0.0,0.0,0.0,0.0,0.0,0.0,0.0,40,apache-rat-core\src\main\java\org\apache\rat\walker\Walker.java,0,0,0,0
org.example.LicenseFamily, 0, 0, 0, 0, 0, 0, 0, 0, 0, 0, 0, 0, 0, 0,0.0,0.0,0.0,0.0,0.0,0.0,0.0,0.0,0.0,0.0,0.0,0.0,0.0,5,apache-rat-tasks\src\test\java\org\example\LicenseFamily.java,0,0,0,0
org.example.Matcher, 0, 0, 0, 0, 0, 0, 0, 0, 0, 0, 0, 0, 0, 0,0.0,0.0,0.0,0.0,0.0,0.0,0.0,0.0,0.0,0.0,0.0,0.0,0.0,11,apache-rat-tasks\src\test\java\org\example\Matcher.java,0,0,0,0
org.slf4j.ILoggerFactory, 0, 0, 0, 0, 0, 0, 0, 0, 0, 0, 0, 0, 0, 0,0.0,0.0,0.0,0.0,0.0,0.0,0.0,0.0,0.0,0.0,0.0,0.0,0.0,11,apache-rat-tasks\src\test\java\org\example\Matcher.java,0,0,0,0
