ClassName,AntiSingleton,Blob,ClassDataShouldBePrivate,ComplexClass,LargeClass,LazyClass,LongMethod,LongParameterList,MessageChains,RefusedParentBequest,SpaghettiCode,SpeculativeGenerality,SwissArmyKnife,NumOfAPs,AntiSingleton,Blob,ClassDataShouldBePrivate,ComplexClass,LargeClass,LazyClass,LongMethod,LongParameterList,MessageChains,RefusedParentBequest,SpaghettiCode,SpeculativeGenerality,SwissArmyKnife,LOC,name,deleted,added,changed,all
org.apache.tiles.AttributeTest, 0, 0, 0, 1, 0, 0, 0, 0, 0, 0, 0, 0, 0, 1,0.0,0.0,0.0,0.0,0.0,0.0,0.0,0.0,0.0,0.0,0.0,0.0,0.0,191,src\tiles-api\src\test\java\org\apache\tiles\AttributeTest.java,0,0,0,0
org.apache.tiles.CompareUtil, 0, 0, 0, 0, 0, 0, 0, 0, 0, 0, 0, 0, 0, 0,0.0,0.0,0.0,0.3333333333333333,0.0,0.0,0.0,0.0,0.0,0.0,0.0,0.0,0.0,15,src\tiles-api\src\main\java\org\apache\tiles\CompareUtil.java,0,0,0,0
org.apache.tiles.CompareUtilTest, 0, 0, 0, 0, 0, 0, 0, 0, 0, 0, 0, 0, 0, 0,0.0,0.0,0.0,0.0,0.0,0.0,0.0,0.0,0.0,0.0,0.0,0.0,0.0,16,src\tiles-api\src\test\java\org\apache\tiles\CompareUtilTest.java,0,0,0,0
org.apache.tiles.Expression, 0, 0, 0, 0, 0, 0, 0, 0, 0, 0, 0, 0, 0, 0,0.0,0.0,0.0,0.1111111111111111,0.0,0.0,0.0,0.2222222222222222,0.0,0.0,0.0,0.0,0.0,53,src\tiles-api\src\main\java\org\apache\tiles\Expression.java,0,0,0,0
org.apache.tiles.ExpressionTest, 0, 0, 0, 0, 0, 0, 0, 0, 0, 0, 0, 0, 0, 0,0.0,0.0,0.0,0.0,0.0,0.0,0.0,0.0,0.0,0.0,0.0,0.0,0.0,69,src\tiles-api\src\test\java\org\apache\tiles\ExpressionTest.java,0,0,0,0
org.apache.tiles.ListAttribute, 0, 0, 0, 1, 0, 0, 0, 0, 0, 0, 0, 0, 0, 1,0.0,0.0,0.0,0.0,0.0,0.0,0.0,0.5,0.0,0.0,0.0,0.0,0.0,62,src\tiles-api\src\main\java\org\apache\tiles\ListAttribute.java,0,0,0,0
org.apache.tiles.ListAttributeTest, 0, 0, 0, 0, 0, 0, 0, 0, 0, 0, 0, 0, 0, 0,0.0,0.0,0.0,1.0,0.0,0.0,0.0,0.0,0.0,0.0,0.0,0.0,0.0,112,src\tiles-api\src\test\java\org\apache\tiles\ListAttributeTest.java,0,0,0,0
org.apache.tiles.NoSuchContainerException, 0, 0, 0, 0, 0, 0, 0, 0, 0, 0, 0, 0, 0, 0,0.0,0.0,0.0,0.0,0.0,0.0,0.0,0.0,0.0,0.0,0.0,0.0,0.0,13,src\tiles-api\src\main\java\org\apache\tiles\NoSuchContainerException.java,0,0,0,0
org.apache.tiles.NoSuchContainerExceptionTest, 0, 0, 0, 0, 0, 0, 0, 0, 0, 0, 0, 0, 0, 0,0.0,0.0,0.0,0.0,0.0,0.0,0.0,0.0,0.0,0.0,0.0,0.0,0.0,28,src\tiles-api\src\test\java\org\apache\tiles\NoSuchContainerExceptionTest.java,0,0,0,0
org.apache.tiles.TilesContainer, 0, 0, 0, 0, 0, 0, 0, 0, 0, 0, 0, 0, 0, 0,0.0,0.0,0.0,0.0,0.0,0.0,0.0,0.0,0.0,0.0,0.0,0.0,0.0,28,src\tiles-api\src\main\java\org\apache\tiles\TilesContainer.java,0,0,0,0
org.apache.tiles.TilesContainerWrapper, 0, 0, 0, 1, 0, 0, 0, 0, 0, 0, 0, 0, 0, 1,0.0,0.0,0.0,1.0,0.0,0.0,0.0,0.0,0.0,0.0,0.0,0.0,0.0,60,src\tiles-api\src\main\java\org\apache\tiles\TilesContainerWrapper.java,0,0,0,0
org.apache.tiles.TilesContainerWrapperTest, 0, 0, 0, 1, 0, 0, 0, 0, 0, 0, 0, 0, 0, 1,0.0,0.0,0.0,1.0,0.0,0.0,0.0,0.0,0.0,0.0,0.0,0.0,0.0,121,src\tiles-api\src\test\java\org\apache\tiles\TilesContainerWrapperTest.java,0,0,0,0
org.apache.tiles.TilesException, 0, 0, 0, 0, 0, 0, 0, 0, 0, 0, 0, 0, 0, 0,0.0,0.0,0.0,0.0,0.0,0.0,0.0,0.0,0.0,0.0,0.0,0.0,0.0,13,src\tiles-api\src\main\java\org\apache\tiles\TilesException.java,0,0,0,0
org.apache.tiles.TilesExceptionTest, 0, 0, 0, 0, 0, 0, 0, 0, 0, 0, 0, 0, 0, 0,0.0,0.0,0.0,0.0,0.0,0.0,0.0,0.0,0.0,0.0,0.0,0.0,0.0,28,src\tiles-api\src\test\java\org\apache\tiles\TilesExceptionTest.java,0,0,0,0
org.apache.tiles.awareness.TilesContainerAware, 0, 0, 0, 0, 0, 0, 0, 0, 0, 0, 0, 0, 0, 0,0.0,0.0,0.0,0.0,0.0,0.0,0.0,0.0,0.0,0.0,0.0,0.0,0.0,28,src\tiles-core\src\main\java\org\apache\tiles\awareness\TilesContainerAware.java,0,0,0,0
org.apache.tiles.beans.MenuItem, 0, 0, 0, 0, 0, 0, 0, 0, 0, 0, 0, 0, 0, 0,0.0,0.0,0.0,0.0,0.0,0.0,0.0,0.0,0.0,0.0,0.0,0.0,0.0,28,src\tiles-compat\src\main\java\org\apache\tiles\beans\MenuItem.java,0,0,0,0
org.apache.tiles.beans.SimpleMenuItemTest, 0, 0, 0, 0, 0, 0, 0, 0, 0, 0, 0, 0, 0, 0,0.0,0.0,0.0,0.0,0.0,0.0,0.0,0.0,0.0,0.0,0.0,0.0,0.0,37,src\tiles-compat\src\test\java\org\apache\tiles\beans\SimpleMenuItemTest.java,0,0,0,0
org.apache.tiles.compat.definition.digester.CompatibilityDigesterDefinitionsReader, 0, 0, 0, 0, 0, 0, 0, 0, 0, 0, 0, 0, 0, 0,0.0,0.0,0.0,0.0,0.0,0.0,0.0,0.0,0.0,0.0,0.0,0.0,0.0,118,src\tiles-compat\src\main\java\org\apache\tiles\compat\definition\digester\CompatibilityDigesterDefinitionsReader.java,0,0,0,0
org.apache.tiles.compat.preparer.CompatibilityPreparerFactory, 0, 0, 0, 0, 0, 0, 0, 0, 0, 0, 0, 0, 0, 0,0.0,0.0,0.0,0.0,0.0,0.0,0.0,0.0,0.0,0.0,0.0,0.0,0.0,12,src\tiles-compat\src\main\java\org\apache\tiles\compat\preparer\CompatibilityPreparerFactory.java,0,0,0,0
org.apache.tiles.compat.preparer.CompatibilityPreparerFactoryTest, 0, 0, 0, 0, 0, 0, 0, 0, 0, 0, 0, 0, 0, 0,0.0,0.0,0.0,0.0,0.0,0.0,0.0,0.0,0.0,0.0,0.0,0.0,0.0,20,src\tiles-compat\src\test\java\org\apache\tiles\compat\preparer\CompatibilityPreparerFactoryTest.java,0,0,0,0
org.apache.tiles.compat.preparer.UrlPreparer, 0, 0, 0, 0, 0, 0, 0, 0, 0, 0, 0, 0, 0, 0,0.0,0.0,0.0,0.0,0.0,0.0,0.0,0.0,0.0,0.0,0.0,0.0,0.0,20,src\tiles-compat\src\main\java\org\apache\tiles\compat\preparer\UrlPreparer.java,0,0,0,0
org.apache.tiles.compat.preparer.UrlPreparerTest, 0, 0, 0, 0, 0, 0, 0, 0, 0, 0, 0, 0, 0, 0,0.0,0.0,0.0,0.0,0.0,0.0,0.0,0.0,0.0,0.0,0.0,0.0,0.0,29,src\tiles-compat\src\test\java\org\apache\tiles\compat\preparer\UrlPreparerTest.java,0,0,0,0
org.apache.tiles.context.TilesRequestContextHolder, 0, 0, 0, 0, 0, 0, 0, 0, 0, 0, 0, 0, 0, 0,0.0,0.0,0.0,0.0,0.0,0.0,0.0,0.0,0.0,0.0,0.0,0.0,0.0,9,src\tiles-core\src\main\java\org\apache\tiles\context\TilesRequestContextHolder.java,0,0,0,0
org.apache.tiles.context.TilesRequestContextHolderTest, 0, 0, 0, 0, 0, 0, 0, 0, 0, 0, 0, 0, 0, 0,0.0,0.0,0.0,0.0,0.0,0.0,0.0,0.0,0.0,0.0,0.0,0.0,0.0,11,src\tiles-core\src\test\java\org\apache\tiles\context\TilesRequestContextHolderTest.java,0,0,0,0
org.apache.tiles.definition.DefinitionsFactory, 0, 0, 0, 0, 0, 0, 0, 0, 0, 0, 0, 0, 0, 0,0.0,0.0,0.0,0.0,0.0,0.0,0.0,0.0,0.0,0.0,0.0,0.0,0.0,11,src\tiles-core\src\main\java\org\apache\tiles\definition\DefinitionsFactory.java,0,0,0,0
org.apache.tiles.definition.DefinitionsFactoryException, 0, 0, 0, 0, 0, 0, 0, 0, 0, 0, 0, 0, 0, 0,0.0,0.0,0.0,0.0,0.0,0.0,0.0,0.0,0.0,0.0,0.0,0.0,0.0,14,src\tiles-core\src\main\java\org\apache\tiles\definition\DefinitionsFactoryException.java,0,0,0,0
org.apache.tiles.definition.DefinitionsFactoryExceptionTest, 0, 0, 0, 0, 0, 0, 0, 0, 0, 0, 0, 0, 0, 0,0.0,0.0,0.0,0.0,0.0,0.0,0.0,0.0,0.0,0.0,0.0,0.0,0.0,28,src\tiles-core\src\test\java\org\apache\tiles\definition\DefinitionsFactoryExceptionTest.java,0,0,0,0
org.apache.tiles.definition.FactoryNotFoundException, 0, 0, 0, 0, 0, 0, 0, 0, 0, 0, 0, 0, 0, 0,0.0,0.0,0.0,0.0,0.0,0.0,0.0,0.0,0.0,0.0,0.0,0.0,0.0,14,src\tiles-core\src\main\java\org\apache\tiles\definition\FactoryNotFoundException.java,0,0,0,0
org.apache.tiles.definition.FactoryNotFoundExceptitonTest, 0, 0, 0, 0, 0, 0, 0, 0, 0, 0, 0, 0, 0, 0,0.0,0.0,0.0,0.0,0.0,0.0,0.0,0.0,0.0,0.0,0.0,0.0,0.0,28,src\tiles-core\src\test\java\org\apache\tiles\definition\FactoryNotFoundExceptitonTest.java,0,0,0,0
org.apache.tiles.definition.LocaleDefinitionsFactory, 0, 0, 0, 0, 0, 0, 0, 0, 0, 0, 0, 0, 0, 0,0.0,0.0,0.0,0.0,0.0,0.0,0.0,0.0,0.0,0.0,0.0,0.0,0.0,29,src\tiles-core\src\main\java\org\apache\tiles\definition\LocaleDefinitionsFactory.java,0,0,0,0
org.apache.tiles.definition.NoSuchDefinitionException, 0, 0, 0, 0, 0, 0, 0, 0, 0, 0, 0, 0, 0, 0,0.0,0.0,0.0,0.0,0.0,0.0,0.0,0.0,0.0,0.0,0.0,0.0,0.0,14,src\tiles-core\src\main\java\org\apache\tiles\definition\NoSuchDefinitionException.java,0,0,0,0
org.apache.tiles.definition.NoSuchDefinitionExceptionTest, 0, 0, 0, 0, 0, 0, 0, 0, 0, 0, 0, 0, 0, 0,0.0,0.0,0.0,0.0,0.0,0.0,0.0,0.0,0.0,0.0,0.0,0.0,0.0,28,src\tiles-core\src\test\java\org\apache\tiles\definition\NoSuchDefinitionExceptionTest.java,0,0,0,0
org.apache.tiles.definition.RefreshMonitor, 0, 0, 0, 0, 0, 0, 0, 0, 0, 0, 0, 0, 0, 0,0.0,0.0,0.0,0.0,0.0,0.0,0.0,0.0,0.0,0.0,0.0,0.0,0.0,28,src\tiles-core\src\main\java\org\apache\tiles\definition\RefreshMonitor.java,0,0,0,0
org.apache.tiles.definition.UnresolvingLocaleDefinitionsFactory, 0, 0, 0, 0, 0, 0, 0, 0, 0, 0, 0, 0, 0, 0,0.0,0.0,0.0,0.3333333333333333,0.0,0.0,0.0,0.0,0.0,0.0,0.0,0.0,0.0,18,src\tiles-core\src\main\java\org\apache\tiles\definition\UnresolvingLocaleDefinitionsFactory.java,0,0,0,0
org.apache.tiles.definition.UnresolvingLocaleDefinitionsFactoryTest, 0, 0, 0, 0, 0, 0, 0, 0, 0, 0, 0, 0, 0, 0,0.0,0.0,0.0,0.0,0.0,0.0,0.0,0.0,0.0,0.0,0.0,0.0,0.0,19,src\tiles-core\src\test\java\org\apache\tiles\definition\UnresolvingLocaleDefinitionsFactoryTest.java,0,0,0,0
org.apache.tiles.definition.digester.DigesterDefinitionsReaderException, 0, 0, 0, 0, 0, 0, 0, 0, 0, 0, 0, 0, 0, 0,0.0,0.0,0.0,0.0,0.0,0.0,0.0,0.0,0.0,0.0,0.0,0.0,0.0,13,src\tiles-core\src\main\java\org\apache\tiles\definition\digester\DigesterDefinitionsReaderException.java,0,0,0,0
org.apache.tiles.definition.digester.DigesterDefinitionsReaderExceptionTest, 0, 0, 0, 0, 0, 0, 0, 0, 0, 0, 0, 0, 0, 0,0.0,0.0,0.0,0.0,0.0,0.0,0.0,0.0,0.0,0.0,0.0,0.0,0.0,28,src\tiles-core\src\test\java\org\apache\tiles\definition\digester\DigesterDefinitionsReaderExceptionTest.java,0,0,0,0
org.apache.tiles.definition.pattern.DefinitionPatternMatcher, 0, 0, 0, 0, 0, 0, 0, 0, 0, 0, 0, 0, 0, 0,0.0,0.0,0.0,0.0,0.0,0.0,0.0,0.0,0.0,0.0,0.0,0.0,0.0,28,src\tiles-core\src\main\java\org\apache\tiles\definition\pattern\DefinitionPatternMatcher.java,0,0,0,0
org.apache.tiles.definition.pattern.DefinitionPatternMatcherFactory, 0, 0, 0, 0, 0, 0, 0, 0, 0, 0, 0, 0, 0, 0,0.0,0.0,0.0,0.0,0.0,0.0,0.0,0.0,0.0,0.0,0.0,0.0,0.0,28,src\tiles-core\src\main\java\org\apache\tiles\definition\pattern\DefinitionPatternMatcherFactory.java,0,0,0,0
org.apache.tiles.definition.pattern.PatternDefinitionResolverAware, 0, 0, 0, 0, 0, 0, 0, 0, 0, 0, 0, 0, 0, 0,0.0,0.0,0.0,0.0,0.0,0.0,0.0,0.0,0.0,0.0,0.0,0.0,0.0,28,src\tiles-core\src\main\java\org\apache\tiles\definition\pattern\PatternDefinitionResolverAware.java,0,0,0,0
org.apache.tiles.definition.pattern.PatternRecognizer, 0, 0, 0, 0, 0, 0, 0, 0, 0, 0, 0, 0, 0, 0,0.0,0.0,0.0,0.0,0.0,0.0,0.0,0.0,0.0,0.0,0.0,0.0,0.0,28,src\tiles-core\src\main\java\org\apache\tiles\definition\pattern\PatternRecognizer.java,0,0,0,0
org.apache.tiles.definition.pattern.regexp.RegexpDefinitionPatternMatcherFactory, 0, 0, 0, 0, 0, 0, 0, 0, 0, 0, 0, 0, 0, 0,0.0,0.0,0.0,0.0,0.0,0.0,0.0,0.0,0.0,0.0,0.0,0.0,0.0,7,src\tiles-core\src\main\java\org\apache\tiles\definition\pattern\regexp\RegexpDefinitionPatternMatcherFactory.java,0,0,0,0
org.apache.tiles.definition.pattern.regexp.RegexpDefinitionPatternMatcherFactoryTest, 0, 0, 0, 0, 0, 0, 0, 0, 0, 0, 0, 0, 0, 0,0.0,0.0,0.0,0.0,0.0,0.0,0.0,0.0,0.0,0.0,0.0,0.0,0.0,12,src\tiles-core\src\test\java\org\apache\tiles\definition\pattern\regexp\RegexpDefinitionPatternMatcherFactoryTest.java,0,0,0,0
org.apache.tiles.definition.pattern.regexp.RegexpDefinitionPatternMatcherTest, 0, 0, 0, 0, 0, 0, 0, 0, 0, 0, 0, 0, 0, 0,0.0,0.0,0.0,0.0,0.0,0.0,0.0,0.0,0.0,0.0,0.0,0.0,0.0,15,src\tiles-core\src\test\java\org\apache\tiles\definition\pattern\regexp\RegexpDefinitionPatternMatcherTest.java,0,0,0,0
org.apache.tiles.definition.pattern.wildcard.WildcardDefinitionPatternMatcher, 0, 0, 0, 0, 0, 0, 0, 0, 0, 0, 0, 0, 0, 0,0.0,0.0,0.0,0.0,0.0,0.0,0.0,0.0,0.0,0.0,0.0,0.0,0.0,21,src\tiles-core\src\main\java\org\apache\tiles\definition\pattern\wildcard\WildcardDefinitionPatternMatcher.java,0,0,0,0
org.apache.tiles.definition.pattern.wildcard.WildcardDefinitionPatternMatcherFactory, 0, 0, 0, 0, 0, 0, 0, 0, 0, 0, 0, 0, 0, 0,0.0,0.0,0.0,0.0,0.0,0.0,0.0,0.0,0.0,0.0,0.0,0.0,0.0,11,src\tiles-core\src\main\java\org\apache\tiles\definition\pattern\wildcard\WildcardDefinitionPatternMatcherFactory.java,0,0,0,0
org.apache.tiles.definition.pattern.wildcard.WildcardDefinitionPatternMatcherFactoryTest, 0, 0, 0, 0, 0, 0, 0, 0, 0, 0, 0, 0, 0, 0,0.0,0.0,0.0,0.0,0.0,0.0,0.0,0.0,0.0,0.0,0.0,0.0,0.0,17,src\tiles-core\src\test\java\org\apache\tiles\definition\pattern\wildcard\WildcardDefinitionPatternMatcherFactoryTest.java,0,0,0,0
org.apache.tiles.definition.pattern.wildcard.WildcardDefinitionPatternMatcherTest, 0, 0, 0, 0, 0, 0, 0, 0, 0, 0, 0, 0, 0, 0,0.0,0.0,0.0,0.0,0.0,0.0,0.0,0.0,0.0,0.0,0.0,0.0,0.0,16,src\tiles-core\src\test\java\org\apache\tiles\definition\pattern\wildcard\WildcardDefinitionPatternMatcherTest.java,0,0,0,0
org.apache.tiles.el.ELAttributeEvaluator, 0, 0, 0, 0, 0, 0, 0, 0, 0, 0, 0, 0, 0, 0,0.0,0.0,0.0,0.5,0.0,0.0,0.0,0.0,0.0,0.0,0.0,0.0,0.0,23,src\tiles-el\src\main\java\org\apache\tiles\el\ELAttributeEvaluator.java,0,0,0,0
org.apache.tiles.el.ELContextImplTest, 0, 0, 0, 0, 0, 0, 0, 0, 0, 0, 0, 0, 0, 0,0.0,0.0,0.0,0.0,0.0,0.0,0.0,0.0,0.0,0.0,0.0,0.0,0.0,48,src\tiles-el\src\test\java\org\apache\tiles\el\ELContextImplTest.java,0,0,0,0
org.apache.tiles.el.ExpressionFactoryFactory, 0, 0, 0, 0, 0, 0, 0, 0, 0, 0, 0, 0, 0, 0,0.0,0.0,0.0,0.0,0.0,0.0,0.0,0.0,0.0,0.0,0.0,0.0,0.0,48,src\tiles-el\src\main\java\org\apache\tiles\el\ExpressionFactoryFactory.java,0,0,0,0
org.apache.tiles.el.JspExpressionFactoryFactory, 0, 0, 0, 0, 0, 0, 0, 0, 0, 0, 0, 0, 0, 0,0.0,0.0,0.0,0.5,0.0,0.0,0.0,0.0,0.0,0.0,0.0,0.0,0.0,18,src\tiles-el\src\main\java\org\apache\tiles\el\JspExpressionFactoryFactory.java,0,0,0,0
org.apache.tiles.el.JspExpressionFactoryFactoryTest, 0, 0, 0, 0, 0, 0, 0, 0, 0, 0, 0, 0, 0, 0,0.0,0.0,0.0,0.0,0.0,0.0,0.0,0.0,0.0,0.0,0.0,0.0,0.0,34,src\tiles-el\src\test\java\org\apache\tiles\el\JspExpressionFactoryFactoryTest.java,0,0,0,0
org.apache.tiles.el.TilesContextELResolver, 0, 0, 0, 0, 0, 0, 0, 0, 0, 0, 0, 0, 0, 0,0.0,0.0,0.0,0.0,0.0,0.0,0.0,0.0,0.0,0.0,0.0,0.0,0.0,75,src\tiles-el\src\main\java\org\apache\tiles\el\TilesContextELResolver.java,0,0,0,0
org.apache.tiles.evaluator.AbstractAttributeEvaluator, 0, 0, 0, 0, 0, 0, 0, 0, 0, 0, 0, 0, 0, 0,0.0,0.0,0.0,0.0,0.0,0.0,0.0,0.0,0.0,0.0,0.0,0.0,0.0,16,src\tiles-core\src\main\java\org\apache\tiles\evaluator\AbstractAttributeEvaluator.java,0,0,0,0
org.apache.tiles.evaluator.AttributeEvaluator, 0, 0, 0, 0, 0, 0, 0, 0, 0, 0, 0, 0, 0, 0,0.0,0.0,0.0,0.0,0.0,0.0,0.0,0.0,0.0,0.0,0.0,0.0,0.0,16,src\tiles-core\src\main\java\org\apache\tiles\evaluator\AttributeEvaluator.java,0,0,0,0
org.apache.tiles.evaluator.AttributeEvaluatorFactory, 0, 0, 0, 0, 0, 0, 0, 0, 0, 0, 0, 0, 0, 0,0.0,0.0,0.0,0.0,0.0,0.0,0.0,0.0,0.0,0.0,0.0,0.0,0.0,16,src\tiles-core\src\main\java\org\apache\tiles\evaluator\AttributeEvaluatorFactory.java,0,0,0,0
org.apache.tiles.evaluator.AttributeEvaluatorFactoryAware, 0, 0, 0, 0, 0, 0, 0, 0, 0, 0, 0, 0, 0, 0,0.0,0.0,0.0,0.0,0.0,0.0,0.0,0.0,0.0,0.0,0.0,0.0,0.0,16,src\tiles-core\src\main\java\org\apache\tiles\evaluator\AttributeEvaluatorFactoryAware.java,0,0,0,0
org.apache.tiles.evaluator.BasicAttributeEvaluatorFactoryTest, 0, 0, 0, 0, 0, 0, 0, 0, 0, 0, 0, 0, 0, 0,0.0,0.0,0.0,0.0,0.0,0.0,0.0,0.0,0.0,0.0,0.0,0.0,0.0,37,src\tiles-core\src\test\java\org\apache\tiles\evaluator\BasicAttributeEvaluatorFactoryTest.java,0,0,0,0
org.apache.tiles.evaluator.EvaluationException, 0, 0, 0, 0, 0, 0, 0, 0, 0, 0, 0, 0, 0, 0,0.0,0.0,0.0,0.0,0.0,0.0,0.0,0.0,0.0,0.0,0.0,0.0,0.0,13,src\tiles-core\src\main\java\org\apache\tiles\evaluator\EvaluationException.java,0,0,0,0
org.apache.tiles.evaluator.EvaluatorExceptionTest, 0, 0, 0, 0, 0, 0, 0, 0, 0, 0, 0, 0, 0, 0,0.0,0.0,0.0,0.0,0.0,0.0,0.0,0.0,0.0,0.0,0.0,0.0,0.0,28,src\tiles-core\src\test\java\org\apache\tiles\evaluator\EvaluatorExceptionTest.java,0,0,0,0
org.apache.tiles.evaluator.impl.DirectAttributeEvaluator, 0, 0, 0, 0, 0, 0, 0, 0, 0, 0, 0, 0, 0, 0,0.0,0.0,0.0,0.0,0.0,0.0,0.0,0.0,0.0,0.0,0.0,0.0,0.0,5,src\tiles-core\src\main\java\org\apache\tiles\evaluator\impl\DirectAttributeEvaluator.java,0,0,0,0
org.apache.tiles.evaluator.impl.DirectAttributeEvaluatorTest, 0, 0, 0, 0, 0, 0, 0, 0, 0, 0, 0, 0, 0, 0,0.0,0.0,0.0,0.0,0.0,0.0,0.0,0.0,0.0,0.0,0.0,0.0,0.0,36,src\tiles-core\src\test\java\org\apache\tiles\evaluator\impl\DirectAttributeEvaluatorTest.java,0,0,0,0
org.apache.tiles.extras.complete.CompleteAutoloadTilesContainerFactory, 0, 0, 0, 1, 0, 0, 0, 0, 0, 0, 0, 0, 0, 1,0.0,0.0,0.0,0.125,0.0,0.0,0.0,0.0,0.0,0.0,0.0,0.0,0.0,139,src\tiles-extras\src\main\java\org\apache\tiles\extras\complete\CompleteAutoloadTilesContainerFactory.java,0,0,0,0
org.apache.tiles.extras.complete.CompleteAutoloadTilesInitializer, 0, 0, 0, 0, 0, 0, 0, 0, 0, 0, 0, 0, 0, 0,0.0,0.0,0.0,0.0,0.0,0.0,0.0,0.0,0.0,0.0,0.0,0.0,0.0,13,src\tiles-extras\src\main\java\org\apache\tiles\extras\complete\CompleteAutoloadTilesInitializer.java,0,0,0,0
org.apache.tiles.extras.complete.CompleteAutoloadTilesInitializerTest, 0, 0, 0, 0, 0, 0, 0, 0, 0, 0, 0, 0, 0, 0,0.0,0.0,0.0,0.0,0.0,0.0,0.0,0.0,0.0,0.0,0.0,0.0,0.0,24,src\tiles-extras\src\test\java\org\apache\tiles\extras\complete\CompleteAutoloadTilesInitializerTest.java,0,0,0,0
org.apache.tiles.extras.complete.CompleteAutoloadTilesListener, 0, 0, 0, 0, 0, 0, 0, 0, 0, 0, 0, 0, 0, 0,0.0,0.0,0.0,0.0,0.0,0.0,0.0,0.0,0.0,0.0,0.0,0.0,0.0,6,src\tiles-extras\src\main\java\org\apache\tiles\extras\complete\CompleteAutoloadTilesListener.java,0,0,0,0
org.apache.tiles.extras.complete.CompleteAutoloadTilesListenerTest, 0, 0, 0, 0, 0, 0, 0, 0, 0, 0, 0, 0, 0, 0,0.0,0.0,0.0,0.0,0.0,0.0,0.0,0.0,0.0,0.0,0.0,0.0,0.0,7,src\tiles-extras\src\test\java\org\apache\tiles\extras\complete\CompleteAutoloadTilesListenerTest.java,0,0,0,0
org.apache.tiles.extras.module.ModularTilesInitializerTest, 0, 0, 0, 0, 0, 0, 0, 0, 0, 0, 0, 0, 0, 0,0.0,0.0,0.0,0.0,0.0,0.0,0.0,0.0,0.0,0.0,0.0,0.0,0.0,39,src\tiles-extras\src\test\java\org\apache\tiles\extras\module\ModularTilesInitializerTest.java,0,0,0,0
org.apache.tiles.extras.module.ModularTilesListener, 0, 0, 0, 0, 0, 0, 0, 0, 0, 0, 0, 0, 0, 0,0.0,0.0,0.0,0.0,0.0,0.0,0.0,0.0,0.0,0.0,0.0,0.0,0.0,6,src\tiles-extras\src\main\java\org\apache\tiles\extras\module\ModularTilesListener.java,0,0,0,0
org.apache.tiles.extras.module.ModularTilesListenerTest, 0, 0, 0, 0, 0, 0, 0, 0, 0, 0, 0, 0, 0, 0,0.0,0.0,0.0,0.0,0.0,0.0,0.0,0.0,0.0,0.0,0.0,0.0,0.0,7,src\tiles-extras\src\test\java\org\apache\tiles\extras\module\ModularTilesListenerTest.java,0,0,0,0
org.apache.tiles.factory.AbstractTilesContainerFactory, 0, 0, 0, 0, 0, 0, 0, 0, 0, 0, 0, 0, 0, 0,0.0,0.0,0.0,0.3333333333333333,0.0,0.0,0.0,0.0,0.0,0.0,0.0,0.0,0.0,5,src\tiles-core\src\main\java\org\apache\tiles\factory\AbstractTilesContainerFactory.java,0,0,0,0
org.apache.tiles.factory.BasicTilesContainerFactory, 0, 0, 0, 1, 0, 0, 0, 0, 0, 0, 0, 0, 0, 1,0.0,0.0,0.0,0.4,0.0,0.0,0.0,0.0,0.0,0.0,0.0,0.0,0.0,146,src\tiles-core\src\main\java\org\apache\tiles\factory\BasicTilesContainerFactory.java,0,0,0,0
org.apache.tiles.factory.BasicTilesContainerFactoryTest, 0, 0, 0, 1, 0, 0, 0, 0, 0, 0, 0, 0, 0, 1,0.0,0.0,0.0,1.0,0.0,0.0,0.0,0.0,0.0,0.0,0.0,0.0,0.0,112,src\tiles-core\src\test\java\org\apache\tiles\factory\BasicTilesContainerFactoryTest.java,0,0,0,0
org.apache.tiles.factory.TilesContainerFactoryException, 0, 0, 0, 0, 0, 0, 0, 0, 0, 0, 0, 0, 0, 0,0.0,0.0,0.0,0.3333333333333333,0.0,0.0,0.0,0.0,0.0,0.0,0.0,0.0,0.0,13,src\tiles-core\src\main\java\org\apache\tiles\factory\TilesContainerFactoryException.java,0,0,0,0
org.apache.tiles.factory.TilesContainerFactoryExceptionTest, 0, 0, 0, 0, 0, 0, 0, 0, 0, 0, 0, 0, 0, 0,0.0,0.0,0.0,0.0,0.0,0.0,0.0,0.0,0.0,0.0,0.0,0.0,0.0,28,src\tiles-core\src\test\java\org\apache\tiles\factory\TilesContainerFactoryExceptionTest.java,0,0,0,0
org.apache.tiles.freemarker.TilesSharedVariableFactory, 0, 0, 0, 0, 0, 0, 0, 0, 0, 0, 0, 0, 0, 0,0.0,0.0,0.0,0.0,0.0,0.0,0.0,0.0,0.0,0.0,0.0,0.0,0.0,7,src\tiles-freemarker\src\main\java\org\apache\tiles\freemarker\TilesSharedVariableFactory.java,0,0,0,0
org.apache.tiles.freemarker.TilesSharedVariableFactoryTest, 0, 0, 0, 0, 0, 0, 0, 0, 0, 0, 0, 0, 0, 0,0.0,0.0,0.0,0.0,0.0,0.0,0.0,0.0,0.0,0.0,0.0,0.0,0.0,7,src\tiles-freemarker\src\test\java\org\apache\tiles\freemarker\TilesSharedVariableFactoryTest.java,0,0,0,0
org.apache.tiles.impl.BasicTilesContainerTest, 0, 0, 0, 0, 0, 0, 0, 0, 0, 0, 0, 0, 0, 0,0.0,0.0,0.0,0.0,0.0,0.0,0.0,0.0,0.0,0.0,0.0,0.0,0.0,68,src\tiles-core\src\test\java\org\apache\tiles\impl\BasicTilesContainerTest.java,0,0,0,0
org.apache.tiles.impl.CannotRenderExceptionTest, 0, 0, 0, 0, 0, 0, 0, 0, 0, 0, 0, 0, 0, 0,0.0,0.0,0.0,0.0,0.0,0.0,0.0,0.0,0.0,0.0,0.0,0.0,0.0,28,src\tiles-core\src\test\java\org\apache\tiles\impl\CannotRenderExceptionTest.java,0,0,0,0
org.apache.tiles.impl.InvalidTemplateException, 0, 0, 0, 0, 0, 0, 0, 0, 0, 0, 0, 0, 0, 0,0.0,0.0,0.0,0.0,0.0,0.0,0.0,0.0,0.0,0.0,0.0,0.0,0.0,13,src\tiles-core\src\main\java\org\apache\tiles\impl\InvalidTemplateException.java,0,0,0,0
org.apache.tiles.impl.InvalidTemplateExceptionTest, 0, 0, 0, 0, 0, 0, 0, 0, 0, 0, 0, 0, 0, 0,0.0,0.0,0.0,0.0,0.0,0.0,0.0,0.0,0.0,0.0,0.0,0.0,0.0,28,src\tiles-core\src\test\java\org\apache\tiles\impl\InvalidTemplateExceptionTest.java,0,0,0,0
org.apache.tiles.jsp.taglib.UseAttributeTag, 0, 0, 0, 1, 0, 0, 0, 0, 0, 0, 0, 0, 0, 1,0.0,0.0,0.0,0.0,0.0,0.0,0.0,0.0,0.0,0.0,0.0,0.0,0.0,69,src\tiles-jsp\src\main\java\org\apache\tiles\jsp\taglib\UseAttributeTag.java,0,0,0,0
org.apache.tiles.locale.LocaleResolver, 0, 0, 0, 0, 0, 0, 0, 0, 0, 0, 0, 0, 0, 0,0.0,0.0,0.0,0.0,0.0,0.0,0.0,0.0,0.0,0.0,0.0,0.0,0.0,69,src\tiles-core\src\main\java\org\apache\tiles\locale\LocaleResolver.java,0,0,0,0
org.apache.tiles.mgmt.MutableTilesContainer, 0, 0, 0, 0, 0, 0, 0, 0, 0, 0, 0, 0, 0, 0,0.0,0.0,0.0,0.0,0.0,0.0,0.0,0.0,0.0,0.0,0.0,0.0,0.0,69,src\tiles-api\src\main\java\org\apache\tiles\mgmt\MutableTilesContainer.java,0,0,0,0
org.apache.tiles.mvel.MVELAttributeEvaluator, 0, 0, 0, 0, 0, 0, 0, 0, 0, 0, 0, 0, 0, 0,0.0,0.0,0.0,0.3333333333333333,0.0,0.0,0.0,0.0,0.0,0.0,0.0,0.0,0.0,16,src\tiles-mvel\src\main\java\org\apache\tiles\mvel\MVELAttributeEvaluator.java,0,0,0,0
org.apache.tiles.mvel.ReadOnlyVariableResolverFactoryTest, 0, 0, 0, 0, 0, 0, 0, 0, 0, 0, 0, 0, 0, 0,0.0,0.0,0.0,0.0,0.0,0.0,0.0,0.0,0.0,0.0,0.0,0.0,0.0,98,src\tiles-mvel\src\test\java\org\apache\tiles\mvel\ReadOnlyVariableResolverFactoryTest.java,0,0,0,0
org.apache.tiles.mvel.ReadOnlyVariableResolverTest, 0, 0, 0, 0, 0, 0, 0, 0, 0, 0, 0, 0, 0, 0,0.0,0.0,0.0,0.0,0.0,0.0,0.0,0.0,0.0,0.0,0.0,0.0,0.0,31,src\tiles-mvel\src\test\java\org\apache\tiles\mvel\ReadOnlyVariableResolverTest.java,0,0,0,0
org.apache.tiles.mvel.TilesContextBeanVariableResolverFactory, 0, 0, 0, 0, 0, 0, 0, 0, 0, 0, 0, 0, 0, 0,0.0,0.0,0.0,0.5,0.0,0.0,0.0,0.0,0.0,0.0,0.0,0.0,0.0,42,src\tiles-mvel\src\main\java\org\apache\tiles\mvel\TilesContextBeanVariableResolverFactory.java,0,0,0,0
org.apache.tiles.mvel.TilesContextVariableResolverFactory, 0, 0, 0, 0, 0, 0, 0, 0, 0, 0, 0, 0, 0, 0,0.0,0.0,0.0,0.5,0.0,0.0,0.0,0.0,0.0,0.0,0.0,0.0,0.0,89,src\tiles-mvel\src\main\java\org\apache\tiles\mvel\TilesContextVariableResolverFactory.java,0,0,0,0
org.apache.tiles.ognl.NestedObjectExtractor, 0, 0, 0, 0, 0, 0, 0, 0, 0, 0, 0, 0, 0, 0,0.0,0.0,0.0,0.0,0.0,0.0,0.0,0.0,0.0,0.0,0.0,0.0,0.0,89,src\tiles-ognl\src\main\java\org\apache\tiles\ognl\NestedObjectExtractor.java,0,0,0,0
org.apache.tiles.ognl.OGNLAttributeEvaluator, 0, 0, 0, 0, 0, 0, 0, 0, 0, 0, 0, 0, 0, 0,0.0,0.0,0.0,0.3333333333333333,0.0,0.0,0.0,0.0,0.0,0.0,0.0,0.0,0.0,13,src\tiles-ognl\src\main\java\org\apache\tiles\ognl\OGNLAttributeEvaluator.java,0,0,0,0
org.apache.tiles.ognl.PropertyAccessorDelegateFactory, 0, 0, 0, 0, 0, 0, 0, 0, 0, 0, 0, 0, 0, 0,0.0,0.0,0.0,0.0,0.0,0.0,0.0,0.0,0.0,0.0,0.0,0.0,0.0,13,src\tiles-ognl\src\main\java\org\apache\tiles\ognl\PropertyAccessorDelegateFactory.java,0,0,0,0
org.apache.tiles.ognl.TilesApplicationContextNestedObjectExtractor, 0, 0, 0, 0, 0, 0, 0, 0, 0, 0, 0, 0, 0, 0,0.0,0.0,0.0,0.0,0.0,0.0,0.0,0.0,0.0,0.0,0.0,0.0,0.0,6,src\tiles-ognl\src\main\java\org\apache\tiles\ognl\TilesApplicationContextNestedObjectExtractor.java,0,0,0,0
org.apache.tiles.ognl.TilesApplicationContextNestedObjectExtractorTest, 0, 0, 0, 0, 0, 0, 0, 0, 0, 0, 0, 0, 0, 0,0.0,0.0,0.0,0.0,0.0,0.0,0.0,0.0,0.0,0.0,0.0,0.0,0.0,12,src\tiles-ognl\src\test\java\org\apache\tiles\ognl\TilesApplicationContextNestedObjectExtractorTest.java,0,0,0,0
org.apache.tiles.preparer.PreparerException, 0, 0, 0, 0, 0, 0, 0, 0, 0, 0, 0, 0, 0, 0,0.0,0.0,0.0,0.0,0.0,0.0,0.0,0.0,0.0,0.0,0.0,0.0,0.0,14,src\tiles-api\src\main\java\org\apache\tiles\preparer\PreparerException.java,0,0,0,0
org.apache.tiles.preparer.PreparerExceptionTest, 0, 0, 0, 0, 0, 0, 0, 0, 0, 0, 0, 0, 0, 0,0.0,0.0,0.0,0.0,0.0,0.0,0.0,0.0,0.0,0.0,0.0,0.0,0.0,28,src\tiles-api\src\test\java\org\apache\tiles\preparer\PreparerExceptionTest.java,0,0,0,0
org.apache.tiles.preparer.ViewPreparer, 0, 0, 0, 0, 0, 0, 0, 0, 0, 0, 0, 0, 0, 0,0.0,0.0,0.0,0.0,0.0,0.0,0.0,0.0,0.0,0.0,0.0,0.0,0.0,28,src\tiles-api\src\main\java\org\apache\tiles\preparer\ViewPreparer.java,0,0,0,0
org.apache.tiles.preparer.factory.BasicPreparerFactoryTest, 0, 0, 0, 0, 0, 0, 0, 0, 0, 0, 0, 0, 0, 0,0.0,0.0,0.0,0.0,0.0,0.0,0.0,0.0,0.0,0.0,0.0,0.0,0.0,21,src\tiles-core\src\test\java\org\apache\tiles\preparer\factory\BasicPreparerFactoryTest.java,0,0,0,0
org.apache.tiles.preparer.factory.NoSuchPreparerException, 0, 0, 0, 0, 0, 0, 0, 0, 0, 0, 0, 0, 0, 0,0.0,0.0,0.0,0.0,0.0,0.0,0.0,0.0,0.0,0.0,0.0,0.0,0.0,14,src\tiles-core\src\main\java\org\apache\tiles\preparer\factory\NoSuchPreparerException.java,0,0,0,0
org.apache.tiles.preparer.factory.NoSuchPreparerExceptionTest, 0, 0, 0, 0, 0, 0, 0, 0, 0, 0, 0, 0, 0, 0,0.0,0.0,0.0,0.0,0.0,0.0,0.0,0.0,0.0,0.0,0.0,0.0,0.0,28,src\tiles-core\src\test\java\org\apache\tiles\preparer\factory\NoSuchPreparerExceptionTest.java,0,0,0,0
org.apache.tiles.preparer.factory.PreparerFactory, 0, 0, 0, 0, 0, 0, 0, 0, 0, 0, 0, 0, 0, 0,0.0,0.0,0.0,0.0,0.0,0.0,0.0,0.0,0.0,0.0,0.0,0.0,0.0,28,src\tiles-core\src\main\java\org\apache\tiles\preparer\factory\PreparerFactory.java,0,0,0,0
org.apache.tiles.renderer.DefinitionRenderer, 0, 0, 0, 0, 0, 0, 0, 0, 0, 0, 0, 0, 0, 0,0.0,0.0,0.0,0.5,0.0,0.0,0.0,0.0,0.0,0.0,0.0,0.0,0.0,16,src\tiles-core\src\main\java\org\apache\tiles\renderer\DefinitionRenderer.java,0,0,0,0
org.apache.tiles.renderer.DefinitionRendererTest, 0, 0, 0, 0, 0, 0, 0, 0, 0, 0, 0, 0, 0, 0,0.0,0.0,0.0,0.0,0.0,0.0,0.0,0.0,0.0,0.0,0.0,0.0,0.0,36,src\tiles-core\src\test\java\org\apache\tiles\renderer\DefinitionRendererTest.java,0,0,0,0
org.apache.tiles.startup.AbstractTilesInitializer, 0, 0, 0, 0, 0, 0, 0, 0, 0, 0, 0, 0, 0, 0,0.0,0.0,0.0,0.0,0.0,0.0,0.0,0.0,0.0,0.0,0.0,0.0,0.0,30,src\tiles-core\src\main\java\org\apache\tiles\startup\AbstractTilesInitializer.java,0,0,0,0
org.apache.tiles.startup.DefaultTilesInitializer, 0, 0, 0, 0, 0, 0, 0, 0, 0, 0, 0, 0, 0, 0,0.0,0.0,0.0,0.0,0.0,0.0,0.0,0.0,0.0,0.0,0.0,0.0,0.0,7,src\tiles-core\src\main\java\org\apache\tiles\startup\DefaultTilesInitializer.java,0,0,0,0
org.apache.tiles.startup.DefaultTilesInitializerTest, 0, 0, 0, 0, 0, 0, 0, 0, 0, 0, 0, 0, 0, 0,0.0,0.0,0.0,0.0,0.0,0.0,0.0,0.0,0.0,0.0,0.0,0.0,0.0,10,src\tiles-core\src\test\java\org\apache\tiles\startup\DefaultTilesInitializerTest.java,0,0,0,0
org.apache.tiles.startup.TilesInitializer, 0, 0, 0, 0, 0, 0, 0, 0, 0, 0, 0, 0, 0, 0,0.0,0.0,0.0,0.0,0.0,0.0,0.0,0.0,0.0,0.0,0.0,0.0,0.0,10,src\tiles-core\src\main\java\org\apache\tiles\startup\TilesInitializer.java,0,0,0,0
org.apache.tiles.template.AddAttributeModel, 0, 0, 0, 0, 0, 0, 0, 1, 0, 0, 0, 0, 0, 1,0.0,0.0,0.0,0.5,0.0,0.0,0.0,0.0,0.0,0.0,0.0,0.0,0.0,38,src\tiles-template\src\main\java\org\apache\tiles\template\AddAttributeModel.java,0,0,0,0
org.apache.tiles.template.AddListAttributeModel, 0, 0, 0, 0, 0, 0, 0, 0, 0, 0, 0, 0, 0, 0,0.0,0.0,0.0,1.0,0.0,0.0,0.0,0.0,0.0,0.0,0.0,0.0,0.0,12,src\tiles-template\src\main\java\org\apache\tiles\template\AddListAttributeModel.java,0,0,0,0
org.apache.tiles.template.AttributeResolver, 0, 0, 0, 0, 0, 0, 0, 0, 0, 0, 0, 0, 0, 0,0.0,0.0,0.0,0.0,0.0,0.0,0.0,0.0,0.0,0.0,0.0,0.0,0.0,12,src\tiles-template\src\main\java\org\apache\tiles\template\AttributeResolver.java,0,0,0,0
org.apache.tiles.template.DefaultAttributeResolver, 0, 0, 0, 0, 0, 0, 0, 1, 0, 0, 0, 0, 0, 1,0.0,0.0,0.0,0.0,0.0,0.0,0.0,0.0,0.0,0.0,0.0,0.0,0.0,37,src\tiles-template\src\main\java\org\apache\tiles\template\DefaultAttributeResolver.java,0,0,0,0
org.apache.tiles.template.DefaultAttributeResolverTest, 0, 0, 0, 0, 0, 0, 0, 0, 0, 0, 0, 0, 0, 0,0.0,0.0,0.0,0.0,0.0,0.0,0.0,0.5,0.0,0.0,0.0,0.0,0.0,72,src\tiles-template\src\test\java\org\apache\tiles\template\DefaultAttributeResolverTest.java,0,0,0,0
org.apache.tiles.template.DefinitionModel, 0, 0, 0, 0, 0, 0, 0, 1, 0, 0, 0, 0, 0, 1,0.0,0.0,0.0,0.0,0.0,0.0,0.0,0.0,0.0,0.0,0.0,0.0,0.0,44,src\tiles-template\src\main\java\org\apache\tiles\template\DefinitionModel.java,0,0,0,0
org.apache.tiles.template.GetAsStringModel, 0, 0, 0, 0, 0, 0, 0, 1, 0, 0, 0, 0, 0, 1,0.0,0.0,0.0,0.0,0.0,0.0,0.0,0.0,0.0,0.0,0.0,0.0,0.0,68,src\tiles-template\src\main\java\org\apache\tiles\template\GetAsStringModel.java,0,3,1,5
org.apache.tiles.template.InsertAttributeModel, 0, 0, 0, 0, 0, 0, 0, 1, 0, 0, 0, 0, 0, 1,0.0,0.0,0.0,0.0,0.0,0.0,0.0,0.0,0.0,0.0,0.0,0.0,0.0,68,src\tiles-template\src\main\java\org\apache\tiles\template\InsertAttributeModel.java,0,0,0,0
org.apache.tiles.template.InsertDefinitionModel, 0, 0, 0, 0, 0, 0, 0, 1, 0, 0, 0, 0, 0, 1,0.0,0.0,0.0,0.0,0.0,0.0,0.0,0.0,0.0,0.0,0.0,0.0,0.0,33,src\tiles-template\src\main\java\org\apache\tiles\template\InsertDefinitionModel.java,0,0,0,0
org.apache.tiles.template.InsertTemplateModel, 0, 0, 0, 0, 0, 0, 0, 1, 0, 0, 0, 0, 0, 1,0.0,0.0,0.0,0.0,0.0,0.0,0.0,0.0,0.0,0.0,0.0,0.0,0.0,31,src\tiles-template\src\main\java\org\apache\tiles\template\InsertTemplateModel.java,0,0,0,0
org.apache.tiles.template.NoSuchAttributeException, 0, 0, 0, 0, 0, 0, 0, 0, 0, 0, 0, 0, 0, 0,0.0,0.0,0.0,0.0,0.0,0.0,0.0,0.5,0.0,0.0,0.0,0.0,0.0,13,src\tiles-template\src\main\java\org\apache\tiles\template\NoSuchAttributeException.java,0,0,0,0
org.apache.tiles.template.PutAttributeModel, 0, 0, 0, 0, 0, 0, 0, 1, 0, 0, 0, 0, 0, 1,0.0,0.0,0.0,0.0,0.0,0.0,0.0,0.0,0.0,0.0,0.0,0.0,0.0,45,src\tiles-template\src\main\java\org\apache\tiles\template\PutAttributeModel.java,0,0,0,0
org.apache.tiles.template.PutListAttributeModel, 0, 0, 0, 0, 0, 0, 0, 1, 0, 0, 0, 0, 0, 1,0.0,0.0,0.0,1.0,0.0,0.0,0.0,0.0,0.0,0.0,0.0,0.0,0.0,25,src\tiles-template\src\main\java\org\apache\tiles\template\PutListAttributeModel.java,0,0,0,0
org.apache.tiles.template.SetCurrentContainerModel, 0, 0, 0, 0, 0, 0, 0, 0, 0, 0, 0, 0, 0, 0,0.0,0.0,0.0,0.0,0.0,0.0,0.0,0.0,0.0,0.0,0.0,0.0,0.0,5,src\tiles-template\src\main\java\org\apache\tiles\template\SetCurrentContainerModel.java,0,0,0,0
org.apache.tiles.util.RollingVectorEnumeration, 0, 0, 0, 0, 0, 0, 0, 0, 0, 0, 0, 0, 0, 0,0.0,0.0,0.0,0.0,0.0,0.0,0.0,0.0,0.0,0.0,0.0,0.0,0.0,22,src\tiles-core\src\test\java\org\apache\tiles\util\RollingVectorEnumeration.java,0,0,0,0
org.apache.tiles.velocity.TilesVelocityException, 0, 0, 0, 0, 0, 0, 0, 0, 0, 0, 0, 0, 0, 0,0.0,0.0,0.0,0.0,0.0,0.0,0.0,0.0,0.0,0.0,0.0,0.0,0.0,13,src\tiles-velocity\src\main\java\org\apache\tiles\velocity\TilesVelocityException.java,0,0,0,0
org.apache.tiles.velocity.TilesVelocityExceptionTest, 0, 0, 0, 0, 0, 0, 0, 0, 0, 0, 0, 0, 0, 0,0.0,0.0,0.0,0.0,0.0,0.0,0.0,0.0,0.0,0.0,0.0,0.0,0.0,28,src\tiles-velocity\src\test\java\org\apache\tiles\velocity\TilesVelocityExceptionTest.java,0,0,0,0
org.apache.tiles.velocity.template.ContextHolder, 0, 0, 0, 1, 0, 0, 0, 0, 0, 0, 0, 0, 0, 1,0.0,0.0,0.0,1.0,0.0,0.0,0.0,0.0,0.0,0.0,0.0,0.0,0.0,43,src\tiles-velocity\src\main\java\org\apache\tiles\velocity\template\ContextHolder.java,0,0,0,0
org.apache.tiles.velocity.template.VelocityStyleTilesTool, 0, 0, 0, 1, 0, 0, 0, 0, 0, 0, 0, 0, 0, 1,0.0,0.0,0.0,1.0,0.0,0.0,0.0,0.0,0.0,0.0,0.0,0.0,0.0,98,src\tiles-velocity\src\main\java\org\apache\tiles\velocity\template\VelocityStyleTilesTool.java,0,0,0,0
org.apache.tiles.web.startup.AbstractTilesInitializerServlet, 0, 0, 0, 0, 0, 0, 0, 0, 0, 0, 0, 0, 0, 0,0.0,0.0,0.0,0.0,0.0,0.0,0.0,0.0,0.0,0.0,0.0,0.0,0.0,17,src\tiles-servlet\src\main\java\org\apache\tiles\web\startup\AbstractTilesInitializerServlet.java,0,0,0,0
org.apache.tiles.web.startup.AbstractTilesInitializerServletTest, 0, 0, 0, 0, 0, 0, 0, 0, 0, 0, 0, 0, 0, 0,0.0,0.0,0.0,0.0,0.0,0.0,0.0,0.0,0.0,0.0,0.0,0.0,0.0,22,src\tiles-servlet\src\test\java\org\apache\tiles\web\startup\AbstractTilesInitializerServletTest.java,0,0,0,0
org.apache.tiles.web.startup.AbstractTilesListener, 0, 0, 0, 0, 0, 0, 0, 0, 0, 0, 0, 0, 0, 0,0.0,0.0,0.0,0.0,0.0,0.0,0.0,0.0,0.0,0.0,0.0,0.0,0.0,13,src\tiles-servlet\src\main\java\org\apache\tiles\web\startup\AbstractTilesListener.java,0,0,0,0
org.apache.tiles.web.startup.AbstractTilesListenerTest, 0, 0, 0, 0, 0, 0, 0, 0, 0, 0, 0, 0, 0, 0,0.0,0.0,0.0,0.0,0.0,0.0,0.0,0.0,0.0,0.0,0.0,0.0,0.0,17,src\tiles-servlet\src\test\java\org\apache\tiles\web\startup\AbstractTilesListenerTest.java,0,0,0,0
org.apache.tiles.web.startup.simple.SimpleTilesInitializerServlet, 0, 0, 0, 0, 0, 0, 0, 0, 0, 0, 0, 0, 0, 0,0.0,0.0,0.0,0.0,0.0,0.0,0.0,0.0,0.0,0.0,0.0,0.0,0.0,6,src\tiles-servlet\src\main\java\org\apache\tiles\web\startup\simple\SimpleTilesInitializerServlet.java,0,0,0,0
org.apache.tiles.web.startup.simple.SimpleTilesInitializerServletTest, 0, 0, 0, 0, 0, 0, 0, 0, 0, 0, 0, 0, 0, 0,0.0,0.0,0.0,0.0,0.0,0.0,0.0,0.0,0.0,0.0,0.0,0.0,0.0,7,src\tiles-servlet\src\test\java\org\apache\tiles\web\startup\simple\SimpleTilesInitializerServletTest.java,0,0,0,0
org.apache.tiles.web.startup.simple.SimpleTilesListener, 0, 0, 0, 0, 0, 0, 0, 0, 0, 0, 0, 0, 0, 0,0.0,0.0,0.0,0.0,0.0,0.0,0.0,0.0,0.0,0.0,0.0,0.0,0.0,6,src\tiles-servlet\src\main\java\org\apache\tiles\web\startup\simple\SimpleTilesListener.java,0,0,0,0
org.apache.tiles.web.startup.simple.SimpleTilesListenerTest, 0, 0, 0, 0, 0, 0, 0, 0, 0, 0, 0, 0, 0, 0,0.0,0.0,0.0,0.0,0.0,0.0,0.0,0.0,0.0,0.0,0.0,0.0,0.0,7,src\tiles-servlet\src\test\java\org\apache\tiles\web\startup\simple\SimpleTilesListenerTest.java,0,0,0,0
org.apache.tiles.web.util.AttributeContextMutator, 0, 0, 0, 0, 0, 0, 0, 0, 0, 0, 0, 0, 0, 0,0.0,0.0,0.0,0.0,0.0,0.0,0.0,0.0,0.0,0.0,0.0,0.0,0.0,7,src\tiles-servlet\src\main\java\org\apache\tiles\web\util\AttributeContextMutator.java,0,0,0,0
org.apache.tiles.web.util.ServletContextAdapterTest, 0, 0, 0, 1, 0, 0, 0, 0, 0, 0, 0, 0, 0, 1,0.0,0.0,0.0,0.0,0.0,0.0,0.0,0.0,0.0,0.0,0.0,0.0,0.0,247,src\tiles-servlet\src\test\java\org\apache\tiles\web\util\ServletContextAdapterTest.java,0,0,0,0
org.apache.tiles.web.util.TilesDispatchServlet, 0, 0, 0, 0, 0, 0, 0, 0, 0, 0, 0, 0, 0, 0,0.0,0.0,0.0,0.0,0.0,0.0,0.0,0.0,0.0,0.0,0.0,0.0,0.0,57,src\tiles-servlet\src\main\java\org\apache\tiles\web\util\TilesDispatchServlet.java,0,0,0,0
