ClassName,AntiSingleton,Blob,ClassDataShouldBePrivate,ComplexClass,LargeClass,LazyClass,LongMethod,LongParameterList,MessageChains,RefusedParentBequest,SpaghettiCode,SpeculativeGenerality,SwissArmyKnife,NumOfAPs,AntiSingleton,Blob,ClassDataShouldBePrivate,ComplexClass,LargeClass,LazyClass,LongMethod,LongParameterList,MessageChains,RefusedParentBequest,SpaghettiCode,SpeculativeGenerality,SwissArmyKnife,LOC,name,deleted,added,changed,all
org.apache.accumulo.cluster.AccumuloCluster, 0, 0, 0, 0, 0, 0, 0, 0, 0, 0, 0, 0, 0, 0,0.0,0.0,0.0,0.0,0.0,0.0,0.0,0.0,0.0,0.0,0.0,0.0,0.0,null,minicluster\src\main\java\org\apache\accumulo\cluster\AccumuloCluster.java,1,5,6,18
org.apache.accumulo.cluster.AccumuloClusters, 0, 0, 0, 0, 0, 0, 0, 0, 0, 0, 0, 0, 0, 0,0.0,0.0,0.0,0.0,0.0,0.0,0.0,0.0,0.0,0.0,0.0,0.0,0.0,9,minicluster\src\main\java\org\apache\accumulo\cluster\AccumuloClusters.java,13,0,0,13
org.apache.accumulo.cluster.AccumuloClustersTest, 0, 0, 0, 0, 0, 0, 0, 0, 0, 0, 0, 0, 0, 0,0.0,0.0,0.0,0.0,0.0,0.0,0.0,0.0,0.0,0.0,0.0,0.0,0.0,24,minicluster\src\test\java\org\apache\accumulo\cluster\AccumuloClustersTest.java,39,0,0,39
org.apache.accumulo.core.Constants, 0, 0, 0, 1, 0, 0, 0, 0, 0, 0, 0, 0, 0, 1,0.0,0.0,0.0,0.0,0.0,0.0,0.0,0.0,0.0,0.0,0.0,0.0,0.0,58,core\src\main\java\org\apache\accumulo\core\Constants.java,0,5,1,7
org.apache.accumulo.core.FilteredConstants, 0, 0, 0, 0, 0, 0, 0, 0, 0, 0, 0, 0, 0, 0,0.0,0.0,0.0,0.0,0.0,0.0,0.0,0.0,0.0,0.0,0.0,0.0,0.0,3,core\src\main\java-filtered\org\apache\accumulo\core\FilteredConstants.java,0,0,0,0
org.apache.accumulo.core.bloomfilter.BloomFilter, 0, 0, 0, 0, 0, 0, 0, 0, 0, 0, 0, 0, 0, 0,0.0,0.0,0.0,1.0,0.0,0.0,0.0,0.0,0.0,0.0,0.0,0.0,0.0,113,core\src\main\java\org\apache\accumulo\core\bloomfilter\BloomFilter.java,0,0,0,0
org.apache.accumulo.core.bloomfilter.Filter, 0, 0, 0, 1, 0, 0, 0, 0, 0, 0, 0, 0, 0, 1,0.0,0.0,0.0,0.0,0.0,0.0,0.0,0.0,0.0,0.0,0.0,0.0,0.0,72,core\src\main\java\org\apache\accumulo\core\bloomfilter\Filter.java,0,0,0,0
org.apache.accumulo.core.cli.BatchScannerOpts, 0, 0, 1, 0, 0, 0, 0, 0, 0, 0, 0, 0, 0, 1,0.0,0.0,0.0,0.0,0.0,0.0,0.0,0.0,0.0,0.0,0.0,0.0,0.0,6,core\src\main\java\org\apache\accumulo\core\cli\BatchScannerOpts.java,0,0,0,0
org.apache.accumulo.core.cli.BatchWriterOpts, 0, 0, 1, 0, 0, 0, 0, 0, 0, 0, 0, 0, 0, 1,0.0,0.0,0.0,0.0,0.0,0.0,0.0,0.3333333333333333,0.0,0.0,0.0,0.0,0.0,19,core\src\main\java\org\apache\accumulo\core\cli\BatchWriterOpts.java,0,0,0,0
org.apache.accumulo.core.cli.ClientOnDefaultTable, 0, 0, 1, 0, 0, 0, 0, 0, 0, 0, 0, 0, 0, 1,0.0,0.0,0.0,0.2222222222222222,0.0,0.0,0.0,0.1111111111111111,0.0,0.0,0.0,0.0,0.0,23,core\src\main\java\org\apache\accumulo\core\cli\ClientOnDefaultTable.java,0,0,0,0
org.apache.accumulo.core.cli.ClientOnRequiredTable, 0, 0, 1, 0, 0, 0, 0, 0, 0, 0, 0, 0, 0, 1,0.0,0.0,0.0,0.125,0.0,0.0,0.0,0.0,0.0,0.0,0.0,0.0,0.0,21,core\src\main\java\org\apache\accumulo\core\cli\ClientOnRequiredTable.java,0,0,0,0
org.apache.accumulo.core.cli.Help, 0, 0, 1, 0, 0, 0, 0, 0, 0, 0, 0, 0, 0, 1,0.08333333333333333,0.0,0.0,0.0,0.0,0.0,0.0,0.0,0.0,0.0,0.0,0.0,0.0,28,core\src\main\java\org\apache\accumulo\core\cli\Help.java,0,0,0,0
org.apache.accumulo.core.cli.ScannerOpts, 0, 0, 1, 0, 0, 0, 0, 0, 0, 0, 0, 0, 0, 1,0.0,0.0,0.0,0.0,0.0,0.0,0.0,0.0,0.0,0.0,0.0,0.0,0.0,4,core\src\main\java\org\apache\accumulo\core\cli\ScannerOpts.java,0,0,0,0
org.apache.accumulo.core.cli.TestHelp, 0, 0, 0, 0, 0, 0, 0, 0, 0, 0, 0, 0, 0, 0,0.0,0.0,0.0,0.0,0.0,0.0,0.0,0.0,0.0,0.0,0.0,0.0,0.0,22,core\src\test\java\org\apache\accumulo\core\cli\TestHelp.java,0,0,0,0
org.apache.accumulo.core.client.AccumuloException, 0, 0, 0, 0, 0, 0, 0, 0, 0, 0, 0, 0, 0, 0,0.07692307692307693,0.0,0.0,0.15384615384615385,0.0,0.0,0.0,0.07692307692307693,0.0,0.0,0.0,0.0,0.0,12,core\src\main\java\org\apache\accumulo\core\client\AccumuloException.java,0,0,0,0
org.apache.accumulo.core.client.BatchDeleter, 0, 0, 0, 0, 0, 0, 0, 0, 0, 0, 0, 0, 0, 0,0.0,0.0,0.0,0.0,0.0,0.0,0.0,0.0,0.0,0.0,0.0,0.0,0.0,12,core\src\main\java\org\apache\accumulo\core\client\BatchDeleter.java,0,0,0,0
org.apache.accumulo.core.client.BatchScanner, 0, 0, 0, 0, 0, 0, 0, 0, 0, 0, 0, 0, 0, 0,0.0,0.0,0.0,0.0,0.0,0.0,0.0,0.0,0.0,0.0,0.0,0.0,0.0,12,core\src\main\java\org\apache\accumulo\core\client\BatchScanner.java,0,0,0,0
org.apache.accumulo.core.client.BatchWriter, 0, 0, 0, 0, 0, 0, 0, 0, 0, 0, 0, 0, 0, 0,0.0,0.0,0.0,0.0,0.0,0.0,0.0,0.0,0.0,0.0,0.0,0.0,0.0,12,core\src\main\java\org\apache\accumulo\core\client\BatchWriter.java,0,0,0,0
org.apache.accumulo.core.client.BatchWriterConfigTest, 0, 0, 0, 0, 0, 0, 0, 0, 0, 0, 0, 0, 0, 0,0.0,0.0,0.0,0.0,0.0,0.0,0.0,0.0,0.0,0.0,0.0,0.0,0.0,137,core\src\test\java\org\apache\accumulo\core\client\BatchWriterConfigTest.java,1,1,2,6
org.apache.accumulo.core.client.ConditionalWriter, 0, 0, 0, 0, 0, 0, 0, 0, 0, 0, 0, 0, 0, 0,0.0,0.0,0.0,0.0,0.0,0.0,0.0,0.0,0.0,0.0,0.0,0.0,0.0,137,core\src\main\java\org\apache\accumulo\core\client\ConditionalWriter.java,1,0,1,3
org.apache.accumulo.core.client.ConditionalWriterConfig, 0, 0, 0, 0, 0, 0, 0, 0, 0, 0, 0, 0, 0, 0,0.0,0.0,0.0,0.5,0.0,0.0,0.0,0.5,0.0,0.0,0.0,0.0,0.0,36,core\src\main\java\org\apache\accumulo\core\client\ConditionalWriterConfig.java,0,0,0,0
org.apache.accumulo.core.client.Connector, 0, 0, 0, 1, 0, 0, 0, 1, 0, 0, 0, 0, 0, 2,0.009433962264150943,0.0,0.009433962264150943,0.0660377358490566,0.0,0.0,0.0,0.05660377358490566,0.0,0.0,0.0,0.0,0.0,22,core\src\main\java\org\apache\accumulo\core\client\Connector.java,0,0,0,0
org.apache.accumulo.core.client.MultiTableBatchWriter, 0, 0, 0, 0, 0, 0, 0, 0, 0, 0, 0, 0, 0, 0,0.0,0.0,0.0,0.0,0.0,0.0,0.0,0.0,0.0,0.0,0.0,0.0,0.0,22,core\src\main\java\org\apache\accumulo\core\client\MultiTableBatchWriter.java,0,0,0,0
org.apache.accumulo.core.client.NamespaceExistsException, 0, 0, 0, 0, 0, 0, 0, 0, 0, 0, 0, 0, 0, 0,0.0,0.0,0.0,0.0,0.0,0.0,0.0,0.0,0.0,0.0,0.0,0.0,0.0,15,core\src\main\java\org\apache\accumulo\core\client\NamespaceExistsException.java,0,0,0,0
org.apache.accumulo.core.client.NamespaceNotEmptyException, 0, 0, 0, 0, 0, 0, 0, 0, 0, 0, 0, 0, 0, 0,0.0,0.0,0.0,0.0,0.0,0.0,0.0,0.0,0.0,0.0,0.0,0.0,0.0,20,core\src\main\java\org\apache\accumulo\core\client\NamespaceNotEmptyException.java,0,0,0,0
org.apache.accumulo.core.client.NamespaceNotFoundException, 0, 0, 0, 0, 0, 0, 0, 0, 0, 0, 0, 0, 0, 0,0.0,0.0,0.0,0.0,0.0,0.0,0.0,0.0,0.0,0.0,0.0,0.0,0.0,20,core\src\main\java\org\apache\accumulo\core\client\NamespaceNotFoundException.java,0,0,0,0
org.apache.accumulo.core.client.Scanner, 0, 0, 0, 0, 0, 0, 0, 0, 0, 0, 0, 0, 0, 0,0.0,0.0,0.0,0.0,0.0,0.0,0.0,0.0,0.0,0.0,0.0,0.0,0.0,20,core\src\main\java\org\apache\accumulo\core\client\Scanner.java,0,0,0,0
org.apache.accumulo.core.client.TableDeletedException, 0, 0, 0, 0, 0, 0, 0, 0, 0, 0, 0, 0, 0, 0,0.0,0.0,0.0,0.0,0.0,0.0,0.0,0.0,0.0,0.0,0.0,0.0,0.0,11,core\src\main\java\org\apache\accumulo\core\client\TableDeletedException.java,0,0,0,0
org.apache.accumulo.core.client.TableExistsException, 0, 0, 0, 0, 0, 0, 0, 0, 0, 0, 0, 0, 0, 0,0.125,0.0,0.0,0.0,0.0,0.0,0.0,0.125,0.0,0.0,0.0,0.0,0.0,14,core\src\main\java\org\apache\accumulo\core\client\TableExistsException.java,0,0,0,0
org.apache.accumulo.core.client.TableNotFoundException, 0, 0, 0, 0, 0, 0, 0, 0, 0, 0, 0, 0, 0, 0,0.0,0.0,0.0,0.13043478260869565,0.0,0.0,0.0,0.13043478260869565,0.0,0.0,0.0,0.0,0.0,22,core\src\main\java\org\apache\accumulo\core\client\TableNotFoundException.java,0,0,0,0
org.apache.accumulo.core.client.TableOfflineException, 0, 0, 0, 0, 0, 0, 0, 0, 0, 0, 0, 0, 0, 0,0.0,0.0,0.0,0.14285714285714285,0.0,0.0,0.0,0.14285714285714285,0.0,0.0,0.0,0.0,0.0,16,core\src\main\java\org\apache\accumulo\core\client\TableOfflineException.java,0,0,0,0
org.apache.accumulo.core.client.TestThrift1474, 0, 0, 0, 0, 0, 0, 0, 0, 0, 0, 0, 0, 0, 0,0.0,0.0,0.0,0.0,0.0,0.0,0.0,0.0,0.0,0.0,0.0,0.0,0.0,50,core\src\test\java\org\apache\accumulo\core\client\TestThrift1474.java,0,0,0,0
org.apache.accumulo.core.client.TimedOutException, 0, 0, 0, 0, 0, 0, 0, 0, 0, 0, 0, 0, 0, 0,0.0,0.0,0.0,0.0,0.0,0.0,0.0,0.0,0.0,0.0,0.0,0.0,0.0,21,core\src\main\java\org\apache\accumulo\core\client\TimedOutException.java,0,0,0,0
org.apache.accumulo.core.client.ZooKeeperInstanceTest, 0, 0, 0, 1, 0, 0, 0, 0, 0, 0, 0, 0, 0, 1,0.0,0.0,0.0,0.0,0.0,0.0,0.0,0.0,0.0,0.0,0.0,0.0,0.0,101,core\src\test\java\org\apache\accumulo\core\client\ZooKeeperInstanceTest.java,4,24,6,40
org.apache.accumulo.core.client.admin.ActiveCompaction, 0, 0, 0, 0, 0, 0, 0, 0, 0, 0, 0, 0, 0, 0,0.0,0.0,0.0,0.0,0.0,0.0,0.0,0.0,0.0,0.0,0.0,0.0,0.0,26,core\src\main\java\org\apache\accumulo\core\client\admin\ActiveCompaction.java,0,0,0,0
org.apache.accumulo.core.client.admin.DiskUsage, 0, 0, 0, 0, 0, 0, 0, 0, 0, 0, 0, 0, 0, 0,0.0,0.0,0.0,0.0,0.0,0.0,0.0,0.0,0.0,0.0,0.0,0.0,0.0,37,core\src\main\java\org\apache\accumulo\core\client\admin\DiskUsage.java,0,0,0,0
org.apache.accumulo.core.client.admin.InstanceOperationsImpl, 0, 0, 0, 0, 0, 0, 0, 0, 0, 0, 0, 0, 0, 0,0.0,0.0,0.0,0.0,0.0,0.0,0.0,0.0,0.0,0.0,0.0,0.0,0.0,8,core\src\main\java\org\apache\accumulo\core\client\admin\InstanceOperationsImpl.java,0,0,0,0
org.apache.accumulo.core.client.admin.SecurityOperations, 0, 0, 0, 0, 0, 0, 0, 0, 0, 0, 0, 0, 0, 0,0.0,0.0,0.0,0.0,0.0,0.0,0.0,0.0,0.0,0.0,0.0,0.0,0.0,8,core\src\main\java\org\apache\accumulo\core\client\admin\SecurityOperations.java,0,0,0,0
org.apache.accumulo.core.client.admin.SecurityOperationsImpl, 0, 0, 0, 0, 0, 0, 0, 0, 0, 0, 0, 0, 0, 0,0.0,0.0,0.0,0.5,0.0,0.0,0.0,0.0,0.0,0.0,0.0,0.0,0.0,8,core\src\main\java\org\apache\accumulo\core\client\admin\SecurityOperationsImpl.java,0,0,0,0
org.apache.accumulo.core.client.admin.TableOperationsHelper, 0, 0, 0, 0, 0, 0, 0, 0, 0, 0, 0, 0, 0, 0,0.0,0.0,0.0,0.0,0.0,0.0,0.0,0.0,0.0,0.0,0.0,0.0,0.0,2,core\src\main\java\org\apache\accumulo\core\client\admin\TableOperationsHelper.java,1,0,1,3
org.apache.accumulo.core.client.admin.TableOperationsImpl, 0, 0, 0, 0, 0, 0, 0, 0, 0, 0, 0, 0, 0, 0,0.0,0.0,0.0,0.0,0.0,0.0,0.0,0.0,0.0,0.0,0.0,0.0,0.0,8,core\src\main\java\org\apache\accumulo\core\client\admin\TableOperationsImpl.java,0,0,0,0
org.apache.accumulo.core.client.impl.AccumuloServerException, 0, 0, 0, 0, 0, 0, 0, 0, 0, 0, 0, 0, 0, 0,0.0,0.0,0.0,0.0,0.0,0.0,0.0,0.0,0.0,0.0,0.0,0.0,0.0,14,core\src\main\java\org\apache\accumulo\core\client\impl\AccumuloServerException.java,0,0,0,0
org.apache.accumulo.core.client.impl.BatchWriterImpl, 0, 0, 0, 0, 0, 0, 0, 0, 0, 0, 0, 0, 0, 0,0.0,0.0,0.0,0.3333333333333333,0.0,0.0,0.0,0.3333333333333333,0.0,0.0,0.0,0.0,0.0,29,core\src\main\java\org\apache\accumulo\core\client\impl\BatchWriterImpl.java,0,0,0,0
org.apache.accumulo.core.client.impl.ClientExec, 0, 0, 0, 0, 0, 0, 0, 0, 0, 0, 0, 0, 0, 0,0.0,0.0,0.0,0.0,0.0,0.0,0.0,0.0,0.0,0.0,0.0,0.0,0.0,29,core\src\main\java\org\apache\accumulo\core\client\impl\ClientExec.java,0,0,0,0
org.apache.accumulo.core.client.impl.ClientExecReturn, 0, 0, 0, 0, 0, 0, 0, 0, 0, 0, 0, 0, 0, 0,0.0,0.0,0.0,0.0,0.0,0.0,0.0,0.0,0.0,0.0,0.0,0.0,0.0,29,core\src\main\java\org\apache\accumulo\core\client\impl\ClientExecReturn.java,0,0,0,0
org.apache.accumulo.core.client.impl.ConnectorImpl, 0, 0, 0, 1, 0, 0, 0, 1, 0, 0, 0, 0, 0, 2,0.14285714285714285,0.0,0.0,0.2857142857142857,0.0,0.0,0.0,0.14285714285714285,0.0,0.0,0.0,0.0,0.0,110,core\src\main\java\org\apache\accumulo\core\client\impl\ConnectorImpl.java,4,0,0,4
org.apache.accumulo.core.client.impl.IsolationException, 0, 0, 0, 0, 0, 0, 0, 0, 0, 0, 0, 0, 0, 0,0.0,0.0,0.0,0.0,0.0,0.0,0.0,0.0,0.0,0.0,0.0,0.0,0.0,3,core\src\main\java\org\apache\accumulo\core\client\impl\IsolationException.java,0,0,0,0
org.apache.accumulo.core.client.impl.MasterClient, 0, 0, 0, 0, 0, 0, 0, 0, 0, 0, 0, 0, 0, 0,0.0,0.0,0.0,0.0,0.0,0.0,0.0,0.0,0.0,0.0,0.0,0.0,0.0,124,core\src\main\java\org\apache\accumulo\core\client\impl\MasterClient.java,0,0,0,0
org.apache.accumulo.core.client.impl.RootTabletLocatorTest, 0, 0, 0, 0, 0, 0, 0, 0, 0, 0, 0, 0, 0, 0,0.0,0.0,0.0,0.0,0.0,0.0,0.0,0.0,0.0,0.0,0.0,0.0,0.0,28,core\src\test\java\org\apache\accumulo\core\client\impl\RootTabletLocatorTest.java,4,4,0,8
org.apache.accumulo.core.client.impl.ScannerImplTest, 0, 0, 0, 0, 0, 0, 0, 0, 0, 0, 0, 0, 0, 0,0.0,0.0,0.0,0.0,0.0,0.0,0.0,0.0,0.0,0.0,0.0,0.0,0.0,17,core\src\test\java\org\apache\accumulo\core\client\impl\ScannerImplTest.java,0,0,0,0
org.apache.accumulo.core.client.impl.ScannerOptionsTest, 0, 0, 0, 0, 0, 0, 0, 0, 0, 0, 0, 0, 0, 0,0.0,0.0,0.0,0.0,0.0,0.0,0.0,0.0,0.0,0.0,0.0,0.0,0.0,23,core\src\test\java\org\apache\accumulo\core\client\impl\ScannerOptionsTest.java,0,0,0,0
org.apache.accumulo.core.client.impl.SecurityOperationsImpl, 0, 0, 0, 1, 0, 0, 0, 0, 0, 0, 0, 0, 0, 1,0.16666666666666666,0.0,0.0,0.16666666666666666,0.0,0.0,0.0,0.16666666666666666,0.0,0.0,0.0,0.0,0.0,262,core\src\main\java\org\apache\accumulo\core\client\impl\SecurityOperationsImpl.java,0,0,0,0
org.apache.accumulo.core.client.impl.ServerClient, 1, 0, 0, 0, 0, 0, 0, 0, 0, 0, 0, 0, 0, 1,0.0,0.0,0.0,0.375,0.0,0.0,0.0,0.125,0.0,0.0,0.0,0.0,0.0,109,core\src\main\java\org\apache\accumulo\core\client\impl\ServerClient.java,2,2,3,10
org.apache.accumulo.core.client.impl.ThriftTransportKey, 0, 0, 0, 0, 0, 0, 0, 0, 0, 0, 0, 0, 0, 0,0.3333333333333333,0.0,0.0,0.3333333333333333,0.0,0.0,0.0,0.0,0.0,0.0,0.0,0.0,0.0,50,core\src\main\java\org\apache\accumulo\core\client\impl\ThriftTransportKey.java,0,0,0,0
org.apache.accumulo.core.client.impl.Translators, 0, 0, 0, 0, 0, 0, 0, 0, 0, 0, 0, 0, 0, 0,0.0,0.0,0.0,0.0,0.0,0.0,0.0,0.0,0.0,0.0,0.0,0.0,0.0,9,core\src\main\java\org\apache\accumulo\core\client\impl\Translators.java,0,0,0,0
org.apache.accumulo.core.client.impl.Writer, 0, 0, 0, 0, 0, 0, 0, 1, 0, 0, 0, 0, 0, 1,0.0,0.0,0.0,0.2,0.0,0.0,0.0,0.0,0.0,0.0,0.0,0.0,0.0,57,core\src\main\java\org\apache\accumulo\core\client\impl\Writer.java,0,0,2,4
org.apache.accumulo.core.client.impl.ZookeeperLockChecker, 0, 0, 0, 0, 0, 0, 0, 0, 0, 0, 0, 0, 0, 0,0.0,0.0,0.0,0.0,0.0,0.0,0.0,0.0,0.0,0.0,0.0,0.0,0.0,25,core\src\main\java\org\apache\accumulo\core\client\impl\ZookeeperLockChecker.java,0,0,0,0
org.apache.accumulo.core.client.impl.ZookeeperLockCheckerTest, 0, 0, 0, 0, 0, 0, 0, 0, 0, 0, 0, 0, 0, 0,0.0,0.0,0.0,0.0,0.0,0.0,0.0,0.0,0.0,0.0,0.0,0.0,0.0,26,core\src\test\java\org\apache\accumulo\core\client\impl\ZookeeperLockCheckerTest.java,4,4,0,8
org.apache.accumulo.core.client.lexicoder.BigIntegerLexicoder, 0, 0, 0, 0, 0, 0, 0, 0, 0, 0, 0, 0, 0, 0,0.0,0.0,0.0,0.0,0.0,0.0,0.0,0.0,0.0,0.0,0.0,0.0,0.0,36,core\src\main\java\org\apache\accumulo\core\client\lexicoder\BigIntegerLexicoder.java,0,0,0,0
org.apache.accumulo.core.client.lexicoder.BigIntegerLexicoderTest, 0, 0, 0, 0, 0, 0, 0, 0, 0, 0, 0, 0, 0, 0,0.0,0.0,0.0,0.0,0.0,0.0,0.0,0.0,0.0,0.0,0.0,0.0,0.0,11,core\src\test\java\org\apache\accumulo\core\client\lexicoder\BigIntegerLexicoderTest.java,0,0,0,0
org.apache.accumulo.core.client.lexicoder.BytesLexicoder, 0, 0, 0, 0, 0, 0, 0, 0, 0, 0, 0, 0, 0, 0,0.0,0.0,0.0,0.0,0.0,0.0,0.0,0.0,0.0,0.0,0.0,0.0,0.0,10,core\src\main\java\org\apache\accumulo\core\client\lexicoder\BytesLexicoder.java,0,0,0,0
org.apache.accumulo.core.client.lexicoder.DateLexicoder, 0, 0, 0, 0, 0, 0, 0, 0, 0, 0, 0, 0, 0, 0,0.0,0.0,0.0,0.0,0.0,0.0,0.0,0.0,0.0,0.0,0.0,0.0,0.0,11,core\src\main\java\org\apache\accumulo\core\client\lexicoder\DateLexicoder.java,0,0,1,2
org.apache.accumulo.core.client.lexicoder.DoubleLexicoder, 0, 0, 0, 0, 0, 0, 0, 0, 0, 0, 0, 0, 0, 0,0.0,0.0,0.0,0.0,0.0,0.0,0.0,0.0,0.0,0.0,0.0,0.0,0.0,21,core\src\main\java\org\apache\accumulo\core\client\lexicoder\DoubleLexicoder.java,0,0,0,0
org.apache.accumulo.core.client.lexicoder.DoubleLexicoderTest, 0, 0, 0, 0, 0, 0, 0, 0, 0, 0, 0, 0, 0, 0,0.0,0.0,0.0,0.0,0.0,0.0,0.0,0.0,0.0,0.0,0.0,0.0,0.0,8,core\src\test\java\org\apache\accumulo\core\client\lexicoder\DoubleLexicoderTest.java,0,0,0,0
org.apache.accumulo.core.client.lexicoder.Encoder, 0, 0, 0, 0, 0, 0, 0, 0, 0, 0, 0, 0, 0, 0,0.0,0.0,0.0,0.0,0.0,0.0,0.0,0.0,0.0,0.0,0.0,0.0,0.0,8,core\src\main\java\org\apache\accumulo\core\client\lexicoder\Encoder.java,0,0,0,0
org.apache.accumulo.core.client.lexicoder.IntegerLexicoder, 0, 0, 0, 0, 0, 0, 0, 0, 0, 0, 0, 0, 0, 0,0.0,0.0,0.0,0.0,0.0,0.0,0.0,0.0,0.0,0.0,0.0,0.0,0.0,11,core\src\main\java\org\apache\accumulo\core\client\lexicoder\IntegerLexicoder.java,0,0,0,0
org.apache.accumulo.core.client.lexicoder.IntegerLexicoderTest, 0, 0, 0, 0, 0, 0, 0, 0, 0, 0, 0, 0, 0, 0,0.0,0.0,0.0,0.0,0.0,0.0,0.0,0.0,0.0,0.0,0.0,0.0,0.0,6,core\src\test\java\org\apache\accumulo\core\client\lexicoder\IntegerLexicoderTest.java,0,0,0,0
org.apache.accumulo.core.client.lexicoder.Lexicoder, 0, 0, 0, 0, 0, 0, 0, 0, 0, 0, 0, 0, 0, 0,0.0,0.0,0.0,0.0,0.0,0.0,0.0,0.0,0.0,0.0,0.0,0.0,0.0,6,core\src\main\java\org\apache\accumulo\core\client\lexicoder\Lexicoder.java,0,0,0,0
org.apache.accumulo.core.client.lexicoder.ListLexicoder, 0, 0, 0, 0, 0, 0, 0, 0, 0, 0, 0, 0, 0, 0,0.0,0.0,0.0,0.0,0.0,0.0,0.0,0.0,0.0,0.0,0.0,0.0,0.0,24,core\src\main\java\org\apache\accumulo\core\client\lexicoder\ListLexicoder.java,0,0,0,0
org.apache.accumulo.core.client.lexicoder.LongLexicoder, 0, 0, 0, 0, 0, 0, 0, 0, 0, 0, 0, 0, 0, 0,0.0,0.0,0.0,0.0,0.0,0.0,0.0,0.0,0.0,0.0,0.0,0.0,0.0,10,core\src\main\java\org\apache\accumulo\core\client\lexicoder\LongLexicoder.java,0,0,0,0
org.apache.accumulo.core.client.lexicoder.LongLexicoderTest, 0, 0, 0, 0, 0, 0, 0, 0, 0, 0, 0, 0, 0, 0,0.0,0.0,0.0,0.0,0.0,0.0,0.0,0.0,0.0,0.0,0.0,0.0,0.0,7,core\src\test\java\org\apache\accumulo\core\client\lexicoder\LongLexicoderTest.java,0,0,0,0
org.apache.accumulo.core.client.lexicoder.PairLexicoder, 0, 0, 0, 0, 0, 0, 0, 0, 0, 0, 0, 0, 0, 0,0.0,0.0,0.0,0.0,0.0,0.0,0.0,0.0,0.0,0.0,0.0,0.0,0.0,20,core\src\main\java\org\apache\accumulo\core\client\lexicoder\PairLexicoder.java,0,0,0,0
org.apache.accumulo.core.client.lexicoder.PairLexicoderTest, 0, 0, 0, 0, 0, 0, 0, 0, 0, 0, 0, 0, 0, 0,0.0,0.0,0.0,0.0,0.0,0.0,0.0,0.0,0.0,0.0,0.0,0.0,0.0,12,core\src\test\java\org\apache\accumulo\core\client\lexicoder\PairLexicoderTest.java,0,0,0,0
org.apache.accumulo.core.client.lexicoder.ReverseLexicoder, 0, 0, 0, 0, 0, 0, 0, 0, 0, 0, 0, 0, 0, 0,0.0,0.0,0.0,0.0,0.0,0.0,0.0,0.0,0.0,0.0,0.0,0.0,0.0,22,core\src\main\java\org\apache\accumulo\core\client\lexicoder\ReverseLexicoder.java,0,0,0,0
org.apache.accumulo.core.client.lexicoder.StringLexicoder, 0, 0, 0, 0, 0, 0, 0, 0, 0, 0, 0, 0, 0, 0,0.0,0.0,0.0,0.0,0.0,0.0,0.0,0.0,0.0,0.0,0.0,0.0,0.0,10,core\src\main\java\org\apache\accumulo\core\client\lexicoder\StringLexicoder.java,0,0,3,6
org.apache.accumulo.core.client.lexicoder.TextLexicoder, 0, 0, 0, 0, 0, 0, 0, 0, 0, 0, 0, 0, 0, 0,0.0,0.0,0.0,0.0,0.0,0.0,0.0,0.0,0.0,0.0,0.0,0.0,0.0,10,core\src\main\java\org\apache\accumulo\core\client\lexicoder\TextLexicoder.java,0,0,0,0
org.apache.accumulo.core.client.lexicoder.UIntegerLexicoder, 0, 0, 0, 0, 0, 0, 0, 0, 0, 0, 0, 0, 0, 0,0.0,0.0,0.0,0.0,0.0,0.0,0.0,0.0,0.0,0.0,0.0,0.0,0.0,36,core\src\main\java\org\apache\accumulo\core\client\lexicoder\UIntegerLexicoder.java,0,0,0,0
org.apache.accumulo.core.client.lexicoder.UIntegerLexicoderTest, 0, 0, 0, 0, 0, 0, 0, 0, 0, 0, 0, 0, 0, 0,0.0,0.0,0.0,0.0,0.0,0.0,0.0,0.0,0.0,0.0,0.0,0.0,0.0,14,core\src\test\java\org\apache\accumulo\core\client\lexicoder\UIntegerLexicoderTest.java,0,0,0,0
org.apache.accumulo.core.client.lexicoder.ULongLexicoder, 0, 0, 0, 0, 0, 0, 0, 0, 0, 0, 0, 0, 0, 0,0.0,0.0,0.0,0.0,0.0,0.0,0.0,0.0,0.0,0.0,0.0,0.0,0.0,36,core\src\main\java\org\apache\accumulo\core\client\lexicoder\ULongLexicoder.java,0,0,0,0
org.apache.accumulo.core.client.lexicoder.ULongLexicoderTest, 0, 0, 0, 0, 0, 0, 0, 0, 0, 0, 0, 0, 0, 0,0.0,0.0,0.0,0.0,0.0,0.0,0.0,0.0,0.0,0.0,0.0,0.0,0.0,26,core\src\test\java\org\apache\accumulo\core\client\lexicoder\ULongLexicoderTest.java,0,0,0,0
org.apache.accumulo.core.client.lexicoder.UUIDLexicoder, 0, 0, 0, 0, 0, 0, 0, 0, 0, 0, 0, 0, 0, 0,0.0,0.0,0.0,0.0,0.0,0.0,0.0,0.0,0.0,0.0,0.0,0.0,0.0,24,core\src\main\java\org\apache\accumulo\core\client\lexicoder\UUIDLexicoder.java,0,0,0,0
org.apache.accumulo.core.client.lexicoder.UUIDLexicoderTest, 0, 0, 0, 0, 0, 0, 0, 0, 0, 0, 0, 0, 0, 0,0.0,0.0,0.0,0.0,0.0,0.0,0.0,0.0,0.0,0.0,0.0,0.0,0.0,12,core\src\test\java\org\apache\accumulo\core\client\lexicoder\UUIDLexicoderTest.java,0,0,0,0
org.apache.accumulo.core.client.lexicoder.impl.ByteUtils, 0, 0, 0, 0, 0, 0, 0, 0, 0, 0, 0, 0, 0, 0,0.0,0.0,0.0,0.0,0.0,0.0,0.0,0.0,0.0,0.0,0.0,0.0,0.0,83,core\src\main\java\org\apache\accumulo\core\client\lexicoder\impl\ByteUtils.java,0,0,0,0
org.apache.accumulo.core.client.lexicoder.impl.FixedByteArrayOutputStream, 0, 0, 0, 0, 0, 0, 0, 0, 0, 0, 0, 0, 0, 0,0.0,0.0,0.0,0.0,0.0,0.0,0.0,0.0,0.0,0.0,0.0,0.0,0.0,16,core\src\main\java\org\apache\accumulo\core\client\lexicoder\impl\FixedByteArrayOutputStream.java,0,0,0,0
org.apache.accumulo.core.client.mapred.AccumuloFileOutputFormat, 0, 0, 0, 0, 0, 0, 0, 0, 0, 0, 0, 0, 0, 0,0.0,0.0,0.0,0.0,0.0,0.0,0.0,0.0,0.0,0.0,0.0,0.0,0.0,52,core\src\main\java\org\apache\accumulo\core\client\mapred\AccumuloFileOutputFormat.java,0,0,0,0
org.apache.accumulo.core.client.mapred.AccumuloInputFormatTest, 0, 0, 0, 1, 0, 0, 0, 0, 0, 0, 0, 0, 0, 1,0.0,0.0,0.0,0.6666666666666666,0.0,0.0,0.0,0.3333333333333333,0.0,0.0,0.0,0.0,0.0,209,core\src\test\java\org\apache\accumulo\core\client\mapred\AccumuloInputFormatTest.java,0,0,0,0
org.apache.accumulo.core.client.mapred.AccumuloRowInputFormat, 0, 0, 0, 0, 0, 0, 0, 0, 0, 0, 0, 0, 0, 0,0.0,0.0,0.0,1.0,0.0,0.0,0.0,0.0,0.0,0.0,0.0,0.0,0.0,33,core\src\main\java\org\apache\accumulo\core\client\mapred\AccumuloRowInputFormat.java,0,0,0,0
org.apache.accumulo.core.client.mapred.AccumuloRowInputFormatTest, 0, 0, 0, 1, 0, 0, 0, 0, 0, 0, 0, 0, 0, 1,0.0,0.0,0.0,1.0,0.0,0.0,0.0,1.0,0.0,0.0,0.0,0.0,0.0,132,core\src\test\java\org\apache\accumulo\core\client\mapred\AccumuloRowInputFormatTest.java,0,0,0,0
org.apache.accumulo.core.client.mapred.InputFormatBase, 0, 0, 0, 1, 0, 0, 0, 0, 0, 0, 0, 0, 0, 1,0.0,0.0,0.0,0.5,0.0,0.0,0.0,0.0,0.0,0.0,0.0,0.0,0.0,93,core\src\main\java\org\apache\accumulo\core\client\mapred\InputFormatBase.java,0,0,0,0
org.apache.accumulo.core.client.mapred.RangeInputSplit, 0, 0, 0, 0, 0, 0, 0, 0, 0, 0, 0, 0, 0, 0,0.0,0.0,0.0,0.0,0.0,0.0,0.0,0.0,0.0,0.0,0.0,0.0,0.0,11,core\src\main\java\org\apache\accumulo\core\client\mapred\RangeInputSplit.java,0,0,0,0
org.apache.accumulo.core.client.mapred.RangeInputSplitTest, 0, 0, 0, 0, 0, 0, 0, 0, 0, 0, 0, 0, 0, 0,0.0,0.0,0.0,0.0,0.0,0.0,0.0,0.0,0.0,0.0,0.0,0.0,0.0,62,core\src\test\java\org\apache\accumulo\core\client\mapred\RangeInputSplitTest.java,0,0,0,0
org.apache.accumulo.core.client.mapreduce.AccumuloFileOutputFormat, 0, 0, 0, 0, 0, 0, 0, 0, 0, 0, 0, 0, 0, 0,0.0,0.0,0.0,0.0,0.0,0.0,0.0,0.0,0.0,0.0,0.0,0.0,0.0,52,core\src\main\java\org\apache\accumulo\core\client\mapreduce\AccumuloFileOutputFormat.java,0,1,2,5
org.apache.accumulo.core.client.mapreduce.AccumuloInputFormatTest, 0, 0, 0, 0, 0, 0, 0, 0, 0, 0, 0, 0, 0, 0,0.0,0.0,0.0,0.6666666666666666,0.0,0.0,0.0,0.3333333333333333,0.0,0.0,0.0,0.0,0.0,272,core\src\test\java\org\apache\accumulo\core\client\mapreduce\AccumuloInputFormatTest.java,0,0,0,0
org.apache.accumulo.core.client.mapreduce.AccumuloRowInputFormat, 0, 0, 0, 0, 0, 0, 0, 0, 0, 0, 0, 0, 0, 0,0.0,0.0,0.0,1.0,0.0,0.0,0.0,0.0,0.0,0.0,0.0,0.0,0.0,27,core\src\main\java\org\apache\accumulo\core\client\mapreduce\AccumuloRowInputFormat.java,0,0,0,0
org.apache.accumulo.core.client.mapreduce.AccumuloRowInputFormatTest, 0, 0, 0, 1, 0, 0, 0, 0, 0, 0, 0, 0, 0, 1,0.0,0.0,0.0,1.0,0.0,0.0,0.0,1.0,0.0,0.0,0.0,0.0,0.0,132,core\src\test\java\org\apache\accumulo\core\client\mapreduce\AccumuloRowInputFormatTest.java,0,0,0,0
org.apache.accumulo.core.client.mapreduce.BadPasswordSplitsAccumuloInputFormat, 0, 0, 0, 0, 0, 0, 0, 0, 0, 0, 0, 0, 0, 0,0.0,0.0,0.0,0.0,0.0,0.0,0.0,0.0,0.0,0.0,0.0,0.0,0.0,11,core\src\test\java\org\apache\accumulo\core\client\mapreduce\BadPasswordSplitsAccumuloInputFormat.java,0,0,0,0
org.apache.accumulo.core.client.mapreduce.EmptySplitsAccumuloInputFormat, 0, 0, 0, 0, 0, 0, 0, 0, 0, 0, 0, 0, 0, 0,0.0,0.0,0.0,0.0,0.0,0.0,0.0,0.0,0.0,0.0,0.0,0.0,0.0,13,core\src\test\java\org\apache\accumulo\core\client\mapreduce\EmptySplitsAccumuloInputFormat.java,0,0,0,0
org.apache.accumulo.core.client.mapreduce.InputFormatBase, 0, 0, 0, 1, 0, 0, 0, 0, 0, 0, 0, 0, 0, 1,0.0,0.0,0.2,0.0,0.0,0.0,0.0,0.0,0.0,0.0,0.0,0.0,0.0,92,core\src\main\java\org\apache\accumulo\core\client\mapreduce\InputFormatBase.java,0,1,1,3
org.apache.accumulo.core.client.mapreduce.InputTableConfig, 0, 0, 0, 1, 0, 0, 0, 0, 0, 0, 0, 0, 0, 1,0.0,0.0,0.0,0.0,0.0,0.0,0.0,0.0,0.0,0.0,0.0,0.0,0.0,167,core\src\main\java\org\apache\accumulo\core\client\mapreduce\InputTableConfig.java,0,0,0,0
org.apache.accumulo.core.client.mapreduce.InputTableConfigTest, 0, 0, 0, 0, 0, 0, 0, 0, 0, 0, 0, 0, 0, 0,0.0,0.0,0.0,1.0,0.0,0.0,0.0,0.0,0.0,0.0,0.0,0.0,0.0,65,core\src\test\java\org\apache\accumulo\core\client\mapreduce\InputTableConfigTest.java,1,1,0,2
org.apache.accumulo.core.client.mapreduce.RangeInputSplitTest, 0, 0, 0, 0, 0, 0, 0, 0, 0, 0, 0, 0, 0, 0,0.0,0.0,0.0,0.0,0.0,0.0,0.0,0.0,0.0,0.0,0.0,0.0,0.0,66,core\src\test\java\org\apache\accumulo\core\client\mapreduce\RangeInputSplitTest.java,0,0,0,0
org.apache.accumulo.core.client.mapreduce.lib.impl.ConfiguratorBaseTest, 0, 0, 0, 0, 0, 0, 0, 0, 0, 0, 0, 0, 0, 0,0.0,0.0,0.0,0.0,0.0,0.0,0.0,0.0,0.0,0.0,0.0,0.0,0.0,84,core\src\test\java\org\apache\accumulo\core\client\mapreduce\lib\impl\ConfiguratorBaseTest.java,0,0,5,10
org.apache.accumulo.core.client.mapreduce.lib.impl.DistributedCacheHelper, 0, 0, 0, 0, 0, 0, 0, 0, 0, 0, 0, 0, 0, 0,0.0,0.0,0.0,0.0,0.0,0.0,0.0,0.0,0.0,0.0,0.0,0.0,0.0,11,core\src\main\java\org\apache\accumulo\core\client\mapreduce\lib\impl\DistributedCacheHelper.java,0,0,0,0
org.apache.accumulo.core.client.mapreduce.lib.impl.OutputConfigurator, 0, 0, 0, 0, 0, 0, 0, 0, 0, 0, 0, 0, 0, 0,0.0,0.0,0.0,0.0,0.0,0.0,0.0,0.0,0.0,0.0,0.0,0.0,0.0,55,core\src\main\java\org\apache\accumulo\core\client\mapreduce\lib\impl\OutputConfigurator.java,1,1,2,6
org.apache.accumulo.core.client.mapreduce.lib.partition.KeyRangePartitioner, 0, 0, 0, 0, 0, 0, 0, 0, 0, 0, 0, 0, 0, 0,0.0,0.0,0.0,0.0,0.0,0.0,0.0,0.0,0.0,0.0,0.0,0.0,0.0,21,core\src\main\java\org\apache\accumulo\core\client\mapreduce\lib\partition\KeyRangePartitioner.java,0,0,0,0
org.apache.accumulo.core.client.mapreduce.lib.partition.RangePartitionerTest, 0, 0, 0, 0, 0, 0, 0, 0, 0, 0, 0, 0, 0, 0,0.0,0.0,0.0,0.0,0.0,0.0,0.0,0.0,0.0,0.0,0.0,0.0,0.0,48,core\src\test\java\org\apache\accumulo\core\client\mapreduce\lib\partition\RangePartitionerTest.java,0,0,0,0
org.apache.accumulo.core.client.mapreduce.lib.util.ConfiguratorBase, 0, 0, 0, 0, 0, 0, 0, 0, 0, 0, 0, 0, 0, 0,0.0,0.0,0.0,0.3333333333333333,0.0,0.0,0.0,0.0,0.0,0.0,0.0,0.0,0.0,61,core\src\main\java\org\apache\accumulo\core\client\mapreduce\lib\util\ConfiguratorBase.java,0,0,0,0
org.apache.accumulo.core.client.mapreduce.lib.util.FileOutputConfigurator, 0, 0, 0, 0, 0, 0, 0, 0, 0, 0, 0, 0, 0, 0,0.0,0.0,0.0,0.0,0.0,0.0,0.0,0.0,0.0,0.0,0.0,0.0,0.0,43,core\src\main\java\org\apache\accumulo\core\client\mapreduce\lib\util\FileOutputConfigurator.java,0,0,0,0
org.apache.accumulo.core.client.mapreduce.lib.util.InputConfigurator, 0, 0, 0, 1, 0, 0, 0, 0, 0, 0, 0, 0, 0, 1,0.0,0.0,0.0,0.0,0.0,0.0,0.0,0.0,0.0,0.0,0.0,0.0,0.0,99,core\src\main\java\org\apache\accumulo\core\client\mapreduce\lib\util\InputConfigurator.java,0,0,0,0
org.apache.accumulo.core.client.mapreduce.lib.util.OutputConfigurator, 0, 0, 0, 0, 0, 0, 0, 0, 0, 0, 0, 0, 0, 0,0.0,0.0,0.0,0.0,0.0,0.0,0.0,0.0,0.0,0.0,0.0,0.0,0.0,42,core\src\main\java\org\apache\accumulo\core\client\mapreduce\lib\util\OutputConfigurator.java,0,0,0,0
org.apache.accumulo.core.client.mock.MockBatchWriter, 0, 0, 0, 0, 0, 0, 0, 0, 0, 0, 0, 0, 0, 0,0.0,0.0,0.0,0.5,0.0,0.0,0.0,0.5,0.0,0.0,0.0,0.0,0.0,24,core\src\main\java\org\apache\accumulo\core\client\mock\MockBatchWriter.java,0,0,0,0
org.apache.accumulo.core.client.mock.MockConnector, 0, 0, 0, 1, 0, 0, 0, 1, 0, 0, 0, 0, 0, 2,0.0,0.0,0.0,0.4,0.0,0.0,0.0,0.2,0.0,0.0,0.0,0.0,0.0,90,core\src\main\java\org\apache\accumulo\core\client\mock\MockConnector.java,1,1,0,2
org.apache.accumulo.core.client.mock.MockInstanceOperations, 0, 0, 0, 0, 0, 0, 0, 0, 0, 0, 0, 0, 0, 0,0.0,0.0,0.0,0.0,0.0,0.0,0.0,0.0,0.0,0.0,0.0,0.0,0.0,5,core\src\main\java\org\apache\accumulo\core\client\mock\MockInstanceOperations.java,0,0,0,0
org.apache.accumulo.core.client.mock.MockSecurityOperations, 0, 0, 0, 0, 0, 0, 0, 0, 0, 0, 0, 0, 0, 0,0.0,0.0,0.0,1.0,0.0,0.0,0.0,0.0,0.0,0.0,0.0,0.0,0.0,5,core\src\main\java\org\apache\accumulo\core\client\mock\MockSecurityOperations.java,0,0,0,0
org.apache.accumulo.core.client.mock.MockSecurityOperationsImpl, 0, 0, 0, 1, 0, 0, 0, 0, 0, 0, 0, 0, 0, 1,0.0,0.0,0.0,0.3333333333333333,0.0,0.0,0.0,0.3333333333333333,0.0,0.0,0.0,0.0,0.0,167,core\src\main\java\org\apache\accumulo\core\client\mock\MockSecurityOperationsImpl.java,0,0,0,0
org.apache.accumulo.core.client.mock.MockTableOperations, 0, 0, 0, 0, 0, 0, 0, 0, 0, 0, 0, 0, 0, 0,0.0,0.0,0.0,0.0,0.0,0.0,0.0,0.0,0.0,0.0,0.0,0.0,0.0,5,core\src\main\java\org\apache\accumulo\core\client\mock\MockTableOperations.java,0,0,0,0
org.apache.accumulo.core.client.mock.MockUser, 0, 0, 0, 0, 0, 0, 0, 0, 0, 0, 0, 0, 0, 0,0.0,0.0,0.0,1.0,0.0,0.0,0.0,0.0,0.0,0.0,0.0,0.0,0.0,12,core\src\main\java\org\apache\accumulo\core\client\mock\MockUser.java,0,0,0,0
org.apache.accumulo.core.client.mock.TransformIterator, 0, 0, 0, 0, 0, 0, 0, 0, 0, 0, 0, 0, 0, 0,0.0,0.0,0.0,0.0,0.0,0.0,0.0,0.0,0.0,0.0,0.0,0.0,0.0,7,core\src\test\java\org\apache\accumulo\core\client\mock\TransformIterator.java,0,0,0,0
org.apache.accumulo.core.client.security.SecurityErrorCodeTest, 0, 0, 0, 0, 0, 0, 0, 0, 0, 0, 0, 0, 0, 0,0.0,0.0,0.0,0.0,0.0,0.0,0.0,0.0,0.0,0.0,0.0,0.0,0.0,12,core\src\test\java\org\apache\accumulo\core\client\security\SecurityErrorCodeTest.java,0,0,0,0
org.apache.accumulo.core.client.security.tokens.CredentialProviderToken, 0, 0, 0, 0, 0, 0, 0, 0, 0, 0, 0, 0, 0, 0,0.0,0.0,0.0,0.5,0.0,0.0,0.0,0.0,0.0,0.0,0.0,0.0,0.0,46,core\src\main\java\org\apache\accumulo\core\client\security\tokens\CredentialProviderToken.java,1,2,1,5
org.apache.accumulo.core.client.security.tokens.CredentialProviderTokenTest, 0, 0, 0, 0, 0, 0, 0, 0, 0, 0, 0, 0, 0, 0,0.0,0.0,0.0,0.0,0.0,0.0,0.0,0.0,0.0,0.0,0.0,0.0,0.0,79,core\src\test\java\org\apache\accumulo\core\client\security\tokens\CredentialProviderTokenTest.java,1,1,2,6
org.apache.accumulo.core.client.security.tokens.NullToken, 0, 0, 0, 0, 0, 0, 0, 0, 0, 0, 0, 0, 0, 0,0.0,0.0,0.0,0.0,0.0,0.0,0.0,0.0,0.0,0.0,0.0,0.0,0.0,33,core\src\main\java\org\apache\accumulo\core\client\security\tokens\NullToken.java,0,0,6,12
org.apache.accumulo.core.client.security.tokens.PasswordTokenTest, 0, 0, 0, 0, 0, 0, 0, 0, 0, 0, 0, 0, 0, 0,0.0,0.0,0.0,0.0,0.0,0.0,0.0,0.0,0.0,0.0,0.0,0.0,0.0,15,core\src\test\java\org\apache\accumulo\core\client\security\tokens\PasswordTokenTest.java,1,1,2,6
org.apache.accumulo.core.conf.AccumuloConfigurationTest, 0, 0, 0, 0, 0, 0, 0, 0, 0, 0, 0, 0, 0, 0,0.0,0.0,0.0,0.0,0.0,0.0,0.0,0.0,0.0,0.0,0.0,0.0,0.0,21,core\src\test\java\org\apache\accumulo\core\conf\AccumuloConfigurationTest.java,0,0,0,0
org.apache.accumulo.core.conf.ClientConfigurationTest, 0, 0, 0, 0, 0, 0, 0, 0, 0, 0, 0, 0, 0, 0,0.0,0.0,0.0,0.0,0.0,0.0,0.0,0.0,0.0,0.0,0.0,0.0,0.0,33,core\src\test\java\org\apache\accumulo\core\conf\ClientConfigurationTest.java,0,0,0,0
org.apache.accumulo.core.conf.ConfigurationObserver, 0, 0, 0, 0, 0, 0, 0, 0, 0, 0, 0, 0, 0, 0,0.0,0.0,0.0,0.0,0.0,0.0,0.0,0.0,0.0,0.0,0.0,0.0,0.0,33,core\src\main\java\org\apache\accumulo\core\conf\ConfigurationObserver.java,0,0,0,0
org.apache.accumulo.core.conf.CredentialProviderFactoryShim, 0, 0, 0, 1, 0, 0, 0, 0, 0, 0, 0, 0, 0, 1,0.0,0.0,0.0,0.0,0.0,0.0,0.0,0.0,0.0,0.0,0.0,0.0,0.0,273,core\src\main\java\org\apache\accumulo\core\conf\CredentialProviderFactoryShim.java,1,6,2,11
org.apache.accumulo.core.conf.ObservableConfiguration, 0, 0, 0, 0, 0, 0, 0, 0, 0, 0, 0, 0, 0, 0,0.0,0.0,0.0,0.0,0.0,0.0,0.0,0.0,0.0,0.0,0.0,0.0,0.0,38,core\src\main\java\org\apache\accumulo\core\conf\ObservableConfiguration.java,0,0,0,0
org.apache.accumulo.core.constraints.Constraint, 0, 0, 0, 0, 0, 0, 0, 0, 0, 0, 0, 0, 0, 0,0.0,0.0,0.0,0.0,0.0,0.0,0.0,0.0,0.0,0.0,0.0,0.0,0.0,38,core\src\main\java\org\apache\accumulo\core\constraints\Constraint.java,0,0,0,0
org.apache.accumulo.core.constraints.DefaultKeySizeConstraint, 0, 0, 0, 0, 0, 0, 0, 0, 0, 0, 0, 0, 0, 0,0.0,0.0,0.0,0.0,0.0,0.0,0.0,0.0,0.0,0.0,0.0,0.0,0.0,28,core\src\main\java\org\apache\accumulo\core\constraints\DefaultKeySizeConstraint.java,0,0,0,0
org.apache.accumulo.core.constraints.DefaultKeySizeConstraintTest, 0, 0, 0, 0, 0, 0, 0, 0, 0, 0, 0, 0, 0, 0,0.0,0.0,0.0,1.0,0.0,0.0,0.0,0.0,0.0,0.0,0.0,0.0,0.0,23,core\src\test\java\org\apache\accumulo\core\constraints\DefaultKeySizeConstraintTest.java,0,0,0,0
org.apache.accumulo.core.data.ArrayByteSequence, 0, 0, 0, 1, 0, 0, 0, 0, 0, 0, 0, 0, 0, 1,0.0,0.0,0.0,0.375,0.0,0.0,0.0,0.25,0.0,0.0,0.0,0.0,0.0,77,core\src\main\java\org\apache\accumulo\core\data\ArrayByteSequence.java,1,1,2,6
org.apache.accumulo.core.data.ArrayByteSequenceTest, 0, 0, 0, 1, 0, 0, 0, 0, 0, 0, 0, 0, 0, 1,0.0,0.0,0.0,0.5,0.0,0.0,0.0,0.0,0.0,0.0,0.0,0.0,0.0,63,core\src\test\java\org\apache\accumulo\core\data\ArrayByteSequenceTest.java,0,0,0,0
org.apache.accumulo.core.data.ByteSequence, 0, 0, 0, 0, 0, 0, 0, 0, 0, 0, 0, 0, 0, 0,0.0,0.0,0.0,0.35714285714285715,0.0,0.0,0.0,0.14285714285714285,0.0,0.0,0.0,0.0,0.0,52,core\src\main\java\org\apache\accumulo\core\data\ByteSequence.java,0,0,0,0
org.apache.accumulo.core.data.ByteSequenceTest, 0, 0, 0, 0, 0, 0, 0, 0, 0, 0, 0, 0, 0, 0,0.0,0.0,0.0,0.5,0.0,0.0,0.0,0.0,0.0,0.0,0.0,0.0,0.0,15,core\src\test\java\org\apache\accumulo\core\data\ByteSequenceTest.java,0,0,0,0
org.apache.accumulo.core.data.Column, 0, 0, 1, 1, 0, 0, 0, 0, 0, 0, 0, 0, 0, 2,0.2,0.0,0.0,0.4,0.0,0.0,0.0,0.0,0.0,0.0,0.0,0.0,0.0,118,core\src\main\java\org\apache\accumulo\core\data\Column.java,1,2,2,7
org.apache.accumulo.core.data.ColumnTest, 1, 0, 0, 0, 0, 0, 0, 0, 0, 0, 0, 0, 0, 1,0.0,0.0,1.0,1.0,0.0,0.0,0.0,0.0,0.0,0.0,0.0,0.0,0.0,57,core\src\test\java\org\apache\accumulo\core\data\ColumnTest.java,0,0,0,0
org.apache.accumulo.core.data.ComparableBytes, 0, 0, 1, 0, 0, 0, 0, 0, 0, 0, 0, 0, 0, 1,0.0,0.0,0.0,0.0,0.0,0.0,0.0,0.0,0.0,0.0,0.0,0.0,0.0,13,core\src\main\java\org\apache\accumulo\core\data\ComparableBytes.java,0,0,0,0
org.apache.accumulo.core.data.ConditionTest, 0, 0, 0, 1, 0, 0, 0, 0, 0, 0, 0, 0, 0, 1,0.0,0.0,0.0,0.0,0.0,0.0,0.0,0.0,0.0,0.0,0.0,0.0,0.0,182,core\src\test\java\org\apache\accumulo\core\data\ConditionTest.java,1,1,5,12
org.apache.accumulo.core.data.ConditionalMutation, 0, 0, 0, 0, 0, 0, 0, 0, 0, 0, 0, 0, 0, 0,0.0,0.0,0.0,0.25,0.0,0.0,0.0,0.0,0.0,0.0,0.0,0.0,0.0,58,core\src\main\java\org\apache\accumulo\core\data\ConditionalMutation.java,0,0,0,0
org.apache.accumulo.core.data.ConditionalMutationTest, 0, 0, 0, 1, 0, 0, 0, 0, 0, 0, 0, 0, 0, 1,0.0,0.0,0.0,0.5,0.0,0.0,0.0,0.0,0.0,0.0,0.0,0.0,0.0,101,core\src\test\java\org\apache\accumulo\core\data\ConditionalMutationTest.java,1,1,4,10
org.apache.accumulo.core.data.KeyTest, 0, 0, 0, 0, 0, 0, 0, 0, 0, 0, 0, 0, 0, 0,0.0,0.0,0.5,0.0,0.0,0.0,0.0,0.0,0.0,0.0,0.0,0.0,0.0,109,core\src\test\java\org\apache\accumulo\core\data\KeyTest.java,0,0,0,0
org.apache.accumulo.core.data.KeyValue, 0, 0, 1, 0, 0, 0, 0, 0, 0, 0, 0, 0, 0, 1,0.0,0.0,0.0,0.3333333333333333,0.0,0.0,0.0,0.0,0.0,0.0,0.0,0.0,0.0,27,core\src\main\java\org\apache\accumulo\core\data\KeyValue.java,11,0,14,39
org.apache.accumulo.core.data.RangeTest, 0, 0, 0, 1, 0, 0, 0, 0, 0, 0, 0, 0, 0, 1,0.0,0.0,1.0,1.0,0.0,0.0,0.0,0.0,0.0,0.0,0.0,0.0,0.0,611,core\src\test\java\org\apache\accumulo\core\data\RangeTest.java,0,0,0,0
org.apache.accumulo.core.data.Value, 0, 0, 0, 1, 0, 0, 0, 0, 0, 0, 0, 0, 0, 1,0.0,0.0,0.06896551724137931,0.1724137931034483,0.0,0.0,0.0,0.13793103448275862,0.0,0.0,0.0,0.0,0.0,107,core\src\main\java\org\apache\accumulo\core\data\Value.java,2,2,1,6
org.apache.accumulo.core.data.ValueTest, 0, 0, 0, 1, 0, 0, 0, 0, 0, 0, 0, 0, 0, 1,0.0,0.0,0.0,1.0,0.0,0.0,0.0,0.0,0.0,0.0,0.0,0.0,0.0,154,core\src\test\java\org\apache\accumulo\core\data\ValueTest.java,3,10,1,15
org.apache.accumulo.core.file.BloomFilterLayerLookupTest, 0, 0, 1, 0, 0, 0, 0, 0, 0, 0, 0, 0, 0, 1,0.0,0.0,0.0,0.0,0.0,0.0,0.0,0.5,0.0,0.0,0.0,0.5,0.0,77,core\src\test\java\org\apache\accumulo\core\file\BloomFilterLayerLookupTest.java,0,0,0,0
org.apache.accumulo.core.file.DispatchingFileFactory, 0, 0, 0, 0, 0, 0, 0, 1, 0, 0, 0, 0, 0, 1,0.0,0.0,0.0,0.0,0.0,0.0,0.0,1.0,0.0,0.0,0.0,1.0,0.0,81,core\src\test\java\org\apache\accumulo\core\file\BloomFilterLayerLookupTest.java,0,0,0,0
org.apache.accumulo.core.file.FileOperations, 0, 0, 0, 0, 0, 0, 0, 1, 0, 0, 0, 1, 0, 2,0.0,0.0,0.2,0.0,0.0,0.0,0.0,0.6,0.0,0.0,0.0,0.0,0.0,25,core\src\main\java\org\apache\accumulo\core\file\FileOperations.java,0,0,0,0
org.apache.accumulo.core.file.FileOperationsTest, 0, 0, 0, 0, 0, 0, 0, 0, 0, 0, 0, 0, 0, 0,0.0,0.0,0.0,0.0,0.0,0.0,0.0,1.0,0.0,0.0,0.0,1.0,0.0,29,core\src\test\java\org\apache\accumulo\core\file\FileOperationsTest.java,0,0,0,0
org.apache.accumulo.core.file.FileSKVIterator, 0, 0, 0, 0, 0, 0, 0, 0, 0, 0, 0, 0, 0, 0,0.0,0.0,0.0,0.0,0.0,0.0,0.0,0.0,0.0,0.0,0.0,0.0,0.0,29,core\src\main\java\org\apache\accumulo\core\file\FileSKVIterator.java,0,0,0,0
org.apache.accumulo.core.file.FileSKVWriter, 0, 0, 0, 0, 0, 0, 0, 0, 0, 0, 0, 0, 0, 0,0.0,0.0,0.0,0.0,0.0,0.0,0.0,0.0,0.0,0.0,0.0,0.0,0.0,29,core\src\main\java\org\apache\accumulo\core\file\FileSKVWriter.java,0,0,0,0
org.apache.accumulo.core.file.NoSuchMetaStoreException, 0, 0, 0, 0, 0, 0, 0, 0, 0, 0, 0, 0, 0, 0,0.0,0.0,0.0,0.0,0.0,0.0,0.0,0.0,0.0,0.0,0.0,0.0,0.0,9,core\src\main\java\org\apache\accumulo\core\file\NoSuchMetaStoreException.java,0,0,0,0
org.apache.accumulo.core.file.blockfile.ABlockReader, 0, 0, 0, 0, 0, 0, 0, 0, 0, 0, 0, 0, 0, 0,0.0,0.0,0.0,0.0,0.0,0.0,0.0,0.0,0.0,0.0,0.0,0.0,0.0,9,core\src\main\java\org\apache\accumulo\core\file\blockfile\ABlockReader.java,0,0,0,0
org.apache.accumulo.core.file.blockfile.ABlockWriter, 0, 0, 0, 0, 0, 0, 0, 0, 0, 0, 0, 0, 0, 0,0.0,0.0,0.0,0.0,0.0,0.0,0.0,0.0,0.0,0.0,0.0,0.0,0.0,9,core\src\main\java\org\apache\accumulo\core\file\blockfile\ABlockWriter.java,0,0,0,0
org.apache.accumulo.core.file.blockfile.BlockFileReader, 0, 0, 0, 0, 0, 0, 0, 0, 0, 0, 0, 0, 0, 0,0.0,0.0,0.0,0.0,0.0,0.0,0.0,0.0,0.0,0.0,0.0,0.0,0.0,9,core\src\main\java\org\apache\accumulo\core\file\blockfile\BlockFileReader.java,0,0,0,0
org.apache.accumulo.core.file.blockfile.BlockFileWriter, 0, 0, 0, 0, 0, 0, 0, 0, 0, 0, 0, 0, 0, 0,0.0,0.0,0.0,0.0,0.0,0.0,0.0,0.0,0.0,0.0,0.0,0.0,0.0,9,core\src\main\java\org\apache\accumulo\core\file\blockfile\BlockFileWriter.java,0,0,0,0
org.apache.accumulo.core.file.blockfile.cache.BlockCache, 0, 0, 0, 0, 0, 0, 0, 0, 0, 0, 0, 0, 0, 0,0.0,0.0,0.0,0.0,0.0,0.0,0.0,0.0,0.0,0.0,0.0,0.0,0.0,9,core\src\main\java\org\apache\accumulo\core\file\blockfile\cache\BlockCache.java,0,0,0,0
org.apache.accumulo.core.file.blockfile.cache.CacheEntry, 0, 0, 0, 0, 0, 0, 0, 0, 0, 0, 0, 0, 0, 0,0.0,0.0,0.0,0.0,0.0,0.0,0.0,0.0,0.0,0.0,0.0,0.0,0.0,9,core\src\main\java\org\apache\accumulo\core\file\blockfile\cache\CacheEntry.java,0,0,0,0
org.apache.accumulo.core.file.blockfile.cache.CachedBlock, 0, 0, 0, 1, 0, 0, 0, 0, 0, 0, 0, 0, 0, 1,0.0,0.0,0.0,0.0,0.0,0.0,0.0,0.0,0.0,0.0,0.0,0.0,0.0,61,core\src\main\java\org\apache\accumulo\core\file\blockfile\cache\CachedBlock.java,0,0,0,0
org.apache.accumulo.core.file.blockfile.cache.HeapSize, 0, 0, 0, 0, 0, 0, 0, 0, 0, 0, 0, 0, 0, 0,0.0,0.0,0.0,0.0,0.0,0.0,0.0,0.0,0.0,0.0,0.0,0.0,0.0,61,core\src\main\java\org\apache\accumulo\core\file\blockfile\cache\HeapSize.java,0,0,0,0
org.apache.accumulo.core.file.blockfile.cache.SizeConstants, 0, 0, 0, 0, 0, 0, 0, 0, 0, 0, 0, 0, 0, 0,0.0,0.0,0.0,0.0,0.0,0.0,0.0,0.0,0.0,0.0,0.0,0.0,0.0,10,core\src\main\java\org\apache\accumulo\core\file\blockfile\cache\SizeConstants.java,0,0,0,0
org.apache.accumulo.core.file.blockfile.cache.TestCachedBlockQueue, 0, 0, 0, 0, 0, 0, 0, 0, 0, 0, 0, 0, 0, 0,0.0,0.0,0.0,1.0,0.0,0.0,0.0,0.0,0.0,0.0,0.0,0.0,0.0,79,core\src\test\java\org\apache\accumulo\core\file\blockfile\cache\TestCachedBlockQueue.java,0,0,0,0
org.apache.accumulo.core.file.blockfile.cache.TestLruBlockCache, 0, 0, 0, 0, 0, 0, 0, 0, 0, 0, 0, 0, 0, 0,0.0,0.0,0.0,1.0,0.0,0.0,0.0,0.0,0.0,0.0,0.0,0.0,0.0,266,core\src\test\java\org\apache\accumulo\core\file\blockfile\cache\TestLruBlockCache.java,0,0,0,0
org.apache.accumulo.core.file.blockfile.impl.CachableBlockFile, 0, 0, 0, 0, 0, 0, 0, 0, 0, 0, 0, 0, 0, 0,0.0,0.0,0.0,0.0,0.0,0.0,0.0,0.0,0.0,0.0,0.0,0.0,0.0,338,core\src\main\java\org\apache\accumulo\core\file\blockfile\impl\CachableBlockFile.java,0,2,2,6
org.apache.accumulo.core.file.keyfunctor.ColumnFamilyFunctor, 0, 0, 0, 0, 0, 0, 0, 0, 0, 0, 0, 0, 0, 0,0.0,0.0,0.0,0.0,0.0,0.0,0.0,0.0,0.0,0.0,0.0,0.0,0.0,20,core\src\main\java\org\apache\accumulo\core\file\keyfunctor\ColumnFamilyFunctor.java,0,0,0,0
org.apache.accumulo.core.file.keyfunctor.ColumnQualifierFunctor, 0, 0, 0, 0, 0, 0, 0, 0, 0, 0, 0, 0, 0, 0,0.0,0.0,0.0,0.0,0.0,0.0,0.0,0.0,0.0,0.0,0.0,0.0,0.0,21,core\src\main\java\org\apache\accumulo\core\file\keyfunctor\ColumnQualifierFunctor.java,0,0,0,0
org.apache.accumulo.core.file.keyfunctor.KeyFunctor, 0, 0, 0, 0, 0, 0, 0, 0, 0, 0, 0, 0, 0, 0,0.0,0.0,0.0,0.0,0.0,0.0,0.0,0.0,0.0,0.0,0.0,0.0,0.0,21,core\src\main\java\org\apache\accumulo\core\file\keyfunctor\KeyFunctor.java,0,0,0,0
org.apache.accumulo.core.file.keyfunctor.RowFunctor, 0, 0, 0, 0, 0, 0, 0, 0, 0, 0, 0, 0, 0, 0,0.0,0.0,0.0,0.0,0.0,0.0,0.0,0.0,0.0,0.0,0.0,0.0,0.0,25,core\src\main\java\org\apache\accumulo\core\file\keyfunctor\RowFunctor.java,0,0,0,0
org.apache.accumulo.core.file.map.MapFileUtil, 0, 0, 0, 0, 0, 0, 0, 0, 0, 0, 0, 0, 0, 0,0.0,0.0,0.0,0.0,0.0,0.0,0.0,0.0,0.0,0.0,0.0,0.0,0.0,23,core\src\main\java\org\apache\accumulo\core\file\map\MapFileUtil.java,0,0,0,0
org.apache.accumulo.core.file.rfile.BlockIndex, 0, 0, 0, 0, 0, 0, 0, 0, 0, 0, 0, 0, 0, 0,0.0,0.0,0.0,0.6666666666666666,0.0,0.0,0.0,0.3333333333333333,0.0,0.0,0.0,0.0,0.0,111,core\src\main\java\org\apache\accumulo\core\file\rfile\BlockIndex.java,0,0,0,0
org.apache.accumulo.core.file.rfile.BlockIndexTest, 0, 0, 0, 0, 0, 0, 0, 0, 0, 0, 0, 0, 0, 0,0.0,0.0,0.0,0.6666666666666666,0.0,0.0,0.0,0.3333333333333333,0.0,0.0,0.0,0.0,0.0,103,core\src\test\java\org\apache\accumulo\core\file\rfile\BlockIndexTest.java,0,0,0,0
org.apache.accumulo.core.file.rfile.CreateCompatTestFile, 0, 0, 0, 0, 0, 0, 0, 1, 0, 0, 0, 0, 0, 1,0.0,0.0,0.0,1.0,0.0,0.0,0.0,0.0,0.0,0.0,0.0,0.0,0.0,39,core\src\test\java\org\apache\accumulo\core\file\rfile\CreateCompatTestFile.java,0,0,0,0
org.apache.accumulo.core.file.rfile.CreateEmpty, 0, 0, 0, 0, 0, 0, 0, 0, 0, 0, 0, 0, 0, 0,0.0,0.0,0.3333333333333333,0.0,0.0,0.0,0.0,0.3333333333333333,0.0,0.0,0.0,0.0,0.0,37,core\src\main\java\org\apache\accumulo\core\file\rfile\CreateEmpty.java,0,3,2,7
org.apache.accumulo.core.file.rfile.MultiLevelIndexTest, 0, 0, 0, 0, 0, 0, 0, 0, 0, 0, 0, 0, 0, 0,0.0,0.0,0.0,0.0,0.0,0.0,0.0,0.0,0.0,0.0,0.0,0.0,0.0,64,core\src\test\java\org\apache\accumulo\core\file\rfile\MultiLevelIndexTest.java,0,0,0,0
org.apache.accumulo.core.file.rfile.RFileOperations, 0, 0, 0, 0, 0, 0, 0, 1, 0, 0, 0, 0, 0, 1,0.0,0.0,0.0,0.0,0.0,0.0,0.0,0.3333333333333333,0.0,0.0,0.0,0.3333333333333333,0.0,71,core\src\main\java\org\apache\accumulo\core\file\rfile\RFileOperations.java,0,0,0,0
org.apache.accumulo.core.file.rfile.RelativeKey, 0, 0, 0, 1, 0, 0, 0, 1, 0, 0, 0, 0, 0, 2,0.0,0.0,0.0,0.14285714285714285,0.0,0.0,0.0,0.0,0.0,0.0,0.0,0.0,0.0,400,core\src\main\java\org\apache\accumulo\core\file\rfile\RelativeKey.java,0,0,0,0
org.apache.accumulo.core.file.rfile.RelativeKeyTest, 0, 0, 0, 0, 0, 0, 0, 0, 0, 0, 0, 0, 0, 0,0.0,0.0,0.0,0.6,0.0,0.0,0.0,0.2,0.0,0.0,0.0,0.0,0.0,179,core\src\test\java\org\apache\accumulo\core\file\rfile\RelativeKeyTest.java,0,0,0,0
org.apache.accumulo.core.file.rfile.SplitLarge, 0, 0, 0, 0, 0, 0, 0, 0, 0, 0, 0, 0, 0, 0,0.0,0.0,0.3333333333333333,0.3333333333333333,0.0,0.0,0.0,0.0,0.0,0.0,0.0,0.0,0.0,45,core\src\main\java\org\apache\accumulo\core\file\rfile\SplitLarge.java,1,0,1,3
org.apache.accumulo.core.file.rfile.bcfile.BoundedByteArrayOutputStream, 0, 0, 0, 0, 0, 0, 0, 0, 0, 0, 0, 0, 0, 0,0.0,0.0,0.0,0.0,0.0,0.0,0.0,0.0,0.0,0.0,0.0,0.0,0.0,56,core\src\main\java\org\apache\accumulo\core\file\rfile\bcfile\BoundedByteArrayOutputStream.java,0,0,0,0
org.apache.accumulo.core.file.rfile.bcfile.BoundedRangeFileInputStream, 0, 0, 0, 0, 0, 0, 0, 0, 0, 0, 0, 0, 0, 0,0.0,0.0,0.0,0.0,0.0,0.0,0.0,0.0,0.0,0.0,0.0,0.0,0.0,93,core\src\main\java\org\apache\accumulo\core\file\rfile\bcfile\BoundedRangeFileInputStream.java,0,0,0,0
org.apache.accumulo.core.file.rfile.bcfile.ByteArray, 0, 0, 0, 0, 0, 0, 0, 0, 0, 0, 0, 0, 0, 0,0.0,0.0,0.0,0.0,0.0,0.0,0.0,0.0,0.0,0.0,0.0,0.0,0.0,31,core\src\main\java\org\apache\accumulo\core\file\rfile\bcfile\ByteArray.java,0,0,0,0
org.apache.accumulo.core.file.rfile.bcfile.Compression, 0, 0, 0, 0, 0, 0, 0, 0, 0, 0, 0, 0, 0, 0,0.0,0.0,0.0,0.0,0.0,0.0,0.0,0.0,0.0,0.0,0.0,0.0,0.0,278,core\src\main\java\org\apache\accumulo\core\file\rfile\bcfile\Compression.java,0,0,0,0
org.apache.accumulo.core.file.rfile.bcfile.MetaBlockAlreadyExists, 0, 0, 0, 0, 0, 0, 0, 0, 0, 0, 0, 0, 0, 0,0.0,0.0,0.0,0.0,0.0,0.0,0.0,0.0,0.0,0.0,0.0,0.0,0.0,5,core\src\main\java\org\apache\accumulo\core\file\rfile\bcfile\MetaBlockAlreadyExists.java,0,0,0,0
org.apache.accumulo.core.file.rfile.bcfile.MetaBlockDoesNotExist, 0, 0, 0, 0, 0, 0, 0, 0, 0, 0, 0, 0, 0, 0,0.0,0.0,0.0,0.0,0.0,0.0,0.0,0.0,0.0,0.0,0.0,0.0,0.0,5,core\src\main\java\org\apache\accumulo\core\file\rfile\bcfile\MetaBlockDoesNotExist.java,0,0,0,0
org.apache.accumulo.core.file.rfile.bcfile.SimpleBufferedOutputStream, 0, 0, 0, 0, 0, 0, 0, 0, 0, 0, 0, 0, 0, 0,0.0,0.0,0.0,0.0,0.0,0.0,0.0,0.0,0.0,0.0,0.0,0.0,0.0,42,core\src\main\java\org\apache\accumulo\core\file\rfile\bcfile\SimpleBufferedOutputStream.java,0,0,0,0
org.apache.accumulo.core.iterators.DefaultIteratorEnvironment, 0, 0, 0, 0, 0, 0, 0, 0, 0, 0, 0, 0, 0, 0,0.0,0.0,0.0,0.0,0.0,0.0,0.0,0.0,0.0,0.0,0.0,0.0,0.0,31,core\src\test\java\org\apache\accumulo\core\iterators\DefaultIteratorEnvironment.java,0,0,0,0
org.apache.accumulo.core.iterators.FamilyIntersectingIterator, 0, 0, 0, 0, 0, 0, 0, 0, 0, 0, 0, 0, 0, 0,0.0,0.0,0.0,0.0,0.0,0.0,0.0,0.0,0.0,0.0,0.0,0.0,0.0,2,core\src\main\java\org\apache\accumulo\core\iterators\FamilyIntersectingIterator.java,0,0,0,0
org.apache.accumulo.core.iterators.GrepIterator, 0, 0, 0, 0, 0, 0, 0, 0, 0, 0, 0, 0, 0, 0,0.0,0.0,0.0,0.0,0.0,0.0,0.0,0.0,0.0,0.0,0.0,0.0,0.0,2,core\src\main\java\org\apache\accumulo\core\iterators\GrepIterator.java,0,0,0,0
org.apache.accumulo.core.iterators.IntersectingIterator, 0, 0, 0, 0, 0, 0, 0, 0, 0, 0, 0, 0, 0, 0,0.0,0.0,0.0,0.0,0.0,0.0,0.0,0.0,0.0,0.0,0.0,0.0,0.0,2,core\src\main\java\org\apache\accumulo\core\iterators\IntersectingIterator.java,0,0,0,0
org.apache.accumulo.core.iterators.IterationInterruptedException, 0, 0, 0, 0, 0, 0, 0, 0, 0, 0, 0, 0, 0, 0,0.0,0.0,0.0,0.0,0.0,0.0,0.0,0.0,0.0,0.0,0.0,0.0,0.0,9,core\src\main\java\org\apache\accumulo\core\iterators\IterationInterruptedException.java,0,0,0,0
org.apache.accumulo.core.iterators.IteratorEnvironment, 0, 0, 0, 0, 0, 0, 0, 0, 0, 0, 0, 0, 0, 0,0.0,0.0,0.0,0.0,0.0,0.0,0.0,0.0,0.0,0.0,0.0,0.0,0.0,9,core\src\main\java\org\apache\accumulo\core\iterators\IteratorEnvironment.java,0,0,0,0
org.apache.accumulo.core.iterators.LargeRowFilter, 0, 0, 0, 0, 0, 0, 0, 0, 0, 0, 0, 0, 0, 0,0.0,0.0,0.0,0.0,0.0,0.0,0.0,0.0,0.0,0.0,0.0,0.0,0.0,2,core\src\main\java\org\apache\accumulo\core\iterators\LargeRowFilter.java,0,0,0,0
org.apache.accumulo.core.iterators.RowDeletingIterator, 0, 0, 0, 0, 0, 0, 0, 0, 0, 0, 0, 0, 0, 0,0.0,0.0,0.0,0.0,0.0,0.0,0.0,0.0,0.0,0.0,0.0,0.0,0.0,2,core\src\main\java\org\apache\accumulo\core\iterators\RowDeletingIterator.java,0,0,0,0
org.apache.accumulo.core.iterators.SkippingIterator, 0, 0, 0, 0, 0, 0, 0, 0, 0, 0, 0, 0, 0, 0,0.0,0.0,0.0,0.0,0.0,0.0,0.0,0.0,0.0,0.0,0.0,0.0,0.0,13,core\src\main\java\org\apache\accumulo\core\iterators\SkippingIterator.java,0,0,0,0
org.apache.accumulo.core.iterators.ValueFormatException, 0, 0, 0, 0, 0, 0, 0, 0, 0, 0, 0, 0, 0, 0,0.0,0.0,0.0,0.0,0.0,0.0,0.0,0.0,0.0,0.0,0.0,0.0,0.0,9,core\src\main\java\org\apache\accumulo\core\iterators\ValueFormatException.java,0,0,0,0
org.apache.accumulo.core.iterators.VersioningIterator, 0, 0, 0, 0, 0, 0, 0, 0, 0, 0, 0, 0, 0, 0,0.0,0.0,0.0,0.0,0.0,0.0,0.0,0.0,0.0,0.0,0.0,0.0,0.0,8,core\src\main\java\org\apache\accumulo\core\iterators\VersioningIterator.java,0,0,0,0
org.apache.accumulo.core.iterators.WholeRowIterator, 0, 0, 0, 0, 0, 0, 0, 0, 0, 0, 0, 0, 0, 0,0.0,0.0,0.0,0.0,0.0,0.0,0.0,0.0,0.0,0.0,0.0,0.0,0.0,2,core\src\main\java\org\apache\accumulo\core\iterators\WholeRowIterator.java,0,0,0,0
org.apache.accumulo.core.iterators.aggregation.Aggregator, 0, 0, 0, 0, 0, 0, 0, 0, 0, 0, 0, 0, 0, 0,0.0,0.0,0.0,0.0,0.0,0.0,0.0,0.0,0.0,0.0,0.0,0.0,0.0,2,core\src\main\java\org\apache\accumulo\core\iterators\aggregation\Aggregator.java,0,0,0,0
org.apache.accumulo.core.iterators.aggregation.LongSummation, 0, 0, 0, 0, 0, 0, 0, 0, 0, 0, 0, 0, 0, 0,0.0,0.0,0.0,1.0,0.0,0.0,0.0,0.0,0.0,0.0,0.0,0.0,0.0,38,core\src\main\java\org\apache\accumulo\core\iterators\aggregation\LongSummation.java,0,0,0,0
org.apache.accumulo.core.iterators.aggregation.NumArraySummation, 0, 0, 0, 0, 0, 0, 0, 0, 0, 0, 0, 0, 0, 0,0.0,0.0,0.0,0.3333333333333333,0.0,0.0,0.0,0.0,0.0,0.0,0.0,0.0,0.0,49,core\src\main\java\org\apache\accumulo\core\iterators\aggregation\NumArraySummation.java,0,0,0,0
org.apache.accumulo.core.iterators.aggregation.NumSummation, 0, 0, 0, 0, 0, 0, 0, 0, 0, 0, 0, 0, 0, 0,0.0,0.0,0.0,0.3333333333333333,0.0,0.0,0.0,0.0,0.0,0.0,0.0,0.0,0.0,46,core\src\main\java\org\apache\accumulo\core\iterators\aggregation\NumSummation.java,0,0,0,0
org.apache.accumulo.core.iterators.aggregation.NumSummationTest, 0, 0, 0, 0, 0, 0, 0, 0, 0, 0, 0, 0, 0, 0,0.0,0.0,0.0,0.3333333333333333,0.0,0.0,0.0,0.0,0.0,0.0,0.0,0.0,0.0,97,core\src\test\java\org\apache\accumulo\core\iterators\aggregation\NumSummationTest.java,0,0,0,0
org.apache.accumulo.core.iterators.aggregation.StringMax, 0, 0, 0, 0, 0, 0, 0, 0, 0, 0, 0, 0, 0, 0,0.0,0.0,0.0,1.0,0.0,0.0,0.0,0.0,0.0,0.0,0.0,0.0,0.0,15,core\src\main\java\org\apache\accumulo\core\iterators\aggregation\StringMax.java,0,0,0,0
org.apache.accumulo.core.iterators.aggregation.StringMin, 0, 0, 0, 0, 0, 0, 0, 0, 0, 0, 0, 0, 0, 0,0.0,0.0,0.0,1.0,0.0,0.0,0.0,0.0,0.0,0.0,0.0,0.0,0.0,15,core\src\main\java\org\apache\accumulo\core\iterators\aggregation\StringMin.java,0,0,0,0
org.apache.accumulo.core.iterators.aggregation.StringSummation, 0, 0, 0, 0, 0, 0, 0, 0, 0, 0, 0, 0, 0, 0,0.0,0.0,0.0,1.0,0.0,0.0,0.0,0.0,0.0,0.0,0.0,0.0,0.0,12,core\src\main\java\org\apache\accumulo\core\iterators\aggregation\StringSummation.java,0,0,0,0
org.apache.accumulo.core.iterators.aggregation.conf.AggregatorConfiguration, 0, 0, 0, 0, 0, 0, 0, 0, 0, 0, 0, 0, 0, 0,0.0,0.0,0.0,0.0,0.0,0.0,0.0,0.0,0.0,0.0,0.0,0.0,0.0,8,core\src\main\java\org\apache\accumulo\core\iterators\aggregation\conf\AggregatorConfiguration.java,0,0,0,0
org.apache.accumulo.core.iterators.aggregation.conf.AggregatorConfigurationTest, 0, 0, 0, 0, 0, 0, 0, 0, 0, 0, 0, 0, 0, 0,0.0,0.0,0.0,0.0,0.0,0.0,0.0,0.0,0.0,0.0,0.0,0.0,0.0,31,core\src\test\java\org\apache\accumulo\core\iterators\aggregation\conf\AggregatorConfigurationTest.java,0,0,0,0
org.apache.accumulo.core.iterators.conf.ColumnUtil, 0, 0, 0, 0, 0, 0, 0, 0, 0, 0, 0, 0, 0, 0,0.0,0.0,0.0,0.0,0.0,0.0,0.0,0.0,0.0,0.0,0.0,0.0,0.0,73,core\src\main\java\org\apache\accumulo\core\iterators\conf\ColumnUtil.java,0,0,0,0
org.apache.accumulo.core.iterators.conf.PerColumnIteratorConfig, 0, 0, 0, 0, 0, 0, 0, 0, 0, 0, 0, 0, 0, 0,0.0,0.0,0.0,0.0,0.0,0.0,0.0,0.0,0.0,0.0,0.0,0.0,0.0,43,core\src\main\java\org\apache\accumulo\core\iterators\conf\PerColumnIteratorConfig.java,0,0,0,0
org.apache.accumulo.core.iterators.system.ColumnFilterTest, 0, 0, 0, 0, 0, 0, 0, 0, 0, 0, 0, 0, 0, 0,0.0,0.0,0.5,1.0,0.0,0.0,0.0,0.0,0.0,0.0,0.0,0.0,0.0,35,core\src\test\java\org\apache\accumulo\core\iterators\system\ColumnFilterTest.java,0,0,0,0
org.apache.accumulo.core.iterators.system.InterruptibleIterator, 0, 0, 0, 0, 0, 0, 0, 0, 0, 0, 0, 0, 0, 0,0.0,0.0,0.0,0.0,0.0,0.0,0.0,0.0,0.0,0.0,0.0,0.0,0.0,35,core\src\main\java\org\apache\accumulo\core\iterators\system\InterruptibleIterator.java,0,0,0,0
org.apache.accumulo.core.iterators.system.StatsIterator, 0, 0, 0, 0, 0, 0, 0, 0, 0, 0, 0, 0, 0, 0,0.0,0.0,0.0,0.0,0.0,0.0,0.0,0.0,0.0,0.0,0.0,0.0,0.0,34,core\src\main\java\org\apache\accumulo\core\iterators\system\StatsIterator.java,0,0,0,0
org.apache.accumulo.core.iterators.system.VisibilityFilter, 0, 0, 0, 0, 0, 0, 0, 0, 0, 0, 0, 0, 0, 0,0.0,0.0,0.0,0.2,0.0,0.0,0.0,0.0,0.0,0.0,0.0,0.0,0.0,43,core\src\main\java\org\apache\accumulo\core\iterators\system\VisibilityFilter.java,0,0,0,0
org.apache.accumulo.core.iterators.user.MaxCombiner, 0, 0, 0, 0, 0, 0, 0, 0, 0, 0, 0, 0, 0, 0,0.0,0.0,0.0,0.0,0.0,0.0,0.0,0.0,0.0,0.0,0.0,0.0,0.0,19,core\src\main\java\org\apache\accumulo\core\iterators\user\MaxCombiner.java,0,0,0,0
org.apache.accumulo.core.iterators.user.MinCombiner, 0, 0, 0, 0, 0, 0, 0, 0, 0, 0, 0, 0, 0, 0,0.0,0.0,0.0,0.0,0.0,0.0,0.0,0.0,0.0,0.0,0.0,0.0,0.0,19,core\src\main\java\org\apache\accumulo\core\iterators\user\MinCombiner.java,0,0,0,0
org.apache.accumulo.core.iterators.user.ReqVisFilter, 0, 0, 0, 0, 0, 0, 0, 0, 0, 0, 0, 0, 0, 0,0.0,0.0,0.0,0.0,0.0,0.0,0.0,0.0,0.0,0.0,0.0,0.0,0.0,14,core\src\main\java\org\apache\accumulo\core\iterators\user\ReqVisFilter.java,0,0,0,0
org.apache.accumulo.core.iterators.user.SummingCombiner, 0, 0, 0, 0, 0, 0, 0, 0, 0, 0, 0, 0, 0, 0,0.0,0.0,0.0,0.0,0.0,0.0,0.0,0.0,0.0,0.0,0.0,0.0,0.0,18,core\src\main\java\org\apache\accumulo\core\iterators\user\SummingCombiner.java,0,0,0,0
org.apache.accumulo.core.master.MasterNotRunningException, 0, 0, 0, 0, 0, 0, 0, 0, 0, 0, 0, 0, 0, 0,0.0,0.0,0.0,0.0,0.0,0.0,0.0,0.0,0.0,0.0,0.0,0.0,0.0,10,core\src\main\java\org\apache\accumulo\core\master\MasterNotRunningException.java,0,0,0,0
org.apache.accumulo.core.metadata.MetadataServicerTest, 0, 0, 0, 0, 0, 0, 0, 0, 0, 0, 0, 0, 0, 0,0.0,0.0,0.0,0.5,0.0,0.0,0.0,0.5,0.0,0.0,0.0,0.0,0.0,44,core\src\test\java\org\apache\accumulo\core\metadata\MetadataServicerTest.java,0,0,0,0
org.apache.accumulo.core.metadata.MetadataTable, 0, 0, 0, 0, 0, 0, 0, 0, 0, 0, 0, 0, 0, 0,0.0,0.0,0.0,0.0,0.0,0.0,0.0,0.0,0.0,0.0,0.0,0.0,0.0,5,core\src\main\java\org\apache\accumulo\core\metadata\MetadataTable.java,0,0,0,0
org.apache.accumulo.core.metadata.RootTable, 0, 0, 0, 0, 0, 0, 0, 0, 0, 0, 0, 0, 0, 0,0.0,0.0,0.0,0.0,0.0,0.0,0.0,0.0,0.0,0.0,0.0,0.0,0.0,13,core\src\main\java\org\apache\accumulo\core\metadata\RootTable.java,0,0,0,0
org.apache.accumulo.core.metadata.ServicerForMetadataTable, 0, 0, 0, 0, 0, 0, 0, 0, 0, 0, 0, 0, 0, 0,0.0,0.0,0.0,0.0,0.0,0.0,0.0,0.0,0.0,0.0,0.0,0.0,0.0,5,core\src\main\java\org\apache\accumulo\core\metadata\ServicerForMetadataTable.java,0,0,0,0
org.apache.accumulo.core.metadata.ServicerForUserTables, 0, 0, 0, 0, 0, 0, 0, 0, 0, 0, 0, 0, 0, 0,0.0,0.0,0.0,0.0,0.0,0.0,0.0,0.0,0.0,0.0,0.0,0.0,0.0,5,core\src\main\java\org\apache\accumulo\core\metadata\ServicerForUserTables.java,0,0,0,0
org.apache.accumulo.core.metadata.schema.DataFileValue, 0, 0, 0, 0, 0, 0, 0, 0, 0, 0, 0, 0, 0, 0,0.0,0.0,0.0,0.0,0.0,0.0,0.0,0.0,0.0,0.0,0.0,0.0,0.0,62,core\src\main\java\org\apache\accumulo\core\metadata\schema\DataFileValue.java,0,0,0,0
org.apache.accumulo.core.metadata.schema.MetadataSchema, 0, 0, 0, 0, 0, 0, 0, 0, 0, 0, 0, 0, 0, 0,0.0,0.0,0.0,0.0,0.0,0.0,0.0,0.0,0.0,0.0,0.0,0.0,0.0,99,core\src\main\java\org\apache\accumulo\core\metadata\schema\MetadataSchema.java,0,0,0,0
org.apache.accumulo.core.security.AuthenticationTokenTest, 0, 0, 0, 0, 0, 0, 0, 0, 0, 0, 0, 0, 0, 0,0.0,0.0,0.0,0.0,0.0,0.0,0.0,0.0,0.0,0.0,0.0,0.0,0.0,18,core\src\test\java\org\apache\accumulo\core\security\AuthenticationTokenTest.java,0,0,0,0
org.apache.accumulo.core.security.AuthorizationContainer, 0, 0, 0, 0, 0, 0, 0, 0, 0, 0, 0, 0, 0, 0,0.0,0.0,0.0,0.0,0.0,0.0,0.0,0.0,0.0,0.0,0.0,0.0,0.0,18,core\src\main\java\org\apache\accumulo\core\security\AuthorizationContainer.java,0,0,0,0
org.apache.accumulo.core.security.AuthorizationsTest, 0, 0, 0, 0, 0, 0, 0, 0, 0, 0, 0, 0, 0, 0,0.0,0.0,0.0,0.0,0.0,0.0,0.0,0.0,0.0,0.0,0.0,0.0,0.0,55,core\src\test\java\org\apache\accumulo\core\security\AuthorizationsTest.java,0,0,0,0
org.apache.accumulo.core.security.Credentials, 0, 0, 0, 0, 0, 0, 0, 0, 0, 0, 0, 0, 0, 0,0.0,0.0,0.0,0.20833333333333334,0.0,0.0,0.0,0.125,0.0,0.0,0.0,0.0,0.0,59,core\src\main\java\org\apache\accumulo\core\security\Credentials.java,1,1,4,10
org.apache.accumulo.core.security.CredentialsTest, 0, 0, 0, 0, 0, 0, 0, 0, 0, 0, 0, 0, 0, 0,0.0,0.0,0.0,0.5,0.0,0.0,0.0,0.5,0.0,0.0,0.0,0.0,0.0,84,core\src\test\java\org\apache\accumulo\core\security\CredentialsTest.java,1,1,2,6
org.apache.accumulo.core.security.NamespacePermissionsTest, 0, 0, 0, 0, 0, 0, 0, 0, 0, 0, 0, 0, 0, 0,0.0,0.0,0.0,0.0,0.0,0.0,0.0,0.0,0.0,0.0,0.0,0.0,0.0,13,core\src\test\java\org\apache\accumulo\core\security\NamespacePermissionsTest.java,0,0,0,0
org.apache.accumulo.core.security.SecurityUtil, 1, 0, 1, 0, 0, 0, 0, 0, 0, 0, 0, 0, 0, 2,0.0,0.0,0.0,0.0,0.0,0.0,0.0,0.0,0.0,0.0,0.0,0.0,0.0,33,core\src\main\java\org\apache\accumulo\core\security\SecurityUtil.java,40,0,0,40
org.apache.accumulo.core.security.VisibilityConstraint, 0, 0, 0, 0, 0, 0, 0, 0, 0, 0, 0, 0, 0, 0,0.0,0.0,0.0,0.0,0.0,0.0,0.0,0.0,0.0,0.0,0.0,0.0,0.0,41,core\src\main\java\org\apache\accumulo\core\security\VisibilityConstraint.java,1,1,1,4
org.apache.accumulo.core.security.VisibilityConstraintTest, 0, 0, 0, 0, 0, 0, 0, 0, 0, 0, 0, 0, 0, 0,0.0,0.0,0.0,0.0,0.0,0.0,0.0,0.0,0.0,0.0,0.0,0.0,0.0,52,core\src\test\java\org\apache\accumulo\core\security\VisibilityConstraintTest.java,1,1,1,4
org.apache.accumulo.core.security.VisibilityEvaluator, 0, 0, 0, 0, 0, 0, 0, 0, 0, 0, 0, 0, 0, 0,0.0,0.0,0.0,0.0,0.0,0.0,0.0,0.0,0.0,0.0,0.0,0.0,0.0,65,core\src\main\java\org\apache\accumulo\core\security\VisibilityEvaluator.java,0,0,0,0
org.apache.accumulo.core.security.VisibilityEvaluatorTest, 0, 0, 0, 0, 0, 0, 0, 0, 0, 0, 0, 0, 0, 0,0.0,0.0,0.0,0.0,0.0,0.0,0.0,0.0,0.0,0.0,0.0,0.0,0.0,65,core\src\test\java\org\apache\accumulo\core\security\VisibilityEvaluatorTest.java,0,0,0,0
org.apache.accumulo.core.security.VisibilityParseException, 0, 0, 0, 0, 0, 0, 0, 0, 0, 0, 0, 0, 0, 0,0.0,0.0,0.0,0.0,0.0,0.0,0.0,0.0,0.0,0.0,0.0,0.0,0.0,12,core\src\main\java\org\apache\accumulo\core\security\VisibilityParseException.java,1,1,1,4
org.apache.accumulo.core.security.crypto.BlockedIOStreamTest, 0, 0, 0, 0, 0, 0, 0, 0, 0, 0, 0, 0, 0, 0,0.0,0.0,0.0,0.5,0.0,0.0,0.0,0.0,0.0,0.0,0.0,0.0,0.0,95,core\src\test\java\org\apache\accumulo\core\security\crypto\BlockedIOStreamTest.java,1,1,4,10
org.apache.accumulo.core.security.crypto.BlockedInputStream, 0, 0, 0, 1, 0, 0, 0, 0, 0, 0, 0, 0, 0, 1,0.0,0.0,0.0,0.0,0.0,0.0,0.0,0.0,0.0,0.0,0.0,0.0,0.0,118,core\src\main\java\org\apache\accumulo\core\security\crypto\BlockedInputStream.java,0,0,0,0
org.apache.accumulo.core.security.crypto.BlockedOutputStream, 0, 0, 0, 0, 0, 0, 0, 0, 0, 0, 0, 0, 0, 0,0.0,0.0,0.0,0.0,0.0,0.0,0.0,0.0,0.0,0.0,0.0,0.0,0.0,58,core\src\main\java\org\apache\accumulo\core\security\crypto\BlockedOutputStream.java,0,0,0,0
org.apache.accumulo.core.security.crypto.CachingHDFSSecretKeyEncryptionStrategy, 0, 0, 0, 0, 0, 0, 0, 0, 0, 0, 0, 0, 0, 0,0.0,0.0,0.0,0.0,0.0,0.0,0.0,0.0,0.0,0.0,0.0,0.0,0.0,133,core\src\main\java\org\apache\accumulo\core\security\crypto\CachingHDFSSecretKeyEncryptionStrategy.java,0,0,2,4
org.apache.accumulo.core.security.crypto.CryptoModule, 0, 0, 0, 0, 0, 0, 0, 0, 0, 0, 0, 0, 0, 0,0.0,0.0,0.0,0.0,0.0,0.0,0.0,0.0,0.0,0.0,0.0,0.0,0.0,133,core\src\main\java\org\apache\accumulo\core\security\crypto\CryptoModule.java,0,0,0,0
org.apache.accumulo.core.security.crypto.DiscardCloseOutputStream, 0, 0, 0, 0, 0, 0, 0, 0, 0, 0, 0, 0, 0, 0,0.0,0.0,0.0,0.0,0.0,0.0,0.0,0.0,0.0,0.0,0.0,0.0,0.0,9,core\src\main\java\org\apache\accumulo\core\security\crypto\DiscardCloseOutputStream.java,0,0,0,0
org.apache.accumulo.core.security.crypto.NoFlushOutputStream, 0, 0, 0, 0, 0, 0, 0, 0, 0, 0, 0, 0, 0, 0,0.0,0.0,0.0,0.0,0.0,0.0,0.0,0.0,0.0,0.0,0.0,0.0,0.0,7,core\src\main\java\org\apache\accumulo\core\security\crypto\NoFlushOutputStream.java,0,0,0,0
org.apache.accumulo.core.security.crypto.NonCachingSecretKeyEncryptionStrategy, 0, 0, 0, 0, 0, 0, 0, 1, 0, 0, 0, 0, 0, 1,0.0,0.0,0.0,0.0,0.0,0.0,0.0,0.0,0.0,0.0,0.0,0.0,0.0,124,core\src\main\java\org\apache\accumulo\core\security\crypto\NonCachingSecretKeyEncryptionStrategy.java,0,1,1,3
org.apache.accumulo.core.security.crypto.SecretKeyEncryptionStrategy, 0, 0, 0, 0, 0, 0, 0, 0, 0, 0, 0, 0, 0, 0,0.0,0.0,0.0,0.0,0.0,0.0,0.0,0.0,0.0,0.0,0.0,0.0,0.0,124,core\src\main\java\org\apache\accumulo\core\security\crypto\SecretKeyEncryptionStrategy.java,0,0,0,0
org.apache.accumulo.core.tabletserver.log.LogEntry, 0, 0, 1, 1, 0, 0, 0, 0, 0, 0, 0, 0, 0, 2,0.0,0.0,0.0,1.0,0.0,0.0,0.0,0.0,0.0,0.0,0.0,0.0,0.0,76,core\src\main\java\org\apache\accumulo\core\tabletserver\log\LogEntry.java,0,0,0,0
org.apache.accumulo.core.trace.DistributedTrace, 0, 0, 0, 0, 0, 0, 0, 0, 0, 0, 0, 0, 0, 0,0.0,0.0,0.0,0.3333333333333333,0.0,0.0,0.0,0.0,0.0,0.0,0.0,0.0,0.0,13,core\src\main\java\org\apache\accumulo\core\trace\DistributedTrace.java,1,1,0,2
org.apache.accumulo.core.trace.InstanceUserPassword, 0, 0, 1, 0, 0, 0, 0, 0, 0, 0, 0, 0, 0, 1,0.0,0.0,0.0,0.0,0.0,0.0,0.0,0.0,0.0,0.0,0.0,0.0,0.0,10,core\src\main\java\org\apache\accumulo\core\trace\InstanceUserPassword.java,0,0,2,4
org.apache.accumulo.core.trace.SpanTreeVisitor, 0, 0, 0, 0, 0, 0, 0, 0, 0, 0, 0, 0, 0, 0,0.0,0.0,0.0,0.0,0.0,0.0,0.0,0.0,0.0,0.0,0.0,0.0,0.0,10,core\src\main\java\org\apache\accumulo\core\trace\SpanTreeVisitor.java,0,0,0,0
org.apache.accumulo.core.util.AddressUtil, 0, 0, 0, 0, 0, 0, 0, 0, 0, 1, 0, 0, 0, 1,0.0,0.0,0.0,0.5,0.0,0.0,0.0,0.0,0.0,0.5,0.0,0.0,0.0,15,core\src\main\java\org\apache\accumulo\core\util\AddressUtil.java,0,0,0,0
org.apache.accumulo.core.util.ArgumentChecker, 0, 0, 0, 0, 0, 0, 0, 0, 0, 0, 0, 0, 0, 0,0.09090909090909091,0.0,0.0,0.2727272727272727,0.0,0.0,0.0,0.2727272727272727,0.0,0.0,0.0,0.0,0.0,59,core\src\main\java\org\apache\accumulo\core\util\ArgumentChecker.java,0,0,0,0
org.apache.accumulo.core.util.AsyncSocketAppender, 0, 0, 0, 1, 0, 0, 0, 0, 0, 0, 0, 0, 0, 1,0.0,0.0,0.0,0.0,0.0,0.0,0.0,0.0,0.0,0.0,0.0,0.0,0.0,55,core\src\main\java\org\apache\accumulo\core\util\AsyncSocketAppender.java,0,0,0,0
org.apache.accumulo.core.util.AsyncSocketAppenderTest, 0, 0, 0, 0, 0, 0, 0, 0, 0, 0, 0, 0, 0, 0,0.0,0.0,0.0,1.0,0.0,0.0,0.0,0.0,0.0,0.0,0.0,0.0,0.0,47,core\src\test\java\org\apache\accumulo\core\util\AsyncSocketAppenderTest.java,0,0,0,0
org.apache.accumulo.core.util.BadArgumentException, 0, 0, 0, 0, 0, 0, 0, 0, 0, 0, 0, 0, 0, 0,0.0,0.0,0.0,0.0,0.0,0.0,0.0,0.0,0.0,0.0,0.0,0.0,0.0,6,core\src\main\java\org\apache\accumulo\core\util\BadArgumentException.java,0,0,0,0
org.apache.accumulo.core.util.Base64, 0, 0, 0, 0, 0, 0, 0, 0, 0, 0, 0, 0, 0, 0,0.1,0.0,0.0,0.2,0.0,0.0,0.0,0.1,0.0,0.0,0.0,0.0,0.0,19,core\src\main\java\org\apache\accumulo\core\util\Base64.java,1,0,1,3
org.apache.accumulo.core.util.BinaryTree, 0, 0, 0, 0, 0, 0, 0, 0, 0, 0, 0, 0, 0, 0,0.0,0.0,0.0,0.0,0.0,0.0,0.0,0.0,0.0,0.0,0.0,0.0,0.0,48,core\src\main\java\org\apache\accumulo\core\util\BinaryTree.java,0,0,0,0
org.apache.accumulo.core.util.BulkImportHelper, 0, 0, 0, 0, 0, 0, 0, 0, 0, 0, 0, 0, 0, 0,0.0,0.0,0.0,0.0,0.0,0.0,0.0,0.0,0.0,0.0,0.0,0.0,0.0,8,core\src\main\java\org\apache\accumulo\core\util\BulkImportHelper.java,0,0,0,0
org.apache.accumulo.core.util.ByteArrayComparator, 0, 0, 0, 0, 0, 0, 0, 0, 0, 0, 0, 0, 0, 0,0.0,0.0,0.0,0.0,0.0,0.0,0.0,0.0,0.0,0.0,0.0,0.0,0.0,15,core\src\main\java\org\apache\accumulo\core\util\ByteArrayComparator.java,0,0,0,0
org.apache.accumulo.core.util.ByteBufferUtil, 0, 0, 0, 0, 0, 0, 0, 0, 0, 0, 0, 0, 0, 0,0.0,0.0,0.5,0.5,0.0,0.0,0.0,0.0,0.0,0.0,0.0,0.0,0.0,44,core\src\main\java\org\apache\accumulo\core\util\ByteBufferUtil.java,1,1,1,4
org.apache.accumulo.core.util.CachedConfiguration, 0, 0, 0, 0, 0, 0, 0, 0, 0, 0, 0, 0, 0, 0,0.05263157894736842,0.0,0.05263157894736842,0.05263157894736842,0.0,0.0,0.0,0.05263157894736842,0.0,0.0,0.0,0.0,0.0,13,core\src\main\java\org\apache\accumulo\core\util\CachedConfiguration.java,0,0,0,0
org.apache.accumulo.core.util.ColumnFQ, 0, 0, 0, 1, 0, 0, 0, 0, 0, 0, 0, 0, 0, 1,0.0,0.0,0.16666666666666666,0.3333333333333333,0.0,0.0,0.0,0.0,0.0,0.0,0.0,0.0,0.0,65,core\src\main\java\org\apache\accumulo\core\util\ColumnFQ.java,0,0,0,0
org.apache.accumulo.core.util.ComparablePair, 0, 0, 0, 0, 0, 0, 0, 0, 0, 0, 0, 0, 0, 0,0.0,0.0,0.0,0.0,0.0,0.0,0.0,0.0,0.0,0.0,0.0,0.0,0.0,13,core\src\main\java\org\apache\accumulo\core\util\ComparablePair.java,0,0,0,0
org.apache.accumulo.core.util.CreateToken, 0, 0, 0, 0, 0, 0, 0, 0, 0, 0, 0, 0, 0, 0,0.0,0.0,0.5,0.0,0.0,0.0,0.0,0.0,0.0,0.0,0.0,0.0,0.0,67,core\src\main\java\org\apache\accumulo\core\util\CreateToken.java,2,1,1,5
org.apache.accumulo.core.util.Daemon, 0, 0, 0, 0, 0, 0, 0, 0, 0, 0, 0, 0, 0, 0,0.0,0.0,0.0,0.0,0.0,0.0,0.0,1.0,0.0,0.0,0.0,0.0,0.0,33,core\src\main\java\org\apache\accumulo\core\util\Daemon.java,0,0,0,0
org.apache.accumulo.core.util.Duration, 0, 0, 0, 0, 0, 0, 0, 0, 0, 0, 0, 0, 0, 0,0.0,0.0,0.0,0.0,0.0,0.0,0.0,0.0,0.0,0.0,0.0,0.0,0.0,36,core\src\main\java\org\apache\accumulo\core\util\Duration.java,0,0,0,0
org.apache.accumulo.core.util.Encoding, 0, 0, 0, 0, 0, 0, 0, 0, 0, 0, 0, 0, 0, 0,0.0,0.0,0.0,0.3333333333333333,0.0,0.0,0.0,0.0,0.0,0.0,0.0,0.0,0.0,15,core\src\main\java\org\apache\accumulo\core\util\Encoding.java,0,0,3,6
org.apache.accumulo.core.util.FastFormat, 0, 0, 0, 0, 0, 0, 0, 1, 0, 0, 0, 0, 0, 1,0.0,0.0,0.0,0.0,0.0,0.0,0.0,0.5,0.0,0.0,0.0,0.0,0.0,24,core\src\main\java\org\apache\accumulo\core\util\FastFormat.java,0,0,2,4
org.apache.accumulo.core.util.LoggingRunnable, 0, 0, 0, 0, 0, 0, 0, 0, 0, 0, 0, 0, 0, 0,0.0,0.0,0.0,0.0,0.0,0.0,0.0,0.5,0.0,0.0,0.0,0.0,0.0,22,core\src\main\java\org\apache\accumulo\core\util\LoggingRunnable.java,0,0,0,0
org.apache.accumulo.core.util.MonitorUtil, 0, 0, 0, 0, 0, 0, 0, 0, 0, 0, 0, 0, 0, 0,0.0,0.0,0.25,0.0,0.0,0.0,0.0,0.0,0.0,0.0,0.0,0.0,0.0,7,core\src\main\java\org\apache\accumulo\core\util\MonitorUtil.java,0,1,2,5
org.apache.accumulo.core.util.MutableByteSequence, 0, 0, 0, 0, 0, 0, 0, 0, 0, 0, 0, 0, 0, 0,0.0,0.0,0.0,0.5,0.0,0.0,0.0,0.25,0.0,0.0,0.0,0.0,0.0,19,core\src\main\java\org\apache\accumulo\core\util\MutableByteSequence.java,0,0,0,0
org.apache.accumulo.core.util.NamingThreadFactory, 0, 0, 0, 0, 0, 0, 0, 0, 0, 0, 0, 0, 0, 0,0.0,0.0,0.0,0.0,0.0,0.0,0.0,0.0,0.0,0.0,0.0,0.0,0.0,11,core\src\main\java\org\apache\accumulo\core\util\NamingThreadFactory.java,0,0,0,0
org.apache.accumulo.core.util.NumUtil, 0, 0, 0, 0, 0, 0, 0, 0, 0, 0, 0, 0, 0, 0,0.0,0.0,0.0,0.5,0.0,0.0,0.0,0.5,0.0,0.0,0.0,0.0,0.0,27,core\src\main\java\org\apache\accumulo\core\util\NumUtil.java,0,2,2,6
org.apache.accumulo.core.util.NumUtilTest, 0, 0, 0, 0, 0, 0, 0, 0, 0, 0, 0, 0, 0, 0,0.0,0.0,0.0,0.0,0.0,0.0,0.0,0.0,0.0,0.0,0.0,0.0,0.0,26,core\src\test\java\org\apache\accumulo\core\util\NumUtilTest.java,0,0,0,0
org.apache.accumulo.core.util.SimpleThreadPool, 0, 0, 0, 0, 0, 0, 0, 0, 0, 0, 0, 0, 0, 0,0.3333333333333333,0.0,0.0,0.0,0.0,0.0,0.0,0.3333333333333333,0.0,0.0,0.0,0.0,0.0,6,core\src\main\java\org\apache\accumulo\core\util\SimpleThreadPool.java,0,0,0,0
org.apache.accumulo.core.util.SslConnectionParams, 0, 0, 0, 1, 0, 0, 0, 0, 0, 0, 0, 0, 0, 1,0.3333333333333333,0.0,0.0,0.0,0.0,0.0,0.0,0.3333333333333333,0.0,0.0,0.0,0.0,0.0,165,core\src\main\java\org\apache\accumulo\core\util\SslConnectionParams.java,8,42,5,60
org.apache.accumulo.core.util.Stat, 0, 0, 0, 0, 0, 0, 0, 0, 0, 0, 0, 0, 0, 0,1.0,0.0,0.0,0.0,0.0,0.0,0.0,0.0,0.0,0.0,0.0,0.0,0.0,44,core\src\main\java\org\apache\accumulo\core\util\Stat.java,0,0,0,0
org.apache.accumulo.core.util.StatTest, 1, 0, 0, 0, 0, 0, 0, 0, 0, 0, 0, 0, 0, 1,0.0,0.0,0.0,0.0,0.0,0.0,0.0,0.0,0.0,0.0,0.0,0.0,0.0,54,core\src\test\java\org\apache\accumulo\core\util\StatTest.java,0,0,0,0
org.apache.accumulo.core.util.TBufferedSocket, 0, 0, 0, 0, 0, 0, 0, 0, 0, 0, 0, 0, 0, 0,0.0,0.0,0.0,0.0,0.0,0.0,0.0,0.0,0.0,0.0,0.0,0.0,0.0,10,core\src\main\java\org\apache\accumulo\core\util\TBufferedSocket.java,0,0,0,0
org.apache.accumulo.core.util.TTimeoutTransport, 0, 0, 0, 0, 0, 0, 0, 0, 0, 0, 0, 0, 0, 0,0.0,0.0,0.0,0.0,0.0,0.0,0.0,0.0,0.0,0.0,0.0,0.0,0.0,22,core\src\main\java\org\apache\accumulo\core\util\TTimeoutTransport.java,0,0,0,0
org.apache.accumulo.core.util.TestStringUtil, 0, 0, 0, 0, 0, 0, 0, 0, 0, 0, 0, 0, 0, 0,0.0,0.0,0.0,0.0,0.0,0.0,0.0,0.0,0.0,0.0,0.0,0.0,0.0,16,core\src\test\java\org\apache\accumulo\core\util\TestStringUtil.java,0,0,0,0
org.apache.accumulo.core.util.TestVersion, 0, 0, 0, 0, 0, 0, 0, 0, 0, 0, 0, 0, 0, 0,0.0,0.0,0.0,0.0,0.0,0.0,0.0,0.0,0.0,0.0,0.0,0.0,0.0,37,core\src\test\java\org\apache\accumulo\core\util\TestVersion.java,0,0,0,0
org.apache.accumulo.core.util.TextUtil, 0, 0, 0, 0, 0, 0, 0, 0, 0, 0, 0, 0, 0, 0,0.0,0.0,0.0,0.14285714285714285,0.0,0.0,0.0,0.0,0.0,0.0,0.0,0.0,0.0,29,core\src\main\java\org\apache\accumulo\core\util\TextUtil.java,0,1,1,3
org.apache.accumulo.core.util.TextUtilTest, 0, 0, 0, 0, 0, 0, 0, 0, 0, 0, 0, 0, 0, 0,0.0,0.0,0.0,0.0,0.0,0.0,0.0,0.0,0.0,0.0,0.0,0.0,0.0,14,core\src\test\java\org\apache\accumulo\core\util\TextUtilTest.java,0,0,0,0
org.apache.accumulo.core.util.UnsynchronizedBuffer, 0, 0, 0, 0, 0, 0, 0, 0, 0, 0, 0, 0, 0, 0,0.0,0.0,0.0,0.5,0.0,0.0,0.0,0.5,0.0,0.0,0.0,0.0,0.0,132,core\src\main\java\org\apache\accumulo\core\util\UnsynchronizedBuffer.java,0,0,0,0
org.apache.accumulo.core.util.UtilWaitThread, 0, 0, 0, 0, 0, 0, 0, 0, 0, 0, 0, 0, 0, 0,0.09090909090909091,0.0,0.0,0.0,0.0,0.0,0.0,0.18181818181818182,0.0,0.0,0.0,0.0,0.0,10,core\src\main\java\org\apache\accumulo\core\util\UtilWaitThread.java,0,0,0,0
org.apache.accumulo.core.util.interpret.DefaultScanInterpreter, 0, 0, 0, 0, 0, 0, 0, 0, 0, 0, 0, 0, 0, 0,0.0,0.0,0.0,0.0,0.0,0.0,0.0,0.0,0.0,0.0,0.0,0.0,0.0,22,core\src\main\java\org\apache\accumulo\core\util\interpret\DefaultScanInterpreter.java,0,0,0,0
org.apache.accumulo.core.util.interpret.HexScanInterpreter, 0, 0, 0, 0, 0, 0, 0, 0, 0, 0, 0, 0, 0, 0,0.0,0.0,0.0,0.0,0.0,0.0,0.0,0.0,0.0,0.0,0.0,0.0,0.0,2,core\src\main\java\org\apache\accumulo\core\util\interpret\HexScanInterpreter.java,0,0,0,0
org.apache.accumulo.core.util.interpret.ScanInterpreter, 0, 0, 0, 0, 0, 0, 0, 0, 0, 0, 0, 0, 0, 0,0.0,0.0,0.0,0.0,0.0,0.0,0.0,0.0,0.0,0.0,0.0,0.0,0.0,2,core\src\main\java\org\apache\accumulo\core\util\interpret\ScanInterpreter.java,0,0,0,0
org.apache.accumulo.core.util.shell.ShellCommandException, 0, 0, 0, 0, 0, 0, 0, 0, 0, 0, 0, 0, 0, 0,0.0,0.0,0.0,0.0,0.0,0.0,0.0,0.0,0.0,0.0,0.0,0.0,0.0,32,core\src\main\java\org\apache\accumulo\core\util\shell\ShellCommandException.java,0,0,0,0
org.apache.accumulo.core.util.shell.ShellConfigTest, 0, 0, 0, 0, 0, 0, 0, 0, 0, 0, 0, 0, 0, 0,0.0,0.0,0.0,0.0,0.0,0.0,0.0,0.0,0.0,0.0,0.0,0.0,0.0,44,core\src\test\java\org\apache\accumulo\core\util\shell\ShellConfigTest.java,0,0,7,14
org.apache.accumulo.core.util.shell.ShellExtension, 0, 0, 0, 0, 0, 0, 0, 0, 0, 0, 0, 0, 0, 0,0.0,0.0,0.0,0.0,0.0,0.0,0.0,0.0,0.0,0.0,0.0,0.0,0.0,4,core\src\main\java\org\apache\accumulo\core\util\shell\ShellExtension.java,0,0,0,0
org.apache.accumulo.core.util.shell.ShellOptions, 0, 0, 0, 0, 0, 0, 0, 0, 0, 0, 0, 0, 0, 0,0.0,0.0,0.0,0.0,0.0,0.0,0.0,0.0,0.0,0.0,0.0,0.0,0.0,8,core\src\main\java\org\apache\accumulo\core\util\shell\ShellOptions.java,0,0,0,0
org.apache.accumulo.core.util.shell.Token, 0, 0, 0, 1, 0, 0, 0, 0, 0, 0, 0, 0, 0, 1,0.0,0.0,0.0,0.0,0.0,0.0,0.0,0.0,0.0,0.0,0.0,0.0,0.0,91,core\src\main\java\org\apache\accumulo\core\util\shell\Token.java,0,0,0,0
org.apache.accumulo.core.util.shell.commands.AboutCommand, 0, 0, 0, 0, 0, 0, 0, 0, 0, 0, 0, 0, 0, 0,0.0,0.0,0.0,0.0,0.0,0.0,0.0,0.0,0.0,0.0,0.0,0.0,0.0,26,core\src\main\java\org\apache\accumulo\core\util\shell\commands\AboutCommand.java,0,0,0,0
org.apache.accumulo.core.util.shell.commands.ByeCommand, 0, 0, 0, 0, 0, 0, 0, 0, 0, 0, 0, 0, 0, 0,0.0,0.0,0.0,0.0,0.0,0.0,0.0,0.0,0.0,0.0,0.0,0.0,0.0,1,core\src\main\java\org\apache\accumulo\core\util\shell\commands\ByeCommand.java,0,0,0,0
org.apache.accumulo.core.util.shell.commands.ClasspathCommand, 0, 0, 0, 0, 0, 0, 0, 0, 0, 0, 0, 0, 0, 0,0.0,0.0,0.0,0.0,0.0,0.0,0.0,0.0,0.0,0.0,0.0,0.0,0.0,25,core\src\main\java\org\apache\accumulo\core\util\shell\commands\ClasspathCommand.java,0,0,0,0
org.apache.accumulo.core.util.shell.commands.ClearCommand, 0, 0, 0, 0, 0, 0, 0, 0, 0, 0, 0, 0, 0, 0,0.0,0.0,0.0,0.0,0.0,0.0,0.0,0.0,0.0,0.0,0.0,0.0,0.0,21,core\src\main\java\org\apache\accumulo\core\util\shell\commands\ClearCommand.java,0,0,0,0
org.apache.accumulo.core.util.shell.commands.ClsCommand, 0, 0, 0, 0, 0, 0, 0, 0, 0, 0, 0, 0, 0, 0,0.0,0.0,0.0,0.0,0.0,0.0,0.0,0.0,0.0,0.0,0.0,0.0,0.0,1,core\src\main\java\org\apache\accumulo\core\util\shell\commands\ClsCommand.java,0,0,0,0
org.apache.accumulo.core.util.shell.commands.CompactCommand, 0, 0, 0, 1, 0, 0, 0, 0, 0, 0, 0, 0, 0, 1,0.0,0.0,0.0,0.3333333333333333,0.0,0.0,0.0,0.3333333333333333,0.0,0.0,0.0,0.0,0.0,76,core\src\main\java\org\apache\accumulo\core\util\shell\commands\CompactCommand.java,0,0,0,0
org.apache.accumulo.core.util.shell.commands.CreateUserCommand, 0, 0, 0, 0, 0, 0, 0, 0, 0, 0, 0, 0, 0, 0,0.0,0.0,0.0,1.0,0.0,0.0,0.0,1.0,0.0,0.0,0.0,0.0,0.0,40,core\src\main\java\org\apache\accumulo\core\util\shell\commands\CreateUserCommand.java,0,0,0,0
org.apache.accumulo.core.util.shell.commands.DeleteCommand, 0, 0, 0, 0, 0, 0, 0, 0, 0, 0, 0, 0, 0, 0,0.0,0.0,0.0,1.0,0.0,0.0,0.0,1.0,0.0,0.0,0.0,0.0,0.0,62,core\src\main\java\org\apache\accumulo\core\util\shell\commands\DeleteCommand.java,0,0,0,0
org.apache.accumulo.core.util.shell.commands.DeleteIterCommand, 0, 0, 0, 0, 0, 0, 0, 0, 0, 0, 0, 0, 0, 0,0.0,0.0,0.0,0.5,0.0,0.0,0.0,0.5,0.0,0.0,0.0,0.0,0.0,72,core\src\main\java\org\apache\accumulo\core\util\shell\commands\DeleteIterCommand.java,0,0,0,0
org.apache.accumulo.core.util.shell.commands.DeleteManyCommand, 0, 0, 0, 0, 0, 0, 0, 0, 0, 0, 0, 0, 0, 0,0.0,0.0,0.0,0.5,0.0,0.0,0.0,0.5,0.0,0.0,0.0,0.0,0.0,30,core\src\main\java\org\apache\accumulo\core\util\shell\commands\DeleteManyCommand.java,0,0,0,0
org.apache.accumulo.core.util.shell.commands.DeleteRowsCommand, 0, 0, 0, 0, 0, 0, 0, 0, 0, 0, 0, 0, 0, 0,0.0,0.0,0.0,0.5,0.0,0.0,0.0,0.5,0.0,0.0,0.0,0.0,0.0,36,core\src\main\java\org\apache\accumulo\core\util\shell\commands\DeleteRowsCommand.java,0,0,0,0
org.apache.accumulo.core.util.shell.commands.DeleteScanIterCommand, 0, 0, 0, 0, 0, 0, 0, 0, 0, 0, 0, 0, 0, 0,0.0,0.0,0.0,0.0,0.0,0.0,0.0,0.0,0.0,0.0,0.0,0.0,0.0,62,core\src\main\java\org\apache\accumulo\core\util\shell\commands\DeleteScanIterCommand.java,0,0,0,0
org.apache.accumulo.core.util.shell.commands.DeleteShellIterCommand, 0, 0, 0, 0, 0, 0, 0, 0, 0, 0, 0, 0, 0, 0,0.0,0.0,0.0,0.0,0.0,0.0,0.0,0.0,0.0,0.0,0.0,0.0,0.0,58,core\src\main\java\org\apache\accumulo\core\util\shell\commands\DeleteShellIterCommand.java,0,0,0,0
org.apache.accumulo.core.util.shell.commands.DeleteTableCommand, 0, 0, 0, 0, 0, 0, 0, 0, 0, 0, 0, 0, 0, 0,0.0,0.0,0.0,0.5,0.0,0.0,0.0,0.5,0.0,0.0,0.0,0.0,0.0,31,core\src\main\java\org\apache\accumulo\core\util\shell\commands\DeleteTableCommand.java,0,20,0,20
org.apache.accumulo.core.util.shell.commands.DeleteUserCommand, 0, 0, 0, 0, 0, 0, 0, 0, 0, 0, 0, 0, 0, 0,0.0,0.0,0.0,0.0,0.0,0.0,0.0,0.0,0.0,0.0,0.0,0.0,0.0,1,core\src\main\java\org\apache\accumulo\core\util\shell\commands\DeleteUserCommand.java,0,0,0,0
org.apache.accumulo.core.util.shell.commands.DropTableCommand, 0, 0, 0, 0, 0, 0, 0, 0, 0, 0, 0, 0, 0, 0,0.0,0.0,0.0,0.0,0.0,0.0,0.0,0.0,0.0,0.0,0.0,0.0,0.0,1,core\src\main\java\org\apache\accumulo\core\util\shell\commands\DropTableCommand.java,0,0,0,0
org.apache.accumulo.core.util.shell.commands.EGrepCommand, 0, 0, 0, 0, 0, 0, 0, 1, 0, 0, 0, 0, 0, 1,0.0,0.0,0.0,0.0,0.0,0.0,0.0,1.0,0.0,0.0,0.0,0.0,0.0,27,core\src\main\java\org\apache\accumulo\core\util\shell\commands\EGrepCommand.java,0,1,1,3
org.apache.accumulo.core.util.shell.commands.ExitCommand, 0, 0, 0, 0, 0, 0, 0, 0, 0, 0, 0, 0, 0, 0,0.0,0.0,0.0,0.0,0.0,0.0,0.0,0.0,0.0,0.0,0.0,0.0,0.0,15,core\src\main\java\org\apache\accumulo\core\util\shell\commands\ExitCommand.java,0,0,0,0
org.apache.accumulo.core.util.shell.commands.FlushCommand, 0, 0, 0, 0, 0, 0, 0, 0, 0, 0, 0, 0, 0, 0,0.0,0.0,0.0,0.5,0.0,0.0,0.0,0.5,0.0,0.0,0.0,0.0,0.0,30,core\src\main\java\org\apache\accumulo\core\util\shell\commands\FlushCommand.java,0,0,0,0
org.apache.accumulo.core.util.shell.commands.FormatterCommand, 0, 0, 0, 0, 0, 0, 0, 0, 0, 0, 0, 0, 0, 0,0.0,0.0,0.0,1.0,0.0,0.0,0.0,1.0,0.0,0.0,0.0,0.0,0.0,32,core\src\main\java\org\apache\accumulo\core\util\shell\commands\FormatterCommand.java,0,1,1,3
org.apache.accumulo.core.util.shell.commands.GrepCommand, 0, 0, 0, 0, 0, 0, 0, 1, 0, 0, 0, 0, 0, 1,0.0,0.0,0.0,0.3333333333333333,0.0,0.0,0.0,0.6666666666666666,0.0,0.0,0.0,0.0,0.0,58,core\src\main\java\org\apache\accumulo\core\util\shell\commands\GrepCommand.java,0,0,0,0
org.apache.accumulo.core.util.shell.commands.HiddenCommand, 0, 0, 0, 0, 0, 0, 0, 0, 0, 0, 0, 0, 0, 0,0.0,0.0,0.0,0.0,0.0,0.0,0.0,0.0,0.0,0.0,0.0,0.0,0.0,29,core\src\main\java\org\apache\accumulo\core\util\shell\commands\HiddenCommand.java,1,1,1,4
org.apache.accumulo.core.util.shell.commands.HistoryCommand, 0, 0, 0, 0, 0, 0, 0, 0, 0, 0, 0, 0, 0, 0,0.0,0.0,0.0,0.0,0.0,0.0,0.0,0.0,0.0,0.0,0.0,0.0,0.0,37,core\src\main\java\org\apache\accumulo\core\util\shell\commands\HistoryCommand.java,0,0,0,0
org.apache.accumulo.core.util.shell.commands.ImportDirectoryCommand, 0, 0, 0, 0, 0, 0, 0, 0, 0, 0, 0, 0, 0, 0,0.0,0.0,0.0,1.0,0.0,0.0,0.0,1.0,0.0,0.0,0.0,0.0,0.0,24,core\src\main\java\org\apache\accumulo\core\util\shell\commands\ImportDirectoryCommand.java,0,0,0,0
org.apache.accumulo.core.util.shell.commands.ImportTableCommand, 0, 0, 0, 0, 0, 0, 0, 0, 0, 0, 0, 0, 0, 0,0.0,0.0,0.0,1.0,0.0,0.0,0.0,1.0,0.0,0.0,0.0,0.0,0.0,20,core\src\main\java\org\apache\accumulo\core\util\shell\commands\ImportTableCommand.java,0,0,2,4
org.apache.accumulo.core.util.shell.commands.InfoCommand, 0, 0, 0, 0, 0, 0, 0, 0, 0, 0, 0, 0, 0, 0,0.0,0.0,0.0,0.0,0.0,0.0,0.0,0.0,0.0,0.0,0.0,0.0,0.0,1,core\src\main\java\org\apache\accumulo\core\util\shell\commands\InfoCommand.java,0,0,0,0
org.apache.accumulo.core.util.shell.commands.InterpreterCommand, 0, 0, 0, 0, 0, 0, 0, 0, 0, 0, 0, 0, 0, 0,0.0,0.0,0.0,0.0,0.0,0.0,0.0,0.0,0.0,0.0,0.0,0.0,0.0,12,core\src\main\java\org\apache\accumulo\core\util\shell\commands\InterpreterCommand.java,0,0,0,0
org.apache.accumulo.core.util.shell.commands.ListCompactionsCommand, 0, 0, 0, 0, 0, 0, 0, 0, 0, 0, 0, 0, 0, 0,0.0,0.0,0.0,1.0,0.0,0.0,0.0,1.0,0.0,0.0,0.0,0.0,0.0,35,core\src\main\java\org\apache\accumulo\core\util\shell\commands\ListCompactionsCommand.java,0,0,0,0
org.apache.accumulo.core.util.shell.commands.ListScansCommand, 0, 0, 0, 0, 0, 0, 0, 0, 0, 0, 0, 0, 0, 0,0.0,0.0,0.0,1.0,0.0,0.0,0.0,1.0,0.0,0.0,0.0,0.0,0.0,35,core\src\main\java\org\apache\accumulo\core\util\shell\commands\ListScansCommand.java,0,0,0,0
org.apache.accumulo.core.util.shell.commands.MaxRowCommand, 0, 0, 0, 0, 0, 0, 0, 0, 0, 0, 0, 0, 0, 0,0.0,0.0,0.0,0.5,0.0,0.0,0.0,0.5,0.0,0.0,0.0,0.0,0.0,24,core\src\main\java\org\apache\accumulo\core\util\shell\commands\MaxRowCommand.java,0,0,0,0
org.apache.accumulo.core.util.shell.commands.MergeCommand, 0, 0, 0, 0, 0, 0, 0, 0, 0, 0, 0, 0, 0, 0,0.0,0.0,0.0,0.5,0.0,0.0,0.0,0.5,0.0,0.0,0.0,0.0,0.0,77,core\src\main\java\org\apache\accumulo\core\util\shell\commands\MergeCommand.java,0,0,0,0
org.apache.accumulo.core.util.shell.commands.NamespacePermissionsCommand, 0, 0, 0, 0, 0, 0, 0, 0, 0, 0, 0, 0, 0, 0,0.0,0.0,0.0,0.0,0.0,0.0,0.0,0.0,0.0,0.0,0.0,0.0,0.0,17,core\src\main\java\org\apache\accumulo\core\util\shell\commands\NamespacePermissionsCommand.java,0,0,0,0
org.apache.accumulo.core.util.shell.commands.NoTableCommand, 0, 0, 0, 0, 0, 0, 0, 0, 0, 0, 0, 0, 0, 0,0.0,0.0,0.0,0.0,0.0,0.0,0.0,0.0,0.0,0.0,0.0,0.0,0.0,15,core\src\main\java\org\apache\accumulo\core\util\shell\commands\NoTableCommand.java,0,0,0,0
org.apache.accumulo.core.util.shell.commands.OfflineCommand, 0, 0, 0, 0, 0, 0, 0, 0, 0, 0, 0, 0, 0, 0,0.0,0.0,0.0,1.0,0.0,0.0,0.0,1.0,0.0,0.0,0.0,0.0,0.0,28,core\src\main\java\org\apache\accumulo\core\util\shell\commands\OfflineCommand.java,0,0,0,0
org.apache.accumulo.core.util.shell.commands.OnlineCommand, 0, 0, 0, 0, 0, 0, 0, 0, 0, 0, 0, 0, 0, 0,0.0,0.0,0.0,1.0,0.0,0.0,0.0,1.0,0.0,0.0,0.0,0.0,0.0,29,core\src\main\java\org\apache\accumulo\core\util\shell\commands\OnlineCommand.java,0,0,0,0
org.apache.accumulo.core.util.shell.commands.OptUtil, 0, 0, 0, 0, 0, 0, 0, 0, 0, 0, 0, 0, 0, 0,0.0,0.0,0.0,0.16666666666666666,0.0,0.0,0.0,0.16666666666666666,0.0,0.0,0.0,0.0,0.0,99,core\src\main\java\org\apache\accumulo\core\util\shell\commands\OptUtil.java,0,0,0,0
org.apache.accumulo.core.util.shell.commands.PasswdCommand, 0, 0, 0, 0, 0, 0, 0, 0, 0, 0, 0, 0, 0, 0,0.0,0.0,0.0,1.0,0.0,0.0,0.0,1.0,0.0,0.0,0.0,0.0,0.0,54,core\src\main\java\org\apache\accumulo\core\util\shell\commands\PasswdCommand.java,1,1,1,4
org.apache.accumulo.core.util.shell.commands.PingCommand, 0, 0, 0, 0, 0, 0, 0, 0, 0, 0, 0, 0, 0, 0,0.0,0.0,0.0,1.0,0.0,0.0,0.0,1.0,0.0,0.0,0.0,0.0,0.0,35,core\src\main\java\org\apache\accumulo\core\util\shell\commands\PingCommand.java,0,0,0,0
org.apache.accumulo.core.util.shell.commands.QuestionCommand, 0, 0, 0, 0, 0, 0, 0, 0, 0, 0, 0, 0, 0, 0,0.0,0.0,0.0,0.0,0.0,0.0,0.0,0.0,0.0,0.0,0.0,0.0,0.0,6,core\src\main\java\org\apache\accumulo\core\util\shell\commands\QuestionCommand.java,0,0,0,0
org.apache.accumulo.core.util.shell.commands.QuitCommand, 0, 0, 0, 0, 0, 0, 0, 0, 0, 0, 0, 0, 0, 0,0.0,0.0,0.0,0.0,0.0,0.0,0.0,0.0,0.0,0.0,0.0,0.0,0.0,1,core\src\main\java\org\apache\accumulo\core\util\shell\commands\QuitCommand.java,0,0,0,0
org.apache.accumulo.core.util.shell.commands.SleepCommand, 0, 0, 0, 0, 0, 0, 0, 0, 0, 0, 0, 0, 0, 0,0.0,0.0,0.0,0.0,0.0,0.0,0.0,0.0,0.0,0.0,0.0,0.0,0.0,20,core\src\main\java\org\apache\accumulo\core\util\shell\commands\SleepCommand.java,0,0,0,0
org.apache.accumulo.core.util.shell.commands.SystemPermissionsCommand, 0, 0, 0, 0, 0, 0, 0, 0, 0, 0, 0, 0, 0, 0,0.0,0.0,0.0,0.0,0.0,0.0,0.0,0.0,0.0,0.0,0.0,0.0,0.0,17,core\src\main\java\org\apache\accumulo\core\util\shell\commands\SystemPermissionsCommand.java,0,0,0,0
org.apache.accumulo.core.util.shell.commands.TablePermissionsCommand, 0, 0, 0, 0, 0, 0, 0, 0, 0, 0, 0, 0, 0, 0,0.0,0.0,0.0,0.0,0.0,0.0,0.0,0.0,0.0,0.0,0.0,0.0,0.0,17,core\src\main\java\org\apache\accumulo\core\util\shell\commands\TablePermissionsCommand.java,0,0,0,0
org.apache.accumulo.core.util.shell.commands.UserPermissionsCommand, 0, 0, 0, 0, 0, 0, 0, 0, 0, 0, 0, 0, 0, 0,0.0,0.0,0.0,1.0,0.0,0.0,0.0,1.0,0.0,0.0,0.0,0.0,0.0,65,core\src\main\java\org\apache\accumulo\core\util\shell\commands\UserPermissionsCommand.java,0,0,0,0
org.apache.accumulo.core.util.shell.commands.UsersCommand, 0, 0, 0, 0, 0, 0, 0, 0, 0, 0, 0, 0, 0, 0,0.0,0.0,0.0,1.0,0.0,0.0,0.0,1.0,0.0,0.0,0.0,0.0,0.0,17,core\src\main\java\org\apache\accumulo\core\util\shell\commands\UsersCommand.java,0,0,0,0
org.apache.accumulo.core.util.shell.commands.WhoAmICommand, 0, 0, 0, 0, 0, 0, 0, 0, 0, 0, 0, 0, 0, 0,0.0,0.0,0.0,1.0,0.0,0.0,0.0,1.0,0.0,0.0,0.0,0.0,0.0,15,core\src\main\java\org\apache\accumulo\core\util\shell\commands\WhoAmICommand.java,0,0,0,0
org.apache.accumulo.core.volume.NonConfiguredVolume, 0, 0, 0, 0, 0, 0, 0, 0, 0, 0, 0, 0, 0, 0,0.0,0.0,0.0,0.0,0.0,0.0,0.0,0.0,0.0,0.0,0.0,0.0,0.0,42,core\src\main\java\org\apache\accumulo\core\volume\NonConfiguredVolume.java,0,0,0,0
org.apache.accumulo.core.volume.NonConfiguredVolumeTest, 0, 0, 0, 0, 0, 0, 0, 0, 0, 0, 0, 0, 0, 0,0.0,0.0,0.0,0.0,0.0,0.0,0.0,0.0,0.0,0.0,0.0,0.0,0.0,33,core\src\test\java\org\apache\accumulo\core\volume\NonConfiguredVolumeTest.java,0,0,0,0
org.apache.accumulo.core.volume.Volume, 0, 0, 0, 0, 0, 0, 0, 0, 0, 0, 0, 0, 0, 0,0.0,0.0,0.0,0.0,0.0,0.0,0.0,0.0,0.0,0.0,0.0,0.0,0.0,33,core\src\main\java\org\apache\accumulo\core\volume\Volume.java,0,0,0,0
org.apache.accumulo.core.volume.VolumeImpl, 0, 0, 0, 0, 0, 0, 0, 0, 0, 0, 0, 0, 0, 0,0.0,0.0,0.0,0.0,0.0,0.0,0.0,0.0,0.0,0.0,0.0,0.0,0.0,57,core\src\main\java\org\apache\accumulo\core\volume\VolumeImpl.java,2,11,1,15
org.apache.accumulo.core.zookeeper.ZooUtil, 0, 0, 0, 0, 0, 0, 0, 0, 0, 0, 0, 0, 0, 0,0.045454545454545456,0.0,0.0,0.13636363636363635,0.0,0.0,0.0,0.045454545454545456,0.0,0.0,0.0,0.0,0.0,38,core\src\main\java\org\apache\accumulo\core\zookeeper\ZooUtil.java,0,4,1,6
org.apache.accumulo.examples.simple.client.Flush, 0, 0, 0, 0, 0, 0, 0, 0, 0, 0, 0, 0, 0, 0,0.0,0.0,0.0,1.0,0.0,0.0,0.0,1.0,0.0,0.0,0.0,0.0,0.0,12,examples\simple\src\main\java\org\apache\accumulo\examples\simple\client\Flush.java,0,0,0,0
org.apache.accumulo.examples.simple.client.SequentialBatchWriter, 0, 0, 0, 0, 0, 0, 0, 0, 0, 0, 0, 0, 0, 0,0.0,0.0,0.5,0.5,0.0,0.0,0.0,0.5,0.0,0.0,0.0,0.0,0.0,25,examples\simple\src\main\java\org\apache\accumulo\examples\simple\client\SequentialBatchWriter.java,0,0,0,0
org.apache.accumulo.examples.simple.client.TraceDumpExample, 0, 0, 0, 0, 0, 0, 0, 0, 0, 0, 0, 0, 0, 0,0.0,0.0,0.5,0.5,0.0,0.0,0.0,0.5,0.0,0.0,0.0,0.0,0.0,29,examples\simple\src\main\java\org\apache\accumulo\examples\simple\client\TraceDumpExample.java,0,0,0,0
org.apache.accumulo.examples.simple.constraints.AlphaNumKeyConstraint, 0, 0, 0, 0, 0, 0, 0, 0, 0, 0, 0, 0, 0, 0,0.0,0.0,0.0,0.0,0.0,0.0,0.0,0.0,0.0,0.0,0.0,0.0,0.0,48,examples\simple\src\main\java\org\apache\accumulo\examples\simple\constraints\AlphaNumKeyConstraint.java,0,0,0,0
org.apache.accumulo.examples.simple.constraints.MaxMutationSize, 0, 0, 0, 0, 0, 0, 0, 0, 0, 0, 0, 0, 0, 0,0.0,0.0,0.0,0.0,0.0,0.0,0.0,0.0,0.0,0.0,0.0,0.0,0.0,15,examples\simple\src\main\java\org\apache\accumulo\examples\simple\constraints\MaxMutationSize.java,0,0,0,0
org.apache.accumulo.examples.simple.constraints.NumericValueConstraint, 0, 0, 0, 0, 0, 0, 0, 0, 0, 0, 0, 0, 0, 0,0.0,0.0,0.0,0.0,0.0,0.0,0.0,0.0,0.0,0.0,0.0,0.0,0.0,38,examples\simple\src\main\java\org\apache\accumulo\examples\simple\constraints\NumericValueConstraint.java,0,0,0,0
org.apache.accumulo.examples.simple.dirlist.Ingest, 0, 0, 0, 0, 0, 0, 0, 1, 0, 0, 0, 0, 0, 1,0.0,0.0,0.3333333333333333,0.6666666666666666,0.0,0.0,0.0,0.3333333333333333,0.0,0.0,0.0,0.0,0.0,111,examples\simple\src\main\java\org\apache\accumulo\examples\simple\dirlist\Ingest.java,0,0,0,0
org.apache.accumulo.examples.simple.filedata.CharacterHistogram, 0, 0, 0, 0, 0, 0, 0, 0, 0, 0, 0, 0, 0, 0,0.0,0.0,0.5,0.0,0.0,0.0,0.0,0.0,0.0,0.0,0.0,0.0,0.0,50,examples\simple\src\main\java\org\apache\accumulo\examples\simple\filedata\CharacterHistogram.java,0,0,0,0
org.apache.accumulo.examples.simple.filedata.ChunkInputFormat, 0, 0, 0, 0, 0, 0, 0, 0, 0, 0, 0, 0, 0, 0,0.0,0.0,0.0,1.0,0.0,0.0,0.0,0.0,0.0,0.0,0.0,0.0,0.0,37,examples\simple\src\main\java\org\apache\accumulo\examples\simple\filedata\ChunkInputFormat.java,0,0,0,0
org.apache.accumulo.examples.simple.filedata.ChunkInputFormatTest, 0, 0, 0, 0, 0, 0, 0, 0, 0, 0, 0, 0, 0, 0,0.0,0.0,0.0,1.0,0.0,0.0,0.0,1.0,0.0,0.0,0.0,0.0,0.0,216,examples\simple\src\test\java\org\apache\accumulo\examples\simple\filedata\ChunkInputFormatTest.java,0,0,0,0
org.apache.accumulo.examples.simple.filedata.KeyUtilTest, 0, 0, 0, 0, 0, 0, 0, 0, 0, 0, 0, 0, 0, 0,0.0,0.0,0.0,0.0,0.0,0.0,0.0,0.0,0.0,0.0,0.0,0.0,0.0,20,examples\simple\src\test\java\org\apache\accumulo\examples\simple\filedata\KeyUtilTest.java,1,0,0,1
org.apache.accumulo.examples.simple.helloworld.InsertWithBatchWriter, 0, 0, 0, 0, 0, 0, 0, 0, 0, 0, 0, 0, 0, 0,0.0,0.0,0.5,0.5,0.0,0.0,0.0,0.5,0.0,0.0,0.0,0.0,0.0,25,examples\simple\src\main\java\org\apache\accumulo\examples\simple\helloworld\InsertWithBatchWriter.java,0,0,0,0
org.apache.accumulo.examples.simple.mapreduce.JobUtil, 0, 0, 0, 0, 0, 0, 0, 0, 0, 0, 0, 0, 0, 0,0.0,0.0,0.0,0.0,0.0,0.0,0.0,0.0,0.0,0.0,0.0,0.0,0.0,7,examples\simple\src\main\java\org\apache\accumulo\examples\simple\mapreduce\JobUtil.java,0,0,0,0
org.apache.accumulo.examples.simple.mapreduce.RegexExample, 0, 0, 0, 0, 0, 0, 0, 0, 0, 0, 0, 0, 0, 0,0.0,0.0,0.3333333333333333,0.3333333333333333,0.0,0.0,0.0,0.0,0.0,0.0,0.0,0.0,0.0,50,examples\simple\src\main\java\org\apache\accumulo\examples\simple\mapreduce\RegexExample.java,0,0,0,0
org.apache.accumulo.examples.simple.mapreduce.RowHash, 0, 0, 0, 0, 0, 0, 0, 0, 0, 0, 0, 0, 0, 0,0.0,0.0,0.3333333333333333,0.3333333333333333,0.0,0.0,0.0,0.0,0.0,0.0,0.0,0.0,0.0,43,examples\simple\src\main\java\org\apache\accumulo\examples\simple\mapreduce\RowHash.java,0,0,0,0
org.apache.accumulo.examples.simple.mapreduce.TeraSortIngest, 0, 0, 0, 0, 0, 0, 0, 0, 0, 0, 0, 0, 0, 0,0.0,0.0,0.5,0.0,0.0,0.0,0.0,0.0,0.0,0.0,0.0,0.0,0.0,243,examples\simple\src\main\java\org\apache\accumulo\examples\simple\mapreduce\TeraSortIngest.java,0,1,2,5
org.apache.accumulo.examples.simple.mapreduce.TokenFileWordCount, 0, 0, 0, 0, 0, 0, 0, 0, 0, 0, 0, 0, 0, 0,0.0,0.0,0.0,0.0,0.0,0.0,0.0,0.0,0.0,0.0,0.0,0.0,0.0,46,examples\simple\src\main\java\org\apache\accumulo\examples\simple\mapreduce\TokenFileWordCount.java,0,0,0,0
org.apache.accumulo.examples.simple.mapreduce.WordCount, 0, 0, 0, 0, 0, 0, 0, 0, 0, 0, 0, 0, 0, 0,0.0,0.0,0.5,0.0,0.0,0.0,0.0,0.0,0.0,0.0,0.0,0.0,0.0,42,examples\simple\src\main\java\org\apache\accumulo\examples\simple\mapreduce\WordCount.java,0,0,0,0
org.apache.accumulo.examples.simple.mapreduce.bulk.BulkIngestExample, 0, 0, 0, 0, 0, 0, 0, 0, 0, 0, 0, 0, 0, 0,0.0,0.0,0.2,0.2,0.0,0.0,0.0,0.2,0.0,0.0,0.0,0.0,0.0,86,examples\simple\src\main\java\org\apache\accumulo\examples\simple\mapreduce\bulk\BulkIngestExample.java,0,0,0,0
org.apache.accumulo.examples.simple.mapreduce.bulk.GenerateTestData, 0, 0, 0, 0, 0, 0, 0, 0, 0, 0, 0, 0, 0, 0,0.0,0.0,1.0,0.0,0.0,0.0,0.0,0.0,0.0,0.0,0.0,0.0,0.0,20,examples\simple\src\main\java\org\apache\accumulo\examples\simple\mapreduce\bulk\GenerateTestData.java,0,0,0,0
org.apache.accumulo.examples.simple.shell.MyAppShellExtension, 0, 0, 0, 0, 0, 0, 0, 0, 0, 0, 0, 0, 0, 0,0.0,0.0,0.0,0.0,0.0,0.0,0.0,0.0,0.0,0.0,0.0,0.0,0.0,9,examples\simple\src\main\java\org\apache\accumulo\examples\simple\shell\MyAppShellExtension.java,0,0,0,0
org.apache.accumulo.fate.AgeOffStoreTest, 0, 0, 0, 0, 0, 0, 0, 0, 0, 0, 0, 0, 0, 0,0.0,0.0,0.0,0.0,0.0,0.0,0.0,0.0,0.0,0.0,0.0,0.0,0.0,89,fate\src\test\java\org\apache\accumulo\fate\AgeOffStoreTest.java,0,0,0,0
org.apache.accumulo.fate.Fate, 0, 0, 0, 1, 0, 0, 0, 0, 0, 0, 0, 0, 0, 1,0.0,0.0,0.0,0.0,0.0,0.0,0.0,0.0,0.0,0.0,0.0,0.0,0.0,165,fate\src\main\java\org\apache\accumulo\fate\Fate.java,0,0,0,0
org.apache.accumulo.fate.ReadOnlyRepo, 0, 0, 0, 0, 0, 0, 0, 0, 0, 0, 0, 0, 0, 0,0.0,0.0,0.0,0.0,0.0,0.0,0.0,0.0,0.0,0.0,0.0,0.0,0.0,165,fate\src\main\java\org\apache\accumulo\fate\ReadOnlyRepo.java,0,0,0,0
org.apache.accumulo.fate.ReadOnlyStore, 0, 0, 0, 0, 0, 0, 0, 0, 0, 0, 0, 0, 0, 0,0.0,0.0,0.0,0.0,0.0,0.0,0.0,0.0,0.0,0.0,0.0,0.0,0.0,54,fate\src\main\java\org\apache\accumulo\fate\ReadOnlyStore.java,0,0,0,0
org.apache.accumulo.fate.ReadOnlyStoreTest, 0, 0, 0, 0, 0, 0, 0, 0, 0, 0, 0, 0, 0, 0,0.0,0.0,0.0,0.0,0.0,0.0,0.0,0.0,0.0,0.0,0.0,0.0,0.0,35,fate\src\test\java\org\apache\accumulo\fate\ReadOnlyStoreTest.java,0,0,0,0
org.apache.accumulo.fate.ReadOnlyTStore, 0, 0, 0, 0, 0, 0, 0, 0, 0, 0, 0, 0, 0, 0,0.0,0.0,0.0,0.0,0.0,0.0,0.0,0.0,0.0,0.0,0.0,0.0,0.0,35,fate\src\main\java\org\apache\accumulo\fate\ReadOnlyTStore.java,0,0,0,0
org.apache.accumulo.fate.Repo, 0, 0, 0, 0, 0, 0, 0, 0, 0, 0, 0, 0, 0, 0,0.0,0.0,0.0,0.0,0.0,0.0,0.0,0.0,0.0,0.0,0.0,0.0,0.0,35,fate\src\main\java\org\apache\accumulo\fate\Repo.java,0,0,0,0
org.apache.accumulo.fate.StackOverflowException, 0, 0, 0, 0, 0, 0, 0, 0, 0, 0, 0, 0, 0, 0,0.0,0.0,0.0,1.0,0.0,0.0,0.0,0.0,0.0,0.0,0.0,0.0,0.0,6,fate\src\main\java\org\apache\accumulo\fate\StackOverflowException.java,0,0,0,0
org.apache.accumulo.fate.TStore, 0, 0, 0, 0, 0, 0, 0, 0, 0, 0, 0, 0, 0, 0,0.0,0.0,0.0,0.0,0.0,0.0,0.0,0.0,0.0,0.0,0.0,0.0,0.0,6,fate\src\main\java\org\apache\accumulo\fate\TStore.java,0,0,0,0
org.apache.accumulo.fate.util.AddressUtil, 0, 0, 0, 0, 0, 0, 0, 0, 0, 1, 0, 0, 0, 1,0.0,0.0,0.0,0.0,0.0,0.0,0.0,0.0,0.0,0.5,0.0,0.0,0.0,23,fate\src\main\java\org\apache\accumulo\fate\util\AddressUtil.java,0,0,0,0
org.apache.accumulo.fate.util.AddressUtilTest, 0, 0, 0, 0, 0, 0, 0, 0, 0, 0, 0, 0, 0, 0,0.0,0.0,0.0,0.0,0.0,0.0,0.0,0.0,0.0,1.0,0.0,0.0,0.0,62,fate\src\test\java\org\apache\accumulo\fate\util\AddressUtilTest.java,0,0,0,0
org.apache.accumulo.fate.util.Daemon, 0, 0, 0, 0, 0, 0, 0, 0, 0, 0, 0, 0, 0, 0,0.0,0.0,0.0,0.0,0.0,0.0,0.0,0.0,0.0,0.0,0.0,0.0,0.0,33,fate\src\main\java\org\apache\accumulo\fate\util\Daemon.java,0,0,0,0
org.apache.accumulo.fate.util.LoggingRunnable, 0, 0, 0, 0, 0, 0, 0, 0, 0, 0, 0, 0, 0, 0,0.0,0.0,0.0,1.0,0.0,0.0,0.0,0.0,0.0,0.0,0.0,0.0,0.0,22,fate\src\main\java\org\apache\accumulo\fate\util\LoggingRunnable.java,0,0,0,0
org.apache.accumulo.fate.util.UtilWaitThread, 0, 0, 0, 0, 0, 0, 0, 0, 0, 0, 0, 0, 0, 0,0.0,0.0,0.0,0.0,0.0,0.0,0.0,0.0,0.0,0.0,0.0,0.0,0.0,10,fate\src\main\java\org\apache\accumulo\fate\util\UtilWaitThread.java,0,0,0,0
org.apache.accumulo.fate.zookeeper.IZooReader, 0, 0, 0, 0, 0, 0, 0, 0, 0, 0, 0, 0, 0, 0,0.0,0.0,0.0,0.0,0.0,0.0,0.0,0.0,0.0,0.0,0.0,0.0,0.0,10,fate\src\main\java\org\apache\accumulo\fate\zookeeper\IZooReader.java,0,1,0,1
org.apache.accumulo.fate.zookeeper.IZooReaderWriter, 0, 0, 0, 0, 0, 0, 0, 0, 0, 0, 0, 0, 0, 0,0.0,0.0,0.0,0.0,0.0,0.0,0.0,0.0,0.0,0.0,0.0,0.0,0.0,10,fate\src\main\java\org\apache\accumulo\fate\zookeeper\IZooReaderWriter.java,1,1,0,2
org.apache.accumulo.fate.zookeeper.RetryingInvocationHandler, 0, 0, 0, 0, 0, 0, 0, 0, 0, 0, 0, 0, 0, 0,0.0,0.0,0.0,0.25,0.0,0.0,0.0,0.0,0.0,0.0,0.0,0.0,0.0,26,fate\src\main\java\org\apache\accumulo\fate\zookeeper\RetryingInvocationHandler.java,33,0,0,33
org.apache.accumulo.fate.zookeeper.RetryingInvocationHandlerTest, 0, 0, 0, 0, 0, 0, 0, 0, 0, 0, 0, 0, 0, 0,0.0,0.0,0.0,0.0,0.0,0.0,0.0,0.0,0.0,0.0,0.0,0.0,0.0,49,fate\src\test\java\org\apache\accumulo\fate\zookeeper\RetryingInvocationHandlerTest.java,62,0,0,62
org.apache.accumulo.fate.zookeeper.ZooCacheFactoryTest, 0, 0, 0, 0, 0, 0, 0, 0, 0, 0, 0, 0, 0, 0,0.0,0.0,0.0,0.0,0.0,0.0,0.0,0.0,0.0,0.0,0.0,0.0,0.0,53,fate\src\test\java\org\apache\accumulo\fate\zookeeper\ZooCacheFactoryTest.java,4,4,0,8
org.apache.accumulo.fate.zookeeper.ZooCacheTest, 0, 0, 0, 1, 0, 0, 0, 0, 0, 0, 0, 0, 0, 1,0.0,0.0,0.0,0.0,0.0,0.0,0.0,0.0,0.0,0.0,0.0,0.0,0.0,242,fate\src\test\java\org\apache\accumulo\fate\zookeeper\ZooCacheTest.java,15,15,0,30
org.apache.accumulo.fate.zookeeper.ZooReader, 0, 0, 0, 0, 0, 0, 0, 0, 0, 0, 0, 0, 0, 0,0.0,0.0,0.0,0.42857142857142855,0.0,0.0,0.0,0.0,0.0,0.0,0.0,0.0,0.0,65,fate\src\main\java\org\apache\accumulo\fate\zookeeper\ZooReader.java,0,111,1,113
org.apache.accumulo.fate.zookeeper.ZooReaderWriter, 0, 0, 0, 1, 0, 0, 0, 0, 0, 0, 0, 0, 0, 1,0.09090909090909091,0.0,0.0,0.09090909090909091,0.0,0.0,0.0,0.0,0.0,0.0,0.0,0.0,0.0,111,fate\src\main\java\org\apache\accumulo\fate\zookeeper\ZooReaderWriter.java,16,50,15,96
org.apache.accumulo.fate.zookeeper.ZooSessionTest, 0, 0, 0, 0, 0, 0, 0, 0, 0, 0, 0, 0, 0, 0,0.0,0.0,0.0,0.0,0.0,0.0,0.0,0.0,0.0,0.0,0.0,0.0,0.0,8,fate\src\test\java\org\apache\accumulo\fate\zookeeper\ZooSessionTest.java,0,0,0,0
org.apache.accumulo.gc.SimpleGarbageCollectorOptsTest, 0, 0, 0, 0, 0, 0, 0, 0, 0, 0, 0, 0, 0, 0,0.0,0.0,0.0,0.0,0.0,0.0,0.0,0.0,0.0,0.0,0.0,0.0,0.0,12,server\gc\src\test\java\org\apache\accumulo\gc\SimpleGarbageCollectorOptsTest.java,1,1,0,2
org.apache.accumulo.gc.SimpleGarbageCollectorTest, 0, 0, 0, 1, 0, 0, 0, 0, 0, 0, 0, 0, 0, 1,0.0,0.0,0.0,0.0,0.0,0.0,0.0,0.0,0.0,0.0,0.0,0.0,0.0,104,server\gc\src\test\java\org\apache\accumulo\gc\SimpleGarbageCollectorTest.java,11,13,3,30
org.apache.accumulo.master.DefaultMapTest, 0, 0, 0, 0, 0, 0, 0, 0, 0, 0, 0, 0, 0, 0,0.0,0.0,0.0,0.0,0.0,0.0,0.0,0.0,0.0,0.0,0.0,0.0,0.0,11,server\master\src\test\java\org\apache\accumulo\master\DefaultMapTest.java,1,2,0,3
org.apache.accumulo.master.EventCoordinator, 0, 0, 0, 0, 0, 0, 0, 0, 0, 0, 0, 0, 0, 0,0.0,0.0,0.0,0.0,0.0,0.0,0.0,0.0,0.0,0.0,0.0,0.0,0.0,33,server\master\src\main\java\org\apache\accumulo\master\EventCoordinator.java,0,0,0,0
org.apache.accumulo.master.TServerLockWatcher, 0, 0, 0, 0, 0, 0, 0, 0, 0, 0, 0, 0, 0, 0,0.0,0.0,0.0,0.0,0.0,0.0,0.0,0.0,0.0,0.0,0.0,0.0,0.0,16,server\master\src\main\java\org\apache\accumulo\master\TServerLockWatcher.java,0,0,0,0
org.apache.accumulo.master.TestMergeState, 0, 0, 0, 0, 0, 0, 0, 0, 0, 0, 0, 0, 0, 0,0.0,0.0,0.14285714285714285,0.42857142857142855,0.0,0.0,0.0,0.2857142857142857,0.0,0.0,0.0,0.0,0.0,94,server\master\src\test\java\org\apache\accumulo\master\TestMergeState.java,0,0,0,0
org.apache.accumulo.master.state.MergeInfoTest, 0, 0, 0, 0, 0, 0, 0, 0, 0, 0, 0, 0, 0, 0,0.0,0.0,0.0,0.0,0.0,0.0,0.0,0.0,0.0,0.0,0.0,0.0,0.0,44,server\master\src\test\java\org\apache\accumulo\master\state\MergeInfoTest.java,0,0,0,0
org.apache.accumulo.master.state.RootTabletStateStoreTest, 0, 0, 0, 0, 0, 0, 0, 0, 0, 0, 0, 0, 0, 0,0.0,0.0,0.3333333333333333,0.0,0.0,0.0,0.0,0.3333333333333333,0.0,0.0,0.0,0.0,0.0,154,server\master\src\test\java\org\apache\accumulo\master\state\RootTabletStateStoreTest.java,1,1,0,2
org.apache.accumulo.master.state.SetGoalState, 0, 0, 0, 0, 0, 0, 0, 0, 0, 0, 0, 0, 0, 0,0.2,0.0,0.2,0.2,0.0,0.0,0.0,0.0,0.0,0.0,0.0,0.0,0.0,13,server\master\src\main\java\org\apache\accumulo\master\state\SetGoalState.java,1,2,1,5
org.apache.accumulo.master.state.TableCounts, 0, 0, 0, 0, 0, 0, 0, 0, 0, 0, 0, 0, 0, 0,0.0,0.0,0.0,0.0,0.0,0.0,0.0,0.0,0.0,0.0,0.0,0.0,0.0,15,server\master\src\main\java\org\apache\accumulo\master\state\TableCounts.java,0,0,0,0
org.apache.accumulo.master.state.TraceRepoDeserializationTest, 0, 0, 0, 0, 0, 0, 0, 0, 0, 0, 0, 0, 0, 0,0.0,0.0,0.0,0.0,0.0,0.0,0.0,0.0,0.0,0.0,0.0,0.0,0.0,25,server\master\src\test\java\org\apache\accumulo\master\state\TraceRepoDeserializationTest.java,7,0,8,23
org.apache.accumulo.master.tableOps.CancelCompactions, 0, 0, 0, 0, 0, 0, 0, 0, 0, 0, 0, 0, 0, 0,0.0,0.0,0.0,0.25,0.0,0.0,0.0,0.25,0.0,0.0,0.0,0.0,0.0,41,server\master\src\main\java\org\apache\accumulo\master\tableOps\CancelCompactions.java,0,1,5,11
org.apache.accumulo.master.tableOps.ChangeTableState, 0, 0, 0, 0, 0, 0, 0, 0, 0, 0, 0, 0, 0, 0,0.0,0.0,0.0,0.3333333333333333,0.0,0.0,0.0,0.3333333333333333,0.0,0.0,0.0,0.0,0.0,35,server\master\src\main\java\org\apache\accumulo\master\tableOps\ChangeTableState.java,0,0,0,0
org.apache.accumulo.master.tableOps.DeleteNamespace, 0, 0, 0, 0, 0, 0, 0, 0, 0, 0, 0, 0, 0, 0,0.0,0.0,0.0,0.25,0.0,0.0,0.0,0.25,0.0,0.0,0.0,0.0,0.0,19,server\master\src\main\java\org\apache\accumulo\master\tableOps\DeleteNamespace.java,0,0,0,0
org.apache.accumulo.master.tableOps.FinishCancelCompaction, 0, 0, 0, 0, 0, 0, 0, 0, 0, 0, 0, 0, 0, 0,0.0,0.0,0.0,0.3333333333333333,0.0,0.0,0.0,0.3333333333333333,0.0,0.0,0.0,0.0,0.0,15,server\master\src\main\java\org\apache\accumulo\master\tableOps\DeleteNamespace.java,0,0,0,0
org.apache.accumulo.master.tableOps.MasterRepo, 0, 0, 0, 0, 0, 0, 0, 0, 0, 0, 0, 0, 0, 0,0.0,0.0,0.0,0.0,0.0,0.0,0.0,0.0,0.0,0.0,0.0,0.0,0.0,20,server\master\src\main\java\org\apache\accumulo\master\tableOps\MasterRepo.java,0,0,0,0
org.apache.accumulo.master.tableOps.NamespaceCleanUp, 0, 0, 0, 0, 0, 0, 0, 0, 0, 0, 0, 0, 0, 0,0.0,0.0,0.0,0.3333333333333333,0.0,0.0,0.0,0.3333333333333333,0.0,0.0,0.0,0.0,0.0,32,server\master\src\main\java\org\apache\accumulo\master\tableOps\MasterRepo.java,0,0,0,0
org.apache.accumulo.master.tableOps.RenameNamespace, 0, 0, 0, 0, 0, 0, 0, 0, 0, 0, 0, 0, 0, 0,0.0,0.0,0.0,0.25,0.0,0.0,0.0,0.25,0.0,0.0,0.0,0.0,0.0,48,server\master\src\main\java\org\apache\accumulo\master\tableOps\RenameNamespace.java,0,0,1,2
org.apache.accumulo.master.tableOps.TableRangeOp, 0, 0, 0, 0, 0, 0, 0, 0, 0, 0, 0, 0, 0, 0,0.0,0.0,0.0,0.2,0.0,0.0,0.0,0.2,0.0,0.0,0.0,0.0,0.0,50,server\master\src\main\java\org\apache\accumulo\master\tableOps\TableRangeOp.java,1,0,1,3
org.apache.accumulo.master.tableOps.TableRangeOpWait, 0, 0, 0, 0, 0, 0, 0, 0, 0, 0, 0, 0, 0, 0,0.0,0.0,0.0,0.25,0.0,0.0,0.0,0.25,0.0,0.0,0.0,0.0,0.0,28,server\master\src\main\java\org\apache\accumulo\master\tableOps\TableRangeOp.java,1,0,1,3
org.apache.accumulo.master.tableOps.TraceRepo, 0, 0, 0, 0, 0, 0, 0, 0, 0, 0, 0, 0, 0, 0,0.0,0.0,0.0,0.5,0.0,0.0,0.0,0.0,0.0,0.0,0.0,0.0,0.0,47,server\master\src\main\java\org\apache\accumulo\master\tableOps\TraceRepo.java,0,0,0,0
org.apache.accumulo.master.tableOps.Utils, 0, 0, 0, 1, 0, 0, 0, 1, 0, 0, 0, 0, 0, 2,0.0,0.0,0.0,0.0,0.0,0.0,0.0,0.0,0.0,0.0,0.0,0.0,0.0,102,server\master\src\main\java\org\apache\accumulo\master\tableOps\Utils.java,2,1,11,25
org.apache.accumulo.master.tserverOps.ShutdownTServer, 0, 0, 0, 0, 0, 0, 0, 0, 0, 0, 0, 0, 0, 0,0.0,0.0,0.0,0.16666666666666666,0.0,0.0,0.0,0.0,0.0,0.0,0.0,0.0,0.0,48,server\master\src\main\java\org\apache\accumulo\master\tserverOps\ShutdownTServer.java,1,2,1,5
org.apache.accumulo.master.util.FateAdmin, 0, 0, 0, 0, 0, 0, 0, 0, 0, 0, 0, 0, 0, 0,0.0,0.0,0.0,0.0,0.0,0.0,0.0,0.0,0.0,0.0,0.0,0.0,0.0,45,server\master\src\main\java\org\apache\accumulo\master\util\FateAdmin.java,0,10,8,26
org.apache.accumulo.maven.plugin.StartMojo, 1, 0, 0, 0, 0, 0, 0, 0, 0, 0, 0, 0, 0, 1,0.0,0.0,0.0,0.0,0.0,0.0,0.0,0.0,0.0,0.0,0.0,0.0,0.0,45,maven-plugin\src\main\java\org\apache\accumulo\maven\plugin\StartMojo.java,0,0,0,0
org.apache.accumulo.maven.plugin.StopMojo, 0, 0, 0, 0, 0, 0, 0, 0, 0, 0, 0, 0, 0, 0,0.0,0.0,0.0,0.0,0.0,0.0,0.0,0.0,0.0,0.0,0.0,0.0,0.0,15,maven-plugin\src\main\java\org\apache\accumulo\maven\plugin\StopMojo.java,0,0,0,0
org.apache.accumulo.minicluster.MiniAccumuloCluster, 0, 0, 0, 0, 0, 0, 0, 0, 0, 0, 0, 0, 0, 0,0.0,0.0,0.3333333333333333,0.3333333333333333,0.0,0.0,0.0,0.3333333333333333,0.0,0.0,0.0,0.0,0.0,36,minicluster\src\main\java\org\apache\accumulo\minicluster\MiniAccumuloCluster.java,0,11,2,15
org.apache.accumulo.minicluster.MiniAccumuloClusterStartStopTest, 0, 0, 1, 0, 0, 0, 0, 0, 0, 0, 0, 0, 0, 1,0.0,0.0,0.0,0.5,0.0,0.0,0.0,0.5,0.0,0.0,0.0,0.0,0.0,30,minicluster\src\test\java\org\apache\accumulo\minicluster\MiniAccumuloClusterStartStopTest.java,2,6,10,28
org.apache.accumulo.minicluster.MiniAccumuloInstance, 0, 0, 0, 0, 0, 0, 0, 0, 0, 0, 0, 0, 0, 0,0.0,0.0,0.0,0.0,0.0,0.0,0.0,0.0,0.0,0.0,0.0,0.0,0.0,24,minicluster\src\main\java\org\apache\accumulo\minicluster\MiniAccumuloInstance.java,0,0,0,0
org.apache.accumulo.minicluster.impl.CleanShutdownMacTest, 0, 0, 0, 0, 0, 0, 0, 0, 0, 0, 0, 0, 0, 0,0.0,0.0,0.0,0.0,0.0,0.0,0.0,0.0,0.0,0.0,0.0,0.0,0.0,17,minicluster\src\test\java\org\apache\accumulo\minicluster\impl\CleanShutdownMacTest.java,0,0,1,2
org.apache.accumulo.minicluster.impl.ProcessNotFoundException, 0, 0, 0, 0, 0, 0, 0, 0, 0, 0, 0, 0, 0, 0,0.0,0.0,0.0,0.0,0.0,0.0,0.0,0.0,0.0,0.0,0.0,0.0,0.0,3,minicluster\src\main\java\org\apache\accumulo\minicluster\impl\ProcessNotFoundException.java,0,0,0,0
org.apache.accumulo.minicluster.impl.ProcessReference, 0, 0, 0, 0, 0, 0, 0, 0, 0, 0, 0, 0, 0, 0,0.0,0.0,0.0,0.0,0.0,0.0,0.0,0.0,0.0,0.0,0.0,0.0,0.0,24,minicluster\src\main\java\org\apache\accumulo\minicluster\impl\ProcessReference.java,0,0,0,0
org.apache.accumulo.monitor.EmbeddedWebServer, 0, 0, 0, 0, 0, 0, 0, 0, 0, 0, 0, 0, 0, 0,0.0,0.0,0.0,0.0,0.0,0.0,0.0,0.0,0.0,0.0,0.0,0.0,0.0,64,server\monitor\src\main\java\org\apache\accumulo\monitor\EmbeddedWebServer.java,0,4,0,4
org.apache.accumulo.monitor.servlets.GcStatusServlet, 0, 0, 0, 0, 0, 0, 0, 0, 0, 0, 0, 0, 0, 0,0.0,0.0,0.0,0.5,0.0,0.0,0.0,0.5,0.0,0.0,0.0,0.0,0.0,36,server\monitor\src\main\java\org\apache\accumulo\monitor\servlets\GcStatusServlet.java,0,0,0,0
org.apache.accumulo.monitor.servlets.OperationServlet, 0, 0, 0, 0, 0, 0, 0, 0, 0, 0, 0, 0, 0, 0,0.0,0.0,0.0,0.0,0.0,0.0,0.0,0.0,0.0,0.0,0.0,0.0,0.0,126,server\monitor\src\main\java\org\apache\accumulo\monitor\servlets\OperationServlet.java,0,0,0,0
org.apache.accumulo.monitor.servlets.PreciseNumberType, 0, 0, 0, 0, 0, 0, 0, 0, 0, 0, 0, 0, 0, 0,0.0,0.0,0.0,1.0,0.0,0.0,0.0,1.0,0.0,0.0,0.0,0.0,0.0,9,server\monitor\src\main\java\org\apache\accumulo\monitor\servlets\PreciseNumberType.java,11,0,0,11
org.apache.accumulo.monitor.servlets.trace.ShowTraceLinkType, 0, 0, 0, 0, 0, 0, 0, 0, 0, 0, 0, 0, 0, 0,0.0,0.0,0.0,0.0,0.0,0.0,0.0,0.0,0.0,0.0,0.0,0.0,0.0,19,server\monitor\src\main\java\org\apache\accumulo\monitor\servlets\trace\ShowTraceLinkType.java,0,0,0,0
org.apache.accumulo.monitor.servlets.trace.SummaryTest, 0, 0, 0, 0, 0, 0, 0, 0, 0, 0, 0, 0, 0, 0,0.0,0.0,0.0,0.0,0.0,0.0,0.0,0.0,0.0,0.0,0.0,0.0,0.0,14,server\monitor\src\test\java\org\apache\accumulo\monitor\servlets\trace\SummaryTest.java,0,0,0,0
org.apache.accumulo.monitor.util.TableColumn, 0, 0, 0, 0, 0, 0, 0, 0, 0, 0, 0, 0, 0, 0,0.0,0.0,0.0,0.0,0.0,0.0,0.0,0.0,0.0,0.0,0.0,0.0,0.0,22,server\monitor\src\main\java\org\apache\accumulo\monitor\util\TableColumn.java,0,0,0,0
org.apache.accumulo.monitor.util.celltypes.CompactionsType, 0, 0, 0, 0, 0, 0, 0, 0, 0, 0, 0, 0, 0, 0,0.0,0.0,0.0,1.0,0.0,0.0,0.0,1.0,0.0,0.0,0.0,0.0,0.0,45,server\monitor\src\main\java\org\apache\accumulo\monitor\util\celltypes\CompactionsType.java,0,0,0,0
org.apache.accumulo.monitor.util.celltypes.DurationType, 0, 0, 0, 0, 0, 0, 0, 0, 0, 0, 0, 0, 0, 0,0.0,0.0,0.0,0.3333333333333333,0.0,0.0,0.0,0.3333333333333333,0.0,0.0,0.0,0.0,0.0,26,server\monitor\src\main\java\org\apache\accumulo\monitor\util\celltypes\DurationType.java,0,0,0,0
org.apache.accumulo.monitor.util.celltypes.NumberType, 0, 0, 0, 1, 0, 0, 0, 1, 0, 0, 0, 0, 0, 2,0.0,0.0,0.0,0.0,0.0,0.0,0.0,0.0,0.0,0.0,0.0,0.0,0.0,85,server\monitor\src\main\java\org\apache\accumulo\monitor\util\celltypes\NumberType.java,0,0,1,2
org.apache.accumulo.monitor.util.celltypes.PercentageType, 0, 0, 0, 0, 0, 0, 0, 0, 0, 0, 0, 0, 0, 0,0.0,0.0,0.0,0.0,0.0,0.0,0.0,0.0,0.0,0.0,0.0,0.0,0.0,16,server\monitor\src\main\java\org\apache\accumulo\monitor\util\celltypes\PercentageType.java,0,0,0,0
org.apache.accumulo.monitor.util.celltypes.StringType, 0, 0, 0, 0, 0, 0, 0, 0, 0, 0, 0, 0, 0, 0,0.0,0.0,0.0,0.0,0.0,0.0,0.0,0.0,0.0,0.0,0.0,0.0,0.0,20,server\monitor\src\main\java\org\apache\accumulo\monitor\util\celltypes\StringType.java,0,0,0,0
org.apache.accumulo.monitor.util.celltypes.TServerLinkType, 0, 0, 0, 0, 0, 0, 0, 0, 0, 0, 0, 0, 0, 0,0.0,0.0,0.0,0.0,0.0,0.0,0.0,0.0,0.0,0.0,0.0,0.0,0.0,25,server\monitor\src\main\java\org\apache\accumulo\monitor\util\celltypes\TServerLinkType.java,0,0,0,0
org.apache.accumulo.monitor.util.celltypes.TableStateType, 0, 0, 0, 0, 0, 0, 0, 0, 0, 0, 0, 0, 0, 0,0.0,0.0,0.0,0.0,0.0,0.0,0.0,0.0,0.0,0.0,0.0,0.0,0.0,33,server\monitor\src\main\java\org\apache\accumulo\monitor\util\celltypes\TableStateType.java,0,0,0,0
org.apache.accumulo.plugin.CustomFilter, 0, 0, 0, 0, 0, 0, 0, 0, 0, 0, 0, 0, 0, 0,0.0,0.0,0.0,0.0,0.0,0.0,0.0,0.0,0.0,0.0,0.0,0.0,0.0,6,maven-plugin\src\it\plugin-test\src\main\java\org\apache\accumulo\plugin\CustomFilter.java,0,0,0,0
org.apache.accumulo.proxy.Util, 0, 0, 0, 0, 0, 0, 0, 0, 0, 0, 0, 0, 0, 0,0.0,0.0,0.0,0.0,0.0,0.0,0.0,0.0,0.0,0.0,0.0,0.0,0.0,30,proxy\src\main\java\org\apache\accumulo\proxy\Util.java,1,1,3,8
org.apache.accumulo.server.AccumuloTest, 0, 0, 0, 0, 0, 0, 0, 0, 0, 0, 0, 0, 0, 0,0.0,0.0,0.0,0.0,0.0,0.0,0.0,0.0,0.0,0.0,0.0,0.0,0.0,88,server\base\src\test\java\org\apache\accumulo\server\AccumuloTest.java,0,0,0,0
org.apache.accumulo.server.ServerConstants, 0, 0, 0, 1, 0, 0, 0, 0, 0, 0, 0, 0, 0, 1,0.0,0.0,0.2,0.2,0.0,0.0,0.0,0.0,0.0,0.0,0.0,0.0,0.0,121,server\base\src\main\java\org\apache\accumulo\server\ServerConstants.java,7,5,1,14
org.apache.accumulo.server.ServerConstantsTest, 0, 0, 1, 0, 0, 0, 0, 0, 0, 0, 0, 0, 0, 1,0.0,0.0,0.0,1.0,0.0,0.0,0.0,0.0,0.0,0.0,0.0,0.0,0.0,59,server\base\src\test\java\org\apache\accumulo\server\ServerConstantsTest.java,0,0,0,0
org.apache.accumulo.server.ServerOpts, 0, 0, 0, 0, 0, 0, 0, 0, 0, 0, 0, 0, 0, 0,0.0,0.0,0.5,0.0,0.0,0.0,0.0,0.0,0.0,0.0,0.0,0.0,0.0,8,server\base\src\main\java\org\apache\accumulo\server\ServerOpts.java,0,0,0,0
org.apache.accumulo.server.ServerOptsTest, 0, 0, 0, 0, 0, 0, 0, 0, 0, 0, 0, 0, 0, 0,0.0,0.0,0.5,0.0,0.0,0.0,0.0,0.0,0.0,0.0,0.0,0.0,0.0,17,server\base\src\test\java\org\apache\accumulo\server\ServerOptsTest.java,1,1,0,2
org.apache.accumulo.server.cli.ClientOnDefaultTable, 0, 0, 0, 0, 0, 0, 0, 0, 0, 0, 0, 0, 0, 0,0.0,0.0,1.0,0.0,0.0,0.0,0.0,0.0,0.0,0.0,0.0,0.0,0.0,19,server\base\src\main\java\org\apache\accumulo\server\cli\ClientOnDefaultTable.java,0,0,0,0
org.apache.accumulo.server.cli.ClientOnRequiredTable, 0, 0, 0, 0, 0, 0, 0, 0, 0, 0, 0, 0, 0, 0,0.0,0.0,1.0,0.0,0.0,0.0,0.0,0.0,0.0,0.0,0.0,0.0,0.0,16,server\base\src\main\java\org\apache\accumulo\server\cli\ClientOnRequiredTable.java,0,0,0,0
org.apache.accumulo.server.cli.ClientOpts, 0, 0, 0, 0, 0, 0, 0, 0, 0, 0, 0, 0, 0, 0,0.3333333333333333,0.0,0.0,0.0,0.0,0.0,0.0,0.0,0.0,0.0,0.0,0.0,0.0,14,server\base\src\main\java\org\apache\accumulo\server\cli\ClientOpts.java,0,0,0,0
org.apache.accumulo.server.conf.ConfigSanityCheck, 0, 0, 0, 0, 0, 0, 0, 0, 0, 0, 0, 0, 0, 0,0.0,0.0,0.0,1.0,0.0,0.0,0.0,0.0,0.0,0.0,0.0,0.0,0.0,5,server\base\src\main\java\org\apache\accumulo\server\conf\ConfigSanityCheck.java,0,0,0,0
org.apache.accumulo.server.conf.ServerConfiguration, 0, 0, 0, 1, 0, 0, 0, 0, 0, 0, 0, 0, 0, 1,0.0,0.0,0.1111111111111111,0.1111111111111111,0.0,0.0,0.0,0.0,0.0,0.0,0.0,0.0,0.0,54,server\base\src\main\java\org\apache\accumulo\server\conf\ServerConfiguration.java,0,0,0,0
org.apache.accumulo.server.conf.ServerConfigurationFactoryTest, 0, 0, 0, 1, 0, 0, 0, 0, 0, 0, 0, 0, 0, 1,0.0,0.0,0.0,0.0,0.0,0.0,0.0,0.0,0.0,0.0,0.0,0.0,0.0,75,server\base\src\test\java\org\apache\accumulo\server\conf\ServerConfigurationFactoryTest.java,1,1,1,4
org.apache.accumulo.server.conf.TableParentConfiguration, 0, 0, 0, 0, 0, 0, 0, 0, 0, 0, 0, 0, 0, 0,0.0,0.0,0.0,0.0,0.0,0.0,0.0,0.0,0.0,0.0,0.0,0.0,0.0,20,server\base\src\main\java\org\apache\accumulo\server\conf\TableParentConfiguration.java,0,0,0,0
org.apache.accumulo.server.conf.ZooConfigurationFactoryTest, 0, 0, 0, 0, 0, 0, 0, 0, 0, 0, 0, 0, 0, 0,0.0,0.0,0.0,0.0,0.0,0.0,0.0,0.0,0.0,0.0,0.0,0.0,0.0,30,server\base\src\test\java\org\apache\accumulo\server\conf\ZooConfigurationFactoryTest.java,7,7,0,14
org.apache.accumulo.server.constraints.MetadataConstraints, 0, 0, 0, 0, 0, 0, 0, 0, 0, 0, 0, 0, 0, 0,0.0,0.0,0.0,0.3333333333333333,0.0,0.0,0.0,0.0,0.0,0.0,0.0,0.0,0.0,205,server\base\src\main\java\org\apache\accumulo\server\constraints\MetadataConstraints.java,0,1,9,19
org.apache.accumulo.server.constraints.MetadataConstraintsTest, 0, 0, 0, 0, 0, 0, 0, 0, 0, 0, 0, 0, 0, 0,0.0,0.0,0.0,0.5,0.0,0.0,0.0,0.0,0.0,0.0,0.0,0.0,0.0,148,server\base\src\test\java\org\apache\accumulo\server\constraints\MetadataConstraintsTest.java,1,0,0,1
org.apache.accumulo.server.data.ServerColumnUpdate, 0, 0, 0, 0, 0, 0, 0, 1, 0, 0, 0, 0, 0, 1,0.0,0.0,0.0,0.0,0.0,0.0,0.0,1.0,0.0,0.0,0.0,0.0,0.0,12,server\base\src\main\java\org\apache\accumulo\server\data\ServerColumnUpdate.java,0,0,0,0
org.apache.accumulo.server.data.ServerMutation, 0, 0, 0, 0, 0, 0, 0, 1, 0, 0, 0, 0, 0, 1,0.0,0.0,0.0,0.125,0.0,0.0,0.0,0.25,0.0,0.0,0.0,0.0,0.0,59,server\base\src\main\java\org\apache\accumulo\server\data\ServerMutation.java,1,0,1,3
org.apache.accumulo.server.data.ServerMutationTest, 0, 0, 0, 0, 0, 0, 0, 0, 0, 0, 0, 0, 0, 0,0.0,0.0,0.0,0.0,0.0,0.0,0.0,0.5,0.0,0.0,0.0,0.0,0.0,34,server\base\src\test\java\org\apache\accumulo\server\data\ServerMutationTest.java,0,0,0,0
org.apache.accumulo.server.fs.FileTypeTest, 0, 0, 0, 0, 0, 0, 0, 0, 0, 0, 0, 0, 0, 0,0.0,0.0,0.0,0.0,0.0,0.0,0.0,0.0,0.0,0.0,0.0,0.0,0.0,33,server\base\src\test\java\org\apache\accumulo\server\fs\FileTypeTest.java,0,0,0,0
org.apache.accumulo.server.fs.RandomVolumeChooser, 0, 0, 0, 0, 0, 0, 0, 0, 0, 0, 0, 0, 0, 0,0.0,0.0,0.0,0.0,0.0,0.0,0.0,0.0,0.0,0.0,0.0,0.0,0.0,7,server\base\src\main\java\org\apache\accumulo\server\fs\RandomVolumeChooser.java,0,0,0,0
org.apache.accumulo.server.fs.ViewFSUtils, 0, 0, 0, 0, 0, 0, 0, 0, 0, 0, 0, 0, 0, 0,0.0,0.0,0.0,0.0,0.0,0.0,0.0,0.0,0.0,0.0,0.0,0.0,0.0,62,server\base\src\main\java\org\apache\accumulo\server\fs\ViewFSUtils.java,0,0,0,0
org.apache.accumulo.server.fs.ViewFSUtilsTest, 0, 0, 0, 0, 0, 0, 0, 0, 0, 0, 0, 0, 0, 0,0.0,0.0,0.0,0.0,0.0,0.0,0.0,0.0,0.0,0.0,0.0,0.0,0.0,56,server\base\src\test\java\org\apache\accumulo\server\fs\ViewFSUtilsTest.java,1,0,1,3
org.apache.accumulo.server.fs.VolumeChooser, 0, 0, 0, 0, 0, 0, 0, 0, 0, 0, 0, 0, 0, 0,0.0,0.0,0.0,0.0,0.0,0.0,0.0,0.0,0.0,0.0,0.0,0.0,0.0,56,server\base\src\main\java\org\apache\accumulo\server\fs\VolumeChooser.java,0,0,0,0
org.apache.accumulo.server.fs.VolumeManagerImplTest, 0, 0, 0, 0, 0, 0, 0, 0, 0, 0, 0, 0, 0, 0,0.0,0.0,0.0,0.0,0.0,0.0,0.0,0.0,0.0,0.0,0.0,0.0,0.0,53,server\base\src\test\java\org\apache\accumulo\server\fs\VolumeManagerImplTest.java,0,20,0,20
org.apache.accumulo.server.fs.VolumeUtilTest, 0, 0, 1, 0, 0, 0, 0, 0, 0, 0, 0, 0, 0, 1,0.0,0.0,0.0,0.0,0.0,0.0,0.0,0.0,0.0,0.0,0.0,0.0,0.0,152,server\base\src\test\java\org\apache\accumulo\server\fs\VolumeUtilTest.java,2,0,5,12
org.apache.accumulo.server.init.InitializeTest, 0, 0, 0, 0, 0, 0, 0, 0, 0, 0, 0, 0, 0, 0,0.0,0.0,0.0,0.0,0.0,0.0,0.0,0.0,0.0,0.0,0.0,0.0,0.0,105,server\base\src\test\java\org\apache\accumulo\server\init\InitializeTest.java,0,0,0,0
org.apache.accumulo.server.logger.LogFileKey, 0, 0, 0, 0, 0, 0, 0, 0, 0, 0, 0, 0, 0, 0,0.0,0.0,1.0,1.0,0.0,0.0,0.0,0.0,0.0,0.0,0.0,0.0,0.0,2,server\tserver\src\main\java\org\apache\accumulo\server\logger\LogFileKey.java,0,0,0,0
org.apache.accumulo.server.logger.LogFileValue, 0, 0, 0, 0, 0, 0, 0, 0, 0, 0, 0, 0, 0, 0,0.0,0.0,0.0,0.0,0.0,0.0,0.0,0.0,0.0,0.0,0.0,0.0,0.0,2,server\tserver\src\main\java\org\apache\accumulo\server\logger\LogFileValue.java,0,0,0,0
org.apache.accumulo.server.master.recovery.HadoopLogCloser, 0, 0, 0, 0, 0, 0, 0, 0, 0, 0, 0, 0, 0, 0,0.0,0.0,0.0,0.0,0.0,0.0,0.0,0.0,0.0,0.0,0.0,0.0,0.0,34,server\base\src\main\java\org\apache\accumulo\server\master\recovery\HadoopLogCloser.java,0,0,0,0
org.apache.accumulo.server.master.recovery.LogCloser, 0, 0, 0, 0, 0, 0, 0, 0, 0, 0, 0, 0, 0, 0,0.0,0.0,0.0,0.0,0.0,0.0,0.0,0.0,0.0,0.0,0.0,0.0,0.0,34,server\base\src\main\java\org\apache\accumulo\server\master\recovery\LogCloser.java,0,0,0,0
org.apache.accumulo.server.master.recovery.MapRLogCloser, 0, 0, 0, 0, 0, 0, 0, 0, 0, 0, 0, 0, 0, 0,0.0,0.0,0.0,0.0,0.0,0.0,0.0,0.0,0.0,0.0,0.0,0.0,0.0,16,server\base\src\main\java\org\apache\accumulo\server\master\recovery\MapRLogCloser.java,0,0,0,0
org.apache.accumulo.server.master.recovery.RecoveryPath, 0, 0, 0, 0, 0, 0, 0, 0, 0, 0, 0, 0, 0, 0,0.0,0.0,0.0,0.0,0.0,0.0,0.0,0.0,0.0,0.0,0.0,0.0,0.0,18,server\base\src\main\java\org\apache\accumulo\server\master\recovery\RecoveryPath.java,0,0,0,0
org.apache.accumulo.server.master.state.Assignment, 0, 0, 1, 0, 0, 0, 0, 0, 0, 0, 0, 0, 0, 1,0.0,0.0,0.0,0.3333333333333333,0.0,0.0,0.0,0.0,0.0,0.0,0.0,0.0,0.0,8,server\base\src\main\java\org\apache\accumulo\server\master\state\Assignment.java,0,0,0,0
org.apache.accumulo.server.master.state.CurrentState, 0, 0, 0, 0, 0, 0, 0, 0, 0, 0, 0, 0, 0, 0,0.0,0.0,0.0,0.0,0.0,0.0,0.0,0.0,0.0,0.0,0.0,0.0,0.0,8,server\base\src\main\java\org\apache\accumulo\server\master\state\CurrentState.java,0,0,0,0
org.apache.accumulo.server.master.state.DeadServerList, 0, 0, 0, 0, 0, 0, 0, 0, 0, 0, 0, 0, 0, 0,0.0,0.0,0.0,0.0,0.0,0.0,0.0,0.0,0.0,0.0,0.0,0.0,0.0,52,server\base\src\main\java\org\apache\accumulo\server\master\state\DeadServerList.java,2,2,2,8
org.apache.accumulo.server.master.state.DistributedStore, 0, 0, 0, 0, 0, 0, 0, 0, 0, 0, 0, 0, 0, 0,0.0,0.0,0.0,0.0,0.0,0.0,0.0,0.0,0.0,0.0,0.0,0.0,0.0,52,server\base\src\main\java\org\apache\accumulo\server\master\state\DistributedStore.java,0,0,0,0
org.apache.accumulo.server.master.state.DistributedStoreException, 0, 0, 0, 0, 0, 0, 0, 0, 0, 0, 0, 0, 0, 0,0.0,0.0,0.0,0.25,0.0,0.0,0.0,0.0,0.0,0.0,0.0,0.0,0.0,12,server\base\src\main\java\org\apache\accumulo\server\master\state\DistributedStoreException.java,0,0,0,0
org.apache.accumulo.server.master.state.MergeInfo, 0, 0, 0, 0, 0, 0, 0, 0, 0, 0, 0, 0, 0, 0,0.0,0.0,0.0,0.2,0.0,0.0,0.0,0.0,0.0,0.0,0.0,0.0,0.0,61,server\base\src\main\java\org\apache\accumulo\server\master\state\MergeInfo.java,0,0,0,0
org.apache.accumulo.server.master.state.MergeInfoTest, 0, 0, 0, 1, 0, 0, 0, 0, 0, 0, 0, 0, 0, 1,0.0,0.0,0.0,0.0,0.0,0.0,0.0,0.0,0.0,0.0,0.0,0.0,0.0,121,server\base\src\test\java\org\apache\accumulo\server\master\state\MergeInfoTest.java,5,9,0,14
org.apache.accumulo.server.master.state.MetaDataStateStore, 0, 0, 0, 1, 0, 0, 0, 0, 0, 0, 0, 0, 0, 1,0.0,0.0,0.0,0.2857142857142857,0.0,0.0,0.0,0.14285714285714285,0.0,0.0,0.0,0.0,0.0,106,server\base\src\main\java\org\apache\accumulo\server\master\state\MetaDataStateStore.java,0,0,0,0
org.apache.accumulo.server.master.state.RootTabletStateStore, 0, 0, 0, 0, 0, 0, 0, 0, 0, 0, 0, 0, 0, 0,0.0,0.0,0.0,0.5,0.0,0.0,0.0,0.0,0.0,0.0,0.0,0.0,0.0,16,server\base\src\main\java\org\apache\accumulo\server\master\state\RootTabletStateStore.java,0,0,0,0
org.apache.accumulo.server.master.state.TServerInstance, 0, 0, 0, 1, 0, 0, 0, 0, 0, 0, 0, 0, 0, 1,0.0,0.0,0.2222222222222222,0.3333333333333333,0.0,0.0,0.0,0.1111111111111111,0.0,0.1111111111111111,0.0,0.0,0.0,82,server\base\src\main\java\org\apache\accumulo\server\master\state\TServerInstance.java,1,1,2,6
org.apache.accumulo.server.master.state.TabletLocationState, 0, 0, 0, 0, 0, 0, 0, 1, 0, 0, 0, 0, 0, 1,0.0,0.0,0.0,0.3333333333333333,0.0,0.0,0.0,0.0,0.0,0.0,0.0,0.0,0.0,59,server\base\src\main\java\org\apache\accumulo\server\master\state\TabletLocationState.java,0,5,2,9
org.apache.accumulo.server.master.state.TabletLocationStateTest, 0, 0, 0, 1, 0, 0, 0, 0, 0, 0, 0, 0, 0, 1,0.0,0.0,0.0,0.5,0.0,0.0,0.0,0.5,0.0,0.0,0.0,0.0,0.0,116,server\base\src\test\java\org\apache\accumulo\server\master\state\TabletLocationStateTest.java,4,8,0,12
org.apache.accumulo.server.master.state.TabletMigration, 0, 0, 1, 0, 0, 0, 0, 0, 0, 0, 0, 0, 0, 1,0.0,0.0,0.0,1.0,0.0,0.0,0.0,0.0,0.0,0.0,0.0,0.0,0.0,13,server\base\src\main\java\org\apache\accumulo\server\master\state\TabletMigration.java,0,0,0,0
org.apache.accumulo.server.master.state.ZooStore, 0, 0, 0, 0, 0, 0, 0, 0, 0, 0, 0, 0, 0, 0,0.0,0.0,0.0,0.16666666666666666,0.0,0.0,0.0,0.0,0.0,0.0,0.0,0.0,0.0,56,server\base\src\main\java\org\apache\accumulo\server\master\state\ZooStore.java,1,1,1,4
org.apache.accumulo.server.master.state.ZooTabletStateStore, 0, 0, 0, 0, 0, 0, 0, 0, 0, 0, 0, 0, 0, 0,0.0,0.0,0.0,0.2,0.0,0.0,0.0,0.0,0.0,0.0,0.0,0.0,0.0,127,server\base\src\main\java\org\apache\accumulo\server\master\state\ZooTabletStateStore.java,2,1,5,13
org.apache.accumulo.server.master.tableOps.CompactionIterators, 0, 0, 0, 0, 0, 0, 0, 0, 0, 0, 0, 0, 0, 0,0.0,0.0,0.0,0.0,0.0,0.0,0.0,0.0,0.0,0.0,0.0,0.0,0.0,64,server\base\src\main\java\org\apache\accumulo\server\master\tableOps\CompactionIterators.java,0,0,0,0
org.apache.accumulo.server.metrics.MetricsConfiguration, 0, 0, 0, 1, 0, 0, 0, 0, 0, 0, 0, 0, 0, 1,0.0,0.0,0.0,0.0,0.0,0.0,0.0,0.0,0.0,0.0,0.0,0.0,0.0,152,server\base\src\main\java\org\apache\accumulo\server\metrics\MetricsConfiguration.java,0,0,0,0
org.apache.accumulo.server.metrics.ThriftMetrics, 0, 0, 0, 0, 0, 0, 0, 0, 0, 0, 0, 0, 0, 0,0.0,0.0,0.0,0.0,0.0,0.0,0.0,0.0,0.0,0.0,0.0,0.0,0.0,50,server\base\src\main\java\org\apache\accumulo\server\metrics\ThriftMetrics.java,0,0,0,0
org.apache.accumulo.server.metrics.ThriftMetricsMBean, 0, 0, 0, 0, 0, 0, 0, 0, 0, 0, 0, 0, 0, 0,0.0,0.0,0.0,0.0,0.0,0.0,0.0,0.0,0.0,0.0,0.0,0.0,0.0,50,server\base\src\main\java\org\apache\accumulo\server\metrics\ThriftMetricsMBean.java,0,0,0,0
org.apache.accumulo.server.monitor.DedupedLogEvent, 0, 0, 0, 0, 0, 0, 0, 0, 0, 0, 0, 0, 0, 0,0.0,0.0,0.0,0.0,0.0,0.0,0.0,0.0,0.0,0.0,0.0,0.0,0.0,39,server\base\src\main\java\org\apache\accumulo\server\monitor\DedupedLogEvent.java,0,0,0,0
org.apache.accumulo.server.problems.ProblemReportTest, 0, 0, 0, 1, 0, 0, 0, 0, 0, 0, 0, 0, 0, 1,0.0,0.0,0.0,0.2,0.0,0.0,0.0,0.0,0.0,0.0,0.0,0.0,0.0,127,server\base\src\test\java\org\apache\accumulo\server\problems\ProblemReportTest.java,7,11,0,18
org.apache.accumulo.server.problems.ProblemReportingIteratorTest, 0, 0, 0, 0, 0, 0, 0, 0, 0, 0, 0, 0, 0, 0,0.0,0.0,0.0,0.0,0.0,0.0,0.0,0.0,0.0,0.0,0.0,0.0,0.0,55,server\base\src\test\java\org\apache\accumulo\server\problems\ProblemReportingIteratorTest.java,0,0,0,0
org.apache.accumulo.server.security.SystemCredentialsTest, 0, 0, 0, 0, 0, 0, 0, 0, 0, 0, 0, 0, 0, 0,0.0,0.0,0.0,0.0,0.0,0.0,0.0,0.0,0.0,0.0,0.0,0.0,0.0,27,server\base\src\test\java\org\apache\accumulo\server\security\SystemCredentialsTest.java,0,0,0,0
org.apache.accumulo.server.security.handler.Authenticator, 0, 0, 0, 0, 0, 0, 0, 0, 0, 0, 0, 0, 0, 0,0.0,0.0,0.0,0.0,0.0,0.0,0.0,0.0,0.0,0.0,0.0,0.0,0.0,27,server\base\src\main\java\org\apache\accumulo\server\security\handler\Authenticator.java,0,0,0,0
org.apache.accumulo.server.security.handler.Authorizor, 0, 0, 0, 0, 0, 0, 0, 0, 0, 0, 0, 0, 0, 0,0.0,0.0,0.0,0.0,0.0,0.0,0.0,0.0,0.0,0.0,0.0,0.0,0.0,27,server\base\src\main\java\org\apache\accumulo\server\security\handler\Authorizor.java,0,0,0,0
org.apache.accumulo.server.security.handler.InsecureAuthenticator, 0, 0, 0, 0, 0, 0, 0, 0, 0, 0, 0, 0, 0, 0,0.0,0.0,0.0,0.0,0.0,0.0,0.0,0.0,0.0,0.0,0.0,0.0,0.0,43,server\base\src\main\java\org\apache\accumulo\server\security\handler\InsecureAuthenticator.java,0,0,10,20
org.apache.accumulo.server.security.handler.InsecurePermHandler, 0, 0, 0, 1, 0, 0, 0, 0, 0, 0, 0, 0, 0, 1,0.0,0.0,0.0,0.0,0.0,0.0,0.0,0.0,0.0,0.0,0.0,0.0,0.0,72,server\base\src\main\java\org\apache\accumulo\server\security\handler\InsecurePermHandler.java,3,1,22,48
org.apache.accumulo.server.security.handler.PermissionHandler, 0, 0, 0, 0, 0, 0, 0, 0, 0, 0, 0, 0, 0, 0,0.0,0.0,0.0,0.0,0.0,0.0,0.0,0.0,0.0,0.0,0.0,0.0,0.0,72,server\base\src\main\java\org\apache\accumulo\server\security\handler\PermissionHandler.java,3,0,3,9
org.apache.accumulo.server.security.handler.ZKSecurityTool, 0, 0, 0, 1, 0, 0, 0, 0, 0, 0, 0, 0, 0, 1,0.0,0.0,0.0,0.0,0.0,0.0,0.0,0.0,0.0,0.0,0.0,0.0,0.0,118,server\base\src\main\java\org\apache\accumulo\server\security\handler\ZKSecurityTool.java,1,1,0,2
org.apache.accumulo.server.tablets.LogicalTimeTest, 0, 0, 0, 0, 0, 0, 0, 0, 0, 0, 0, 0, 0, 0,0.0,0.0,0.0,0.0,0.0,0.0,0.0,0.5,0.0,0.0,0.0,0.0,0.0,52,server\base\src\test\java\org\apache\accumulo\server\tablets\LogicalTimeTest.java,0,0,0,0
org.apache.accumulo.server.tablets.MillisTimeTest, 0, 0, 0, 0, 0, 0, 0, 0, 0, 0, 0, 0, 0, 0,0.0,0.0,0.0,0.0,0.0,0.0,0.0,1.0,0.0,0.0,0.0,0.0,0.0,48,server\base\src\test\java\org\apache\accumulo\server\tablets\MillisTimeTest.java,6,7,0,13
org.apache.accumulo.server.tablets.TabletTime, 0, 0, 0, 0, 0, 0, 0, 0, 0, 0, 0, 0, 0, 0,0.0,0.0,0.0,0.3333333333333333,0.0,0.0,0.0,0.3333333333333333,0.0,0.0,0.0,0.0,0.0,151,server\base\src\main\java\org\apache\accumulo\server\tablets\TabletTime.java,0,0,0,0
org.apache.accumulo.server.tablets.TabletTimeTest, 0, 0, 0, 1, 0, 0, 0, 0, 0, 0, 0, 0, 0, 1,0.0,0.0,0.0,0.0,0.0,0.0,0.0,0.5,0.0,0.0,0.0,0.0,0.0,105,server\base\src\test\java\org\apache\accumulo\server\tablets\TabletTimeTest.java,4,5,0,9
org.apache.accumulo.server.tablets.UniqueNameAllocator, 0, 0, 0, 0, 0, 0, 0, 0, 0, 0, 0, 0, 0, 0,0.0,0.0,0.0,0.0,0.0,0.0,0.0,0.3333333333333333,0.0,0.0,0.0,0.0,0.0,35,server\base\src\main\java\org\apache\accumulo\server\tablets\UniqueNameAllocator.java,0,1,5,11
org.apache.accumulo.server.tabletserver.MemoryManagementActions, 0, 0, 1, 0, 0, 0, 0, 0, 0, 0, 0, 0, 0, 1,0.0,0.0,0.0,0.0,0.0,0.0,0.0,0.0,0.0,0.0,0.0,0.0,0.0,3,server\base\src\main\java\org\apache\accumulo\server\tabletserver\MemoryManagementActions.java,0,0,0,0
org.apache.accumulo.server.tabletserver.MemoryManager, 0, 0, 0, 0, 0, 0, 0, 0, 0, 0, 0, 0, 0, 0,0.0,0.0,0.0,0.0,0.0,0.0,0.0,0.0,0.0,0.0,0.0,0.0,0.0,3,server\base\src\main\java\org\apache\accumulo\server\tabletserver\MemoryManager.java,0,0,0,0
org.apache.accumulo.server.tabletserver.TabletState, 0, 0, 0, 0, 0, 0, 0, 0, 0, 0, 0, 0, 0, 0,0.0,0.0,0.0,0.0,0.0,0.0,0.0,0.0,0.0,0.0,0.0,0.0,0.0,3,server\base\src\main\java\org\apache\accumulo\server\tabletserver\TabletState.java,0,0,0,0
org.apache.accumulo.server.trace.TraceFSDataInputStream, 0, 0, 0, 0, 0, 0, 0, 0, 0, 0, 0, 0, 0, 0,0.0,0.0,0.0,0.5,0.0,0.0,0.0,0.5,0.0,0.0,0.0,0.0,0.0,58,server\base\src\main\java\org\apache\accumulo\server\trace\TraceFSDataInputStream.java,0,0,0,0
org.apache.accumulo.server.trace.TraceFileSystem, 0, 0, 0, 1, 0, 0, 0, 1, 0, 0, 0, 0, 0, 2,0.0,0.0,0.0,0.0,0.0,0.0,0.0,0.0,0.0,0.0,0.0,0.0,0.0,707,server\base\src\main\java\org\apache\accumulo\server\trace\TraceFileSystem.java,0,0,0,0
org.apache.accumulo.server.util.ActionStatsUpdator, 0, 0, 0, 0, 0, 0, 0, 0, 0, 0, 0, 0, 0, 0,0.0,0.0,0.0,0.0,0.0,0.0,0.0,1.0,0.0,0.0,0.0,0.0,0.0,12,server\base\src\main\java\org\apache\accumulo\server\util\ActionStatsUpdator.java,0,0,0,0
org.apache.accumulo.server.util.AdminCommandsTest, 0, 0, 0, 0, 0, 0, 0, 0, 0, 0, 0, 0, 0, 0,0.0,0.0,0.0,0.0,0.0,0.0,0.0,0.0,0.0,0.0,0.0,0.0,0.0,51,server\base\src\test\java\org\apache\accumulo\server\util\AdminCommandsTest.java,1,4,1,7
org.apache.accumulo.server.util.CleanZookeeper, 0, 0, 0, 0, 0, 0, 0, 0, 0, 0, 0, 0, 0, 0,0.0,0.0,0.5,0.0,0.0,0.0,0.0,0.0,0.0,0.0,0.0,0.0,0.0,44,server\base\src\main\java\org\apache\accumulo\server\util\CleanZookeeper.java,0,1,4,9
org.apache.accumulo.server.util.CustomNonBlockingServer, 0, 0, 0, 0, 0, 0, 0, 0, 0, 0, 0, 0, 0, 0,0.0,0.0,0.0,0.0,0.0,0.0,0.0,1.0,0.0,0.0,0.0,0.0,0.0,152,server\base\src\main\java\org\apache\accumulo\server\util\CustomNonBlockingServer.java,0,0,2,4
org.apache.accumulo.server.util.DefaultMapTest, 0, 0, 0, 0, 0, 0, 0, 0, 0, 0, 0, 0, 0, 0,0.0,0.0,0.0,0.0,0.0,0.0,0.0,0.0,0.0,0.0,0.0,0.0,0.0,18,server\base\src\test\java\org\apache\accumulo\server\util\DefaultMapTest.java,1,1,1,4
org.apache.accumulo.server.util.DeleteZooInstance, 0, 0, 0, 0, 0, 0, 0, 0, 0, 0, 0, 0, 0, 0,0.0,0.0,0.5,0.0,0.0,0.0,0.0,0.0,0.0,0.0,0.0,0.0,0.0,39,server\base\src\main\java\org\apache\accumulo\server\util\DeleteZooInstance.java,0,1,2,5
org.apache.accumulo.server.util.DumpZookeeper, 1, 0, 0, 0, 0, 0, 0, 0, 0, 0, 0, 0, 0, 1,0.0,0.0,0.3333333333333333,0.0,0.0,0.0,0.0,0.0,0.0,0.0,0.0,0.0,0.0,76,server\base\src\main\java\org\apache\accumulo\server\util\DumpZookeeper.java,1,1,1,4
org.apache.accumulo.server.util.FileInfoTest, 0, 0, 0, 0, 0, 0, 0, 0, 0, 0, 0, 0, 0, 0,0.0,0.0,0.0,0.0,0.0,0.0,0.0,0.0,0.0,0.0,0.0,0.0,0.0,16,server\base\src\test\java\org\apache\accumulo\server\util\FileInfoTest.java,1,1,0,2
org.apache.accumulo.server.util.FindOfflineTablets, 0, 0, 0, 0, 0, 0, 0, 0, 0, 0, 0, 0, 0, 0,0.0,0.0,0.0,0.0,0.0,0.0,0.0,0.2,0.0,0.0,0.0,0.0,0.0,63,server\base\src\main\java\org\apache\accumulo\server\util\FindOfflineTablets.java,0,4,1,6
org.apache.accumulo.server.util.Halt, 0, 0, 0, 0, 0, 0, 0, 0, 0, 0, 0, 0, 0, 0,0.0,0.0,0.0,0.0,0.0,0.0,0.0,0.0,0.0,0.0,0.0,0.0,0.0,32,server\base\src\main\java\org\apache\accumulo\server\util\Halt.java,0,0,0,0
org.apache.accumulo.server.util.Info, 0, 0, 0, 0, 0, 0, 0, 0, 0, 0, 0, 0, 0, 0,0.0,0.0,0.0,0.0,0.0,0.0,0.0,0.0,0.0,0.0,0.0,0.0,0.0,8,server\base\src\main\java\org\apache\accumulo\server\util\Info.java,0,0,0,0
org.apache.accumulo.server.util.LoginProperties, 0, 0, 0, 0, 0, 0, 0, 0, 0, 0, 0, 0, 0, 0,0.0,0.0,0.0,1.0,0.0,0.0,0.0,0.0,0.0,0.0,0.0,0.0,0.0,19,server\base\src\main\java\org\apache\accumulo\server\util\LoginProperties.java,0,0,0,0
org.apache.accumulo.server.util.NamespacePropUtil, 0, 0, 0, 0, 0, 0, 0, 0, 0, 0, 0, 0, 0, 0,0.0,0.0,0.0,0.3333333333333333,0.0,0.0,0.0,0.0,0.0,0.0,0.0,0.0,0.0,24,server\base\src\main\java\org\apache\accumulo\server\util\NamespacePropUtil.java,0,1,1,3
org.apache.accumulo.server.util.PortUtils, 0, 0, 0, 0, 0, 0, 0, 0, 0, 0, 0, 0, 0, 0,0.0,0.0,0.0,0.0,0.0,0.0,0.0,0.0,0.0,0.0,0.0,0.0,0.0,22,server\base\src\main\java\org\apache\accumulo\server\util\PortUtils.java,0,0,0,0
org.apache.accumulo.server.util.RestoreZookeeper, 0, 0, 0, 0, 0, 0, 0, 0, 0, 0, 0, 0, 0, 0,0.0,0.0,0.5,0.0,0.0,0.0,0.0,0.0,0.0,0.0,0.0,0.0,0.0,74,server\base\src\main\java\org\apache\accumulo\server\util\RestoreZookeeper.java,1,1,2,6
org.apache.accumulo.server.util.RpcWrapper, 0, 0, 0, 0, 0, 0, 0, 0, 0, 0, 0, 0, 0, 0,0.0,0.0,0.0,0.0,0.0,0.0,0.0,0.0,0.0,0.0,0.0,0.0,0.0,23,server\base\src\main\java\org\apache\accumulo\server\util\RpcWrapper.java,0,2,2,6
org.apache.accumulo.server.util.SystemPropUtil, 0, 0, 0, 0, 0, 0, 0, 0, 0, 0, 0, 0, 0, 0,0.0,0.0,0.0,0.3333333333333333,0.0,0.0,0.0,0.0,0.0,0.0,0.0,0.0,0.0,14,server\base\src\main\java\org\apache\accumulo\server\util\SystemPropUtil.java,0,1,1,3
org.apache.accumulo.server.util.TBufferedServerSocket, 0, 0, 0, 0, 0, 0, 0, 0, 0, 0, 0, 0, 0, 0,0.0,0.0,0.0,0.0,0.0,0.0,0.0,0.5,0.0,0.0,0.0,0.0,0.0,33,server\base\src\main\java\org\apache\accumulo\server\util\TBufferedServerSocket.java,0,0,0,0
org.apache.accumulo.server.util.TNonblockingServerSocket, 0, 0, 0, 0, 0, 0, 0, 0, 0, 0, 0, 0, 0, 0,0.0,0.0,0.0,0.0,0.0,0.0,0.0,1.0,0.0,0.0,0.0,0.0,0.0,75,server\base\src\main\java\org\apache\accumulo\server\util\TNonblockingServerSocket.java,4,4,0,8
org.apache.accumulo.server.util.TServerUtils, 0, 0, 0, 0, 0, 0, 0, 1, 0, 0, 0, 0, 0, 1,0.0,0.0,0.0,0.1,0.0,0.0,0.0,0.0,0.0,0.0,0.0,0.0,0.0,226,server\base\src\main\java\org\apache\accumulo\server\util\TServerUtils.java,1,0,1,3
org.apache.accumulo.server.util.TServerUtilsTest, 0, 0, 0, 0, 0, 0, 0, 0, 0, 0, 0, 0, 0, 0,0.0,0.0,0.0,0.0,0.0,0.0,0.0,1.0,0.0,0.0,0.0,0.0,0.0,43,server\base\src\test\java\org\apache\accumulo\server\util\TServerUtilsTest.java,2,6,0,8
org.apache.accumulo.server.util.TablePropUtil, 0, 0, 0, 0, 0, 0, 0, 0, 0, 0, 0, 0, 0, 0,0.0,0.0,0.0,0.3333333333333333,0.0,0.0,0.0,0.0,0.0,0.0,0.0,0.0,0.0,24,server\base\src\main\java\org\apache\accumulo\server\util\TablePropUtil.java,0,1,1,3
org.apache.accumulo.server.util.TabletOperations, 0, 0, 0, 0, 0, 0, 0, 0, 0, 0, 0, 0, 0, 0,0.0,0.0,0.0,0.3333333333333333,0.0,0.0,0.0,0.0,0.0,0.0,0.0,0.0,0.0,51,server\base\src\main\java\org\apache\accumulo\server\util\TabletOperations.java,1,1,1,4
org.apache.accumulo.server.util.TabletServerLocks, 0, 0, 0, 0, 0, 0, 0, 0, 0, 0, 0, 0, 0, 0,0.0,0.0,0.25,0.0,0.0,0.0,0.0,0.0,0.0,0.0,0.0,0.0,0.0,31,server\base\src\main\java\org\apache\accumulo\server\util\TabletServerLocks.java,0,1,1,3
org.apache.accumulo.server.util.ZooZap, 1, 0, 0, 0, 0, 0, 0, 0, 0, 0, 0, 0, 0, 1,0.0,0.0,0.0,0.25,0.0,0.0,0.0,0.0,0.0,0.0,0.0,0.0,0.0,68,server\base\src\main\java\org\apache\accumulo\server\util\ZooZap.java,3,1,9,22
org.apache.accumulo.server.util.time.BaseRelativeTime, 0, 0, 0, 0, 0, 0, 0, 0, 0, 0, 0, 0, 0, 0,0.0,0.0,0.0,0.0,0.0,0.0,0.0,0.0,0.0,0.0,0.0,0.0,0.0,26,server\base\src\main\java\org\apache\accumulo\server\util\time\BaseRelativeTime.java,0,0,0,0
org.apache.accumulo.server.util.time.BaseRelativeTimeTest, 0, 0, 0, 0, 0, 0, 0, 0, 0, 0, 0, 0, 0, 0,0.0,0.0,0.0,0.0,0.0,0.0,0.0,0.0,0.0,0.0,0.0,0.0,0.0,53,server\base\src\test\java\org\apache\accumulo\server\util\time\BaseRelativeTimeTest.java,1,0,3,7
org.apache.accumulo.server.util.time.ProvidesTime, 0, 0, 0, 0, 0, 0, 0, 0, 0, 0, 0, 0, 0, 0,0.0,0.0,0.0,0.0,0.0,0.0,0.0,0.0,0.0,0.0,0.0,0.0,0.0,53,server\base\src\main\java\org\apache\accumulo\server\util\time\ProvidesTime.java,0,0,0,0
org.apache.accumulo.server.util.time.RelativeTime, 0, 0, 0, 0, 0, 0, 0, 0, 0, 0, 0, 0, 0, 0,0.0,0.0,0.0,0.0,0.0,0.0,0.0,0.0,0.0,0.0,0.0,0.0,0.0,15,server\base\src\main\java\org\apache\accumulo\server\util\time\RelativeTime.java,0,0,0,0
org.apache.accumulo.server.util.time.SimpleTimer, 0, 0, 0, 0, 0, 0, 0, 0, 0, 0, 0, 0, 0, 0,0.0,0.0,0.0,0.0,0.0,0.0,0.0,0.5,0.0,0.0,0.0,0.0,0.0,32,server\base\src\main\java\org\apache\accumulo\server\util\time\SimpleTimer.java,0,0,0,0
org.apache.accumulo.server.util.time.SystemTime, 0, 0, 0, 0, 0, 0, 0, 0, 0, 0, 0, 0, 0, 0,0.0,0.0,0.0,0.0,0.0,0.0,0.0,0.0,0.0,0.0,0.0,0.0,0.0,6,server\base\src\main\java\org\apache\accumulo\server\util\time\SystemTime.java,0,0,0,0
org.apache.accumulo.server.watcher.MonitorLog4jWatcher, 0, 0, 0, 0, 0, 0, 0, 0, 0, 0, 0, 0, 0, 0,0.0,0.0,0.0,0.0,0.0,0.0,0.0,0.0,0.0,0.0,0.0,0.0,0.0,94,server\base\src\main\java\org\apache\accumulo\server\watcher\MonitorLog4jWatcher.java,12,3,5,25
org.apache.accumulo.server.watcher.MonitorLog4jWatcherTest, 0, 0, 0, 0, 0, 0, 0, 0, 0, 0, 0, 0, 0, 0,0.0,0.0,0.0,0.0,0.0,0.0,0.0,0.0,0.0,0.0,0.0,0.0,0.0,19,server\base\src\test\java\org\apache\accumulo\server\watcher\MonitorLog4jWatcherTest.java,0,0,0,0
org.apache.accumulo.server.zookeeper.DistributedWorkQueue, 0, 0, 0, 0, 0, 0, 0, 0, 0, 0, 0, 0, 0, 0,0.0,0.0,0.0,0.25,0.0,0.0,0.0,0.0,0.0,0.0,0.0,0.0,0.0,163,server\base\src\main\java\org\apache\accumulo\server\zookeeper\DistributedWorkQueue.java,0,0,0,0
org.apache.accumulo.server.zookeeper.TransactionWatcher, 0, 0, 0, 0, 0, 0, 0, 0, 0, 0, 0, 0, 0, 0,0.0,0.0,0.0,0.0,0.0,0.0,0.0,0.0,0.0,0.0,0.0,0.0,0.0,39,server\base\src\main\java\org\apache\accumulo\server\zookeeper\TransactionWatcher.java,0,0,0,0
org.apache.accumulo.server.zookeeper.ZooCache, 0, 0, 0, 0, 0, 0, 0, 0, 0, 0, 0, 0, 0, 0,0.0,0.0,0.0,0.0,0.0,0.0,0.0,0.0,0.0,0.0,0.0,0.0,0.0,11,server\base\src\main\java\org\apache\accumulo\server\zookeeper\ZooCache.java,0,0,0,0
org.apache.accumulo.server.zookeeper.ZooLock, 0, 0, 0, 0, 0, 0, 0, 0, 0, 0, 0, 0, 0, 0,0.2,0.0,0.0,0.0,0.0,0.0,0.0,0.0,0.0,0.0,0.0,0.0,0.0,11,server\base\src\main\java\org\apache\accumulo\server\zookeeper\ZooLock.java,0,0,0,0
org.apache.accumulo.server.zookeeper.ZooQueueLock, 0, 0, 0, 0, 0, 0, 0, 0, 0, 0, 0, 0, 0, 0,0.0,0.0,0.0,0.5,0.0,0.0,0.0,0.5,0.0,0.0,0.0,0.0,0.0,26,server\base\src\main\java\org\apache\accumulo\server\zookeeper\ZooQueueLock.java,1,1,4,10
org.apache.accumulo.server.zookeeper.ZooReaderWriter, 0, 0, 0, 0, 0, 0, 0, 0, 0, 0, 0, 0, 0, 0,0.07407407407407407,0.0,0.0,0.14814814814814814,0.0,0.0,0.0,0.037037037037037035,0.0,0.0,0.0,0.0,0.0,43,server\base\src\main\java\org\apache\accumulo\server\zookeeper\ZooReaderWriter.java,34,0,4,42
org.apache.accumulo.server.zookeeper.ZooReaderWriterFactory, 0, 0, 0, 0, 0, 0, 0, 0, 0, 0, 0, 0, 0, 0,0.0,0.0,0.0,0.6666666666666666,0.0,0.0,0.0,0.0,0.0,0.0,0.0,0.0,0.0,29,server\base\src\main\java\org\apache\accumulo\server\zookeeper\ZooReaderWriterFactory.java,14,0,3,20
org.apache.accumulo.start.TestMain, 0, 0, 0, 0, 0, 0, 0, 0, 0, 0, 0, 0, 0, 0,0.0,0.0,0.0,0.0,0.0,0.0,0.0,0.0,0.0,0.0,0.0,0.0,0.0,11,start\src\main\java\org\apache\accumulo\start\TestMain.java,0,0,0,0
org.apache.accumulo.start.classloader.vfs.AccumuloReloadingVFSClassLoaderTest, 0, 0, 0, 0, 0, 0, 0, 0, 0, 0, 0, 0, 0, 0,0.0,0.0,0.0,0.0,0.0,0.0,0.0,0.0,0.0,0.0,0.0,0.0,0.0,129,start\src\test\java\org\apache\accumulo\start\classloader\vfs\AccumuloReloadingVFSClassLoaderTest.java,0,1,1,3
org.apache.accumulo.start.classloader.vfs.ContextManagerTest, 0, 0, 0, 0, 0, 0, 0, 0, 0, 0, 0, 0, 0, 0,0.0,0.0,0.0,0.0,0.0,0.0,0.0,0.0,0.0,0.0,0.0,0.0,0.0,101,start\src\test\java\org\apache\accumulo\start\classloader\vfs\ContextManagerTest.java,0,0,0,0
org.apache.accumulo.start.classloader.vfs.MiniDFSUtil, 0, 0, 0, 0, 0, 0, 0, 0, 0, 0, 0, 0, 0, 0,1.0,0.0,0.0,0.0,0.0,0.0,0.0,0.0,0.0,0.0,0.0,0.0,0.0,19,start\src\main\java\org\apache\accumulo\start\classloader\vfs\MiniDFSUtil.java,0,0,0,0
org.apache.accumulo.start.classloader.vfs.PostDelegatingVFSClassLoader, 0, 0, 0, 0, 0, 0, 0, 0, 0, 0, 0, 0, 0, 0,0.0,0.0,0.0,0.0,0.0,0.0,0.0,0.0,0.0,0.0,0.0,0.0,0.0,16,start\src\main\java\org\apache\accumulo\start\classloader\vfs\PostDelegatingVFSClassLoader.java,0,0,0,0
org.apache.accumulo.start.classloader.vfs.ReloadingClassLoader, 0, 0, 0, 0, 0, 0, 0, 0, 0, 0, 0, 0, 0, 0,0.0,0.0,0.0,0.0,0.0,0.0,0.0,0.0,0.0,0.0,0.0,0.0,0.0,16,start\src\main\java\org\apache\accumulo\start\classloader\vfs\ReloadingClassLoader.java,0,0,0,0
org.apache.accumulo.start.classloader.vfs.UniqueFileReplicator, 0, 0, 0, 0, 0, 0, 0, 0, 0, 0, 0, 0, 0, 0,0.0,0.0,0.0,0.0,0.0,0.0,0.0,0.0,0.0,0.0,0.0,0.0,0.0,50,start\src\main\java\org\apache\accumulo\start\classloader\vfs\UniqueFileReplicator.java,0,0,0,0
org.apache.accumulo.start.classloader.vfs.providers.HdfsFileContentInfoFactory, 0, 0, 0, 0, 0, 0, 0, 0, 0, 0, 0, 0, 0, 0,0.0,0.0,0.0,0.0,0.0,0.0,0.0,0.0,0.0,0.0,0.0,0.0,0.0,10,start\src\main\java\org\apache\accumulo\start\classloader\vfs\providers\HdfsFileContentInfoFactory.java,2,0,2,6
org.apache.accumulo.start.classloader.vfs.providers.HdfsFileProvider, 0, 0, 0, 0, 0, 0, 0, 0, 0, 0, 0, 0, 0, 0,0.3333333333333333,0.0,0.0,0.0,0.0,0.0,0.0,0.0,0.0,0.0,0.0,0.0,0.0,35,start\src\main\java\org\apache\accumulo\start\classloader\vfs\providers\HdfsFileProvider.java,14,0,8,30
org.apache.accumulo.start.classloader.vfs.providers.HdfsFileSystem, 0, 0, 0, 0, 0, 0, 0, 0, 0, 0, 0, 0, 0, 0,0.0,0.0,0.0,0.0,0.0,0.0,0.0,0.0,0.0,0.0,0.0,0.0,0.0,90,start\src\main\java\org\apache\accumulo\start\classloader\vfs\providers\HdfsFileSystem.java,22,0,20,62
org.apache.accumulo.start.classloader.vfs.providers.HdfsFileSystemConfigBuilder, 0, 0, 0, 0, 0, 0, 0, 0, 0, 0, 0, 0, 0, 0,0.0,0.0,0.0,0.0,0.0,0.0,0.0,0.0,0.0,0.0,0.0,0.0,0.0,13,start\src\main\java\org\apache\accumulo\start\classloader\vfs\providers\HdfsFileSystemConfigBuilder.java,3,0,3,9
org.apache.accumulo.start.classloader.vfs.providers.HdfsRandomAccessContent, 0, 0, 0, 1, 0, 0, 0, 0, 0, 0, 0, 0, 0, 1,0.0,0.0,0.0,0.0,0.0,0.0,0.0,0.0,0.0,0.0,0.0,0.0,0.0,147,start\src\main\java\org\apache\accumulo\start\classloader\vfs\providers\HdfsRandomAccessContent.java,0,0,0,0
org.apache.accumulo.start.classloader.vfs.providers.VfsClassLoaderTest, 0, 0, 0, 0, 0, 0, 0, 0, 0, 0, 0, 0, 0, 0,1.0,0.0,0.0,0.0,0.0,0.0,0.0,0.0,0.0,0.0,0.0,0.0,0.0,75,start\src\test\java\org\apache\accumulo\start\classloader\vfs\providers\VfsClassLoaderTest.java,0,0,0,0
org.apache.accumulo.test.AccumuloDFSBase, 1, 0, 0, 0, 0, 0, 0, 0, 0, 0, 0, 0, 0, 1,0.0,0.0,0.0,0.0,0.0,0.0,0.0,0.0,0.0,0.0,0.0,0.0,0.0,74,start\src\test\java\org\apache\accumulo\test\AccumuloDFSBase.java,0,0,0,0
org.apache.accumulo.test.BatchWriterIT, 0, 0, 0, 0, 0, 0, 0, 0, 0, 0, 0, 0, 0, 0,0.0,0.0,0.0,0.5,0.0,0.0,0.0,0.5,0.0,0.0,0.0,0.0,0.0,15,test\src\test\java\org\apache\accumulo\test\BatchWriterIT.java,0,5,3,11
org.apache.accumulo.test.BulkImportDirectory, 0, 0, 0, 0, 0, 0, 0, 0, 0, 0, 0, 0, 0, 0,0.0,0.0,0.0,0.5,0.0,0.0,0.0,0.5,0.0,0.0,0.0,0.0,0.0,31,test\src\main\java\org\apache\accumulo\test\BulkImportDirectory.java,1,1,1,4
org.apache.accumulo.test.BulkImportVolumeIT, 0, 0, 0, 0, 0, 0, 0, 0, 0, 0, 0, 0, 0, 0,0.0,0.0,0.5,0.5,0.0,0.0,0.0,0.5,0.0,0.0,0.0,0.0,0.0,32,test\src\test\java\org\apache\accumulo\test\BulkImportVolumeIT.java,1,20,11,43
org.apache.accumulo.test.CleanWalIT, 0, 0, 0, 0, 0, 0, 0, 0, 0, 0, 0, 0, 0, 0,0.0,0.0,0.3333333333333333,0.3333333333333333,0.0,0.0,0.0,0.3333333333333333,0.0,0.0,0.0,0.0,0.0,49,test\src\test\java\org\apache\accumulo\test\CleanWalIT.java,3,40,13,69
org.apache.accumulo.test.CreateRFiles, 0, 0, 0, 0, 0, 0, 0, 0, 0, 0, 0, 0, 0, 0,0.0,0.0,1.0,0.0,0.0,0.0,0.0,0.0,0.0,0.0,0.0,0.0,0.0,47,test\src\main\java\org\apache\accumulo\test\CreateRFiles.java,0,1,1,3
org.apache.accumulo.test.CreateRandomRFile, 0, 0, 0, 0, 0, 0, 0, 0, 0, 0, 0, 0, 0, 0,0.0,0.0,0.0,0.3333333333333333,0.0,0.0,0.0,0.3333333333333333,0.0,0.0,0.0,0.0,0.0,50,test\src\main\java\org\apache\accumulo\test\CreateRandomRFile.java,0,0,0,0
org.apache.accumulo.test.DeleteRowsIT, 0, 0, 0, 0, 0, 0, 0, 0, 0, 0, 0, 0, 0, 0,0.0,0.0,0.0,0.5,0.0,0.0,0.0,0.5,0.0,0.0,0.0,0.0,0.0,13,test\src\test\java\org\apache\accumulo\test\DeleteRowsIT.java,21,0,0,21
org.apache.accumulo.test.FaultyConditionalWriter, 0, 0, 0, 0, 0, 0, 0, 0, 0, 0, 0, 0, 0, 0,0.0,0.0,0.0,0.0,0.0,0.0,0.0,0.0,0.0,0.0,0.0,0.0,0.0,40,test\src\main\java\org\apache\accumulo\test\FaultyConditionalWriter.java,0,0,0,0
org.apache.accumulo.test.MetaConstraintRetryIT, 0, 0, 0, 0, 0, 0, 0, 0, 0, 0, 0, 0, 0, 0,0.0,0.0,0.0,0.25,0.0,0.0,0.0,0.5,0.0,0.0,0.0,0.0,0.0,18,test\src\test\java\org\apache\accumulo\test\MetaConstraintRetryIT.java,2,5,3,13
org.apache.accumulo.test.NullBatchWriter, 0, 0, 0, 0, 0, 0, 0, 0, 0, 0, 0, 0, 0, 0,0.0,0.0,0.0,0.0,0.0,0.0,0.0,0.0,0.0,0.0,0.0,0.0,0.0,27,test\src\main\java\org\apache\accumulo\test\NullBatchWriter.java,0,0,0,0
org.apache.accumulo.test.TableConfigurationUpdateIT, 0, 0, 0, 0, 0, 0, 0, 0, 0, 0, 0, 0, 0, 0,0.0,0.0,0.0,0.5,0.0,0.0,0.0,0.5,0.0,0.0,0.0,0.0,0.0,71,test\src\test\java\org\apache\accumulo\test\TableConfigurationUpdateIT.java,1,6,5,17
org.apache.accumulo.test.WrongTabletTest, 0, 0, 0, 0, 0, 0, 0, 0, 0, 0, 0, 0, 0, 0,0.0,0.0,0.0,0.5,0.0,0.0,0.0,0.0,0.0,0.0,0.0,0.0,0.0,20,test\src\main\java\org\apache\accumulo\test\WrongTabletTest.java,0,0,0,0
org.apache.accumulo.test.continuous.ContinuousIngest, 0, 0, 0, 0, 0, 0, 0, 1, 0, 0, 0, 0, 0, 1,0.0,0.0,0.2222222222222222,0.2222222222222222,0.0,0.0,0.0,0.2222222222222222,0.0,0.0,0.0,0.0,0.0,189,test\src\main\java\org\apache\accumulo\test\continuous\ContinuousIngest.java,0,3,4,11
org.apache.accumulo.test.continuous.ContinuousMoru, 0, 0, 0, 0, 0, 0, 0, 0, 0, 0, 0, 0, 0, 0,0.0,0.0,0.4,0.4,0.0,0.0,0.0,0.2,0.0,0.0,0.0,0.0,0.0,93,test\src\main\java\org\apache\accumulo\test\continuous\ContinuousMoru.java,1,1,2,6
org.apache.accumulo.test.continuous.ContinuousUtil, 0, 0, 0, 0, 0, 0, 0, 0, 0, 0, 0, 0, 0, 0,0.0,0.0,0.0,0.5,0.0,0.0,0.0,0.5,0.0,0.0,0.0,0.0,0.0,9,test\src\main\java\org\apache\accumulo\test\continuous\ContinuousUtil.java,0,0,0,0
org.apache.accumulo.test.continuous.GenSplits, 0, 0, 0, 0, 0, 0, 0, 0, 0, 0, 0, 0, 0, 0,0.0,0.0,0.0,0.0,0.0,0.0,0.0,0.0,0.0,0.0,0.0,0.0,0.0,46,test\src\main\java\org\apache\accumulo\test\continuous\GenSplits.java,0,0,0,0
org.apache.accumulo.test.functional.BadCombiner, 0, 0, 0, 0, 0, 0, 0, 0, 0, 0, 0, 0, 0, 0,0.0,0.0,0.0,0.0,0.0,0.0,0.0,0.0,0.0,0.0,0.0,0.0,0.0,6,test\src\main\java\org\apache\accumulo\test\functional\BadCombiner.java,0,0,0,0
org.apache.accumulo.test.functional.BadIterator, 0, 0, 0, 0, 0, 0, 0, 0, 0, 0, 0, 0, 0, 0,0.0,0.0,0.0,0.0,0.0,0.0,0.0,0.0,0.0,0.0,0.0,0.0,0.0,14,test\src\main\java\org\apache\accumulo\test\functional\BadIterator.java,0,0,0,0
org.apache.accumulo.test.functional.BulkIT, 0, 0, 0, 0, 0, 0, 0, 0, 0, 0, 0, 0, 0, 0,0.0,0.0,0.0,0.25,0.0,0.0,0.0,0.25,0.0,0.0,0.0,0.0,0.0,50,test\src\test\java\org\apache\accumulo\test\functional\BulkIT.java,0,32,5,42
org.apache.accumulo.test.functional.CacheTestClean, 0, 0, 0, 0, 0, 0, 0, 0, 0, 0, 0, 0, 0, 0,0.0,0.0,0.0,0.0,0.0,0.0,0.0,0.0,0.0,0.0,0.0,0.0,0.0,14,test\src\main\java\org\apache\accumulo\test\functional\CacheTestClean.java,0,0,0,0
org.apache.accumulo.test.functional.ConfigurableMacIT, 0, 0, 1, 0, 0, 0, 0, 0, 0, 0, 0, 0, 0, 1,0.0,0.0,0.0,0.0,0.0,0.0,0.0,0.0,0.0,0.0,0.0,0.0,0.0,49,test\src\test\java\org\apache\accumulo\test\functional\ConfigurableMacIT.java,6,61,12,91
org.apache.accumulo.test.functional.CreateManyScannersIT, 0, 0, 0, 0, 0, 0, 0, 0, 0, 0, 0, 0, 0, 0,0.0,0.0,0.0,0.5,0.0,0.0,0.0,0.5,0.0,0.0,0.0,0.0,0.0,15,test\src\test\java\org\apache\accumulo\test\functional\CreateManyScannersIT.java,0,1,1,3
org.apache.accumulo.test.functional.DeleteIT, 0, 0, 0, 0, 0, 0, 0, 0, 0, 0, 0, 0, 0, 0,0.0,0.0,0.5,0.5,0.0,0.0,0.0,0.5,0.0,0.0,0.0,0.0,0.0,24,test\src\test\java\org\apache\accumulo\test\functional\DeleteIT.java,0,14,8,30
org.apache.accumulo.test.functional.FateStarvationIT, 0, 0, 0, 0, 0, 0, 0, 0, 0, 0, 0, 0, 0, 0,0.0,0.0,0.0,0.5,0.0,0.0,0.0,0.5,0.0,0.0,0.0,0.0,0.0,30,test\src\test\java\org\apache\accumulo\test\functional\FateStarvationIT.java,0,1,1,3
org.apache.accumulo.test.functional.MasterAssignmentIT, 0, 0, 0, 0, 0, 0, 0, 0, 0, 0, 0, 0, 0, 0,0.0,0.0,0.0,0.2,0.0,0.0,0.0,0.4,0.0,0.0,0.0,0.0,0.0,47,test\src\test\java\org\apache\accumulo\test\functional\MasterAssignmentIT.java,1,1,2,6
org.apache.accumulo.test.functional.RenameIT, 0, 0, 0, 0, 0, 0, 0, 0, 0, 0, 0, 0, 0, 0,0.0,0.0,0.0,0.5,0.0,0.0,0.0,0.5,0.0,0.0,0.0,0.0,0.0,28,test\src\test\java\org\apache\accumulo\test\functional\RenameIT.java,0,1,1,3
org.apache.accumulo.test.functional.ShutdownIT, 0, 0, 0, 0, 0, 0, 0, 0, 0, 0, 0, 0, 0, 0,0.0,0.0,0.25,0.25,0.0,0.0,0.0,0.25,0.0,0.0,0.0,0.0,0.0,70,test\src\test\java\org\apache\accumulo\test\functional\ShutdownIT.java,0,8,6,20
org.apache.accumulo.test.functional.SimpleMacIT, 0, 0, 0, 0, 0, 0, 0, 0, 0, 0, 0, 0, 0, 0,0.0,0.0,0.0,0.07692307692307693,0.0,0.0,0.0,0.07692307692307693,0.0,0.0,0.0,0.0,0.0,58,test\src\test\java\org\apache\accumulo\test\functional\SimpleMacIT.java,71,0,3,77
org.apache.accumulo.test.functional.SlowConstraint, 0, 0, 0, 0, 0, 0, 0, 0, 0, 0, 0, 0, 0, 0,0.0,0.0,0.0,0.0,0.0,0.0,0.0,0.0,0.0,0.0,0.0,0.0,0.0,11,test\src\main\java\org\apache\accumulo\test\functional\SlowConstraint.java,0,0,0,0
org.apache.accumulo.test.functional.SslIT, 0, 0, 0, 0, 0, 0, 0, 0, 0, 0, 0, 0, 0, 0,0.0,0.0,0.25,0.25,0.0,0.0,0.0,0.25,0.0,0.0,0.0,0.0,0.0,28,test\src\test\java\org\apache\accumulo\test\functional\SslIT.java,0,5,8,21
org.apache.accumulo.test.functional.StartIT, 0, 0, 0, 0, 0, 0, 0, 0, 0, 0, 0, 0, 0, 0,0.0,0.0,1.0,0.0,0.0,0.0,0.0,0.0,0.0,0.0,0.0,0.0,0.0,12,test\src\test\java\org\apache\accumulo\test\functional\StartIT.java,0,3,5,13
org.apache.accumulo.test.functional.TableIT, 0, 0, 0, 0, 0, 0, 0, 0, 0, 0, 0, 0, 0, 0,0.0,0.0,0.0,0.3333333333333333,0.0,0.0,0.0,0.3333333333333333,0.0,0.0,0.0,0.0,0.0,38,test\src\test\java\org\apache\accumulo\test\functional\TableIT.java,0,9,3,15
org.apache.accumulo.test.functional.WriteLotsIT, 0, 0, 0, 0, 0, 0, 0, 0, 0, 0, 0, 0, 0, 0,0.0,0.0,0.0,0.5,0.0,0.0,0.0,0.5,0.0,0.0,0.0,0.0,0.0,43,test\src\test\java\org\apache\accumulo\test\functional\WriteLotsIT.java,0,1,1,3
org.apache.accumulo.test.functional.ZooCacheIT, 0, 0, 0, 0, 0, 0, 0, 0, 0, 0, 0, 0, 0, 0,0.0,0.0,1.0,0.0,0.0,0.0,0.0,0.0,0.0,0.0,0.0,0.0,0.0,38,test\src\test\java\org\apache\accumulo\test\functional\ZooCacheIT.java,0,0,0,0
org.apache.accumulo.test.randomwalk.Fixture, 0, 0, 0, 0, 0, 0, 0, 0, 0, 0, 0, 0, 0, 0,0.0,0.0,0.0,0.0,0.0,0.0,0.0,0.0,0.0,0.0,0.0,0.0,0.0,5,test\src\main\java\org\apache\accumulo\test\randomwalk\Fixture.java,0,0,0,0
org.apache.accumulo.test.randomwalk.FrameworkTest, 0, 0, 0, 0, 0, 0, 0, 0, 0, 0, 0, 0, 0, 0,0.0,0.0,0.0,0.0,0.0,0.0,0.0,0.0,0.0,0.0,0.0,0.0,0.0,22,test\src\test\java\org\apache\accumulo\test\randomwalk\FrameworkTest.java,0,0,0,0
org.apache.accumulo.test.randomwalk.Node, 0, 0, 0, 0, 0, 0, 0, 0, 0, 0, 0, 0, 0, 0,0.0,0.0,0.0,0.0,0.0,0.0,0.0,0.0,0.0,0.0,0.0,0.0,0.0,25,test\src\main\java\org\apache\accumulo\test\randomwalk\Node.java,0,0,0,0
org.apache.accumulo.test.randomwalk.Test, 0, 0, 0, 0, 0, 0, 0, 0, 0, 0, 0, 0, 0, 0,0.020833333333333332,0.0,0.0,0.0,0.0,0.0,0.0,0.020833333333333332,0.0,0.0,0.0,0.0,0.0,6,test\src\main\java\org\apache\accumulo\test\randomwalk\Test.java,0,0,0,0
org.apache.accumulo.test.randomwalk.bulk.BulkMinusOne, 0, 0, 0, 0, 0, 0, 0, 0, 0, 0, 0, 0, 0, 0,0.0,0.0,0.0,0.5,0.0,0.0,0.0,0.0,0.0,0.0,0.0,0.0,0.0,8,test\src\main\java\org\apache\accumulo\test\randomwalk\bulk\BulkMinusOne.java,0,0,3,6
org.apache.accumulo.test.randomwalk.bulk.BulkTest, 0, 0, 0, 0, 0, 0, 0, 0, 0, 0, 0, 0, 0, 0,0.2,0.0,0.0,0.0,0.0,0.0,0.0,0.0,0.0,0.0,0.0,0.0,0.0,16,test\src\main\java\org\apache\accumulo\test\randomwalk\bulk\BulkTest.java,0,0,0,0
org.apache.accumulo.test.randomwalk.bulk.Compact, 0, 0, 0, 0, 0, 0, 0, 0, 0, 0, 0, 0, 0, 0,0.25,0.0,0.0,0.25,0.0,0.0,0.0,0.25,0.0,0.0,0.0,0.0,0.0,10,test\src\main\java\org\apache\accumulo\test\randomwalk\bulk\Compact.java,0,0,1,2
org.apache.accumulo.test.randomwalk.bulk.Merge, 0, 0, 0, 0, 0, 0, 0, 0, 0, 0, 0, 0, 0, 0,0.25,0.0,0.0,0.25,0.0,0.0,0.0,0.25,0.0,0.0,0.0,0.0,0.0,31,test\src\main\java\org\apache\accumulo\test\randomwalk\bulk\Merge.java,0,0,1,2
org.apache.accumulo.test.randomwalk.bulk.Setup, 1, 0, 0, 0, 0, 0, 0, 0, 0, 0, 0, 0, 0, 1,0.0,0.0,0.0,0.125,0.0,0.0,0.0,0.125,0.0,0.0,0.0,0.0,0.0,38,test\src\main\java\org\apache\accumulo\test\randomwalk\bulk\Setup.java,0,0,0,0
org.apache.accumulo.test.randomwalk.concurrent.BatchWrite, 0, 0, 0, 0, 0, 0, 0, 0, 0, 0, 0, 0, 0, 0,0.0,0.0,0.0,0.25,0.0,0.0,0.0,0.25,0.0,0.0,0.0,0.0,0.0,38,test\src\main\java\org\apache\accumulo\test\randomwalk\concurrent\BatchWrite.java,1,1,1,4
org.apache.accumulo.test.randomwalk.concurrent.ChangeAuthorizations, 0, 0, 0, 0, 0, 0, 0, 0, 0, 0, 0, 0, 0, 0,0.0,0.0,0.0,0.5,0.0,0.0,0.0,0.5,0.0,0.0,0.0,0.0,0.0,25,test\src\main\java\org\apache\accumulo\test\randomwalk\concurrent\ChangeAuthorizations.java,1,1,2,6
org.apache.accumulo.test.randomwalk.concurrent.ChangePermissions, 0, 0, 0, 0, 0, 0, 0, 0, 0, 0, 0, 0, 0, 0,0.0,0.0,0.0,0.3333333333333333,0.0,0.0,0.0,0.3333333333333333,0.0,0.0,0.0,0.0,0.0,103,test\src\main\java\org\apache\accumulo\test\randomwalk\concurrent\ChangePermissions.java,1,1,0,2
org.apache.accumulo.test.randomwalk.concurrent.CheckPermission, 0, 0, 0, 0, 0, 0, 0, 0, 0, 0, 0, 0, 0, 0,0.0,0.0,0.0,0.5,0.0,0.0,0.0,0.5,0.0,0.0,0.0,0.0,0.0,31,test\src\main\java\org\apache\accumulo\test\randomwalk\concurrent\CheckPermission.java,0,0,0,0
org.apache.accumulo.test.randomwalk.concurrent.Compact, 0, 0, 0, 0, 0, 0, 0, 0, 0, 0, 0, 0, 0, 0,0.0,0.0,0.0,0.2,0.0,0.0,0.0,0.2,0.0,0.0,0.0,0.0,0.0,20,test\src\main\java\org\apache\accumulo\test\randomwalk\concurrent\Compact.java,0,0,0,0
org.apache.accumulo.test.randomwalk.concurrent.ConcurrentFixture, 0, 0, 0, 0, 0, 0, 0, 0, 0, 0, 0, 0, 0, 0,0.0,0.0,0.0,0.0,0.0,0.0,0.0,0.0,0.0,0.0,0.0,0.0,0.0,27,test\src\main\java\org\apache\accumulo\test\randomwalk\concurrent\ConcurrentFixture.java,0,0,0,0
org.apache.accumulo.test.randomwalk.concurrent.Config, 0, 0, 0, 0, 0, 0, 0, 0, 0, 0, 0, 0, 0, 0,0.0,0.0,0.0,0.3333333333333333,0.0,0.0,0.0,0.3333333333333333,0.0,0.0,0.0,0.0,0.0,177,test\src\main\java\org\apache\accumulo\test\randomwalk\concurrent\Config.java,0,0,0,0
org.apache.accumulo.test.randomwalk.concurrent.CreateNamespace, 0, 0, 0, 0, 0, 0, 0, 0, 0, 0, 0, 0, 0, 0,0.0,0.0,0.0,0.3333333333333333,0.0,0.0,0.0,0.3333333333333333,0.0,0.0,0.0,0.0,0.0,16,test\src\main\java\org\apache\accumulo\test\randomwalk\concurrent\CreateNamespace.java,0,0,0,0
org.apache.accumulo.test.randomwalk.concurrent.CreateTable, 0, 0, 0, 0, 0, 0, 0, 0, 0, 0, 0, 0, 0, 0,0.0,0.0,0.0,0.25,0.0,0.0,0.0,0.25,0.0,0.0,0.0,0.0,0.0,25,test\src\main\java\org\apache\accumulo\test\randomwalk\concurrent\CreateTable.java,0,0,0,0
org.apache.accumulo.test.randomwalk.concurrent.CreateUser, 0, 0, 0, 0, 0, 0, 0, 0, 0, 0, 0, 0, 0, 0,0.0,0.0,0.0,0.5,0.0,0.0,0.0,0.5,0.0,0.0,0.0,0.0,0.0,16,test\src\main\java\org\apache\accumulo\test\randomwalk\concurrent\CreateUser.java,0,0,0,0
org.apache.accumulo.test.randomwalk.concurrent.DeleteNamespace, 0, 0, 0, 0, 0, 0, 0, 0, 0, 0, 0, 0, 0, 0,0.0,0.0,0.0,0.25,0.0,0.0,0.0,0.25,0.0,0.0,0.0,0.0,0.0,18,test\src\main\java\org\apache\accumulo\test\randomwalk\concurrent\DeleteNamespace.java,0,0,0,0
org.apache.accumulo.test.randomwalk.concurrent.DeleteRange, 0, 0, 0, 0, 0, 0, 0, 0, 0, 0, 0, 0, 0, 0,0.0,0.0,0.0,0.2,0.0,0.0,0.0,0.2,0.0,0.0,0.0,0.0,0.0,28,test\src\main\java\org\apache\accumulo\test\randomwalk\concurrent\DeleteRange.java,0,0,0,0
org.apache.accumulo.test.randomwalk.concurrent.DeleteTable, 0, 0, 0, 0, 0, 0, 0, 0, 0, 0, 0, 0, 0, 0,0.0,0.0,0.0,0.3333333333333333,0.0,0.0,0.0,0.3333333333333333,0.0,0.0,0.0,0.0,0.0,16,test\src\main\java\org\apache\accumulo\test\randomwalk\concurrent\DeleteTable.java,0,0,0,0
org.apache.accumulo.test.randomwalk.concurrent.DropUser, 0, 0, 0, 0, 0, 0, 0, 0, 0, 0, 0, 0, 0, 0,0.0,0.0,0.0,0.5,0.0,0.0,0.0,0.5,0.0,0.0,0.0,0.0,0.0,16,test\src\main\java\org\apache\accumulo\test\randomwalk\concurrent\DropUser.java,0,0,0,0
org.apache.accumulo.test.randomwalk.concurrent.ListSplits, 0, 0, 0, 0, 0, 0, 0, 0, 0, 0, 0, 0, 0, 0,0.0,0.0,0.0,0.3333333333333333,0.0,0.0,0.0,0.3333333333333333,0.0,0.0,0.0,0.0,0.0,18,test\src\main\java\org\apache\accumulo\test\randomwalk\concurrent\ListSplits.java,0,0,0,0
org.apache.accumulo.test.randomwalk.concurrent.Merge, 0, 0, 0, 0, 0, 0, 0, 0, 0, 0, 0, 0, 0, 0,0.0,0.0,0.0,0.2,0.0,0.0,0.0,0.2,0.0,0.0,0.0,0.0,0.0,21,test\src\main\java\org\apache\accumulo\test\randomwalk\concurrent\Merge.java,0,0,0,0
org.apache.accumulo.test.randomwalk.concurrent.OfflineTable, 0, 0, 0, 0, 0, 0, 0, 0, 0, 0, 0, 0, 0, 0,0.0,0.0,0.0,0.25,0.0,0.0,0.0,0.25,0.0,0.0,0.0,0.0,0.0,19,test\src\main\java\org\apache\accumulo\test\randomwalk\concurrent\OfflineTable.java,0,0,0,0
org.apache.accumulo.test.randomwalk.concurrent.RenameNamespace, 0, 0, 0, 0, 0, 0, 0, 0, 0, 0, 0, 0, 0, 0,0.0,0.0,0.0,0.25,0.0,0.0,0.0,0.25,0.0,0.0,0.0,0.0,0.0,19,test\src\main\java\org\apache\accumulo\test\randomwalk\concurrent\RenameNamespace.java,0,0,0,0
org.apache.accumulo.test.randomwalk.concurrent.RenameTable, 0, 0, 0, 0, 0, 0, 0, 0, 0, 0, 0, 0, 0, 0,0.0,0.0,0.0,0.2,0.0,0.0,0.0,0.2,0.0,0.0,0.0,0.0,0.0,45,test\src\main\java\org\apache\accumulo\test\randomwalk\concurrent\RenameTable.java,0,0,0,0
org.apache.accumulo.test.randomwalk.concurrent.Shutdown, 0, 0, 0, 0, 0, 0, 0, 0, 0, 0, 0, 0, 0, 0,0.0,0.0,0.0,0.3333333333333333,0.0,0.0,0.0,0.16666666666666666,0.0,0.0,0.0,0.0,0.0,22,test\src\main\java\org\apache\accumulo\test\randomwalk\concurrent\Shutdown.java,0,0,0,0
org.apache.accumulo.test.randomwalk.conditional.Compact, 0, 0, 0, 0, 0, 0, 0, 0, 0, 0, 0, 0, 0, 0,0.0,0.0,0.0,0.3333333333333333,0.0,0.0,0.0,0.3333333333333333,0.0,0.0,0.0,0.0,0.0,15,test\src\main\java\org\apache\accumulo\test\randomwalk\conditional\Compact.java,0,0,0,0
org.apache.accumulo.test.randomwalk.conditional.Flush, 0, 0, 0, 0, 0, 0, 0, 0, 0, 0, 0, 0, 0, 0,0.0,0.0,0.0,0.3333333333333333,0.0,0.0,0.0,0.3333333333333333,0.0,0.0,0.0,0.0,0.0,16,test\src\main\java\org\apache\accumulo\test\randomwalk\conditional\Flush.java,0,0,0,0
org.apache.accumulo.test.randomwalk.conditional.Merge, 0, 0, 0, 0, 0, 0, 0, 0, 0, 0, 0, 0, 0, 0,0.0,0.0,0.0,0.3333333333333333,0.0,0.0,0.0,0.3333333333333333,0.0,0.0,0.0,0.0,0.0,16,test\src\main\java\org\apache\accumulo\test\randomwalk\conditional\Merge.java,0,0,0,0
org.apache.accumulo.test.randomwalk.conditional.TearDown, 0, 0, 0, 0, 0, 0, 0, 0, 0, 0, 0, 0, 0, 0,0.0,0.0,0.0,0.0,0.0,0.0,0.0,0.0,0.0,0.0,0.0,0.0,0.0,7,test\src\main\java\org\apache\accumulo\test\randomwalk\conditional\TearDown.java,0,0,0,0
org.apache.accumulo.test.randomwalk.conditional.Utils, 0, 0, 0, 0, 0, 0, 0, 0, 0, 0, 0, 0, 0, 0,0.0,0.0,0.0,0.0,0.0,0.0,0.0,0.0,0.0,0.0,0.0,0.0,0.0,10,test\src\main\java\org\apache\accumulo\test\randomwalk\conditional\Utils.java,0,0,0,0
org.apache.accumulo.test.randomwalk.image.Commit, 0, 0, 0, 0, 0, 0, 0, 0, 0, 0, 0, 0, 0, 0,0.0,0.0,0.0,0.0,0.0,0.0,0.0,0.0,0.0,0.0,0.0,0.0,0.0,8,test\src\main\java\org\apache\accumulo\test\randomwalk\image\Commit.java,0,0,0,0
org.apache.accumulo.test.randomwalk.multitable.Commit, 0, 0, 0, 0, 0, 0, 0, 0, 0, 0, 0, 0, 0, 0,0.0,0.0,0.0,0.0,0.0,0.0,0.0,0.0,0.0,0.0,0.0,0.0,0.0,11,test\src\main\java\org\apache\accumulo\test\randomwalk\multitable\Commit.java,0,0,0,0
org.apache.accumulo.test.randomwalk.multitable.CopyTable, 0, 0, 0, 0, 0, 0, 0, 0, 0, 0, 0, 0, 0, 0,0.0,0.0,0.0,0.3333333333333333,0.0,0.0,0.0,0.3333333333333333,0.0,0.0,0.0,0.0,0.0,35,test\src\main\java\org\apache\accumulo\test\randomwalk\multitable\CopyTable.java,0,10,0,10
org.apache.accumulo.test.randomwalk.multitable.CopyTool, 0, 0, 0, 0, 0, 0, 0, 0, 0, 0, 0, 0, 0, 0,0.0,0.0,0.0,1.0,0.0,0.0,0.0,0.0,0.0,0.0,0.0,0.0,0.0,38,test\src\main\java\org\apache\accumulo\test\randomwalk\multitable\CopyTool.java,0,0,0,0
org.apache.accumulo.test.randomwalk.multitable.CreateTable, 0, 0, 0, 0, 0, 0, 0, 0, 0, 0, 0, 0, 0, 0,0.0,0.0,0.0,0.3333333333333333,0.0,0.0,0.0,0.3333333333333333,0.0,0.0,0.0,0.0,0.0,20,test\src\main\java\org\apache\accumulo\test\randomwalk\multitable\CreateTable.java,0,11,0,11
org.apache.accumulo.test.randomwalk.multitable.DropTable, 0, 0, 0, 0, 0, 0, 0, 0, 0, 0, 0, 0, 0, 0,0.0,0.0,0.0,0.3333333333333333,0.0,0.0,0.0,0.3333333333333333,0.0,0.0,0.0,0.0,0.0,18,test\src\main\java\org\apache\accumulo\test\randomwalk\multitable\DropTable.java,0,0,0,0
org.apache.accumulo.test.randomwalk.multitable.MultiTableFixture, 0, 0, 0, 0, 0, 0, 0, 0, 0, 0, 0, 0, 0, 0,0.0,0.0,0.0,0.3333333333333333,0.0,0.0,0.0,0.3333333333333333,0.0,0.0,0.0,0.0,0.0,34,test\src\main\java\org\apache\accumulo\test\randomwalk\multitable\MultiTableFixture.java,0,0,0,0
org.apache.accumulo.test.randomwalk.multitable.OfflineTable, 0, 0, 0, 0, 0, 0, 0, 0, 0, 0, 0, 0, 0, 0,0.0,0.0,0.0,0.5,0.0,0.0,0.0,0.5,0.0,0.0,0.0,0.0,0.0,16,test\src\main\java\org\apache\accumulo\test\randomwalk\multitable\OfflineTable.java,0,0,0,0
org.apache.accumulo.test.randomwalk.multitable.Write, 0, 0, 0, 0, 0, 0, 0, 0, 0, 0, 0, 0, 0, 0,0.0,0.0,0.0,0.25,0.0,0.0,0.0,0.0,0.0,0.0,0.0,0.0,0.0,36,test\src\main\java\org\apache\accumulo\test\randomwalk\multitable\Write.java,1,1,1,4
org.apache.accumulo.test.randomwalk.security.AlterTable, 0, 0, 0, 0, 0, 0, 0, 1, 0, 0, 0, 0, 0, 1,0.0,0.0,0.0,0.2,0.0,0.0,0.0,0.2,0.0,0.0,0.0,0.0,0.0,38,test\src\main\java\org\apache\accumulo\test\randomwalk\security\AlterTable.java,0,0,0,0
org.apache.accumulo.test.randomwalk.security.CreateTable, 0, 0, 0, 0, 0, 0, 0, 0, 0, 0, 0, 0, 0, 0,0.0,0.0,0.0,0.25,0.0,0.0,0.0,0.25,0.0,0.0,0.0,0.0,0.0,41,test\src\main\java\org\apache\accumulo\test\randomwalk\security\CreateTable.java,1,0,1,3
org.apache.accumulo.test.randomwalk.security.CreateUser, 0, 0, 0, 0, 0, 0, 0, 0, 0, 0, 0, 0, 0, 0,0.0,0.0,0.0,0.3333333333333333,0.0,0.0,0.0,0.3333333333333333,0.0,0.0,0.0,0.0,0.0,39,test\src\main\java\org\apache\accumulo\test\randomwalk\security\CreateUser.java,1,0,1,3
org.apache.accumulo.test.randomwalk.security.DropUser, 0, 0, 0, 0, 0, 0, 0, 0, 0, 0, 0, 0, 0, 0,0.0,0.0,0.0,0.3333333333333333,0.0,0.0,0.0,0.3333333333333333,0.0,0.0,0.0,0.0,0.0,36,test\src\main\java\org\apache\accumulo\test\randomwalk\security\DropUser.java,0,0,0,0
org.apache.accumulo.test.randomwalk.security.SecurityFixture, 0, 0, 0, 0, 0, 0, 0, 0, 0, 0, 0, 0, 0, 0,0.0,0.0,0.0,0.3333333333333333,0.0,0.0,0.0,0.3333333333333333,0.0,0.0,0.0,0.0,0.0,63,test\src\main\java\org\apache\accumulo\test\randomwalk\security\SecurityFixture.java,0,0,0,0
org.apache.accumulo.test.randomwalk.sequential.Commit, 0, 0, 0, 0, 0, 0, 0, 0, 0, 0, 0, 0, 0, 0,0.0,0.0,0.0,0.0,0.0,0.0,0.0,0.0,0.0,0.0,0.0,0.0,0.0,8,test\src\main\java\org\apache\accumulo\test\randomwalk\sequential\Commit.java,0,0,0,0
org.apache.accumulo.test.randomwalk.sequential.MapRedVerifyTool, 0, 0, 0, 0, 0, 0, 0, 0, 0, 0, 0, 0, 0, 0,0.0,0.0,0.0,1.0,0.0,0.0,0.0,0.0,0.0,0.0,0.0,0.0,0.0,62,test\src\main\java\org\apache\accumulo\test\randomwalk\sequential\MapRedVerifyTool.java,0,0,0,0
org.apache.accumulo.test.randomwalk.sequential.SequentialFixture, 0, 0, 0, 0, 0, 0, 0, 0, 0, 0, 0, 0, 0, 0,0.0,0.0,0.0,0.3333333333333333,0.0,0.0,0.0,0.3333333333333333,0.0,0.0,0.0,0.0,0.0,36,test\src\main\java\org\apache\accumulo\test\randomwalk\sequential\SequentialFixture.java,0,0,0,0
org.apache.accumulo.test.randomwalk.sequential.Write, 0, 0, 0, 0, 0, 0, 0, 0, 0, 0, 0, 0, 0, 0,0.0,0.0,0.0,0.0,0.0,0.0,0.0,0.0,0.0,0.0,0.0,0.0,0.0,15,test\src\main\java\org\apache\accumulo\test\randomwalk\sequential\Write.java,1,1,1,4
org.apache.accumulo.test.randomwalk.shard.Commit, 0, 0, 0, 0, 0, 0, 0, 0, 0, 0, 0, 0, 0, 0,0.0,0.0,0.0,0.0,0.0,0.0,0.0,0.0,0.0,0.0,0.0,0.0,0.0,7,test\src\main\java\org\apache\accumulo\test\randomwalk\shard\Commit.java,0,0,0,0
org.apache.accumulo.test.randomwalk.shard.Flush, 0, 0, 0, 0, 0, 0, 0, 0, 0, 0, 0, 0, 0, 0,0.0,0.0,0.0,0.5,0.0,0.0,0.0,0.5,0.0,0.0,0.0,0.0,0.0,15,test\src\main\java\org\apache\accumulo\test\randomwalk\shard\Flush.java,0,0,0,0
org.apache.accumulo.test.randomwalk.shard.SortTool, 0, 0, 0, 0, 0, 0, 0, 0, 0, 0, 0, 0, 0, 0,0.0,0.0,0.0,0.0,0.0,0.0,0.0,0.0,0.0,0.0,0.0,0.0,0.0,33,test\src\main\java\org\apache\accumulo\test\randomwalk\shard\SortTool.java,0,0,0,0
org.apache.accumulo.test.randomwalk.shard.Split, 0, 0, 0, 0, 0, 0, 0, 0, 0, 0, 0, 0, 0, 0,0.0,0.0,0.0,0.5,0.0,0.0,0.0,0.5,0.0,0.0,0.0,0.0,0.0,11,test\src\main\java\org\apache\accumulo\test\randomwalk\shard\Split.java,0,0,0,0
org.apache.accumulo.test.randomwalk.unit.CreateTable, 0, 0, 0, 0, 0, 0, 0, 0, 0, 0, 0, 0, 0, 0,0.0,0.0,0.0,0.0,0.0,0.0,0.0,0.0,0.0,0.0,0.0,0.0,0.0,4,test\src\main\java\org\apache\accumulo\test\randomwalk\unit\CreateTable.java,0,0,0,0
org.apache.accumulo.test.randomwalk.unit.DeleteTable, 0, 0, 0, 0, 0, 0, 0, 0, 0, 0, 0, 0, 0, 0,0.0,0.0,0.0,0.0,0.0,0.0,0.0,0.0,0.0,0.0,0.0,0.0,0.0,4,test\src\main\java\org\apache\accumulo\test\randomwalk\unit\DeleteTable.java,0,0,0,0
org.apache.accumulo.test.randomwalk.unit.Ingest, 0, 0, 0, 0, 0, 0, 0, 0, 0, 0, 0, 0, 0, 0,0.0,0.0,0.0,0.0,0.0,0.0,0.0,0.0,0.0,0.0,0.0,0.0,0.0,4,test\src\main\java\org\apache\accumulo\test\randomwalk\unit\Ingest.java,0,0,0,0
org.apache.accumulo.test.randomwalk.unit.Scan, 0, 0, 0, 0, 0, 0, 0, 0, 0, 0, 0, 0, 0, 0,0.0,0.0,0.0,0.0,0.0,0.0,0.0,0.0,0.0,0.0,0.0,0.0,0.0,4,test\src\main\java\org\apache\accumulo\test\randomwalk\unit\Scan.java,0,0,0,0
org.apache.accumulo.test.randomwalk.unit.Verify, 0, 0, 0, 0, 0, 0, 0, 0, 0, 0, 0, 0, 0, 0,0.0,0.0,0.0,0.0,0.0,0.0,0.0,0.0,0.0,0.0,0.0,0.0,0.0,4,test\src\main\java\org\apache\accumulo\test\randomwalk\unit\Verify.java,0,0,0,0
org.apache.accumulo.test.scalability.Ingest, 0, 0, 0, 0, 0, 0, 0, 0, 0, 0, 0, 0, 0, 0,0.0,0.0,0.0,0.3333333333333333,0.0,0.0,0.0,0.6666666666666666,0.0,0.0,0.0,0.0,0.0,81,test\src\main\java\org\apache\accumulo\test\scalability\Ingest.java,1,1,1,4
org.apache.accumulo.test.stress.random.DataWriter, 0, 0, 0, 0, 0, 0, 0, 0, 0, 0, 0, 0, 0, 0,0.0,0.0,0.0,0.0,0.0,0.0,0.0,0.5,0.0,0.0,0.0,0.0,0.0,26,test\src\main\java\org\apache\accumulo\test\stress\random\DataWriter.java,0,0,0,0
org.apache.accumulo.test.stress.random.IntArgValidator, 0, 0, 0, 0, 0, 0, 0, 0, 0, 0, 0, 0, 0, 0,0.0,0.0,0.0,0.0,0.0,0.0,0.0,0.0,0.0,0.0,0.0,0.0,0.0,6,test\src\main\java\org\apache\accumulo\test\stress\random\IntArgValidator.java,0,0,0,0
org.apache.accumulo.test.stress.random.RandomByteArrays, 0, 0, 0, 0, 0, 0, 0, 0, 0, 0, 0, 0, 0, 0,0.0,0.0,0.0,0.0,0.0,0.0,0.0,0.3333333333333333,0.0,0.0,0.0,0.0,0.0,9,test\src\main\java\org\apache\accumulo\test\stress\random\RandomByteArrays.java,0,0,0,0
org.apache.accumulo.test.stress.random.RandomMutations, 0, 0, 0, 0, 0, 0, 0, 1, 0, 0, 0, 0, 0, 1,0.0,0.0,0.0,0.0,0.0,0.0,0.0,0.0,0.0,0.0,0.0,0.0,0.0,33,test\src\main\java\org\apache\accumulo\test\stress\random\RandomMutations.java,1,0,2,5
org.apache.accumulo.test.stress.random.RandomWithinRange, 0, 0, 0, 0, 0, 0, 0, 0, 0, 0, 0, 0, 0, 0,0.0,0.0,0.0,0.0,0.0,0.0,0.0,0.3333333333333333,0.0,0.0,0.0,0.0,0.0,26,test\src\main\java\org\apache\accumulo\test\stress\random\RandomWithinRange.java,0,0,0,0
org.apache.accumulo.test.stress.random.Scan, 0, 0, 0, 0, 0, 0, 0, 0, 0, 0, 0, 0, 0, 0,0.0,0.0,0.3333333333333333,0.3333333333333333,0.0,0.0,0.0,0.3333333333333333,0.0,0.0,0.0,0.0,0.0,73,test\src\main\java\org\apache\accumulo\test\stress\random\Scan.java,5,0,5,15
org.apache.accumulo.test.stress.random.ScanOpts, 0, 0, 0, 0, 0, 0, 0, 0, 0, 0, 0, 0, 0, 0,0.0,0.0,0.5,0.0,0.0,0.0,0.0,0.0,0.0,0.0,0.0,0.0,0.0,19,test\src\main\java\org\apache\accumulo\test\stress\random\ScanOpts.java,1,0,1,3
org.apache.accumulo.test.stress.random.Write, 0, 0, 0, 0, 0, 0, 0, 0, 0, 0, 0, 0, 0, 0,0.0,0.0,0.2,0.2,0.0,0.0,0.0,0.2,0.0,0.0,0.0,0.0,0.0,61,test\src\main\java\org\apache\accumulo\test\stress\random\Write.java,20,0,8,36
org.apache.accumulo.test.stress.random.WriteOptions, 0, 0, 0, 1, 0, 0, 0, 0, 0, 0, 0, 0, 0, 1,0.0,0.0,0.5,0.0,0.0,0.0,0.0,0.0,0.0,0.0,0.0,0.0,0.0,111,test\src\main\java\org\apache\accumulo\test\stress\random\WriteOptions.java,6,0,2,10
org.apache.accumulo.trace.instrument.CountSampler, 0, 0, 0, 0, 0, 0, 0, 0, 0, 0, 0, 0, 0, 0,0.0,0.0,0.0,0.0,0.0,0.0,0.0,0.5,0.0,0.0,0.0,0.0,0.0,12,trace\src\main\java\org\apache\accumulo\trace\instrument\CountSampler.java,0,0,0,0
org.apache.accumulo.trace.instrument.CountSamplerTest, 0, 0, 0, 0, 0, 0, 0, 0, 0, 0, 0, 0, 0, 0,0.0,0.0,0.0,0.0,0.0,0.0,0.0,0.0,0.0,0.0,0.0,0.0,0.0,17,trace\src\test\java\org\apache\accumulo\trace\instrument\CountSamplerTest.java,0,0,0,0
org.apache.accumulo.trace.instrument.PerformanceTest, 0, 0, 0, 0, 0, 0, 0, 0, 0, 0, 0, 0, 0, 0,0.0,0.0,0.0,0.0,0.0,0.0,0.0,0.0,0.0,0.0,0.0,0.0,0.0,27,trace\src\test\java\org\apache\accumulo\trace\instrument\PerformanceTest.java,0,0,0,0
org.apache.accumulo.trace.instrument.Sampler, 0, 0, 0, 0, 0, 0, 0, 0, 0, 0, 0, 0, 0, 0,0.0,0.0,0.0,0.0,0.0,0.0,0.0,0.0,0.0,0.0,0.0,0.0,0.0,27,trace\src\main\java\org\apache\accumulo\trace\instrument\Sampler.java,0,0,0,0
org.apache.accumulo.trace.instrument.Trace, 0, 0, 0, 0, 0, 0, 0, 0, 0, 0, 0, 0, 0, 0,0.0,0.0,0.0,0.18181818181818182,0.0,0.0,0.0,0.18181818181818182,0.0,0.0,0.0,0.0,0.0,44,trace\src\main\java\org\apache\accumulo\trace\instrument\Trace.java,0,0,0,0
org.apache.accumulo.trace.instrument.TraceCallable, 0, 0, 0, 0, 0, 0, 0, 0, 0, 0, 0, 0, 0, 0,0.0,0.0,0.0,0.5,0.0,0.0,0.0,0.0,0.0,0.0,0.0,0.0,0.0,24,trace\src\main\java\org\apache\accumulo\trace\instrument\TraceCallable.java,0,0,0,0
org.apache.accumulo.trace.instrument.TraceExecutorService, 0, 0, 0, 1, 0, 0, 0, 0, 0, 0, 0, 0, 0, 1,0.0,0.0,0.0,0.0,0.0,0.0,0.0,0.0,0.0,0.0,0.0,0.0,0.0,66,trace\src\main\java\org\apache\accumulo\trace\instrument\TraceExecutorService.java,0,0,0,0
org.apache.accumulo.trace.instrument.TraceProxy, 0, 0, 0, 0, 0, 0, 0, 0, 0, 0, 0, 0, 0, 0,0.0,0.0,0.0,0.0,0.0,0.0,0.0,0.0,0.0,0.0,0.0,0.0,0.0,41,trace\src\main\java\org\apache\accumulo\trace\instrument\TraceProxy.java,0,0,0,0
org.apache.accumulo.trace.instrument.TraceRunnable, 0, 0, 0, 0, 0, 0, 0, 0, 0, 0, 0, 0, 0, 0,0.0,0.0,0.0,0.3333333333333333,0.0,0.0,0.0,0.0,0.0,0.0,0.0,0.0,0.0,36,trace\src\main\java\org\apache\accumulo\trace\instrument\TraceRunnable.java,0,0,0,0
org.apache.accumulo.trace.instrument.Tracer, 0, 0, 0, 1, 0, 0, 0, 0, 0, 0, 0, 0, 0, 1,0.0,0.0,0.0,0.0,0.0,0.0,0.0,0.1111111111111111,0.0,0.0,0.0,0.0,0.0,91,trace\src\main\java\org\apache\accumulo\trace\instrument\Tracer.java,0,0,0,0
org.apache.accumulo.trace.instrument.impl.RootMilliSpan, 0, 0, 0, 0, 0, 0, 0, 0, 0, 0, 0, 0, 0, 0,0.0,0.0,0.0,1.0,0.0,0.0,0.0,0.0,0.0,0.0,0.0,0.0,0.0,16,trace\src\main\java\org\apache\accumulo\trace\instrument\impl\RootMilliSpan.java,0,0,0,0
org.apache.accumulo.trace.instrument.thrift.RpcClientInvocationHandler, 0, 0, 0, 0, 0, 0, 0, 0, 0, 0, 0, 0, 0, 0,0.0,0.0,0.0,0.3333333333333333,0.0,0.0,0.0,0.0,0.0,0.0,0.0,0.0,0.0,24,trace\src\main\java\org\apache\accumulo\trace\instrument\thrift\RpcClientInvocationHandler.java,0,0,0,0
org.apache.accumulo.trace.instrument.thrift.RpcServerInvocationHandler, 0, 0, 0, 0, 0, 0, 0, 0, 0, 0, 0, 0, 0, 0,0.0,0.0,0.0,0.0,0.0,0.0,0.0,0.0,0.0,0.0,0.0,0.0,0.0,24,trace\src\main\java\org\apache\accumulo\trace\instrument\thrift\RpcServerInvocationHandler.java,0,0,0,0
org.apache.accumulo.trace.instrument.thrift.TraceWrap, 0, 0, 0, 0, 0, 0, 0, 0, 0, 0, 0, 0, 0, 0,0.0,0.0,0.0,0.0,0.0,0.0,0.0,0.0,0.0,0.0,0.0,0.0,0.0,15,trace\src\main\java\org\apache\accumulo\trace\instrument\thrift\TraceWrap.java,0,0,0,0
org.apache.accumulo.tserver.BulkFailedCopyProcessor, 0, 0, 0, 0, 0, 0, 0, 0, 0, 0, 0, 0, 0, 0,0.0,0.0,0.0,0.6666666666666666,0.0,0.0,0.0,0.3333333333333333,0.0,0.0,0.0,0.0,0.0,31,server\tserver\src\main\java\org\apache\accumulo\tserver\BulkFailedCopyProcessor.java,1,1,1,4
org.apache.accumulo.tserver.CompactionStats, 0, 0, 0, 0, 0, 0, 0, 0, 0, 0, 0, 0, 0, 0,0.0,0.0,0.0,0.0,0.0,0.0,0.0,0.0,0.0,0.0,0.0,0.0,0.0,32,server\tserver\src\main\java\org\apache\accumulo\tserver\CompactionStats.java,0,0,0,0
org.apache.accumulo.tserver.EndOfTableException, 0, 0, 0, 0, 0, 0, 0, 0, 0, 0, 0, 0, 0, 0,0.0,0.0,0.0,0.0,0.0,0.0,0.0,0.0,0.0,0.0,0.0,0.0,0.0,3,server\tserver\src\main\java\org\apache\accumulo\tserver\EndOfTableException.java,0,0,0,0
org.apache.accumulo.tserver.HoldTimeoutException, 0, 0, 0, 0, 0, 0, 0, 0, 0, 0, 0, 0, 0, 0,0.0,0.0,0.0,0.0,0.0,0.0,0.0,0.0,0.0,0.0,0.0,0.0,0.0,6,server\tserver\src\main\java\org\apache\accumulo\tserver\HoldTimeoutException.java,0,0,0,0
org.apache.accumulo.tserver.MemKey, 0, 0, 0, 0, 0, 0, 0, 1, 0, 0, 0, 0, 0, 1,0.0,0.0,0.0,0.0,0.0,0.0,0.0,0.0,0.0,0.0,0.0,0.0,0.0,40,server\tserver\src\main\java\org\apache\accumulo\tserver\MemKey.java,0,0,0,0
org.apache.accumulo.tserver.MemValue, 0, 0, 0, 0, 0, 0, 0, 0, 0, 0, 0, 0, 0, 0,0.0,0.0,0.0,1.0,0.0,0.0,0.0,0.0,0.0,0.0,0.0,0.0,0.0,49,server\tserver\src\main\java\org\apache\accumulo\tserver\MemValue.java,0,0,0,0
org.apache.accumulo.tserver.NativeMap, 0, 0, 0, 1, 0, 0, 0, 1, 0, 0, 0, 0, 0, 2,0.0,0.0,0.0,0.5,0.0,0.0,0.0,0.0,0.0,0.0,0.0,0.0,0.0,535,server\tserver\src\main\java\org\apache\accumulo\tserver\NativeMap.java,0,1,0,1
org.apache.accumulo.tserver.Rate, 0, 0, 0, 0, 0, 0, 0, 0, 0, 0, 0, 0, 0, 0,0.0,0.0,0.0,0.0,0.0,0.0,0.0,0.0,0.0,0.0,0.0,0.0,0.0,32,server\tserver\src\main\java\org\apache\accumulo\tserver\Rate.java,0,0,0,0
org.apache.accumulo.tserver.RootFiles, 0, 0, 0, 0, 0, 0, 0, 1, 0, 0, 0, 0, 0, 1,0.0,0.0,0.0,0.0,0.0,0.0,0.0,1.0,0.0,0.0,0.0,1.0,0.0,67,server\tserver\src\main\java\org\apache\accumulo\tserver\RootFiles.java,0,0,1,2
org.apache.accumulo.tserver.RootFilesTest, 0, 0, 1, 0, 0, 0, 0, 0, 0, 0, 0, 0, 0, 1,0.0,0.0,0.0,0.0,0.0,0.0,0.0,0.0,0.0,0.0,0.0,0.0,0.0,84,server\tserver\src\test\java\org\apache\accumulo\tserver\RootFilesTest.java,0,0,0,0
org.apache.accumulo.tserver.TLevel, 0, 0, 0, 0, 0, 0, 0, 0, 0, 0, 0, 0, 0, 0,0.0,0.0,0.0,0.0,0.0,0.0,0.0,0.0,0.0,0.0,0.0,0.0,0.0,12,server\tserver\src\main\java\org\apache\accumulo\tserver\TLevel.java,0,0,0,0
org.apache.accumulo.tserver.TabletMutations, 0, 0, 0, 0, 0, 0, 0, 0, 0, 0, 0, 0, 0, 0,0.0,0.0,0.0,0.0,0.0,0.0,0.0,0.0,0.0,0.0,0.0,0.0,0.0,19,server\tserver\src\main\java\org\apache\accumulo\tserver\TabletMutations.java,0,0,0,0
org.apache.accumulo.tserver.TabletServerConstants, 0, 0, 0, 0, 0, 0, 0, 0, 0, 0, 0, 0, 0, 0,0.0,0.0,0.0,0.0,0.0,0.0,0.0,0.0,0.0,0.0,0.0,0.0,0.0,9,server\tserver\src\main\java\org\apache\accumulo\tserver\TabletServerConstants.java,0,0,0,0
org.apache.accumulo.tserver.TabletStatsKeeper, 0, 0, 0, 0, 0, 0, 0, 1, 0, 0, 0, 0, 0, 1,0.0,0.0,0.0,0.0,0.0,0.0,0.0,0.0,0.0,0.0,0.0,0.0,0.0,74,server\tserver\src\main\java\org\apache\accumulo\tserver\TabletStatsKeeper.java,0,0,0,0
org.apache.accumulo.tserver.TooManyFilesException, 0, 0, 0, 0, 0, 0, 0, 0, 0, 0, 0, 0, 0, 0,0.0,0.0,0.0,0.0,0.0,0.0,0.0,0.0,0.0,0.0,0.0,0.0,0.0,6,server\tserver\src\main\java\org\apache\accumulo\tserver\TooManyFilesException.java,0,0,0,0
org.apache.accumulo.tserver.compaction.WriteParameters, 0, 0, 0, 1, 0, 0, 0, 0, 0, 0, 0, 0, 0, 1,0.0,0.0,0.0,0.0,0.0,0.0,0.0,0.0,0.0,0.0,0.0,0.0,0.0,37,server\tserver\src\main\java\org\apache\accumulo\tserver\compaction\WriteParameters.java,0,5,0,5
org.apache.accumulo.tserver.constraints.SystemConstraint, 0, 0, 0, 0, 0, 0, 0, 0, 0, 0, 0, 0, 0, 0,0.0,0.0,0.0,0.0,0.0,0.0,0.0,0.0,0.0,0.0,0.0,0.0,0.0,1,server\tserver\src\main\java\org\apache\accumulo\tserver\constraints\SystemConstraint.java,0,0,0,0
org.apache.accumulo.tserver.constraints.UnsatisfiableConstraint, 0, 0, 0, 0, 0, 0, 0, 0, 0, 0, 0, 0, 0, 0,0.0,0.0,0.0,0.0,0.0,0.0,0.0,0.0,0.0,0.0,0.0,0.0,0.0,14,server\tserver\src\main\java\org\apache\accumulo\tserver\constraints\UnsatisfiableConstraint.java,0,0,0,0
org.apache.accumulo.tserver.data.ServerConditionalMutation, 0, 0, 0, 0, 0, 0, 0, 0, 0, 0, 0, 0, 0, 0,0.0,0.0,0.0,0.0,0.0,0.0,0.0,1.0,0.0,0.0,0.0,0.0,0.0,22,server\tserver\src\main\java\org\apache\accumulo\tserver\data\ServerConditionalMutation.java,0,0,0,0
org.apache.accumulo.tserver.log.LocalWALRecoveryTest, 0, 0, 1, 0, 0, 0, 0, 0, 0, 0, 0, 0, 0, 1,0.0,0.0,1.0,1.0,0.0,0.0,0.0,0.0,0.0,0.0,0.0,0.0,0.0,42,server\tserver\src\test\java\org\apache\accumulo\tserver\log\LocalWALRecoveryTest.java,0,0,0,0
org.apache.accumulo.tserver.log.MultiReader, 0, 0, 0, 0, 0, 0, 0, 0, 0, 0, 0, 0, 0, 0,0.0,0.0,0.0,0.0,0.0,0.0,0.0,0.5,0.0,0.0,0.0,0.0,0.0,110,server\tserver\src\main\java\org\apache\accumulo\tserver\log\MultiReader.java,0,2,2,6
org.apache.accumulo.tserver.log.MultiReaderTest, 0, 0, 0, 0, 0, 0, 0, 0, 0, 0, 0, 0, 0, 0,0.0,0.0,0.0,0.0,0.0,0.0,0.0,0.0,0.0,0.0,0.0,0.0,0.0,95,server\tserver\src\test\java\org\apache\accumulo\tserver\log\MultiReaderTest.java,0,0,0,0
org.apache.accumulo.tserver.log.MutationReceiver, 0, 0, 0, 0, 0, 0, 0, 0, 0, 0, 0, 0, 0, 0,0.0,0.0,0.0,0.0,0.0,0.0,0.0,0.0,0.0,0.0,0.0,0.0,0.0,95,server\tserver\src\main\java\org\apache\accumulo\tserver\log\MutationReceiver.java,0,0,0,0
org.apache.accumulo.tserver.log.SortedLogRecovery, 0, 0, 0, 0, 0, 0, 0, 1, 0, 0, 0, 0, 0, 1,0.0,0.0,0.0,0.0,0.0,0.0,0.0,0.0,0.0,0.0,0.0,0.0,0.0,177,server\tserver\src\main\java\org\apache\accumulo\tserver\log\SortedLogRecovery.java,0,5,3,11
org.apache.accumulo.tserver.log.TestUpgradePathForWALogs, 0, 0, 1, 0, 0, 0, 0, 0, 0, 0, 0, 0, 0, 1,0.0,0.0,0.0,1.0,0.0,0.0,0.0,0.0,0.0,0.0,0.0,0.0,0.0,75,server\tserver\src\test\java\org\apache\accumulo\tserver\log\TestUpgradePathForWALogs.java,0,1,1,3
org.apache.accumulo.tserver.logger.LogFileKey, 0, 0, 1, 1, 0, 0, 0, 0, 0, 0, 0, 0, 0, 2,0.0,0.0,0.3333333333333333,0.0,0.0,0.0,0.0,0.3333333333333333,0.0,0.0,0.0,0.0,0.0,150,server\tserver\src\main\java\org\apache\accumulo\tserver\logger\LogFileKey.java,0,0,0,0
org.apache.accumulo.tserver.logger.LogFileTest, 0, 0, 0, 0, 0, 0, 0, 1, 0, 0, 0, 0, 0, 1,0.0,0.0,0.5,0.5,0.0,0.0,0.0,0.5,0.0,0.0,0.0,0.0,0.0,76,server\tserver\src\test\java\org\apache\accumulo\tserver\logger\LogFileTest.java,3,0,0,3
org.apache.accumulo.tserver.mastermessage.MasterMessage, 0, 0, 0, 0, 0, 0, 0, 0, 0, 0, 0, 0, 0, 0,0.0,0.0,0.0,0.0,0.0,0.0,0.0,0.0,0.0,0.0,0.0,0.0,0.0,76,server\tserver\src\main\java\org\apache\accumulo\tserver\mastermessage\MasterMessage.java,0,0,0,0
org.apache.accumulo.tserver.mastermessage.TabletStatusMessage, 0, 0, 0, 0, 0, 0, 0, 0, 0, 0, 0, 0, 0, 0,0.0,0.0,0.0,1.0,0.0,0.0,0.0,0.0,0.0,0.0,0.0,0.0,0.0,11,server\tserver\src\main\java\org\apache\accumulo\tserver\mastermessage\TabletStatusMessage.java,2,2,0,4
org.apache.accumulo.tserver.metrics.TabletServerMBean, 0, 0, 0, 0, 0, 0, 0, 0, 0, 0, 0, 0, 0, 0,0.0,0.0,0.0,0.0,0.0,0.0,0.0,0.0,0.0,0.0,0.0,0.0,0.0,11,server\tserver\src\main\java\org\apache\accumulo\tserver\metrics\TabletServerMBean.java,0,0,0,0
org.apache.accumulo.tserver.metrics.TabletServerMinCMetrics, 0, 0, 0, 0, 0, 0, 0, 0, 0, 0, 0, 0, 0, 0,0.0,0.0,0.0,0.0,0.0,0.0,0.0,0.0,0.0,0.0,0.0,0.0,0.0,50,server\tserver\src\main\java\org\apache\accumulo\tserver\metrics\TabletServerMinCMetrics.java,0,0,0,0
org.apache.accumulo.tserver.metrics.TabletServerMinCMetricsMBean, 0, 0, 0, 0, 0, 0, 0, 0, 0, 0, 0, 0, 0, 0,0.0,0.0,0.0,0.0,0.0,0.0,0.0,0.0,0.0,0.0,0.0,0.0,0.0,50,server\tserver\src\main\java\org\apache\accumulo\tserver\metrics\TabletServerMinCMetricsMBean.java,0,0,0,0
org.apache.accumulo.tserver.metrics.TabletServerScanMetrics, 1, 0, 0, 0, 0, 0, 0, 0, 0, 0, 0, 0, 0, 1,0.0,0.0,0.0,0.0,0.0,0.0,0.0,0.0,0.0,0.0,0.0,0.0,0.0,50,server\tserver\src\main\java\org\apache\accumulo\tserver\metrics\TabletServerScanMetrics.java,0,0,0,0
org.apache.accumulo.tserver.metrics.TabletServerScanMetricsMBean, 0, 0, 0, 0, 0, 0, 0, 0, 0, 0, 0, 0, 0, 0,0.0,0.0,0.0,0.0,0.0,0.0,0.0,0.0,0.0,0.0,0.0,0.0,0.0,50,server\tserver\src\main\java\org\apache\accumulo\tserver\metrics\TabletServerScanMetricsMBean.java,0,0,0,0
org.apache.accumulo.tserver.metrics.TabletServerUpdateMetrics, 0, 0, 0, 1, 0, 0, 0, 0, 0, 0, 0, 0, 0, 1,0.0,0.0,0.0,0.0,0.0,0.0,0.0,0.0,0.0,0.0,0.0,0.0,0.0,86,server\tserver\src\main\java\org\apache\accumulo\tserver\metrics\TabletServerUpdateMetrics.java,0,0,0,0
org.apache.accumulo.tserver.metrics.TabletServerUpdateMetricsMBean, 0, 0, 0, 0, 0, 0, 0, 0, 0, 0, 0, 0, 0, 0,0.0,0.0,0.0,0.0,0.0,0.0,0.0,0.0,0.0,0.0,0.0,0.0,0.0,86,server\tserver\src\main\java\org\apache\accumulo\tserver\metrics\TabletServerUpdateMetricsMBean.java,0,0,0,0
test.Test, 0, 0, 0, 0, 0, 0, 0, 0, 0, 0, 0, 0, 0, 0,0.0,0.0,0.0,0.0,0.0,0.0,0.0,0.0,0.0,0.0,0.0,0.0,0.0,86,start\src\test\java\test\Test.java,0,0,0,0
,0.0,0.0,0.0,0.0,0.0,0.0,0.0,0.0,0.0,0.0,0.0,0.0,0.0,86,core\src\main\java\org\apache\accumulo\core\bloomfilter\BloomFilter.java,0,0,0,0
