ClassName,AntiSingleton,Blob,ClassDataShouldBePrivate,ComplexClass,LargeClass,LazyClass,LongMethod,LongParameterList,MessageChains,RefusedParentBequest,SpaghettiCode,SpeculativeGenerality,SwissArmyKnife,NumOfAPs,AntiSingleton,Blob,ClassDataShouldBePrivate,ComplexClass,LargeClass,LazyClass,LongMethod,LongParameterList,MessageChains,RefusedParentBequest,SpaghettiCode,SpeculativeGenerality,SwissArmyKnife,LOC,name,deleted,added,changed,all
kafka.bridge.examples.TextPublisher, 0, 0, 0, 0, 0, 0, 0, 0, 0, 0, 0, 0, 0, 0,0.0,0.0,0.0,0.0,0.0,0.0,0.0,0.0,0.0,0.0,0.0,0.0,0.0,29,contrib\hadoop-producer\src\main\java\kafka\bridge\examples\TextPublisher.java,0,0,0,0
kafka.bridge.hadoop.KafkaRecordWriter, 0, 0, 0, 0, 0, 0, 0, 0, 0, 0, 0, 0, 0, 0,0.0,0.0,0.0,0.0,0.0,0.0,0.0,0.0,0.0,0.0,0.0,0.0,0.0,48,contrib\hadoop-producer\src\main\java\kafka\bridge\hadoop\KafkaRecordWriter.java,0,0,0,0
kafka.bridge.pig.AvroKafkaStorage, 0, 0, 0, 0, 0, 0, 0, 0, 0, 0, 0, 0, 0, 0,0.0,0.0,0.0,0.0,0.0,0.0,0.0,0.0,0.0,0.0,0.0,0.0,0.0,68,contrib\hadoop-producer\src\main\java\kafka\bridge\pig\AvroKafkaStorage.java,0,0,0,0
kafka.etl.KafkaETLJob, 0, 0, 0, 0, 0, 0, 0, 1, 0, 0, 0, 0, 0, 1,0.0,0.0,0.0,0.0,0.0,0.0,0.0,0.0,0.0,0.0,0.0,0.0,0.0,103,contrib\hadoop-consumer\src\main\java\kafka\etl\KafkaETLJob.java,0,0,0,0
kafka.etl.KafkaETLKey, 0, 0, 0, 0, 0, 0, 0, 0, 0, 0, 0, 0, 0, 0,0.0,0.0,0.0,0.0,0.0,0.0,0.0,0.5,0.0,0.0,0.0,0.0,0.0,64,contrib\hadoop-consumer\src\main\java\kafka\etl\KafkaETLKey.java,0,0,0,0
kafka.etl.KafkaETLRecordReader, 0, 0, 0, 0, 0, 0, 0, 0, 0, 0, 0, 0, 0, 0,0.0,0.0,0.0,0.0,0.0,0.0,0.0,0.0,0.0,0.0,0.0,0.0,0.0,116,contrib\hadoop-consumer\src\main\java\kafka\etl\KafkaETLRecordReader.java,0,0,0,0
kafka.etl.UndefinedPropertyException, 0, 0, 0, 0, 0, 0, 0, 0, 0, 0, 0, 0, 0, 0,0.0,0.0,0.0,0.0,0.0,0.0,0.0,0.0,0.0,0.0,0.0,0.0,0.0,6,contrib\hadoop-consumer\src\main\java\kafka\etl\UndefinedPropertyException.java,0,0,0,0
kafka.etl.impl.SimpleKafkaETLJob, 0, 0, 0, 0, 0, 0, 0, 0, 0, 0, 0, 0, 0, 0,0.0,0.0,0.0,0.0,0.0,0.0,0.0,1.0,0.0,0.0,0.0,0.0,0.0,47,contrib\hadoop-consumer\src\main\java\kafka\etl\impl\SimpleKafkaETLJob.java,0,0,0,0
kafka.etl.impl.SimpleKafkaETLMapper, 0, 0, 0, 0, 0, 0, 0, 1, 0, 0, 0, 0, 0, 1,0.0,0.0,0.0,0.0,0.0,0.0,0.0,0.0,0.0,0.0,0.0,0.0,0.0,33,contrib\hadoop-consumer\src\main\java\kafka\etl\impl\SimpleKafkaETLMapper.java,0,0,0,0
kafka.examples.KafkaConsumerProducerDemo, 0, 0, 0, 0, 0, 0, 0, 0, 0, 0, 0, 0, 0, 0,0.0,0.0,0.0,0.0,0.0,0.0,0.0,0.0,0.0,0.0,0.0,0.0,0.0,10,examples\src\main\java\kafka\examples\KafkaConsumerProducerDemo.java,0,0,0,0
kafka.examples.KafkaProperties, 0, 0, 0, 0, 0, 0, 0, 0, 0, 0, 0, 0, 0, 0,0.0,0.0,0.0,0.0,0.0,0.0,0.0,0.0,0.0,0.0,0.0,0.0,0.0,10,examples\src\main\java\kafka\examples\KafkaProperties.java,0,0,0,0
kafka.utils.Crc32, 0, 0, 0, 0, 0, 0, 0, 0, 0, 0, 0, 0, 0, 0,0.0,0.0,0.0,0.0,0.0,0.0,0.0,0.0,0.0,0.0,0.0,0.0,0.0,571,core\src\main\scala\kafka\utils\Crc32.java,0,0,0,0
org.apache.kafka.clients.ClientRequest, 0, 0, 0, 0, 0, 0, 0, 1, 0, 0, 0, 0, 0, 1,0.0,0.0,0.0,0.25,0.0,0.0,0.0,0.5,0.0,0.0,0.0,0.0,0.0,27,clients\src\main\java\org\apache\kafka\clients\ClientRequest.java,0,0,0,0
org.apache.kafka.clients.ClientResponse, 0, 0, 0, 0, 0, 0, 0, 1, 0, 0, 0, 0, 0, 1,0.0,0.0,0.0,0.3333333333333333,0.0,0.0,0.0,0.6666666666666666,0.0,0.0,0.0,0.0,0.0,42,clients\src\main\java\org\apache\kafka\clients\ClientResponse.java,0,0,0,0
org.apache.kafka.clients.KafkaClient, 0, 0, 0, 0, 0, 0, 0, 0, 0, 0, 0, 0, 0, 0,0.0,0.0,0.0,0.0,0.0,0.0,0.0,0.0,0.0,0.0,0.0,0.0,0.0,42,clients\src\main\java\org\apache\kafka\clients\KafkaClient.java,0,0,0,0
org.apache.kafka.clients.MockClient, 0, 0, 0, 0, 0, 0, 0, 0, 0, 0, 0, 0, 0, 0,0.0,0.0,0.0,0.0,0.0,0.0,0.0,0.6,0.0,0.0,0.0,0.0,0.0,67,clients\src\test\java\org\apache\kafka\clients\MockClient.java,0,0,0,0
org.apache.kafka.clients.NetworkClient, 0, 0, 0, 1, 0, 0, 0, 1, 0, 0, 0, 0, 0, 2,0.0,0.0,0.0,0.0,0.0,0.0,0.0,0.2727272727272727,0.0,0.0,0.0,0.0,0.0,218,clients\src\main\java\org\apache\kafka\clients\NetworkClient.java,0,2,2,6
org.apache.kafka.clients.NodeConnectionState, 0, 0, 0, 0, 0, 0, 0, 0, 0, 0, 0, 0, 0, 0,0.0,0.0,0.0,0.0,0.0,0.0,0.0,0.0,0.0,0.0,0.0,0.0,0.0,10,clients\src\main\java\org\apache\kafka\clients\NodeConnectionState.java,0,0,0,0
org.apache.kafka.clients.consumer.ConsumerRecord, 0, 0, 0, 0, 0, 0, 0, 1, 0, 0, 0, 0, 0, 1,0.0,0.0,0.0,0.0,0.0,0.0,0.0,0.0,0.0,0.0,0.0,0.0,0.0,52,clients\src\main\java\org\apache\kafka\clients\consumer\ConsumerRecord.java,0,0,0,0
org.apache.kafka.clients.producer.BufferExhaustedException, 0, 0, 0, 0, 0, 0, 0, 0, 0, 0, 0, 0, 0, 0,0.0,0.0,0.0,0.0,0.0,0.0,0.0,0.0,0.0,0.0,0.0,0.0,0.0,6,clients\src\main\java\org\apache\kafka\clients\producer\BufferExhaustedException.java,0,0,0,0
org.apache.kafka.clients.producer.Callback, 0, 0, 0, 0, 0, 0, 0, 0, 0, 0, 0, 0, 0, 0,0.0,0.0,0.0,0.0,0.0,0.0,0.0,0.0,0.0,0.0,0.0,0.0,0.0,6,clients\src\main\java\org\apache\kafka\clients\producer\Callback.java,0,0,0,0
org.apache.kafka.clients.producer.MetadataTest, 0, 0, 0, 0, 0, 0, 0, 0, 0, 0, 0, 0, 0, 0,0.0,0.0,0.0,0.0,0.0,0.0,0.0,0.0,0.0,0.0,0.0,0.0,0.0,40,clients\src\test\java\org\apache\kafka\clients\producer\MetadataTest.java,0,0,0,0
org.apache.kafka.clients.producer.MockProducerTest, 0, 0, 0, 0, 0, 0, 0, 0, 0, 0, 0, 0, 0, 0,0.0,0.0,0.0,0.0,0.0,0.0,0.0,1.0,0.0,0.0,0.0,0.0,0.0,46,clients\src\test\java\org\apache\kafka\clients\producer\MockProducerTest.java,0,0,0,0
org.apache.kafka.clients.producer.PartitionerTest, 0, 0, 0, 0, 0, 0, 0, 0, 0, 0, 0, 0, 0, 0,0.0,0.0,0.0,0.0,0.0,0.0,0.0,0.3333333333333333,0.0,0.0,0.0,0.0,0.0,43,clients\src\test\java\org\apache\kafka\clients\producer\PartitionerTest.java,8,7,6,27
org.apache.kafka.clients.producer.ProducerRecord, 0, 0, 0, 0, 0, 0, 0, 1, 0, 0, 0, 0, 0, 1,0.0,0.0,0.0,0.0,0.0,0.0,0.0,0.0,0.0,0.0,0.0,0.0,0.0,38,clients\src\main\java\org\apache\kafka\clients\producer\ProducerRecord.java,0,0,0,0
org.apache.kafka.clients.producer.RecordMetadata, 0, 0, 0, 0, 0, 0, 0, 0, 0, 0, 0, 0, 0, 0,0.0,0.0,0.0,0.0,0.0,0.0,0.0,0.25,0.0,0.0,0.0,0.0,0.0,21,clients\src\main\java\org\apache\kafka\clients\producer\RecordMetadata.java,0,0,0,0
org.apache.kafka.clients.producer.RecordSendTest, 0, 0, 0, 0, 0, 0, 0, 0, 0, 0, 0, 0, 0, 0,0.0,0.0,0.0,0.0,0.0,0.0,0.0,0.0,0.0,0.0,0.0,0.0,0.0,43,clients\src\test\java\org\apache\kafka\clients\producer\RecordSendTest.java,0,0,0,0
org.apache.kafka.clients.producer.internals.ErrorLoggingCallback, 0, 0, 0, 0, 0, 0, 0, 1, 0, 0, 0, 0, 0, 1,0.0,0.0,0.0,0.0,0.0,0.0,0.0,0.0,0.0,0.0,0.0,0.0,0.0,23,clients\src\main\java\org\apache\kafka\clients\producer\internals\ErrorLoggingCallback.java,0,0,0,0
org.apache.kafka.clients.producer.internals.FutureRecordMetadata, 0, 0, 0, 0, 0, 0, 0, 0, 0, 0, 0, 0, 0, 0,0.0,0.0,0.25,0.0,0.0,0.0,0.0,0.0,0.0,0.0,0.0,0.0,0.0,41,clients\src\main\java\org\apache\kafka\clients\producer\internals\FutureRecordMetadata.java,0,0,0,0
org.apache.kafka.clients.producer.internals.Metadata, 0, 0, 0, 0, 0, 0, 0, 0, 0, 0, 0, 0, 0, 0,0.0,0.0,0.0,0.3333333333333333,0.0,0.0,0.0,0.3333333333333333,0.0,0.0,0.0,0.0,0.0,68,clients\src\main\java\org\apache\kafka\clients\producer\internals\Metadata.java,0,3,0,3
org.apache.kafka.clients.producer.internals.Partitioner, 0, 0, 0, 0, 0, 0, 0, 0, 0, 0, 0, 0, 0, 0,0.0,0.0,0.0,0.0,0.0,0.0,0.0,0.5,0.0,0.0,0.0,0.0,0.0,24,clients\src\main\java\org\apache\kafka\clients\producer\internals\Partitioner.java,1,2,5,13
org.apache.kafka.clients.producer.internals.ProduceRequestResult, 0, 0, 0, 0, 0, 0, 0, 0, 0, 0, 0, 0, 0, 0,0.0,0.0,0.25,0.0,0.0,0.0,0.0,0.0,0.0,0.0,0.0,0.0,0.0,32,clients\src\main\java\org\apache\kafka\clients\producer\internals\ProduceRequestResult.java,0,0,0,0
org.apache.kafka.clients.producer.internals.RecordBatch, 0, 0, 1, 0, 0, 0, 0, 0, 0, 0, 0, 0, 0, 1,0.0,0.0,0.0,0.2,0.0,0.0,0.0,0.4,0.0,0.0,0.0,0.0,0.0,63,clients\src\main\java\org\apache\kafka\clients\producer\internals\RecordBatch.java,0,0,0,0
org.apache.kafka.common.KafkaException, 0, 0, 0, 0, 0, 0, 0, 0, 0, 0, 0, 0, 0, 0,0.0,0.0,0.14285714285714285,0.14285714285714285,0.0,0.0,0.0,0.14285714285714285,0.0,0.0,0.0,0.0,0.0,15,clients\src\main\java\org\apache\kafka\common\KafkaException.java,0,0,0,0
org.apache.kafka.common.Metric, 0, 0, 0, 0, 0, 0, 0, 0, 0, 0, 0, 0, 0, 0,0.0,0.0,0.0,0.0,0.0,0.0,0.0,0.0,0.0,0.0,0.0,0.0,0.0,15,clients\src\main\java\org\apache\kafka\common\Metric.java,0,0,0,0
org.apache.kafka.common.Node, 0, 0, 0, 0, 0, 0, 0, 0, 0, 0, 0, 0, 0, 0,0.0,0.0,0.0,0.25,0.0,0.0,0.0,0.25,0.0,0.0,0.0,0.0,0.0,53,clients\src\main\java\org\apache\kafka\common\Node.java,0,0,0,0
org.apache.kafka.common.TopicPartition, 0, 0, 0, 0, 0, 0, 0, 0, 0, 0, 0, 0, 0, 0,0.0,0.0,0.2,0.0,0.0,0.0,0.0,0.2,0.0,0.0,0.0,0.0,0.0,48,clients\src\main\java\org\apache\kafka\common\TopicPartition.java,0,0,0,0
org.apache.kafka.common.config.ConfigException, 0, 0, 0, 0, 0, 0, 0, 0, 0, 0, 0, 0, 0, 0,0.0,0.0,0.0,0.0,0.0,0.0,0.0,0.0,0.0,0.0,0.0,0.0,0.0,12,clients\src\main\java\org\apache\kafka\common\config\ConfigException.java,0,0,0,0
org.apache.kafka.common.errors.ApiException, 0, 0, 0, 0, 0, 0, 0, 0, 0, 0, 0, 0, 0, 0,0.0,0.0,0.0,0.0,0.0,0.0,0.0,0.0,0.0,0.0,0.0,0.0,0.0,19,clients\src\main\java\org\apache\kafka\common\errors\ApiException.java,0,0,0,0
org.apache.kafka.common.errors.CorruptRecordException, 0, 0, 0, 0, 0, 0, 0, 0, 0, 0, 0, 0, 0, 0,0.0,0.0,0.0,0.0,0.0,0.0,0.0,0.0,0.0,0.0,0.0,0.0,0.0,15,clients\src\main\java\org\apache\kafka\common\errors\CorruptRecordException.java,0,0,0,0
org.apache.kafka.common.errors.InvalidMetadataException, 0, 0, 0, 0, 0, 0, 0, 0, 0, 0, 0, 0, 0, 0,0.0,0.0,0.0,0.0,0.0,0.0,0.0,0.0,0.0,0.0,0.0,0.0,0.0,15,clients\src\main\java\org\apache\kafka\common\errors\InvalidMetadataException.java,0,0,0,0
org.apache.kafka.common.errors.InvalidTopicException, 0, 0, 0, 0, 0, 0, 0, 0, 0, 0, 0, 0, 0, 0,0.0,0.0,0.0,0.0,0.0,0.0,0.0,0.0,0.0,0.0,0.0,0.0,0.0,15,clients\src\main\java\org\apache\kafka\common\errors\InvalidTopicException.java,0,0,0,0
org.apache.kafka.common.errors.LeaderNotAvailableException, 0, 0, 0, 0, 0, 0, 0, 0, 0, 0, 0, 0, 0, 0,0.0,0.0,0.0,0.0,0.0,0.0,0.0,0.0,0.0,0.0,0.0,0.0,0.0,6,clients\src\main\java\org\apache\kafka\common\errors\LeaderNotAvailableException.java,0,0,0,0
org.apache.kafka.common.errors.NetworkException, 0, 0, 0, 0, 0, 0, 0, 0, 0, 0, 0, 0, 0, 0,0.0,0.0,0.0,0.0,0.0,0.0,0.0,0.0,0.0,0.0,0.0,0.0,0.0,15,clients\src\main\java\org\apache\kafka\common\errors\NetworkException.java,0,0,0,0
org.apache.kafka.common.errors.NotEnoughReplicasAfterAppendException, 0, 0, 0, 0, 0, 0, 0, 0, 0, 0, 0, 0, 0, 0,0.0,0.0,0.0,0.0,0.0,0.0,0.0,0.0,0.0,0.0,0.0,0.0,0.0,15,clients\src\main\java\org\apache\kafka\common\errors\NotEnoughReplicasAfterAppendException.java,0,0,0,0
org.apache.kafka.common.errors.NotEnoughReplicasException, 0, 0, 0, 0, 0, 0, 0, 0, 0, 0, 0, 0, 0, 0,0.0,0.0,0.0,0.0,0.0,0.0,0.0,0.0,0.0,0.0,0.0,0.0,0.0,15,clients\src\main\java\org\apache\kafka\common\errors\NotEnoughReplicasException.java,0,0,0,0
org.apache.kafka.common.errors.NotLeaderForPartitionException, 0, 0, 0, 0, 0, 0, 0, 0, 0, 0, 0, 0, 0, 0,0.0,0.0,0.0,0.0,0.0,0.0,0.0,0.0,0.0,0.0,0.0,0.0,0.0,15,clients\src\main\java\org\apache\kafka\common\errors\NotLeaderForPartitionException.java,0,0,0,0
org.apache.kafka.common.errors.OffsetMetadataTooLarge, 0, 0, 0, 0, 0, 0, 0, 0, 0, 0, 0, 0, 0, 0,0.0,0.0,0.0,0.0,0.0,0.0,0.0,0.0,0.0,0.0,0.0,0.0,0.0,14,clients\src\main\java\org\apache\kafka\common\errors\OffsetMetadataTooLarge.java,0,0,0,0
org.apache.kafka.common.errors.OffsetOutOfRangeException, 0, 0, 0, 0, 0, 0, 0, 0, 0, 0, 0, 0, 0, 0,0.0,0.0,0.0,0.0,0.0,0.0,0.0,0.0,0.0,0.0,0.0,0.0,0.0,14,clients\src\main\java\org\apache\kafka\common\errors\OffsetOutOfRangeException.java,0,0,0,0
org.apache.kafka.common.errors.RecordBatchTooLargeException, 0, 0, 0, 0, 0, 0, 0, 0, 0, 0, 0, 0, 0, 0,0.0,0.0,0.0,0.0,0.0,0.0,0.0,0.0,0.0,0.0,0.0,0.0,0.0,15,clients\src\main\java\org\apache\kafka\common\errors\RecordBatchTooLargeException.java,0,0,0,0
org.apache.kafka.common.errors.RecordTooLargeException, 0, 0, 0, 0, 0, 0, 0, 0, 0, 0, 0, 0, 0, 0,0.0,0.0,0.0,0.0,0.0,0.0,0.0,0.0,0.0,0.0,0.0,0.0,0.0,15,clients\src\main\java\org\apache\kafka\common\errors\RecordTooLargeException.java,0,0,0,0
org.apache.kafka.common.errors.RetriableException, 0, 0, 0, 0, 0, 0, 0, 0, 0, 0, 0, 0, 0, 0,0.0,0.0,0.0,0.0,0.0,0.0,0.0,0.0,0.0,0.0,0.0,0.0,0.0,14,clients\src\main\java\org\apache\kafka\common\errors\RetriableException.java,0,0,0,0
org.apache.kafka.common.errors.SerializationException, 0, 0, 0, 0, 0, 0, 0, 0, 0, 0, 0, 0, 0, 0,0.0,0.0,0.0,0.0,0.0,0.0,0.0,0.0,0.0,0.0,0.0,0.0,0.0,18,clients\src\main\java\org\apache\kafka\common\errors\SerializationException.java,0,0,0,0
org.apache.kafka.common.errors.TimeoutException, 0, 0, 0, 0, 0, 0, 0, 0, 0, 0, 0, 0, 0, 0,0.0,0.0,0.0,0.0,0.0,0.0,0.0,0.0,0.0,0.0,0.0,0.0,0.0,15,clients\src\main\java\org\apache\kafka\common\errors\TimeoutException.java,0,0,0,0
org.apache.kafka.common.errors.UnknownServerException, 0, 0, 0, 0, 0, 0, 0, 0, 0, 0, 0, 0, 0, 0,0.0,0.0,0.0,0.0,0.0,0.0,0.0,0.0,0.0,0.0,0.0,0.0,0.0,14,clients\src\main\java\org\apache\kafka\common\errors\UnknownServerException.java,0,0,0,0
org.apache.kafka.common.errors.UnknownTopicOrPartitionException, 0, 0, 0, 0, 0, 0, 0, 0, 0, 0, 0, 0, 0, 0,0.0,0.0,0.0,0.0,0.0,0.0,0.0,0.0,0.0,0.0,0.0,0.0,0.0,14,clients\src\main\java\org\apache\kafka\common\errors\UnknownTopicOrPartitionException.java,0,0,0,0
org.apache.kafka.common.message.KafkaLZ4BlockInputStream, 0, 0, 0, 1, 0, 0, 0, 0, 0, 0, 0, 0, 0, 1,0.0,0.0,0.0,0.0,0.0,0.0,0.0,0.0,0.0,0.0,0.0,0.0,0.0,143,clients\src\main\java\org\apache\kafka\common\message\KafkaLZ4BlockInputStream.java,0,0,0,0
org.apache.kafka.common.message.KafkaLZ4BlockOutputStream, 0, 0, 0, 1, 0, 0, 0, 0, 0, 0, 0, 0, 0, 1,0.0,0.0,0.0,0.0,0.0,0.0,0.0,0.0,0.0,0.0,0.0,0.0,0.0,251,clients\src\main\java\org\apache\kafka\common\message\KafkaLZ4BlockOutputStream.java,0,0,0,0
org.apache.kafka.common.metrics.CompoundStat, 0, 0, 0, 0, 0, 0, 0, 0, 0, 0, 0, 0, 0, 0,0.0,0.0,0.0,0.0,0.0,0.0,0.0,0.0,0.0,0.0,0.0,0.0,0.0,251,clients\src\main\java\org\apache\kafka\common\metrics\CompoundStat.java,0,0,0,0
org.apache.kafka.common.metrics.JmxReporterTest, 0, 0, 0, 0, 0, 0, 0, 0, 0, 0, 0, 0, 0, 0,0.0,0.0,0.0,0.0,0.0,0.0,0.0,0.6666666666666666,0.0,0.0,0.0,0.0,0.0,13,clients\src\test\java\org\apache\kafka\common\metrics\JmxReporterTest.java,0,0,0,0
org.apache.kafka.common.metrics.KafkaMetric, 0, 0, 0, 0, 0, 0, 0, 1, 0, 0, 0, 0, 0, 1,0.0,0.0,0.0,0.0,0.0,0.0,0.0,0.5,0.0,0.0,0.0,0.0,0.0,36,clients\src\main\java\org\apache\kafka\common\metrics\KafkaMetric.java,0,0,0,0
org.apache.kafka.common.metrics.Measurable, 0, 0, 0, 0, 0, 0, 0, 0, 0, 0, 0, 0, 0, 0,0.0,0.0,0.0,0.0,0.0,0.0,0.0,0.0,0.0,0.0,0.0,0.0,0.0,36,clients\src\main\java\org\apache\kafka\common\metrics\Measurable.java,0,0,0,0
org.apache.kafka.common.metrics.MeasurableStat, 0, 0, 0, 0, 0, 0, 0, 0, 0, 0, 0, 0, 0, 0,0.0,0.0,0.0,0.0,0.0,0.0,0.0,0.0,0.0,0.0,0.0,0.0,0.0,36,clients\src\main\java\org\apache\kafka\common\metrics\MeasurableStat.java,0,0,0,0
org.apache.kafka.common.metrics.MetricConfig, 0, 0, 0, 0, 0, 0, 0, 0, 0, 0, 0, 0, 0, 0,0.0,0.0,0.0,0.0,0.0,0.0,0.0,0.5714285714285714,0.0,0.0,0.0,0.0,0.0,52,clients\src\main\java\org\apache\kafka\common\metrics\MetricConfig.java,0,0,0,0
org.apache.kafka.common.metrics.MetricsReporter, 0, 0, 0, 0, 0, 0, 0, 0, 0, 0, 0, 0, 0, 0,0.0,0.0,0.0,0.0,0.0,0.0,0.0,0.0,0.0,0.0,0.0,0.0,0.0,52,clients\src\main\java\org\apache\kafka\common\metrics\MetricsReporter.java,0,0,0,0
org.apache.kafka.common.metrics.Quota, 0, 0, 0, 0, 0, 0, 0, 0, 0, 0, 0, 0, 0, 0,0.0,0.0,0.0,0.0,0.0,0.0,0.0,0.5,0.0,0.0,0.0,0.0,0.0,23,clients\src\main\java\org\apache\kafka\common\metrics\Quota.java,0,0,0,0
org.apache.kafka.common.metrics.QuotaViolationException, 0, 0, 0, 0, 0, 0, 0, 0, 0, 0, 0, 0, 0, 0,0.0,0.0,0.0,0.0,0.0,0.0,0.0,0.5,0.0,0.0,0.0,0.0,0.0,6,clients\src\main\java\org\apache\kafka\common\metrics\QuotaViolationException.java,0,0,0,0
org.apache.kafka.common.metrics.Sensor, 0, 0, 0, 0, 0, 0, 0, 1, 0, 0, 0, 0, 0, 1,0.0,0.0,0.0,0.0,0.0,0.0,0.0,0.16666666666666666,0.0,0.0,0.0,0.0,0.0,84,clients\src\main\java\org\apache\kafka\common\metrics\Sensor.java,0,0,0,0
org.apache.kafka.common.metrics.Stat, 0, 0, 0, 0, 0, 0, 0, 0, 0, 0, 0, 0, 0, 0,0.0,0.0,0.0,0.0,0.0,0.0,0.0,0.0,0.0,0.0,0.0,0.0,0.0,84,clients\src\main\java\org\apache\kafka\common\metrics\Stat.java,0,0,0,0
org.apache.kafka.common.metrics.stats.Avg, 0, 0, 0, 0, 0, 0, 0, 1, 0, 0, 0, 0, 0, 1,0.0,0.0,0.0,0.0,0.0,0.0,0.0,0.3333333333333333,0.0,0.0,0.0,0.0,0.0,20,clients\src\main\java\org\apache\kafka\common\metrics\stats\Avg.java,0,0,0,0
org.apache.kafka.common.metrics.stats.Count, 0, 0, 0, 0, 0, 0, 0, 1, 0, 0, 0, 0, 0, 1,0.0,0.0,0.0,0.0,0.0,0.0,0.0,0.5,0.0,0.0,0.0,0.0,0.0,16,clients\src\main\java\org\apache\kafka\common\metrics\stats\Count.java,0,0,0,0
org.apache.kafka.common.metrics.stats.HistogramTest, 0, 0, 0, 0, 0, 0, 0, 0, 0, 0, 0, 0, 0, 0,0.0,0.0,0.0,0.0,0.0,0.0,0.0,0.0,0.0,0.0,0.0,0.0,0.0,65,clients\src\test\java\org\apache\kafka\common\metrics\stats\HistogramTest.java,0,0,0,0
org.apache.kafka.common.metrics.stats.Max, 0, 0, 0, 0, 0, 0, 0, 1, 0, 0, 0, 0, 0, 1,0.0,0.0,0.0,0.0,0.0,0.0,0.0,0.5,0.0,0.0,0.0,0.0,0.0,16,clients\src\main\java\org\apache\kafka\common\metrics\stats\Max.java,0,0,0,0
org.apache.kafka.common.metrics.stats.Min, 0, 0, 0, 0, 0, 0, 0, 1, 0, 0, 0, 0, 0, 1,0.0,0.0,0.0,0.0,0.0,0.0,0.0,1.0,0.0,0.0,0.0,0.0,0.0,16,clients\src\main\java\org\apache\kafka\common\metrics\stats\Min.java,0,0,0,0
org.apache.kafka.common.metrics.stats.Percentile, 0, 0, 0, 0, 0, 0, 0, 0, 0, 0, 0, 0, 0, 0,0.0,0.0,0.0,0.0,0.0,0.0,0.0,0.5,0.0,0.0,0.0,0.0,0.0,15,clients\src\main\java\org\apache\kafka\common\metrics\stats\Percentile.java,0,0,0,0
org.apache.kafka.common.metrics.stats.Percentiles, 0, 0, 0, 0, 0, 0, 0, 1, 0, 0, 0, 0, 0, 1,0.0,0.0,0.0,0.0,0.0,0.0,0.0,0.25,0.0,0.0,0.0,0.0,0.0,77,clients\src\main\java\org\apache\kafka\common\metrics\stats\Percentiles.java,0,0,0,0
org.apache.kafka.common.metrics.stats.Rate, 0, 0, 0, 0, 0, 0, 0, 0, 0, 0, 0, 0, 0, 0,0.0,0.0,0.0,0.0,0.0,0.0,0.0,0.5,0.0,0.0,0.0,0.0,0.0,66,clients\src\main\java\org\apache\kafka\common\metrics\stats\Rate.java,0,0,0,0
org.apache.kafka.common.metrics.stats.SampledStat, 0, 0, 0, 0, 0, 0, 0, 1, 0, 0, 0, 0, 0, 1,0.0,0.0,0.0,0.0,0.0,0.0,0.0,0.7142857142857143,0.0,0.0,0.0,0.0,0.0,83,clients\src\main\java\org\apache\kafka\common\metrics\stats\SampledStat.java,0,0,0,0
org.apache.kafka.common.metrics.stats.Total, 0, 0, 0, 0, 0, 0, 0, 0, 0, 0, 0, 0, 0, 0,0.0,0.0,0.0,0.0,0.0,0.0,0.0,0.0,0.0,0.0,0.0,0.0,0.0,17,clients\src\main\java\org\apache\kafka\common\metrics\stats\Total.java,0,0,0,0
org.apache.kafka.common.network.ByteBufferReceive, 0, 0, 0, 0, 0, 0, 0, 0, 0, 0, 0, 0, 0, 0,0.0,0.0,0.0,0.0,0.0,0.0,0.0,0.0,0.0,0.0,0.0,0.0,0.0,29,clients\src\main\java\org\apache\kafka\common\network\ByteBufferReceive.java,0,0,0,0
org.apache.kafka.common.network.ByteBufferSend, 0, 0, 0, 0, 0, 0, 0, 0, 0, 0, 0, 0, 0, 0,0.0,0.0,0.0,0.3333333333333333,0.0,0.0,0.0,0.3333333333333333,0.0,0.0,0.0,0.0,0.0,41,clients\src\main\java\org\apache\kafka\common\network\ByteBufferSend.java,0,0,0,0
org.apache.kafka.common.network.NetworkReceive, 0, 0, 0, 0, 0, 0, 0, 0, 0, 0, 0, 0, 0, 0,0.0,0.0,0.0,0.5,0.0,0.0,0.0,1.0,0.0,0.0,0.0,0.0,0.0,54,clients\src\main\java\org\apache\kafka\common\network\NetworkReceive.java,0,0,0,0
org.apache.kafka.common.network.NetworkSend, 0, 0, 0, 0, 0, 0, 0, 0, 0, 0, 0, 0, 0, 0,0.0,0.0,0.0,0.0,0.0,0.0,0.0,0.3333333333333333,0.0,0.0,0.0,0.0,0.0,16,clients\src\main\java\org\apache\kafka\common\network\NetworkSend.java,0,0,0,0
org.apache.kafka.common.network.Receive, 0, 0, 0, 0, 0, 0, 0, 0, 0, 0, 0, 0, 0, 0,0.0,0.0,0.0,0.0,0.0,0.0,0.0,0.0,0.0,0.0,0.0,0.0,0.0,16,clients\src\main\java\org\apache\kafka\common\network\Receive.java,0,0,0,0
org.apache.kafka.common.network.Selectable, 0, 0, 0, 0, 0, 0, 0, 0, 0, 0, 0, 0, 0, 0,0.0,0.0,0.0,0.0,0.0,0.0,0.0,0.0,0.0,0.0,0.0,0.0,0.0,16,clients\src\main\java\org\apache\kafka\common\network\Selectable.java,0,0,0,0
org.apache.kafka.common.network.Send, 0, 0, 0, 0, 0, 0, 0, 0, 0, 0, 0, 0, 0, 0,0.0,0.0,0.0,0.0,0.0,0.0,0.0,0.0,0.0,0.0,0.0,0.0,0.0,16,clients\src\main\java\org\apache\kafka\common\network\Send.java,0,0,0,0
org.apache.kafka.common.protocol.ProtoUtils, 0, 0, 0, 0, 0, 0, 0, 0, 0, 0, 0, 0, 0, 0,0.0,0.0,0.0,0.5,0.0,0.0,0.0,1.0,0.0,0.0,0.0,0.0,0.0,33,clients\src\main\java\org\apache\kafka\common\protocol\ProtoUtils.java,0,0,0,0
org.apache.kafka.common.protocol.Protocol, 1, 0, 1, 1, 0, 0, 0, 0, 0, 0, 0, 0, 0, 3,0.0,0.0,0.0,0.0,0.0,0.0,0.0,0.0,0.0,0.0,0.0,0.0,0.0,328,clients\src\main\java\org\apache\kafka\common\protocol\Protocol.java,0,0,0,0
org.apache.kafka.common.protocol.types.ArrayOf, 0, 0, 0, 0, 0, 0, 0, 0, 0, 0, 0, 0, 0, 0,0.0,0.0,0.0,0.0,0.0,0.0,0.0,0.0,0.0,0.0,0.0,0.0,0.0,48,clients\src\main\java\org\apache\kafka\common\protocol\types\ArrayOf.java,0,0,0,0
org.apache.kafka.common.protocol.types.Field, 0, 0, 0, 0, 0, 0, 0, 1, 0, 0, 0, 0, 0, 1,0.0,0.0,0.0,0.0,0.0,0.0,0.0,0.25,0.0,0.0,0.0,0.0,0.0,34,clients\src\main\java\org\apache\kafka\common\protocol\types\Field.java,0,0,0,0
org.apache.kafka.common.protocol.types.ProtocolSerializationTest, 0, 0, 0, 0, 0, 0, 0, 0, 0, 0, 0, 0, 0, 0,0.0,0.0,0.0,0.0,0.0,0.0,0.0,0.25,0.0,0.0,0.0,0.0,0.0,75,clients\src\test\java\org\apache\kafka\common\protocol\types\ProtocolSerializationTest.java,0,0,0,0
org.apache.kafka.common.protocol.types.SchemaException, 0, 0, 0, 0, 0, 0, 0, 0, 0, 0, 0, 0, 0, 0,0.0,0.0,0.0,0.0,0.0,0.0,0.0,0.0,0.0,0.0,0.0,0.0,0.0,6,clients\src\main\java\org\apache\kafka\common\protocol\types\SchemaException.java,0,0,0,0
org.apache.kafka.common.protocol.types.Type, 0, 0, 0, 0, 0, 0, 0, 0, 0, 0, 0, 0, 0, 0,0.0,0.0,0.0,0.0,0.0,0.0,0.0,0.3333333333333333,0.0,0.0,0.0,0.0,0.0,172,clients\src\main\java\org\apache\kafka\common\protocol\types\Type.java,0,0,0,0
org.apache.kafka.common.record.ByteBufferInputStream, 0, 0, 0, 0, 0, 0, 0, 0, 0, 0, 0, 0, 0, 0,0.0,0.0,1.0,1.0,0.0,0.0,0.0,1.0,0.0,0.0,0.0,0.0,0.0,20,clients\src\main\java\org\apache\kafka\common\record\ByteBufferInputStream.java,0,0,0,0
org.apache.kafka.common.record.ByteBufferOutputStream, 0, 0, 0, 0, 0, 0, 0, 0, 0, 0, 0, 0, 0, 0,0.0,0.0,1.0,1.0,0.0,0.0,0.0,1.0,0.0,0.0,0.0,0.0,0.0,26,clients\src\main\java\org\apache\kafka\common\record\ByteBufferOutputStream.java,0,0,0,0
org.apache.kafka.common.record.Compressor, 0, 0, 1, 1, 0, 0, 0, 1, 0, 0, 0, 0, 0, 3,0.0,0.0,0.0,0.2,0.0,0.0,0.0,0.4,0.0,0.0,0.0,0.0,0.0,192,clients\src\main\java\org\apache\kafka\common\record\Compressor.java,0,0,0,0
org.apache.kafka.common.record.InvalidRecordException, 0, 0, 0, 0, 0, 0, 0, 0, 0, 0, 0, 0, 0, 0,0.0,0.0,0.0,0.5,0.0,0.0,0.0,0.5,0.0,0.0,0.0,0.0,0.0,6,clients\src\main\java\org\apache\kafka\common\record\InvalidRecordException.java,0,0,0,0
org.apache.kafka.common.record.LogEntry, 0, 0, 0, 0, 0, 0, 0, 0, 0, 0, 0, 0, 0, 0,0.0,0.0,0.0,0.5,0.0,0.0,0.0,0.5,0.0,0.0,0.0,0.0,0.0,18,clients\src\main\java\org\apache\kafka\common\record\LogEntry.java,0,0,0,0
org.apache.kafka.common.record.MemoryRecords, 0, 0, 0, 0, 0, 0, 0, 1, 0, 0, 0, 0, 0, 1,0.0,0.0,0.5,0.5,0.0,0.0,0.0,0.5,0.0,0.0,0.0,0.0,0.0,138,clients\src\main\java\org\apache\kafka\common\record\MemoryRecords.java,0,0,0,0
org.apache.kafka.common.record.MemoryRecordsTest, 0, 0, 0, 0, 0, 0, 0, 0, 0, 0, 0, 0, 0, 0,0.0,0.0,0.0,0.3333333333333333,0.0,0.0,0.0,0.6666666666666666,0.0,0.0,0.0,0.0,0.0,41,clients\src\test\java\org\apache\kafka\common\record\MemoryRecordsTest.java,0,0,0,0
org.apache.kafka.common.record.Record, 0, 0, 0, 1, 0, 0, 0, 1, 0, 0, 0, 0, 0, 2,0.0,0.0,0.25,0.125,0.0,0.0,0.0,0.25,0.0,0.0,0.0,0.0,0.0,183,clients\src\main\java\org\apache\kafka\common\record\Record.java,0,0,0,0
org.apache.kafka.common.record.RecordTest, 0, 0, 0, 0, 0, 0, 0, 0, 0, 0, 0, 0, 0, 0,0.0,0.0,0.0,0.5,0.0,0.0,0.0,0.5,0.0,0.0,0.0,0.0,0.0,65,clients\src\test\java\org\apache\kafka\common\record\RecordTest.java,0,0,0,0
org.apache.kafka.common.requests.AbstractRequestResponse, 0, 0, 0, 0, 0, 0, 0, 0, 0, 0, 0, 0, 0, 0,0.4,0.0,0.4,0.1,0.0,0.0,0.0,0.3,0.0,0.0,0.0,0.0,0.0,34,clients\src\main\java\org\apache\kafka\common\requests\AbstractRequestResponse.java,0,0,0,0
org.apache.kafka.common.requests.ConsumerMetadataRequest, 1, 0, 1, 0, 0, 0, 0, 0, 0, 0, 0, 0, 0, 2,0.0,0.0,0.0,0.0,0.0,0.0,0.0,0.0,0.0,0.0,0.0,0.0,0.0,20,clients\src\main\java\org\apache\kafka\common\requests\ConsumerMetadataRequest.java,0,0,0,0
org.apache.kafka.common.requests.ConsumerMetadataResponse, 0, 0, 0, 0, 0, 0, 0, 0, 0, 0, 0, 0, 0, 0,0.0,0.0,0.0,0.0,0.0,0.0,0.0,0.0,0.0,0.0,0.0,0.0,0.0,38,clients\src\main\java\org\apache\kafka\common\requests\ConsumerMetadataResponse.java,0,0,0,0
org.apache.kafka.common.requests.HeartbeatRequest, 1, 0, 1, 0, 0, 0, 0, 0, 0, 0, 0, 0, 0, 2,0.0,0.0,0.0,0.0,0.0,0.0,0.0,0.0,0.0,0.0,0.0,0.0,0.0,35,clients\src\main\java\org\apache\kafka\common\requests\HeartbeatRequest.java,0,0,0,0
org.apache.kafka.common.requests.HeartbeatResponse, 0, 0, 0, 0, 0, 0, 0, 0, 0, 0, 0, 0, 0, 0,0.0,0.0,0.0,0.0,0.0,0.0,0.0,0.0,0.0,0.0,0.0,0.0,0.0,19,clients\src\main\java\org\apache\kafka\common\requests\HeartbeatResponse.java,0,0,0,0
org.apache.kafka.common.requests.JoinGroupRequest, 1, 0, 1, 0, 0, 0, 0, 1, 0, 0, 0, 0, 0, 3,0.0,0.0,0.0,0.0,0.0,0.0,0.0,0.0,0.0,0.0,0.0,0.0,0.0,55,clients\src\main\java\org\apache\kafka\common\requests\JoinGroupRequest.java,0,0,0,0
org.apache.kafka.common.requests.MetadataRequest, 1, 0, 1, 0, 0, 0, 0, 0, 0, 0, 0, 0, 0, 2,0.0,0.0,0.0,0.0,0.0,0.0,0.0,0.0,0.0,0.0,0.0,0.0,0.0,24,clients\src\main\java\org\apache\kafka\common\requests\MetadataRequest.java,0,0,0,0
org.apache.kafka.common.requests.RequestHeader, 0, 0, 0, 0, 0, 0, 0, 1, 0, 0, 0, 0, 0, 1,0.0,0.0,0.0,0.16666666666666666,0.0,0.0,0.0,0.3333333333333333,0.0,0.0,0.0,0.0,0.0,46,clients\src\main\java\org\apache\kafka\common\requests\RequestHeader.java,0,0,0,0
org.apache.kafka.common.requests.RequestSend, 0, 0, 0, 0, 0, 0, 0, 0, 0, 0, 0, 0, 0, 0,0.0,0.0,0.0,0.2,0.0,0.0,0.0,0.6,0.0,0.0,0.0,0.0,0.0,26,clients\src\main\java\org\apache\kafka\common\requests\RequestSend.java,0,0,0,0
org.apache.kafka.common.requests.ResponseHeader, 0, 0, 0, 0, 0, 0, 0, 0, 0, 0, 0, 0, 0, 0,0.0,0.0,0.0,0.3333333333333333,0.0,0.0,0.0,0.6666666666666666,0.0,0.0,0.0,0.0,0.0,19,clients\src\main\java\org\apache\kafka\common\requests\ResponseHeader.java,0,0,0,0
org.apache.kafka.common.utils.AbstractIteratorTest, 0, 0, 0, 0, 0, 0, 0, 0, 0, 0, 0, 0, 0, 0,0.0,0.0,0.0,0.0,0.0,0.0,0.0,0.0,0.0,0.0,0.0,0.0,0.0,35,clients\src\test\java\org\apache\kafka\common\utils\AbstractIteratorTest.java,0,0,0,0
org.apache.kafka.common.utils.ClientUtils, 0, 0, 0, 0, 0, 0, 0, 0, 0, 0, 0, 0, 0, 0,0.0,0.0,0.0,0.0,0.0,0.0,0.0,0.0,0.0,0.0,0.0,0.0,0.0,23,clients\src\main\java\org\apache\kafka\common\utils\ClientUtils.java,0,0,0,0
org.apache.kafka.common.utils.ClientUtilsTest, 0, 0, 0, 0, 0, 0, 0, 0, 0, 0, 0, 0, 0, 0,0.0,0.0,0.0,0.0,0.0,0.0,0.0,0.0,0.0,0.0,0.0,0.0,0.0,15,clients\src\test\java\org\apache\kafka\common\utils\ClientUtilsTest.java,0,0,0,0
org.apache.kafka.common.utils.Crc32, 0, 0, 0, 0, 0, 0, 0, 0, 0, 0, 0, 0, 0, 0,0.0,0.0,0.0,0.5,0.0,0.0,0.0,0.5,0.0,0.0,0.0,0.0,0.0,2125,clients\src\main\java\org\apache\kafka\common\utils\Crc32.java,0,0,0,0
org.apache.kafka.common.utils.CrcTest, 0, 0, 0, 0, 0, 0, 0, 0, 0, 0, 0, 0, 0, 0,0.0,0.0,0.0,0.0,0.0,0.0,0.0,0.0,0.0,0.0,0.0,0.0,0.0,28,clients\src\test\java\org\apache\kafka\common\utils\CrcTest.java,0,0,0,0
org.apache.kafka.common.utils.KafkaThread, 0, 0, 0, 0, 0, 0, 0, 0, 0, 0, 0, 0, 0, 0,0.0,0.0,0.0,0.0,0.0,0.0,0.0,0.0,0.0,0.0,0.0,0.0,0.0,12,clients\src\main\java\org\apache\kafka\common\utils\KafkaThread.java,0,0,0,0
org.apache.kafka.common.utils.MockTime, 0, 0, 0, 0, 0, 0, 0, 0, 0, 0, 0, 0, 0, 0,0.0,0.0,0.0,0.0,0.0,0.0,0.0,0.0,0.0,0.0,0.0,0.0,0.0,18,clients\src\test\java\org\apache\kafka\common\utils\MockTime.java,0,0,0,0
org.apache.kafka.common.utils.SystemTime, 0, 0, 0, 0, 0, 0, 0, 0, 0, 0, 0, 0, 0, 0,0.0,0.0,0.0,0.0,0.0,0.0,0.0,0.0,0.0,0.0,0.0,0.0,0.0,17,clients\src\main\java\org\apache\kafka\common\utils\SystemTime.java,0,0,0,0
org.apache.kafka.common.utils.Time, 0, 0, 0, 0, 0, 0, 0, 0, 0, 0, 0, 0, 0, 0,0.0,0.0,0.0,0.0,0.0,0.0,0.0,0.0,0.0,0.0,0.0,0.0,0.0,17,clients\src\main\java\org\apache\kafka\common\utils\Time.java,0,0,0,0
org.apache.kafka.common.utils.UtilsTest, 0, 0, 0, 0, 0, 0, 0, 0, 0, 0, 0, 0, 0, 0,0.0,0.0,0.0,0.0,0.0,0.0,0.0,0.0,0.0,0.0,0.0,0.0,0.0,22,clients\src\test\java\org\apache\kafka\common\utils\UtilsTest.java,0,0,0,0
org.apache.kafka.test.MetricsBench, 0, 0, 0, 0, 0, 0, 0, 0, 0, 0, 0, 0, 0, 0,0.0,0.0,0.0,0.0,0.0,0.0,0.0,0.8333333333333334,0.0,0.0,0.0,0.0,0.0,24,clients\src\test\java\org\apache\kafka\test\MetricsBench.java,0,0,0,0
org.apache.kafka.test.MockSelector, 0, 0, 0, 0, 0, 0, 0, 1, 0, 0, 0, 0, 0, 1,0.0,0.0,0.0,0.0,0.0,0.0,0.0,0.0,0.0,0.0,0.0,0.0,0.0,57,clients\src\test\java\org\apache\kafka\test\MockSelector.java,0,0,0,0
,0.0,0.0,0.0,0.0,0.0,0.0,0.0,0.0,0.0,0.0,0.0,0.0,0.0,57,clients\src\main\java\org\apache\kafka\clients\consumer\Consumer.java,0,0,0,0
