ClassName,AntiSingleton,Blob,ClassDataShouldBePrivate,ComplexClass,LargeClass,LazyClass,LongMethod,LongParameterList,MessageChains,RefusedParentBequest,SpaghettiCode,SpeculativeGenerality,SwissArmyKnife,NumOfAPs,AntiSingleton,Blob,ClassDataShouldBePrivate,ComplexClass,LargeClass,LazyClass,LongMethod,LongParameterList,MessageChains,RefusedParentBequest,SpaghettiCode,SpeculativeGenerality,SwissArmyKnife,LOC,name,deleted,added,changed,all
com.example.flat.App, 0, 0, 0, 0, 0, 0, 0, 0, 0, 0, 0, 0, 0, 0,0.0,0.0,0.0,0.0,0.0,0.0,0.0,0.0,0.0,0.0,0.0,0.0,0.0,7,continuum-webapp-test\src\test\example-projects\flat-example\flat-core\src\main\java\com\example\flat\App.java,0,0,0,0
com.example.flat.AppTest, 0, 0, 0, 0, 0, 0, 0, 0, 0, 0, 0, 0, 0, 0,0.0,0.0,0.0,0.0,0.0,0.0,0.0,0.0,0.0,0.0,0.0,0.0,0.0,16,continuum-webapp-test\src\test\example-projects\flat-example\flat-core\src\test\java\com\example\flat\AppTest.java,0,0,0,0
org.apache.continuum.AbstractAddProjectTest, 0, 0, 0, 0, 0, 0, 0, 0, 0, 0, 0, 0, 0, 0,0.0,0.0,0.0,0.0,0.0,0.0,0.0,0.0,0.0,0.0,0.0,0.0,0.0,24,continuum-core\src\test\java\org\apache\continuum\AbstractAddProjectTest.java,0,0,0,0
org.apache.continuum.App, 0, 0, 0, 0, 0, 0, 0, 0, 0, 0, 0, 0, 0, 0,0.0,0.0,0.0,0.0,0.0,0.0,0.0,0.0,0.0,0.0,0.0,0.0,0.0,24,continuum-webapp-test\src\test\example-projects\continuum-failing-project\src\main\java\org\apache\continuum\App.java,0,0,0,0
org.apache.continuum.AppTest, 0, 0, 0, 0, 0, 0, 0, 0, 0, 0, 0, 0, 0, 0,0.0,0.0,0.0,0.0,0.0,0.0,0.0,0.0,0.0,0.0,0.0,0.0,0.0,16,continuum-webapp-test\src\test\example-projects\continuum-failing-project\src\test\java\org\apache\continuum\AppTest.java,0,0,0,0
org.apache.continuum.buildagent.ContinuumBuildAgentException, 0, 0, 0, 0, 0, 0, 0, 0, 0, 0, 0, 0, 0, 0,0.0,0.0,0.0,0.0,0.0,0.0,0.0,0.0,0.0,0.0,0.0,0.0,0.0,16,continuum-buildagent\continuum-buildagent-api\src\main\java\org\apache\continuum\buildagent\ContinuumBuildAgentException.java,0,0,0,0
org.apache.continuum.buildagent.NoBuildAgentException, 0, 0, 0, 0, 0, 0, 0, 0, 0, 0, 0, 0, 0, 0,0.0,0.0,0.0,0.0,0.0,0.0,0.0,0.0,0.0,0.0,0.0,0.0,0.0,16,continuum-buildagent\continuum-buildagent-api\src\main\java\org\apache\continuum\buildagent\NoBuildAgentException.java,0,0,0,0
org.apache.continuum.buildagent.NoBuildAgentInGroupException, 0, 0, 0, 0, 0, 0, 0, 0, 0, 0, 0, 0, 0, 0,0.0,0.0,0.0,0.0,0.0,0.0,0.0,0.0,0.0,0.0,0.0,0.0,0.0,16,continuum-buildagent\continuum-buildagent-api\src\main\java\org\apache\continuum\buildagent\NoBuildAgentInGroupException.java,0,0,0,0
org.apache.continuum.buildagent.build.execution.ContinuumAgentBuildCancelledException, 0, 0, 0, 0, 0, 0, 0, 0, 0, 0, 0, 0, 0, 0,0.0,0.0,0.0,0.0,0.0,0.0,0.0,0.0,0.0,0.0,0.0,0.0,0.0,12,continuum-buildagent\continuum-buildagent-core\src\main\java\org\apache\continuum\buildagent\build\execution\ContinuumAgentBuildCancelledException.java,0,0,0,0
org.apache.continuum.buildagent.build.execution.ContinuumAgentBuildExecutionResult, 0, 0, 0, 0, 0, 0, 0, 0, 0, 0, 0, 0, 0, 0,0.0,0.0,0.0,0.0,0.0,0.0,0.0,0.0,0.0,0.0,0.0,0.0,0.0,18,continuum-buildagent\continuum-buildagent-core\src\main\java\org\apache\continuum\buildagent\build\execution\ContinuumAgentBuildExecutionResult.java,0,0,0,0
org.apache.continuum.buildagent.build.execution.ContinuumAgentBuildExecutorException, 0, 0, 0, 0, 0, 0, 0, 0, 0, 0, 0, 0, 0, 0,0.0,0.0,0.0,0.0,0.0,0.0,0.0,0.0,0.0,0.0,0.0,0.0,0.0,16,continuum-buildagent\continuum-buildagent-core\src\main\java\org\apache\continuum\buildagent\build\execution\ContinuumAgentBuildExecutorException.java,0,0,0,0
org.apache.continuum.buildagent.build.execution.manager.BuildAgentBuildExecutorManager, 0, 0, 0, 0, 0, 0, 0, 0, 0, 0, 0, 0, 0, 0,0.0,0.0,0.0,0.0,0.0,0.0,0.0,0.0,0.0,0.0,0.0,0.0,0.0,16,continuum-buildagent\continuum-buildagent-core\src\main\java\org\apache\continuum\buildagent\build\execution\manager\BuildAgentBuildExecutorManager.java,0,0,0,0
org.apache.continuum.buildagent.build.execution.maven.m1.BuildAgentMavenOneMetadataHelper, 0, 0, 0, 0, 0, 0, 0, 0, 0, 0, 0, 0, 0, 0,0.0,0.0,0.0,0.0,0.0,0.0,0.0,0.0,0.0,0.0,0.0,0.0,0.0,16,continuum-buildagent\continuum-buildagent-core\src\main\java\org\apache\continuum\buildagent\build\execution\maven\m1\BuildAgentMavenOneMetadataHelper.java,0,0,0,0
org.apache.continuum.buildagent.build.execution.maven.m1.BuildAgentMavenOneMetadataHelperException, 0, 0, 0, 0, 0, 0, 0, 0, 0, 0, 0, 0, 0, 0,0.0,0.0,0.0,0.0,0.0,0.0,0.0,0.0,0.0,0.0,0.0,0.0,0.0,16,continuum-buildagent\continuum-buildagent-core\src\main\java\org\apache\continuum\buildagent\build\execution\maven\m1\BuildAgentMavenOneMetadataHelperException.java,0,0,0,0
org.apache.continuum.buildagent.build.execution.maven.m2.BuildAgentMavenBuilderHelper, 0, 0, 0, 0, 0, 0, 0, 0, 0, 0, 0, 0, 0, 0,0.0,0.0,0.0,0.0,0.0,0.0,0.0,0.0,0.0,0.0,0.0,0.0,0.0,16,continuum-buildagent\continuum-buildagent-core\src\main\java\org\apache\continuum\buildagent\build\execution\maven\m2\BuildAgentMavenBuilderHelper.java,0,0,0,0
org.apache.continuum.buildagent.build.execution.maven.m2.SettingsConfigurationException, 0, 0, 0, 0, 0, 0, 0, 1, 0, 0, 0, 0, 0, 1,0.0,0.0,0.0,0.0,0.0,0.0,0.0,0.0,0.0,0.0,0.0,0.0,0.0,28,continuum-buildagent\continuum-buildagent-core\src\main\java\org\apache\continuum\buildagent\build\execution\maven\m2\SettingsConfigurationException.java,0,0,0,0
org.apache.continuum.buildagent.buildcontext.manager.BuildContextManager, 0, 0, 0, 0, 0, 0, 0, 0, 0, 0, 0, 0, 0, 0,0.0,0.0,0.0,0.0,0.0,0.0,0.0,0.0,0.0,0.0,0.0,0.0,0.0,28,continuum-buildagent\continuum-buildagent-core\src\main\java\org\apache\continuum\buildagent\buildcontext\manager\BuildContextManager.java,0,0,0,0
org.apache.continuum.buildagent.configuration.BuildAgentConfiguration, 0, 0, 0, 0, 0, 0, 0, 0, 0, 0, 0, 0, 0, 0,0.0,0.0,0.0,0.0,0.0,0.0,0.0,0.0,0.0,0.0,0.0,0.0,0.0,28,continuum-buildagent\continuum-buildagent-api\src\main\java\org\apache\continuum\buildagent\configuration\BuildAgentConfigurationException.java,0,0,0,0
org.apache.continuum.buildagent.configuration.BuildAgentConfigurationException, 0, 0, 0, 0, 0, 0, 0, 0, 0, 0, 0, 0, 0, 0,0.0,0.0,0.0,0.0,0.0,0.0,0.0,0.0,0.0,0.0,0.0,0.0,0.0,16,continuum-buildagent\continuum-buildagent-api\src\main\java\org\apache\continuum\buildagent\configuration\BuildAgentConfigurationException.java,0,0,0,0
org.apache.continuum.buildagent.configuration.BuildAgentConfigurationService, 0, 0, 0, 0, 0, 0, 0, 0, 0, 0, 0, 0, 0, 0,0.0,0.0,0.0,0.0,0.0,0.0,0.0,0.0,0.0,0.0,0.0,0.0,0.0,16,continuum-buildagent\continuum-buildagent-api\src\main\java\org\apache\continuum\buildagent\configuration\BuildAgentConfigurationService.java,0,0,0,0
org.apache.continuum.buildagent.configuration.BuildAgentConfigurationTest, 0, 0, 0, 0, 0, 0, 0, 0, 0, 0, 0, 0, 0, 0,0.0,0.0,0.0,0.0,0.0,0.0,0.0,0.0,0.0,0.0,0.0,0.0,0.0,123,continuum-buildagent\continuum-buildagent-core\src\test\java\org\apache\continuum\buildagent\configuration\BuildAgentConfigurationTest.java,0,0,0,0
org.apache.continuum.buildagent.configuration.DefaultBuildAgentConfiguration, 0, 0, 0, 0, 0, 0, 0, 0, 0, 0, 0, 0, 0, 0,0.0,0.0,0.0,0.0,0.0,0.0,0.0,0.0,0.0,0.0,0.0,0.0,0.0,137,continuum-buildagent\continuum-buildagent-core\src\main\java\org\apache\continuum\buildagent\configuration\DefaultBuildAgentConfiguration.java,0,0,0,0
org.apache.continuum.buildagent.configuration.DefaultBuildAgentConfigurationService, 0, 0, 0, 0, 0, 0, 0, 0, 0, 0, 0, 0, 0, 0,0.0,0.0,0.0,0.0,0.0,0.0,0.0,0.0,0.0,0.0,0.0,0.0,0.0,111,continuum-buildagent\continuum-buildagent-core\src\main\java\org\apache\continuum\buildagent\configuration\DefaultBuildAgentConfigurationService.java,0,0,0,0
org.apache.continuum.buildagent.configuration.GeneralBuildAgentConfiguration, 0, 0, 0, 0, 0, 0, 0, 0, 0, 0, 0, 0, 0, 0,0.0,0.0,0.0,0.0,0.0,0.0,0.0,0.0,0.0,0.0,0.0,0.0,0.0,57,continuum-buildagent\continuum-buildagent-core\src\main\java\org\apache\continuum\buildagent\configuration\GeneralBuildAgentConfiguration.java,0,0,0,0
org.apache.continuum.buildagent.installation.BuildAgentInstallationService, 0, 0, 0, 0, 0, 0, 0, 0, 0, 0, 0, 0, 0, 0,0.0,0.0,0.0,0.0,0.0,0.0,0.0,0.0,0.0,0.0,0.0,0.0,0.0,57,continuum-buildagent\continuum-buildagent-core\src\main\java\org\apache\continuum\buildagent\installation\BuildAgentInstallationService.java,0,0,0,0
org.apache.continuum.buildagent.manager.BuildAgentPurgeManager, 0, 0, 0, 0, 0, 0, 0, 0, 0, 0, 0, 0, 0, 0,0.0,0.0,0.0,0.0,0.0,0.0,0.0,0.0,0.0,0.0,0.0,0.0,0.0,57,continuum-buildagent\continuum-buildagent-core\src\main\java\org\apache\continuum\buildagent\manager\BuildAgentPurgeManager.java,0,0,0,0
org.apache.continuum.buildagent.manager.BuildAgentPurgeManagerTest, 0, 0, 0, 0, 0, 0, 0, 1, 0, 0, 0, 0, 0, 1,0.0,0.0,0.0,0.0,0.0,0.0,0.0,0.0,0.0,0.0,0.0,0.0,0.0,183,continuum-buildagent\continuum-buildagent-core\src\test\java\org\apache\continuum\buildagent\manager\BuildAgentPurgeManagerTest.java,0,0,0,0
org.apache.continuum.buildagent.stubs.ContinuumReleaseManagerStub, 0, 0, 0, 0, 0, 0, 0, 1, 0, 0, 0, 0, 0, 1,0.0,0.0,0.0,0.0,0.0,0.0,0.0,0.0,0.0,0.0,0.0,0.0,0.0,22,continuum-buildagent\continuum-buildagent-core\src\test\java\org\apache\continuum\buildagent\stubs\ContinuumReleaseManagerStub.java,0,0,0,0
org.apache.continuum.buildagent.taskqueue.PrepareBuildProjectsTask, 0, 0, 0, 0, 0, 0, 0, 1, 0, 0, 0, 0, 0, 1,0.0,0.0,0.0,0.0,0.0,0.0,0.0,0.5,0.0,0.0,0.0,0.0,0.0,46,continuum-buildagent\continuum-buildagent-core\src\main\java\org\apache\continuum\buildagent\taskqueue\PrepareBuildProjectsTask.java,0,0,0,0
org.apache.continuum.buildagent.taskqueue.manager.BuildAgentTaskQueueManager, 0, 0, 0, 0, 0, 0, 0, 0, 0, 0, 0, 0, 0, 0,0.0,0.0,0.0,0.0,0.0,0.0,0.0,0.0,0.0,0.0,0.0,0.0,0.0,46,continuum-buildagent\continuum-buildagent-core\src\main\java\org\apache\continuum\buildagent\taskqueue\manager\BuildAgentTaskQueueManager.java,0,0,0,0
org.apache.continuum.buildagent.taskqueue.manager.DefaultBuildAgentTaskQueueManager, 0, 0, 0, 0, 0, 0, 0, 1, 0, 0, 0, 0, 0, 1,0.0,0.0,0.0,0.0,0.0,0.0,0.0,0.5,0.0,0.0,0.0,0.0,0.0,298,continuum-buildagent\continuum-buildagent-core\src\main\java\org\apache\continuum\buildagent\taskqueue\manager\DefaultBuildAgentTaskQueueManager.java,0,0,0,0
org.apache.continuum.buildagent.utils.BuildContextToBuildDefinition, 0, 0, 0, 0, 0, 0, 0, 0, 0, 0, 0, 0, 0, 0,0.0,0.0,0.0,0.0,0.0,0.0,0.0,0.0,0.0,0.0,0.0,0.0,0.0,14,continuum-buildagent\continuum-buildagent-core\src\main\java\org\apache\continuum\buildagent\utils\BuildContextToBuildDefinition.java,0,0,0,0
org.apache.continuum.buildagent.utils.BuildContextToProject, 0, 0, 0, 0, 0, 0, 0, 0, 0, 0, 0, 0, 0, 0,0.0,0.0,0.0,0.0,0.0,0.0,0.0,0.0,0.0,0.0,0.0,0.0,0.0,19,continuum-buildagent\continuum-buildagent-core\src\main\java\org\apache\continuum\buildagent\utils\BuildContextToProject.java,0,0,0,0
org.apache.continuum.buildagent.webdav.client.WorkingCopyWebdavClient, 0, 0, 0, 0, 0, 0, 0, 1, 0, 0, 0, 0, 0, 1,0.0,0.0,0.0,0.0,0.0,0.0,0.0,0.0,0.0,0.0,0.0,0.0,0.0,114,continuum-buildagent\continuum-buildagent-webdav-client\src\main\java\org\apache\continuum\buildagent\webdav\client\WorkingCopyWebdavClient.java,0,0,0,0
org.apache.continuum.builder.distributed.executor.DistributedBuildTaskExecutor, 0, 0, 0, 0, 0, 0, 0, 0, 0, 0, 0, 0, 0, 0,0.0,0.0,0.0,0.0,0.0,0.0,0.0,0.0,0.0,0.0,0.0,0.0,0.0,114,continuum-api\src\main\java\org\apache\continuum\builder\distributed\executor\DistributedBuildTaskExecutor.java,0,0,0,0
org.apache.continuum.builder.distributed.executor.DistributedBuildTaskQueueExecutor, 0, 0, 0, 0, 0, 0, 0, 0, 0, 0, 0, 0, 0, 0,0.0,0.0,0.0,0.0,0.0,0.0,0.0,0.0,0.0,0.0,0.0,0.0,0.0,114,continuum-api\src\main\java\org\apache\continuum\builder\distributed\executor\DistributedBuildTaskQueueExecutor.java,0,0,0,0
org.apache.continuum.builder.distributed.executor.ThreadedDistributedBuildTaskQueueExecutor, 0, 0, 0, 0, 0, 0, 0, 0, 0, 0, 0, 0, 0, 0,0.0,0.0,0.0,0.0,0.0,0.0,0.0,0.0,0.0,0.0,0.0,0.0,0.0,243,continuum-builder\src\main\java\org\apache\continuum\builder\distributed\executor\ThreadedDistributedBuildTaskQueueExecutor.java,0,0,0,0
org.apache.continuum.builder.distributed.stubs.DefaultDistributedBuildManagerStub, 0, 0, 0, 0, 0, 0, 0, 0, 0, 0, 0, 0, 0, 0,0.0,0.0,0.0,0.0,0.0,0.0,0.0,0.0,0.0,0.0,0.0,0.0,0.0,9,continuum-core\src\test\java\org\apache\continuum\builder\distributed\stubs\DefaultDistributedBuildManagerStub.java,0,0,0,0
org.apache.continuum.builder.distributed.taskqueue.DefaultOverallDistributedBuildQueue, 0, 0, 0, 0, 0, 0, 0, 0, 0, 0, 0, 0, 0, 0,0.0,0.0,0.0,0.0,0.0,0.0,0.0,0.0,0.0,0.0,0.0,0.0,0.0,105,continuum-builder\src\main\java\org\apache\continuum\builder\distributed\taskqueue\DefaultOverallDistributedBuildQueue.java,0,0,0,0
org.apache.continuum.builder.distributed.work.ContinuumWorker, 0, 0, 0, 0, 0, 0, 0, 0, 0, 0, 0, 0, 0, 0,0.0,0.0,0.0,0.0,0.0,0.0,0.0,0.0,0.0,0.0,0.0,0.0,0.0,105,continuum-api\src\main\java\org\apache\continuum\builder\distributed\work\ContinuumWorker.java,0,0,0,0
org.apache.continuum.builder.distributed.work.DefaultContinuumWorker, 0, 0, 0, 0, 0, 0, 0, 0, 0, 0, 0, 0, 0, 0,0.0,0.0,0.0,0.0,0.0,0.0,0.0,0.0,0.0,0.0,0.0,0.0,0.0,129,continuum-core\src\main\java\org\apache\continuum\builder\distributed\work\DefaultContinuumWorker.java,0,0,0,0
org.apache.continuum.builder.distributed.work.DefaultContinuumWorkerTest, 0, 0, 0, 0, 0, 0, 0, 0, 0, 0, 0, 0, 0, 0,0.0,0.0,0.0,0.0,0.0,0.0,0.0,0.0,0.0,0.0,0.0,0.0,0.0,130,continuum-core\src\test\java\org\apache\continuum\builder\distributed\work\DefaultContinuumWorkerTest.java,0,0,0,0
org.apache.continuum.buildmanager.BuildManagerException, 0, 0, 0, 0, 0, 0, 0, 0, 0, 0, 0, 0, 0, 0,0.0,0.0,0.0,0.0,0.0,0.0,0.0,0.0,0.0,0.0,0.0,0.0,0.0,16,continuum-api\src\main\java\org\apache\continuum\buildmanager\BuildManagerException.java,0,0,0,0
org.apache.continuum.buildqueue.BuildQueueService, 0, 0, 0, 0, 0, 0, 0, 0, 0, 0, 0, 0, 0, 0,0.0,0.0,0.0,0.0,0.0,0.0,0.0,0.0,0.0,0.0,0.0,0.0,0.0,16,continuum-api\src\main\java\org\apache\continuum\buildqueue\BuildQueueService.java,0,0,0,0
org.apache.continuum.buildqueue.BuildQueueServiceException, 0, 0, 0, 0, 0, 0, 0, 0, 0, 0, 0, 0, 0, 0,0.0,0.0,0.0,1.0,0.0,0.0,0.0,1.0,0.0,0.0,0.0,0.0,0.0,16,continuum-api\src\main\java\org\apache\continuum\buildqueue\BuildQueueServiceException.java,0,0,0,0
org.apache.continuum.buildqueue.DefaultBuildQueueService, 0, 0, 0, 0, 0, 0, 0, 0, 0, 0, 0, 0, 0, 0,0.0,0.0,0.0,0.0,0.0,0.0,0.0,0.0,0.0,0.0,0.0,0.0,0.0,107,continuum-commons\src\main\java\org\apache\continuum\buildqueue\DefaultBuildQueueService.java,0,0,0,0
org.apache.continuum.configuration.BuildAgentConfiguration, 0, 0, 0, 0, 0, 0, 0, 1, 0, 0, 0, 0, 0, 1,0.0,0.0,0.0,0.3333333333333333,0.0,0.0,0.0,0.0,0.0,0.0,0.0,0.0,0.0,39,continuum-api\src\main\java\org\apache\continuum\configuration\BuildAgentConfiguration.java,0,0,0,0
org.apache.continuum.configuration.BuildAgentConfigurationException, 0, 0, 0, 0, 0, 0, 0, 0, 0, 0, 0, 0, 0, 0,0.0,0.0,0.0,0.0,0.0,0.0,0.0,0.0,0.0,0.0,0.0,0.0,0.0,16,continuum-api\src\main\java\org\apache\continuum\configuration\BuildAgentConfigurationException.java,0,0,0,0
org.apache.continuum.configuration.BuildAgentGroupConfiguration, 0, 0, 0, 0, 0, 0, 0, 0, 0, 0, 0, 0, 0, 0,0.0,0.0,0.0,0.4,0.0,0.0,0.0,0.2,0.0,0.0,0.0,0.0,0.0,45,continuum-api\src\main\java\org\apache\continuum\configuration\BuildAgentGroupConfiguration.java,0,0,0,0
org.apache.continuum.configuration.ContinuumConfiguration, 0, 0, 0, 0, 0, 0, 0, 0, 0, 0, 0, 0, 0, 0,0.0,0.0,0.0,0.0,0.0,0.0,0.0,0.0,0.0,0.0,0.0,0.0,0.0,45,continuum-api\src\main\java\org\apache\continuum\configuration\ContinuumConfiguration.java,0,0,0,0
org.apache.continuum.configuration.ContinuumConfigurationException, 0, 0, 0, 0, 0, 0, 0, 0, 0, 0, 0, 0, 0, 0,0.0,0.0,0.0,0.5,0.0,0.0,0.0,0.5,0.0,0.0,0.0,0.0,0.0,16,continuum-api\src\main\java\org\apache\continuum\configuration\ContinuumConfigurationException.java,0,0,0,0
org.apache.continuum.configuration.DefaultContinuumConfiguration, 0, 0, 0, 0, 0, 0, 0, 0, 0, 0, 0, 0, 0, 0,0.0,0.0,0.0,0.3333333333333333,0.0,0.0,0.0,0.3333333333333333,0.0,0.0,0.0,0.0,0.0,259,continuum-base\continuum-configuration\src\main\java\org\apache\continuum\configuration\DefaultContinuumConfiguration.java,0,0,0,0
org.apache.continuum.configuration.GeneralConfiguration, 0, 0, 0, 1, 0, 0, 0, 0, 0, 0, 0, 0, 0, 1,0.0,0.0,0.0,0.25,0.0,0.0,0.0,0.25,0.0,0.0,0.0,0.0,0.0,119,continuum-api\src\main\java\org\apache\continuum\configuration\GeneralConfiguration.java,0,0,0,0
org.apache.continuum.configuration.ProxyConfiguration, 0, 0, 0, 0, 0, 0, 0, 1, 0, 0, 0, 0, 0, 1,0.0,0.0,0.0,0.3333333333333333,0.0,0.0,0.0,0.0,0.0,0.0,0.0,0.0,0.0,55,continuum-api\src\main\java\org\apache\continuum\configuration\ProxyConfiguration.java,0,0,0,0
org.apache.continuum.configuration.TestDefaultContinuumConfiguration, 0, 0, 0, 0, 0, 0, 0, 0, 0, 0, 0, 0, 0, 0,0.0,0.0,0.0,0.25,0.0,0.0,0.0,0.5,0.0,0.0,0.0,0.0,0.0,115,continuum-base\continuum-configuration\src\test\java\org\apache\continuum\configuration\TestDefaultContinuumConfiguration.java,0,0,0,0
org.apache.continuum.dao.AbstractDao, 0, 0, 0, 0, 0, 0, 0, 1, 0, 0, 0, 0, 0, 1,0.0,0.0,0.0,0.0,0.0,0.0,0.0,0.058823529411764705,0.0,0.0,0.0,0.0,0.0,122,continuum-store\src\main\java\org\apache\continuum\dao\AbstractDao.java,0,0,0,0
org.apache.continuum.dao.BuildDefinitionTemplateDao, 0, 0, 0, 0, 0, 0, 0, 0, 0, 0, 0, 0, 0, 0,0.0,0.0,0.0,0.0,0.0,0.0,0.0,0.0,0.0,0.0,0.0,0.0,0.0,122,continuum-api\src\main\java\org\apache\continuum\dao\BuildDefinitionTemplateDao.java,0,0,0,0
org.apache.continuum.dao.BuildDefinitionTemplateDaoImpl, 0, 0, 0, 0, 0, 0, 0, 0, 0, 0, 0, 0, 0, 0,0.0,0.0,0.0,0.0,0.0,0.0,0.0,1.0,0.0,0.0,0.0,0.0,0.0,123,continuum-store\src\main\java\org\apache\continuum\dao\BuildDefinitionTemplateDaoImpl.java,0,0,0,0
org.apache.continuum.dao.BuildQueueDao, 0, 0, 0, 0, 0, 0, 0, 0, 0, 0, 0, 0, 0, 0,0.0,0.0,0.0,0.0,0.0,0.0,0.0,0.0,0.0,0.0,0.0,0.0,0.0,123,continuum-api\src\main\java\org\apache\continuum\dao\BuildQueueDao.java,0,0,0,0
org.apache.continuum.dao.BuildQueueDaoImpl, 0, 0, 0, 0, 0, 0, 0, 0, 0, 0, 0, 0, 0, 0,0.0,0.0,0.0,0.0,0.0,0.0,0.0,1.0,0.0,0.0,0.0,0.0,0.0,74,continuum-store\src\main\java\org\apache\continuum\dao\BuildQueueDaoImpl.java,0,0,0,0
org.apache.continuum.dao.ContinuumReleaseResultDao, 0, 0, 0, 0, 0, 0, 0, 0, 0, 0, 0, 0, 0, 0,0.0,0.0,0.0,0.0,0.0,0.0,0.0,0.0,0.0,0.0,0.0,0.0,0.0,74,continuum-api\src\main\java\org\apache\continuum\dao\ContinuumReleaseResultDao.java,0,0,0,0
org.apache.continuum.dao.ContinuumReleaseResultDaoImpl, 0, 0, 0, 0, 0, 0, 0, 1, 0, 0, 0, 0, 0, 1,0.0,0.0,0.0,0.0,0.0,0.0,0.0,1.0,0.0,0.0,0.0,0.0,0.0,97,continuum-store\src\main\java\org\apache\continuum\dao\ContinuumReleaseResultDaoImpl.java,0,0,0,0
org.apache.continuum.dao.DirectoryPurgeConfigurationDao, 0, 0, 0, 0, 0, 0, 0, 0, 0, 0, 0, 0, 0, 0,0.0,0.0,0.0,0.0,0.0,0.0,0.0,0.0,0.0,0.0,0.0,0.0,0.0,97,continuum-api\src\main\java\org\apache\continuum\dao\DirectoryPurgeConfigurationDao.java,0,0,0,0
org.apache.continuum.dao.DirectoryPurgeConfigurationDaoImpl, 0, 0, 0, 0, 0, 0, 0, 0, 0, 0, 0, 0, 0, 0,0.0,0.0,0.0,0.0,0.0,0.0,0.0,1.0,0.0,0.0,0.0,0.0,0.0,111,continuum-store\src\main\java\org\apache\continuum\dao\DirectoryPurgeConfigurationDaoImpl.java,0,0,0,0
org.apache.continuum.dao.DistributedDirectoryPurgeConfigurationDao, 0, 0, 0, 0, 0, 0, 0, 0, 0, 0, 0, 0, 0, 0,0.0,0.0,0.0,0.0,0.0,0.0,0.0,0.0,0.0,0.0,0.0,0.0,0.0,111,continuum-api\src\main\java\org\apache\continuum\dao\DistributedDirectoryPurgeConfigurationDao.java,0,0,0,0
org.apache.continuum.dao.DistributedDirectoryPurgeConfigurationDaoImpl, 0, 0, 0, 0, 0, 0, 0, 0, 0, 0, 0, 0, 0, 0,0.0,0.0,0.0,0.0,0.0,0.0,0.0,1.0,0.0,0.0,0.0,0.0,0.0,96,continuum-store\src\main\java\org\apache\continuum\dao\DistributedDirectoryPurgeConfigurationDaoImpl.java,0,0,0,0
org.apache.continuum.dao.InstallationDao, 0, 0, 0, 0, 0, 0, 0, 0, 0, 0, 0, 0, 0, 0,0.0,0.0,0.0,0.0,0.0,0.0,0.0,0.0,0.0,0.0,0.0,0.0,0.0,96,continuum-api\src\main\java\org\apache\continuum\dao\InstallationDao.java,0,0,0,0
org.apache.continuum.dao.InstallationDaoImpl, 0, 0, 0, 0, 0, 0, 0, 0, 0, 0, 0, 0, 0, 0,0.0,0.0,0.0,0.0,0.0,0.0,0.0,1.0,0.0,0.0,0.0,0.0,0.0,138,continuum-store\src\main\java\org\apache\continuum\dao\InstallationDaoImpl.java,0,0,0,0
org.apache.continuum.dao.LocalRepositoryDao, 0, 0, 0, 0, 0, 0, 0, 0, 0, 0, 0, 0, 0, 0,0.0,0.0,0.0,0.0,0.0,0.0,0.0,0.0,0.0,0.0,0.0,0.0,0.0,138,continuum-api\src\main\java\org\apache\continuum\dao\LocalRepositoryDao.java,0,0,0,0
org.apache.continuum.dao.LocalRepositoryDaoImpl, 0, 0, 0, 0, 0, 0, 0, 0, 0, 0, 0, 0, 0, 0,0.0,0.0,0.0,0.0,0.0,0.0,0.0,1.0,0.0,0.0,0.0,0.0,0.0,106,continuum-store\src\main\java\org\apache\continuum\dao\LocalRepositoryDaoImpl.java,0,0,0,0
org.apache.continuum.dao.NotifierDao, 0, 0, 0, 0, 0, 0, 0, 0, 0, 0, 0, 0, 0, 0,0.0,0.0,0.0,0.0,0.0,0.0,0.0,0.0,0.0,0.0,0.0,0.0,0.0,106,continuum-api\src\main\java\org\apache\continuum\dao\NotifierDao.java,0,0,0,0
org.apache.continuum.dao.NotifierDaoImpl, 0, 0, 0, 0, 0, 0, 0, 0, 0, 0, 0, 0, 0, 0,0.0,0.0,0.0,0.0,0.0,0.0,0.0,1.0,0.0,0.0,0.0,0.0,0.0,16,continuum-store\src\main\java\org\apache\continuum\dao\NotifierDaoImpl.java,0,0,0,0
org.apache.continuum.dao.ProfileDao, 0, 0, 0, 0, 0, 0, 0, 0, 0, 0, 0, 0, 0, 0,0.0,0.0,0.0,0.0,0.0,0.0,0.0,0.0,0.0,0.0,0.0,0.0,0.0,16,continuum-api\src\main\java\org\apache\continuum\dao\ProfileDao.java,0,0,0,0
org.apache.continuum.dao.ProfileDaoImpl, 0, 0, 0, 0, 0, 0, 0, 0, 0, 0, 0, 0, 0, 0,0.0,0.0,0.0,0.0,0.0,0.0,0.0,1.0,0.0,0.0,0.0,0.0,0.0,55,continuum-store\src\main\java\org\apache\continuum\dao\ProfileDaoImpl.java,0,0,0,0
org.apache.continuum.dao.ProjectGroupDao, 0, 0, 0, 0, 0, 0, 0, 0, 0, 0, 0, 0, 0, 0,0.0,0.0,0.0,0.0,0.0,0.0,0.0,0.0,0.0,0.0,0.0,0.0,0.0,55,continuum-api\src\main\java\org\apache\continuum\dao\ProjectGroupDao.java,0,0,0,0
org.apache.continuum.dao.ProjectGroupDaoImpl, 0, 0, 0, 0, 0, 0, 0, 0, 0, 0, 0, 0, 0, 0,0.0,0.0,0.0,0.0,0.0,0.0,0.0,0.3333333333333333,0.0,0.0,0.0,0.0,0.0,152,continuum-store\src\main\java\org\apache\continuum\dao\ProjectGroupDaoImpl.java,0,0,0,0
org.apache.continuum.dao.ProjectScmRootDao, 0, 0, 0, 0, 0, 0, 0, 0, 0, 0, 0, 0, 0, 0,0.0,0.0,0.0,0.0,0.0,0.0,0.0,0.0,0.0,0.0,0.0,0.0,0.0,152,continuum-api\src\main\java\org\apache\continuum\dao\ProjectScmRootDao.java,0,0,0,0
org.apache.continuum.dao.ProjectScmRootDaoImpl, 0, 0, 0, 0, 0, 0, 0, 0, 0, 0, 0, 0, 0, 0,0.0,0.0,0.0,0.0,0.0,0.0,0.0,1.0,0.0,0.0,0.0,0.0,0.0,79,continuum-store\src\main\java\org\apache\continuum\dao\ProjectScmRootDaoImpl.java,0,0,0,0
org.apache.continuum.dao.RepositoryPurgeConfigurationDao, 0, 0, 0, 0, 0, 0, 0, 0, 0, 0, 0, 0, 0, 0,0.0,0.0,0.0,0.0,0.0,0.0,0.0,0.0,0.0,0.0,0.0,0.0,0.0,79,continuum-api\src\main\java\org\apache\continuum\dao\RepositoryPurgeConfigurationDao.java,0,0,0,0
org.apache.continuum.dao.RepositoryPurgeConfigurationDaoImpl, 0, 0, 0, 0, 0, 0, 0, 0, 0, 0, 0, 0, 0, 0,0.0,0.0,0.0,0.0,0.0,0.0,0.0,1.0,0.0,0.0,0.0,0.0,0.0,90,continuum-store\src\main\java\org\apache\continuum\dao\RepositoryPurgeConfigurationDaoImpl.java,0,0,0,0
org.apache.continuum.dao.ScheduleDao, 0, 0, 0, 0, 0, 0, 0, 0, 0, 0, 0, 0, 0, 0,0.0,0.0,0.0,0.0,0.0,0.0,0.0,0.0,0.0,0.0,0.0,0.0,0.0,90,continuum-api\src\main\java\org\apache\continuum\dao\ScheduleDao.java,0,0,0,0
org.apache.continuum.dao.ScheduleDaoImpl, 0, 0, 0, 0, 0, 0, 0, 0, 0, 0, 0, 0, 0, 0,0.0,0.0,0.0,0.0,0.0,0.0,0.0,1.0,0.0,0.0,0.0,0.0,0.0,61,continuum-store\src\main\java\org\apache\continuum\dao\ScheduleDaoImpl.java,0,0,0,0
org.apache.continuum.dao.StoreUtilities, 0, 0, 0, 0, 0, 0, 0, 0, 0, 0, 0, 0, 0, 0,0.0,0.0,0.0,0.0,0.0,0.0,0.0,1.0,0.0,0.0,0.0,0.0,0.0,14,continuum-store\src\main\java\org\apache\continuum\dao\StoreUtilities.java,0,0,0,0
org.apache.continuum.dao.SystemConfigurationDao, 0, 0, 0, 0, 0, 0, 0, 0, 0, 0, 0, 0, 0, 0,0.0,0.0,0.0,0.0,0.0,0.0,0.0,0.0,0.0,0.0,0.0,0.0,0.0,14,continuum-api\src\main\java\org\apache\continuum\dao\SystemConfigurationDao.java,0,0,0,0
org.apache.continuum.dao.SystemConfigurationDaoImpl, 0, 0, 0, 0, 0, 0, 0, 0, 0, 0, 0, 0, 0, 0,0.0,0.0,0.0,0.0,0.0,0.0,0.0,0.5,0.0,0.0,0.0,0.0,0.0,32,continuum-store\src\main\java\org\apache\continuum\dao\SystemConfigurationDaoImpl.java,0,0,0,0
org.apache.continuum.distributed.transport.slave.SampleBuildAgentClient, 0, 0, 0, 0, 0, 0, 0, 0, 0, 0, 0, 0, 0, 0,0.0,0.0,0.0,0.0,0.0,0.0,0.0,0.0,0.0,0.0,0.0,0.0,0.0,21,continuum-distributed\continuum-distributed-slave\continuum-distributed-slave-client\src\main\java\org\apache\continuum\distributed\transport\slave\SampleBuildAgentClient.java,0,0,0,0
org.apache.continuum.distributed.transport.slave.SlaveBuildAgentTransportAuthenticator, 0, 0, 0, 0, 0, 0, 0, 0, 0, 0, 0, 0, 0, 0,0.0,0.0,0.0,0.0,0.0,0.0,0.0,0.0,0.0,0.0,0.0,0.0,0.0,28,continuum-distributed\continuum-distributed-slave\continuum-distributed-slave-server\src\main\java\org\apache\continuum\distributed\transport\slave\SlaveBuildAgentTransportAuthenticator.java,0,0,0,0
org.apache.continuum.distributed.transport.tests.SlaveBuildAgentTransportServiceTest, 0, 0, 0, 0, 0, 0, 0, 0, 0, 0, 0, 0, 0, 0,0.0,0.0,0.0,0.0,0.0,0.0,0.0,0.0,0.0,0.0,0.0,0.0,0.0,78,continuum-distributed\continuum-distributed-tests\src\test\it\org\apache\continuum\distributed\transport\tests\SlaveBuildAgentTransportServiceTest.java,0,0,0,0
org.apache.continuum.examples.App, 0, 0, 0, 0, 0, 0, 0, 0, 0, 0, 0, 0, 0, 0,0.0,0.0,0.0,0.0,0.0,0.0,0.0,0.0,0.0,0.0,0.0,0.0,0.0,7,continuum-webapp-test\src\test\example-projects\continuum-2437-example\src\main\java\org\apache\continuum\examples\App.java,0,0,0,0
org.apache.continuum.examples.AppTest, 0, 0, 0, 0, 0, 0, 0, 0, 0, 0, 0, 0, 0, 0,0.0,0.0,0.0,0.0,0.0,0.0,0.0,0.0,0.0,0.0,0.0,0.0,0.0,16,continuum-webapp-test\src\test\example-projects\continuum-2437-example\src\test\java\org\apache\continuum\examples\AppTest.java,0,0,0,0
org.apache.continuum.examples.BasicThreadTest, 0, 0, 0, 0, 0, 0, 0, 0, 0, 0, 0, 0, 0, 0,0.0,0.0,0.0,0.0,0.0,0.0,0.0,0.0,0.0,0.0,0.0,0.0,0.0,10,continuum-webapp-test\src\test\example-projects\continuum-build-queue-test-data\src\test\java\org\apache\continuum\examples\BasicThreadTest.java,0,0,0,0
org.apache.continuum.model.project.ProjectGroupSummary, 0, 0, 0, 0, 0, 0, 0, 0, 0, 0, 0, 0, 0, 0,0.0,0.0,0.0,0.0,0.0,0.0,0.0,0.0,0.0,0.0,0.0,0.0,0.0,71,continuum-model\src\main\java\org\apache\continuum\model\project\ProjectGroupSummary.java,0,0,0,0
org.apache.continuum.model.project.ProjectRunSummary, 0, 0, 0, 0, 0, 0, 0, 0, 0, 0, 0, 0, 0, 0,0.0,0.0,0.0,0.0,0.0,0.0,0.0,0.0,0.0,0.0,0.0,0.0,0.0,66,continuum-model\src\main\java\org\apache\continuum\model\project\ProjectRunSummary.java,0,0,0,0
org.apache.continuum.model.project.ProjectSummaryResult, 0, 0, 0, 0, 0, 0, 0, 1, 0, 0, 0, 0, 0, 1,0.0,0.0,0.0,0.0,0.0,0.0,0.0,0.0,0.0,0.0,0.0,0.0,0.0,36,continuum-model\src\main\java\org\apache\continuum\model\project\ProjectSummaryResult.java,0,0,0,0
org.apache.continuum.model.release.ReleaseListenerSummary, 0, 0, 0, 0, 0, 0, 0, 0, 0, 0, 0, 0, 0, 0,0.0,0.0,0.0,0.0,0.0,0.0,0.0,0.0,0.0,0.0,0.0,0.0,0.0,66,continuum-model\src\main\java\org\apache\continuum\model\release\ReleaseListenerSummary.java,0,0,0,0
org.apache.continuum.module.a.App, 0, 0, 0, 0, 0, 0, 0, 0, 0, 0, 0, 0, 0, 0,0.0,0.0,0.0,0.0,0.0,0.0,0.0,0.0,0.0,0.0,0.0,0.0,0.0,7,continuum-core\src\test-projects\flat-multi-module\module-a\src\main\java\org\apache\continuum\module\a\App.java,0,0,0,0
org.apache.continuum.module.a.AppTest, 0, 0, 0, 0, 0, 0, 0, 0, 0, 0, 0, 0, 0, 0,0.0,0.0,0.0,0.0,0.0,0.0,0.0,0.0,0.0,0.0,0.0,0.0,0.0,16,continuum-core\src\test-projects\flat-multi-module\module-a\src\test\java\org\apache\continuum\module\a\AppTest.java,0,0,0,0
org.apache.continuum.module.b.App, 0, 0, 0, 0, 0, 0, 0, 0, 0, 0, 0, 0, 0, 0,0.0,0.0,0.0,0.0,0.0,0.0,0.0,0.0,0.0,0.0,0.0,0.0,0.0,7,continuum-core\src\test-projects\flat-multi-module\module-b\src\main\java\org\apache\continuum\module\b\App.java,0,0,0,0
org.apache.continuum.module.b.AppTest, 0, 0, 0, 0, 0, 0, 0, 0, 0, 0, 0, 0, 0, 0,0.0,0.0,0.0,0.0,0.0,0.0,0.0,0.0,0.0,0.0,0.0,0.0,0.0,16,continuum-core\src\test-projects\flat-multi-module\module-b\src\test\java\org\apache\continuum\module\b\AppTest.java,0,0,0,0
org.apache.continuum.module.c.App, 0, 0, 0, 0, 0, 0, 0, 0, 0, 0, 0, 0, 0, 0,0.0,0.0,0.0,0.0,0.0,0.0,0.0,0.0,0.0,0.0,0.0,0.0,0.0,7,continuum-core\src\test-projects\multi-module\module-C\module-D\src\main\java\org\apache\continuum\module\c\App.java,0,0,0,0
org.apache.continuum.module.d.App, 0, 0, 0, 0, 0, 0, 0, 0, 0, 0, 0, 0, 0, 0,0.0,0.0,0.0,0.0,0.0,0.0,0.0,0.0,0.0,0.0,0.0,0.0,0.0,7,continuum-core\src\test-projects\flat-multi-module\module-c\module-d\src\main\java\org\apache\continuum\module\d\App.java,0,0,0,0
org.apache.continuum.notification.mail.MockJavaMailSender, 0, 0, 0, 0, 0, 0, 0, 0, 0, 0, 0, 0, 0, 0,0.0,0.0,0.0,0.0,0.0,0.0,0.0,0.0,0.0,0.0,0.0,0.0,0.0,19,continuum-core\src\test\java\org\apache\continuum\notification\mail\MockJavaMailSender.java,0,0,0,0
org.apache.continuum.profile.DefaultProfileService, 0, 0, 0, 0, 0, 0, 0, 0, 0, 0, 0, 0, 0, 0,0.0,0.0,0.0,0.0,0.0,0.0,0.0,0.0,0.0,0.0,0.0,0.0,0.0,219,continuum-commons\src\main\java\org\apache\continuum\profile\DefaultProfileService.java,0,0,0,0
org.apache.continuum.profile.DefaultProfileServiceTest, 0, 0, 0, 1, 0, 0, 0, 0, 0, 0, 0, 0, 0, 1,0.0,0.0,0.0,0.0,0.0,0.0,0.0,0.0,0.0,0.0,0.0,0.0,0.0,222,continuum-commons\src\test\java\org\apache\continuum\profile\DefaultProfileServiceTest.java,0,0,0,0
org.apache.continuum.purge.ContinuumPurgeConstants, 0, 0, 0, 0, 0, 0, 0, 0, 0, 0, 0, 0, 0, 0,0.0,0.0,0.0,0.0,0.0,0.0,0.0,0.0,0.0,0.0,0.0,0.0,0.0,12,continuum-purge\src\main\java\org\apache\continuum\purge\ContinuumPurgeConstants.java,0,0,0,0
org.apache.continuum.purge.ContinuumPurgeManager, 0, 0, 0, 0, 0, 0, 0, 0, 0, 0, 0, 0, 0, 0,0.0,0.0,0.0,0.0,0.0,0.0,0.0,0.0,0.0,0.0,0.0,0.0,0.0,12,continuum-api\src\main\java\org\apache\continuum\purge\ContinuumPurgeManager.java,0,0,0,0
org.apache.continuum.purge.ContinuumPurgeManagerException, 0, 0, 0, 0, 0, 0, 0, 0, 0, 0, 0, 0, 0, 0,0.0,0.0,0.0,0.0,0.0,0.0,0.0,0.0,0.0,0.0,0.0,0.0,0.0,15,continuum-api\src\main\java\org\apache\continuum\purge\ContinuumPurgeManagerException.java,0,0,0,0
org.apache.continuum.purge.DefaultContinuumPurgeManager, 0, 0, 0, 0, 0, 0, 0, 0, 0, 0, 0, 0, 0, 0,0.0,0.0,0.0,0.0,0.0,0.0,0.0,0.0,0.0,0.0,0.0,0.0,0.0,118,continuum-core\src\main\java\org\apache\continuum\purge\DefaultContinuumPurgeManager.java,0,0,0,0
org.apache.continuum.purge.DefaultContinuumPurgeManagerTest, 0, 0, 0, 0, 0, 0, 0, 0, 0, 0, 0, 0, 0, 0,0.0,0.0,0.0,0.0,0.0,0.0,0.0,0.0,0.0,0.0,0.0,0.0,0.0,121,continuum-core\src\test\java\org\apache\continuum\purge\DefaultContinuumPurgeManagerTest.java,0,0,0,0
org.apache.continuum.purge.DefaultPurgeConfigurationService, 0, 0, 0, 1, 0, 0, 0, 0, 0, 0, 0, 0, 0, 1,0.0,0.0,0.0,0.0,0.0,0.0,0.0,0.0,0.0,0.0,0.0,0.0,0.0,366,continuum-purge\src\main\java\org\apache\continuum\purge\DefaultPurgeConfigurationService.java,0,0,0,0
org.apache.continuum.purge.DefaultPurgeConfigurationServiceTest, 0, 0, 0, 0, 0, 0, 0, 0, 0, 0, 0, 0, 0, 0,0.0,0.0,0.0,0.0,0.0,0.0,0.0,0.0,0.0,0.0,0.0,0.0,0.0,82,continuum-purge\src\test\java\org\apache\continuum\purge\DefaultPurgeConfigurationServiceTest.java,0,0,0,0
org.apache.continuum.purge.PurgeConfigurationService, 0, 0, 0, 0, 0, 0, 0, 0, 0, 0, 0, 0, 0, 0,0.0,0.0,0.0,0.0,0.0,0.0,0.0,0.0,0.0,0.0,0.0,0.0,0.0,82,continuum-api\src\main\java\org\apache\continuum\purge\PurgeConfigurationService.java,0,0,0,0
org.apache.continuum.purge.PurgeConfigurationServiceException, 0, 0, 0, 0, 0, 0, 0, 0, 0, 0, 0, 0, 0, 0,0.0,0.0,0.0,0.5,0.0,0.0,0.0,0.0,0.0,0.0,0.0,0.0,0.0,16,continuum-api\src\main\java\org\apache\continuum\purge\PurgeConfigurationServiceException.java,0,0,0,0
org.apache.continuum.purge.controller.DirectoryPurgeController, 0, 0, 0, 0, 0, 0, 0, 0, 0, 0, 0, 0, 0, 0,0.0,0.0,0.0,0.0,0.0,0.0,0.0,0.25,0.0,0.0,0.0,0.0,0.0,43,continuum-purge\src\main\java\org\apache\continuum\purge\controller\DirectoryPurgeController.java,0,0,0,0
org.apache.continuum.purge.controller.PurgeController, 0, 0, 0, 0, 0, 0, 0, 0, 0, 0, 0, 0, 0, 0,0.0,0.0,0.0,0.0,0.0,0.0,0.0,0.0,0.0,0.0,0.0,0.0,0.0,43,continuum-api\src\main\java\org\apache\continuum\purge\controller\PurgeController.java,0,0,0,0
org.apache.continuum.purge.controller.RepositoryPurgeController, 0, 0, 0, 0, 0, 0, 0, 0, 0, 0, 0, 0, 0, 0,0.0,0.0,0.0,0.0,0.0,0.0,0.0,0.0,0.0,0.0,0.0,0.0,0.0,66,continuum-purge\src\main\java\org\apache\continuum\purge\controller\RepositoryPurgeController.java,0,0,0,0
org.apache.continuum.purge.executor.AbstractContinuumPurgeExecutor, 0, 0, 0, 0, 0, 0, 0, 0, 0, 0, 0, 0, 0, 0,0.0,0.0,0.0,0.0,0.0,0.0,0.0,0.3333333333333333,0.0,0.0,0.0,0.0,0.0,37,continuum-purge\src\main\java\org\apache\continuum\purge\executor\AbstractContinuumPurgeExecutor.java,0,0,0,0
org.apache.continuum.purge.executor.AbstractPurgeExecutorTest, 0, 0, 0, 1, 0, 0, 0, 1, 0, 0, 0, 0, 0, 2,0.0,0.0,0.0,0.0,0.0,0.0,0.0,0.0,0.0,0.0,0.0,0.0,0.0,275,continuum-purge\src\test\java\org\apache\continuum\purge\executor\AbstractPurgeExecutorTest.java,0,0,0,0
org.apache.continuum.purge.executor.CleanAllPurgeExecutor, 0, 0, 0, 0, 0, 0, 0, 0, 0, 0, 0, 0, 0, 0,0.0,0.0,0.0,0.0,0.0,0.0,0.0,0.0,0.0,0.0,0.0,0.0,0.0,78,continuum-purge\src\main\java\org\apache\continuum\purge\executor\CleanAllPurgeExecutor.java,0,0,0,0
org.apache.continuum.purge.executor.CleanAllPurgeExecutorTest, 0, 0, 0, 0, 0, 0, 0, 0, 0, 0, 0, 0, 0, 0,0.0,0.0,0.0,1.0,0.0,0.0,0.0,1.0,0.0,0.0,0.0,0.0,0.0,46,continuum-purge\src\test\java\org\apache\continuum\purge\executor\CleanAllPurgeExecutorTest.java,0,0,0,0
org.apache.continuum.purge.executor.ContinuumPurgeExecutor, 0, 0, 0, 0, 0, 0, 0, 0, 0, 0, 0, 0, 0, 0,0.0,0.0,0.0,0.0,0.0,0.0,0.0,0.0,0.0,0.0,0.0,0.0,0.0,46,continuum-api\src\main\java\org\apache\continuum\purge\executor\ContinuumPurgeExecutor.java,0,0,0,0
org.apache.continuum.purge.executor.ContinuumPurgeExecutorException, 0, 0, 0, 0, 0, 0, 0, 0, 0, 0, 0, 0, 0, 0,0.0,0.0,0.0,0.0,0.0,0.0,0.0,0.0,0.0,0.0,0.0,0.0,0.0,15,continuum-api\src\main\java\org\apache\continuum\purge\executor\ContinuumPurgeExecutorException.java,0,0,0,0
org.apache.continuum.purge.executor.DaysOldDirectoryPurgeExecutor, 0, 0, 0, 0, 0, 0, 0, 1, 0, 0, 0, 0, 0, 1,0.0,0.0,0.0,0.0,0.0,0.0,0.0,0.0,0.0,0.0,0.0,0.0,0.0,103,continuum-purge\src\main\java\org\apache\continuum\purge\executor\DaysOldDirectoryPurgeExecutor.java,0,0,0,0
org.apache.continuum.purge.executor.DaysOldDirectoryPurgeExecutorTest, 0, 0, 0, 0, 0, 0, 0, 0, 0, 0, 0, 0, 0, 0,0.0,0.0,0.0,1.0,0.0,0.0,0.0,1.0,0.0,0.0,0.0,0.0,0.0,93,continuum-purge\src\test\java\org\apache\continuum\purge\executor\DaysOldDirectoryPurgeExecutorTest.java,0,0,0,0
org.apache.continuum.purge.executor.DaysOldRepositoryPurgeExecutorTest, 0, 0, 0, 0, 0, 0, 0, 0, 0, 0, 0, 0, 0, 0,0.0,0.0,0.0,1.0,0.0,0.0,0.0,1.0,0.0,0.0,0.0,0.0,0.0,65,continuum-purge\src\test\java\org\apache\continuum\purge\executor\DaysOldRepositoryPurgeExecutorTest.java,0,0,0,0
org.apache.continuum.purge.executor.ReleasedSnapshotsRepositoryPurgeExecutorTest, 0, 0, 0, 0, 0, 0, 0, 0, 0, 0, 0, 0, 0, 0,0.0,0.0,0.0,1.0,0.0,0.0,0.0,1.0,0.0,0.0,0.0,0.0,0.0,80,continuum-purge\src\test\java\org\apache\continuum\purge\executor\ReleasedSnapshotsRepositoryPurgeExecutorTest.java,0,0,0,0
org.apache.continuum.purge.executor.RetentionCountDirectoryPurgeExecutor, 0, 0, 0, 0, 0, 0, 0, 0, 0, 0, 0, 0, 0, 0,0.0,0.0,0.0,0.0,0.0,0.0,0.0,0.0,0.0,0.0,0.0,0.0,0.0,86,continuum-purge\src\main\java\org\apache\continuum\purge\executor\RetentionCountDirectoryPurgeExecutor.java,0,0,0,0
org.apache.continuum.purge.executor.RetentionCountDirectoryPurgeExecutorTest, 0, 0, 0, 0, 0, 0, 0, 0, 0, 0, 0, 0, 0, 0,0.0,0.0,0.0,1.0,0.0,0.0,0.0,1.0,0.0,0.0,0.0,0.0,0.0,55,continuum-purge\src\test\java\org\apache\continuum\purge\executor\RetentionCountDirectoryPurgeExecutorTest.java,0,0,0,0
org.apache.continuum.purge.executor.RetentionCountRepositoryPurgeExecutorTest, 0, 0, 0, 0, 0, 0, 0, 0, 0, 0, 0, 0, 0, 0,0.0,0.0,0.0,1.0,0.0,0.0,0.0,1.0,0.0,0.0,0.0,0.0,0.0,110,continuum-purge\src\test\java\org\apache\continuum\purge\executor\RetentionCountRepositoryPurgeExecutorTest.java,0,0,0,0
org.apache.continuum.purge.repository.content.RepositoryManagedContent, 0, 0, 0, 0, 0, 0, 0, 0, 0, 0, 0, 0, 0, 0,0.0,0.0,0.0,0.0,0.0,0.0,0.0,0.0,0.0,0.0,0.0,0.0,0.0,110,continuum-api\src\main\java\org\apache\continuum\purge\repository\content\RepositoryManagedContent.java,0,0,0,0
org.apache.continuum.purge.repository.scanner.DefaultRepositoryScanner, 0, 0, 0, 0, 0, 0, 0, 1, 0, 0, 0, 0, 0, 1,0.0,0.0,0.0,0.0,0.0,0.0,0.0,0.0,0.0,0.0,0.0,0.0,0.0,39,continuum-purge\src\main\java\org\apache\continuum\purge\repository\scanner\DefaultRepositoryScanner.java,0,0,0,0
org.apache.continuum.purge.repository.scanner.RepositoryScanner, 0, 0, 0, 0, 0, 0, 0, 0, 0, 0, 0, 0, 0, 0,0.0,0.0,0.0,0.0,0.0,0.0,0.0,0.0,0.0,0.0,0.0,0.0,0.0,39,continuum-api\src\main\java\org\apache\continuum\purge\repository\scanner\RepositoryScanner.java,0,0,0,0
org.apache.continuum.purge.repository.scanner.RepositoryScannerInstance, 0, 0, 0, 0, 0, 0, 0, 0, 0, 0, 0, 0, 0, 0,0.0,0.0,0.0,0.0,0.0,0.0,0.0,1.0,0.0,0.0,0.0,0.0,0.0,28,continuum-purge\src\main\java\org\apache\continuum\purge\repository\scanner\RepositoryScannerInstance.java,0,0,0,0
org.apache.continuum.purge.repository.utils.FileTypes, 0, 0, 0, 0, 0, 0, 0, 0, 0, 0, 0, 0, 0, 0,0.0,0.0,0.0,0.0,0.0,0.0,0.0,1.0,0.0,0.0,0.0,0.0,0.0,48,continuum-purge\src\main\java\org\apache\continuum\purge\repository\utils\FileTypes.java,0,0,0,0
org.apache.continuum.purge.repository.utils.LegacyPathParser, 0, 0, 0, 0, 0, 0, 0, 0, 0, 0, 0, 0, 0, 0,0.0,0.0,0.0,0.0,0.0,0.0,0.0,0.0,0.0,0.0,0.0,0.0,0.0,101,continuum-purge\src\main\java\org\apache\continuum\purge\repository\utils\LegacyPathParser.java,0,0,0,0
org.apache.continuum.purge.task.PurgeTask, 0, 0, 0, 0, 0, 0, 0, 0, 0, 0, 0, 0, 0, 0,0.0,0.0,0.0,0.25,0.0,0.0,0.0,0.25,0.0,0.0,0.0,0.0,0.0,32,continuum-purge\src\main\java\org\apache\continuum\purge\task\PurgeTask.java,0,0,0,0
org.apache.continuum.purge.task.PurgeTaskExecutor, 0, 0, 0, 0, 0, 0, 0, 0, 0, 0, 0, 0, 0, 0,0.0,0.0,0.0,0.0,0.0,0.0,0.0,0.0,0.0,0.0,0.0,0.0,0.0,66,continuum-purge\src\main\java\org\apache\continuum\purge\task\PurgeTaskExecutor.java,0,0,0,0
org.apache.continuum.release.distributed.manager.DefaultDistributedReleaseManagerTest, 0, 0, 0, 0, 0, 0, 0, 0, 0, 0, 0, 0, 0, 0,0.0,0.0,0.0,0.0,0.0,0.0,0.0,0.0,0.0,0.0,0.0,0.0,0.0,51,continuum-core\src\test\java\org\apache\continuum\release\distributed\manager\DefaultDistributedReleaseManagerTest.java,0,0,0,0
org.apache.continuum.release.phase.RunPerformGoalsPhase, 0, 0, 0, 0, 0, 0, 0, 1, 0, 0, 0, 0, 0, 1,0.0,0.0,0.0,0.0,0.0,0.0,0.0,0.0,0.0,0.0,0.0,0.0,0.0,34,continuum-release\src\main\java\org\apache\continuum\release\phase\RunPerformGoalsPhase.java,0,0,0,0
org.apache.continuum.release.phase.RunPrepareGoalsPhase, 0, 0, 0, 0, 0, 0, 0, 1, 0, 0, 0, 0, 0, 1,0.0,0.0,0.0,0.0,0.0,0.0,0.0,0.0,0.0,0.0,0.0,0.0,0.0,26,continuum-release\src\main\java\org\apache\continuum\release\phase\RunPrepareGoalsPhase.java,0,0,0,0
org.apache.continuum.repository.DefaultRepositoryService, 0, 0, 0, 0, 0, 0, 0, 0, 0, 0, 0, 0, 0, 0,0.0,0.0,0.0,0.0,0.0,0.0,0.0,0.0,0.0,0.0,0.0,0.0,0.0,170,continuum-core\src\main\java\org\apache\continuum\repository\DefaultRepositoryService.java,0,0,0,0
org.apache.continuum.repository.DefaultRepositoryServiceTest, 0, 0, 0, 0, 0, 0, 0, 0, 0, 0, 0, 0, 0, 0,0.0,0.0,0.0,0.0,0.0,0.0,0.0,0.0,0.0,0.0,0.0,0.0,0.0,58,continuum-core\src\test\java\org\apache\continuum\repository\DefaultRepositoryServiceTest.java,0,0,0,0
org.apache.continuum.repository.RepositoryService, 0, 0, 0, 0, 0, 0, 0, 0, 0, 0, 0, 0, 0, 0,0.0,0.0,0.0,0.0,0.0,0.0,0.0,0.0,0.0,0.0,0.0,0.0,0.0,58,continuum-api\src\main\java\org\apache\continuum\repository\RepositoryService.java,0,0,0,0
org.apache.continuum.repository.RepositoryServiceException, 0, 0, 0, 0, 0, 0, 0, 0, 0, 0, 0, 0, 0, 0,0.0,0.0,0.0,0.0,0.0,0.0,0.0,0.0,0.0,0.0,0.0,0.0,0.0,16,continuum-api\src\main\java\org\apache\continuum\repository\RepositoryServiceException.java,0,0,0,0
org.apache.continuum.scm.ContinuumScm, 0, 0, 0, 0, 0, 0, 0, 0, 0, 0, 0, 0, 0, 0,0.0,0.0,0.0,0.0,0.0,0.0,0.0,0.0,0.0,0.0,0.0,0.0,0.0,16,continuum-base\continuum-scm\src\main\java\org\apache\continuum\scm\ContinuumScm.java,0,0,0,0
org.apache.continuum.scm.ContinuumScmConfiguration, 0, 0, 0, 0, 0, 0, 0, 0, 0, 0, 0, 0, 0, 0,0.0,0.0,0.0,0.0,0.0,0.0,0.0,0.0,0.0,0.0,0.0,0.0,0.0,66,continuum-base\continuum-scm\src\main\java\org\apache\continuum\scm\ContinuumScmConfiguration.java,0,0,0,0
org.apache.continuum.scm.ContinuumScmUtilsTest, 0, 0, 0, 0, 0, 0, 0, 0, 0, 0, 0, 0, 0, 0,0.0,0.0,0.0,0.0,0.0,0.0,0.0,0.0,0.0,0.0,0.0,0.0,0.0,54,continuum-base\continuum-scm\src\test\java\org\apache\continuum\scm\ContinuumScmUtilsTest.java,0,0,0,0
org.apache.continuum.scm.DefaultContinuumScm, 0, 0, 0, 0, 0, 0, 0, 0, 0, 0, 0, 0, 0, 0,0.0,0.0,0.0,0.0,0.0,0.0,0.0,0.0,0.0,0.0,0.0,0.0,0.0,130,continuum-base\continuum-scm\src\main\java\org\apache\continuum\scm\DefaultContinuumScm.java,0,0,0,0
org.apache.continuum.scm.DefaultContinuumScmTest, 0, 0, 0, 0, 0, 0, 0, 0, 0, 0, 0, 0, 0, 0,0.0,0.0,0.0,0.0,0.0,0.0,0.0,0.0,0.0,0.0,0.0,0.0,0.0,56,continuum-base\continuum-scm\src\test\java\org\apache\continuum\scm\DefaultContinuumScmTest.java,0,0,0,0
org.apache.continuum.scm.manager.ScmManagerTest, 0, 0, 0, 0, 0, 0, 0, 0, 0, 0, 0, 0, 0, 0,0.0,0.0,0.0,0.0,0.0,0.0,0.0,0.0,0.0,0.0,0.0,0.0,0.0,42,continuum-base\continuum-scm\src\test\java\org\apache\continuum\scm\manager\ScmManagerTest.java,0,0,0,0
org.apache.continuum.scm.manager.Slf4jScmLogger, 0, 0, 0, 0, 0, 0, 0, 0, 0, 0, 0, 0, 0, 0,0.0,0.0,0.0,0.0,0.0,0.0,0.0,0.0,0.0,0.0,0.0,0.0,0.0,69,continuum-base\continuum-scm\src\main\java\org\apache\continuum\scm\manager\Slf4jScmLogger.java,0,0,0,0
org.apache.continuum.taskqueue.BuildProjectTask, 0, 0, 0, 0, 0, 0, 0, 1, 0, 0, 0, 0, 0, 1,0.0,0.0,0.0,0.0,0.0,0.0,0.0,0.2,0.0,0.0,0.0,0.0,0.0,97,continuum-api\src\main\java\org\apache\continuum\taskqueue\BuildProjectTask.java,0,0,0,0
org.apache.continuum.taskqueue.CheckOutTask, 0, 0, 0, 0, 0, 0, 0, 1, 0, 0, 0, 0, 0, 1,0.0,0.0,0.0,0.0,0.0,0.0,0.0,0.0,0.0,0.0,0.0,0.0,0.0,58,continuum-api\src\main\java\org\apache\continuum\taskqueue\CheckOutTask.java,0,0,0,0
org.apache.continuum.taskqueue.OverallBuildQueue, 0, 0, 0, 0, 0, 0, 0, 0, 0, 0, 0, 0, 0, 0,0.0,0.0,0.0,0.0,0.0,0.0,0.0,0.0,0.0,0.0,0.0,0.0,0.0,58,continuum-api\src\main\java\org\apache\continuum\taskqueue\OverallBuildQueue.java,0,0,0,0
org.apache.continuum.taskqueue.OverallDistributedBuildQueue, 0, 0, 0, 0, 0, 0, 0, 0, 0, 0, 0, 0, 0, 0,0.0,0.0,0.0,0.0,0.0,0.0,0.0,0.0,0.0,0.0,0.0,0.0,0.0,58,continuum-api\src\main\java\org\apache\continuum\taskqueue\OverallDistributedBuildQueue.java,0,0,0,0
org.apache.continuum.taskqueue.manager.TaskQueueManager, 0, 0, 0, 0, 0, 0, 0, 0, 0, 0, 0, 0, 0, 0,0.0,0.0,0.0,0.0,0.0,0.0,0.0,0.0,0.0,0.0,0.0,0.0,0.0,58,continuum-api\src\main\java\org\apache\continuum\taskqueue\manager\TaskQueueManager.java,0,0,0,0
org.apache.continuum.taskqueue.manager.TaskQueueManagerException, 0, 0, 0, 0, 0, 0, 0, 0, 0, 0, 0, 0, 0, 0,0.0,0.0,0.0,0.0,0.0,0.0,0.0,0.3333333333333333,0.0,0.0,0.0,0.0,0.0,16,continuum-api\src\main\java\org\apache\continuum\taskqueue\manager\TaskQueueManagerException.java,0,0,0,0
org.apache.continuum.taskqueueexecutor.ParallelBuildsThreadedTaskQueueExecutor, 0, 0, 0, 0, 0, 0, 0, 0, 0, 0, 0, 0, 0, 0,0.0,0.0,0.0,0.0,0.0,0.0,0.0,0.0,0.0,0.0,0.0,0.0,0.0,243,continuum-core\src\main\java\org\apache\continuum\taskqueueexecutor\ParallelBuildsThreadedTaskQueueExecutor.java,0,0,0,0
org.apache.continuum.utils.ContinuumUtilsTest, 0, 0, 0, 0, 0, 0, 0, 0, 0, 0, 0, 0, 0, 0,0.0,0.0,0.0,0.0,0.0,0.0,0.0,0.0,0.0,0.0,0.0,0.0,0.0,11,continuum-commons\src\test\java\org\apache\continuum\utils\ContinuumUtilsTest.java,0,0,0,0
org.apache.continuum.utils.ProjectSorterTest, 0, 0, 0, 0, 0, 0, 0, 0, 0, 0, 0, 0, 0, 0,0.0,0.0,0.0,0.0,0.0,0.0,0.0,0.0,0.0,0.0,0.0,0.0,0.0,134,continuum-api\src\test\java\org\apache\continuum\utils\ProjectSorterTest.java,0,0,0,0
org.apache.continuum.utils.build.BuildTrigger, 0, 0, 0, 0, 0, 0, 0, 0, 0, 0, 0, 0, 0, 0,0.0,0.0,0.0,0.0,0.0,0.0,0.0,0.6666666666666666,0.0,0.0,0.0,0.0,0.0,34,continuum-api\src\main\java\org\apache\continuum\utils\build\BuildTrigger.java,0,0,0,0
org.apache.continuum.utils.shell.ExecutionResult, 0, 0, 0, 0, 0, 0, 0, 0, 0, 0, 0, 0, 0, 0,0.0,0.0,0.0,0.0,0.0,0.0,0.0,0.0,0.0,0.0,0.0,0.0,0.0,12,continuum-api\src\main\java\org\apache\continuum\utils\shell\ExecutionResult.java,0,0,0,0
org.apache.continuum.web.action.AbstractActionTest, 0, 0, 0, 0, 0, 0, 0, 0, 0, 0, 0, 0, 0, 0,0.0,0.0,0.0,0.0,0.0,0.0,0.0,0.2,0.0,0.0,0.0,0.0,0.0,19,continuum-webapp\src\test\java\org\apache\continuum\web\action\AbstractActionTest.java,0,0,0,0
org.apache.continuum.web.action.ReleaseResultAction, 0, 0, 0, 1, 0, 0, 0, 0, 0, 0, 0, 0, 0, 1,0.0,0.0,0.0,0.2,0.0,0.0,0.0,0.4,0.0,0.0,0.0,0.0,0.0,204,continuum-webapp\src\main\java\org\apache\continuum\web\action\ReleaseResultAction.java,0,0,0,0
org.apache.continuum.web.action.ScmResultAction, 0, 0, 0, 0, 0, 0, 0, 0, 0, 0, 0, 0, 0, 0,0.0,0.0,0.0,0.3333333333333333,0.0,0.0,0.0,0.3333333333333333,0.0,0.0,0.0,0.0,0.0,67,continuum-webapp\src\main\java\org\apache\continuum\web\action\ScmResultAction.java,0,0,0,0
org.apache.continuum.web.action.ViewBuildsReportActionTest, 0, 0, 0, 0, 0, 0, 0, 0, 0, 0, 0, 0, 0, 0,0.0,0.0,0.0,0.3333333333333333,0.0,0.0,0.0,0.3333333333333333,0.0,0.0,0.0,0.0,0.0,115,continuum-webapp\src\test\java\org\apache\continuum\web\action\ViewBuildsReportActionTest.java,0,0,0,0
org.apache.continuum.web.action.admin.BuildAgentAction, 0, 0, 0, 1, 0, 0, 0, 0, 0, 0, 0, 0, 0, 1,0.0,0.0,0.0,0.14285714285714285,0.0,0.0,0.0,0.42857142857142855,0.0,0.0,0.0,0.0,0.0,436,continuum-webapp\src\main\java\org\apache\continuum\web\action\admin\BuildAgentAction.java,2,1,2,7
org.apache.continuum.web.action.error.HttpError, 0, 0, 0, 0, 0, 0, 0, 0, 0, 0, 0, 0, 0, 0,0.0,0.0,0.0,1.0,0.0,0.0,0.0,1.0,0.0,0.0,0.0,0.0,0.0,18,continuum-webapp\src\main\java\org\apache\continuum\web\action\error\HttpError.java,0,0,0,0
org.apache.continuum.web.action.stub.ViewBuildsReportActionStub, 0, 0, 0, 0, 0, 0, 0, 0, 0, 0, 0, 0, 0, 0,0.0,0.0,0.0,0.0,0.0,0.0,0.0,0.0,0.0,0.0,0.0,0.0,0.0,10,continuum-webapp\src\test\java\org\apache\continuum\web\action\stub\ViewBuildsReportActionStub.java,0,0,0,0
org.apache.continuum.web.startup.BuildAgentStartup, 0, 0, 0, 0, 0, 0, 0, 0, 0, 0, 0, 0, 0, 0,0.0,0.0,0.0,0.0,0.0,0.0,0.0,0.0,0.0,0.0,0.0,0.0,0.0,24,continuum-buildagent\continuum-buildagent-webapp\src\main\java\org\apache\continuum\web\startup\BuildAgentStartup.java,0,0,0,0
org.apache.continuum.web.startup.ContinuumStartup, 0, 0, 0, 0, 0, 0, 0, 0, 0, 0, 0, 0, 0, 0,0.0,0.0,0.0,0.0,0.0,0.0,0.0,0.0,0.0,0.0,0.0,0.0,0.0,28,continuum-webapp\src\main\java\org\apache\continuum\web\startup\ContinuumStartup.java,0,0,0,0
org.apache.continuum.web.test.AboutTest, 0, 0, 0, 0, 0, 0, 0, 0, 0, 0, 0, 0, 0, 0,0.0,0.0,0.0,0.0,0.0,0.0,0.0,0.0,0.0,0.0,0.0,0.0,0.0,7,continuum-webapp-test\src\test\testng\org\apache\continuum\web\test\AboutTest.java,0,0,0,0
org.apache.continuum.web.test.AbstractReleaseTest, 0, 0, 0, 0, 0, 0, 0, 1, 0, 0, 0, 0, 0, 1,0.0,0.0,0.0,0.0,0.0,0.0,0.0,0.5,0.0,0.0,0.0,0.0,0.0,105,continuum-webapp-test\src\test\testng\org\apache\continuum\web\test\AbstractReleaseTest.java,0,0,0,0
org.apache.continuum.web.test.AntProjectTest, 0, 0, 0, 0, 0, 0, 0, 0, 0, 0, 0, 0, 0, 0,0.0,0.0,0.0,0.0,0.0,0.0,0.0,1.0,0.0,0.0,0.0,0.0,0.0,77,continuum-webapp-test\src\test\testng\org\apache\continuum\web\test\AntProjectTest.java,0,0,0,0
org.apache.continuum.web.test.BuildAgentsTest, 0, 0, 0, 0, 0, 0, 0, 0, 0, 0, 0, 0, 0, 0,0.0,0.0,0.0,0.0,0.0,0.0,0.0,1.0,0.0,0.0,0.0,0.0,0.0,171,continuum-webapp-test\src\test\testng\org\apache\continuum\web\test\BuildAgentsTest.java,0,0,0,0
org.apache.continuum.web.test.BuildDefinitionTemplateTest, 0, 0, 0, 0, 0, 0, 0, 0, 0, 0, 0, 0, 0, 0,0.0,0.0,0.0,0.0,0.0,0.0,0.0,1.0,0.0,0.0,0.0,0.0,0.0,95,continuum-webapp-test\src\test\testng\org\apache\continuum\web\test\BuildDefinitionTemplateTest.java,3,20,6,35
org.apache.continuum.web.test.BuildEnvironmentTest, 0, 0, 0, 0, 0, 0, 0, 1, 0, 0, 0, 0, 0, 1,0.0,0.0,0.0,0.0,0.0,0.0,0.0,1.0,0.0,0.0,0.0,0.0,0.0,90,continuum-webapp-test\src\test\testng\org\apache\continuum\web\test\BuildEnvironmentTest.java,7,48,12,79
org.apache.continuum.web.test.BuildResultTest, 0, 0, 0, 0, 0, 0, 0, 0, 0, 0, 0, 0, 0, 0,0.0,0.0,0.0,0.0,0.0,0.0,0.0,1.0,0.0,0.0,0.0,0.0,0.0,40,continuum-webapp-test\src\test\testng\org\apache\continuum\web\test\BuildResultTest.java,0,0,0,0
org.apache.continuum.web.test.CSRFSecurityTest, 0, 0, 0, 0, 0, 0, 0, 0, 0, 0, 0, 0, 0, 0,0.0,0.0,0.0,0.0,0.0,0.0,0.0,1.0,0.0,0.0,0.0,0.0,0.0,130,continuum-webapp-test\src\test\testng\org\apache\continuum\web\test\CSRFSecurityTest.java,0,0,2,4
org.apache.continuum.web.test.ConfigurationTest, 0, 0, 0, 0, 0, 0, 0, 1, 0, 0, 0, 0, 0, 1,0.0,0.0,0.0,0.0,0.0,0.0,0.0,1.0,0.0,0.0,0.0,0.0,0.0,188,continuum-webapp-test\src\test\testng\org\apache\continuum\web\test\ConfigurationTest.java,11,0,0,11
org.apache.continuum.web.test.DistributedBuildTest, 0, 0, 0, 0, 0, 0, 0, 0, 0, 0, 0, 0, 0, 0,0.0,0.0,0.0,0.0,0.0,0.0,0.0,1.0,0.0,0.0,0.0,0.0,0.0,166,continuum-webapp-test\src\test\testng\org\apache\continuum\web\test\DistributedBuildTest.java,0,0,1,2
org.apache.continuum.web.test.InstallationTest, 0, 0, 0, 1, 0, 0, 0, 0, 0, 0, 0, 0, 0, 1,0.0,0.0,0.0,0.0,0.0,0.0,0.0,1.0,0.0,0.0,0.0,0.0,0.0,157,continuum-webapp-test\src\test\testng\org\apache\continuum\web\test\InstallationTest.java,0,0,0,0
org.apache.continuum.web.test.LocalRepositoriesTest, 0, 0, 0, 0, 0, 0, 0, 0, 0, 0, 0, 0, 0, 0,0.0,0.0,0.0,0.0,0.0,0.0,0.0,1.0,0.0,0.0,0.0,0.0,0.0,70,continuum-webapp-test\src\test\testng\org\apache\continuum\web\test\LocalRepositoriesTest.java,0,0,0,0
org.apache.continuum.web.test.LoginTest, 0, 0, 0, 0, 0, 0, 0, 0, 0, 0, 0, 0, 0, 0,0.0,0.0,0.0,0.0,0.0,0.0,0.0,0.0,0.0,0.0,0.0,0.0,0.0,43,continuum-webapp-test\src\test\testng\org\apache\continuum\web\test\LoginTest.java,0,0,3,6
org.apache.continuum.web.test.MavenOneProjectTest, 0, 0, 0, 0, 0, 0, 0, 1, 0, 0, 0, 0, 0, 1,0.0,0.0,0.0,0.0,0.0,0.0,0.0,1.0,0.0,0.0,0.0,0.0,0.0,136,continuum-webapp-test\src\test\testng\org\apache\continuum\web\test\MavenOneProjectTest.java,1,11,1,14
org.apache.continuum.web.test.MavenTwoProjectTest, 0, 0, 0, 0, 0, 0, 0, 0, 0, 0, 0, 0, 0, 0,0.0,0.0,0.0,0.0,0.0,0.0,0.0,1.0,0.0,0.0,0.0,0.0,0.0,211,continuum-webapp-test\src\test\testng\org\apache\continuum\web\test\MavenTwoProjectTest.java,14,6,1,22
org.apache.continuum.web.test.MyAccountTest, 0, 0, 0, 0, 0, 0, 0, 0, 0, 0, 0, 0, 0, 0,0.0,0.0,0.0,0.0,0.0,0.0,0.0,1.0,0.0,0.0,0.0,0.0,0.0,27,continuum-webapp-test\src\test\testng\org\apache\continuum\web\test\MyAccountTest.java,0,0,0,0
org.apache.continuum.web.test.NotifierTest, 0, 0, 0, 1, 0, 0, 0, 1, 0, 0, 0, 0, 0, 2,0.0,0.0,0.0,0.0,0.0,0.0,0.0,1.0,0.0,0.0,0.0,0.0,0.0,859,continuum-webapp-test\src\test\testng\org\apache\continuum\web\test\NotifierTest.java,5,18,5,33
org.apache.continuum.web.test.ProjectGroupTest, 0, 0, 0, 0, 0, 0, 0, 0, 0, 0, 0, 0, 0, 0,0.0,0.0,0.0,0.0,0.0,0.0,0.0,1.0,0.0,0.0,0.0,0.0,0.0,157,continuum-webapp-test\src\test\testng\org\apache\continuum\web\test\ProjectGroupTest.java,0,32,0,32
org.apache.continuum.web.test.PurgeTest, 0, 0, 0, 0, 0, 0, 0, 0, 0, 0, 0, 0, 0, 0,0.0,0.0,0.0,0.0,0.0,0.0,0.0,1.0,0.0,0.0,0.0,0.0,0.0,74,continuum-webapp-test\src\test\testng\org\apache\continuum\web\test\PurgeTest.java,0,0,0,0
org.apache.continuum.web.test.QueueTest, 0, 0, 0, 0, 0, 0, 0, 0, 0, 0, 0, 0, 0, 0,0.0,0.0,0.0,0.0,0.0,0.0,0.0,1.0,0.0,0.0,0.0,0.0,0.0,161,continuum-webapp-test\src\test\testng\org\apache\continuum\web\test\QueueTest.java,1,25,4,34
org.apache.continuum.web.test.ReleaseTest, 0, 0, 0, 0, 0, 0, 0, 0, 0, 0, 0, 0, 0, 0,0.0,0.0,0.0,0.0,0.0,0.0,0.0,1.0,0.0,0.0,0.0,0.0,0.0,108,continuum-webapp-test\src\test\testng\org\apache\continuum\web\test\ReleaseTest.java,0,0,0,0
org.apache.continuum.web.test.ReportTest, 0, 0, 0, 0, 0, 0, 0, 0, 0, 0, 0, 0, 0, 0,0.0,0.0,0.0,0.0,0.0,0.0,0.0,1.0,0.0,0.0,0.0,0.0,0.0,89,continuum-webapp-test\src\test\testng\org\apache\continuum\web\test\ReportTest.java,0,0,0,0
org.apache.continuum.web.test.ScheduleTest, 0, 0, 0, 0, 0, 0, 0, 0, 0, 0, 0, 0, 0, 0,0.0,0.0,0.0,0.0,0.0,0.0,0.0,1.0,0.0,0.0,0.0,0.0,0.0,143,continuum-webapp-test\src\test\testng\org\apache\continuum\web\test\ScheduleTest.java,12,0,0,12
org.apache.continuum.web.test.ShellProjectTest, 0, 0, 0, 0, 0, 0, 0, 0, 0, 0, 0, 0, 0, 0,0.0,0.0,0.0,0.0,0.0,0.0,0.0,1.0,0.0,0.0,0.0,0.0,0.0,76,continuum-webapp-test\src\test\testng\org\apache\continuum\web\test\ShellProjectTest.java,0,0,0,0
org.apache.continuum.web.test.UserRolesManagementTest, 0, 0, 0, 0, 0, 0, 0, 0, 0, 0, 0, 0, 0, 0,0.0,0.0,0.0,0.0,0.0,0.0,0.0,1.0,0.0,0.0,0.0,0.0,0.0,421,continuum-webapp-test\src\test\testng\org\apache\continuum\web\test\UserRolesManagementTest.java,0,25,7,39
org.apache.continuum.web.test.listener.CaptureScreenShotsListener, 0, 0, 0, 0, 0, 0, 0, 1, 0, 0, 0, 0, 0, 1,0.0,0.0,0.0,0.0,0.0,0.0,0.0,0.0,0.0,0.0,0.0,0.0,0.0,110,continuum-webapp-test\src\test\testng\org\apache\continuum\web\test\listener\CaptureScreenShotsListener.java,0,7,3,13
org.apache.continuum.web.test.parent.AbstractAdminTest, 0, 0, 0, 0, 0, 0, 0, 1, 0, 0, 0, 0, 0, 1,0.0,0.0,0.0,0.041666666666666664,0.0,0.0,0.0,0.4166666666666667,0.0,0.0,0.0,0.0,0.0,287,continuum-webapp-test\src\test\testng\org\apache\continuum\web\test\parent\AbstractAdminTest.java,0,17,8,33
org.apache.continuum.web.test.parent.AbstractBuildDefinitionTemplateTest, 0, 0, 0, 0, 0, 0, 0, 1, 0, 0, 0, 0, 0, 1,0.0,0.0,0.0,0.0,0.0,0.0,0.0,0.5,0.0,0.0,0.0,0.0,0.0,188,continuum-webapp-test\src\test\testng\org\apache\continuum\web\test\parent\AbstractBuildDefinitionTemplateTest.java,1,20,4,29
org.apache.continuum.web.test.parent.AbstractInstallationTest, 0, 0, 0, 0, 0, 0, 0, 1, 0, 0, 0, 0, 0, 1,0.0,0.0,0.0,0.5,0.0,0.0,0.0,0.5,0.0,0.0,0.0,0.0,0.0,152,continuum-webapp-test\src\test\testng\org\apache\continuum\web\test\parent\AbstractInstallationTest.java,0,0,2,4
org.apache.continuum.web.test.parent.AbstractLocalRepositoryTest, 0, 0, 0, 0, 0, 0, 0, 1, 0, 0, 0, 0, 0, 1,0.0,0.0,0.0,0.0,0.0,0.0,0.0,0.5,0.0,0.0,0.0,0.0,0.0,75,continuum-webapp-test\src\test\testng\org\apache\continuum\web\test\parent\AbstractLocalRepositoryTest.java,0,0,0,0
org.apache.continuum.web.test.parent.AbstractPurgeTest, 0, 0, 0, 0, 0, 0, 0, 1, 0, 0, 0, 0, 0, 1,0.0,0.0,0.0,0.0,0.0,0.0,0.0,0.5,0.0,0.0,0.0,0.0,0.0,148,continuum-webapp-test\src\test\testng\org\apache\continuum\web\test\parent\AbstractPurgeTest.java,6,0,2,10
org.apache.continuum.web.test.parent.AbstractUserRolesManagementTest, 0, 0, 0, 0, 0, 0, 0, 1, 0, 0, 0, 0, 0, 1,0.0,0.0,0.0,0.0,0.0,0.0,0.0,0.5,0.0,0.0,0.0,0.0,0.0,281,continuum-webapp-test\src\test\testng\org\apache\continuum\web\test\parent\AbstractUserRolesManagementTest.java,0,8,2,12
org.apache.continuum.web.util.AuditLog, 0, 0, 0, 0, 0, 0, 0, 0, 0, 0, 0, 0, 0, 0,0.0,0.0,0.0,0.3076923076923077,0.0,0.0,0.0,0.15384615384615385,0.0,0.0,0.0,0.0,0.0,67,continuum-webapp\src\main\java\org\apache\continuum\web\util\AuditLog.java,0,0,0,0
org.apache.continuum.web.util.AuditLogConstants, 0, 0, 0, 1, 0, 0, 0, 0, 0, 0, 0, 0, 0, 1,0.0,0.0,0.0,0.0,0.0,0.0,0.0,0.0,0.0,0.0,0.0,0.0,0.0,50,continuum-webapp\src\main\java\org\apache\continuum\web\util\AuditLogConstants.java,0,0,0,0
org.apache.continuum.webdav.ContinuumBuildAgentDavResource, 0, 0, 0, 1, 0, 0, 0, 1, 0, 0, 0, 0, 0, 2,0.0,0.0,0.0,0.0,0.0,0.0,0.0,0.75,0.0,0.0,0.0,0.0,0.0,275,continuum-buildagent\continuum-buildagent-webdav\src\main\java\org\apache\continuum\webdav\ContinuumBuildAgentDavResource.java,0,0,0,0
org.apache.continuum.webdav.ContinuumBuildAgentDavResourceFactory, 0, 0, 0, 0, 0, 0, 0, 1, 0, 0, 0, 0, 0, 1,0.0,0.0,0.0,0.16666666666666666,0.0,0.0,0.0,0.5,0.0,0.0,0.0,0.0,0.0,108,continuum-buildagent\continuum-buildagent-webdav\src\main\java\org\apache\continuum\webdav\ContinuumBuildAgentDavResourceFactory.java,0,0,0,0
org.apache.continuum.webdav.ContinuumBuildAgentDavResourceFactoryTest, 0, 0, 0, 0, 0, 0, 0, 0, 0, 0, 0, 0, 0, 0,0.0,0.0,0.0,0.0,0.0,0.0,0.0,1.0,0.0,0.0,0.0,0.0,0.0,96,continuum-buildagent\continuum-buildagent-webdav\src\test\java\org\apache\continuum\webdav\ContinuumBuildAgentDavResourceFactoryTest.java,0,0,0,0
org.apache.continuum.webdav.ContinuumBuildAgentDavResourceLocator, 0, 0, 0, 0, 0, 0, 0, 1, 0, 0, 0, 0, 0, 1,0.0,0.0,0.0,0.16666666666666666,0.0,0.0,0.0,0.5,0.0,0.0,0.0,0.0,0.0,91,continuum-buildagent\continuum-buildagent-webdav\src\main\java\org\apache\continuum\webdav\ContinuumBuildAgentDavResourceLocator.java,0,0,0,0
org.apache.continuum.webdav.ContinuumBuildAgentDavResourceLocatorTest, 0, 0, 0, 0, 0, 0, 0, 0, 0, 0, 0, 0, 0, 0,0.0,0.0,0.0,0.0,0.0,0.0,0.0,1.0,0.0,0.0,0.0,0.0,0.0,77,continuum-buildagent\continuum-buildagent-webdav\src\test\java\org\apache\continuum\webdav\ContinuumBuildAgentDavResourceLocatorTest.java,0,0,0,0
org.apache.continuum.webdav.ContinuumBuildAgentDavResourceTest, 0, 0, 0, 0, 0, 0, 0, 0, 0, 0, 0, 0, 0, 0,0.0,0.0,0.0,0.5,0.0,0.0,0.0,1.0,0.0,0.0,0.0,0.0,0.0,111,continuum-buildagent\continuum-buildagent-webdav\src\test\java\org\apache\continuum\webdav\ContinuumBuildAgentDavResourceTest.java,0,0,0,0
org.apache.continuum.webdav.ContinuumBuildAgentDavSession, 0, 0, 0, 0, 0, 0, 0, 0, 0, 0, 0, 0, 0, 0,0.0,0.0,0.0,0.0,0.0,0.0,0.0,0.0,0.0,0.0,0.0,0.0,0.0,25,continuum-buildagent\continuum-buildagent-webdav\src\main\java\org\apache\continuum\webdav\ContinuumBuildAgentDavSession.java,0,0,0,0
org.apache.continuum.webdav.ContinuumBuildAgentDavSessionProvider, 0, 0, 0, 0, 0, 0, 0, 0, 0, 0, 0, 0, 0, 0,0.0,0.0,0.0,0.0,0.0,0.0,0.0,0.0,0.0,0.0,0.0,0.0,0.0,51,continuum-buildagent\continuum-buildagent-webdav\src\main\java\org\apache\continuum\webdav\ContinuumBuildAgentDavSessionProvider.java,0,0,0,0
org.apache.continuum.webdav.ContinuumBuildAgentDavSessionTest, 0, 0, 0, 0, 0, 0, 0, 0, 0, 0, 0, 0, 0, 0,0.0,0.0,0.0,0.0,0.0,0.0,0.0,0.0,0.0,0.0,0.0,0.0,0.0,40,continuum-buildagent\continuum-buildagent-webdav\src\test\java\org\apache\continuum\webdav\ContinuumBuildAgentDavSessionTest.java,0,0,0,0
org.apache.continuum.webdav.MockContinuumBuildAgentDavResource, 0, 0, 0, 0, 0, 0, 0, 1, 0, 0, 0, 0, 0, 1,0.0,0.0,0.0,0.25,0.0,0.0,0.0,1.0,0.0,0.0,0.0,0.0,0.0,38,continuum-buildagent\continuum-buildagent-webdav\src\test\java\org\apache\continuum\webdav\MockContinuumBuildAgentDavResource.java,0,0,0,0
org.apache.continuum.webdav.MockContinuumBuildAgentDavResourceFactory, 0, 0, 0, 0, 0, 0, 0, 1, 0, 0, 0, 0, 0, 1,0.0,0.0,0.0,0.0,0.0,0.0,0.0,1.0,0.0,0.0,0.0,0.0,0.0,33,continuum-buildagent\continuum-buildagent-webdav\src\test\java\org\apache\continuum\webdav\MockContinuumBuildAgentDavResourceFactory.java,0,0,0,0
org.apache.continuum.webdav.MockWorkingCopyServlet, 0, 0, 0, 0, 0, 0, 0, 0, 0, 0, 0, 0, 0, 0,0.0,0.0,0.0,0.0,0.0,0.0,0.0,0.0,0.0,0.0,0.0,0.0,0.0,19,continuum-buildagent\continuum-buildagent-webdav\src\test\java\org\apache\continuum\webdav\MockWorkingCopyServlet.java,0,0,0,0
org.apache.continuum.webdav.WorkingCopyServlet, 0, 0, 0, 0, 0, 0, 0, 0, 0, 0, 0, 0, 0, 0,0.0,0.0,0.0,0.0,0.0,0.0,0.0,0.0,0.0,0.0,0.0,0.0,0.0,129,continuum-buildagent\continuum-buildagent-webdav\src\main\java\org\apache\continuum\webdav\WorkingCopyServlet.java,0,0,0,0
org.apache.continuum.webdav.WorkingCopyServletTest, 0, 0, 0, 0, 0, 0, 0, 0, 0, 0, 0, 0, 0, 0,0.0,0.0,0.0,0.0,0.0,0.0,0.0,0.0,0.0,0.0,0.0,0.0,0.0,130,continuum-buildagent\continuum-buildagent-webdav\src\test\java\org\apache\continuum\webdav\WorkingCopyServletTest.java,0,0,0,0
org.apache.continuum.webdav.util.IndexWriter, 0, 0, 0, 0, 0, 0, 0, 1, 0, 0, 0, 0, 0, 1,0.0,0.0,0.0,0.0,0.0,0.0,0.0,1.0,0.0,0.0,0.0,0.0,0.0,81,continuum-buildagent\continuum-buildagent-webdav\src\main\java\org\apache\continuum\webdav\util\IndexWriter.java,0,0,0,0
org.apache.continuum.webdav.util.WebdavMethodUtil, 0, 0, 0, 0, 0, 0, 0, 0, 0, 0, 0, 0, 0, 0,0.0,0.0,0.0,0.0,0.0,0.0,0.0,1.0,0.0,0.0,0.0,0.0,0.0,21,continuum-buildagent\continuum-buildagent-webdav\src\main\java\org\apache\continuum\webdav\util\WebdavMethodUtil.java,0,0,0,0
org.apache.continuum.webdav.util.WorkingCopyPathUtil, 0, 0, 0, 0, 0, 0, 0, 0, 0, 0, 0, 0, 0, 0,0.0,0.0,0.0,0.0,0.0,0.0,0.0,0.5,0.0,0.0,0.0,0.0,0.0,76,continuum-buildagent\continuum-buildagent-webdav\src\main\java\org\apache\continuum\webdav\util\WorkingCopyPathUtil.java,0,0,0,0
org.apache.continuum.webdav.util.WorkingCopyPathUtilTest, 0, 0, 0, 0, 0, 0, 0, 0, 0, 0, 0, 0, 0, 0,0.0,0.0,0.0,0.0,0.0,0.0,0.0,0.0,0.0,0.0,0.0,0.0,0.0,24,continuum-buildagent\continuum-buildagent-webdav\src\test\java\org\apache\continuum\webdav\util\WorkingCopyPathUtilTest.java,0,0,0,0
org.apache.continuum.xmlrpc.server.ContinuumServiceImplStub, 0, 0, 0, 0, 0, 0, 0, 1, 0, 0, 0, 0, 0, 1,0.0,0.0,0.0,0.0,0.0,0.0,0.0,0.0,0.0,0.0,0.0,0.0,0.0,19,continuum-xmlrpc\continuum-xmlrpc-server\src\test\java\org\apache\continuum\xmlrpc\server\ContinuumServiceImplStub.java,0,0,0,0
org.apache.maven.continuum.AddMaven2ProjectTest, 0, 0, 0, 0, 0, 0, 0, 0, 0, 0, 0, 0, 0, 0,0.0,0.0,0.0,0.0,0.0,0.0,0.0,0.0,0.0,0.0,0.0,0.0,0.0,174,continuum-core\src\test\java\org\apache\maven\continuum\AddMaven2ProjectTest.java,0,0,0,0
org.apache.maven.continuum.AddProjectTest, 0, 0, 0, 0, 0, 0, 0, 0, 0, 0, 0, 0, 0, 0,0.0,0.0,0.0,0.0,0.0,0.0,0.0,0.0,0.0,0.0,0.0,0.0,0.0,109,continuum-core\src\test\java\org\apache\maven\continuum\AddProjectTest.java,0,0,0,0
org.apache.maven.continuum.ContinuumException, 0, 0, 0, 0, 0, 0, 0, 0, 0, 0, 0, 0, 0, 0,0.0,0.0,0.0,0.2631578947368421,0.0,0.0,0.0,0.10526315789473684,0.0,0.0,0.0,0.0,0.0,13,continuum-api\src\main\java\org\apache\maven\continuum\ContinuumException.java,0,0,0,0
org.apache.maven.continuum.ContinuumRuntimeException, 0, 0, 0, 0, 0, 0, 0, 0, 0, 0, 0, 0, 0, 0,0.0,0.0,0.0,0.0,0.0,0.0,0.0,0.0,0.0,0.0,0.0,0.0,0.0,9,continuum-api\src\main\java\org\apache\maven\continuum\ContinuumRuntimeException.java,0,0,0,0
org.apache.maven.continuum.build.settings.DefaultSchedulesActivator, 0, 0, 0, 0, 0, 0, 0, 1, 0, 0, 0, 0, 0, 1,0.0,0.0,0.0,0.0,0.0,0.0,0.0,0.0,0.0,0.0,0.0,0.0,0.0,175,continuum-core\src\main\java\org\apache\maven\continuum\build\settings\DefaultSchedulesActivator.java,0,0,0,0
org.apache.maven.continuum.build.settings.SchedulesActivationException, 0, 0, 0, 0, 0, 0, 0, 0, 0, 0, 0, 0, 0, 0,0.0,0.0,0.0,0.0,0.0,0.0,0.0,0.5,0.0,0.0,0.0,0.0,0.0,17,continuum-api\src\main\java\org\apache\maven\continuum\build\settings\SchedulesActivationException.java,0,0,0,0
org.apache.maven.continuum.build.settings.SchedulesActivator, 0, 0, 0, 0, 0, 0, 0, 0, 0, 0, 0, 0, 0, 0,0.0,0.0,0.0,0.0,0.0,0.0,0.0,0.0,0.0,0.0,0.0,0.0,0.0,17,continuum-api\src\main\java\org\apache\maven\continuum\build\settings\SchedulesActivator.java,0,0,0,0
org.apache.maven.continuum.buildcontroller.BuildController, 0, 0, 0, 0, 0, 0, 0, 0, 0, 0, 0, 0, 0, 0,0.0,0.0,0.0,0.0,0.0,0.0,0.0,0.0,0.0,0.0,0.0,0.0,0.0,17,continuum-core\src\main\java\org\apache\maven\continuum\buildcontroller\BuildController.java,0,0,0,0
org.apache.maven.continuum.buildcontroller.BuildProjectTaskExecutor, 0, 0, 0, 0, 0, 0, 0, 0, 0, 0, 0, 0, 0, 0,0.0,0.0,0.0,0.0,0.0,0.0,0.0,1.0,0.0,0.0,0.0,0.0,0.0,12,continuum-core\src\main\java\org\apache\maven\continuum\buildcontroller\BuildProjectTaskExecutor.java,0,0,0,0
org.apache.maven.continuum.builddefinition.BuildDefinitionService, 0, 0, 0, 0, 0, 0, 0, 0, 0, 0, 0, 0, 0, 0,0.0,0.0,0.0,0.0,0.0,0.0,0.0,0.0,0.0,0.0,0.0,0.0,0.0,12,continuum-api\src\main\java\org\apache\maven\continuum\builddefinition\BuildDefinitionService.java,0,2,0,2
org.apache.maven.continuum.builddefinition.BuildDefinitionServiceException, 0, 0, 0, 0, 0, 0, 0, 0, 0, 0, 0, 0, 0, 0,0.0,0.0,0.0,0.3333333333333333,0.0,0.0,0.0,0.6666666666666666,0.0,0.0,0.0,0.0,0.0,20,continuum-api\src\main\java\org\apache\maven\continuum\builddefinition\BuildDefinitionServiceException.java,0,0,0,0
org.apache.maven.continuum.builddefinition.BuildDefinitionUpdatePolicyConstants, 0, 0, 0, 0, 0, 0, 0, 0, 0, 0, 0, 0, 0, 0,0.0,0.0,0.0,0.0,0.0,0.0,0.0,0.0,0.0,0.0,0.0,0.0,0.0,6,continuum-api\src\main\java\org\apache\maven\continuum\builddefinition\BuildDefinitionUpdatePolicyConstants.java,0,0,0,0
org.apache.maven.continuum.builddefinition.DefaultBuildDefinitionService, 0, 0, 0, 1, 0, 0, 0, 1, 0, 0, 0, 0, 0, 2,0.0,0.0,0.0,0.0,0.0,0.0,0.0,0.0,0.0,0.0,0.0,0.0,0.0,490,continuum-core\src\main\java\org\apache\maven\continuum\builddefinition\DefaultBuildDefinitionService.java,0,22,0,22
org.apache.maven.continuum.builddefinition.DefaultBuildDefinitionServiceTest, 0, 0, 0, 0, 0, 0, 0, 0, 0, 0, 0, 0, 0, 0,0.0,0.0,0.0,0.0,0.0,0.0,0.0,0.0,0.0,0.0,0.0,0.0,0.0,119,continuum-core\src\test\java\org\apache\maven\continuum\builddefinition\DefaultBuildDefinitionServiceTest.java,0,12,0,12
org.apache.maven.continuum.buildqueue.BuildQueueTest, 0, 0, 0, 0, 0, 0, 0, 0, 0, 0, 0, 0, 0, 0,0.0,0.0,0.0,0.0,0.0,0.0,0.0,0.5,0.0,0.0,0.0,0.0,0.0,89,continuum-core\src\test\java\org\apache\maven\continuum\buildqueue\BuildQueueTest.java,0,0,0,0
org.apache.maven.continuum.configuration.ConfigurationException, 0, 0, 0, 0, 0, 0, 0, 0, 0, 0, 0, 0, 0, 0,0.0,0.0,0.0,0.5,0.0,0.0,0.0,0.25,0.0,0.0,0.0,0.0,0.0,17,continuum-api\src\main\java\org\apache\maven\continuum\configuration\ConfigurationException.java,0,0,0,0
org.apache.maven.continuum.configuration.ConfigurationLoadingException, 0, 0, 0, 0, 0, 0, 0, 0, 0, 0, 0, 0, 0, 0,0.0,0.0,0.0,1.0,0.0,0.0,0.0,0.5,0.0,0.0,0.0,0.0,0.0,17,continuum-api\src\main\java\org\apache\maven\continuum\configuration\ConfigurationLoadingException.java,0,0,0,0
org.apache.maven.continuum.configuration.ConfigurationService, 0, 0, 0, 0, 0, 0, 0, 0, 0, 0, 0, 0, 0, 0,0.0,0.0,0.0,0.0,0.0,0.0,0.0,0.0,0.0,0.0,0.0,0.0,0.0,17,continuum-api\src\main\java\org\apache\maven\continuum\configuration\ConfigurationService.java,0,0,0,0
org.apache.maven.continuum.configuration.ConfigurationServiceTest, 0, 0, 0, 0, 0, 0, 0, 0, 0, 0, 0, 0, 0, 0,0.0,0.0,0.0,0.0,0.0,0.0,0.0,0.3333333333333333,0.0,0.0,0.0,0.0,0.0,119,continuum-commons\src\test\java\org\apache\maven\continuum\configuration\ConfigurationServiceTest.java,0,0,0,0
org.apache.maven.continuum.configuration.ConfigurationStoringException, 0, 0, 0, 0, 0, 0, 0, 0, 0, 0, 0, 0, 0, 0,0.0,0.0,0.0,0.0,0.0,0.0,0.0,0.0,0.0,0.0,0.0,0.0,0.0,17,continuum-api\src\main\java\org\apache\maven\continuum\configuration\ConfigurationStoringException.java,0,0,0,0
org.apache.maven.continuum.configuration.DefaultConfigurationService, 0, 0, 0, 1, 0, 0, 0, 0, 0, 0, 0, 0, 0, 1,0.0,0.0,0.0,0.16666666666666666,0.0,0.0,0.0,0.16666666666666666,0.0,0.0,0.0,0.0,0.0,617,continuum-commons\src\main\java\org\apache\maven\continuum\configuration\DefaultConfigurationService.java,0,0,0,0
org.apache.maven.continuum.core.action.AbstractBuildDefinitionContinuumAction, 0, 0, 0, 0, 0, 0, 0, 0, 0, 0, 0, 0, 0, 0,0.0,0.0,0.0,0.0,0.0,0.0,0.0,0.0,0.0,0.0,0.0,0.0,0.0,128,continuum-core\src\main\java\org\apache\maven\continuum\core\action\AbstractBuildDefinitionContinuumAction.java,0,0,0,0
org.apache.maven.continuum.core.action.AbstractValidationContinuumAction, 0, 0, 0, 0, 0, 0, 0, 0, 0, 0, 0, 0, 0, 0,0.0,0.0,0.0,0.0,0.0,0.0,0.0,0.0,0.0,0.0,0.0,0.0,0.0,12,continuum-core\src\main\java\org\apache\maven\continuum\core\action\AbstractValidationContinuumAction.java,0,0,0,0
org.apache.maven.continuum.execution.ContinuumBuildCancelledException, 0, 0, 0, 0, 0, 0, 0, 0, 0, 0, 0, 0, 0, 0,0.0,0.0,0.0,0.0,0.0,0.0,0.0,0.0,0.0,0.0,0.0,0.0,0.0,13,continuum-api\src\main\java\org\apache\maven\continuum\execution\ContinuumBuildCancelledException.java,0,0,0,0
org.apache.maven.continuum.execution.ContinuumBuildExecutionResult, 0, 0, 0, 0, 0, 0, 0, 0, 0, 0, 0, 0, 0, 0,0.0,0.0,0.0,0.0,0.0,0.0,0.0,0.0,0.0,0.0,0.0,0.0,0.0,18,continuum-api\src\main\java\org\apache\maven\continuum\execution\ContinuumBuildExecutionResult.java,0,0,0,0
org.apache.maven.continuum.execution.ContinuumBuildExecutor, 0, 0, 0, 0, 0, 0, 0, 0, 0, 0, 0, 0, 0, 0,0.0,0.0,0.0,0.0,0.0,0.0,0.0,0.0,0.0,0.0,0.0,0.0,0.0,18,continuum-api\src\main\java\org\apache\maven\continuum\execution\ContinuumBuildExecutor.java,0,0,0,0
org.apache.maven.continuum.execution.ContinuumBuildExecutorConstants, 0, 0, 0, 0, 0, 0, 0, 0, 0, 0, 0, 0, 0, 0,0.0,0.0,0.0,0.0,0.0,0.0,0.0,0.0,0.0,0.0,0.0,0.0,0.0,7,continuum-api\src\main\java\org\apache\maven\continuum\execution\ContinuumBuildExecutorConstants.java,0,4,0,4
org.apache.maven.continuum.execution.ContinuumBuildExecutorException, 0, 0, 0, 0, 0, 0, 0, 0, 0, 0, 0, 0, 0, 0,0.0,0.0,0.0,0.0,0.0,0.0,0.0,0.0,0.0,0.0,0.0,0.0,0.0,13,continuum-api\src\main\java\org\apache\maven\continuum\execution\ContinuumBuildExecutorException.java,0,0,0,0
org.apache.maven.continuum.execution.ExecutorConfigurator, 0, 0, 0, 0, 0, 0, 0, 1, 0, 0, 0, 0, 0, 1,0.0,0.0,0.0,0.0,0.0,0.0,0.0,0.0,0.0,0.0,0.0,0.0,0.0,49,continuum-api\src\main\java\org\apache\maven\continuum\execution\ExecutorConfigurator.java,0,0,0,0
org.apache.maven.continuum.execution.manager.BuildExecutorManager, 0, 0, 0, 0, 0, 0, 0, 0, 0, 0, 0, 0, 0, 0,0.0,0.0,0.0,0.0,0.0,0.0,0.0,0.0,0.0,0.0,0.0,0.0,0.0,49,continuum-core\src\main\java\org\apache\maven\continuum\execution\manager\BuildExecutorManager.java,0,0,0,0
org.apache.maven.continuum.execution.manager.BuildExecutorNotFoundException, 0, 0, 0, 0, 0, 0, 0, 0, 0, 0, 0, 0, 0, 0,0.0,0.0,0.0,0.0,0.0,0.0,0.0,0.0,0.0,0.0,0.0,0.0,0.0,9,continuum-core\src\main\java\org\apache\maven\continuum\execution\manager\BuildExecutorNotFoundException.java,0,0,0,0
org.apache.maven.continuum.execution.manager.DefaultBuildExecutorManagerTest, 0, 0, 0, 0, 0, 0, 0, 0, 0, 0, 0, 0, 0, 0,0.0,0.0,0.0,0.0,0.0,0.0,0.0,0.0,0.0,0.0,0.0,0.0,0.0,49,continuum-core\src\test\java\org\apache\maven\continuum\execution\manager\DefaultBuildExecutorManagerTest.java,0,0,0,0
org.apache.maven.continuum.execution.maven.m1.MavenOneMetadataHelper, 0, 0, 0, 0, 0, 0, 0, 0, 0, 0, 0, 0, 0, 0,0.0,0.0,0.0,0.0,0.0,0.0,0.0,0.0,0.0,0.0,0.0,0.0,0.0,49,continuum-core\src\main\java\org\apache\maven\continuum\execution\maven\m1\MavenOneMetadataHelper.java,0,0,0,0
org.apache.maven.continuum.execution.maven.m1.MavenOneMetadataHelperException, 0, 0, 0, 0, 0, 0, 0, 0, 0, 0, 0, 0, 0, 0,0.0,0.0,0.0,0.0,0.0,0.0,0.0,1.0,0.0,0.0,0.0,0.0,0.0,13,continuum-core\src\main\java\org\apache\maven\continuum\execution\maven\m1\MavenOneMetadataHelperException.java,0,0,0,0
org.apache.maven.continuum.execution.maven.m2.MavenBuilderHelper, 0, 0, 0, 0, 0, 0, 0, 0, 0, 0, 0, 0, 0, 0,0.0,0.0,0.0,0.0,0.0,0.0,0.0,0.0,0.0,0.0,0.0,0.0,0.0,13,continuum-core\src\main\java\org\apache\maven\continuum\execution\maven\m2\MavenBuilderHelper.java,0,0,0,0
org.apache.maven.continuum.execution.maven.m2.MavenBuilderHelperException, 0, 0, 0, 0, 0, 0, 0, 0, 0, 0, 0, 0, 0, 0,0.0,0.0,0.0,0.0,0.0,0.0,0.0,0.0,0.0,0.0,0.0,0.0,0.0,12,continuum-core\src\main\java\org\apache\maven\continuum\execution\maven\m2\MavenBuilderHelperException.java,0,0,0,0
org.apache.maven.continuum.execution.maven.m2.MavenTwoBuildExecutorTest, 0, 0, 0, 0, 0, 0, 0, 0, 0, 0, 0, 0, 0, 0,0.0,0.0,0.0,0.0,0.0,0.0,0.0,0.0,0.0,0.0,0.0,0.0,0.0,74,continuum-core\src\test\java\org\apache\maven\continuum\execution\maven\m2\MavenTwoBuildExecutorTest.java,0,0,0,0
org.apache.maven.continuum.execution.maven.m2.SettingsConfigurationException, 0, 0, 0, 0, 0, 0, 0, 1, 0, 0, 0, 0, 0, 1,0.0,0.0,0.0,0.0,0.0,0.0,0.0,0.0,0.0,0.0,0.0,0.0,0.0,29,continuum-core\src\main\java\org\apache\maven\continuum\execution\maven\m2\SettingsConfigurationException.java,0,0,0,0
org.apache.maven.continuum.initialization.ContinuumInitializationException, 0, 0, 0, 0, 0, 0, 0, 0, 0, 0, 0, 0, 0, 0,0.0,0.0,0.0,0.0,0.0,0.0,0.0,0.0,0.0,0.0,0.0,0.0,0.0,17,continuum-api\src\main\java\org\apache\maven\continuum\initialization\ContinuumInitializationException.java,0,0,0,0
org.apache.maven.continuum.initialization.ContinuumInitializer, 0, 0, 0, 0, 0, 0, 0, 0, 0, 0, 0, 0, 0, 0,0.0,0.0,0.0,0.0,0.0,0.0,0.0,0.0,0.0,0.0,0.0,0.0,0.0,17,continuum-api\src\main\java\org\apache\maven\continuum\initialization\ContinuumInitializer.java,0,0,0,0
org.apache.maven.continuum.initialization.DefaultContinuumInitializer, 0, 0, 0, 0, 0, 0, 0, 0, 0, 0, 0, 0, 0, 0,0.0,0.0,0.0,0.0,0.0,0.0,0.0,0.0,0.0,0.0,0.0,0.0,0.0,122,continuum-core\src\main\java\org\apache\maven\continuum\initialization\DefaultContinuumInitializer.java,0,0,0,0
org.apache.maven.continuum.initialization.DefaultContinuumInitializerTest, 0, 0, 0, 0, 0, 0, 0, 0, 0, 0, 0, 0, 0, 0,0.0,0.0,0.0,0.0,0.0,0.0,0.0,0.0,0.0,0.0,0.0,0.0,0.0,20,continuum-core\src\test\java\org\apache\maven\continuum\initialization\DefaultContinuumInitializerTest.java,0,0,0,0
org.apache.maven.continuum.installation.AlreadyExistsInstallationException, 0, 0, 0, 0, 0, 0, 0, 0, 0, 0, 0, 0, 0, 0,0.0,0.0,0.0,0.0,0.0,0.0,0.0,0.0,0.0,0.0,0.0,0.0,0.0,13,continuum-api\src\main\java\org\apache\maven\continuum\installation\AlreadyExistsInstallationException.java,0,0,0,0
org.apache.maven.continuum.installation.InstallationException, 0, 0, 0, 0, 0, 0, 0, 0, 0, 0, 0, 0, 0, 0,0.0,0.0,0.0,0.0,0.0,0.0,0.0,0.0,0.0,0.0,0.0,0.0,0.0,13,continuum-api\src\main\java\org\apache\maven\continuum\installation\InstallationException.java,0,0,0,0
org.apache.maven.continuum.installation.InstallationService, 0, 0, 0, 0, 0, 0, 0, 0, 0, 0, 0, 0, 0, 0,0.0,0.0,0.0,0.0,0.0,0.0,0.0,0.0,0.0,0.0,0.0,0.0,0.0,13,continuum-api\src\main\java\org\apache\maven\continuum\installation\InstallationService.java,0,0,0,0
org.apache.maven.continuum.jdo.MemoryJdoFactory, 0, 0, 0, 0, 0, 0, 0, 0, 0, 0, 0, 0, 0, 0,0.0,0.0,0.0,0.0,0.0,0.0,0.0,0.0,0.0,0.0,0.0,0.0,0.0,17,continuum-test\src\main\java\org\apache\maven\continuum\jdo\MemoryJdoFactory.java,0,0,0,0
org.apache.maven.continuum.management.DataManagementException, 0, 0, 0, 0, 0, 0, 0, 0, 0, 0, 0, 0, 0, 0,0.0,0.0,0.0,0.0,0.0,0.0,0.0,0.0,0.0,0.0,0.0,0.0,0.0,12,continuum-data-management\data-management-api\src\main\java\org\apache\maven\continuum\management\DataManagementException.java,0,0,0,0
org.apache.maven.continuum.management.DataManagementTool, 0, 0, 0, 0, 0, 0, 0, 0, 0, 0, 0, 0, 0, 0,0.0,0.0,0.0,0.0,0.0,0.0,0.0,0.0,0.0,0.0,0.0,0.0,0.0,12,continuum-data-management\data-management-api\src\main\java\org\apache\maven\continuum\management\DataManagementTool.java,0,0,0,0
org.apache.maven.continuum.management.DataManagementToolTest, 0, 0, 0, 0, 0, 0, 0, 0, 0, 0, 0, 0, 0, 0,0.0,0.0,0.0,0.0,0.0,0.0,0.0,0.0,0.0,0.0,0.0,0.0,0.0,88,continuum-data-management\data-management-jdo\src\test\java\org\apache\maven\continuum\management\DataManagementToolTest.java,0,20,0,20
org.apache.maven.continuum.management.DatabaseFactoryConfigurator, 0, 0, 0, 0, 0, 0, 0, 0, 0, 0, 0, 0, 0, 0,0.0,0.0,0.0,0.0,0.0,0.0,0.0,0.0,0.0,0.0,0.0,0.0,0.0,88,continuum-data-management\data-management-api\src\main\java\org\apache\maven\continuum\management\DatabaseFactoryConfigurator.java,0,0,0,0
org.apache.maven.continuum.management.DatabaseParams, 0, 0, 0, 0, 0, 0, 0, 1, 0, 0, 0, 0, 0, 1,0.0,0.0,0.0,0.0,0.0,0.0,0.0,0.0,0.0,0.0,0.0,0.0,0.0,67,continuum-data-management\data-management-api\src\main\java\org\apache\maven\continuum\management\DatabaseParams.java,0,0,0,0
org.apache.maven.continuum.management.redback.JdoDataManagementTool, 0, 0, 0, 0, 0, 0, 0, 0, 0, 0, 0, 0, 0, 0,0.0,0.0,0.0,0.0,0.0,0.0,0.0,0.0,0.0,0.0,0.0,0.0,0.0,50,continuum-data-management\data-management-redback-jdo\src\main\java\org\apache\maven\continuum\management\redback\JdoDataManagementTool.java,0,0,0,0
org.apache.maven.continuum.management.util.PlexusFileSystemXmlApplicationContext, 0, 0, 0, 0, 0, 0, 0, 1, 0, 0, 0, 0, 0, 1,0.0,0.0,0.0,0.0,0.0,0.0,0.0,0.0,0.0,0.0,0.0,0.0,0.0,48,continuum-data-management\data-management-cli\src\main\java\org\apache\maven\continuum\management\util\PlexusFileSystemXmlApplicationContext.java,0,0,0,0
org.apache.maven.continuum.model.project.ContinuumModelloMetadata, 0, 0, 0, 0, 0, 0, 0, 0, 0, 0, 0, 0, 0, 0,0.0,0.0,0.0,0.0,0.0,0.0,0.0,0.0,0.0,0.0,0.0,0.0,0.0,12,continuum-model\src\main\java\org\apache\maven\continuum\model\project\ContinuumModelloMetadata.java,0,0,0,0
org.apache.maven.continuum.model.project.v1_0_9.ContinuumModelloMetadata, 0, 0, 0, 0, 0, 0, 0, 0, 0, 0, 0, 0, 0, 0,0.0,0.0,0.0,0.0,0.0,0.0,0.0,0.0,0.0,0.0,0.0,0.0,0.0,12,continuum-data-management\continuum-legacy\src\main\java\org\apache\maven\continuum\model\project\v1_0_9\ContinuumModelloMetadata.java,0,0,0,0
org.apache.maven.continuum.notification.ContinuumNotificationDispatcher, 0, 0, 0, 0, 0, 0, 0, 0, 0, 0, 0, 0, 0, 0,0.0,0.0,0.0,0.0,0.0,0.0,0.0,0.0,0.0,0.0,0.0,0.0,0.0,12,continuum-api\src\main\java\org\apache\maven\continuum\notification\ContinuumNotificationDispatcher.java,0,0,0,0
org.apache.maven.continuum.notification.ContinuumNotificationDispatcherTest, 0, 0, 0, 0, 0, 0, 0, 0, 0, 0, 0, 0, 0, 0,0.0,0.0,0.0,0.0,0.0,0.0,0.0,0.0,0.0,0.0,0.0,0.0,0.0,27,continuum-core\src\test\java\org\apache\maven\continuum\notification\ContinuumNotificationDispatcherTest.java,0,0,0,0
org.apache.maven.continuum.notification.MessageContext, 0, 0, 0, 0, 0, 0, 0, 0, 0, 0, 0, 0, 0, 0,0.0,0.0,0.0,0.0,0.0,0.0,0.0,0.5,0.0,0.0,0.0,0.0,0.0,48,continuum-notifiers\continuum-notifier-api\src\main\java\org\apache\maven\continuum\notification\MessageContext.java,0,0,0,0
org.apache.maven.continuum.notification.NotificationException, 0, 0, 0, 0, 0, 0, 0, 0, 0, 0, 0, 0, 0, 0,0.0,0.0,0.0,0.0,0.0,0.0,0.0,0.0,0.0,0.0,0.0,0.0,0.0,12,continuum-notifiers\continuum-notifier-api\src\main\java\org\apache\maven\continuum\notification\NotificationException.java,0,0,0,0
org.apache.maven.continuum.notification.Notifier, 0, 0, 0, 0, 0, 0, 0, 0, 0, 0, 0, 0, 0, 0,0.0,0.0,0.0,0.0,0.0,0.0,0.0,0.0,0.0,0.0,0.0,0.0,0.0,12,continuum-notifiers\continuum-notifier-api\src\main\java\org\apache\maven\continuum\notification\Notifier.java,0,0,0,0
org.apache.maven.continuum.notification.console.ConsoleNotifier, 0, 0, 0, 0, 0, 0, 0, 1, 0, 0, 0, 0, 0, 1,0.0,0.0,0.0,0.0,0.0,0.0,0.0,0.0,0.0,0.0,0.0,0.0,0.0,116,continuum-core\src\main\java\org\apache\maven\continuum\notification\console\ConsoleNotifier.java,0,0,0,0
org.apache.maven.continuum.notification.mail.FormatterTool, 0, 0, 0, 0, 0, 0, 0, 0, 0, 0, 0, 0, 0, 0,0.0,0.0,0.0,0.0,0.0,0.0,0.0,1.0,0.0,0.0,0.0,0.0,0.0,96,continuum-core\src\main\java\org\apache\maven\continuum\notification\mail\FormatterTool.java,0,0,0,0
org.apache.maven.continuum.notification.mail.FormatterToolTest, 0, 0, 0, 0, 0, 0, 0, 1, 0, 0, 0, 0, 0, 1,0.0,0.0,0.0,0.0,0.0,0.0,0.0,0.0,0.0,0.0,0.0,0.0,0.0,20,continuum-core\src\test\java\org\apache\maven\continuum\notification\mail\FormatterToolTest.java,0,0,0,0
org.apache.maven.continuum.notification.manager.NotifierManager, 0, 0, 0, 0, 0, 0, 0, 0, 0, 0, 0, 0, 0, 0,0.0,0.0,0.0,0.0,0.0,0.0,0.0,0.0,0.0,0.0,0.0,0.0,0.0,20,continuum-core\src\main\java\org\apache\maven\continuum\notification\manager\NotifierManager.java,0,0,0,0
org.apache.maven.continuum.profile.AlreadyExistsProfileException, 0, 0, 0, 0, 0, 0, 0, 0, 0, 0, 0, 0, 0, 0,0.0,0.0,0.0,0.5,0.0,0.0,0.0,0.0,0.0,0.0,0.0,0.0,0.0,13,continuum-api\src\main\java\org\apache\maven\continuum\profile\AlreadyExistsProfileException.java,0,0,0,0
org.apache.maven.continuum.profile.ProfileException, 0, 0, 0, 0, 0, 0, 0, 0, 0, 0, 0, 0, 0, 0,0.0,0.0,0.0,0.3333333333333333,0.0,0.0,0.0,0.0,0.0,0.0,0.0,0.0,0.0,13,continuum-api\src\main\java\org\apache\maven\continuum\profile\ProfileException.java,0,0,0,0
org.apache.maven.continuum.profile.ProfileService, 0, 0, 0, 0, 0, 0, 0, 0, 0, 0, 0, 0, 0, 0,0.0,0.0,0.0,0.0,0.0,0.0,0.0,0.0,0.0,0.0,0.0,0.0,0.0,13,continuum-api\src\main\java\org\apache\maven\continuum\profile\ProfileService.java,0,0,0,0
org.apache.maven.continuum.project.builder.AbstractContinuumProjectBuilder, 0, 0, 0, 0, 0, 0, 0, 1, 0, 0, 0, 0, 0, 1,0.0,0.0,0.0,0.0,0.0,0.0,0.0,0.5,0.0,0.0,0.0,0.0,0.0,163,continuum-core\src\main\java\org\apache\maven\continuum\project\builder\AbstractContinuumProjectBuilder.java,0,0,0,0
org.apache.maven.continuum.project.builder.AbstractContinuumProjectBuilderTest, 0, 0, 0, 0, 0, 0, 0, 0, 0, 0, 0, 0, 0, 0,0.0,0.0,0.0,0.0,0.0,0.0,0.0,1.0,0.0,0.0,0.0,0.0,0.0,57,continuum-core\src\test\java\org\apache\maven\continuum\project\builder\AbstractContinuumProjectBuilderTest.java,0,0,0,0
org.apache.maven.continuum.project.builder.ContinuumProjectBuilder, 0, 0, 0, 0, 0, 0, 0, 0, 0, 0, 0, 0, 0, 0,0.0,0.0,0.0,0.0,0.0,0.0,0.0,0.0,0.0,0.0,0.0,0.0,0.0,57,continuum-api\src\main\java\org\apache\maven\continuum\project\builder\ContinuumProjectBuilder.java,0,0,0,0
org.apache.maven.continuum.project.builder.ContinuumProjectBuilderException, 0, 0, 0, 0, 0, 0, 0, 0, 0, 0, 0, 0, 0, 0,0.0,0.0,0.0,0.0,0.0,0.0,0.0,1.0,0.0,0.0,0.0,0.0,0.0,13,continuum-api\src\main\java\org\apache\maven\continuum\project\builder\ContinuumProjectBuilderException.java,0,0,0,0
org.apache.maven.continuum.project.builder.EasySSLSocketFactory, 0, 0, 0, 0, 0, 0, 0, 1, 0, 0, 0, 0, 0, 1,0.0,0.0,0.0,0.0,0.0,0.0,0.0,0.0,0.0,0.0,0.0,0.0,0.0,82,continuum-core\src\main\java\org\apache\maven\continuum\project\builder\EasySSLSocketFactory.java,0,0,0,0
org.apache.maven.continuum.project.builder.EasyX509TrustManager, 0, 0, 0, 0, 0, 0, 0, 0, 0, 0, 0, 0, 0, 0,0.0,0.0,0.0,0.0,0.0,0.0,0.0,1.0,0.0,0.0,0.0,0.0,0.0,48,continuum-core\src\main\java\org\apache\maven\continuum\project\builder\EasyX509TrustManager.java,0,0,0,0
org.apache.maven.continuum.project.builder.manager.ContinuumProjectBuilderManager, 0, 0, 0, 0, 0, 0, 0, 0, 0, 0, 0, 0, 0, 0,0.0,0.0,0.0,0.0,0.0,0.0,0.0,0.0,0.0,0.0,0.0,0.0,0.0,48,continuum-core\src\main\java\org\apache\maven\continuum\project\builder\manager\ContinuumProjectBuilderManager.java,0,0,0,0
org.apache.maven.continuum.project.builder.manager.ContinuumProjectBuilderManagerException, 0, 0, 0, 0, 0, 0, 0, 0, 0, 0, 0, 0, 0, 0,0.0,0.0,0.0,0.0,0.0,0.0,0.0,0.0,0.0,0.0,0.0,0.0,0.0,12,continuum-core\src\main\java\org\apache\maven\continuum\project\builder\manager\ContinuumProjectBuilderManagerException.java,0,0,0,0
org.apache.maven.continuum.project.builder.maven.MavenOneContinuumProjectBuilder, 0, 0, 0, 0, 0, 0, 0, 1, 0, 0, 0, 0, 0, 1,0.0,0.0,0.0,0.0,0.0,0.0,0.0,0.2,0.0,0.0,0.0,0.0,0.0,129,continuum-core\src\main\java\org\apache\maven\continuum\project\builder\maven\MavenOneContinuumProjectBuilder.java,0,0,0,0
org.apache.maven.continuum.project.builder.maven.MavenOneContinuumProjectBuilderTest, 0, 0, 0, 0, 0, 0, 0, 0, 0, 0, 0, 0, 0, 0,0.0,0.0,0.0,0.0,0.0,0.0,0.0,0.0,0.0,0.0,0.0,0.0,0.0,57,continuum-core\src\test\java\org\apache\maven\continuum\project\builder\maven\MavenOneContinuumProjectBuilderTest.java,0,0,0,0
org.apache.maven.continuum.release.ContinuumReleaseException, 0, 0, 0, 0, 0, 0, 0, 0, 0, 0, 0, 0, 0, 0,0.0,0.0,0.0,0.0,0.0,0.0,0.0,0.25,0.0,0.0,0.0,0.0,0.0,17,continuum-api\src\main\java\org\apache\maven\continuum\release\ContinuumReleaseException.java,0,0,0,0
org.apache.maven.continuum.release.ContinuumReleaseManagerListener, 0, 0, 0, 0, 0, 0, 0, 0, 0, 0, 0, 0, 0, 0,0.0,0.0,0.0,0.0,0.0,0.0,0.0,0.0,0.0,0.0,0.0,0.0,0.0,17,continuum-api\src\main\java\org\apache\maven\continuum\release\ContinuumReleaseManagerListener.java,0,0,0,0
org.apache.maven.continuum.release.DefaultReleaseManagerListener, 0, 0, 0, 0, 0, 0, 0, 0, 0, 0, 0, 0, 0, 0,0.0,0.0,0.0,0.0,0.0,0.0,0.0,0.0,0.0,0.0,0.0,0.0,0.0,73,continuum-release\src\main\java\org\apache\maven\continuum\release\DefaultReleaseManagerListener.java,0,0,0,0
org.apache.maven.continuum.release.executors.AbstractReleaseTaskExecutor, 0, 0, 0, 0, 0, 0, 0, 0, 0, 0, 0, 0, 0, 0,0.0,0.0,0.0,0.0,0.0,0.0,0.0,0.0,0.0,0.0,0.0,0.0,0.0,67,continuum-release\src\main\java\org\apache\maven\continuum\release\executors\AbstractReleaseTaskExecutor.java,0,0,0,0
org.apache.maven.continuum.release.executors.PerformReleaseTaskExecutor, 0, 0, 0, 0, 0, 0, 0, 0, 0, 0, 0, 0, 0, 0,0.0,0.0,0.0,0.0,0.0,0.0,0.0,0.5,0.0,0.0,0.0,0.0,0.0,145,continuum-release\src\main\java\org\apache\maven\continuum\release\executors\PerformReleaseTaskExecutor.java,0,5,0,5
org.apache.maven.continuum.release.executors.PrepareReleaseTaskExecutor, 0, 0, 0, 0, 0, 0, 0, 0, 0, 0, 0, 0, 0, 0,0.0,0.0,0.0,0.0,0.0,0.0,0.0,0.5,0.0,0.0,0.0,0.0,0.0,20,continuum-release\src\main\java\org\apache\maven\continuum\release\executors\PrepareReleaseTaskExecutor.java,0,0,0,0
org.apache.maven.continuum.release.executors.ReleaseTaskExecutor, 0, 0, 0, 0, 0, 0, 0, 0, 0, 0, 0, 0, 0, 0,0.0,0.0,0.0,0.0,0.0,0.0,0.0,0.0,0.0,0.0,0.0,0.0,0.0,20,continuum-release\src\main\java\org\apache\maven\continuum\release\executors\ReleaseTaskExecutor.java,0,0,0,0
org.apache.maven.continuum.release.executors.RollbackReleaseTaskExecutor, 0, 0, 0, 0, 0, 0, 0, 0, 0, 0, 0, 0, 0, 0,0.0,0.0,0.0,0.0,0.0,0.0,0.0,0.0,0.0,0.0,0.0,0.0,0.0,27,continuum-release\src\main\java\org\apache\maven\continuum\release\executors\RollbackReleaseTaskExecutor.java,0,0,0,0
org.apache.maven.continuum.release.phase.UpdateWorkingCopyPhaseTest, 0, 0, 0, 0, 0, 0, 0, 0, 0, 0, 0, 0, 0, 0,0.0,0.0,0.0,0.0,0.0,0.0,0.0,0.0,0.0,0.0,0.0,0.0,0.0,58,continuum-release\src\test\java\org\apache\maven\continuum\release\phase\UpdateWorkingCopyPhaseTest.java,0,0,0,0
org.apache.maven.continuum.release.tasks.AbstractReleaseProjectTask, 0, 0, 0, 0, 0, 0, 0, 1, 0, 0, 0, 0, 0, 1,0.0,0.0,0.0,0.0,0.0,0.4,0.0,0.6,0.0,0.0,0.0,0.0,0.0,46,continuum-release\src\main\java\org\apache\maven\continuum\release\tasks\AbstractReleaseProjectTask.java,0,0,0,0
org.apache.maven.continuum.release.tasks.PerformReleaseProjectTask, 0, 0, 0, 0, 0, 0, 0, 1, 0, 0, 0, 0, 0, 1,0.0,0.0,0.0,0.0,0.0,0.0,0.0,0.5,0.0,0.0,0.0,0.0,0.0,55,continuum-release\src\main\java\org\apache\maven\continuum\release\tasks\PerformReleaseProjectTask.java,0,0,0,0
org.apache.maven.continuum.release.tasks.PrepareReleaseProjectTask, 0, 0, 0, 0, 0, 1, 0, 1, 0, 0, 0, 0, 0, 2,0.0,0.0,0.0,0.0,0.0,0.0,0.0,1.0,0.0,0.0,0.0,0.0,0.0,8,continuum-release\src\main\java\org\apache\maven\continuum\release\tasks\PrepareReleaseProjectTask.java,0,0,0,0
org.apache.maven.continuum.release.tasks.ReleaseProjectTask, 0, 0, 0, 0, 0, 0, 0, 0, 0, 0, 0, 0, 0, 0,0.0,0.0,0.0,0.0,0.0,0.0,0.0,0.0,0.0,0.0,0.0,0.0,0.0,8,continuum-release\src\main\java\org\apache\maven\continuum\release\tasks\ReleaseProjectTask.java,0,0,0,0
org.apache.maven.continuum.release.tasks.RollbackReleaseProjectTask, 0, 0, 0, 0, 0, 1, 0, 1, 0, 0, 0, 0, 0, 2,0.0,0.0,0.0,0.0,0.0,0.0,0.0,1.0,0.0,0.0,0.0,0.0,0.0,8,continuum-release\src\main\java\org\apache\maven\continuum\release\tasks\RollbackReleaseProjectTask.java,0,0,0,0
org.apache.maven.continuum.reports.surefire.ConfigurationServiceMock, 0, 0, 0, 0, 0, 0, 0, 0, 0, 0, 0, 0, 0, 0,0.0,0.0,0.0,0.0,0.0,0.0,0.0,0.0,0.0,0.0,0.0,0.0,0.0,10,continuum-reports\src\test\java\org\apache\maven\continuum\reports\surefire\ConfigurationServiceMock.java,0,0,0,0
org.apache.maven.continuum.reports.surefire.DefaultReportTestSuiteGenerator, 0, 0, 0, 0, 0, 0, 0, 1, 0, 0, 0, 0, 0, 1,0.0,0.0,0.0,0.0,0.0,0.0,0.0,0.0,0.0,0.0,0.0,0.0,0.0,116,continuum-reports\src\main\java\org\apache\maven\continuum\reports\surefire\DefaultReportTestSuiteGenerator.java,0,0,0,0
org.apache.maven.continuum.reports.surefire.DefaultReportTestSuiteGeneratorTest, 0, 0, 0, 0, 0, 0, 0, 0, 0, 0, 0, 0, 0, 0,0.0,0.0,0.0,0.0,0.0,0.0,0.0,0.0,0.0,0.0,0.0,0.0,0.0,58,continuum-reports\src\test\java\org\apache\maven\continuum\reports\surefire\DefaultReportTestSuiteGeneratorTest.java,0,0,0,0
org.apache.maven.continuum.reports.surefire.ReportFailure, 0, 0, 0, 0, 0, 0, 0, 1, 0, 0, 0, 0, 0, 1,0.0,0.0,0.0,0.0,0.0,0.0,0.0,0.0,0.0,0.0,0.0,0.0,0.0,36,continuum-reports\src\main\java\org\apache\maven\continuum\reports\surefire\ReportFailure.java,0,0,0,0
org.apache.maven.continuum.reports.surefire.ReportTest, 0, 0, 0, 0, 0, 0, 0, 0, 0, 0, 0, 0, 0, 0,0.0,0.0,0.0,0.0,0.0,0.0,0.0,0.0,0.0,0.0,0.0,0.0,0.0,83,continuum-reports\src\main\java\org\apache\maven\continuum\reports\surefire\ReportTest.java,0,0,0,0
org.apache.maven.continuum.reports.surefire.ReportTestCase, 0, 0, 0, 0, 0, 0, 0, 0, 0, 0, 0, 0, 0, 0,0.0,0.0,0.0,0.0,0.0,0.0,0.0,0.0,0.0,0.0,0.0,0.0,0.0,75,continuum-reports\src\main\java\org\apache\maven\continuum\reports\surefire\ReportTestCase.java,0,0,0,0
org.apache.maven.continuum.reports.surefire.ReportTestResult, 0, 0, 0, 0, 0, 0, 0, 0, 0, 0, 0, 0, 0, 0,0.0,0.0,0.0,0.0,0.0,0.0,0.0,0.5,0.0,0.0,0.0,0.0,0.0,60,continuum-reports\src\main\java\org\apache\maven\continuum\reports\surefire\ReportTestResult.java,0,0,0,0
org.apache.maven.continuum.reports.surefire.ReportTestSuiteGenerator, 0, 0, 0, 0, 0, 0, 0, 0, 0, 0, 0, 0, 0, 0,0.0,0.0,0.0,0.0,0.0,0.0,0.0,0.0,0.0,0.0,0.0,0.0,0.0,60,continuum-reports\src\main\java\org\apache\maven\continuum\reports\surefire\ReportTestSuiteGenerator.java,0,0,0,0
org.apache.maven.continuum.reports.surefire.ReportTestSuiteGeneratorException, 0, 0, 0, 0, 0, 0, 0, 0, 0, 0, 0, 0, 0, 0,0.0,0.0,0.0,0.0,0.0,0.0,0.0,1.0,0.0,0.0,0.0,0.0,0.0,19,continuum-reports\src\main\java\org\apache\maven\continuum\reports\surefire\ReportTestSuiteGeneratorException.java,0,0,0,0
org.apache.maven.continuum.scheduler.ContinuumBuildJob, 0, 0, 0, 0, 0, 0, 0, 0, 0, 0, 0, 0, 0, 0,0.0,0.0,0.0,0.0,0.0,0.0,0.0,0.0,0.0,0.0,0.0,0.0,0.0,35,continuum-core\src\main\java\org\apache\maven\continuum\scheduler\ContinuumBuildJob.java,0,0,0,0
org.apache.maven.continuum.scheduler.ContinuumPurgeJob, 0, 0, 0, 0, 0, 0, 0, 0, 0, 0, 0, 0, 0, 0,0.0,0.0,0.0,0.0,0.0,0.0,0.0,0.0,0.0,0.0,0.0,0.0,0.0,36,continuum-core\src\main\java\org\apache\maven\continuum\scheduler\ContinuumPurgeJob.java,0,0,0,0
org.apache.maven.continuum.scheduler.ContinuumSchedulerConstants, 0, 0, 0, 0, 0, 0, 0, 0, 0, 0, 0, 0, 0, 0,0.0,0.0,0.0,0.0,0.0,0.0,0.0,0.0,0.0,0.0,0.0,0.0,0.0,6,continuum-core\src\main\java\org\apache\maven\continuum\scheduler\ContinuumSchedulerConstants.java,0,0,0,0
org.apache.maven.continuum.security.ContinuumRoleConstants, 0, 0, 0, 1, 0, 0, 0, 0, 0, 0, 0, 0, 0, 1,0.0,0.0,0.0,0.0,0.0,0.0,0.0,0.0,0.0,0.0,0.0,0.0,0.0,55,continuum-security\src\main\java\org\apache\maven\continuum\security\ContinuumRoleConstants.java,0,0,0,0
org.apache.maven.continuum.store.ContinuumObjectNotFoundException, 0, 0, 0, 0, 0, 0, 0, 0, 0, 0, 0, 0, 0, 0,0.0,0.0,0.0,0.2222222222222222,0.0,0.0,0.0,0.2222222222222222,0.0,0.0,0.0,0.0,0.0,13,continuum-api\src\main\java\org\apache\maven\continuum\store\ContinuumObjectNotFoundException.java,0,0,0,0
org.apache.maven.continuum.store.ContinuumStoreException, 0, 0, 0, 0, 0, 0, 0, 0, 0, 0, 0, 0, 0, 0,0.0,0.0,0.0,0.21428571428571427,0.0,0.0,0.0,0.2857142857142857,0.0,0.0,0.0,0.0,0.0,13,continuum-api\src\main\java\org\apache\maven\continuum\store\ContinuumStoreException.java,0,0,0,0
org.apache.maven.continuum.trigger.quartz.ContinuumBuildTrigger, 0, 0, 0, 0, 0, 0, 0, 0, 0, 0, 0, 0, 0, 0,0.0,0.0,0.0,0.0,0.0,0.0,0.0,0.0,0.0,0.0,0.0,0.0,0.0,8,continuum-core\src\main\java\org\apache\maven\continuum\trigger\quartz\ContinuumBuildTrigger.java,0,0,0,0
org.apache.maven.continuum.utils.ChrootJailWorkingDirectoryService, 0, 0, 0, 0, 0, 0, 0, 1, 0, 0, 0, 0, 0, 1,0.0,0.0,0.0,0.0,0.0,0.0,0.0,0.0,0.0,0.0,0.0,0.0,0.0,42,continuum-commons\src\main\java\org\apache\maven\continuum\utils\ChrootJailWorkingDirectoryService.java,0,0,0,0
org.apache.maven.continuum.utils.ContinuumUrlValidator, 0, 0, 0, 0, 0, 0, 0, 0, 0, 0, 0, 0, 0, 0,0.0,0.0,0.0,0.0,0.0,0.0,0.0,0.0,0.0,0.0,0.0,0.0,0.0,72,continuum-commons\src\main\java\org\apache\maven\continuum\utils\ContinuumUrlValidator.java,0,0,0,0
org.apache.maven.continuum.utils.ContinuumUrlValidatorTest, 0, 0, 0, 0, 0, 0, 0, 0, 0, 0, 0, 0, 0, 0,0.0,0.0,0.0,0.0,0.0,0.0,0.0,0.0,0.0,0.0,0.0,0.0,0.0,122,continuum-commons\src\test\java\org\apache\maven\continuum\utils\ContinuumUrlValidatorTest.java,0,0,0,0
org.apache.maven.continuum.utils.DefaultWorkingDirectoryServiceTest, 0, 0, 0, 0, 0, 0, 0, 1, 0, 0, 0, 0, 0, 1,0.0,0.0,0.0,0.0,0.0,0.0,0.0,0.0,0.0,0.0,0.0,0.0,0.0,103,continuum-commons\src\test\java\org\apache\maven\continuum\utils\DefaultWorkingDirectoryServiceTest.java,0,0,0,0
org.apache.maven.continuum.utils.URLUserInfo, 0, 0, 0, 0, 0, 0, 0, 0, 0, 0, 0, 0, 0, 0,0.0,0.0,0.0,0.0,0.0,0.0,0.0,0.0,0.0,0.0,0.0,0.0,0.0,24,continuum-commons\src\main\java\org\apache\maven\continuum\utils\URLUserInfo.java,0,0,0,0
org.apache.maven.continuum.utils.WorkingDirectoryService, 0, 0, 0, 0, 0, 0, 0, 0, 0, 0, 0, 0, 0, 0,0.0,0.0,0.0,0.0,0.0,0.0,0.0,0.0,0.0,0.0,0.0,0.0,0.0,24,continuum-api\src\main\java\org\apache\maven\continuum\utils\WorkingDirectoryService.java,0,0,0,0
org.apache.maven.continuum.wagon.Context, 0, 0, 0, 0, 0, 0, 0, 0, 0, 0, 0, 0, 0, 0,0.0,0.0,0.0,0.0,0.0,0.0,0.0,0.0,0.0,0.0,0.0,0.0,0.0,18,continuum-notifiers\continuum-notifier-wagon\src\test\java\org\apache\maven\continuum\wagon\Context.java,0,0,0,0
org.apache.maven.continuum.wagon.Servlet, 0, 0, 0, 0, 0, 0, 0, 0, 0, 0, 0, 0, 0, 0,0.0,0.0,0.0,0.0,0.0,0.0,0.0,0.0,0.0,0.0,0.0,0.0,0.0,23,continuum-notifiers\continuum-notifier-wagon\src\test\java\org\apache\maven\continuum\wagon\Servlet.java,0,0,0,0
org.apache.maven.continuum.wagon.WagonContinuumNotifierTest, 0, 0, 0, 0, 0, 0, 0, 0, 0, 0, 0, 0, 0, 0,0.0,0.0,0.0,0.0,0.0,0.0,0.0,0.0,0.0,0.0,0.0,0.0,0.0,45,continuum-notifiers\continuum-notifier-wagon\src\test\java\org\apache\maven\continuum\wagon\WagonContinuumNotifierTest.java,0,0,0,0
org.apache.maven.continuum.web.action.AboutAction, 0, 0, 0, 0, 0, 0, 0, 0, 0, 0, 0, 0, 0, 0,0.0,0.0,0.0,1.0,0.0,0.0,0.0,1.0,0.0,0.0,0.0,0.0,0.0,9,continuum-webapp\src\main\java\org\apache\maven\continuum\web\action\AboutAction.java,0,0,0,0
org.apache.maven.continuum.web.action.AbstractBuildDefinitionAction, 0, 0, 0, 0, 0, 0, 0, 0, 0, 0, 0, 0, 0, 0,0.0,0.0,0.0,0.0,0.0,0.0,0.0,0.5,0.0,0.0,0.0,0.0,0.0,34,continuum-webapp\src\main\java\org\apache\maven\continuum\web\action\AbstractBuildDefinitionAction.java,0,0,0,0
org.apache.maven.continuum.web.action.AddMavenOneProjectAction, 0, 0, 0, 0, 0, 0, 0, 1, 0, 0, 0, 0, 0, 1,0.0,0.0,0.0,0.5,0.0,0.0,0.0,0.5,0.0,0.0,0.0,0.0,0.0,45,continuum-webapp\src\main\java\org\apache\maven\continuum\web\action\AddMavenOneProjectAction.java,0,0,0,0
org.apache.maven.continuum.web.action.AddMavenTwoProjectAction, 0, 0, 0, 0, 0, 0, 0, 1, 0, 0, 0, 0, 0, 1,0.0,0.0,0.0,0.3333333333333333,0.0,0.0,0.0,0.3333333333333333,0.0,0.0,0.0,0.0,0.0,105,continuum-webapp\src\main\java\org\apache\maven\continuum\web\action\AddMavenTwoProjectAction.java,0,0,0,0
org.apache.maven.continuum.web.action.AddProjectAction, 0, 0, 0, 1, 0, 0, 0, 0, 0, 0, 0, 0, 0, 1,0.0,0.0,0.0,0.16666666666666666,0.0,0.0,0.0,0.3333333333333333,0.0,0.0,0.0,0.0,0.0,307,continuum-webapp\src\main\java\org\apache\maven\continuum\web\action\AddProjectAction.java,0,0,0,0
org.apache.maven.continuum.web.action.AddProjectActionTest, 0, 0, 0, 0, 0, 0, 0, 1, 0, 0, 0, 0, 0, 1,0.0,0.0,0.0,0.5,0.0,0.0,0.0,0.25,0.0,0.0,0.0,0.0,0.0,125,continuum-webapp\src\test\java\org\apache\maven\continuum\web\action\AddProjectActionTest.java,0,0,0,0
org.apache.maven.continuum.web.action.AddProjectGroupAction, 0, 0, 0, 0, 0, 0, 0, 0, 0, 0, 0, 0, 0, 0,0.0,0.0,0.0,0.2,0.0,0.0,0.0,0.2,0.0,0.0,0.0,0.0,0.0,135,continuum-webapp\src\main\java\org\apache\maven\continuum\web\action\AddProjectGroupAction.java,0,0,0,0
org.apache.maven.continuum.web.action.BuildAgentActionTest, 0, 0, 0, 0, 0, 0, 0, 0, 0, 0, 0, 0, 0, 0,0.0,0.0,0.0,0.5,0.0,0.0,0.0,0.5,0.0,0.0,0.0,0.0,0.0,58,continuum-webapp\src\test\java\org\apache\maven\continuum\web\action\BuildAgentActionTest.java,0,0,0,0
org.apache.maven.continuum.web.action.BuildProjectAction, 0, 0, 0, 0, 0, 0, 0, 0, 0, 0, 0, 0, 0, 0,0.0,0.0,0.0,0.16666666666666666,0.0,0.0,0.0,0.16666666666666666,0.0,0.0,0.0,0.0,0.0,142,continuum-webapp\src\main\java\org\apache\maven\continuum\web\action\BuildProjectAction.java,0,0,0,0
org.apache.maven.continuum.web.action.BuildResultsListAction, 0, 0, 0, 0, 0, 0, 0, 0, 0, 0, 0, 0, 0, 0,0.0,0.0,0.0,0.16666666666666666,0.0,0.0,0.0,0.3333333333333333,0.0,0.0,0.0,0.0,0.0,145,continuum-webapp\src\main\java\org\apache\maven\continuum\web\action\BuildResultsListAction.java,0,0,0,0
org.apache.maven.continuum.web.action.ContinuumActionSupport, 0, 0, 0, 1, 0, 0, 0, 1, 0, 0, 0, 0, 0, 2,0.0,0.0,0.0,0.18421052631578946,0.0,0.0,0.0,0.10526315789473684,0.0,0.0,0.0,0.0,0.0,277,continuum-webapp\src\main\java\org\apache\maven\continuum\web\action\ContinuumActionSupport.java,0,5,0,5
org.apache.maven.continuum.web.action.ContinuumConfirmAction, 0, 0, 0, 0, 0, 0, 0, 1, 0, 0, 0, 0, 0, 1,0.0,0.0,0.0,0.5714285714285714,0.0,0.0,0.0,0.14285714285714285,0.0,0.0,0.0,0.0,0.0,68,continuum-webapp\src\main\java\org\apache\maven\continuum\web\action\ContinuumConfirmAction.java,0,0,0,0
org.apache.maven.continuum.web.action.DeleteProjectAction, 0, 0, 0, 0, 0, 0, 0, 0, 0, 0, 0, 0, 0, 0,0.0,0.0,0.0,0.25,0.0,0.0,0.0,0.25,0.0,0.0,0.0,0.0,0.0,93,continuum-webapp\src\main\java\org\apache\maven\continuum\web\action\DeleteProjectAction.java,0,0,0,0
org.apache.maven.continuum.web.action.ProjectEditAction, 0, 0, 0, 1, 0, 0, 0, 0, 0, 0, 0, 0, 0, 1,0.0,0.0,0.0,0.3333333333333333,0.0,0.0,0.0,0.3333333333333333,0.0,0.0,0.0,0.0,0.0,138,continuum-webapp\src\main\java\org\apache\maven\continuum\web\action\ProjectEditAction.java,0,0,0,0
org.apache.maven.continuum.web.action.ProjectGroupActionTest, 0, 0, 0, 0, 0, 0, 0, 0, 0, 0, 0, 0, 0, 0,0.0,0.0,0.0,0.3333333333333333,0.0,0.0,0.0,0.3333333333333333,0.0,0.0,0.0,0.0,0.0,95,continuum-webapp\src\test\java\org\apache\maven\continuum\web\action\ProjectGroupActionTest.java,0,0,0,0
org.apache.maven.continuum.web.action.ProjectViewAction, 0, 0, 0, 0, 0, 0, 0, 0, 0, 0, 0, 0, 0, 0,0.0,0.0,0.0,0.3333333333333333,0.0,0.0,0.0,0.3333333333333333,0.0,0.0,0.0,0.0,0.0,63,continuum-webapp\src\main\java\org\apache\maven\continuum\web\action\ProjectViewAction.java,0,0,0,0
org.apache.maven.continuum.web.action.ProjectsListAction, 0, 0, 0, 0, 0, 0, 0, 0, 0, 0, 0, 0, 0, 0,0.0,0.0,0.0,0.16666666666666666,0.0,0.0,0.0,0.16666666666666666,0.0,0.0,0.0,0.0,0.0,174,continuum-webapp\src\main\java\org\apache\maven\continuum\web\action\ProjectsListAction.java,0,0,0,0
org.apache.maven.continuum.web.action.ReleaseCleanupAction, 0, 0, 0, 0, 0, 0, 0, 0, 0, 0, 0, 0, 0, 0,0.0,0.0,0.0,0.3333333333333333,0.0,0.0,0.0,0.3333333333333333,0.0,0.0,0.0,0.0,0.0,88,continuum-webapp\src\main\java\org\apache\maven\continuum\web\action\ReleaseCleanupAction.java,0,0,0,0
org.apache.maven.continuum.web.action.ReleasePrepareActionTest, 0, 0, 0, 0, 0, 0, 0, 0, 0, 0, 0, 0, 0, 0,0.0,0.0,0.0,0.5,0.0,0.0,0.0,0.5,0.0,0.0,0.0,0.0,0.0,38,continuum-webapp\src\test\java\org\apache\maven\continuum\web\action\ReleasePrepareActionTest.java,0,0,0,0
org.apache.maven.continuum.web.action.ReleaseRollbackAction, 0, 0, 0, 0, 0, 0, 0, 0, 0, 0, 0, 0, 0, 0,0.0,0.0,0.0,0.2,0.0,0.0,0.0,0.2,0.0,0.0,0.0,0.0,0.0,117,continuum-webapp\src\main\java\org\apache\maven\continuum\web\action\ReleaseRollbackAction.java,0,0,0,0
org.apache.maven.continuum.web.action.ScheduleAction, 0, 0, 0, 1, 0, 0, 0, 0, 0, 0, 0, 0, 0, 1,0.0,0.0,0.0,0.16666666666666666,0.0,0.0,0.0,0.3333333333333333,0.0,0.0,0.0,0.0,0.0,426,continuum-webapp\src\main\java\org\apache\maven\continuum\web\action\ScheduleAction.java,0,0,0,0
org.apache.maven.continuum.web.action.TestAction, 0, 0, 0, 0, 0, 0, 0, 0, 0, 0, 0, 0, 0, 0,0.0,0.0,0.0,0.0,0.0,0.0,0.0,0.0,0.0,0.0,0.0,0.0,0.0,20,continuum-webapp\src\test\java\org\apache\maven\continuum\web\action\TestAction.java,0,0,0,0
org.apache.maven.continuum.web.action.admin.BuildQueueAction, 0, 0, 0, 0, 0, 0, 0, 0, 0, 0, 0, 0, 0, 0,0.0,0.0,0.0,0.2,0.0,0.0,0.0,0.4,0.0,0.0,0.0,0.0,0.0,184,continuum-webapp\src\main\java\org\apache\maven\continuum\web\action\admin\BuildQueueAction.java,0,0,0,0
org.apache.maven.continuum.web.action.admin.ConfigurationAction, 0, 0, 0, 1, 0, 0, 0, 0, 0, 0, 0, 0, 0, 1,0.0,0.0,0.0,1.0,0.0,0.0,0.0,1.0,0.0,0.0,0.0,0.0,0.0,188,continuum-webapp\src\main\java\org\apache\maven\continuum\web\action\admin\ConfigurationAction.java,0,0,0,0
org.apache.maven.continuum.web.action.admin.ConfigureFooterAction, 0, 0, 0, 0, 0, 0, 0, 0, 0, 0, 0, 0, 0, 0,0.0,0.0,0.0,0.0,0.0,0.0,0.0,0.0,0.0,0.0,0.0,0.0,0.0,11,continuum-webapp\src\main\java\org\apache\maven\continuum\web\action\admin\ConfigureFooterAction.java,0,1,0,1
org.apache.maven.continuum.web.action.admin.EditPomAction, 0, 0, 0, 0, 0, 0, 0, 0, 0, 0, 0, 0, 0, 0,0.0,0.0,0.0,1.0,0.0,0.0,0.0,1.0,0.0,0.0,0.0,0.0,0.0,58,continuum-webapp\src\main\java\org\apache\maven\continuum\web\action\admin\EditPomAction.java,1,10,2,15
org.apache.maven.continuum.web.action.admin.ProfileAction, 0, 0, 0, 1, 0, 0, 0, 0, 0, 0, 0, 0, 0, 1,0.0,0.0,0.0,0.3333333333333333,0.0,0.0,0.0,0.3333333333333333,0.0,0.0,0.0,0.0,0.0,215,continuum-webapp\src\main\java\org\apache\maven\continuum\web\action\admin\ProfileAction.java,0,0,0,0
org.apache.maven.continuum.web.action.component.AbstractFooterAction, 0, 0, 0, 0, 0, 0, 0, 0, 0, 0, 0, 0, 0, 0,0.0,0.0,0.0,0.3333333333333333,0.0,0.0,0.0,0.3333333333333333,0.0,0.0,0.0,0.0,0.0,18,continuum-webapp\src\main\java\org\apache\maven\continuum\web\action\component\AbstractFooterAction.java,0,0,0,0
org.apache.maven.continuum.web.action.component.BottomAction, 0, 0, 0, 0, 0, 0, 0, 0, 0, 0, 0, 0, 0, 0,0.0,0.0,0.0,0.0,0.0,0.0,0.0,0.0,0.0,0.0,0.0,0.0,0.0,8,continuum-webapp\src\main\java\org\apache\maven\continuum\web\action\component\BottomAction.java,0,0,0,0
org.apache.maven.continuum.web.action.component.BuildDefinitionSummaryAction, 0, 0, 0, 0, 0, 0, 0, 0, 0, 0, 0, 0, 0, 0,0.0,0.0,0.0,0.25,0.0,0.0,0.0,0.25,0.0,0.0,0.0,0.0,0.0,178,continuum-webapp\src\main\java\org\apache\maven\continuum\web\action\component\BuildDefinitionSummaryAction.java,0,0,0,0
org.apache.maven.continuum.web.action.component.CompanyInfoAction, 0, 0, 0, 0, 0, 0, 0, 0, 0, 0, 0, 0, 0, 0,0.0,0.0,0.0,0.0,0.0,0.0,0.0,0.0,0.0,0.0,0.0,0.0,0.0,38,continuum-webapp\src\main\java\org\apache\maven\continuum\web\action\component\CompanyInfoAction.java,0,0,0,0
org.apache.maven.continuum.web.action.component.ContinuumTabAction, 0, 0, 0, 0, 0, 0, 0, 0, 0, 0, 0, 0, 0, 0,0.0,0.0,0.0,0.0,0.0,0.0,0.0,0.0,0.0,0.0,0.0,0.0,0.0,13,continuum-webapp\src\main\java\org\apache\maven\continuum\web\action\component\ContinuumTabAction.java,0,0,0,0
org.apache.maven.continuum.web.action.notifier.AbstractGroupNotifierEditAction, 0, 0, 0, 0, 0, 0, 0, 0, 0, 0, 0, 0, 0, 0,0.0,0.0,0.0,1.0,0.0,0.0,0.0,1.0,0.0,0.0,0.0,0.0,0.0,53,continuum-webapp\src\main\java\org\apache\maven\continuum\web\action\notifier\AbstractGroupNotifierEditAction.java,0,0,0,0
org.apache.maven.continuum.web.action.notifier.AbstractProjectNotifierEditAction, 0, 0, 0, 0, 0, 0, 0, 0, 0, 0, 0, 0, 0, 0,0.0,0.0,0.0,1.0,0.0,0.0,0.0,1.0,0.0,0.0,0.0,0.0,0.0,69,continuum-webapp\src\main\java\org\apache\maven\continuum\web\action\notifier\AbstractProjectNotifierEditAction.java,0,0,0,0
org.apache.maven.continuum.web.action.notifier.AddGroupNotifierAction, 0, 0, 0, 0, 0, 0, 0, 0, 0, 0, 0, 0, 0, 0,0.0,0.0,0.0,0.5,0.0,0.0,0.0,0.5,0.0,0.0,0.0,0.0,0.0,65,continuum-webapp\src\main\java\org\apache\maven\continuum\web\action\notifier\AddGroupNotifierAction.java,0,0,0,0
org.apache.maven.continuum.web.action.notifier.AddProjectNotifierAction, 0, 0, 0, 0, 0, 0, 0, 0, 0, 0, 0, 0, 0, 0,0.0,0.0,0.0,0.5,0.0,0.0,0.0,0.5,0.0,0.0,0.0,0.0,0.0,90,continuum-webapp\src\main\java\org\apache\maven\continuum\web\action\notifier\AddProjectNotifierAction.java,0,0,0,0
org.apache.maven.continuum.web.action.notifier.DeleteGroupNotifierAction, 0, 0, 0, 0, 0, 0, 0, 0, 0, 0, 0, 0, 0, 0,0.0,0.0,0.0,0.5,0.0,0.0,0.0,0.5,0.0,0.0,0.0,0.0,0.0,86,continuum-webapp\src\main\java\org\apache\maven\continuum\web\action\notifier\DeleteGroupNotifierAction.java,0,0,0,0
org.apache.maven.continuum.web.action.notifier.DeleteProjectNotifierAction, 0, 0, 0, 0, 0, 0, 0, 0, 0, 0, 0, 0, 0, 0,0.0,0.0,0.0,0.5,0.0,0.0,0.0,0.5,0.0,0.0,0.0,0.0,0.0,111,continuum-webapp\src\main\java\org\apache\maven\continuum\web\action\notifier\DeleteProjectNotifierAction.java,0,0,0,0
org.apache.maven.continuum.web.action.stub.AddProjectActionStub, 0, 0, 0, 0, 0, 0, 0, 0, 0, 0, 0, 0, 0, 0,0.0,0.0,0.0,0.5,0.0,0.0,0.0,0.5,0.0,0.0,0.0,0.0,0.0,22,continuum-webapp\src\test\java\org\apache\maven\continuum\web\action\stub\AddProjectActionStub.java,0,0,0,0
org.apache.maven.continuum.web.action.stub.BuildResultActionStub, 0, 0, 0, 0, 0, 0, 0, 0, 0, 0, 0, 0, 0, 0,0.0,0.0,0.0,0.0,0.0,0.0,0.0,0.0,0.0,0.0,0.0,0.0,0.0,11,continuum-webapp\src\test\java\org\apache\maven\continuum\web\action\stub\BuildResultActionStub.java,0,0,0,0
org.apache.maven.continuum.web.action.stub.ProjectGroupActionStub, 0, 0, 0, 0, 0, 0, 0, 0, 0, 0, 0, 0, 0, 0,0.0,0.0,0.0,0.0,0.0,0.0,0.0,0.0,0.0,0.0,0.0,0.0,0.0,18,continuum-webapp\src\test\java\org\apache\maven\continuum\web\action\stub\ProjectGroupActionStub.java,0,0,0,0
org.apache.maven.continuum.web.action.stub.SummaryActionStub, 0, 0, 0, 0, 0, 0, 0, 0, 0, 0, 0, 0, 0, 0,0.0,0.0,0.0,0.0,0.0,0.0,0.0,0.0,0.0,0.0,0.0,0.0,0.0,11,continuum-webapp\src\test\java\org\apache\maven\continuum\web\action\stub\SummaryActionStub.java,0,0,0,0
org.apache.maven.continuum.web.appareance.AppareanceConfiguration, 0, 0, 0, 0, 0, 0, 0, 0, 0, 0, 0, 0, 0, 0,0.0,0.0,0.0,0.0,0.0,0.0,0.0,0.0,0.0,0.0,0.0,0.0,0.0,11,continuum-webapp\src\main\java\org\apache\maven\continuum\web\appareance\AppareanceConfiguration.java,0,0,0,0
org.apache.maven.continuum.web.bean.BuildProjectQueue, 0, 0, 0, 0, 0, 0, 0, 0, 0, 0, 0, 0, 0, 0,0.0,0.0,0.0,0.0,0.0,0.0,0.0,0.5,0.0,0.0,0.0,0.0,0.0,13,continuum-webapp\src\main\java\org\apache\maven\continuum\web\bean\BuildProjectQueue.java,0,0,0,0
org.apache.maven.continuum.web.bean.CheckoutQueue, 0, 0, 0, 0, 0, 0, 0, 0, 0, 0, 0, 0, 0, 0,0.0,0.0,0.0,0.0,0.0,0.0,0.0,0.5,0.0,0.0,0.0,0.0,0.0,13,continuum-webapp\src\main\java\org\apache\maven\continuum\web\bean\CheckoutQueue.java,0,0,0,0
org.apache.maven.continuum.web.bean.ProjectGroupUserBean, 0, 0, 0, 0, 0, 0, 0, 0, 0, 0, 0, 0, 0, 0,0.0,0.0,0.0,0.0,0.0,0.0,0.0,0.0,0.0,0.0,0.0,0.0,0.0,101,continuum-webapp\src\main\java\org\apache\maven\continuum\web\bean\ProjectGroupUserBean.java,0,0,0,0
org.apache.maven.continuum.web.bean.Queue, 0, 0, 0, 0, 0, 0, 0, 0, 0, 0, 0, 0, 0, 0,0.0,0.0,0.0,0.0,0.0,0.0,0.0,0.0,0.0,0.0,0.0,0.0,0.0,12,continuum-webapp\src\main\java\org\apache\maven\continuum\web\bean\Queue.java,0,0,0,0
org.apache.maven.continuum.web.checks.security.RoleProfileEnvironmentCheck, 0, 0, 0, 0, 0, 0, 0, 0, 0, 0, 0, 0, 0, 0,0.0,0.0,0.0,0.0,0.0,0.0,0.0,0.0,0.0,0.0,0.0,0.0,0.0,35,continuum-webapp\src\main\java\org\apache\maven\continuum\web\checks\security\RoleProfileEnvironmentCheck.java,0,0,0,0
org.apache.maven.continuum.web.components.Data, 0, 0, 0, 0, 0, 0, 0, 1, 0, 0, 0, 0, 0, 1,0.0,0.0,0.0,0.0,0.0,0.0,0.0,1.0,0.0,0.0,0.0,0.0,0.0,30,continuum-webapp\src\main\java\org\apache\maven\continuum\web\components\Data.java,35,0,0,35
org.apache.maven.continuum.web.components.SubmitCancel, 0, 0, 0, 0, 0, 0, 0, 1, 0, 0, 0, 0, 0, 1,0.0,0.0,0.0,0.0,0.0,0.0,0.0,1.0,0.0,0.0,0.0,0.0,0.0,26,continuum-webapp\src\main\java\org\apache\maven\continuum\web\components\SubmitCancel.java,31,0,0,31
org.apache.maven.continuum.web.exception.AuthenticationRequiredException, 0, 0, 0, 0, 0, 0, 0, 0, 0, 0, 0, 0, 0, 0,0.0,0.0,0.0,1.0,0.0,0.0,0.0,0.5,0.0,0.0,0.0,0.0,0.0,12,continuum-webapp\src\main\java\org\apache\maven\continuum\web\exception\AuthenticationRequiredException.java,0,0,0,0
org.apache.maven.continuum.web.exception.AuthorizationRequiredException, 0, 0, 0, 0, 0, 0, 0, 0, 0, 0, 0, 0, 0, 0,0.0,0.0,0.0,0.2631578947368421,0.0,0.0,0.0,0.05263157894736842,0.0,0.0,0.0,0.0,0.0,12,continuum-webapp\src\main\java\org\apache\maven\continuum\web\exception\AuthorizationRequiredException.java,0,0,0,0
org.apache.maven.continuum.web.exception.ContinuumActionException, 0, 0, 0, 0, 0, 0, 0, 0, 0, 0, 0, 0, 0, 0,0.0,0.0,0.0,0.0,0.0,0.0,0.0,0.0,0.0,0.0,0.0,0.0,0.0,12,continuum-webapp\src\main\java\org\apache\maven\continuum\web\exception\ContinuumActionException.java,0,0,0,0
org.apache.maven.continuum.web.interceptor.ForceContinuumConfigurationInterceptor, 0, 0, 0, 0, 0, 0, 0, 0, 0, 0, 0, 0, 0, 0,0.0,0.0,0.0,0.0,0.0,0.0,0.0,0.0,0.0,0.0,0.0,0.0,0.0,36,continuum-webapp\src\main\java\org\apache\maven\continuum\web\interceptor\ForceContinuumConfigurationInterceptor.java,0,0,0,0
org.apache.maven.continuum.web.util.StateGenerator, 0, 0, 0, 0, 0, 0, 0, 0, 0, 0, 0, 0, 0, 0,0.0,0.0,0.0,0.0,0.0,0.0,0.0,0.0,0.0,0.0,0.0,0.0,0.0,52,continuum-webapp\src\main\java\org\apache\maven\continuum\web\util\StateGenerator.java,0,0,0,0
org.apache.maven.continuum.web.validator.CronExpressionValidator, 0, 0, 0, 0, 0, 0, 0, 0, 0, 0, 0, 0, 0, 0,0.0,0.0,0.0,0.0,0.0,0.0,0.0,0.0,0.0,0.0,0.0,0.0,0.0,25,continuum-webapp\src\main\java\org\apache\maven\continuum\web\validator\CronExpressionValidator.java,0,0,0,0
org.apache.maven.continuum.web.validator.InstallationValidator, 0, 0, 0, 0, 0, 0, 0, 0, 0, 0, 0, 0, 0, 0,0.0,0.0,0.0,0.0,0.0,0.0,0.0,0.5,0.0,0.0,0.0,0.0,0.0,47,continuum-webapp\src\main\java\org\apache\maven\continuum\web\validator\InstallationValidator.java,0,0,0,0
org.apache.maven.continuum.web.validator.WagonUrlValidator, 0, 0, 0, 0, 0, 0, 0, 0, 0, 0, 0, 0, 0, 0,0.0,0.0,0.0,0.0,0.0,0.0,0.0,0.0,0.0,0.0,0.0,0.0,0.0,29,continuum-webapp\src\main\java\org\apache\maven\continuum\web\validator\WagonUrlValidator.java,0,0,0,0
org.apache.maven.continuum.web.view.buildresults.StateCell, 0, 0, 0, 0, 0, 0, 0, 0, 0, 0, 0, 0, 0, 0,0.0,0.0,0.0,0.0,0.0,0.0,0.0,0.0,0.0,0.0,0.0,0.0,0.0,17,continuum-webapp\src\main\java\org\apache\maven\continuum\web\view\buildresults\StateCell.java,0,0,0,0
org.apache.maven.continuum.web.view.commons.DateCell, 0, 0, 0, 0, 0, 0, 0, 0, 0, 0, 0, 0, 0, 0,0.0,0.0,0.0,0.0,0.0,0.0,0.0,0.0,0.0,0.0,0.0,0.0,0.0,30,continuum-webapp\src\main\java\org\apache\maven\continuum\web\view\commons\DateCell.java,0,0,0,0
org.apache.maven.continuum.web.view.jsp.ui.DataTag, 0, 0, 0, 0, 0, 0, 0, 1, 0, 0, 0, 0, 0, 1,0.0,0.0,0.0,0.0,0.0,0.0,0.0,1.0,0.0,0.0,0.0,0.0,0.0,19,continuum-webapp\src\main\java\org\apache\maven\continuum\web\view\jsp\ui\DataTag.java,26,0,0,26
org.apache.maven.continuum.web.view.jsp.ui.IfBuildTypeEnabledTag, 0, 0, 0, 0, 0, 0, 0, 0, 0, 0, 0, 0, 0, 0,0.0,0.0,0.0,0.0,0.0,0.0,0.0,0.0,0.0,0.0,0.0,0.0,0.0,40,continuum-webapp\src\main\java\org\apache\maven\continuum\web\view\jsp\ui\IfBuildTypeEnabledTag.java,0,0,0,0
org.apache.maven.continuum.web.view.jsp.ui.SubmitCancelTag, 0, 0, 0, 0, 0, 0, 0, 1, 0, 0, 0, 0, 0, 1,0.0,0.0,0.0,0.0,0.0,0.0,0.0,1.0,0.0,0.0,0.0,0.0,0.0,23,continuum-webapp\src\main\java\org\apache\maven\continuum\web\view\jsp\ui\SubmitCancelTag.java,31,0,0,31
org.apache.maven.continuum.web.view.projectview.NotifierEventCell, 0, 0, 0, 0, 0, 0, 0, 0, 0, 0, 0, 0, 0, 0,0.0,0.0,0.0,0.0,0.0,0.0,0.0,0.0,0.0,0.0,0.0,0.0,0.0,26,continuum-webapp\src\main\java\org\apache\maven\continuum\web\view\projectview\NotifierEventCell.java,0,0,0,0
org.apache.maven.continuum.web.view.projectview.NotifierFromCell, 0, 0, 0, 0, 0, 0, 0, 0, 0, 0, 0, 0, 0, 0,0.0,0.0,0.0,0.0,0.0,0.0,0.0,0.0,0.0,0.0,0.0,0.0,0.0,16,continuum-webapp\src\main\java\org\apache\maven\continuum\web\view\projectview\NotifierFromCell.java,0,0,0,0
org.apache.maven.continuum.web.view.projectview.NotifierRecipientCell, 0, 0, 0, 0, 0, 0, 0, 0, 0, 0, 0, 0, 0, 0,0.0,0.0,0.0,0.0,0.0,0.0,0.0,0.0,0.0,0.0,0.0,0.0,0.0,9,continuum-webapp\src\main\java\org\apache\maven\continuum\web\view\projectview\NotifierRecipientCell.java,0,0,0,0
org.apache.maven.continuum.xmlrpc.client.BuildResultsPurge, 0, 0, 0, 0, 0, 0, 0, 0, 0, 0, 0, 0, 0, 0,0.0,0.0,0.0,0.0,0.0,0.0,0.0,0.0,0.0,0.0,0.0,0.0,0.0,40,continuum-xmlrpc\continuum-xmlrpc-client\src\main\java\org\apache\maven\continuum\xmlrpc\client\BuildResultsPurge.java,0,0,0,0
org.apache.maven.continuum.xmlrpc.client.SampleClient, 0, 0, 0, 0, 0, 0, 0, 0, 0, 0, 0, 0, 0, 0,0.0,0.0,0.0,0.0,0.0,0.0,0.0,0.0,0.0,0.0,0.0,0.0,0.0,302,continuum-xmlrpc\continuum-xmlrpc-client\src\main\java\org\apache\maven\continuum\xmlrpc\client\SampleClient.java,0,0,0,0
org.apache.maven.continuum.xmlrpc.server.AbstractContinuumSecureService, 0, 0, 0, 1, 0, 0, 0, 1, 0, 0, 0, 0, 0, 2,0.0,0.0,0.0,0.0,0.0,0.0,0.0,0.0,0.0,0.0,0.0,0.0,0.0,262,continuum-xmlrpc\continuum-xmlrpc-server\src\main\java\org\apache\maven\continuum\xmlrpc\server\AbstractContinuumSecureService.java,0,0,0,0
org.apache.maven.continuum.xmlrpc.server.ContinuumXmlRpcComponent, 0, 0, 0, 0, 0, 0, 0, 0, 0, 0, 0, 0, 0, 0,0.0,0.0,0.0,0.0,0.0,0.0,0.0,0.0,0.0,0.0,0.0,0.0,0.0,262,continuum-xmlrpc\continuum-xmlrpc-server\src\main\java\org\apache\maven\continuum\xmlrpc\server\ContinuumXmlRpcComponent.java,0,0,0,0
org.apache.maven.continuum.xmlrpc.server.ContinuumXmlRpcConfig, 0, 0, 0, 0, 0, 0, 0, 0, 0, 0, 0, 0, 0, 0,0.0,0.0,0.0,0.5,0.0,0.0,0.0,0.5,0.0,0.0,0.0,0.0,0.0,22,continuum-xmlrpc\continuum-xmlrpc-server\src\main\java\org\apache\maven\continuum\xmlrpc\server\ContinuumXmlRpcConfig.java,0,0,0,0
org.apache.maven.continuum.xmlrpc.server.ContinuumXmlRpcMetaDataHandler, 0, 0, 0, 0, 0, 0, 0, 1, 0, 0, 0, 0, 0, 1,0.0,0.0,0.0,0.0,0.0,0.0,0.0,0.0,0.0,0.0,0.0,0.0,0.0,138,continuum-xmlrpc\continuum-xmlrpc-server\src\main\java\org\apache\maven\continuum\xmlrpc\server\ContinuumXmlRpcMetaDataHandler.java,0,0,0,0
org.apache.maven.continuum.xmlrpc.server.ContinuumXmlRpcServletServer, 0, 0, 0, 0, 0, 0, 0, 0, 0, 0, 0, 0, 0, 0,0.0,0.0,0.0,0.0,0.0,0.0,0.0,0.0,0.0,0.0,0.0,0.0,0.0,10,continuum-xmlrpc\continuum-xmlrpc-server\src\main\java\org\apache\maven\continuum\xmlrpc\server\ContinuumXmlRpcServletServer.java,0,0,0,0
org.codehaus.continuum.project2.App, 0, 0, 0, 0, 0, 0, 0, 0, 0, 0, 0, 0, 0, 0,0.0,0.0,0.0,0.0,0.0,0.0,0.0,0.0,0.0,0.0,0.0,0.0,0.0,7,continuum-core\src\test-projects\project2\src\main\java\org\codehaus\continuum\project2\App.java,0,0,0,0
org.codehaus.plexus.continuum.project1.App, 0, 0, 0, 0, 0, 0, 0, 0, 0, 0, 0, 0, 0, 0,0.0,0.0,0.0,0.0,0.0,0.0,0.0,0.0,0.0,0.0,0.0,0.0,0.0,7,continuum-core\src\test-projects\project2\src\main\java\org\codehaus\continuum\project2\App.java,0,0,0,0
org.codehaus.plexus.security.authorization.rbac.jdo.v0_9_0.RbacJdoModelModelloMetadata, 0, 0, 0, 0, 0, 0, 0, 0, 0, 0, 0, 0, 0, 0,0.0,0.0,0.0,0.0,0.0,0.0,0.0,0.0,0.0,0.0,0.0,0.0,0.0,12,continuum-data-management\redback-legacy\src\main\java\org\codehaus\plexus\security\authorization\rbac\jdo\v0_9_0\RbacJdoModelModelloMetadata.java,0,0,0,0
org.codehaus.plexus.security.keys.jdo.v0_9_0.PlexusSecurityKeyManagementJdoModelloMetadata, 0, 0, 0, 0, 0, 0, 0, 0, 0, 0, 0, 0, 0, 0,0.0,0.0,0.0,0.0,0.0,0.0,0.0,0.0,0.0,0.0,0.0,0.0,0.0,12,continuum-data-management\redback-legacy\src\main\java\org\codehaus\plexus\security\keys\jdo\v0_9_0\PlexusSecurityKeyManagementJdoModelloMetadata.java,0,0,0,0
org.codehaus.plexus.security.user.jdo.v0_9_0.UserManagementModelloMetadata, 0, 0, 0, 0, 0, 0, 0, 0, 0, 0, 0, 0, 0, 0,0.0,0.0,0.0,0.0,0.0,0.0,0.0,0.0,0.0,0.0,0.0,0.0,0.0,12,continuum-data-management\redback-legacy\src\main\java\org\codehaus\plexus\security\user\jdo\v0_9_0\UserManagementModelloMetadata.java,0,0,0,0
projects.timeout.src.test.java.org.apache.maven.continuum.testprojects.timeout.TimeoutTest, 0, 0, 0, 0, 0, 0, 0, 0, 0, 0, 0, 0, 0, 0,0.0,0.0,0.0,0.0,0.0,0.0,0.0,0.0,0.0,0.0,0.0,0.0,0.0,25,continuum-core\src\test-projects\timeout\src\test\java\org\apache\maven\continuum\testprojects\timeout\TimeoutTest.java,0,0,0,0
,0.0,0.0,0.0,0.0,0.0,0.0,0.0,0.0,0.0,0.0,0.0,0.0,0.0,25,continuum-api\src\main\java\org\apache\continuum\builder\distributed\executor\DistributedBuildTaskExecutor.java,0,0,0,0
