ClassName,AntiSingleton,Blob,ClassDataShouldBePrivate,ComplexClass,LargeClass,LazyClass,LongMethod,LongParameterList,MessageChains,RefusedParentBequest,SpaghettiCode,SpeculativeGenerality,SwissArmyKnife,NumOfAPs,AntiSingleton,Blob,ClassDataShouldBePrivate,ComplexClass,LargeClass,LazyClass,LongMethod,LongParameterList,MessageChains,RefusedParentBequest,SpaghettiCode,SpeculativeGenerality,SwissArmyKnife,LOC,name,deleted,added,changed,all
org.apache.mina.core.BenchmarkBinaryTest, 0, 0, 0, 0, 0, 0, 0, 0, 0, 0, 0, 0, 0, 0,0.0,0.0,0.0,0.0,0.0,0.0,0.0,0.0,0.0,0.0,0.0,0.0,0.0,50,src\mina-benchmarks\src\test\java\org\apache\mina\core\BenchmarkBinaryTest.java,0,0,0,0
org.apache.mina.core.BenchmarkClient, 0, 0, 0, 0, 0, 0, 0, 0, 0, 0, 0, 0, 0, 0,0.0,0.0,0.0,0.0,0.0,0.0,0.0,0.0,0.0,0.0,0.0,0.0,0.0,50,src\mina-benchmarks\src\test\java\org\apache\mina\core\BenchmarkClient.java,0,0,0,0
org.apache.mina.core.BenchmarkClientFactory, 0, 0, 0, 0, 0, 0, 0, 0, 0, 0, 0, 0, 0, 0,0.0,0.0,0.0,0.0,0.0,0.0,0.0,0.0,0.0,0.0,0.0,0.0,0.0,13,src\mina-benchmarks\src\test\java\org\apache\mina\core\BenchmarkClientFactory.java,0,0,0,0
org.apache.mina.core.BenchmarkFactory, 0, 0, 0, 0, 0, 0, 0, 0, 0, 0, 0, 0, 0, 0,0.0,0.0,0.0,0.0,0.0,0.0,0.0,0.0,0.0,0.0,0.0,0.0,0.0,13,src\mina-benchmarks\src\test\java\org\apache\mina\core\BenchmarkFactory.java,0,0,0,0
org.apache.mina.core.BenchmarkServer, 0, 0, 0, 0, 0, 0, 0, 0, 0, 0, 0, 0, 0, 0,0.0,0.0,0.0,0.0,0.0,0.0,0.0,0.0,0.0,0.0,0.0,0.0,0.0,13,src\mina-benchmarks\src\test\java\org\apache\mina\core\BenchmarkServer.java,0,0,0,0
org.apache.mina.core.BenchmarkServerFactory, 0, 0, 0, 0, 0, 0, 0, 0, 0, 0, 0, 0, 0, 0,0.0,0.0,0.0,0.0,0.0,0.0,0.0,0.0,0.0,0.0,0.0,0.0,0.0,13,src\mina-benchmarks\src\test\java\org\apache\mina\core\BenchmarkServerFactory.java,0,0,0,0
org.apache.mina.core.DefaultIoFilterChainBuilderTest, 0, 0, 0, 0, 0, 0, 0, 0, 0, 0, 0, 0, 0, 0,0.0,0.0,0.0,0.0,0.0,1.0,0.0,0.0,0.0,0.0,0.0,0.0,0.0,86,src\mina-core\src\test\java\org\apache\mina\core\DefaultIoFilterChainBuilderTest.java,0,0,0,0
org.apache.mina.core.FutureTest, 0, 0, 0, 0, 0, 0, 0, 0, 0, 0, 0, 0, 0, 0,0.0,0.0,0.0,0.4,0.0,0.0,0.0,0.0,0.0,0.0,0.0,0.0,0.0,165,src\mina-core\src\test\java\org\apache\mina\core\FutureTest.java,0,0,0,0
org.apache.mina.core.IoServiceListenerSupportTest, 0, 0, 0, 0, 0, 0, 0, 0, 0, 0, 0, 0, 0, 0,0.0,0.0,0.0,1.0,0.0,0.0,0.0,0.5,0.0,0.0,0.0,0.0,0.0,139,src\mina-core\src\test\java\org\apache\mina\core\IoServiceListenerSupportTest.java,0,0,0,0
org.apache.mina.core.IoUtil, 0, 0, 0, 0, 0, 0, 0, 0, 0, 0, 0, 0, 0, 0,0.0,0.0,0.0,0.0,0.0,0.0,0.0,0.0,0.0,0.0,0.0,0.0,0.0,101,src\mina-core\src\main\java\org\apache\mina\core\IoUtil.java,0,0,0,0
org.apache.mina.core.MinaBenchmarkClient, 0, 0, 0, 0, 0, 0, 0, 0, 0, 0, 0, 0, 0, 0,0.0,0.0,0.0,0.0,0.0,0.0,0.0,0.0,0.0,0.0,0.0,0.0,0.0,36,src\mina-benchmarks\src\test\java\org\apache\mina\core\MinaBenchmarkClient.java,0,0,0,0
org.apache.mina.core.MinaBenchmarkServer, 0, 0, 0, 0, 0, 0, 0, 0, 0, 0, 0, 0, 0, 0,0.0,0.0,0.0,0.0,0.0,0.0,0.0,0.0,0.0,0.0,0.0,0.0,0.0,77,src\mina-benchmarks\src\test\java\org\apache\mina\core\MinaBenchmarkServer.java,0,0,0,0
org.apache.mina.core.MinaClientVsMinaServerBenchmarkBinaryTest, 0, 0, 0, 0, 0, 0, 0, 0, 0, 0, 0, 0, 0, 0,0.0,0.0,0.0,0.0,0.0,0.0,0.0,0.0,0.0,0.0,0.0,0.0,0.0,13,src\mina-benchmarks\src\test\java\org\apache\mina\core\MinaClientVsMinaServerBenchmarkBinaryTest.java,0,0,0,0
org.apache.mina.core.MinaClientVsNettyServerBenchmarkBinaryTest, 0, 0, 0, 0, 0, 0, 0, 0, 0, 0, 0, 0, 0, 0,0.0,0.0,0.0,0.0,0.0,0.0,0.0,0.0,0.0,0.0,0.0,0.0,0.0,13,src\mina-benchmarks\src\test\java\org\apache\mina\core\MinaClientVsNettyServerBenchmarkBinaryTest.java,0,0,0,0
org.apache.mina.core.NettyBenchmarkClient, 0, 0, 0, 0, 0, 0, 0, 0, 0, 0, 0, 0, 0, 0,0.0,0.0,0.0,0.0,0.0,0.0,0.0,0.0,0.0,0.0,0.0,0.0,0.0,45,src\mina-benchmarks\src\test\java\org\apache\mina\core\NettyBenchmarkClient.java,0,0,0,0
org.apache.mina.core.NettyClientVsMinaServerBenchmarkBinaryTest, 0, 0, 0, 0, 0, 0, 0, 0, 0, 0, 0, 0, 0, 0,0.0,0.0,0.0,0.0,0.0,0.0,0.0,0.0,0.0,0.0,0.0,0.0,0.0,24,src\mina-benchmarks\src\test\java\org\apache\mina\core\NettyClientVsMinaServerBenchmarkBinaryTest.java,0,0,0,0
org.apache.mina.core.NettyClientVsNettyServerBenchmarkBinaryTest, 0, 0, 0, 0, 0, 0, 0, 0, 0, 0, 0, 0, 0, 0,0.0,0.0,0.0,0.0,0.0,0.0,0.0,0.0,0.0,0.0,0.0,0.0,0.0,24,src\mina-benchmarks\src\test\java\org\apache\mina\core\NettyClientVsNettyServerBenchmarkBinaryTest.java,0,0,0,0
org.apache.mina.core.RuntimeIoException, 0, 0, 0, 0, 0, 0, 0, 0, 0, 0, 0, 0, 0, 0,0.0,0.0,0.0,0.3333333333333333,0.0,0.0,0.0,0.0,0.0,0.0,0.0,0.0,0.0,15,src\mina-core\src\main\java\org\apache\mina\core\RuntimeIoException.java,0,0,0,0
org.apache.mina.core.buffer.BufferDataException, 0, 0, 0, 0, 0, 0, 0, 0, 0, 0, 0, 0, 0, 0,0.0,0.0,0.0,0.0,0.0,0.0,0.0,0.0,0.0,0.0,0.0,0.0,0.0,15,src\mina-core\src\main\java\org\apache\mina\core\buffer\BufferDataException.java,0,0,0,0
org.apache.mina.core.buffer.IoBufferAllocator, 0, 0, 0, 0, 0, 0, 0, 0, 0, 0, 0, 0, 0, 0,0.0,0.0,0.0,0.0,0.0,0.0,0.0,0.0,0.0,0.0,0.0,0.0,0.0,15,src\mina-core\src\main\java\org\apache\mina\core\buffer\IoBufferAllocator.java,0,0,0,0
org.apache.mina.core.buffer.IoBufferTest, 0, 0, 0, 1, 0, 0, 0, 0, 0, 0, 0, 0, 0, 1,0.0,0.0,0.0,0.0,0.0,0.0,0.0,0.0,0.0,0.0,0.0,0.0,0.0,1069,src\mina-core\src\test\java\org\apache\mina\core\buffer\IoBufferTest.java,0,17,0,17
org.apache.mina.core.buffer.SimpleBufferAllocator, 0, 0, 0, 0, 0, 0, 0, 0, 0, 0, 0, 0, 0, 0,0.0,0.0,0.0,0.0,0.0,0.0,0.0,0.0,0.0,0.0,0.0,0.0,0.0,66,src\mina-core\src\main\java\org\apache\mina\core\buffer\SimpleBufferAllocator.java,0,0,0,0
org.apache.mina.core.file.DefaultFileRegion, 0, 0, 0, 0, 0, 0, 0, 0, 0, 0, 0, 0, 0, 0,0.0,0.0,0.0,0.3333333333333333,0.0,0.0,0.0,0.3333333333333333,0.0,0.0,0.0,0.0,0.0,43,src\mina-core\src\main\java\org\apache\mina\core\file\DefaultFileRegion.java,0,0,0,0
org.apache.mina.core.file.FileRegion, 0, 0, 0, 0, 0, 0, 0, 0, 0, 0, 0, 0, 0, 0,0.0,0.0,0.0,0.0,0.0,0.0,0.0,0.0,0.0,0.0,0.0,0.0,0.0,43,src\mina-core\src\main\java\org\apache\mina\core\file\FileRegion.java,0,0,0,0
org.apache.mina.core.file.FilenameFileRegion, 0, 0, 0, 0, 0, 0, 0, 0, 0, 0, 0, 0, 0, 0,0.0,0.0,0.0,0.5,0.0,0.0,0.0,0.5,0.0,0.0,0.0,0.0,0.0,16,src\mina-core\src\main\java\org\apache\mina\core\file\FilenameFileRegion.java,0,0,0,0
org.apache.mina.core.filterchain.IoFilter, 0, 0, 0, 0, 0, 0, 0, 0, 0, 0, 0, 0, 0, 0,0.0,0.0,0.0,0.0,0.0,0.0,0.0,0.0,0.0,0.0,0.0,0.0,0.0,16,src\mina-core\src\main\java\org\apache\mina\core\filterchain\IoFilter.java,0,0,0,0
org.apache.mina.core.filterchain.IoFilterAdapter, 0, 0, 0, 0, 0, 0, 0, 0, 0, 0, 0, 0, 0, 0,0.0,0.0,0.0,0.3333333333333333,0.0,0.05555555555555555,0.0,0.1111111111111111,0.0,0.0,0.0,0.0,0.0,46,src\mina-core\src\main\java\org\apache\mina\core\filterchain\IoFilterAdapter.java,0,0,0,0
org.apache.mina.core.filterchain.IoFilterChain, 0, 0, 0, 0, 0, 0, 0, 0, 0, 0, 0, 0, 0, 0,0.0,0.0,0.0,0.0,0.0,0.0,0.0,0.0,0.0,0.0,0.0,0.0,0.0,46,src\mina-core\src\main\java\org\apache\mina\core\filterchain\IoFilterChain.java,0,0,0,0
org.apache.mina.core.filterchain.IoFilterChainBuilder, 0, 0, 0, 0, 0, 0, 0, 0, 0, 0, 0, 0, 0, 0,0.0,0.0,0.0,0.0,0.0,0.0,0.0,0.0,0.0,0.0,0.0,0.0,0.0,46,src\mina-core\src\main\java\org\apache\mina\core\filterchain\IoFilterChainBuilder.java,0,0,0,0
org.apache.mina.core.filterchain.IoFilterEvent, 0, 0, 0, 0, 0, 0, 0, 0, 0, 0, 0, 0, 0, 0,0.0,0.0,0.0,0.3333333333333333,0.0,0.0,0.0,0.3333333333333333,0.0,0.0,0.0,0.0,0.0,62,src\mina-core\src\main\java\org\apache\mina\core\filterchain\IoFilterEvent.java,0,0,0,0
org.apache.mina.core.filterchain.IoFilterLifeCycleException, 0, 0, 0, 0, 0, 0, 0, 0, 0, 0, 0, 0, 0, 0,0.0,0.0,0.0,0.0,0.0,0.0,0.0,0.0,0.0,0.0,0.0,0.0,0.0,14,src\mina-core\src\main\java\org\apache\mina\core\filterchain\IoFilterLifeCycleException.java,0,0,0,0
org.apache.mina.core.future.CloseFuture, 0, 0, 0, 0, 0, 0, 0, 0, 0, 0, 0, 0, 0, 0,0.0,0.0,0.0,0.0,0.0,0.0,0.0,0.0,0.0,0.0,0.0,0.0,0.0,14,src\mina-core\src\main\java\org\apache\mina\core\future\CloseFuture.java,0,0,0,0
org.apache.mina.core.future.CompositeIoFuture, 0, 0, 0, 0, 0, 0, 0, 0, 0, 0, 0, 0, 0, 0,0.0,0.0,0.0,1.0,0.0,0.0,0.0,0.0,0.0,0.0,0.0,0.0,0.0,23,src\mina-core\src\main\java\org\apache\mina\core\future\CompositeIoFuture.java,0,0,0,0
org.apache.mina.core.future.ConnectFuture, 0, 0, 0, 0, 0, 0, 0, 0, 0, 0, 0, 0, 0, 0,0.0,0.0,0.0,0.0,0.0,0.0,0.0,0.0,0.0,0.0,0.0,0.0,0.0,23,src\mina-core\src\main\java\org\apache\mina\core\future\ConnectFuture.java,0,0,0,0
org.apache.mina.core.future.DefaultCloseFuture, 0, 0, 0, 0, 0, 0, 0, 0, 0, 0, 0, 0, 0, 0,0.0,0.0,0.0,0.5,0.0,0.0,0.0,0.0,0.0,0.0,0.0,0.0,0.0,31,src\mina-core\src\main\java\org\apache\mina\core\future\DefaultCloseFuture.java,0,0,0,0
org.apache.mina.core.future.DefaultConnectFuture, 0, 0, 0, 0, 0, 0, 0, 0, 0, 0, 0, 0, 0, 0,0.0,0.0,0.0,0.3333333333333333,0.0,0.0,0.0,0.0,0.0,0.0,0.0,0.0,0.0,71,src\mina-core\src\main\java\org\apache\mina\core\future\DefaultConnectFuture.java,0,0,0,0
org.apache.mina.core.future.DefaultIoFuture, 0, 0, 0, 1, 0, 0, 0, 0, 0, 0, 0, 0, 0, 1,0.0,0.0,0.0,0.0,0.0,0.0,0.0,0.0,0.0,0.0,0.0,0.0,0.0,214,src\mina-core\src\main\java\org\apache\mina\core\future\DefaultIoFuture.java,0,0,0,0
org.apache.mina.core.future.DefaultReadFuture, 0, 0, 0, 0, 0, 0, 0, 0, 0, 0, 0, 0, 0, 0,0.0,0.0,0.0,1.0,0.0,0.0,0.0,0.5,0.0,0.0,0.0,0.0,0.0,87,src\mina-core\src\main\java\org\apache\mina\core\future\DefaultReadFuture.java,0,0,0,0
org.apache.mina.core.future.DefaultWriteFuture, 0, 0, 0, 0, 0, 0, 0, 0, 0, 0, 0, 0, 0, 0,0.0,0.0,0.0,0.5,0.0,0.0,0.0,0.25,0.0,0.0,0.0,0.0,0.0,58,src\mina-core\src\main\java\org\apache\mina\core\future\DefaultWriteFuture.java,0,0,0,0
org.apache.mina.core.future.IoFuture, 0, 0, 0, 0, 0, 0, 0, 0, 0, 0, 0, 0, 0, 0,0.0,0.0,0.0,0.0,0.0,0.0,0.0,0.0,0.0,0.0,0.0,0.0,0.0,58,src\mina-core\src\main\java\org\apache\mina\core\future\IoFuture.java,0,0,0,0
org.apache.mina.core.future.IoFutureListener, 0, 0, 0, 0, 0, 0, 0, 0, 0, 0, 0, 0, 0, 0,0.0,0.0,0.0,0.0,0.0,0.0,0.0,0.0,0.0,0.0,0.0,0.0,0.0,58,src\mina-core\src\main\java\org\apache\mina\core\future\IoFutureListener.java,0,0,0,0
org.apache.mina.core.future.ReadFuture, 0, 0, 0, 0, 0, 0, 0, 0, 0, 0, 0, 0, 0, 0,0.0,0.0,0.0,0.0,0.0,0.0,0.0,0.0,0.0,0.0,0.0,0.0,0.0,58,src\mina-core\src\main\java\org\apache\mina\core\future\ReadFuture.java,0,0,0,0
org.apache.mina.core.future.WriteFuture, 0, 0, 0, 0, 0, 0, 0, 0, 0, 0, 0, 0, 0, 0,0.0,0.0,0.0,0.0,0.0,0.0,0.0,0.0,0.0,0.0,0.0,0.0,0.0,58,src\mina-core\src\main\java\org\apache\mina\core\future\WriteFuture.java,0,0,0,0
org.apache.mina.core.polling.AbstractPollingIoConnector, 0, 0, 0, 1, 0, 0, 0, 0, 0, 0, 0, 0, 0, 1,0.0,0.0,0.0,0.5714285714285714,0.0,0.0,0.0,0.14285714285714285,0.0,0.0,0.0,0.0,0.0,287,src\mina-core\src\main\java\org\apache\mina\core\polling\AbstractPollingIoConnector.java,0,0,0,0
org.apache.mina.core.service.AbstractIoConnector, 0, 0, 0, 1, 0, 0, 0, 0, 0, 0, 0, 0, 0, 1,0.0,0.0,0.0,0.2222222222222222,0.0,0.0,0.0,0.0,0.0,0.0,0.0,0.0,0.0,136,src\mina-core\src\main\java\org\apache\mina\core\service\AbstractIoConnector.java,0,0,0,0
org.apache.mina.core.service.AbstractIoServiceTest, 0, 0, 0, 0, 0, 0, 0, 0, 0, 0, 0, 0, 0, 0,0.0,0.0,0.0,0.75,0.0,0.0,0.0,0.0,0.0,0.0,0.0,0.0,0.0,89,src\mina-core\src\test\java\org\apache\mina\core\service\AbstractIoServiceTest.java,0,0,0,0
org.apache.mina.core.service.DefaultTransportMetadata, 0, 0, 0, 0, 0, 0, 0, 1, 0, 0, 0, 0, 0, 1,0.0,0.0,0.0,0.0,0.0,0.0,0.0,0.0,0.0,0.0,0.0,0.0,0.0,75,src\mina-core\src\main\java\org\apache\mina\core\service\DefaultTransportMetadata.java,0,0,0,0
org.apache.mina.core.service.IoAcceptor, 0, 0, 0, 0, 0, 0, 0, 0, 0, 0, 0, 0, 0, 0,0.0,0.0,0.0,0.0,0.0,0.0,0.0,0.0,0.0,0.0,0.0,0.0,0.0,75,src\mina-core\src\main\java\org\apache\mina\core\service\IoAcceptor.java,0,0,0,0
org.apache.mina.core.service.IoConnector, 0, 0, 0, 0, 0, 0, 0, 0, 0, 0, 0, 0, 0, 0,0.0,0.0,0.0,0.0,0.0,0.0,0.0,0.0,0.0,0.0,0.0,0.0,0.0,75,src\mina-core\src\main\java\org\apache\mina\core\service\IoConnector.java,0,0,0,0
org.apache.mina.core.service.IoHandler, 0, 0, 0, 0, 0, 0, 0, 0, 0, 0, 0, 0, 0, 0,0.0,0.0,0.0,0.0,0.0,0.0,0.0,0.0,0.0,0.0,0.0,0.0,0.0,75,src\mina-core\src\main\java\org\apache\mina\core\service\IoHandler.java,0,0,0,0
org.apache.mina.core.service.IoHandlerAdapter, 0, 0, 0, 0, 0, 0, 0, 0, 0, 0, 0, 0, 0, 0,0.08695652173913043,0.0,0.08695652173913043,0.0,0.0,0.0,0.0,0.0,0.0,0.0,0.0,0.0,0.0,23,src\mina-core\src\main\java\org\apache\mina\core\service\IoHandlerAdapter.java,0,0,0,0
org.apache.mina.core.service.IoProcessor, 0, 0, 0, 0, 0, 0, 0, 0, 0, 0, 0, 0, 0, 0,0.0,0.0,0.0,0.0,0.0,0.0,0.0,0.0,0.0,0.0,0.0,0.0,0.0,23,src\mina-core\src\main\java\org\apache\mina\core\service\IoProcessor.java,0,0,0,0
org.apache.mina.core.service.IoServiceListener, 0, 0, 0, 0, 0, 0, 0, 0, 0, 0, 0, 0, 0, 0,0.0,0.0,0.0,0.0,0.0,0.0,0.0,0.0,0.0,0.0,0.0,0.0,0.0,23,src\mina-core\src\main\java\org\apache\mina\core\service\IoServiceListener.java,0,0,0,0
org.apache.mina.core.service.IoServiceStatistics, 0, 0, 0, 1, 0, 0, 0, 0, 0, 0, 0, 0, 0, 1,0.0,0.0,0.0,0.5,0.0,0.0,0.0,0.5,0.0,0.0,0.0,0.0,0.0,316,src\mina-core\src\main\java\org\apache\mina\core\service\IoServiceStatistics.java,0,0,0,0
org.apache.mina.core.service.SimpleIoProcessorPool, 0, 0, 0, 1, 0, 0, 0, 0, 0, 0, 0, 0, 0, 1,0.0,0.0,0.0,0.5,0.0,0.0,0.0,0.25,0.0,0.0,0.0,0.0,0.0,165,src\mina-core\src\main\java\org\apache\mina\core\service\SimpleIoProcessorPool.java,0,0,0,0
org.apache.mina.core.service.TransportMetadata, 0, 0, 0, 0, 0, 0, 0, 0, 0, 0, 0, 0, 0, 0,0.0,0.0,0.0,0.0,0.0,0.0,0.0,0.0,0.0,0.0,0.0,0.0,0.0,165,src\mina-core\src\main\java\org\apache\mina\core\service\TransportMetadata.java,0,0,0,0
org.apache.mina.core.session.AbstractIoSession, 0, 0, 0, 1, 0, 0, 0, 1, 0, 0, 0, 0, 0, 2,0.0,0.0,0.0,0.32,0.0,0.0,0.0,0.04,0.0,0.0,0.0,0.0,0.0,729,src\mina-core\src\main\java\org\apache\mina\core\session\AbstractIoSession.java,0,0,0,0
org.apache.mina.core.session.AbstractIoSessionConfig, 0, 0, 0, 1, 0, 0, 0, 0, 0, 0, 0, 0, 0, 1,0.0,0.0,0.0,0.0,0.0,0.0,0.0,0.0,0.0,0.0,0.0,0.0,0.0,150,src\mina-core\src\main\java\org\apache\mina\core\session\AbstractIoSessionConfig.java,0,0,0,0
org.apache.mina.core.session.AttributeKey, 0, 0, 0, 0, 0, 0, 0, 0, 0, 0, 0, 0, 0, 0,0.0,0.0,0.0,0.36363636363636365,0.0,0.0,0.0,0.18181818181818182,0.0,0.0,0.0,0.0,0.0,27,src\mina-core\src\main\java\org\apache\mina\core\session\AttributeKey.java,0,0,0,0
org.apache.mina.core.session.DummySession, 0, 0, 0, 1, 0, 0, 0, 0, 0, 0, 0, 0, 0, 1,0.0,0.0,0.0,0.125,0.0,0.0,0.0,0.125,0.0,0.0,0.0,0.0,0.0,179,src\mina-core\src\main\java\org\apache\mina\core\session\DummySession.java,0,0,0,0
org.apache.mina.core.session.ExpiringSessionRecycler, 0, 0, 0, 0, 0, 0, 0, 0, 0, 0, 0, 0, 0, 0,0.0,0.0,0.0,0.0,0.0,0.0,0.0,0.0,0.0,0.0,0.0,0.0,0.0,48,src\mina-core\src\main\java\org\apache\mina\core\session\ExpiringSessionRecycler.java,0,0,0,0
org.apache.mina.core.session.IdleStatus, 0, 0, 0, 0, 0, 0, 0, 0, 0, 0, 0, 0, 0, 0,0.0,0.0,0.0,0.375,0.0,0.0,0.0,0.25,0.0,0.0,0.0,0.0,0.0,12,src\mina-core\src\main\java\org\apache\mina\core\session\IdleStatus.java,0,0,0,0
org.apache.mina.core.session.IdleStatusChecker, 0, 0, 0, 0, 0, 0, 0, 0, 0, 0, 0, 0, 0, 0,0.0,0.0,0.0,0.5,0.0,0.0,0.0,0.25,0.0,0.0,0.0,0.0,0.0,62,src\mina-core\src\main\java\org\apache\mina\core\session\IdleStatusChecker.java,0,0,0,0
org.apache.mina.core.session.IoEvent, 0, 0, 0, 0, 0, 0, 0, 0, 0, 0, 0, 0, 0, 0,0.0,0.0,0.0,0.0,0.0,0.0,0.0,0.0,0.0,0.0,0.0,0.0,0.0,68,src\mina-core\src\main\java\org\apache\mina\core\session\IoEvent.java,0,0,0,0
org.apache.mina.core.session.IoSession, 0, 0, 0, 0, 0, 0, 0, 0, 0, 0, 0, 0, 0, 0,0.0,0.0,0.0,0.0,0.0,0.0,0.0,0.0,0.0,0.0,0.0,0.0,0.0,68,src\mina-core\src\main\java\org\apache\mina\core\session\IoSession.java,0,0,0,0
org.apache.mina.core.session.IoSessionAttributeMap, 0, 0, 0, 0, 0, 0, 0, 0, 0, 0, 0, 0, 0, 0,0.0,0.0,0.0,0.0,0.0,0.0,0.0,0.0,0.0,0.0,0.0,0.0,0.0,68,src\mina-core\src\main\java\org\apache\mina\core\session\IoSessionAttributeMap.java,0,0,0,0
org.apache.mina.core.session.IoSessionConfig, 0, 0, 0, 0, 0, 0, 0, 0, 0, 0, 0, 0, 0, 0,0.0,0.0,0.0,0.0,0.0,0.0,0.0,0.0,0.0,0.0,0.0,0.0,0.0,68,src\mina-core\src\main\java\org\apache\mina\core\session\IoSessionConfig.java,0,0,0,0
org.apache.mina.core.session.IoSessionDataStructureFactory, 0, 0, 0, 0, 0, 0, 0, 0, 0, 0, 0, 0, 0, 0,0.0,0.0,0.0,0.0,0.0,0.0,0.0,0.0,0.0,0.0,0.0,0.0,0.0,68,src\mina-core\src\main\java\org\apache\mina\core\session\IoSessionDataStructureFactory.java,0,0,0,0
org.apache.mina.core.session.IoSessionInitializationException, 0, 0, 0, 0, 0, 0, 0, 0, 0, 0, 0, 0, 0, 0,0.0,0.0,0.0,0.0,0.0,0.0,0.0,0.0,0.0,0.0,0.0,0.0,0.0,15,src\mina-core\src\main\java\org\apache\mina\core\session\IoSessionInitializationException.java,0,0,0,0
org.apache.mina.core.session.IoSessionInitializer, 0, 0, 0, 0, 0, 0, 0, 0, 0, 0, 0, 0, 0, 0,0.0,0.0,0.0,0.0,0.0,0.0,0.0,0.0,0.0,0.0,0.0,0.0,0.0,15,src\mina-core\src\main\java\org\apache\mina\core\session\IoSessionInitializer.java,0,0,0,0
org.apache.mina.core.session.IoSessionRecycler, 0, 0, 0, 0, 0, 0, 0, 0, 0, 0, 0, 0, 0, 0,0.0,0.0,0.0,0.0,0.0,0.0,0.0,0.0,0.0,0.0,0.0,0.0,0.0,15,src\mina-core\src\main\java\org\apache\mina\core\session\IoSessionRecycler.java,0,0,0,0
org.apache.mina.core.session.UnknownMessageTypeException, 0, 0, 0, 0, 0, 0, 0, 0, 0, 0, 0, 0, 0, 0,0.0,0.0,0.0,0.0,0.0,0.0,0.0,0.0,0.0,0.0,0.0,0.0,0.0,13,src\mina-core\src\main\java\org\apache\mina\core\session\UnknownMessageTypeException.java,0,0,0,0
org.apache.mina.core.write.NothingWrittenException, 0, 0, 0, 0, 0, 0, 0, 0, 0, 0, 0, 0, 0, 0,0.0,0.0,0.0,0.0,0.0,0.0,0.0,0.0,0.0,0.0,0.0,0.0,0.0,26,src\mina-core\src\main\java\org\apache\mina\core\write\NothingWrittenException.java,0,0,0,0
org.apache.mina.core.write.WriteRequest, 0, 0, 0, 0, 0, 0, 0, 0, 0, 0, 0, 0, 0, 0,0.0,0.0,0.0,0.0,0.0,0.0,0.0,0.0,0.0,0.0,0.0,0.0,0.0,26,src\mina-core\src\main\java\org\apache\mina\core\write\WriteRequest.java,0,0,0,0
org.apache.mina.core.write.WriteRequestQueue, 0, 0, 0, 0, 0, 0, 0, 0, 0, 0, 0, 0, 0, 0,0.0,0.0,0.0,0.0,0.0,0.0,0.0,0.0,0.0,0.0,0.0,0.0,0.0,26,src\mina-core\src\main\java\org\apache\mina\core\write\WriteRequestQueue.java,0,0,0,0
org.apache.mina.core.write.WriteRequestWrapper, 0, 0, 0, 0, 0, 0, 0, 0, 0, 0, 0, 0, 0, 0,0.0,0.0,0.0,0.5,0.0,0.0,0.0,0.0,0.0,0.0,0.0,0.0,0.0,31,src\mina-core\src\main\java\org\apache\mina\core\write\WriteRequestWrapper.java,0,0,0,0
org.apache.mina.core.write.WriteTimeoutException, 0, 0, 0, 0, 0, 0, 0, 0, 0, 0, 0, 0, 0, 0,0.0,0.0,0.0,1.0,0.0,0.0,0.0,1.0,0.0,0.0,0.0,0.0,0.0,26,src\mina-core\src\main\java\org\apache\mina\core\write\WriteTimeoutException.java,0,0,0,0
org.apache.mina.core.write.WriteToClosedSessionException, 0, 0, 0, 0, 0, 0, 0, 0, 0, 0, 0, 0, 0, 0,0.0,0.0,0.0,1.0,0.0,0.0,0.0,1.0,0.0,0.0,0.0,0.0,0.0,26,src\mina-core\src\main\java\org\apache\mina\core\write\WriteToClosedSessionException.java,0,0,0,0
org.apache.mina.example.chat.ChatCommand, 0, 0, 0, 0, 0, 0, 0, 0, 0, 0, 0, 0, 0, 0,0.0,0.0,0.0,0.0,0.0,0.0,0.0,0.0,0.0,0.0,0.0,0.0,0.0,25,src\mina-example\src\main\java\org\apache\mina\example\chat\ChatCommand.java,0,0,0,0
org.apache.mina.example.chat.ChatProtocolHandler, 0, 0, 0, 0, 0, 0, 0, 0, 0, 0, 0, 0, 0, 0,0.0,0.0,0.0,0.0,0.0,0.0,0.0,0.0,0.0,0.0,0.0,0.0,0.0,96,src\mina-example\src\main\java\org\apache\mina\example\chat\ChatProtocolHandler.java,0,0,0,0
org.apache.mina.example.chat.Main, 0, 0, 0, 0, 0, 0, 0, 0, 0, 0, 0, 0, 0, 0,0.0,0.0,0.0,0.5,0.0,0.0,0.0,0.0,0.0,0.0,0.0,0.0,0.0,31,src\mina-example\src\main\java\org\apache\mina\example\chat\Main.java,0,0,0,0
org.apache.mina.example.chat.SpringMain, 0, 0, 0, 0, 0, 0, 0, 0, 0, 0, 0, 0, 0, 0,0.0,0.0,0.0,0.0,0.0,0.0,0.0,0.0,0.0,0.0,0.0,0.0,0.0,16,src\mina-example\src\main\java\org\apache\mina\example\chat\SpringMain.java,0,0,0,0
org.apache.mina.example.chat.SpringMainTest, 0, 0, 0, 0, 0, 0, 0, 0, 0, 0, 0, 0, 0, 0,0.0,0.0,0.0,0.0,0.0,0.0,0.0,0.0,0.0,0.0,0.0,0.0,0.0,20,src\mina-example\src\test\java\org\apache\mina\example\chat\SpringMainTest.java,0,0,0,0
org.apache.mina.example.chat.client.ChatClientSupport, 0, 0, 0, 0, 0, 0, 0, 0, 0, 0, 0, 0, 0, 0,0.0,0.0,0.0,0.6,0.0,0.0,0.0,0.0,0.0,0.0,0.0,0.0,0.0,60,src\mina-example\src\main\java\org\apache\mina\example\chat\client\ChatClientSupport.java,0,0,0,0
org.apache.mina.example.chat.client.SwingChatClientHandler, 0, 0, 0, 0, 0, 0, 0, 0, 0, 0, 0, 0, 0, 0,0.0,0.0,0.0,0.0,0.0,0.0,0.0,0.0,0.0,0.0,0.0,0.0,0.0,50,src\mina-example\src\main\java\org\apache\mina\example\chat\client\SwingChatClientHandler.java,0,0,0,0
org.apache.mina.example.echoserver.AcceptorTest, 0, 0, 0, 0, 0, 0, 0, 0, 0, 0, 0, 0, 0, 0,0.0,0.0,0.0,0.0,0.0,0.0,0.0,0.0,0.0,0.0,0.0,0.0,0.0,73,src\mina-example\src\test\java\org\apache\mina\example\echoserver\AcceptorTest.java,0,0,0,0
org.apache.mina.example.echoserver.ConnectorTest, 0, 0, 0, 0, 0, 0, 0, 0, 0, 0, 0, 0, 0, 0,0.0,0.0,0.0,0.3333333333333333,0.0,0.0,0.0,0.0,0.0,0.0,0.0,0.0,0.0,154,src\mina-example\src\test\java\org\apache\mina\example\echoserver\ConnectorTest.java,0,0,0,0
org.apache.mina.example.echoserver.EchoProtocolHandler, 0, 0, 0, 0, 0, 0, 0, 0, 0, 0, 0, 0, 0, 0,0.0,0.0,0.0,0.0,0.0,0.0,0.0,0.0,0.0,0.0,0.0,0.0,0.0,29,src\mina-example\src\main\java\org\apache\mina\example\echoserver\EchoProtocolHandler.java,0,0,0,0
org.apache.mina.example.echoserver.Main, 0, 0, 0, 0, 0, 0, 0, 0, 0, 0, 0, 0, 0, 0,0.0,0.0,0.0,0.5,0.0,0.0,0.0,0.0,0.0,0.0,0.0,0.0,0.0,27,src\mina-example\src\main\java\org\apache\mina\example\echoserver\Main.java,0,0,0,0
org.apache.mina.example.echoserver.ssl.BogusSslContextFactory, 0, 0, 0, 0, 0, 0, 0, 0, 0, 0, 0, 0, 0, 0,0.0,0.0,0.0,0.0,0.0,0.0,0.0,0.0,0.0,0.0,0.0,0.0,0.0,71,src\mina-example\src\main\java\org\apache\mina\example\echoserver\ssl\BogusSslContextFactory.java,0,0,0,0
org.apache.mina.example.echoserver.ssl.BogusTrustManagerFactory, 0, 0, 0, 0, 0, 0, 0, 0, 0, 0, 0, 0, 0, 0,0.0,0.0,0.0,0.0,0.0,0.0,0.0,0.0,0.0,0.0,0.0,0.0,0.0,27,src\mina-example\src\main\java\org\apache\mina\example\echoserver\ssl\BogusTrustManagerFactory.java,0,0,0,0
org.apache.mina.example.echoserver.ssl.SslFilterTest, 0, 0, 0, 0, 0, 0, 0, 0, 0, 0, 0, 0, 0, 0,0.0,0.0,0.0,0.3333333333333333,0.0,0.0,0.0,0.0,0.0,0.0,0.0,0.0,0.0,109,src\mina-example\src\test\java\org\apache\mina\example\echoserver\ssl\SslFilterTest.java,0,0,0,0
org.apache.mina.example.echoserver.ssl.SslServerSocketFactory, 0, 0, 0, 0, 0, 0, 0, 0, 0, 0, 0, 0, 0, 0,0.0,0.0,0.0,0.0,0.0,0.0,0.0,0.0,0.0,0.0,0.0,0.0,0.0,50,src\mina-example\src\main\java\org\apache\mina\example\echoserver\ssl\SslServerSocketFactory.java,0,0,0,0
org.apache.mina.example.echoserver.ssl.SslSocketFactory, 0, 0, 0, 0, 0, 0, 0, 0, 0, 0, 0, 0, 0, 0,0.0,0.0,0.0,0.0,0.0,0.0,0.0,0.0,0.0,0.0,0.0,0.0,0.0,66,src\mina-example\src\main\java\org\apache\mina\example\echoserver\ssl\SslSocketFactory.java,0,0,0,0
org.apache.mina.example.gettingstarted.timeserver.MinaTimeServer, 0, 0, 0, 0, 0, 0, 0, 0, 0, 0, 0, 0, 0, 0,0.0,0.0,0.0,0.6666666666666666,0.0,0.0,0.0,0.0,0.0,0.0,0.0,0.0,0.0,11,src\mina-example\src\main\java\org\apache\mina\example\gettingstarted\timeserver\MinaTimeServer.java,0,0,0,0
org.apache.mina.example.gettingstarted.timeserver.TimeServerHandler, 0, 0, 0, 0, 0, 0, 0, 0, 0, 0, 0, 0, 0, 0,0.0,0.0,0.0,0.0,0.0,0.0,0.0,0.0,0.0,0.0,0.0,0.0,0.0,25,src\mina-example\src\main\java\org\apache\mina\example\gettingstarted\timeserver\TimeServerHandler.java,0,0,0,0
org.apache.mina.example.haiku.Haiku, 0, 0, 0, 0, 0, 0, 0, 0, 0, 0, 0, 0, 0, 0,0.0,0.0,0.0,0.0,0.0,0.0,0.0,0.0,0.0,0.0,0.0,0.0,0.0,29,src\mina-example\src\main\java\org\apache\mina\example\haiku\Haiku.java,0,0,0,0
org.apache.mina.example.haiku.HaikuValidationServer, 0, 0, 0, 0, 0, 0, 0, 0, 0, 0, 0, 0, 0, 0,0.0,0.0,0.0,0.5,0.0,0.0,0.0,0.0,0.0,0.0,0.0,0.0,0.0,16,src\mina-example\src\main\java\org\apache\mina\example\haiku\HaikuValidationServer.java,0,0,0,0
org.apache.mina.example.haiku.HaikuValidator, 0, 0, 0, 0, 0, 0, 0, 0, 0, 0, 0, 0, 0, 0,0.0,0.0,0.0,0.0,0.0,0.0,0.0,0.0,0.0,0.0,0.0,0.0,0.0,14,src\mina-example\src\main\java\org\apache\mina\example\haiku\HaikuValidator.java,0,0,0,0
org.apache.mina.example.haiku.HaikuValidatorIoHandler, 0, 0, 0, 0, 0, 0, 0, 0, 0, 0, 0, 0, 0, 0,0.0,0.0,0.0,0.0,0.0,0.0,0.0,0.0,0.0,0.0,0.0,0.0,0.0,14,src\mina-example\src\main\java\org\apache\mina\example\haiku\HaikuValidatorIoHandler.java,0,0,0,0
org.apache.mina.example.haiku.HaikuValidatorIoHandlerTest, 0, 0, 0, 0, 0, 0, 0, 0, 0, 0, 0, 0, 0, 0,0.0,0.0,0.0,0.0,0.0,0.0,0.0,0.0,0.0,0.0,0.0,0.0,0.0,24,src\mina-example\src\test\java\org\apache\mina\example\haiku\HaikuValidatorIoHandlerTest.java,0,0,0,0
org.apache.mina.example.haiku.HaikuValidatorTest, 0, 0, 0, 0, 0, 0, 0, 0, 0, 0, 0, 0, 0, 0,0.0,0.0,0.0,0.0,0.0,0.0,0.0,0.0,0.0,0.0,0.0,0.0,0.0,38,src\mina-example\src\test\java\org\apache\mina\example\haiku\HaikuValidatorTest.java,0,0,0,0
org.apache.mina.example.haiku.InvalidHaikuException, 0, 0, 0, 0, 0, 0, 0, 0, 0, 0, 0, 0, 0, 0,0.0,0.0,0.0,0.0,0.0,0.0,0.0,0.0,0.0,0.0,0.0,0.0,0.0,28,src\mina-example\src\main\java\org\apache\mina\example\haiku\InvalidHaikuException.java,0,0,0,0
org.apache.mina.example.haiku.PhraseUtilities, 0, 0, 0, 0, 0, 0, 0, 0, 0, 0, 0, 0, 0, 0,0.0,0.0,0.0,0.0,0.0,0.0,0.0,0.0,0.0,0.0,0.0,0.0,0.0,48,src\mina-example\src\main\java\org\apache\mina\example\haiku\PhraseUtilities.java,0,0,0,0
org.apache.mina.example.haiku.PhraseUtilitiesTest, 0, 0, 0, 0, 0, 0, 0, 0, 0, 0, 0, 0, 0, 0,0.0,0.0,0.0,0.0,0.0,0.0,0.0,0.0,0.0,0.0,0.0,0.0,0.0,43,src\mina-example\src\test\java\org\apache\mina\example\haiku\PhraseUtilitiesTest.java,0,0,0,0
org.apache.mina.example.haiku.ToHaikuIoFilter, 0, 0, 0, 0, 0, 0, 0, 0, 0, 0, 0, 0, 0, 0,0.0,0.0,0.0,0.0,0.0,0.0,0.0,0.0,0.0,0.0,0.0,0.0,0.0,18,src\mina-example\src\main\java\org\apache\mina\example\haiku\ToHaikuIoFilter.java,0,0,0,0
org.apache.mina.example.haiku.ToHaikuIoFilterTest, 0, 0, 0, 0, 0, 0, 0, 0, 0, 0, 0, 0, 0, 0,0.0,0.0,0.0,0.0,0.0,0.0,0.0,0.0,0.0,0.0,0.0,0.0,0.0,38,src\mina-example\src\test\java\org\apache\mina\example\haiku\ToHaikuIoFilterTest.java,0,0,0,0
org.apache.mina.example.imagine.step1.ImageRequest, 0, 0, 0, 0, 0, 0, 0, 0, 0, 0, 0, 0, 0, 0,0.0,0.0,0.0,0.0,0.0,0.0,0.0,0.0,0.0,0.0,0.0,0.0,0.0,19,src\mina-example\src\main\java\org\apache\mina\example\imagine\step1\ImageRequest.java,0,0,0,0
org.apache.mina.example.imagine.step1.ImageResponse, 0, 0, 0, 0, 0, 0, 0, 0, 0, 0, 0, 0, 0, 0,0.0,0.0,0.0,0.0,0.0,0.0,0.0,0.0,0.0,0.0,0.0,0.0,0.0,14,src\mina-example\src\main\java\org\apache\mina\example\imagine\step1\ImageResponse.java,0,0,0,0
org.apache.mina.example.imagine.step1.client.ImageClient, 0, 0, 0, 0, 0, 0, 0, 0, 0, 0, 0, 0, 0, 0,0.0,0.0,0.0,0.16666666666666666,0.0,0.0,0.0,0.0,0.0,0.0,0.0,0.0,0.0,55,src\mina-example\src\main\java\org\apache\mina\example\imagine\step1\client\ImageClient.java,0,0,0,0
org.apache.mina.example.imagine.step1.client.ImageListener, 0, 0, 0, 0, 0, 0, 0, 0, 0, 0, 0, 0, 0, 0,0.0,0.0,0.0,0.0,0.0,0.0,0.0,0.0,0.0,0.0,0.0,0.0,0.0,55,src\mina-example\src\main\java\org\apache\mina\example\imagine\step1\client\ImageListener.java,0,0,0,0
org.apache.mina.example.imagine.step1.client.ImagePanel, 0, 0, 0, 0, 0, 0, 0, 0, 0, 0, 0, 0, 0, 0,0.0,0.0,0.0,0.0,0.0,0.0,0.0,0.0,0.0,0.0,0.0,0.0,0.0,20,src\mina-example\src\main\java\org\apache\mina\example\imagine\step1\client\ImagePanel.java,0,0,0,0
org.apache.mina.example.imagine.step1.codec.ImageCodecFactory, 0, 0, 0, 0, 0, 0, 0, 0, 0, 0, 0, 0, 0, 0,0.0,0.0,0.0,0.0,0.0,0.0,0.0,0.0,0.0,0.0,0.0,0.0,0.0,19,src\mina-example\src\main\java\org\apache\mina\example\imagine\step1\codec\ImageCodecFactory.java,0,0,0,0
org.apache.mina.example.imagine.step1.codec.ImageRequestDecoder, 0, 0, 0, 0, 0, 0, 0, 0, 0, 0, 0, 0, 0, 0,0.0,0.0,0.0,0.0,0.0,0.0,0.0,0.0,0.0,0.0,0.0,0.0,0.0,14,src\mina-example\src\main\java\org\apache\mina\example\imagine\step1\codec\ImageRequestDecoder.java,0,0,0,0
org.apache.mina.example.imagine.step1.codec.ImageRequestEncoder, 0, 0, 0, 0, 0, 0, 0, 0, 0, 0, 0, 0, 0, 0,0.0,0.0,0.0,0.0,0.0,0.0,0.0,0.0,0.0,0.0,0.0,0.0,0.0,13,src\mina-example\src\main\java\org\apache\mina\example\imagine\step1\codec\ImageRequestEncoder.java,0,0,0,0
org.apache.mina.example.imagine.step1.codec.ImageResponseDecoder, 0, 0, 0, 0, 0, 0, 0, 0, 0, 0, 0, 0, 0, 0,0.0,0.0,0.0,0.0,0.0,0.0,0.0,0.0,0.0,0.0,0.0,0.0,0.0,40,src\mina-example\src\main\java\org\apache\mina\example\imagine\step1\codec\ImageResponseDecoder.java,0,0,0,0
org.apache.mina.example.imagine.step1.codec.ImageResponseEncoder, 0, 0, 0, 0, 0, 0, 0, 0, 0, 0, 0, 0, 0, 0,0.0,0.0,0.0,0.0,0.0,0.0,0.0,0.0,0.0,0.0,0.0,0.0,0.0,20,src\mina-example\src\main\java\org\apache\mina\example\imagine\step1\codec\ImageResponseEncoder.java,0,0,0,0
org.apache.mina.example.imagine.step1.server.ImageServer, 0, 0, 0, 0, 0, 0, 0, 0, 0, 0, 0, 0, 0, 0,0.0,0.0,0.0,0.5,0.0,0.0,0.0,0.0,0.0,0.0,0.0,0.0,0.0,11,src\mina-example\src\main\java\org\apache\mina\example\imagine\step1\server\ImageServer.java,0,0,0,0
org.apache.mina.example.imagine.step2.server.ImageServer, 0, 0, 0, 0, 0, 0, 0, 0, 0, 0, 0, 0, 0, 0,0.0,0.0,0.0,0.5,0.0,0.0,0.0,0.0,0.0,0.0,0.0,0.0,0.0,13,src\mina-example\src\main\java\org\apache\mina\example\imagine\step2\server\ImageServer.java,0,0,0,0
org.apache.mina.example.imagine.step3.server.ImageServer, 0, 0, 0, 0, 0, 0, 0, 0, 0, 0, 0, 0, 0, 0,0.0,0.0,0.0,0.25,0.0,0.0,0.0,0.0,0.0,0.0,0.0,0.0,0.0,23,src\mina-example\src\main\java\org\apache\mina\example\imagine\step3\server\ImageServer.java,0,0,0,0
org.apache.mina.example.netcat.Main, 0, 0, 0, 0, 0, 0, 0, 0, 0, 0, 0, 0, 0, 0,0.0,0.0,0.0,1.0,0.0,0.0,0.0,0.0,0.0,0.0,0.0,0.0,0.0,16,src\mina-example\src\main\java\org\apache\mina\example\netcat\Main.java,0,0,0,0
org.apache.mina.example.netcat.NetCatProtocolHandler, 0, 0, 0, 0, 0, 0, 0, 0, 0, 0, 0, 0, 0, 0,0.0,0.0,0.0,0.0,0.0,0.0,0.0,0.0,0.0,0.0,0.0,0.0,0.0,23,src\mina-example\src\main\java\org\apache\mina\example\netcat\NetCatProtocolHandler.java,0,0,0,0
org.apache.mina.example.proxy.AbstractProxyIoHandler, 0, 0, 0, 0, 0, 0, 0, 0, 0, 0, 0, 0, 0, 0,0.0,0.0,0.0,0.0,0.0,0.3333333333333333,0.0,0.0,0.0,0.0,0.0,0.0,0.0,31,src\mina-example\src\main\java\org\apache\mina\example\proxy\AbstractProxyIoHandler.java,0,0,0,0
org.apache.mina.example.proxy.ClientSessionHandler, 0, 0, 0, 0, 0, 0, 0, 0, 0, 0, 0, 0, 0, 0,0.0,0.0,0.0,0.5,0.0,0.0,0.0,0.0,0.0,0.0,0.0,0.0,0.0,73,src\mina-example\src\test\java\org\apache\mina\example\proxy\ClientSessionHandler.java,0,0,0,0
org.apache.mina.example.proxy.ClientToProxyIoHandler, 0, 0, 0, 0, 0, 0, 0, 0, 0, 0, 0, 0, 0, 0,0.0,0.0,0.0,0.0,0.0,0.3333333333333333,0.0,0.0,0.0,0.0,0.0,0.0,0.0,30,src\mina-example\src\main\java\org\apache\mina\example\proxy\ClientToProxyIoHandler.java,0,0,0,0
org.apache.mina.example.proxy.Main, 0, 0, 0, 0, 0, 0, 0, 0, 0, 0, 0, 0, 0, 0,0.0,0.0,0.0,0.0,0.0,0.0,0.0,0.0,0.0,0.0,0.0,0.0,0.0,17,src\mina-example\src\main\java\org\apache\mina\example\proxy\Main.java,0,0,0,0
org.apache.mina.example.proxy.ServerToProxyIoHandler, 0, 0, 0, 0, 0, 1, 0, 0, 0, 0, 0, 0, 0, 1,0.0,0.0,0.0,0.0,0.0,0.0,0.0,0.0,0.0,0.0,0.0,0.0,0.0,2,src\mina-example\src\main\java\org\apache\mina\example\proxy\ServerToProxyIoHandler.java,0,0,0,0
org.apache.mina.example.proxy.Socks5GSSAPITestServer, 0, 0, 0, 0, 0, 0, 0, 0, 0, 0, 0, 0, 0, 0,0.0,0.0,0.0,0.0,0.0,0.0,0.0,0.0,0.0,0.0,0.0,0.0,0.0,101,src\mina-example\src\test\java\org\apache\mina\example\proxy\Socks5GSSAPITestServer.java,0,0,0,0
org.apache.mina.example.proxy.telnet.TelnetSessionHandler, 0, 0, 0, 0, 0, 0, 0, 0, 0, 0, 0, 0, 0, 0,0.0,0.0,0.0,0.0,0.0,0.0,0.0,0.0,0.0,0.0,0.0,0.0,0.0,43,src\mina-example\src\test\java\org\apache\mina\example\proxy\telnet\TelnetSessionHandler.java,0,0,0,0
org.apache.mina.example.reverser.Main, 0, 0, 0, 0, 0, 0, 0, 0, 0, 0, 0, 0, 0, 0,0.0,0.0,0.0,0.6666666666666666,0.0,0.0,0.0,0.0,0.0,0.0,0.0,0.0,0.0,14,src\mina-example\src\main\java\org\apache\mina\example\reverser\Main.java,0,0,0,0
org.apache.mina.example.sumup.Client, 0, 0, 0, 0, 0, 0, 0, 0, 0, 0, 0, 0, 0, 0,0.0,0.0,0.0,0.42857142857142855,0.0,0.14285714285714285,0.0,0.0,0.0,0.0,0.0,0.0,0.0,47,src\mina-example\src\main\java\org\apache\mina\example\sumup\Client.java,0,0,0,0
org.apache.mina.example.sumup.ClientSessionHandler, 0, 0, 0, 0, 0, 0, 0, 0, 0, 0, 0, 0, 0, 0,0.0,0.0,0.0,0.0,0.0,0.0,0.0,0.0,0.0,0.0,0.0,0.0,0.0,38,src\mina-example\src\main\java\org\apache\mina\example\sumup\ClientSessionHandler.java,0,0,0,0
org.apache.mina.example.sumup.Server, 0, 0, 0, 0, 0, 0, 0, 0, 0, 0, 0, 0, 0, 0,0.0,0.0,0.0,0.5,0.0,0.25,0.0,0.0,0.0,0.0,0.0,0.0,0.0,23,src\mina-example\src\main\java\org\apache\mina\example\sumup\Server.java,0,0,0,0
org.apache.mina.example.sumup.ServerSessionHandler, 0, 0, 0, 0, 0, 0, 0, 0, 0, 0, 0, 0, 0, 0,0.0,0.0,0.0,0.0,0.0,0.0,0.0,0.0,0.0,0.0,0.0,0.0,0.0,38,src\mina-example\src\main\java\org\apache\mina\example\sumup\ServerSessionHandler.java,0,0,0,0
org.apache.mina.example.sumup.codec.AbstractMessageDecoder, 0, 0, 0, 0, 0, 0, 0, 0, 0, 0, 0, 0, 0, 0,0.0,0.0,0.0,0.0,0.0,0.0,0.0,0.0,0.0,0.0,0.0,0.0,0.0,36,src\mina-example\src\main\java\org\apache\mina\example\sumup\codec\AbstractMessageDecoder.java,0,0,0,0
org.apache.mina.example.sumup.codec.AbstractMessageEncoder, 0, 0, 0, 0, 0, 0, 0, 0, 0, 0, 0, 0, 0, 0,0.0,0.0,0.0,0.0,0.0,0.0,0.0,0.0,0.0,0.0,0.0,0.0,0.0,16,src\mina-example\src\main\java\org\apache\mina\example\sumup\codec\AbstractMessageEncoder.java,0,0,0,0
org.apache.mina.example.sumup.codec.AddMessageDecoder, 0, 0, 0, 0, 0, 0, 0, 0, 0, 0, 0, 0, 0, 0,0.0,0.0,0.0,0.0,0.0,0.0,0.0,0.0,0.0,0.0,0.0,0.0,0.0,17,src\mina-example\src\main\java\org\apache\mina\example\sumup\codec\AddMessageDecoder.java,0,0,0,0
org.apache.mina.example.sumup.codec.AddMessageEncoder, 0, 0, 0, 0, 0, 0, 0, 0, 0, 0, 0, 0, 0, 0,0.0,0.0,0.0,0.0,0.0,0.0,0.0,0.0,0.0,0.0,0.0,0.0,0.0,11,src\mina-example\src\main\java\org\apache\mina\example\sumup\codec\AddMessageEncoder.java,0,0,0,0
org.apache.mina.example.sumup.codec.Constants, 0, 0, 0, 0, 0, 0, 0, 0, 0, 0, 0, 0, 0, 0,0.0,0.0,0.0,0.0,0.0,0.0,0.0,0.0,0.0,0.0,0.0,0.0,0.0,15,src\mina-example\src\main\java\org\apache\mina\example\sumup\codec\Constants.java,0,0,0,0
org.apache.mina.example.sumup.codec.ResultMessageDecoder, 0, 0, 0, 0, 0, 0, 0, 0, 0, 0, 0, 0, 0, 0,0.0,0.0,0.0,0.0,0.0,0.0,0.0,0.0,0.0,0.0,0.0,0.0,0.0,35,src\mina-example\src\main\java\org\apache\mina\example\sumup\codec\ResultMessageDecoder.java,0,0,0,0
org.apache.mina.example.sumup.codec.ResultMessageEncoder, 0, 0, 0, 0, 0, 0, 0, 0, 0, 0, 0, 0, 0, 0,0.0,0.0,0.0,0.0,0.0,0.0,0.0,0.0,0.0,0.0,0.0,0.0,0.0,16,src\mina-example\src\main\java\org\apache\mina\example\sumup\codec\ResultMessageEncoder.java,0,0,0,0
org.apache.mina.example.sumup.codec.SumUpProtocolCodecFactory, 0, 0, 0, 0, 0, 1, 0, 0, 0, 0, 0, 0, 0, 1,0.0,0.0,0.0,0.0,0.0,0.0,0.0,0.0,0.0,0.0,0.0,0.0,0.0,12,src\mina-example\src\main\java\org\apache\mina\example\sumup\codec\SumUpProtocolCodecFactory.java,0,0,0,0
org.apache.mina.example.sumup.message.AbstractMessage, 0, 0, 0, 0, 0, 0, 0, 0, 0, 0, 0, 0, 0, 0,0.0,0.0,0.0,0.0,0.0,0.0,0.0,0.0,0.0,0.0,0.0,0.0,0.0,8,src\mina-example\src\main\java\org\apache\mina\example\sumup\message\AbstractMessage.java,0,0,0,0
org.apache.mina.example.sumup.message.AddMessage, 0, 0, 0, 0, 0, 0, 0, 0, 0, 0, 0, 0, 0, 0,0.0,0.0,0.0,0.0,0.0,0.0,0.0,0.0,0.0,0.0,0.0,0.0,0.0,16,src\mina-example\src\main\java\org\apache\mina\example\sumup\message\AddMessage.java,0,0,0,0
org.apache.mina.example.sumup.message.ResultMessage, 0, 0, 0, 0, 0, 0, 0, 0, 0, 0, 0, 0, 0, 0,0.0,0.0,0.0,0.0,0.0,0.0,0.0,0.0,0.0,0.0,0.0,0.0,0.0,26,src\mina-example\src\main\java\org\apache\mina\example\sumup\message\ResultMessage.java,0,0,0,0
org.apache.mina.example.tapedeck.AuthenticationHandler, 0, 0, 0, 1, 0, 0, 0, 0, 0, 0, 0, 0, 0, 1,0.0,0.0,0.0,0.0,0.0,0.0,0.0,0.0,0.0,0.0,0.0,0.0,0.0,96,src\mina-example\src\main\java\org\apache\mina\example\tapedeck\AuthenticationHandler.java,0,0,0,0
org.apache.mina.example.tapedeck.Command, 0, 0, 0, 0, 0, 0, 0, 0, 0, 0, 0, 0, 0, 0,0.0,0.0,0.0,0.09090909090909091,0.0,0.0,0.0,0.0,0.0,0.0,0.0,0.0,0.0,3,src\mina-example\src\main\java\org\apache\mina\example\tapedeck\Command.java,0,0,0,0
org.apache.mina.example.tapedeck.CommandDecoder, 0, 0, 0, 0, 0, 0, 0, 0, 0, 0, 0, 0, 0, 0,0.0,0.0,0.0,0.0,0.0,0.0,0.0,0.0,0.0,0.0,0.0,0.0,0.0,58,src\mina-example\src\main\java\org\apache\mina\example\tapedeck\CommandDecoder.java,0,0,0,0
org.apache.mina.example.tapedeck.CommandSyntaxException, 0, 0, 0, 0, 0, 0, 0, 0, 0, 0, 0, 0, 0, 0,0.0,0.0,0.0,0.3333333333333333,0.0,0.0,0.0,0.0,0.0,0.0,0.0,0.0,0.0,12,src\mina-example\src\main\java\org\apache\mina\example\tapedeck\CommandSyntaxException.java,0,0,0,0
org.apache.mina.example.tapedeck.EjectCommand, 0, 0, 0, 0, 0, 0, 0, 0, 0, 0, 0, 0, 0, 0,0.0,0.0,0.0,0.0,0.0,0.0,0.0,0.0,0.0,0.0,0.0,0.0,0.0,7,src\mina-example\src\main\java\org\apache\mina\example\tapedeck\EjectCommand.java,0,0,0,0
org.apache.mina.example.tapedeck.InfoCommand, 0, 0, 0, 0, 0, 0, 0, 0, 0, 0, 0, 0, 0, 0,0.0,0.0,0.0,0.0,0.0,0.0,0.0,0.0,0.0,0.0,0.0,0.0,0.0,7,src\mina-example\src\main\java\org\apache\mina\example\tapedeck\InfoCommand.java,0,0,0,0
org.apache.mina.example.tapedeck.ListCommand, 0, 0, 0, 0, 0, 0, 0, 0, 0, 0, 0, 0, 0, 0,0.0,0.0,0.0,0.0,0.0,0.0,0.0,0.0,0.0,0.0,0.0,0.0,0.0,7,src\mina-example\src\main\java\org\apache\mina\example\tapedeck\ListCommand.java,0,0,0,0
org.apache.mina.example.tapedeck.LoadCommand, 0, 0, 0, 0, 0, 0, 0, 0, 0, 0, 0, 0, 0, 0,0.0,0.0,0.0,0.0,0.0,0.0,0.0,0.0,0.0,0.0,0.0,0.0,0.0,14,src\mina-example\src\main\java\org\apache\mina\example\tapedeck\LoadCommand.java,0,0,0,0
org.apache.mina.example.tapedeck.Main, 0, 0, 0, 0, 0, 0, 0, 0, 0, 0, 0, 0, 0, 0,0.0,0.0,0.0,0.2,0.0,0.0,0.0,0.0,0.0,0.0,0.0,0.0,0.0,25,src\mina-example\src\main\java\org\apache\mina\example\tapedeck\Main.java,0,0,0,0
org.apache.mina.example.tapedeck.PasswordCommand, 0, 0, 0, 0, 0, 0, 0, 0, 0, 0, 0, 0, 0, 0,0.0,0.0,0.0,0.3333333333333333,0.0,0.0,0.0,0.0,0.0,0.0,0.0,0.0,0.0,14,src\mina-example\src\main\java\org\apache\mina\example\tapedeck\PasswordCommand.java,0,0,0,0
org.apache.mina.example.tapedeck.PauseCommand, 0, 0, 0, 0, 0, 0, 0, 0, 0, 0, 0, 0, 0, 0,0.0,0.0,0.0,0.0,0.0,0.0,0.0,0.0,0.0,0.0,0.0,0.0,0.0,7,src\mina-example\src\main\java\org\apache\mina\example\tapedeck\PauseCommand.java,0,0,0,0
org.apache.mina.example.tapedeck.PlayCommand, 0, 0, 0, 0, 0, 0, 0, 0, 0, 0, 0, 0, 0, 0,0.0,0.0,0.0,0.0,0.0,0.0,0.0,0.0,0.0,0.0,0.0,0.0,0.0,7,src\mina-example\src\main\java\org\apache\mina\example\tapedeck\PlayCommand.java,0,0,0,0
org.apache.mina.example.tapedeck.QuitCommand, 0, 0, 0, 0, 0, 0, 0, 0, 0, 0, 0, 0, 0, 0,0.0,0.0,0.0,0.5,0.0,0.0,0.0,0.0,0.0,0.0,0.0,0.0,0.0,7,src\mina-example\src\main\java\org\apache\mina\example\tapedeck\QuitCommand.java,0,0,0,0
org.apache.mina.example.tapedeck.StopCommand, 0, 0, 0, 0, 0, 0, 0, 0, 0, 0, 0, 0, 0, 0,0.0,0.0,0.0,0.0,0.0,0.0,0.0,0.0,0.0,0.0,0.0,0.0,0.0,7,src\mina-example\src\main\java\org\apache\mina\example\tapedeck\StopCommand.java,0,0,0,0
org.apache.mina.example.tapedeck.UserCommand, 0, 0, 0, 0, 0, 0, 0, 0, 0, 0, 0, 0, 0, 0,0.0,0.0,0.0,0.3333333333333333,0.0,0.0,0.0,0.0,0.0,0.0,0.0,0.0,0.0,14,src\mina-example\src\main\java\org\apache\mina\example\tapedeck\UserCommand.java,0,0,0,0
org.apache.mina.example.tcp.perf.TcpClient, 0, 0, 0, 0, 0, 0, 0, 0, 0, 0, 0, 0, 0, 0,0.0,0.0,0.0,0.0,0.0,0.0,0.0,0.0,0.0,0.0,0.0,0.0,0.0,56,src\mina-example\src\main\java\org\apache\mina\example\tcp\perf\TcpClient.java,0,0,0,0
org.apache.mina.example.tcp.perf.TcpServer, 0, 0, 0, 0, 0, 0, 0, 0, 0, 0, 0, 0, 0, 0,0.0,0.0,0.0,0.0,0.0,0.0,0.0,0.0,0.0,0.0,0.0,0.0,0.0,53,src\mina-example\src\main\java\org\apache\mina\example\tcp\perf\TcpServer.java,0,0,0,0
org.apache.mina.example.tennis.Main, 0, 0, 0, 0, 0, 0, 0, 0, 0, 0, 0, 0, 0, 0,0.0,0.0,0.0,0.0,0.0,0.0,0.0,0.0,0.0,0.0,0.0,0.0,0.0,16,src\mina-example\src\main\java\org\apache\mina\example\tennis\Main.java,0,0,0,0
org.apache.mina.example.tennis.TennisBall, 0, 0, 0, 0, 0, 0, 0, 0, 0, 0, 0, 0, 0, 0,0.0,0.0,0.0,0.0,0.0,0.0,0.0,0.0,0.0,0.0,0.0,0.0,0.0,24,src\mina-example\src\main\java\org\apache\mina\example\tennis\TennisBall.java,0,0,0,0
org.apache.mina.example.tennis.TennisPlayer, 0, 0, 0, 0, 0, 0, 0, 0, 0, 0, 0, 0, 0, 0,0.0,0.0,0.0,0.0,0.0,0.0,0.0,0.0,0.0,0.0,0.0,0.0,0.0,32,src\mina-example\src\main\java\org\apache\mina\example\tennis\TennisPlayer.java,0,0,0,0
org.apache.mina.example.udp.ClientPanel, 0, 0, 0, 0, 0, 0, 0, 0, 0, 0, 0, 0, 0, 0,0.0,0.0,0.0,0.0,0.0,0.0,0.0,0.0,0.0,0.0,0.0,0.0,0.0,27,src\mina-example\src\main\java\org\apache\mina\example\udp\ClientPanel.java,0,0,0,0
org.apache.mina.example.udp.MemoryMonitorHandler, 0, 0, 0, 0, 0, 0, 0, 0, 0, 0, 0, 0, 0, 0,0.0,0.0,0.0,0.0,0.0,0.0,0.0,0.0,0.0,0.0,0.0,0.0,0.0,42,src\mina-example\src\main\java\org\apache\mina\example\udp\MemoryMonitorHandler.java,0,0,0,0
org.apache.mina.example.udp.client.MemMonClient, 0, 0, 0, 0, 0, 0, 0, 0, 0, 0, 0, 0, 0, 0,0.0,0.0,0.0,0.5,0.0,0.0,0.0,0.0,0.0,0.0,0.0,0.0,0.0,82,src\mina-example\src\main\java\org\apache\mina\example\udp\client\MemMonClient.java,0,0,0,0
org.apache.mina.example.udp.perf.UdpClient, 0, 0, 0, 0, 0, 0, 0, 0, 0, 0, 0, 0, 0, 0,0.0,0.0,0.0,0.5,0.0,0.0,0.0,0.0,0.0,0.0,0.0,0.0,0.0,53,src\mina-example\src\main\java\org\apache\mina\example\udp\perf\UdpClient.java,0,0,0,0
org.apache.mina.example.udp.perf.UdpServer, 0, 0, 0, 0, 0, 0, 0, 0, 0, 0, 0, 0, 0, 0,0.0,0.0,0.0,0.0,0.0,0.0,0.0,0.0,0.0,0.0,0.0,0.0,0.0,53,src\mina-example\src\main\java\org\apache\mina\example\udp\perf\UdpServer.java,0,0,0,0
org.apache.mina.filter.buffer.BufferedWriteFilterTest, 0, 0, 0, 0, 0, 0, 0, 0, 0, 0, 0, 0, 0, 0,0.0,0.0,0.0,1.0,0.0,0.0,0.0,0.3333333333333333,0.0,0.0,0.0,0.0,0.0,51,src\mina-core\src\test\java\org\apache\mina\filter\buffer\BufferedWriteFilterTest.java,0,0,0,0
org.apache.mina.filter.buffer.IoBufferLazyInitializer, 0, 0, 0, 0, 0, 0, 0, 0, 0, 0, 0, 0, 0, 0,0.0,0.0,0.0,0.0,0.0,0.0,0.0,0.0,0.0,0.0,0.0,0.0,0.0,8,src\mina-core\src\main\java\org\apache\mina\filter\buffer\IoBufferLazyInitializer.java,0,0,0,0
org.apache.mina.filter.codec.AbstractProtocolDecoderOutput, 0, 0, 0, 0, 0, 0, 0, 0, 0, 0, 0, 0, 0, 0,0.0,0.0,0.0,0.0,0.0,0.0,0.0,0.0,0.0,0.0,0.0,0.0,0.0,14,src\mina-core\src\main\java\org\apache\mina\filter\codec\AbstractProtocolDecoderOutput.java,0,0,0,0
org.apache.mina.filter.codec.AbstractProtocolEncoderOutput, 0, 0, 0, 0, 0, 0, 0, 0, 0, 0, 0, 0, 0, 0,0.0,0.0,0.0,0.5,0.0,0.0,0.0,0.0,0.0,0.0,0.0,0.0,0.0,44,src\mina-core\src\main\java\org\apache\mina\filter\codec\AbstractProtocolEncoderOutput.java,0,0,0,0
org.apache.mina.filter.codec.CumulativeProtocolDecoder, 0, 0, 0, 0, 0, 0, 0, 0, 0, 0, 0, 0, 0, 0,0.0,0.0,0.0,0.0,0.0,0.0,0.0,0.0,0.0,0.0,0.0,0.0,0.0,82,src\mina-core\src\main\java\org\apache\mina\filter\codec\CumulativeProtocolDecoder.java,0,0,0,0
org.apache.mina.filter.codec.CumulativeProtocolDecoderTest, 0, 0, 0, 0, 0, 0, 0, 0, 0, 0, 0, 0, 0, 0,0.0,0.0,0.0,0.25,0.0,0.0,0.0,0.25,0.0,0.0,0.0,0.0,0.0,117,src\mina-core\src\test\java\org\apache\mina\filter\codec\CumulativeProtocolDecoderTest.java,0,0,0,0
org.apache.mina.filter.codec.DemuxingProtocolDecoderBugTest, 0, 0, 0, 0, 0, 0, 0, 0, 0, 0, 0, 0, 0, 0,0.0,0.0,0.0,0.0,0.0,0.0,0.0,0.0,0.0,0.0,0.0,0.0,0.0,51,src\mina-core\src\test\java\org\apache\mina\filter\codec\DemuxingProtocolDecoderBugTest.java,0,0,0,0
org.apache.mina.filter.codec.ProtocolCodecException, 0, 0, 0, 0, 0, 0, 0, 0, 0, 0, 0, 0, 0, 0,0.0,0.0,0.0,0.0,0.0,0.0,0.0,0.0,0.0,0.0,0.0,0.0,0.0,13,src\mina-core\src\main\java\org\apache\mina\filter\codec\ProtocolCodecException.java,0,0,0,0
org.apache.mina.filter.codec.ProtocolCodecFactory, 0, 0, 0, 0, 0, 0, 0, 0, 0, 0, 0, 0, 0, 0,0.0,0.0,0.0,0.0,0.0,0.0,0.0,0.0,0.0,0.0,0.0,0.0,0.0,13,src\mina-core\src\main\java\org\apache\mina\filter\codec\ProtocolCodecFactory.java,0,0,0,0
org.apache.mina.filter.codec.ProtocolCodecFilter, 0, 0, 0, 1, 0, 0, 0, 0, 0, 0, 0, 0, 0, 1,0.041666666666666664,0.0,0.041666666666666664,0.0,0.0,0.0,0.0,0.0,0.0,0.0,0.0,0.0,0.0,310,src\mina-core\src\main\java\org\apache\mina\filter\codec\ProtocolCodecFilter.java,0,0,0,0
org.apache.mina.filter.codec.ProtocolCodecSession, 0, 0, 0, 0, 0, 0, 0, 0, 0, 0, 0, 0, 0, 0,0.0,0.0,0.0,0.14285714285714285,0.0,0.0,0.0,0.0,0.0,0.0,0.0,0.0,0.0,27,src\mina-core\src\main\java\org\apache\mina\filter\codec\ProtocolCodecSession.java,0,0,0,0
org.apache.mina.filter.codec.ProtocolDecoder, 0, 0, 0, 0, 0, 0, 0, 0, 0, 0, 0, 0, 0, 0,0.0,0.0,0.0,0.0,0.0,0.0,0.0,0.0,0.0,0.0,0.0,0.0,0.0,27,src\mina-core\src\main\java\org\apache\mina\filter\codec\ProtocolDecoder.java,0,0,0,0
org.apache.mina.filter.codec.ProtocolDecoderAdapter, 0, 0, 0, 0, 0, 0, 0, 0, 0, 0, 0, 0, 0, 0,0.0,0.0,0.0,0.0,0.0,0.0,0.0,0.0,0.0,0.0,0.0,0.0,0.0,6,src\mina-core\src\main\java\org\apache\mina\filter\codec\ProtocolDecoderAdapter.java,0,0,0,0
org.apache.mina.filter.codec.ProtocolDecoderException, 0, 0, 0, 0, 0, 0, 0, 0, 0, 0, 0, 0, 0, 0,0.0,0.0,0.0,0.2,0.0,0.0,0.0,0.0,0.0,0.0,0.0,0.0,0.0,34,src\mina-core\src\main\java\org\apache\mina\filter\codec\ProtocolDecoderException.java,0,0,0,0
org.apache.mina.filter.codec.ProtocolDecoderOutput, 0, 0, 0, 0, 0, 0, 0, 0, 0, 0, 0, 0, 0, 0,0.0,0.0,0.0,0.0,0.0,0.0,0.0,0.0,0.0,0.0,0.0,0.0,0.0,34,src\mina-core\src\main\java\org\apache\mina\filter\codec\ProtocolDecoderOutput.java,0,0,0,0
org.apache.mina.filter.codec.ProtocolEncoder, 0, 0, 0, 0, 0, 0, 0, 0, 0, 0, 0, 0, 0, 0,0.0,0.0,0.0,0.0,0.0,0.0,0.0,0.0,0.0,0.0,0.0,0.0,0.0,34,src\mina-core\src\main\java\org\apache\mina\filter\codec\ProtocolEncoder.java,0,0,0,0
org.apache.mina.filter.codec.ProtocolEncoderAdapter, 0, 0, 0, 0, 0, 0, 0, 0, 0, 0, 0, 0, 0, 0,0.0,0.0,0.0,0.0,0.0,0.0,0.0,0.0,0.0,0.0,0.0,0.0,0.0,4,src\mina-core\src\main\java\org\apache\mina\filter\codec\ProtocolEncoderAdapter.java,0,0,0,0
org.apache.mina.filter.codec.ProtocolEncoderException, 0, 0, 0, 0, 0, 0, 0, 0, 0, 0, 0, 0, 0, 0,0.0,0.0,0.0,0.0,0.0,0.0,0.0,0.0,0.0,0.0,0.0,0.0,0.0,13,src\mina-core\src\main\java\org\apache\mina\filter\codec\ProtocolEncoderException.java,0,0,0,0
org.apache.mina.filter.codec.ProtocolEncoderOutput, 0, 0, 0, 0, 0, 0, 0, 0, 0, 0, 0, 0, 0, 0,0.0,0.0,0.0,0.0,0.0,0.0,0.0,0.0,0.0,0.0,0.0,0.0,0.0,13,src\mina-core\src\main\java\org\apache\mina\filter\codec\ProtocolEncoderOutput.java,0,0,0,0
org.apache.mina.filter.codec.RecoverableProtocolDecoderException, 0, 0, 0, 0, 0, 0, 0, 0, 0, 0, 0, 0, 0, 0,0.0,0.0,0.0,0.0,0.0,0.0,0.0,0.0,0.0,0.0,0.0,0.0,0.0,14,src\mina-core\src\main\java\org\apache\mina\filter\codec\RecoverableProtocolDecoderException.java,0,0,0,0
org.apache.mina.filter.codec.SynchronizedProtocolDecoder, 0, 0, 0, 0, 0, 0, 0, 0, 0, 0, 0, 0, 0, 0,0.0,0.0,0.0,0.0,0.0,0.0,0.0,0.0,0.0,0.0,0.0,0.0,0.0,27,src\mina-core\src\main\java\org\apache\mina\filter\codec\SynchronizedProtocolDecoder.java,0,0,0,0
org.apache.mina.filter.codec.SynchronizedProtocolEncoder, 0, 0, 0, 0, 0, 0, 0, 0, 0, 0, 0, 0, 0, 0,0.0,0.0,0.0,0.0,0.0,0.0,0.0,0.0,0.0,0.0,0.0,0.0,0.0,22,src\mina-core\src\main\java\org\apache\mina\filter\codec\SynchronizedProtocolEncoder.java,0,0,0,0
org.apache.mina.filter.codec.demux.DemuxingProtocolDecoder, 0, 0, 0, 0, 0, 0, 0, 0, 0, 0, 0, 0, 0, 0,0.0,0.0,0.0,0.0,0.0,0.0,0.0,0.0,0.0,0.0,0.0,0.0,0.0,158,src\mina-core\src\main\java\org\apache\mina\filter\codec\demux\DemuxingProtocolDecoder.java,0,0,0,0
org.apache.mina.filter.codec.demux.MessageDecoder, 0, 0, 0, 0, 0, 0, 0, 0, 0, 0, 0, 0, 0, 0,0.0,0.0,0.0,0.0,0.0,0.0,0.0,0.0,0.0,0.0,0.0,0.0,0.0,158,src\mina-core\src\main\java\org\apache\mina\filter\codec\demux\MessageDecoder.java,0,0,0,0
org.apache.mina.filter.codec.demux.MessageDecoderAdapter, 0, 0, 0, 0, 0, 0, 0, 0, 0, 0, 0, 0, 0, 0,0.0,0.0,0.0,0.0,0.0,0.0,0.0,0.0,0.0,0.0,0.0,0.0,0.0,4,src\mina-core\src\main\java\org\apache\mina\filter\codec\demux\MessageDecoderAdapter.java,0,0,0,0
org.apache.mina.filter.codec.demux.MessageDecoderFactory, 0, 0, 0, 0, 0, 0, 0, 0, 0, 0, 0, 0, 0, 0,0.0,0.0,0.0,0.0,0.0,0.0,0.0,0.0,0.0,0.0,0.0,0.0,0.0,4,src\mina-core\src\main\java\org\apache\mina\filter\codec\demux\MessageDecoderFactory.java,0,0,0,0
org.apache.mina.filter.codec.demux.MessageDecoderResult, 0, 0, 0, 0, 0, 0, 0, 0, 0, 0, 0, 0, 0, 0,0.0,0.0,0.0,0.0,0.0,0.0,0.0,0.0,0.0,0.0,0.0,0.0,0.0,12,src\mina-core\src\main\java\org\apache\mina\filter\codec\demux\MessageDecoderResult.java,0,0,0,0
org.apache.mina.filter.codec.demux.MessageEncoder, 0, 0, 0, 0, 0, 0, 0, 0, 0, 0, 0, 0, 0, 0,0.0,0.0,0.0,0.0,0.0,0.0,0.0,0.0,0.0,0.0,0.0,0.0,0.0,12,src\mina-core\src\main\java\org\apache\mina\filter\codec\demux\MessageEncoder.java,0,0,0,0
org.apache.mina.filter.codec.demux.MessageEncoderFactory, 0, 0, 0, 0, 0, 0, 0, 0, 0, 0, 0, 0, 0, 0,0.0,0.0,0.0,0.0,0.0,0.0,0.0,0.0,0.0,0.0,0.0,0.0,0.0,12,src\mina-core\src\main\java\org\apache\mina\filter\codec\demux\MessageEncoderFactory.java,0,0,0,0
org.apache.mina.filter.codec.prefixedstring.PrefixedStringCodecFactory, 0, 0, 0, 0, 0, 0, 0, 0, 0, 0, 0, 0, 0, 0,0.0,0.0,0.0,0.0,0.0,0.0,0.0,0.0,0.0,0.0,0.0,0.0,0.0,41,src\mina-core\src\main\java\org\apache\mina\filter\codec\prefixedstring\PrefixedStringCodecFactory.java,0,0,0,0
org.apache.mina.filter.codec.prefixedstring.PrefixedStringDecoder, 0, 0, 0, 0, 0, 0, 0, 0, 0, 0, 0, 0, 0, 0,0.0,0.0,0.0,0.0,0.0,0.0,0.0,0.0,0.0,0.0,0.0,0.0,0.0,38,src\mina-core\src\main\java\org\apache\mina\filter\codec\prefixedstring\PrefixedStringDecoder.java,0,0,0,0
org.apache.mina.filter.codec.prefixedstring.PrefixedStringEncoder, 0, 0, 0, 0, 0, 0, 0, 0, 0, 0, 0, 0, 0, 0,0.0,0.0,0.0,0.0,0.0,0.0,0.0,0.0,0.0,0.0,0.0,0.0,0.0,46,src\mina-core\src\main\java\org\apache\mina\filter\codec\prefixedstring\PrefixedStringEncoder.java,0,0,0,0
org.apache.mina.filter.codec.serialization.ObjectSerializationCodecFactory, 0, 0, 0, 0, 0, 0, 0, 0, 0, 0, 0, 0, 0, 0,0.0,0.0,0.0,0.0,0.0,0.0,0.0,0.0,0.0,0.0,0.0,0.0,0.0,29,src\mina-core\src\main\java\org\apache\mina\filter\codec\serialization\ObjectSerializationCodecFactory.java,0,0,0,0
org.apache.mina.filter.codec.serialization.ObjectSerializationDecoder, 0, 0, 0, 0, 0, 0, 0, 0, 0, 0, 0, 0, 0, 0,0.0,0.0,0.0,0.0,0.0,0.0,0.0,0.0,0.0,0.0,0.0,0.0,0.0,30,src\mina-core\src\main\java\org\apache\mina\filter\codec\serialization\ObjectSerializationDecoder.java,0,0,0,0
org.apache.mina.filter.codec.serialization.ObjectSerializationEncoder, 0, 0, 0, 0, 0, 0, 0, 0, 0, 0, 0, 0, 0, 0,0.0,0.0,0.0,0.0,0.0,0.0,0.0,0.0,0.0,0.0,0.0,0.0,0.0,29,src\mina-core\src\main\java\org\apache\mina\filter\codec\serialization\ObjectSerializationEncoder.java,0,0,0,0
org.apache.mina.filter.codec.serialization.ObjectSerializationInputStream, 0, 0, 0, 1, 0, 0, 0, 0, 0, 0, 0, 0, 0, 1,0.0,0.0,0.0,0.0,0.0,0.0,0.0,0.0,0.0,0.0,0.0,0.0,0.0,97,src\mina-core\src\main\java\org\apache\mina\filter\codec\serialization\ObjectSerializationInputStream.java,0,0,0,0
org.apache.mina.filter.codec.serialization.ObjectSerializationOutputStream, 0, 0, 0, 1, 0, 0, 0, 0, 0, 0, 0, 0, 0, 1,0.0,0.0,0.0,0.0,0.0,0.0,0.0,0.0,0.0,0.0,0.0,0.0,0.0,87,src\mina-core\src\main\java\org\apache\mina\filter\codec\serialization\ObjectSerializationOutputStream.java,0,0,0,0
org.apache.mina.filter.codec.serialization.ObjectSerializationTest, 0, 0, 0, 0, 0, 0, 0, 0, 0, 0, 0, 0, 0, 0,0.0,0.0,0.0,0.4,0.0,0.0,0.0,0.0,0.0,0.0,0.0,0.0,0.0,33,src\mina-core\src\test\java\org\apache\mina\filter\codec\serialization\ObjectSerializationTest.java,0,0,0,0
org.apache.mina.filter.codec.statemachine.ConsumeToCrLfDecodingState, 0, 0, 0, 0, 0, 0, 0, 0, 0, 0, 0, 0, 0, 0,0.0,0.0,0.0,0.0,0.0,0.0,0.0,0.0,0.0,0.0,0.0,0.0,0.0,70,src\mina-core\src\main\java\org\apache\mina\filter\codec\statemachine\ConsumeToCrLfDecodingState.java,0,0,0,0
org.apache.mina.filter.codec.statemachine.ConsumeToDynamicTerminatorDecodingState, 0, 0, 0, 0, 0, 0, 0, 0, 0, 0, 0, 0, 0, 0,0.0,0.0,0.0,0.0,0.0,0.0,0.0,0.0,0.0,0.0,0.0,0.0,0.0,56,src\mina-core\src\main\java\org\apache\mina\filter\codec\statemachine\ConsumeToDynamicTerminatorDecodingState.java,0,0,0,0
org.apache.mina.filter.codec.statemachine.ConsumeToEndOfSessionDecodingState, 0, 0, 0, 0, 0, 0, 0, 0, 0, 0, 0, 0, 0, 0,0.0,0.0,0.0,0.0,0.0,0.0,0.0,0.0,0.0,0.0,0.0,0.0,0.0,29,src\mina-core\src\main\java\org\apache\mina\filter\codec\statemachine\ConsumeToEndOfSessionDecodingState.java,0,0,0,0
org.apache.mina.filter.codec.statemachine.ConsumeToLinearWhitespaceDecodingState, 0, 0, 0, 0, 0, 0, 0, 0, 0, 0, 0, 0, 0, 0,0.0,0.0,0.0,0.0,0.0,0.0,0.0,0.0,0.0,0.0,0.0,0.0,0.0,6,src\mina-core\src\main\java\org\apache\mina\filter\codec\statemachine\ConsumeToLinearWhitespaceDecodingState.java,0,0,0,0
org.apache.mina.filter.codec.statemachine.ConsumeToTerminatorDecodingState, 0, 0, 0, 0, 0, 0, 0, 0, 0, 0, 0, 0, 0, 0,0.0,0.0,0.0,0.0,0.0,0.0,0.0,0.0,0.0,0.0,0.0,0.0,0.0,51,src\mina-core\src\main\java\org\apache\mina\filter\codec\statemachine\ConsumeToTerminatorDecodingState.java,0,0,0,0
org.apache.mina.filter.codec.statemachine.CrLfDecodingState, 0, 0, 0, 0, 0, 0, 0, 0, 0, 0, 0, 0, 0, 0,0.0,0.0,0.0,0.0,0.0,0.0,0.0,0.0,0.0,0.0,0.0,0.0,0.0,42,src\mina-core\src\main\java\org\apache\mina\filter\codec\statemachine\CrLfDecodingState.java,0,0,0,0
org.apache.mina.filter.codec.statemachine.DecodingState, 0, 0, 0, 0, 0, 0, 0, 0, 0, 0, 0, 0, 0, 0,0.0,0.0,0.0,0.0,0.0,0.0,0.0,0.0,0.0,0.0,0.0,0.0,0.0,42,src\mina-core\src\main\java\org\apache\mina\filter\codec\statemachine\DecodingState.java,0,0,0,0
org.apache.mina.filter.codec.statemachine.DecodingStateMachine, 0, 0, 0, 0, 0, 0, 0, 0, 0, 0, 0, 0, 0, 0,0.0,0.0,0.0,0.0,0.0,0.0,0.0,0.0,0.0,0.0,0.0,0.0,0.0,94,src\mina-core\src\main\java\org\apache\mina\filter\codec\statemachine\DecodingStateMachine.java,0,0,0,0
org.apache.mina.filter.codec.statemachine.DecodingStateProtocolDecoder, 0, 0, 0, 0, 0, 0, 0, 0, 0, 0, 0, 0, 0, 0,0.0,0.0,0.0,0.0,0.0,0.0,0.0,0.0,0.0,0.0,0.0,0.0,0.0,42,src\mina-core\src\main\java\org\apache\mina\filter\codec\statemachine\DecodingStateProtocolDecoder.java,0,0,0,0
org.apache.mina.filter.codec.statemachine.FixedLengthDecodingState, 0, 0, 0, 0, 0, 0, 0, 0, 0, 0, 0, 0, 0, 0,0.0,0.0,0.0,0.0,0.0,0.0,0.0,0.0,0.0,0.0,0.0,0.0,0.0,44,src\mina-core\src\main\java\org\apache\mina\filter\codec\statemachine\FixedLengthDecodingState.java,0,0,0,0
org.apache.mina.filter.codec.statemachine.IntegerDecodingState, 0, 0, 0, 0, 0, 0, 0, 0, 0, 0, 0, 0, 0, 0,0.0,0.0,0.0,0.0,0.0,0.0,0.0,0.0,0.0,0.0,0.0,0.0,0.0,32,src\mina-core\src\main\java\org\apache\mina\filter\codec\statemachine\IntegerDecodingState.java,0,0,0,0
org.apache.mina.filter.codec.statemachine.LinearWhitespaceSkippingState, 0, 0, 0, 0, 0, 0, 0, 0, 0, 0, 0, 0, 0, 0,0.0,0.0,0.0,0.0,0.0,0.0,0.0,0.0,0.0,0.0,0.0,0.0,0.0,6,src\mina-core\src\main\java\org\apache\mina\filter\codec\statemachine\LinearWhitespaceSkippingState.java,0,0,0,0
org.apache.mina.filter.codec.statemachine.ShortIntegerDecodingState, 0, 0, 0, 0, 0, 0, 0, 0, 0, 0, 0, 0, 0, 0,0.0,0.0,0.0,0.0,0.0,0.0,0.0,0.0,0.0,0.0,0.0,0.0,0.0,24,src\mina-core\src\main\java\org\apache\mina\filter\codec\statemachine\ShortIntegerDecodingState.java,0,0,0,0
org.apache.mina.filter.codec.statemachine.SingleByteDecodingState, 0, 0, 0, 0, 0, 0, 0, 0, 0, 0, 0, 0, 0, 0,0.0,0.0,0.0,0.0,0.0,0.0,0.0,0.0,0.0,0.0,0.0,0.0,0.0,12,src\mina-core\src\main\java\org\apache\mina\filter\codec\statemachine\SingleByteDecodingState.java,0,0,0,0
org.apache.mina.filter.codec.statemachine.SkippingState, 0, 0, 0, 0, 0, 0, 0, 0, 0, 0, 0, 0, 0, 0,0.0,0.0,0.0,0.0,0.0,0.0,0.0,0.0,0.0,0.0,0.0,0.0,0.0,24,src\mina-core\src\main\java\org\apache\mina\filter\codec\statemachine\SkippingState.java,0,0,0,0
org.apache.mina.filter.codec.textline.TextLineCodecFactory, 0, 0, 0, 0, 0, 0, 0, 0, 0, 0, 0, 0, 0, 0,0.0,0.0,0.0,0.0,0.0,0.0,0.0,0.0,0.0,0.0,0.0,0.0,0.0,37,src\mina-core\src\main\java\org\apache\mina\filter\codec\textline\TextLineCodecFactory.java,0,0,0,0
org.apache.mina.filter.codec.textline.TextLineDecoderTest, 0, 0, 0, 0, 0, 0, 0, 0, 0, 0, 0, 0, 0, 0,0.0,0.0,0.0,0.0,0.0,0.0,0.0,0.0,0.0,0.0,0.0,0.0,0.0,246,src\mina-core\src\test\java\org\apache\mina\filter\codec\textline\TextLineDecoderTest.java,0,0,0,0
org.apache.mina.filter.codec.textline.TextLineEncoder, 0, 0, 0, 0, 0, 0, 0, 0, 0, 0, 0, 0, 0, 0,0.0,0.0,0.0,0.0,0.0,0.0,0.0,0.0,0.0,0.0,0.0,0.0,0.0,60,src\mina-core\src\main\java\org\apache\mina\filter\codec\textline\TextLineEncoder.java,0,0,0,0
org.apache.mina.filter.codec.textline.TextLineEncoderTest, 0, 0, 0, 0, 0, 0, 0, 0, 0, 0, 0, 0, 0, 0,0.0,0.0,0.0,0.0,0.0,0.0,0.0,0.0,0.0,0.0,0.0,0.0,0.0,17,src\mina-core\src\test\java\org\apache\mina\filter\codec\textline\TextLineEncoderTest.java,0,0,0,0
org.apache.mina.filter.compression.CompressionFilter, 0, 0, 0, 0, 0, 0, 0, 0, 0, 0, 0, 0, 0, 0,0.0,0.0,0.0,0.0,0.0,0.0,0.0,0.0,0.0,0.0,0.0,0.0,0.0,97,src\mina-filter-compression\src\main\java\org\apache\mina\filter\compression\CompressionFilter.java,0,0,0,0
org.apache.mina.filter.compression.CompressionFilterTest, 0, 0, 0, 0, 0, 0, 0, 0, 0, 0, 0, 0, 0, 0,0.0,0.0,0.0,0.0,0.0,0.0,0.0,0.0,0.0,0.0,0.0,0.0,0.0,106,src\mina-filter-compression\src\test\java\org\apache\mina\filter\compression\CompressionFilterTest.java,0,0,0,0
org.apache.mina.filter.compression.Zlib, 0, 0, 0, 0, 0, 0, 0, 0, 0, 0, 0, 0, 0, 0,0.0,0.0,0.0,0.0,0.0,0.0,0.0,0.0,0.0,0.0,0.0,0.0,0.0,103,src\mina-filter-compression\src\main\java\org\apache\mina\filter\compression\Zlib.java,0,0,0,0
org.apache.mina.filter.compression.ZlibTest, 0, 0, 0, 0, 0, 0, 0, 0, 0, 0, 0, 0, 0, 0,0.0,0.0,0.0,0.0,0.0,0.0,0.0,0.0,0.0,0.0,0.0,0.0,0.0,67,src\mina-filter-compression\src\test\java\org\apache\mina\filter\compression\ZlibTest.java,0,0,0,0
org.apache.mina.filter.errorgenerating.ErrorGeneratingFilter, 0, 0, 0, 1, 0, 0, 0, 0, 0, 0, 0, 0, 0, 1,0.0,0.0,0.0,0.0,0.0,0.0,0.0,0.0,0.0,0.0,0.0,0.0,0.0,157,src\mina-core\src\main\java\org\apache\mina\filter\errorgenerating\ErrorGeneratingFilter.java,0,0,0,0
org.apache.mina.filter.executor.ExecutorFilter, 0, 0, 0, 1, 0, 0, 0, 1, 0, 0, 0, 0, 0, 2,0.0,0.0,0.0,0.0,0.0,0.0,0.0,0.0,0.0,0.0,0.0,0.0,0.0,211,src\mina-core\src\main\java\org\apache\mina\filter\executor\ExecutorFilter.java,0,0,0,0
org.apache.mina.filter.executor.ExecutorFilterRegressionTest, 0, 0, 0, 0, 0, 0, 0, 0, 0, 0, 0, 0, 0, 0,0.0,0.0,0.0,1.0,0.0,0.0,0.0,1.0,0.0,0.0,0.0,0.0,0.0,85,src\mina-core\src\test\java\org\apache\mina\filter\executor\ExecutorFilterRegressionTest.java,0,0,0,0
org.apache.mina.filter.executor.IoEventQueueHandler, 0, 0, 0, 0, 0, 0, 0, 0, 0, 0, 0, 0, 0, 0,0.0,0.0,0.0,0.0,0.0,0.0,0.0,0.0,0.0,0.0,0.0,0.0,0.0,85,src\mina-core\src\main\java\org\apache\mina\filter\executor\IoEventQueueHandler.java,0,0,0,0
org.apache.mina.filter.executor.IoEventQueueThrottle, 0, 0, 0, 0, 0, 0, 0, 0, 0, 0, 0, 0, 0, 0,0.0,0.0,0.0,0.0,0.0,0.0,0.0,0.0,0.0,0.0,0.0,0.0,0.0,94,src\mina-core\src\main\java\org\apache\mina\filter\executor\IoEventQueueThrottle.java,0,0,0,0
org.apache.mina.filter.executor.IoEventSizeEstimator, 0, 0, 0, 0, 0, 0, 0, 0, 0, 0, 0, 0, 0, 0,0.0,0.0,0.0,0.0,0.0,0.0,0.0,0.0,0.0,0.0,0.0,0.0,0.0,94,src\mina-core\src\main\java\org\apache\mina\filter\executor\IoEventSizeEstimator.java,0,0,0,0
org.apache.mina.filter.executor.UnorderedThreadPoolExecutor, 0, 0, 0, 1, 0, 0, 0, 1, 0, 0, 0, 0, 0, 2,0.0,0.0,0.0,0.0,0.0,0.0,0.0,0.0,0.0,0.0,0.0,0.0,0.0,352,src\mina-core\src\main\java\org\apache\mina\filter\executor\UnorderedThreadPoolExecutor.java,0,0,0,0
org.apache.mina.filter.executor.WriteRequestFilter, 0, 0, 0, 0, 0, 0, 0, 0, 0, 0, 0, 0, 0, 0,0.0,0.0,0.0,0.0,0.0,0.0,0.0,0.0,0.0,0.0,0.0,0.0,0.0,32,src\mina-core\src\main\java\org\apache\mina\filter\executor\WriteRequestFilter.java,0,0,0,0
org.apache.mina.filter.firewall.BlacklistFilter, 0, 0, 0, 0, 0, 0, 0, 0, 0, 0, 0, 0, 0, 0,0.0,0.0,0.0,0.0,0.0,0.0,0.0,0.0,0.0,0.0,0.0,0.0,0.0,129,src\mina-core\src\main\java\org\apache\mina\filter\firewall\BlacklistFilter.java,0,0,0,0
org.apache.mina.filter.firewall.ConnectionThrottleFilterTest, 0, 0, 0, 0, 0, 0, 0, 0, 0, 0, 0, 0, 0, 0,0.0,0.0,0.0,1.0,0.0,0.0,0.0,0.0,0.0,0.0,0.0,0.0,0.0,34,src\mina-core\src\test\java\org\apache\mina\filter\firewall\ConnectionThrottleFilterTest.java,0,0,0,0
org.apache.mina.filter.firewall.Subnet, 0, 0, 0, 0, 0, 0, 0, 0, 0, 0, 0, 0, 0, 0,0.0,0.0,0.0,0.0,0.0,0.0,0.0,0.0,0.0,0.0,0.0,0.0,0.0,84,src\mina-core\src\main\java\org\apache\mina\filter\firewall\Subnet.java,0,1,2,5
org.apache.mina.filter.firewall.SubnetIPv4Test, 0, 0, 0, 0, 0, 0, 0, 0, 0, 0, 0, 0, 0, 0,0.0,0.0,0.0,0.0,0.0,0.0,0.0,0.0,0.0,0.0,0.0,0.0,0.0,61,src\mina-core\src\test\java\org\apache\mina\filter\firewall\SubnetIPv4Test.java,0,0,0,0
org.apache.mina.filter.firewall.SubnetIPv6Test, 0, 0, 0, 0, 0, 0, 0, 0, 0, 0, 0, 0, 0, 0,0.0,0.0,0.0,0.0,0.0,0.0,0.0,0.0,0.0,0.0,0.0,0.0,0.0,14,src\mina-core\src\test\java\org\apache\mina\filter\firewall\SubnetIPv6Test.java,6,0,0,6
org.apache.mina.filter.keepalive.KeepAliveFilter, 0, 0, 0, 1, 0, 0, 0, 1, 0, 0, 0, 0, 0, 2,0.0,0.0,0.0,0.0,0.0,0.0,0.0,0.0,0.0,0.0,0.0,0.0,0.0,173,src\mina-core\src\main\java\org\apache\mina\filter\keepalive\KeepAliveFilter.java,0,0,0,0
org.apache.mina.filter.keepalive.KeepAliveFilterTest, 0, 0, 0, 0, 0, 0, 0, 0, 0, 0, 0, 0, 0, 0,0.0,0.0,0.0,0.5,0.0,0.0,0.0,0.5,0.0,0.0,0.0,0.0,0.0,117,src\mina-core\src\test\java\org\apache\mina\filter\keepalive\KeepAliveFilterTest.java,0,0,0,0
org.apache.mina.filter.keepalive.KeepAliveMessageFactory, 0, 0, 0, 0, 0, 0, 0, 0, 0, 0, 0, 0, 0, 0,0.0,0.0,0.0,0.0,0.0,0.0,0.0,0.0,0.0,0.0,0.0,0.0,0.0,117,src\mina-core\src\main\java\org\apache\mina\filter\keepalive\KeepAliveMessageFactory.java,0,0,0,0
org.apache.mina.filter.keepalive.KeepAliveRequestTimeoutException, 0, 0, 0, 0, 0, 0, 0, 0, 0, 0, 0, 0, 0, 0,0.0,0.0,0.0,0.0,0.0,0.0,0.0,0.0,0.0,0.0,0.0,0.0,0.0,15,src\mina-core\src\main\java\org\apache\mina\filter\keepalive\KeepAliveRequestTimeoutException.java,0,0,0,0
org.apache.mina.filter.keepalive.KeepAliveRequestTimeoutHandler, 0, 0, 0, 0, 0, 0, 0, 0, 0, 0, 0, 0, 0, 0,0.0,0.0,0.0,0.0,0.0,0.0,0.0,0.0,0.0,0.0,0.0,0.0,0.0,15,src\mina-core\src\main\java\org\apache\mina\filter\keepalive\KeepAliveRequestTimeoutHandler.java,0,0,0,0
org.apache.mina.filter.logging.LoadTestMdcInjectionFilter, 0, 0, 0, 0, 0, 0, 0, 0, 0, 0, 0, 0, 0, 0,0.0,0.0,0.0,0.0,0.0,0.0,0.0,0.0,0.0,0.0,0.0,0.0,0.0,16,src\mina-core\src\test\java\org\apache\mina\filter\logging\LoadTestMdcInjectionFilter.java,0,0,0,0
org.apache.mina.filter.logging.LoggingFilter, 0, 0, 0, 1, 0, 0, 0, 0, 0, 0, 0, 0, 0, 1,0.0,0.0,0.0,0.0,0.0,0.0,0.0,0.0,0.0,0.0,0.0,0.0,0.0,168,src\mina-core\src\main\java\org\apache\mina\filter\logging\LoggingFilter.java,0,0,0,0
org.apache.mina.filter.ssl.KeyStoreFactoryTest, 0, 0, 0, 0, 0, 0, 0, 0, 0, 0, 0, 0, 0, 0,0.0,0.0,0.0,0.0,0.0,0.0,0.0,0.0,0.0,0.0,0.0,0.0,0.0,30,src\mina-core\src\test\java\org\apache\mina\filter\ssl\KeyStoreFactoryTest.java,0,0,0,0
org.apache.mina.filter.ssl.SslDIRMINA937Test, 0, 0, 0, 0, 0, 0, 0, 0, 0, 0, 0, 0, 0, 0,0.0,0.0,0.0,0.5,0.0,0.0,0.0,0.0,0.0,0.0,0.0,0.0,0.0,79,src\mina-core\src\test\java\org\apache\mina\filter\ssl\SslDIRMINA937Test.java,0,0,0,0
org.apache.mina.filter.ssl.SslTest, 0, 0, 0, 0, 0, 0, 0, 0, 0, 0, 0, 0, 0, 0,0.0,0.0,0.0,0.5,0.0,0.0,0.0,0.0,0.0,0.0,0.0,0.0,0.0,89,src\mina-core\src\test\java\org\apache\mina\filter\ssl\SslTest.java,0,0,0,0
org.apache.mina.filter.statistic.ProfilerTimerFilter, 0, 0, 0, 1, 0, 0, 0, 0, 0, 0, 0, 0, 0, 1,0.0,0.0,0.0,0.0,0.0,0.0,0.0,0.0,0.0,0.0,0.0,0.0,0.0,440,src\mina-core\src\main\java\org\apache\mina\filter\statistic\ProfilerTimerFilter.java,0,0,0,0
org.apache.mina.filter.stream.AbstractStreamWriteFilter, 0, 0, 0, 0, 0, 0, 0, 0, 0, 0, 0, 0, 0, 0,0.0,0.0,0.0,0.0,0.0,0.0,0.0,0.0,0.0,0.0,0.0,0.0,0.0,85,src\mina-core\src\main\java\org\apache\mina\filter\stream\AbstractStreamWriteFilter.java,0,0,0,0
org.apache.mina.filter.stream.FileRegionWriteFilter, 0, 0, 0, 0, 0, 0, 0, 0, 0, 0, 0, 0, 0, 0,0.0,0.0,0.0,0.0,0.0,0.0,0.0,0.0,0.0,0.0,0.0,0.0,0.0,18,src\mina-core\src\main\java\org\apache\mina\filter\stream\FileRegionWriteFilter.java,0,0,0,0
org.apache.mina.filter.stream.FileRegionWriteFilterTest, 0, 0, 0, 0, 0, 0, 0, 0, 0, 0, 0, 0, 0, 0,0.0,0.0,0.0,0.0,0.0,0.0,0.0,0.0,0.0,0.0,0.0,0.0,0.0,15,src\mina-core\src\test\java\org\apache\mina\filter\stream\FileRegionWriteFilterTest.java,0,0,0,0
org.apache.mina.filter.stream.StreamWriteFilter, 0, 0, 0, 0, 0, 0, 0, 0, 0, 0, 0, 0, 0, 0,0.0,0.0,0.0,0.0,0.0,0.0,0.0,0.0,0.0,0.0,0.0,0.0,0.0,20,src\mina-core\src\main\java\org\apache\mina\filter\stream\StreamWriteFilter.java,0,1,0,1
org.apache.mina.filter.stream.StreamWriteFilterTest, 0, 0, 0, 0, 0, 0, 0, 0, 0, 0, 0, 0, 0, 0,0.0,0.0,0.0,0.0,0.0,0.0,0.0,0.0,0.0,0.0,0.0,0.0,0.0,10,src\mina-core\src\test\java\org\apache\mina\filter\stream\StreamWriteFilterTest.java,0,0,0,0
org.apache.mina.filter.util.CommonEventFilter, 0, 0, 0, 0, 0, 0, 0, 0, 0, 0, 0, 0, 0, 0,0.0,0.0,0.0,0.0,0.0,0.0,0.0,0.0,0.0,0.0,0.0,0.0,0.0,41,src\mina-core\src\main\java\org\apache\mina\filter\util\CommonEventFilter.java,0,0,0,0
org.apache.mina.filter.util.NoopFilter, 0, 0, 0, 0, 0, 1, 0, 0, 0, 0, 0, 0, 0, 1,0.0,0.0,0.0,0.0,0.0,0.0,0.0,0.0,0.0,0.0,0.0,0.0,0.0,5,src\mina-core\src\main\java\org\apache\mina\filter\util\NoopFilter.java,0,0,0,0
org.apache.mina.filter.util.ReferenceCountingFilter, 0, 0, 0, 0, 0, 0, 0, 0, 0, 0, 0, 0, 0, 0,0.0,0.0,0.0,0.0,0.0,0.0,0.0,0.0,0.0,0.0,0.0,0.0,0.0,58,src\mina-core\src\main\java\org\apache\mina\filter\util\ReferenceCountingFilter.java,0,0,0,0
org.apache.mina.filter.util.WrappingFilterTest, 0, 0, 0, 0, 0, 0, 0, 0, 0, 0, 0, 0, 0, 0,0.0,0.0,0.0,0.5,0.0,0.0,0.0,0.0,0.0,0.0,0.0,0.0,0.0,68,src\mina-core\src\test\java\org\apache\mina\filter\util\WrappingFilterTest.java,0,0,0,0
org.apache.mina.filter.util.WriteRequestFilter, 0, 0, 0, 0, 0, 0, 0, 0, 0, 0, 0, 0, 0, 0,0.0,0.0,0.0,0.0,0.0,0.0,0.0,0.0,0.0,0.0,0.0,0.0,0.0,41,src\mina-core\src\main\java\org\apache\mina\filter\util\WriteRequestFilter.java,0,0,0,0
org.apache.mina.handler.chain.ChainedIoHandler, 0, 0, 0, 0, 0, 0, 0, 0, 0, 0, 0, 0, 0, 0,0.0,0.0,0.0,0.0,0.0,0.0,0.0,0.0,0.0,0.0,0.0,0.0,0.0,19,src\mina-core\src\main\java\org\apache\mina\handler\chain\ChainedIoHandler.java,0,0,0,0
org.apache.mina.handler.chain.IoHandlerCommand, 0, 0, 0, 0, 0, 0, 0, 0, 0, 0, 0, 0, 0, 0,0.0,0.0,0.0,0.0,0.0,0.0,0.0,0.0,0.0,0.0,0.0,0.0,0.0,19,src\mina-core\src\main\java\org\apache\mina\handler\chain\IoHandlerCommand.java,0,0,0,0
org.apache.mina.handler.demux.DemuxingIoHandlerTest, 0, 0, 0, 0, 0, 0, 0, 0, 0, 0, 0, 0, 0, 0,0.0,0.0,0.0,0.0,0.0,0.0,0.0,0.0,0.0,0.0,0.0,0.0,0.0,110,src\mina-core\src\test\java\org\apache\mina\handler\demux\DemuxingIoHandlerTest.java,0,0,0,0
org.apache.mina.handler.demux.ExceptionHandler, 0, 0, 0, 0, 0, 0, 0, 0, 0, 0, 0, 0, 0, 0,0.0,0.0,0.0,0.0,0.0,0.0,0.0,0.0,0.0,0.0,0.0,0.0,0.0,110,src\mina-core\src\main\java\org\apache\mina\handler\demux\ExceptionHandler.java,0,0,0,0
org.apache.mina.handler.demux.MessageHandler, 0, 0, 0, 0, 0, 0, 0, 0, 0, 0, 0, 0, 0, 0,0.0,0.0,0.0,0.0,0.0,0.0,0.0,0.0,0.0,0.0,0.0,0.0,0.0,110,src\mina-core\src\main\java\org\apache\mina\handler\demux\MessageHandler.java,0,0,0,0
org.apache.mina.handler.multiton.SingleSessionIoHandler, 0, 0, 0, 0, 0, 0, 0, 0, 0, 0, 0, 0, 0, 0,0.0,0.0,0.0,0.0,0.0,0.0,0.0,0.0,0.0,0.0,0.0,0.0,0.0,110,src\mina-core\src\main\java\org\apache\mina\handler\multiton\SingleSessionIoHandler.java,0,0,0,0
org.apache.mina.handler.multiton.SingleSessionIoHandlerAdapter, 0, 0, 0, 0, 0, 0, 0, 0, 0, 0, 0, 0, 0, 0,0.0,0.0,0.0,0.0,0.0,0.0,0.0,0.0,0.0,0.0,0.0,0.0,0.0,28,src\mina-core\src\main\java\org\apache\mina\handler\multiton\SingleSessionIoHandlerAdapter.java,0,0,0,0
org.apache.mina.handler.multiton.SingleSessionIoHandlerDelegate, 0, 0, 0, 0, 0, 0, 0, 0, 0, 0, 0, 0, 0, 0,0.0,0.0,0.0,0.0,0.0,0.0,0.0,0.0,0.0,0.0,0.0,0.0,0.0,46,src\mina-core\src\main\java\org\apache\mina\handler\multiton\SingleSessionIoHandlerDelegate.java,0,0,0,0
org.apache.mina.handler.multiton.SingleSessionIoHandlerFactory, 0, 0, 0, 0, 0, 0, 0, 0, 0, 0, 0, 0, 0, 0,0.0,0.0,0.0,0.0,0.0,0.0,0.0,0.0,0.0,0.0,0.0,0.0,0.0,46,src\mina-core\src\main\java\org\apache\mina\handler\multiton\SingleSessionIoHandlerFactory.java,0,0,0,0
org.apache.mina.handler.stream.IoSessionInputStream, 0, 0, 0, 0, 0, 0, 0, 0, 0, 0, 0, 0, 0, 0,0.0,0.0,0.0,0.0,0.0,0.0,0.0,0.0,0.0,0.0,0.0,0.0,0.0,112,src\mina-core\src\main\java\org\apache\mina\handler\stream\IoSessionInputStream.java,0,0,0,0
org.apache.mina.handler.stream.IoSessionOutputStream, 0, 0, 0, 0, 0, 0, 0, 0, 0, 0, 0, 0, 0, 0,0.0,0.0,0.0,0.0,0.0,0.0,0.0,0.0,0.0,0.0,0.0,0.0,0.0,46,src\mina-core\src\main\java\org\apache\mina\handler\stream\IoSessionOutputStream.java,0,0,0,0
org.apache.mina.handler.stream.StreamIoHandler, 0, 0, 0, 0, 0, 0, 0, 0, 0, 0, 0, 0, 0, 0,0.0,0.0,0.0,0.0,0.0,0.0,0.0,0.0,0.0,0.0,0.0,0.0,0.0,75,src\mina-core\src\main\java\org\apache\mina\handler\stream\StreamIoHandler.java,0,0,0,0
org.apache.mina.http.ArrayUtil, 0, 0, 0, 0, 0, 0, 0, 0, 0, 0, 0, 0, 0, 0,0.0,0.0,0.0,0.0,0.0,0.0,0.0,0.0,0.0,0.0,0.0,0.0,0.0,12,src\mina-http\src\main\java\org\apache\mina\http\ArrayUtil.java,0,0,0,0
org.apache.mina.http.DateUtil, 0, 0, 0, 0, 0, 0, 0, 0, 0, 0, 0, 0, 0, 0,0.0,0.0,0.0,0.0,0.0,0.0,0.0,0.0,0.0,0.0,0.0,0.0,0.0,47,src\mina-http\src\main\java\org\apache\mina\http\DateUtil.java,0,0,0,0
org.apache.mina.http.HttpClientCodec, 0, 0, 0, 0, 0, 0, 0, 0, 0, 0, 0, 0, 0, 0,0.0,0.0,0.0,1.0,0.0,0.0,0.0,0.0,0.0,0.0,0.0,0.0,0.0,14,src\mina-http\src\main\java\org\apache\mina\http\HttpClientCodec.java,0,0,0,0
org.apache.mina.http.HttpException, 0, 0, 0, 0, 0, 0, 0, 0, 0, 0, 0, 0, 0, 0,0.0,0.0,0.0,0.0,0.0,0.0,0.0,0.0,0.0,0.0,0.0,0.0,0.0,20,src\mina-http\src\main\java\org\apache\mina\http\HttpException.java,0,0,0,0
org.apache.mina.http.HttpServerCodec, 0, 0, 0, 0, 0, 0, 0, 0, 0, 0, 0, 0, 0, 0,0.0,0.0,0.0,1.0,0.0,0.0,0.0,0.0,0.0,0.0,0.0,0.0,0.0,14,src\mina-http\src\main\java\org\apache\mina\http\HttpServerCodec.java,0,0,0,0
org.apache.mina.http.HttpServerDecoderTest, 0, 0, 0, 0, 0, 0, 0, 0, 0, 0, 0, 0, 0, 0,0.0,0.0,0.0,0.0,0.0,0.0,0.0,0.0,0.0,0.0,0.0,0.0,0.0,217,src\mina-http\src\test\java\org\apache\mina\http\HttpServerDecoderTest.java,0,0,0,0
org.apache.mina.http.api.HttpContentChunk, 0, 0, 0, 0, 0, 0, 0, 0, 0, 0, 0, 0, 0, 0,0.0,0.0,0.0,0.0,0.0,0.0,0.0,0.0,0.0,0.0,0.0,0.0,0.0,217,src\mina-http\src\main\java\org\apache\mina\http\api\HttpContentChunk.java,0,0,0,0
org.apache.mina.http.api.HttpEndOfContent, 0, 0, 0, 0, 0, 0, 0, 0, 0, 0, 0, 0, 0, 0,0.0,0.0,0.0,0.0,0.0,0.0,0.0,0.0,0.0,0.0,0.0,0.0,0.0,6,src\mina-http\src\main\java\org\apache\mina\http\api\HttpEndOfContent.java,0,0,0,0
org.apache.mina.http.api.HttpResponse, 0, 0, 0, 0, 0, 0, 0, 0, 0, 0, 0, 0, 0, 0,0.0,0.0,0.0,0.0,0.0,0.0,0.0,0.0,0.0,0.0,0.0,0.0,0.0,6,src\mina-http\src\main\java\org\apache\mina\http\api\HttpResponse.java,0,0,0,0
org.apache.mina.integration.beans.AbstractPropertyEditor, 0, 0, 0, 0, 0, 0, 0, 0, 0, 0, 0, 0, 0, 0,0.0,0.0,0.0,0.0,0.0,0.0,0.0,0.0,0.0,0.0,0.0,0.0,0.0,42,src\mina-integration-beans\src\main\java\org\apache\mina\integration\beans\AbstractPropertyEditor.java,0,0,0,0
org.apache.mina.integration.beans.BooleanEditor, 0, 0, 0, 0, 0, 0, 0, 0, 0, 0, 0, 0, 0, 0,0.0,0.0,0.0,0.0,0.0,0.0,0.0,0.0,0.0,0.0,0.0,0.0,0.0,18,src\mina-integration-beans\src\main\java\org\apache\mina\integration\beans\BooleanEditor.java,0,0,0,0
org.apache.mina.integration.beans.ByteEditor, 0, 0, 0, 0, 0, 0, 0, 0, 0, 0, 0, 0, 0, 0,0.0,0.0,0.0,0.0,0.0,0.0,0.0,0.0,0.0,0.0,0.0,0.0,0.0,10,src\mina-integration-beans\src\main\java\org\apache\mina\integration\beans\ByteEditor.java,0,0,0,0
org.apache.mina.integration.beans.CharacterEditor, 0, 0, 0, 0, 0, 0, 0, 0, 0, 0, 0, 0, 0, 0,0.0,0.0,0.0,0.0,0.0,0.0,0.0,0.0,0.0,0.0,0.0,0.0,0.0,20,src\mina-integration-beans\src\main\java\org\apache\mina\integration\beans\CharacterEditor.java,0,0,0,0
org.apache.mina.integration.beans.ClassEditor, 0, 0, 0, 0, 0, 0, 0, 0, 0, 0, 0, 0, 0, 0,0.0,0.0,0.0,0.0,0.0,0.0,0.0,0.0,0.0,0.0,0.0,0.0,0.0,19,src\mina-integration-beans\src\main\java\org\apache\mina\integration\beans\ClassEditor.java,0,0,0,0
org.apache.mina.integration.beans.DateEditor, 0, 0, 0, 0, 0, 0, 0, 0, 0, 0, 0, 0, 0, 0,0.0,0.0,0.0,0.0,0.0,0.0,0.0,0.0,0.0,0.0,0.0,0.0,0.0,42,src\mina-integration-beans\src\main\java\org\apache\mina\integration\beans\DateEditor.java,0,0,0,0
org.apache.mina.integration.beans.DoubleEditor, 0, 0, 0, 0, 0, 0, 0, 0, 0, 0, 0, 0, 0, 0,0.0,0.0,0.0,0.0,0.0,0.0,0.0,0.0,0.0,0.0,0.0,0.0,0.0,13,src\mina-integration-beans\src\main\java\org\apache\mina\integration\beans\DoubleEditor.java,0,0,0,0
org.apache.mina.integration.beans.EnumEditor, 0, 0, 0, 0, 0, 0, 0, 0, 0, 0, 0, 0, 0, 0,0.0,0.0,0.0,0.0,0.0,0.0,0.0,0.0,0.0,0.0,0.0,0.0,0.0,34,src\mina-integration-beans\src\main\java\org\apache\mina\integration\beans\EnumEditor.java,0,0,0,0
org.apache.mina.integration.beans.FileEditor, 0, 0, 0, 0, 0, 0, 0, 0, 0, 0, 0, 0, 0, 0,0.0,0.0,0.0,0.0,0.0,0.0,0.0,0.0,0.0,0.0,0.0,0.0,0.0,10,src\mina-integration-beans\src\main\java\org\apache\mina\integration\beans\FileEditor.java,0,0,0,0
org.apache.mina.integration.beans.FloatEditor, 0, 0, 0, 0, 0, 0, 0, 0, 0, 0, 0, 0, 0, 0,0.0,0.0,0.0,0.0,0.0,0.0,0.0,0.0,0.0,0.0,0.0,0.0,0.0,13,src\mina-integration-beans\src\main\java\org\apache\mina\integration\beans\FloatEditor.java,0,0,0,0
org.apache.mina.integration.beans.InetAddressEditor, 0, 0, 0, 0, 0, 0, 0, 0, 0, 0, 0, 0, 0, 0,0.0,0.0,0.0,0.0,0.0,0.0,0.0,0.0,0.0,0.0,0.0,0.0,0.0,36,src\mina-integration-beans\src\main\java\org\apache\mina\integration\beans\InetAddressEditor.java,0,0,0,0
org.apache.mina.integration.beans.InetAddressEditorTest, 0, 0, 0, 0, 0, 0, 0, 0, 0, 0, 0, 0, 0, 0,0.0,0.0,0.0,0.0,0.0,0.0,0.0,0.0,0.0,0.0,0.0,0.0,0.0,23,src\mina-integration-beans\src\test\java\org\apache\mina\integration\beans\InetAddressEditorTest.java,0,0,0,0
org.apache.mina.integration.beans.InetSocketAddressEditor, 0, 0, 0, 0, 0, 0, 0, 0, 0, 0, 0, 0, 0, 0,0.0,0.0,0.0,0.0,0.0,0.0,0.0,0.0,0.0,0.0,0.0,0.0,0.0,48,src\mina-integration-beans\src\main\java\org\apache\mina\integration\beans\InetSocketAddressEditor.java,0,0,0,0
org.apache.mina.integration.beans.InetSocketAddressEditorTest, 0, 0, 0, 0, 0, 0, 0, 0, 0, 0, 0, 0, 0, 0,0.0,0.0,0.0,0.0,0.0,0.0,0.0,0.0,0.0,0.0,0.0,0.0,0.0,41,src\mina-integration-beans\src\test\java\org\apache\mina\integration\beans\InetSocketAddressEditorTest.java,0,0,0,0
org.apache.mina.integration.beans.IntegerEditor, 0, 0, 0, 0, 0, 0, 0, 0, 0, 0, 0, 0, 0, 0,0.0,0.0,0.0,0.0,0.0,0.0,0.0,0.0,0.0,0.0,0.0,0.0,0.0,10,src\mina-integration-beans\src\main\java\org\apache\mina\integration\beans\IntegerEditor.java,0,0,0,0
org.apache.mina.integration.beans.ListEditor, 0, 0, 0, 0, 0, 0, 0, 0, 0, 0, 0, 0, 0, 0,0.0,0.0,0.0,0.0,0.0,0.0,0.0,0.0,0.0,0.0,0.0,0.0,0.0,9,src\mina-integration-beans\src\main\java\org\apache\mina\integration\beans\ListEditor.java,0,0,0,0
org.apache.mina.integration.beans.LongEditor, 0, 0, 0, 0, 0, 0, 0, 0, 0, 0, 0, 0, 0, 0,0.0,0.0,0.0,0.0,0.0,0.0,0.0,0.0,0.0,0.0,0.0,0.0,0.0,10,src\mina-integration-beans\src\main\java\org\apache\mina\integration\beans\LongEditor.java,0,0,0,0
org.apache.mina.integration.beans.NullEditor, 0, 0, 0, 0, 0, 0, 0, 0, 0, 0, 0, 0, 0, 0,0.0,0.0,0.0,0.0,0.0,0.0,0.0,0.0,0.0,0.0,0.0,0.0,0.0,16,src\mina-integration-beans\src\main\java\org\apache\mina\integration\beans\NullEditor.java,0,0,0,0
org.apache.mina.integration.beans.NumberEditor, 0, 0, 0, 0, 0, 0, 0, 0, 0, 0, 0, 0, 0, 0,0.0,0.0,0.0,0.0,0.0,0.0,0.0,0.0,0.0,0.0,0.0,0.0,0.0,32,src\mina-integration-beans\src\main\java\org\apache\mina\integration\beans\NumberEditor.java,0,0,0,0
org.apache.mina.integration.beans.PatternEditor, 0, 0, 0, 0, 0, 0, 0, 0, 0, 0, 0, 0, 0, 0,0.0,0.0,0.0,0.0,0.0,0.0,0.0,0.0,0.0,0.0,0.0,0.0,0.0,10,src\mina-integration-beans\src\main\java\org\apache\mina\integration\beans\PatternEditor.java,0,0,0,0
org.apache.mina.integration.beans.SetEditor, 0, 0, 0, 0, 0, 0, 0, 0, 0, 0, 0, 0, 0, 0,0.0,0.0,0.0,0.0,0.0,0.0,0.0,0.0,0.0,0.0,0.0,0.0,0.0,9,src\mina-integration-beans\src\main\java\org\apache\mina\integration\beans\SetEditor.java,0,0,0,0
org.apache.mina.integration.beans.ShortEditor, 0, 0, 0, 0, 0, 0, 0, 0, 0, 0, 0, 0, 0, 0,0.0,0.0,0.0,0.0,0.0,0.0,0.0,0.0,0.0,0.0,0.0,0.0,0.0,10,src\mina-integration-beans\src\main\java\org\apache\mina\integration\beans\ShortEditor.java,0,0,0,0
org.apache.mina.integration.beans.StringEditor, 0, 0, 0, 0, 0, 0, 0, 0, 0, 0, 0, 0, 0, 0,0.0,0.0,0.0,0.0,0.0,0.0,0.0,0.0,0.0,0.0,0.0,0.0,0.0,18,src\mina-integration-beans\src\main\java\org\apache\mina\integration\beans\StringEditor.java,0,0,0,0
org.apache.mina.integration.beans.URIEditor, 0, 0, 0, 0, 0, 0, 0, 0, 0, 0, 0, 0, 0, 0,0.0,0.0,0.0,0.0,0.0,0.0,0.0,0.0,0.0,0.0,0.0,0.0,0.0,14,src\mina-integration-beans\src\main\java\org\apache\mina\integration\beans\URIEditor.java,0,0,0,0
org.apache.mina.integration.beans.URLEditor, 0, 0, 0, 0, 0, 0, 0, 0, 0, 0, 0, 0, 0, 0,0.0,0.0,0.0,0.0,0.0,0.0,0.0,0.0,0.0,0.0,0.0,0.0,0.0,14,src\mina-integration-beans\src\main\java\org\apache\mina\integration\beans\URLEditor.java,0,0,0,0
org.apache.mina.integration.beans.VmPipeAddressEditor, 0, 0, 0, 0, 0, 0, 0, 0, 0, 0, 0, 0, 0, 0,0.0,0.0,0.0,0.0,0.0,0.0,0.0,0.0,0.0,0.0,0.0,0.0,0.0,25,src\mina-integration-beans\src\main\java\org\apache\mina\integration\beans\VmPipeAddressEditor.java,0,0,0,0
org.apache.mina.integration.beans.VmPipeAddressEditorTest, 0, 0, 0, 0, 0, 0, 0, 0, 0, 0, 0, 0, 0, 0,0.0,0.0,0.0,0.0,0.0,0.0,0.0,0.0,0.0,0.0,0.0,0.0,0.0,29,src\mina-integration-beans\src\test\java\org\apache\mina\integration\beans\VmPipeAddressEditorTest.java,0,0,0,0
org.apache.mina.integration.jmx.IoFilterMBean, 0, 0, 0, 0, 0, 0, 0, 0, 0, 0, 0, 0, 0, 0,0.0,0.0,0.0,0.0,0.0,0.0,0.0,0.0,0.0,0.0,0.0,0.0,0.0,13,src\mina-integration-jmx\src\main\java\org\apache\mina\integration\jmx\IoFilterMBean.java,0,0,0,0
org.apache.mina.integration.jmx.IoServiceMBean, 0, 0, 0, 0, 0, 0, 0, 0, 0, 0, 0, 0, 0, 0,0.0,0.0,0.0,0.0,0.0,0.0,0.0,0.0,0.0,0.0,0.0,0.0,0.0,78,src\mina-integration-jmx\src\main\java\org\apache\mina\integration\jmx\IoServiceMBean.java,0,0,0,0
org.apache.mina.integration.ognl.IoFilterPropertyAccessor, 0, 0, 0, 0, 0, 0, 0, 0, 0, 0, 0, 0, 0, 0,0.0,0.0,0.0,0.0,0.0,0.0,0.0,0.0,0.0,0.0,0.0,0.0,0.0,18,src\mina-integration-ognl\src\main\java\org\apache\mina\integration\ognl\IoFilterPropertyAccessor.java,0,0,0,0
org.apache.mina.integration.ognl.IoServicePropertyAccessor, 0, 0, 0, 0, 0, 0, 0, 0, 0, 0, 0, 0, 0, 0,0.0,0.0,0.0,0.0,0.0,0.0,0.0,0.0,0.0,0.0,0.0,0.0,0.0,18,src\mina-integration-ognl\src\main\java\org\apache\mina\integration\ognl\IoServicePropertyAccessor.java,0,0,0,0
org.apache.mina.integration.ognl.IoSessionFinder, 0, 0, 0, 0, 0, 0, 0, 0, 0, 0, 0, 0, 0, 0,0.0,0.0,0.0,0.0,0.0,0.0,0.0,0.0,0.0,0.0,0.0,0.0,0.0,41,src\mina-integration-ognl\src\main\java\org\apache\mina\integration\ognl\IoSessionFinder.java,0,0,0,0
org.apache.mina.integration.xbean.MinaPropertyEditorRegistrar, 0, 0, 0, 0, 0, 0, 0, 0, 0, 0, 0, 0, 0, 0,0.0,0.0,0.0,0.0,0.0,0.0,0.0,0.0,0.0,0.0,0.0,0.0,0.0,8,src\mina-integration-xbean\src\main\java\org\apache\mina\integration\xbean\MinaPropertyEditorRegistrar.java,0,0,0,0
org.apache.mina.integration.xbean.SocketAddressFactory, 0, 0, 0, 0, 0, 0, 0, 0, 0, 0, 0, 0, 0, 0,0.0,0.0,0.0,0.0,0.0,0.0,0.0,0.0,0.0,0.0,0.0,0.0,0.0,7,src\mina-integration-xbean\src\main\java\org\apache\mina\integration\xbean\SocketAddressFactory.java,0,0,0,0
org.apache.mina.integration.xbean.SpringXBeanTest, 0, 0, 0, 0, 0, 0, 0, 0, 0, 0, 0, 0, 0, 0,0.0,0.0,0.0,0.0,0.0,0.0,0.0,0.0,0.0,0.0,0.0,0.0,0.0,35,src\mina-integration-xbean\src\test\java\org\apache\mina\integration\xbean\SpringXBeanTest.java,0,0,0,0
org.apache.mina.integration.xbean.StandardThreadPool, 0, 0, 0, 0, 0, 0, 0, 0, 0, 0, 0, 0, 0, 0,0.0,0.0,0.0,0.0,0.0,0.0,0.0,0.0,0.0,0.0,0.0,0.0,0.0,20,src\mina-integration-xbean\src\main\java\org\apache\mina\integration\xbean\StandardThreadPool.java,0,0,0,0
org.apache.mina.proxy.AbstractProxyIoHandler, 0, 0, 0, 0, 0, 0, 0, 0, 0, 0, 0, 0, 0, 0,0.0,0.0,0.0,0.25,0.0,0.0,0.0,0.0,0.0,0.0,0.0,0.0,0.0,13,src\mina-core\src\main\java\org\apache\mina\proxy\AbstractProxyIoHandler.java,0,0,0,0
org.apache.mina.proxy.AbstractProxyLogicHandler, 0, 0, 0, 0, 0, 0, 0, 0, 0, 0, 0, 0, 0, 0,0.0,0.0,0.0,0.1111111111111111,0.0,0.1111111111111111,0.0,0.0,0.0,0.0,0.0,0.0,0.0,87,src\mina-core\src\main\java\org\apache\mina\proxy\AbstractProxyLogicHandler.java,0,0,0,0
org.apache.mina.proxy.ProxyAuthException, 0, 0, 0, 0, 0, 0, 0, 0, 0, 0, 0, 0, 0, 0,0.0,0.0,0.0,0.0,0.0,0.0,0.0,0.0,0.0,0.0,0.0,0.0,0.0,8,src\mina-core\src\main\java\org\apache\mina\proxy\ProxyAuthException.java,0,0,0,0
org.apache.mina.proxy.ProxyConnector, 0, 0, 0, 0, 0, 0, 0, 0, 0, 0, 0, 0, 0, 0,0.0,0.0,0.0,0.375,0.0,0.0,0.0,0.0,0.0,0.0,0.0,0.0,0.0,83,src\mina-core\src\main\java\org\apache\mina\proxy\ProxyConnector.java,0,0,0,0
org.apache.mina.proxy.ProxyLogicHandler, 0, 0, 0, 0, 0, 0, 0, 0, 0, 0, 0, 0, 0, 0,0.0,0.0,0.0,0.0,0.0,0.0,0.0,0.0,0.0,0.0,0.0,0.0,0.0,83,src\mina-core\src\main\java\org\apache\mina\proxy\ProxyLogicHandler.java,0,0,0,0
org.apache.mina.proxy.event.IoSessionEventQueue, 0, 0, 0, 0, 0, 0, 0, 0, 0, 0, 0, 0, 0, 0,0.0,0.0,0.0,0.25,0.0,0.0,0.0,0.0,0.0,0.0,0.0,0.0,0.0,53,src\mina-core\src\main\java\org\apache\mina\proxy\event\IoSessionEventQueue.java,0,0,0,0
org.apache.mina.proxy.filter.ProxyFilter, 0, 0, 0, 0, 0, 0, 0, 0, 0, 0, 0, 0, 0, 0,0.0,0.0,0.0,0.125,0.0,0.0,0.0,0.0,0.0,0.0,0.0,0.0,0.0,129,src\mina-core\src\main\java\org\apache\mina\proxy\filter\ProxyFilter.java,0,0,0,0
org.apache.mina.proxy.filter.ProxyHandshakeIoBuffer, 0, 0, 0, 0, 0, 1, 0, 0, 0, 0, 0, 0, 0, 1,0.0,0.0,0.0,0.0,0.0,0.0,0.0,0.0,0.0,0.0,0.0,0.0,0.0,4,src\mina-core\src\main\java\org\apache\mina\proxy\filter\ProxyHandshakeIoBuffer.java,0,0,0,0
org.apache.mina.proxy.handlers.ProxyRequest, 0, 0, 0, 0, 0, 0, 0, 0, 0, 0, 0, 0, 0, 0,0.0,0.0,0.0,0.3333333333333333,0.0,0.0,0.0,0.0,0.0,0.0,0.0,0.0,0.0,10,src\mina-core\src\main\java\org\apache\mina\proxy\handlers\ProxyRequest.java,0,0,0,0
org.apache.mina.proxy.handlers.http.HttpProxyConstants, 0, 0, 0, 0, 0, 0, 0, 0, 0, 0, 0, 0, 0, 0,0.0,0.0,0.0,0.0,0.0,0.0,0.0,0.0,0.0,0.0,0.0,0.0,0.0,12,src\mina-core\src\main\java\org\apache\mina\proxy\handlers\http\HttpProxyConstants.java,0,0,0,0
org.apache.mina.proxy.handlers.http.basic.HttpNoAuthLogicHandler, 0, 0, 0, 0, 0, 0, 0, 0, 0, 0, 0, 0, 0, 0,0.0,0.0,0.0,0.5,0.0,0.0,0.0,0.0,0.0,0.0,0.0,0.0,0.0,15,src\mina-core\src\main\java\org\apache\mina\proxy\handlers\http\basic\HttpNoAuthLogicHandler.java,0,0,0,0
org.apache.mina.proxy.handlers.http.ntlm.NTLMConstants, 0, 0, 0, 0, 0, 0, 0, 0, 0, 0, 0, 0, 0, 0,0.0,0.0,0.0,0.0,0.0,0.0,0.0,0.0,0.0,0.0,0.0,0.0,0.0,15,src\mina-core\src\main\java\org\apache\mina\proxy\handlers\http\ntlm\NTLMConstants.java,0,0,0,0
org.apache.mina.proxy.handlers.http.ntlm.NTLMResponses, 0, 0, 0, 0, 0, 0, 0, 1, 0, 0, 0, 0, 0, 1,0.0,0.0,0.0,0.0,0.0,0.0,0.0,0.0,0.0,0.0,0.0,0.0,0.0,171,src\mina-core\src\main\java\org\apache\mina\proxy\handlers\http\ntlm\NTLMResponses.java,0,0,0,0
org.apache.mina.proxy.handlers.socks.AbstractSocksLogicHandler, 0, 0, 0, 0, 0, 0, 0, 0, 0, 0, 0, 0, 0, 0,0.0,0.0,0.0,0.2,0.0,0.0,0.0,0.0,0.0,0.0,0.0,0.0,0.0,6,src\mina-core\src\main\java\org\apache\mina\proxy\handlers\socks\AbstractSocksLogicHandler.java,0,0,0,0
org.apache.mina.proxy.handlers.socks.Socks4LogicHandler, 0, 0, 0, 0, 0, 0, 0, 0, 0, 0, 0, 0, 0, 0,0.0,0.0,0.0,0.3333333333333333,0.0,0.0,0.0,0.0,0.0,0.0,0.0,0.0,0.0,63,src\mina-core\src\main\java\org\apache\mina\proxy\handlers\socks\Socks4LogicHandler.java,0,0,0,0
org.apache.mina.proxy.handlers.socks.Socks5LogicHandler, 0, 0, 0, 0, 0, 0, 0, 0, 0, 0, 0, 0, 0, 0,0.0,0.0,0.0,0.2857142857142857,0.0,0.0,0.0,0.0,0.0,0.0,0.0,0.0,0.0,253,src\mina-core\src\main\java\org\apache\mina\proxy\handlers\socks\Socks5LogicHandler.java,0,0,0,0
org.apache.mina.proxy.handlers.socks.SocksProxyConstants, 0, 0, 0, 1, 0, 0, 0, 0, 0, 0, 0, 0, 0, 1,0.0,0.0,0.0,0.0,0.0,0.0,0.0,0.0,0.0,0.0,0.0,0.0,0.0,71,src\mina-core\src\main\java\org\apache\mina\proxy\handlers\socks\SocksProxyConstants.java,0,0,0,0
org.apache.mina.proxy.handlers.socks.SocksProxyRequest, 0, 0, 0, 0, 0, 0, 0, 0, 0, 0, 0, 0, 0, 0,0.0,0.0,0.0,0.0,0.0,0.0,0.0,0.0,0.0,0.0,0.0,0.0,0.0,64,src\mina-core\src\main\java\org\apache\mina\proxy\handlers\socks\SocksProxyRequest.java,0,0,0,0
org.apache.mina.proxy.session.ProxyIoSession, 0, 0, 0, 1, 0, 0, 0, 0, 0, 0, 0, 0, 0, 1,0.0,0.0,0.0,0.0,0.0,0.0,0.0,0.0,0.0,0.0,0.0,0.0,0.0,93,src\mina-core\src\main\java\org\apache\mina\proxy\session\ProxyIoSession.java,0,0,0,0
org.apache.mina.proxy.session.ProxyIoSessionInitializer, 0, 0, 0, 0, 0, 0, 0, 0, 0, 0, 0, 0, 0, 0,0.0,0.0,0.0,0.5,0.0,0.0,0.0,0.0,0.0,0.0,0.0,0.0,0.0,20,src\mina-core\src\main\java\org\apache\mina\proxy\session\ProxyIoSessionInitializer.java,0,0,0,0
org.apache.mina.proxy.utils.IoBufferDecoder, 0, 0, 0, 0, 0, 0, 0, 0, 0, 0, 0, 0, 0, 0,0.0,0.0,0.0,0.0,0.0,0.0,0.0,0.0,0.0,0.0,0.0,0.0,0.0,122,src\mina-core\src\main\java\org\apache\mina\proxy\utils\IoBufferDecoder.java,0,0,0,0
org.apache.mina.statemachine.BreakAndCallException, 0, 0, 0, 0, 0, 0, 0, 0, 0, 0, 0, 0, 0, 0,0.0,0.0,0.0,0.0,0.0,0.0,0.0,0.0,0.0,0.0,0.0,0.0,0.0,26,src\mina-statemachine\src\main\java\org\apache\mina\statemachine\BreakAndCallException.java,0,0,0,0
org.apache.mina.statemachine.BreakAndContinueException, 0, 0, 0, 0, 0, 0, 0, 0, 0, 0, 0, 0, 0, 0,0.0,0.0,0.0,0.0,0.0,0.0,0.0,0.0,0.0,0.0,0.0,0.0,0.0,3,src\mina-statemachine\src\main\java\org\apache\mina\statemachine\BreakAndContinueException.java,0,0,0,0
org.apache.mina.statemachine.BreakAndGotoException, 0, 0, 0, 0, 0, 0, 0, 0, 0, 0, 0, 0, 0, 0,0.0,0.0,0.0,0.0,0.0,0.0,0.0,0.0,0.0,0.0,0.0,0.0,0.0,18,src\mina-statemachine\src\main\java\org\apache\mina\statemachine\BreakAndGotoException.java,0,0,0,0
org.apache.mina.statemachine.BreakAndReturnException, 0, 0, 0, 0, 0, 0, 0, 0, 0, 0, 0, 0, 0, 0,0.0,0.0,0.0,0.0,0.0,0.0,0.0,0.0,0.0,0.0,0.0,0.0,0.0,10,src\mina-statemachine\src\main\java\org\apache\mina\statemachine\BreakAndReturnException.java,0,0,0,0
org.apache.mina.statemachine.BreakException, 0, 0, 0, 0, 0, 0, 0, 0, 0, 0, 0, 0, 0, 0,0.0,0.0,0.0,0.0,0.0,0.0,0.0,0.0,0.0,0.0,0.0,0.0,0.0,5,src\mina-statemachine\src\main\java\org\apache\mina\statemachine\BreakException.java,0,0,0,0
org.apache.mina.statemachine.NoSuchStateException, 0, 0, 0, 0, 0, 0, 0, 0, 0, 0, 0, 0, 0, 0,0.0,0.0,0.0,0.0,0.0,0.0,0.0,0.0,0.0,0.0,0.0,0.0,0.0,6,src\mina-statemachine\src\main\java\org\apache\mina\statemachine\NoSuchStateException.java,0,0,0,0
org.apache.mina.statemachine.State, 0, 0, 0, 0, 0, 0, 0, 0, 0, 0, 0, 0, 0, 0,0.0,0.0,0.0,0.0,0.0,0.0,0.0,0.0,0.0,0.0,0.0,0.0,0.0,92,src\mina-statemachine\src\main\java\org\apache\mina\statemachine\State.java,0,0,0,0
org.apache.mina.statemachine.StateControl, 0, 0, 0, 0, 0, 0, 0, 0, 0, 0, 0, 0, 0, 0,0.0,0.0,0.0,0.25,0.0,0.0,0.0,0.0,0.0,0.0,0.0,0.0,0.0,29,src\mina-statemachine\src\main\java\org\apache\mina\statemachine\StateControl.java,0,0,0,0
org.apache.mina.statemachine.StateMachineCreationException, 0, 0, 0, 0, 0, 0, 0, 0, 0, 0, 0, 0, 0, 0,0.0,0.0,0.0,0.0,0.0,0.0,0.0,0.0,0.0,0.0,0.0,0.0,0.0,9,src\mina-statemachine\src\main\java\org\apache\mina\statemachine\StateMachineCreationException.java,0,0,0,0
org.apache.mina.statemachine.StateMachineFactoryTest, 0, 0, 0, 0, 0, 0, 0, 0, 0, 0, 0, 0, 0, 0,0.0,0.0,0.0,0.0,0.0,0.0,0.0,0.0,0.0,0.0,0.0,0.0,0.0,109,src\mina-statemachine\src\test\java\org\apache\mina\statemachine\StateMachineFactoryTest.java,0,0,0,0
org.apache.mina.statemachine.StateMachineProxyBuilder, 0, 0, 0, 0, 0, 0, 0, 0, 0, 0, 0, 0, 0, 0,0.0,0.0,0.0,0.0,0.0,0.0,0.0,0.0,0.0,0.0,0.0,0.0,0.0,109,src\mina-statemachine\src\main\java\org\apache\mina\statemachine\StateMachineProxyBuilder.java,0,0,0,0
org.apache.mina.statemachine.StateMachineProxyBuilderTest, 0, 0, 0, 0, 0, 0, 0, 0, 0, 0, 0, 0, 0, 0,0.0,0.0,0.0,0.0,0.0,0.0,0.0,0.0,0.0,0.0,0.0,0.0,0.0,184,src\mina-statemachine\src\test\java\org\apache\mina\statemachine\StateMachineProxyBuilderTest.java,0,0,0,0
org.apache.mina.statemachine.StateMachineTest, 0, 0, 0, 0, 0, 0, 0, 0, 0, 0, 0, 0, 0, 0,0.0,0.0,0.0,0.0,0.0,0.0,0.0,0.0,0.0,0.0,0.0,0.0,0.0,119,src\mina-statemachine\src\test\java\org\apache\mina\statemachine\StateMachineTest.java,0,0,0,0
org.apache.mina.statemachine.StateTest, 0, 0, 0, 0, 0, 0, 0, 0, 0, 0, 0, 0, 0, 0,0.0,0.0,0.0,0.0,0.0,0.0,0.0,0.0,0.0,0.0,0.0,0.0,0.0,55,src\mina-statemachine\src\test\java\org\apache\mina\statemachine\StateTest.java,0,0,0,0
org.apache.mina.statemachine.context.AbstractStateContextLookup, 0, 0, 0, 0, 0, 0, 0, 0, 0, 0, 0, 0, 0, 0,0.0,0.0,0.0,0.0,0.0,0.0,0.0,0.0,0.0,0.0,0.0,0.0,0.0,25,src\mina-statemachine\src\main\java\org\apache\mina\statemachine\context\AbstractStateContextLookup.java,0,0,0,0
org.apache.mina.statemachine.context.DefaultStateContext, 0, 0, 0, 0, 0, 1, 0, 0, 0, 0, 0, 0, 0, 1,0.0,0.0,0.0,0.0,0.0,0.0,0.0,0.0,0.0,0.0,0.0,0.0,0.0,2,src\mina-statemachine\src\main\java\org\apache\mina\statemachine\context\DefaultStateContext.java,0,0,0,0
org.apache.mina.statemachine.context.DefaultStateContextFactory, 0, 0, 0, 0, 0, 0, 0, 0, 0, 0, 0, 0, 0, 0,0.0,0.0,0.0,0.0,0.0,0.0,0.0,0.0,0.0,0.0,0.0,0.0,0.0,5,src\mina-statemachine\src\main\java\org\apache\mina\statemachine\context\DefaultStateContextFactory.java,0,0,0,0
org.apache.mina.statemachine.context.IoSessionStateContextLookup, 0, 0, 0, 0, 0, 0, 0, 0, 0, 0, 0, 0, 0, 0,0.0,0.0,0.0,0.0,0.0,0.0,0.0,0.0,0.0,0.0,0.0,0.0,0.0,29,src\mina-statemachine\src\main\java\org\apache\mina\statemachine\context\IoSessionStateContextLookup.java,0,0,0,0
org.apache.mina.statemachine.context.SingletonStateContextLookup, 0, 0, 0, 0, 0, 0, 0, 0, 0, 0, 0, 0, 0, 0,0.0,0.0,0.0,0.0,0.0,0.0,0.0,0.0,0.0,0.0,0.0,0.0,0.0,15,src\mina-statemachine\src\main\java\org\apache\mina\statemachine\context\SingletonStateContextLookup.java,0,0,0,0
org.apache.mina.statemachine.context.StateContext, 0, 0, 0, 0, 0, 0, 0, 0, 0, 0, 0, 0, 0, 0,0.0,0.0,0.0,0.0,0.0,0.0,0.0,0.0,0.0,0.0,0.0,0.0,0.0,15,src\mina-statemachine\src\main\java\org\apache\mina\statemachine\context\StateContext.java,0,0,0,0
org.apache.mina.statemachine.context.StateContextFactory, 0, 0, 0, 0, 0, 0, 0, 0, 0, 0, 0, 0, 0, 0,0.0,0.0,0.0,0.0,0.0,0.0,0.0,0.0,0.0,0.0,0.0,0.0,0.0,15,src\mina-statemachine\src\main\java\org\apache\mina\statemachine\context\StateContextFactory.java,0,0,0,0
org.apache.mina.statemachine.context.StateContextLookup, 0, 0, 0, 0, 0, 0, 0, 0, 0, 0, 0, 0, 0, 0,0.0,0.0,0.0,0.0,0.0,0.0,0.0,0.0,0.0,0.0,0.0,0.0,0.0,15,src\mina-statemachine\src\main\java\org\apache\mina\statemachine\context\StateContextLookup.java,0,0,0,0
org.apache.mina.statemachine.event.DefaultEventFactory, 0, 0, 0, 0, 0, 0, 0, 0, 0, 0, 0, 0, 0, 0,0.0,0.0,0.0,0.0,0.0,0.0,0.0,0.0,0.0,0.0,0.0,0.0,0.0,5,src\mina-statemachine\src\main\java\org\apache\mina\statemachine\event\DefaultEventFactory.java,0,0,0,0
org.apache.mina.statemachine.event.Event, 0, 0, 0, 0, 0, 0, 0, 0, 0, 0, 0, 0, 0, 0,0.0,0.0,0.0,0.0,0.0,0.0,0.0,0.0,0.0,0.0,0.0,0.0,0.0,36,src\mina-statemachine\src\main\java\org\apache\mina\statemachine\event\Event.java,0,0,0,0
org.apache.mina.statemachine.event.EventArgumentsInterceptor, 0, 0, 0, 0, 0, 0, 0, 0, 0, 0, 0, 0, 0, 0,0.0,0.0,0.0,0.0,0.0,0.0,0.0,0.0,0.0,0.0,0.0,0.0,0.0,36,src\mina-statemachine\src\main\java\org\apache\mina\statemachine\event\EventArgumentsInterceptor.java,0,0,0,0
org.apache.mina.statemachine.event.EventFactory, 0, 0, 0, 0, 0, 0, 0, 0, 0, 0, 0, 0, 0, 0,0.0,0.0,0.0,0.0,0.0,0.0,0.0,0.0,0.0,0.0,0.0,0.0,0.0,36,src\mina-statemachine\src\main\java\org\apache\mina\statemachine\event\EventFactory.java,0,0,0,0
org.apache.mina.statemachine.event.UnhandledEventException, 0, 0, 0, 0, 0, 0, 0, 0, 0, 0, 0, 0, 0, 0,0.0,0.0,0.0,0.0,0.0,0.0,0.0,0.0,0.0,0.0,0.0,0.0,0.0,11,src\mina-statemachine\src\main\java\org\apache\mina\statemachine\event\UnhandledEventException.java,0,0,0,0
org.apache.mina.statemachine.transition.AbstractSelfTransition, 0, 0, 0, 0, 0, 0, 0, 0, 0, 0, 0, 0, 0, 0,0.0,0.0,0.0,0.0,0.0,0.0,0.0,0.0,0.0,0.0,0.0,0.0,0.0,8,src\mina-statemachine\src\main\java\org\apache\mina\statemachine\transition\AbstractSelfTransition.java,0,0,0,0
org.apache.mina.statemachine.transition.AbstractTransition, 0, 0, 0, 0, 0, 0, 0, 0, 0, 0, 0, 0, 0, 0,0.0,0.0,0.0,0.0,0.0,0.0,0.0,0.0,0.0,0.0,0.0,0.0,0.0,37,src\mina-statemachine\src\main\java\org\apache\mina\statemachine\transition\AbstractTransition.java,0,0,0,0
org.apache.mina.statemachine.transition.AmbiguousMethodException, 0, 0, 0, 0, 0, 0, 0, 0, 0, 0, 0, 0, 0, 0,0.0,0.0,0.0,0.0,0.0,0.0,0.0,0.0,0.0,0.0,0.0,0.0,0.0,6,src\mina-statemachine\src\main\java\org\apache\mina\statemachine\transition\AmbiguousMethodException.java,0,0,0,0
org.apache.mina.statemachine.transition.MethodInvocationException, 0, 0, 0, 0, 0, 0, 0, 0, 0, 0, 0, 0, 0, 0,0.0,0.0,0.0,0.0,0.0,0.0,0.0,0.0,0.0,0.0,0.0,0.0,0.0,6,src\mina-statemachine\src\main\java\org\apache\mina\statemachine\transition\MethodInvocationException.java,0,0,0,0
org.apache.mina.statemachine.transition.MethodSelfTransition, 0, 0, 0, 0, 0, 0, 0, 0, 0, 0, 0, 0, 0, 0,0.0,0.0,0.0,0.0,0.0,0.0,0.0,0.0,0.0,0.0,0.0,0.0,0.0,66,src\mina-statemachine\src\main\java\org\apache\mina\statemachine\transition\MethodSelfTransition.java,0,0,0,0
org.apache.mina.statemachine.transition.MethodTransition, 0, 0, 0, 0, 0, 0, 0, 0, 0, 0, 0, 0, 0, 0,0.0,0.0,0.0,0.0,0.0,0.0,0.0,0.0,0.0,0.0,0.0,0.0,0.0,139,src\mina-statemachine\src\main\java\org\apache\mina\statemachine\transition\MethodTransition.java,0,0,0,0
org.apache.mina.statemachine.transition.MethodTransitionTest, 0, 0, 0, 0, 0, 0, 0, 0, 0, 0, 0, 0, 0, 0,0.0,0.0,0.0,0.0,0.0,0.0,0.0,0.0,0.0,0.0,0.0,0.0,0.0,100,src\mina-statemachine\src\test\java\org\apache\mina\statemachine\transition\MethodTransitionTest.java,0,0,0,0
org.apache.mina.statemachine.transition.NoSuchMethodException, 0, 0, 0, 0, 0, 0, 0, 0, 0, 0, 0, 0, 0, 0,0.0,0.0,0.0,0.0,0.0,0.0,0.0,0.0,0.0,0.0,0.0,0.0,0.0,6,src\mina-statemachine\src\main\java\org\apache\mina\statemachine\transition\NoSuchMethodException.java,0,0,0,0
org.apache.mina.statemachine.transition.NoopTransition, 0, 0, 0, 0, 0, 0, 0, 0, 0, 0, 0, 0, 0, 0,0.0,0.0,0.0,0.0,0.0,0.0,0.0,0.0,0.0,0.0,0.0,0.0,0.0,11,src\mina-statemachine\src\main\java\org\apache\mina\statemachine\transition\NoopTransition.java,0,0,0,0
org.apache.mina.statemachine.transition.SelfTransition, 0, 0, 0, 0, 0, 0, 0, 0, 0, 0, 0, 0, 0, 0,0.0,0.0,0.0,0.0,0.0,0.0,0.0,0.0,0.0,0.0,0.0,0.0,0.0,11,src\mina-statemachine\src\main\java\org\apache\mina\statemachine\transition\SelfTransition.java,0,0,0,0
org.apache.mina.statemachine.transition.Transition, 0, 0, 0, 0, 0, 0, 0, 0, 0, 0, 0, 0, 0, 0,0.0,0.0,0.0,0.0,0.0,0.0,0.0,0.0,0.0,0.0,0.0,0.0,0.0,11,src\mina-statemachine\src\main\java\org\apache\mina\statemachine\transition\Transition.java,0,0,0,0
org.apache.mina.transport.AbstractBindTest, 0, 0, 0, 0, 0, 0, 0, 0, 0, 0, 0, 0, 0, 0,0.0,0.0,0.0,0.0,0.0,0.0,0.0,0.0,0.0,0.0,0.0,0.0,0.0,179,src\mina-core\src\test\java\org\apache\mina\transport\AbstractBindTest.java,0,0,0,0
org.apache.mina.transport.AbstractFileRegionTest, 0, 0, 0, 0, 0, 0, 0, 0, 0, 0, 0, 0, 0, 0,0.0,0.0,0.0,0.0,0.0,0.0,0.0,0.0,0.0,0.0,0.0,0.0,0.0,92,src\mina-core\src\test\java\org\apache\mina\transport\AbstractFileRegionTest.java,0,0,0,0
org.apache.mina.transport.serial.DefaultSerialSessionConfig, 0, 0, 0, 0, 0, 0, 0, 0, 0, 0, 0, 0, 0, 0,0.0,0.0,0.0,0.6666666666666666,0.0,0.0,0.0,0.0,0.0,0.0,0.0,0.0,0.0,40,src\mina-transport-serial\src\main\java\org\apache\mina\transport\serial\DefaultSerialSessionConfig.java,0,0,0,0
org.apache.mina.transport.serial.SerialAddress, 0, 0, 0, 0, 0, 0, 0, 1, 0, 0, 0, 0, 0, 1,0.0,0.0,0.0,0.3333333333333333,0.0,0.0,0.0,0.0,0.0,0.0,0.0,0.0,0.0,133,src\mina-transport-serial\src\main\java\org\apache\mina\transport\serial\SerialAddress.java,0,0,0,0
org.apache.mina.transport.serial.SerialAddressEditor, 0, 0, 0, 0, 0, 0, 0, 0, 0, 0, 0, 0, 0, 0,0.0,0.0,0.0,0.0,0.0,0.0,0.0,0.5,0.0,0.0,0.0,0.0,0.0,117,src\mina-transport-serial\src\main\java\org\apache\mina\transport\serial\SerialAddressEditor.java,0,0,0,0
org.apache.mina.transport.serial.SerialConnector, 0, 0, 0, 0, 0, 0, 0, 0, 0, 0, 0, 0, 0, 0,0.0,0.0,0.0,0.2857142857142857,0.0,0.0,0.0,0.14285714285714285,0.0,0.0,0.0,0.0,0.0,98,src\mina-transport-serial\src\main\java\org\apache\mina\transport\serial\SerialConnector.java,0,0,0,0
org.apache.mina.transport.serial.SerialPortUnavailableException, 0, 0, 0, 0, 0, 0, 0, 0, 0, 0, 0, 0, 0, 0,0.0,0.0,0.0,0.0,0.0,0.0,0.0,0.0,0.0,0.0,0.0,0.0,0.0,6,src\mina-transport-serial\src\main\java\org\apache\mina\transport\serial\SerialPortUnavailableException.java,0,0,0,0
org.apache.mina.transport.serial.SerialSession, 0, 0, 0, 0, 0, 0, 0, 0, 0, 0, 0, 0, 0, 0,0.0,0.0,0.0,0.0,0.0,0.0,0.0,0.0,0.0,0.0,0.0,0.0,0.0,6,src\mina-transport-serial\src\main\java\org\apache\mina\transport\serial\SerialSession.java,0,0,0,0
org.apache.mina.transport.serial.SerialSessionConfig, 0, 0, 0, 0, 0, 0, 0, 0, 0, 0, 0, 0, 0, 0,0.0,0.0,0.0,0.0,0.0,0.0,0.0,0.0,0.0,0.0,0.0,0.0,0.0,6,src\mina-transport-serial\src\main\java\org\apache\mina\transport\serial\SerialSessionConfig.java,0,0,0,0
org.apache.mina.transport.serial.SerialSessionImpl, 0, 0, 0, 1, 0, 0, 0, 0, 0, 0, 0, 0, 0, 1,0.0,0.0,0.0,0.2,0.0,0.0,0.0,0.4,0.0,0.0,0.0,0.0,0.0,212,src\mina-transport-serial\src\main\java\org\apache\mina\transport\serial\SerialSessionImpl.java,0,0,0,0
org.apache.mina.transport.socket.AbstractDatagramSessionConfig, 0, 0, 0, 0, 0, 0, 0, 0, 0, 0, 0, 0, 0, 0,0.0,0.0,0.0,0.6666666666666666,0.0,0.0,0.0,0.0,0.0,0.0,0.0,0.0,0.0,59,src\mina-core\src\main\java\org\apache\mina\transport\socket\AbstractDatagramSessionConfig.java,0,0,0,0
org.apache.mina.transport.socket.AbstractSocketSessionConfig, 0, 0, 0, 0, 0, 0, 0, 0, 0, 0, 0, 0, 0, 0,0.0,0.0,0.0,1.0,0.0,0.0,0.0,0.0,0.0,0.0,0.0,0.0,0.0,72,src\mina-core\src\main\java\org\apache\mina\transport\socket\AbstractSocketSessionConfig.java,0,0,0,0
org.apache.mina.transport.socket.DatagramAcceptor, 0, 0, 0, 0, 0, 0, 0, 0, 0, 0, 0, 0, 0, 0,0.0,0.0,0.0,0.0,0.0,0.0,0.0,0.0,0.0,0.0,0.0,0.0,0.0,72,src\mina-core\src\main\java\org\apache\mina\transport\socket\DatagramAcceptor.java,0,0,0,0
org.apache.mina.transport.socket.DatagramConnector, 0, 0, 0, 0, 0, 0, 0, 0, 0, 0, 0, 0, 0, 0,0.0,0.0,0.0,0.0,0.0,0.0,0.0,0.0,0.0,0.0,0.0,0.0,0.0,72,src\mina-core\src\main\java\org\apache\mina\transport\socket\DatagramConnector.java,0,0,0,0
org.apache.mina.transport.socket.DatagramSessionConfig, 0, 0, 0, 0, 0, 0, 0, 0, 0, 0, 0, 0, 0, 0,0.0,0.0,0.0,0.0,0.0,0.0,0.0,0.0,0.0,0.0,0.0,0.0,0.0,72,src\mina-core\src\main\java\org\apache\mina\transport\socket\DatagramSessionConfig.java,0,0,0,0
org.apache.mina.transport.socket.DefaultDatagramSessionConfig, 0, 0, 0, 1, 0, 0, 0, 0, 0, 0, 0, 0, 0, 1,0.0,0.0,0.0,0.5,0.0,0.0,0.0,0.0,0.0,0.0,0.0,0.0,0.0,63,src\mina-core\src\main\java\org\apache\mina\transport\socket\DefaultDatagramSessionConfig.java,0,0,0,0
org.apache.mina.transport.socket.DefaultSocketSessionConfig, 0, 0, 0, 1, 0, 0, 0, 0, 0, 0, 0, 0, 0, 1,0.0,0.0,0.0,0.3333333333333333,0.0,0.0,0.0,0.0,0.0,0.0,0.0,0.0,0.0,109,src\mina-core\src\main\java\org\apache\mina\transport\socket\DefaultSocketSessionConfig.java,0,0,0,0
org.apache.mina.transport.socket.SocketAcceptor, 0, 0, 0, 0, 0, 0, 0, 0, 0, 0, 0, 0, 0, 0,0.0,0.0,0.0,0.0,0.0,0.0,0.0,0.0,0.0,0.0,0.0,0.0,0.0,109,src\mina-core\src\main\java\org\apache\mina\transport\socket\SocketAcceptor.java,0,0,0,0
org.apache.mina.transport.socket.SocketConnector, 0, 0, 0, 0, 0, 0, 0, 0, 0, 0, 0, 0, 0, 0,0.0,0.0,0.0,0.0,0.0,0.0,0.0,0.0,0.0,0.0,0.0,0.0,0.0,109,src\mina-core\src\main\java\org\apache\mina\transport\socket\SocketConnector.java,0,0,0,0
org.apache.mina.transport.socket.SocketSessionConfig, 0, 0, 0, 0, 0, 0, 0, 0, 0, 0, 0, 0, 0, 0,0.0,0.0,0.0,0.0,0.0,0.0,0.0,0.0,0.0,0.0,0.0,0.0,0.0,109,src\mina-core\src\main\java\org\apache\mina\transport\socket\SocketSessionConfig.java,0,0,0,0
org.apache.mina.transport.socket.apr.AprDatagramSession, 0, 0, 0, 0, 0, 0, 0, 0, 0, 0, 0, 0, 0, 0,0.0,0.0,0.0,1.0,0.0,0.0,0.0,0.0,0.0,0.0,0.0,0.0,0.0,58,src\mina-transport-apr\src\main\java\org\apache\mina\transport\socket\apr\AprDatagramSession.java,0,0,0,0
org.apache.mina.transport.socket.apr.AprLibrary, 0, 0, 0, 0, 0, 0, 0, 0, 0, 0, 0, 0, 0, 0,0.0,0.0,0.0,1.0,0.0,0.0,0.0,0.0,0.0,0.0,0.0,0.0,0.0,32,src\mina-transport-apr\src\main\java\org\apache\mina\transport\socket\apr\AprLibrary.java,0,0,0,0
org.apache.mina.transport.socket.apr.AprSession, 0, 0, 0, 1, 0, 0, 0, 0, 0, 0, 0, 0, 0, 1,0.0,0.0,0.0,0.5,0.0,0.0,0.0,0.25,0.0,0.0,0.0,0.0,0.0,75,src\mina-transport-apr\src\main\java\org\apache\mina\transport\socket\apr\AprSession.java,0,0,0,0
org.apache.mina.transport.socket.apr.AprSocketAcceptor, 0, 0, 0, 1, 0, 0, 0, 0, 0, 0, 0, 0, 0, 1,0.0,0.0,0.0,0.5,0.0,0.0,0.0,0.0,0.0,0.0,0.0,0.0,0.0,205,src\mina-transport-apr\src\main\java\org\apache\mina\transport\socket\apr\AprSocketAcceptor.java,0,0,0,0
org.apache.mina.transport.socket.apr.AprSocketSession, 0, 0, 0, 0, 0, 0, 0, 0, 0, 0, 0, 0, 0, 0,0.0,0.0,0.0,1.0,0.0,0.0,0.0,0.0,0.0,0.0,0.0,0.0,0.0,87,src\mina-transport-apr\src\main\java\org\apache\mina\transport\socket\apr\AprSocketSession.java,0,0,0,0
org.apache.mina.transport.socket.nio.DIRMINA777Test, 0, 0, 0, 0, 0, 0, 0, 0, 0, 0, 0, 0, 0, 0,0.0,0.0,0.0,0.0,0.0,0.0,0.0,0.0,0.0,0.0,0.0,0.0,0.0,39,src\mina-core\src\test\java\org\apache\mina\transport\socket\nio\DIRMINA777Test.java,0,0,0,0
org.apache.mina.transport.socket.nio.DatagramBindTest, 0, 0, 0, 0, 0, 0, 0, 0, 0, 0, 0, 0, 0, 0,0.0,0.0,0.0,0.5,0.0,0.0,0.0,0.0,0.0,0.0,0.0,0.0,0.0,17,src\mina-core\src\test\java\org\apache\mina\transport\socket\nio\DatagramBindTest.java,0,0,0,0
org.apache.mina.transport.socket.nio.DatagramConfigTest, 0, 0, 0, 0, 0, 0, 0, 0, 0, 0, 0, 0, 0, 0,0.0,0.0,0.0,1.0,0.0,0.0,0.0,0.0,0.0,0.0,0.0,0.0,0.0,64,src\mina-core\src\test\java\org\apache\mina\transport\socket\nio\DatagramConfigTest.java,0,0,0,0
org.apache.mina.transport.socket.nio.DatagramConnectorTest, 0, 0, 0, 0, 0, 0, 0, 0, 0, 0, 0, 0, 0, 0,0.0,0.0,0.0,1.0,0.0,0.0,0.0,0.0,0.0,0.0,0.0,0.0,0.0,13,src\mina-core\src\test\java\org\apache\mina\transport\socket\nio\DatagramConnectorTest.java,0,0,0,0
org.apache.mina.transport.socket.nio.DatagramPortUnreachableTest, 0, 0, 0, 0, 0, 0, 0, 0, 0, 0, 0, 0, 0, 0,0.0,0.0,0.0,1.0,0.0,0.0,0.0,0.0,0.0,0.0,0.0,0.0,0.0,39,src\mina-core\src\test\java\org\apache\mina\transport\socket\nio\DatagramPortUnreachableTest.java,0,0,0,0
org.apache.mina.transport.socket.nio.DatagramSessionIdleTest, 0, 0, 0, 0, 0, 0, 0, 0, 0, 0, 0, 0, 0, 0,0.0,0.0,0.0,0.0,0.0,0.0,0.0,0.0,0.0,0.0,0.0,0.0,0.0,67,src\mina-core\src\test\java\org\apache\mina\transport\socket\nio\DatagramSessionIdleTest.java,0,0,0,0
org.apache.mina.transport.socket.nio.DatagramTrafficControlTest, 0, 0, 0, 0, 0, 0, 0, 0, 0, 0, 0, 0, 0, 0,0.0,0.0,0.0,1.0,0.0,0.0,0.0,0.0,0.0,0.0,0.0,0.0,0.0,19,src\mina-core\src\test\java\org\apache\mina\transport\socket\nio\DatagramTrafficControlTest.java,0,0,0,0
org.apache.mina.transport.socket.nio.NioDatagramConnector, 0, 0, 0, 1, 0, 0, 0, 0, 0, 0, 0, 0, 0, 1,0.0,0.0,0.0,0.2857142857142857,0.0,0.0,0.0,0.07142857142857142,0.0,0.0,0.0,0.0,0.0,105,src\mina-core\src\main\java\org\apache\mina\transport\socket\nio\NioDatagramConnector.java,0,1,0,1
org.apache.mina.transport.socket.nio.NioDatagramSession, 0, 0, 0, 0, 0, 0, 0, 0, 0, 0, 0, 0, 0, 0,0.0,0.0,0.0,0.5,0.0,0.0,0.0,0.25,0.0,0.0,0.0,0.0,0.0,36,src\mina-core\src\main\java\org\apache\mina\transport\socket\nio\NioDatagramSession.java,0,0,0,0
org.apache.mina.transport.socket.nio.NioDatagramSessionConfig, 0, 0, 0, 0, 0, 0, 0, 0, 0, 0, 0, 0, 0, 0,0.0,0.0,0.0,0.0,0.0,0.0,0.0,0.0,0.0,0.0,0.0,0.0,0.0,75,src\mina-core\src\main\java\org\apache\mina\transport\socket\nio\NioDatagramSessionConfig.java,0,0,0,0
org.apache.mina.transport.socket.nio.NioFileRegionTest, 0, 0, 0, 0, 0, 0, 0, 0, 0, 0, 0, 0, 0, 0,0.0,0.0,0.0,0.0,0.0,0.0,0.0,0.0,0.0,0.0,0.0,0.0,0.0,12,src\mina-core\src\test\java\org\apache\mina\transport\socket\nio\NioFileRegionTest.java,0,0,0,0
org.apache.mina.transport.socket.nio.NioSession, 0, 0, 0, 0, 0, 0, 0, 0, 0, 0, 0, 0, 0, 0,0.0,0.0,0.0,0.5,0.0,0.0,0.0,0.25,0.0,0.0,0.0,0.0,0.0,25,src\mina-core\src\main\java\org\apache\mina\transport\socket\nio\NioSession.java,0,0,0,0
org.apache.mina.transport.socket.nio.NioSocketSession, 0, 0, 0, 0, 0, 0, 0, 0, 0, 0, 0, 0, 0, 0,0.0,0.0,0.0,0.5,0.0,0.0,0.0,0.5,0.0,0.0,0.0,0.0,0.0,176,src\mina-core\src\main\java\org\apache\mina\transport\socket\nio\NioSocketSession.java,0,0,0,0
org.apache.mina.transport.socket.nio.PollingIoProcessorTest, 0, 0, 0, 0, 0, 0, 0, 0, 0, 0, 0, 0, 0, 0,0.0,0.0,0.0,0.0,0.0,0.0,0.0,0.0,0.0,0.0,0.0,0.0,0.0,106,src\mina-core\src\test\java\org\apache\mina\transport\socket\nio\PollingIoProcessorTest.java,0,0,0,0
org.apache.mina.transport.socket.nio.SocketBindTest, 0, 0, 0, 0, 0, 0, 0, 0, 0, 0, 0, 0, 0, 0,0.0,0.0,0.0,0.0,0.0,0.0,0.0,0.0,0.0,0.0,0.0,0.0,0.0,17,src\mina-core\src\test\java\org\apache\mina\transport\socket\nio\SocketBindTest.java,0,0,0,0
org.apache.mina.transport.socket.nio.SocketConnectorTest, 0, 0, 0, 0, 0, 0, 0, 0, 0, 0, 0, 0, 0, 0,0.0,0.0,0.0,0.0,0.0,0.0,0.0,0.0,0.0,0.0,0.0,0.0,0.0,12,src\mina-core\src\test\java\org\apache\mina\transport\socket\nio\SocketConnectorTest.java,0,0,0,0
org.apache.mina.transport.socket.nio.SocketTrafficControlTest, 0, 0, 0, 0, 0, 0, 0, 0, 0, 0, 0, 0, 0, 0,0.0,0.0,0.0,0.0,0.0,0.0,0.0,0.0,0.0,0.0,0.0,0.0,0.0,19,src\mina-core\src\test\java\org\apache\mina\transport\socket\nio\SocketTrafficControlTest.java,0,0,0,0
org.apache.mina.transport.vmpipe.DefaultVmPipeSessionConfig, 0, 0, 0, 0, 0, 0, 0, 0, 0, 0, 0, 0, 0, 0,0.0,0.0,0.0,0.6666666666666666,0.0,0.0,0.0,0.3333333333333333,0.0,0.0,0.0,0.0,0.0,7,src\mina-core\src\main\java\org\apache\mina\transport\vmpipe\DefaultVmPipeSessionConfig.java,0,0,0,0
org.apache.mina.transport.vmpipe.VmPipe, 0, 0, 0, 0, 0, 0, 0, 0, 0, 0, 0, 0, 0, 0,0.0,0.0,0.0,0.3333333333333333,0.0,0.0,0.0,0.3333333333333333,0.0,0.0,0.0,0.0,0.0,23,src\mina-core\src\main\java\org\apache\mina\transport\vmpipe\VmPipe.java,0,0,0,0
org.apache.mina.transport.vmpipe.VmPipeAddress, 0, 0, 0, 0, 0, 0, 0, 0, 0, 0, 0, 0, 0, 0,0.0,0.0,0.0,0.125,0.0,0.0,0.0,0.125,0.0,0.0,0.0,0.0,0.0,37,src\mina-core\src\main\java\org\apache\mina\transport\vmpipe\VmPipeAddress.java,0,0,0,0
org.apache.mina.transport.vmpipe.VmPipeBindTest, 0, 0, 0, 0, 0, 0, 0, 0, 0, 0, 0, 0, 0, 0,0.0,0.0,0.0,0.0,0.0,0.0,0.0,0.0,0.0,0.0,0.0,0.0,0.0,17,src\mina-core\src\test\java\org\apache\mina\transport\vmpipe\VmPipeBindTest.java,0,0,0,0
org.apache.mina.transport.vmpipe.VmPipeConnector, 0, 0, 0, 0, 0, 0, 0, 0, 0, 0, 0, 0, 0, 0,0.0,0.0,0.0,0.23076923076923078,0.0,0.0,0.0,0.15384615384615385,0.0,0.0,0.0,0.0,0.0,86,src\mina-core\src\main\java\org\apache\mina\transport\vmpipe\VmPipeConnector.java,0,0,0,0
org.apache.mina.transport.vmpipe.VmPipeFilterChain, 0, 0, 0, 0, 0, 0, 0, 0, 0, 0, 0, 0, 0, 0,0.0,0.0,0.0,0.5,0.0,0.0,0.0,0.5,0.0,0.0,0.0,0.0,0.0,210,src\mina-core\src\main\java\org\apache\mina\transport\vmpipe\VmPipeFilterChain.java,0,0,0,0
org.apache.mina.transport.vmpipe.VmPipeSession, 0, 0, 0, 1, 0, 0, 0, 1, 0, 0, 0, 0, 0, 2,0.0,0.0,0.0,0.16666666666666666,0.0,0.0,0.0,0.16666666666666666,0.0,0.0,0.0,0.0,0.0,73,src\mina-core\src\main\java\org\apache\mina\transport\vmpipe\VmPipeSession.java,0,0,0,0
org.apache.mina.transport.vmpipe.VmPipeSessionConfig, 0, 0, 0, 0, 0, 0, 0, 0, 0, 0, 0, 0, 0, 0,0.0,0.0,0.0,0.0,0.0,0.0,0.0,0.0,0.0,0.0,0.0,0.0,0.0,73,src\mina-core\src\main\java\org\apache\mina\transport\vmpipe\VmPipeSessionConfig.java,0,0,0,0
org.apache.mina.transport.vmpipe.VmPipeTrafficControlTest, 0, 0, 0, 0, 0, 0, 0, 0, 0, 0, 0, 0, 0, 0,0.0,0.0,0.0,0.0,0.0,0.0,0.0,0.0,0.0,0.0,0.0,0.0,0.0,19,src\mina-core\src\test\java\org\apache\mina\transport\vmpipe\VmPipeTrafficControlTest.java,0,0,0,0
org.apache.mina.util.Bar, 0, 0, 0, 0, 0, 0, 0, 0, 0, 0, 0, 0, 0, 0,0.0,0.0,0.0,0.5,0.0,0.0,0.0,0.0,0.0,0.0,0.0,0.0,0.0,10,src\mina-core\src\test\java\org\apache\mina\util\Bar.java,0,0,0,0
org.apache.mina.util.Base64, 0, 0, 0, 1, 0, 0, 0, 0, 0, 0, 0, 0, 0, 1,0.0,0.0,0.0,0.0,0.0,0.0,0.0,0.0,0.0,0.0,0.0,0.0,0.0,235,src\mina-core\src\main\java\org\apache\mina\util\Base64.java,0,0,0,0
org.apache.mina.util.CircularQueueTest, 0, 0, 0, 0, 0, 0, 0, 0, 0, 0, 0, 0, 0, 0,0.0,0.0,0.0,0.0,0.0,0.0,0.0,0.0,0.0,0.0,0.0,0.0,0.0,160,src\mina-core\src\test\java\org\apache\mina\util\CircularQueueTest.java,0,0,0,0
org.apache.mina.util.DefaultExceptionMonitor, 0, 0, 0, 0, 0, 0, 0, 0, 0, 0, 0, 0, 0, 0,0.0,0.0,0.0,0.0,0.0,0.0,0.0,0.0,0.0,0.0,0.0,0.0,0.0,9,src\mina-core\src\main\java\org\apache\mina\util\DefaultExceptionMonitor.java,0,0,0,0
org.apache.mina.util.ExceptionMonitor, 0, 0, 0, 0, 0, 0, 0, 0, 0, 0, 0, 0, 0, 0,0.0,0.0,0.0,0.6,0.0,0.0,0.0,0.2,0.0,0.0,0.0,0.0,0.0,12,src\mina-core\src\main\java\org\apache\mina\util\ExceptionMonitor.java,0,0,0,0
org.apache.mina.util.ExpirationListener, 0, 0, 0, 0, 0, 0, 0, 0, 0, 0, 0, 0, 0, 0,0.0,0.0,0.0,0.0,0.0,0.0,0.0,0.0,0.0,0.0,0.0,0.0,0.0,12,src\mina-core\src\main\java\org\apache\mina\util\ExpirationListener.java,0,0,0,0
org.apache.mina.util.ExpiringMapTest, 0, 0, 0, 0, 0, 0, 0, 0, 0, 0, 0, 0, 0, 0,0.0,0.0,0.0,0.0,0.0,0.0,0.0,0.0,0.0,0.0,0.0,0.0,0.0,14,src\mina-core\src\test\java\org\apache\mina\util\ExpiringMapTest.java,0,0,0,0
org.apache.mina.util.Foo, 0, 0, 0, 0, 0, 0, 0, 0, 0, 0, 0, 0, 0, 0,0.0,0.0,0.0,0.5,0.0,0.0,0.0,0.0,0.0,0.0,0.0,0.0,0.0,10,src\mina-core\src\test\java\org\apache\mina\util\Foo.java,0,0,0,0
org.apache.mina.util.IoFilterImpl, 0, 0, 0, 0, 0, 0, 0, 0, 0, 0, 0, 0, 0, 0,0.0,0.0,0.0,0.0,0.0,0.0,0.0,0.0,0.0,0.0,0.0,0.0,0.0,23,src\mina-core\src\test\java\org\apache\mina\util\IoFilterImpl.java,0,0,0,0
org.apache.mina.util.LazyInitializer, 0, 0, 0, 0, 0, 0, 0, 0, 0, 0, 0, 0, 0, 0,0.0,0.0,0.0,0.0,0.0,0.0,0.0,0.0,0.0,0.0,0.0,0.0,0.0,10,src\mina-core\src\main\java\org\apache\mina\util\LazyInitializer.java,0,0,0,0
org.apache.mina.util.NamePreservingRunnable, 0, 0, 0, 0, 0, 0, 0, 0, 0, 0, 0, 0, 0, 0,0.0,0.0,0.0,0.0,0.0,0.0,0.0,0.0,0.0,0.0,0.0,0.0,0.0,30,src\mina-core\src\main\java\org\apache\mina\util\NamePreservingRunnable.java,0,0,0,0
org.apache.mina.util.byteaccess.AbstractByteArray, 0, 0, 0, 0, 0, 0, 0, 0, 0, 0, 0, 0, 0, 0,0.0,0.0,0.0,1.0,0.0,0.0,0.0,0.0,0.0,0.0,0.0,0.0,0.0,37,src\mina-core\src\main\java\org\apache\mina\util\byteaccess\AbstractByteArray.java,0,0,0,0
org.apache.mina.util.byteaccess.BufferByteArray, 0, 0, 0, 1, 0, 0, 0, 0, 0, 0, 0, 0, 0, 1,0.0,0.0,0.0,0.3333333333333333,0.0,0.0,0.0,0.0,0.0,0.0,0.0,0.0,0.0,200,src\mina-core\src\main\java\org\apache\mina\util\byteaccess\BufferByteArray.java,0,0,0,0
org.apache.mina.util.byteaccess.ByteAccessTest, 0, 0, 0, 1, 0, 0, 0, 0, 0, 0, 0, 0, 0, 1,0.0,0.0,0.0,0.4,0.0,0.0,0.0,0.0,0.0,0.0,0.0,0.0,0.0,462,src\mina-core\src\test\java\org\apache\mina\util\byteaccess\ByteAccessTest.java,0,0,0,0
org.apache.mina.util.byteaccess.ByteArray, 0, 0, 0, 0, 0, 0, 0, 0, 0, 0, 0, 0, 0, 0,0.0,0.0,0.0,0.0,0.0,0.0,0.0,0.0,0.0,0.0,0.0,0.0,0.0,462,src\mina-core\src\main\java\org\apache\mina\util\byteaccess\ByteArray.java,0,0,0,0
org.apache.mina.util.byteaccess.ByteArrayFactory, 0, 0, 0, 0, 0, 0, 0, 0, 0, 0, 0, 0, 0, 0,0.0,0.0,0.0,0.0,0.0,0.0,0.0,0.0,0.0,0.0,0.0,0.0,0.0,462,src\mina-core\src\main\java\org\apache\mina\util\byteaccess\ByteArrayFactory.java,0,0,0,0
org.apache.mina.util.byteaccess.ByteArrayList, 0, 0, 0, 0, 0, 0, 0, 0, 0, 0, 0, 0, 0, 0,0.0,0.0,0.0,1.0,0.0,0.0,0.0,0.0,0.0,0.0,0.0,0.0,0.0,95,src\mina-core\src\main\java\org\apache\mina\util\byteaccess\ByteArrayList.java,0,0,0,0
org.apache.mina.util.byteaccess.ByteArrayPool, 0, 0, 0, 0, 0, 0, 0, 0, 0, 0, 0, 0, 0, 0,0.0,0.0,0.0,1.0,0.0,0.0,0.0,0.0,0.0,0.0,0.0,0.0,0.0,85,src\mina-core\src\main\java\org\apache\mina\util\byteaccess\ByteArrayPool.java,0,0,0,0
org.apache.mina.util.byteaccess.CompositeByteArray, 0, 0, 0, 1, 0, 0, 0, 0, 0, 0, 0, 0, 0, 1,0.0,0.0,0.0,0.16666666666666666,0.0,0.0,0.0,0.0,0.0,0.0,0.0,0.0,0.0,588,src\mina-core\src\main\java\org\apache\mina\util\byteaccess\CompositeByteArray.java,0,0,0,0
org.apache.mina.util.byteaccess.CompositeByteArrayRelativeBase, 0, 0, 0, 0, 0, 0, 0, 0, 0, 0, 0, 0, 0, 0,0.0,0.0,0.0,0.3333333333333333,0.0,0.0,0.0,0.0,0.0,0.0,0.0,0.0,0.0,42,src\mina-core\src\main\java\org\apache\mina\util\byteaccess\CompositeByteArrayRelativeBase.java,0,0,0,0
org.apache.mina.util.byteaccess.CompositeByteArrayRelativeReader, 0, 0, 0, 0, 0, 0, 0, 0, 0, 0, 0, 0, 0, 0,0.0,0.0,0.0,0.6666666666666666,0.0,0.0,0.0,0.0,0.0,0.0,0.0,0.0,0.0,43,src\mina-core\src\main\java\org\apache\mina\util\byteaccess\CompositeByteArrayRelativeReader.java,0,0,0,0
org.apache.mina.util.byteaccess.CompositeByteArrayRelativeWriter, 0, 0, 0, 0, 0, 0, 0, 0, 0, 0, 0, 0, 0, 0,0.0,0.0,0.0,0.6666666666666666,0.0,0.0,0.0,0.0,0.0,0.0,0.0,0.0,0.0,92,src\mina-core\src\main\java\org\apache\mina\util\byteaccess\CompositeByteArrayRelativeWriter.java,0,0,0,0
org.apache.mina.util.byteaccess.IoAbsoluteReader, 0, 0, 0, 0, 0, 0, 0, 0, 0, 0, 0, 0, 0, 0,0.0,0.0,0.0,0.0,0.0,0.0,0.0,0.0,0.0,0.0,0.0,0.0,0.0,92,src\mina-core\src\main\java\org\apache\mina\util\byteaccess\IoAbsoluteReader.java,0,0,0,0
org.apache.mina.util.byteaccess.IoAbsoluteWriter, 0, 0, 0, 0, 0, 0, 0, 0, 0, 0, 0, 0, 0, 0,0.0,0.0,0.0,0.0,0.0,0.0,0.0,0.0,0.0,0.0,0.0,0.0,0.0,92,src\mina-core\src\main\java\org\apache\mina\util\byteaccess\IoAbsoluteWriter.java,0,0,0,0
org.apache.mina.util.byteaccess.IoRelativeReader, 0, 0, 0, 0, 0, 0, 0, 0, 0, 0, 0, 0, 0, 0,0.0,0.0,0.0,0.0,0.0,0.0,0.0,0.0,0.0,0.0,0.0,0.0,0.0,92,src\mina-core\src\main\java\org\apache\mina\util\byteaccess\IoRelativeReader.java,0,0,0,0
org.apache.mina.util.byteaccess.IoRelativeWriter, 0, 0, 0, 0, 0, 0, 0, 0, 0, 0, 0, 0, 0, 0,0.0,0.0,0.0,0.0,0.0,0.0,0.0,0.0,0.0,0.0,0.0,0.0,0.0,92,src\mina-core\src\main\java\org\apache\mina\util\byteaccess\IoRelativeWriter.java,0,0,0,0
org.apache.mina.util.byteaccess.SimpleByteArrayFactory, 0, 0, 0, 0, 0, 0, 0, 0, 0, 0, 0, 0, 0, 0,0.0,0.0,0.0,1.0,0.0,0.0,0.0,0.0,0.0,0.0,0.0,0.0,0.0,17,src\mina-core\src\main\java\org\apache\mina\util\byteaccess\SimpleByteArrayFactory.java,0,0,0,0
testcase.MinaRegressionTest, 1, 0, 1, 0, 0, 0, 0, 0, 0, 0, 0, 0, 0, 2,0.3333333333333333,0.0,0.3333333333333333,0.3333333333333333,0.0,0.0,0.0,0.0,0.0,0.0,0.0,0.0,0.0,81,src\mina-core\src\test\java\testcase\MinaRegressionTest.java,0,0,0,0
testcase.MyIoHandler, 1, 0, 1, 0, 0, 0, 0, 0, 0, 0, 0, 0, 0, 2,0.5,0.0,0.5,0.0,0.0,0.0,0.0,0.0,0.0,0.0,0.0,0.0,0.0,57,src\mina-core\src\test\java\testcase\MyIoHandler.java,0,0,0,0
testcase.MyProtocolCodecFactory, 0, 0, 0, 0, 0, 0, 0, 0, 0, 0, 0, 0, 0, 0,0.0,0.0,0.0,0.0,0.0,0.0,0.0,0.0,0.0,0.0,0.0,0.0,0.0,10,src\mina-core\src\test\java\testcase\MyProtocolCodecFactory.java,0,0,0,0
testcase.MyRequestDecoder, 0, 0, 0, 0, 0, 0, 0, 0, 0, 0, 0, 0, 0, 0,0.0,0.0,0.0,0.0,0.0,0.0,0.0,0.0,0.0,0.0,0.0,0.0,0.0,42,src\mina-core\src\test\java\testcase\MyRequestDecoder.java,0,0,0,0
testcase.MyResponseEncoder, 0, 0, 0, 0, 0, 0, 0, 0, 0, 0, 0, 0, 0, 0,0.0,0.0,0.0,0.0,0.0,0.0,0.0,0.0,0.0,0.0,0.0,0.0,0.0,6,src\mina-core\src\test\java\testcase\MyResponseEncoder.java,0,0,0,0
,0.0,0.0,0.0,0.0,0.0,0.0,0.0,0.0,0.0,0.0,0.0,0.0,0.0,6,src\mina-benchmarks\src\test\java\org\apache\mina\core\BenchmarkBinaryTest.java,0,0,0,0
