ClassName,AntiSingleton,Blob,ClassDataShouldBePrivate,ComplexClass,LargeClass,LazyClass,LongMethod,LongParameterList,MessageChains,RefusedParentBequest,SpaghettiCode,SpeculativeGenerality,SwissArmyKnife,NumOfAPs,AntiSingleton,Blob,ClassDataShouldBePrivate,ComplexClass,LargeClass,LazyClass,LongMethod,LongParameterList,MessageChains,RefusedParentBequest,SpaghettiCode,SpeculativeGenerality,SwissArmyKnife,LOC,name,deleted,added,changed,all
$package.SimpleArtifactConsumer, 0, 0, 0, 0, 0, 0, 0, 0, 0, 0, 0, 0, 0, 0,0.0,0.0,0.0,0.0,0.0,0.0,0.0,0.0,0.0,0.0,0.0,0.0,0.0,102,null
$package.SimpleArtifactConsumerTest, 0, 0, 0, 0, 0, 0, 0, 0, 0, 0, 0, 0, 0, 0,0.0,0.0,0.0,0.0,0.0,0.0,0.0,0.0,0.0,0.0,0.0,0.0,0.0,42,null
org.apache.archiva.RuntimeInfoServiceTest, 0, 0, 0, 0, 0, 0, 0, 0, 0, 0, 0, 0, 0, 0,0.0,0.0,0.0,0.0,0.0,0.0,0.0,0.0,0.0,0.0,0.0,0.0,0.0,45,archiva-modules\archiva-web\archiva-web-common\src\test\java\org\apache\archiva\RuntimeInfoServiceTest.java,0,0,0,0
org.apache.archiva.TestRepositorySessionFactoryBean, 0, 0, 0, 0, 0, 0, 0, 0, 0, 0, 0, 0, 0, 0,0.0,0.0,0.0,0.0,0.0,0.0,0.0,0.0,0.0,0.0,0.0,0.0,0.0,25,archiva-modules\archiva-web\archiva-web-common\src\test\java\org\apache\archiva\TestRepositorySessionFactoryBean.java,0,0,0,0
org.apache.archiva.admin.mock.MockAuditListener, 0, 0, 0, 0, 0, 0, 0, 0, 0, 0, 0, 0, 0, 0,0.0,0.0,0.0,0.0,0.0,0.0,0.0,0.0,0.0,0.0,0.0,0.0,0.0,18,archiva-modules\archiva-base\archiva-repository-admin\archiva-repository-admin-default\src\test\java\org\apache\archiva\admin\mock\MockAuditListener.java,0,0,2,4
org.apache.archiva.admin.mock.MockMergedRemoteIndexesScheduler, 0, 0, 0, 0, 0, 0, 0, 0, 0, 0, 0, 0, 0, 0,0.0,0.0,0.0,0.0,0.0,0.0,0.0,0.0,0.0,0.0,0.0,0.0,0.0,12,archiva-modules\archiva-base\archiva-repository-admin\archiva-repository-admin-default\src\test\java\org\apache\archiva\admin\mock\MockMergedRemoteIndexesScheduler.java,0,0,0,0
org.apache.archiva.admin.mock.MockRepositoryArchivaTaskScheduler, 0, 0, 0, 0, 0, 0, 0, 0, 0, 0, 0, 0, 0, 0,0.0,0.0,0.0,0.0,0.0,0.0,0.0,0.0,0.0,0.0,0.0,0.0,0.0,25,archiva-modules\archiva-base\archiva-repository-admin\archiva-repository-admin-default\src\test\java\org\apache\archiva\admin\mock\MockRepositoryArchivaTaskScheduler.java,0,0,0,0
org.apache.archiva.admin.mock.MockRepositorySessionFactory, 0, 0, 0, 0, 0, 0, 0, 0, 0, 0, 0, 0, 0, 0,0.0,0.0,0.0,0.0,0.0,0.0,0.0,0.0,0.0,0.0,0.0,0.0,0.0,229,archiva-modules\archiva-base\archiva-repository-admin\archiva-repository-admin-default\src\test\java\org\apache\archiva\admin\mock\MockRepositorySessionFactory.java,0,0,0,0
org.apache.archiva.admin.model.RepositoryAdminException, 0, 0, 0, 0, 0, 0, 0, 0, 0, 0, 0, 0, 0, 0,0.0,0.0,0.0,0.08695652173913043,0.0,0.0,0.0,0.21739130434782608,0.0,0.0,0.0,0.0,0.0,31,archiva-modules\archiva-base\archiva-repository-admin\archiva-repository-admin-api\src\main\java\org\apache\archiva\admin\model\RepositoryAdminException.java,0,0,0,0
org.apache.archiva.admin.model.RepositoryCommonValidator, 0, 0, 0, 0, 0, 0, 0, 0, 0, 0, 0, 0, 0, 0,0.0,0.0,0.0,0.0,0.0,0.0,0.0,0.0,0.0,0.0,0.0,0.0,0.0,31,archiva-modules\archiva-base\archiva-repository-admin\archiva-repository-admin-api\src\main\java\org\apache\archiva\admin\model\RepositoryCommonValidator.java,0,0,0,0
org.apache.archiva.admin.model.admin.ArchivaAdministration, 0, 0, 0, 0, 0, 0, 0, 0, 0, 0, 0, 0, 0, 0,0.0,0.0,0.0,0.0,0.0,0.0,0.0,0.0,0.0,0.0,0.0,0.0,0.0,31,archiva-modules\archiva-base\archiva-repository-admin\archiva-repository-admin-api\src\main\java\org\apache\archiva\admin\model\admin\ArchivaAdministration.java,0,0,0,0
org.apache.archiva.admin.model.beans.FileLockConfiguration, 0, 0, 0, 0, 0, 0, 0, 0, 0, 0, 0, 0, 0, 0,0.0,0.0,0.0,0.0,0.0,0.0,0.0,0.0,0.0,0.0,0.0,0.0,0.0,22,archiva-modules\archiva-base\archiva-repository-admin\archiva-repository-admin-api\src\main\java\org\apache\archiva\admin\model\beans\FileLockConfiguration.java,0,0,0,0
org.apache.archiva.admin.model.beans.LdapGroupMapping, 0, 0, 0, 0, 0, 0, 0, 0, 0, 0, 0, 0, 0, 0,0.0,0.0,0.0,0.0,0.0,0.0,0.0,0.0,0.0,0.0,0.0,0.0,0.0,72,archiva-modules\archiva-base\archiva-repository-admin\archiva-repository-admin-api\src\main\java\org\apache\archiva\admin\model\beans\LdapGroupMapping.java,0,0,0,0
org.apache.archiva.admin.model.networkproxy.NetworkProxyAdmin, 0, 0, 0, 0, 0, 0, 0, 0, 0, 0, 0, 0, 0, 0,0.0,0.0,0.0,0.0,0.0,0.0,0.0,0.0,0.0,0.0,0.0,0.0,0.0,72,archiva-modules\archiva-base\archiva-repository-admin\archiva-repository-admin-api\src\main\java\org\apache\archiva\admin\model\networkproxy\NetworkProxyAdmin.java,0,0,0,0
org.apache.archiva.admin.model.proxyconnector.ProxyConnectorOrderComparator, 0, 0, 0, 0, 0, 0, 0, 0, 0, 0, 0, 0, 0, 0,0.0,0.0,0.0,0.0,0.0,0.0,0.0,0.0,0.0,0.0,0.0,0.0,0.0,34,archiva-modules\archiva-base\archiva-repository-admin\archiva-repository-admin-api\src\main\java\org\apache\archiva\admin\model\proxyconnector\ProxyConnectorOrderComparator.java,0,0,0,0
org.apache.archiva.admin.model.proxyconnector.ProxyConnectorSelectionPredicate, 0, 0, 0, 0, 0, 0, 0, 0, 0, 0, 0, 0, 0, 0,0.0,0.0,0.0,0.0,0.0,0.0,0.0,0.0,0.0,0.0,0.0,0.0,0.0,23,archiva-modules\archiva-base\archiva-repository-admin\archiva-repository-admin-api\src\main\java\org\apache\archiva\admin\model\proxyconnector\ProxyConnectorSelectionPredicate.java,0,0,0,0
org.apache.archiva.admin.model.proxyconnectorrule.ProxyConnectorRuleAdmin, 0, 0, 0, 0, 0, 0, 0, 0, 0, 0, 0, 0, 0, 0,0.0,0.0,0.0,0.0,0.0,0.0,0.0,0.0,0.0,0.0,0.0,0.0,0.0,23,archiva-modules\archiva-base\archiva-repository-admin\archiva-repository-admin-api\src\main\java\org\apache\archiva\admin\model\proxyconnectorrule\ProxyConnectorRuleAdmin.java,0,0,0,0
org.apache.archiva.admin.model.runtime.ArchivaRuntimeConfigurationAdmin, 0, 0, 0, 0, 0, 0, 0, 0, 0, 0, 0, 0, 0, 0,0.0,0.0,0.0,0.0,0.0,0.0,0.0,0.0,0.0,0.0,0.0,0.0,0.0,23,archiva-modules\archiva-base\archiva-repository-admin\archiva-repository-admin-api\src\main\java\org\apache\archiva\admin\model\runtime\ArchivaRuntimeConfigurationAdmin.java,0,0,0,0
org.apache.archiva.admin.model.runtime.RedbackRuntimeConfigurationAdmin, 0, 0, 0, 0, 0, 0, 0, 0, 0, 0, 0, 0, 0, 0,0.0,0.0,0.0,0.0,0.0,0.0,0.0,0.0,0.0,0.0,0.0,0.0,0.0,23,archiva-modules\archiva-base\archiva-repository-admin\archiva-repository-admin-api\src\main\java\org\apache\archiva\admin\model\runtime\RedbackRuntimeConfigurationAdmin.java,0,0,0,0
org.apache.archiva.admin.repository.AbstractRepositoryAdmin, 0, 0, 0, 0, 0, 0, 0, 0, 0, 0, 0, 0, 0, 0,0.0,0.0,0.0,0.2222222222222222,0.0,0.1111111111111111,0.0,0.0,0.0,0.0,0.0,0.0,0.0,85,archiva-modules\archiva-base\archiva-repository-admin\archiva-repository-admin-default\src\main\java\org\apache\archiva\admin\repository\AbstractRepositoryAdmin.java,2,4,0,6
org.apache.archiva.admin.repository.DefaultRepositoryCommonValidator, 0, 0, 0, 0, 0, 0, 0, 0, 0, 0, 0, 0, 0, 0,0.0,0.0,0.0,0.3333333333333333,0.0,0.0,0.0,0.0,0.0,0.0,0.0,0.0,0.0,106,archiva-modules\archiva-base\archiva-repository-admin\archiva-repository-admin-default\src\main\java\org\apache\archiva\admin\repository\DefaultRepositoryCommonValidator.java,0,0,0,0
org.apache.archiva.admin.repository.ValidatorTest, 0, 0, 0, 0, 0, 0, 0, 0, 0, 0, 0, 0, 0, 0,0.0,0.0,0.0,0.0,0.0,0.0,0.0,0.0,0.0,0.0,0.0,0.0,0.0,10,archiva-modules\archiva-base\archiva-repository-admin\archiva-repository-admin-default\src\test\java\org\apache\archiva\admin\repository\ValidatorTest.java,0,0,0,0
org.apache.archiva.admin.repository.admin.ArchivaAdministrationTest, 0, 0, 0, 0, 0, 0, 0, 0, 0, 0, 0, 0, 0, 0,0.0,0.0,0.0,0.0,0.0,0.0,0.0,0.0,0.0,0.0,0.0,0.0,0.0,162,archiva-modules\archiva-base\archiva-repository-admin\archiva-repository-admin-default\src\test\java\org\apache\archiva\admin\repository\admin\ArchivaAdministrationTest.java,0,0,1,2
org.apache.archiva.admin.repository.admin.DefaultArchivaAdministration, 0, 0, 0, 1, 0, 0, 0, 0, 0, 0, 0, 0, 0, 1,0.0,0.0,0.0,0.0,0.0,0.0,0.0,0.0,0.0,0.0,0.0,0.0,0.0,350,archiva-modules\archiva-base\archiva-repository-admin\archiva-repository-admin-default\src\main\java\org\apache\archiva\admin\repository\admin\DefaultArchivaAdministration.java,1,1,0,2
org.apache.archiva.admin.repository.group.RepositoryGroupAdminTest, 0, 0, 0, 0, 0, 0, 0, 0, 0, 0, 0, 0, 0, 0,0.0,0.0,0.0,0.0,0.0,0.0,0.0,0.0,0.0,0.0,0.0,0.0,0.0,182,archiva-modules\archiva-base\archiva-repository-admin\archiva-repository-admin-default\src\test\java\org\apache\archiva\admin\repository\group\RepositoryGroupAdminTest.java,0,0,1,2
org.apache.archiva.admin.repository.managed.ManagedRepositoryAdminTest, 0, 0, 0, 0, 0, 0, 0, 0, 0, 0, 0, 0, 0, 0,0.0,0.0,0.0,0.0,0.0,0.0,0.0,0.0,0.0,0.0,0.0,0.0,0.0,243,archiva-modules\archiva-base\archiva-repository-admin\archiva-repository-admin-default\src\test\java\org\apache\archiva\admin\repository\managed\ManagedRepositoryAdminTest.java,0,0,1,2
org.apache.archiva.admin.repository.networkproxy.DefaultNetworkProxyAdmin, 0, 0, 0, 0, 0, 0, 0, 0, 0, 0, 0, 0, 0, 0,0.0,0.0,0.0,0.0,0.0,0.0,0.0,0.0,0.0,0.0,0.0,0.0,0.0,103,archiva-modules\archiva-base\archiva-repository-admin\archiva-repository-admin-default\src\main\java\org\apache\archiva\admin\repository\networkproxy\DefaultNetworkProxyAdmin.java,1,1,0,2
org.apache.archiva.admin.repository.networkproxy.NetworkProxyAdminTest, 0, 0, 0, 0, 0, 0, 0, 0, 0, 0, 0, 0, 0, 0,0.0,0.0,0.0,0.0,0.0,0.0,0.0,0.0,0.0,0.0,0.0,0.0,0.0,104,archiva-modules\archiva-base\archiva-repository-admin\archiva-repository-admin-default\src\test\java\org\apache\archiva\admin\repository\networkproxy\NetworkProxyAdminTest.java,0,0,1,2
org.apache.archiva.admin.repository.proxyconnector.ProxyConnectorAdminTest, 0, 0, 0, 0, 0, 0, 0, 0, 0, 0, 0, 0, 0, 0,0.0,0.0,0.0,0.0,0.0,0.0,0.0,0.0,0.0,0.0,0.0,0.0,0.0,101,archiva-modules\archiva-base\archiva-repository-admin\archiva-repository-admin-default\src\test\java\org\apache\archiva\admin\repository\proxyconnector\ProxyConnectorAdminTest.java,0,0,1,2
org.apache.archiva.admin.repository.proxyconnector.ProxyConnectorOrderComparator, 0, 0, 0, 0, 0, 0, 0, 0, 0, 0, 0, 0, 0, 0,0.0,0.0,0.0,0.0,0.0,0.0,0.0,0.0,0.0,0.0,0.0,0.0,0.0,34,archiva-modules\archiva-base\archiva-repository-admin\archiva-repository-admin-default\src\main\java\org\apache\archiva\admin\repository\proxyconnector\ProxyConnectorOrderComparator.java,0,0,0,0
org.apache.archiva.admin.repository.proxyconnectorrule.DefaultProxyConnectorRuleAdmin, 0, 0, 0, 0, 0, 0, 0, 0, 0, 0, 0, 0, 0, 0,0.0,0.0,0.0,0.0,0.0,0.0,0.0,0.0,0.0,0.0,0.0,0.0,0.0,115,archiva-modules\archiva-base\archiva-repository-admin\archiva-repository-admin-default\src\main\java\org\apache\archiva\admin\repository\proxyconnectorrule\DefaultProxyConnectorRuleAdmin.java,0,0,0,0
org.apache.archiva.admin.repository.proxyconnectorrule.ProxyConnectorRuleAdminTest, 0, 0, 0, 0, 0, 0, 0, 0, 0, 0, 0, 0, 0, 0,0.0,0.0,0.0,0.0,0.0,0.0,0.0,0.0,0.0,0.0,0.0,0.0,0.0,118,archiva-modules\archiva-base\archiva-repository-admin\archiva-repository-admin-default\src\test\java\org\apache\archiva\admin\repository\proxyconnectorrule\ProxyConnectorRuleAdminTest.java,0,0,0,0
org.apache.archiva.admin.repository.remote.RemoteRepositoryAdminTest, 0, 0, 0, 0, 0, 0, 0, 0, 0, 0, 0, 0, 0, 0,0.0,0.0,0.0,0.0,0.0,0.0,0.0,0.0,0.0,0.0,0.0,0.0,0.0,99,archiva-modules\archiva-base\archiva-repository-admin\archiva-repository-admin-default\src\test\java\org\apache\archiva\admin\repository\remote\RemoteRepositoryAdminTest.java,0,0,1,2
org.apache.archiva.admin.repository.runtime.DefaultArchivaRuntimeConfigurationAdmin, 0, 0, 0, 0, 0, 0, 0, 0, 0, 0, 0, 0, 0, 0,0.0,0.0,0.0,0.0,0.0,0.5,0.0,0.0,0.0,0.0,0.0,0.0,0.0,133,archiva-modules\archiva-base\archiva-repository-admin\archiva-repository-admin-default\src\main\java\org\apache\archiva\admin\repository\runtime\DefaultArchivaRuntimeConfigurationAdmin.java,0,0,0,0
org.apache.archiva.admin.repository.utils.RepositoryComparator, 0, 0, 0, 0, 0, 0, 0, 0, 0, 0, 0, 0, 0, 0,0.0,0.0,0.0,0.0,0.0,0.0,0.0,0.0,0.0,0.0,0.0,0.0,0.0,21,archiva-modules\archiva-base\archiva-repository-admin\archiva-repository-admin-default\src\main\java\org\apache\archiva\admin\repository\utils\RepositoryComparator.java,0,0,0,0
org.apache.archiva.audit.AuditEventFactory, 0, 0, 0, 0, 0, 0, 0, 0, 0, 0, 0, 0, 0, 0,0.0,0.0,0.0,0.0,0.0,0.0,0.0,0.0,0.0,0.0,0.0,0.0,0.0,14,archiva-modules\plugins\audit\src\main\java\org\apache\archiva\audit\AuditEventFactory.java,0,1,0,1
org.apache.archiva.audit.AuditListener, 0, 0, 0, 0, 0, 0, 0, 0, 0, 0, 0, 0, 0, 0,0.0,0.0,0.0,0.0,0.0,0.0,0.0,0.0,0.0,0.0,0.0,0.0,0.0,14,archiva-modules\plugins\audit\src\main\java\org\apache\archiva\audit\AuditListener.java,5,0,0,5
org.apache.archiva.audit.AuditManager, 0, 0, 0, 0, 0, 0, 0, 0, 0, 0, 0, 0, 0, 0,0.0,0.0,0.0,0.0,0.0,0.0,0.0,0.0,0.0,0.0,0.0,0.0,0.0,14,archiva-modules\plugins\audit\src\main\java\org\apache\archiva\audit\AuditManager.java,0,1,0,1
org.apache.archiva.audit.Auditable, 0, 0, 0, 0, 0, 0, 0, 0, 0, 0, 0, 0, 0, 0,0.0,0.0,0.0,0.0,0.0,0.0,0.0,0.0,0.0,0.0,0.0,0.0,0.0,14,archiva-modules\plugins\audit\src\main\java\org\apache\archiva\audit\Auditable.java,0,1,0,1
org.apache.archiva.audit.MetadataAuditListener, 0, 0, 0, 0, 0, 0, 0, 0, 0, 0, 0, 0, 0, 0,0.0,0.0,0.0,0.0,0.0,0.0,0.0,0.0,0.0,0.0,0.0,0.0,0.0,31,archiva-modules\plugins\audit\src\main\java\org\apache\archiva\audit\MetadataAuditListener.java,0,2,0,2
org.apache.archiva.checksum.AbstractChecksumTestCase, 0, 0, 0, 0, 0, 0, 0, 0, 0, 0, 0, 0, 0, 0,0.0,0.0,0.0,0.0,0.0,0.0,0.0,0.0,0.0,0.0,0.0,0.0,0.0,26,archiva-modules\archiva-base\archiva-checksum\src\test\java\org\apache\archiva\checksum\AbstractChecksumTestCase.java,0,0,0,0
org.apache.archiva.checksum.Checksum, 0, 0, 0, 0, 0, 0, 0, 0, 0, 0, 0, 0, 0, 0,0.0,0.0,0.0,0.0,0.0,0.0,0.0,0.0,0.0,0.0,0.0,0.0,0.0,57,archiva-modules\archiva-base\archiva-checksum\src\main\java\org\apache\archiva\checksum\Checksum.java,0,0,0,0
org.apache.archiva.checksum.ChecksumAlgorithmTest, 0, 0, 0, 0, 0, 0, 0, 0, 0, 0, 0, 0, 0, 0,0.0,0.0,0.0,0.0,0.0,0.0,0.0,0.0,0.0,0.0,0.0,0.0,0.0,28,archiva-modules\archiva-base\archiva-checksum\src\test\java\org\apache\archiva\checksum\ChecksumAlgorithmTest.java,0,0,0,0
org.apache.archiva.checksum.ChecksumTest, 0, 0, 0, 0, 0, 0, 0, 0, 0, 0, 0, 0, 0, 0,0.0,0.0,0.0,0.0,0.0,0.0,0.0,0.0,0.0,0.0,0.0,0.0,0.0,61,archiva-modules\archiva-base\archiva-checksum\src\test\java\org\apache\archiva\checksum\ChecksumTest.java,0,0,0,0
org.apache.archiva.checksum.ChecksummedFileTest, 0, 0, 0, 0, 0, 0, 0, 0, 0, 0, 0, 0, 0, 0,0.0,0.0,0.0,0.0,0.0,0.0,0.0,0.0,0.0,0.0,0.0,0.0,0.0,216,archiva-modules\archiva-base\archiva-checksum\src\test\java\org\apache\archiva\checksum\ChecksummedFileTest.java,0,0,0,0
org.apache.archiva.checksum.Hex, 0, 0, 0, 0, 0, 0, 0, 0, 0, 0, 0, 0, 0, 0,0.0,0.0,0.0,0.0,0.0,0.0,0.0,0.0,0.0,0.0,0.0,0.0,0.0,19,archiva-modules\archiva-base\archiva-checksum\src\main\java\org\apache\archiva\checksum\Hex.java,0,0,0,0
org.apache.archiva.cli.AbstractProgressConsumer, 0, 0, 0, 0, 0, 0, 0, 0, 0, 0, 0, 0, 0, 0,0.0,0.0,0.0,0.0,0.0,0.0,0.0,0.0,0.0,0.0,0.0,0.0,0.0,44,archiva-cli\src\main\java\org\apache\archiva\cli\AbstractProgressConsumer.java,0,0,0,0
org.apache.archiva.cli.ArtifactCountConsumer, 0, 0, 0, 0, 0, 0, 0, 0, 0, 0, 0, 0, 0, 0,0.0,0.0,0.0,0.0,0.0,0.0,0.0,0.0,0.0,0.0,0.0,0.0,0.0,49,archiva-cli\src\main\java\org\apache\archiva\cli\ArtifactCountConsumer.java,0,0,0,0
org.apache.archiva.common.ArchivaException, 0, 0, 0, 0, 0, 0, 0, 0, 0, 0, 0, 0, 0, 0,0.0,0.0,0.0,0.0,0.0,0.0,0.0,0.0,0.0,0.0,0.0,0.0,0.0,12,archiva-modules\archiva-base\archiva-common\src\main\java\org\apache\archiva\common\ArchivaException.java,0,0,0,0
org.apache.archiva.common.FileTypeUtils, 0, 0, 0, 0, 0, 0, 0, 0, 0, 0, 0, 0, 0, 0,0.0,0.0,0.0,0.0,0.0,0.0,0.0,0.0,0.0,0.0,0.0,0.0,0.0,6,archiva-modules\archiva-base\archiva-common\src\main\java\org\apache\archiva\common\FileTypeUtils.java,0,0,0,0
org.apache.archiva.common.filelock.DefaultFileLockManagerTest, 0, 0, 0, 0, 0, 0, 0, 0, 0, 0, 0, 0, 0, 0,0.0,0.0,0.0,0.0,0.0,0.0,0.0,0.0,0.0,0.0,0.0,0.0,0.0,212,archiva-modules\archiva-base\archiva-filelock\src\test\java\org\apache\archiva\common\filelock\DefaultFileLockManagerTest.java,0,0,0,0
org.apache.archiva.common.filelock.DefaultFileLockManagerTimeoutTest, 0, 0, 0, 0, 0, 0, 0, 0, 0, 0, 0, 0, 0, 0,0.0,0.0,0.0,0.0,0.0,0.0,0.0,0.0,0.0,0.0,0.0,0.0,0.0,25,archiva-modules\archiva-base\archiva-filelock\src\test\java\org\apache\archiva\common\filelock\DefaultFileLockManagerTimeoutTest.java,0,0,0,0
org.apache.archiva.common.filelock.FileLockException, 0, 0, 0, 0, 0, 1, 0, 0, 0, 0, 0, 0, 0, 1,0.0,0.0,0.0,1.0,0.0,0.0,0.0,1.0,0.0,0.0,0.0,0.0,0.0,8,archiva-modules\archiva-base\archiva-filelock\src\main\java\org\apache\archiva\common\filelock\FileLockException.java,0,0,0,0
org.apache.archiva.common.filelock.FileLockManager, 0, 0, 0, 0, 0, 0, 0, 0, 0, 0, 0, 0, 0, 0,0.0,0.0,0.0,0.0,0.0,0.0,0.0,0.0,0.0,0.0,0.0,0.0,0.0,8,archiva-modules\archiva-base\archiva-filelock\src\main\java\org\apache\archiva\common\filelock\FileLockManager.java,0,0,0,0
org.apache.archiva.common.filelock.FileLockTimeoutException, 0, 0, 0, 0, 0, 1, 0, 0, 0, 0, 0, 0, 0, 1,0.0,0.0,0.0,1.0,0.0,0.0,0.0,1.0,0.0,0.0,0.0,0.0,0.0,8,archiva-modules\archiva-base\archiva-filelock\src\main\java\org\apache\archiva\common\filelock\FileLockTimeoutException.java,0,0,0,0
org.apache.archiva.common.plexusbridge.DigesterUtils, 0, 0, 0, 0, 0, 0, 0, 0, 0, 0, 0, 0, 0, 0,0.0,0.0,0.0,0.0,0.0,0.0,0.0,0.0,0.0,0.0,0.0,0.0,0.0,29,archiva-modules\archiva-base\archiva-plexus-bridge\src\main\java\org\apache\archiva\common\plexusbridge\DigesterUtils.java,0,0,0,0
org.apache.archiva.common.plexusbridge.MavenIndexerUtils, 0, 0, 0, 0, 0, 0, 0, 0, 0, 0, 0, 0, 0, 0,0.0,0.0,0.0,0.14285714285714285,0.0,0.0,0.0,0.2857142857142857,0.0,0.0,0.0,0.0,0.0,34,archiva-modules\archiva-base\archiva-plexus-bridge\src\main\java\org\apache\archiva\common\plexusbridge\MavenIndexerUtils.java,0,0,0,0
org.apache.archiva.common.plexusbridge.PlexusSisuBridgeException, 0, 0, 0, 0, 0, 0, 0, 0, 0, 0, 0, 0, 0, 0,0.0,0.0,0.0,0.0,0.0,0.0,0.0,0.0,0.0,0.0,0.0,0.0,0.0,12,archiva-modules\archiva-base\archiva-plexus-bridge\src\main\java\org\apache\archiva\common\plexusbridge\PlexusSisuBridgeException.java,0,0,0,0
org.apache.archiva.common.utils.BaseFile, 0, 0, 0, 0, 0, 0, 0, 0, 0, 0, 0, 0, 0, 0,0.0,0.0,0.0,0.0,0.0,0.0,0.0,0.0,0.0,0.0,0.0,0.0,0.0,59,archiva-modules\archiva-base\archiva-common\src\main\java\org\apache\archiva\common\utils\BaseFile.java,0,0,0,0
org.apache.archiva.common.utils.BaseFileTest, 0, 0, 0, 0, 0, 0, 0, 0, 0, 0, 0, 0, 0, 0,0.0,0.0,0.0,0.0,0.0,0.0,0.0,0.0,0.0,0.0,0.0,0.0,0.0,83,archiva-modules\archiva-base\archiva-common\src\test\java\org\apache\archiva\common\utils\BaseFileTest.java,0,0,0,0
org.apache.archiva.common.utils.DateUtilTest, 0, 0, 0, 0, 0, 0, 0, 0, 0, 0, 0, 0, 0, 0,0.0,0.0,0.0,0.0,0.0,0.0,0.0,0.0,0.0,0.0,0.0,0.0,0.0,26,archiva-modules\archiva-base\archiva-common\src\test\java\org\apache\archiva\common\utils\DateUtilTest.java,0,0,0,0
org.apache.archiva.common.utils.FileUtil, 0, 0, 0, 0, 0, 0, 0, 0, 0, 0, 0, 0, 0, 0,0.0,0.0,0.0,0.3333333333333333,0.0,0.0,0.0,0.2222222222222222,0.0,0.0,0.0,0.0,0.0,11,archiva-modules\archiva-base\archiva-common\src\main\java\org\apache\archiva\common\utils\FileUtil.java,0,0,0,0
org.apache.archiva.common.utils.PathUtil, 0, 0, 0, 0, 0, 0, 0, 0, 0, 0, 0, 0, 0, 0,0.0,0.0,0.0,0.0,0.0,0.0,0.0,0.0,0.0,0.0,0.0,0.0,0.0,49,archiva-modules\archiva-base\archiva-common\src\main\java\org\apache\archiva\common\utils\PathUtil.java,0,0,0,0
org.apache.archiva.common.utils.PathUtilTest, 0, 0, 0, 0, 0, 0, 0, 0, 0, 0, 0, 0, 0, 0,0.0,0.0,0.0,0.0,0.0,0.0,0.0,0.0,0.0,0.0,0.0,0.0,0.0,46,archiva-modules\archiva-base\archiva-common\src\test\java\org\apache\archiva\common\utils\PathUtilTest.java,0,0,0,0
org.apache.archiva.common.utils.ResourceUtils, 0, 0, 0, 0, 0, 0, 0, 0, 0, 0, 0, 0, 0, 0,0.0,0.0,0.0,0.0,0.0,0.0,0.0,0.0,0.0,0.0,0.0,0.0,0.0,29,archiva-modules\archiva-base\archiva-common\src\test\java\org\apache\archiva\common\utils\ResourceUtils.java,0,0,0,0
org.apache.archiva.common.utils.Slf4JPlexusLogger, 0, 0, 0, 0, 0, 0, 0, 0, 0, 0, 0, 0, 0, 0,0.0,0.0,0.0,0.0,0.0,0.0,0.0,0.0,0.0,0.0,0.0,0.0,0.0,127,archiva-modules\archiva-base\archiva-common\src\main\java\org\apache\archiva\common\utils\Slf4JPlexusLogger.java,0,0,0,0
org.apache.archiva.common.utils.VersionComparator, 0, 0, 0, 0, 0, 0, 0, 0, 0, 0, 0, 0, 0, 0,0.0,0.0,0.0,0.125,0.0,0.0,0.0,0.5,0.0,0.0,0.0,0.0,0.0,165,archiva-modules\archiva-base\archiva-common\src\main\java\org\apache\archiva\common\utils\VersionComparator.java,0,0,0,0
org.apache.archiva.common.utils.VersionComparatorTest, 0, 0, 0, 0, 0, 0, 0, 0, 0, 0, 0, 0, 0, 0,0.0,0.0,0.0,0.0,0.0,0.0,0.0,0.0,0.0,0.0,0.0,0.0,0.0,77,archiva-modules\archiva-base\archiva-common\src\test\java\org\apache\archiva\common\utils\VersionComparatorTest.java,0,0,0,0
org.apache.archiva.common.utils.VersionUtilTest, 0, 0, 0, 0, 0, 0, 0, 0, 0, 0, 0, 0, 0, 0,0.0,0.0,0.0,0.0,0.0,0.0,0.0,0.0,0.0,0.0,0.0,0.0,0.0,48,archiva-modules\archiva-base\archiva-common\src\test\java\org\apache\archiva\common\utils\VersionUtilTest.java,0,0,0,0
org.apache.archiva.configuration.ArchivaConfiguration, 0, 0, 0, 0, 0, 0, 0, 0, 0, 0, 0, 0, 0, 0,0.0,0.0,0.0,0.0,0.0,0.0,0.0,0.0,0.0,0.0,0.0,0.0,0.0,48,archiva-modules\archiva-base\archiva-configuration\src\main\java\org\apache\archiva\configuration\ArchivaConfiguration.java,0,0,0,0
org.apache.archiva.configuration.ArchivaConfigurationMRM789Test, 0, 0, 0, 0, 0, 0, 0, 0, 0, 0, 0, 0, 0, 0,0.0,0.0,0.0,0.0,0.0,0.0,0.0,0.0,0.0,0.0,0.0,0.0,0.0,65,archiva-modules\archiva-base\archiva-configuration\src\test\java\org\apache\archiva\configuration\ArchivaConfigurationMRM789Test.java,0,0,0,0
org.apache.archiva.configuration.ConfigurationEvent, 0, 0, 0, 0, 0, 0, 0, 0, 0, 0, 0, 0, 0, 0,0.0,0.0,0.0,0.0,0.0,0.0,0.0,0.0,0.0,0.0,0.0,0.0,0.0,44,archiva-modules\archiva-base\archiva-configuration\src\main\java\org\apache\archiva\configuration\ConfigurationEvent.java,0,0,0,0
org.apache.archiva.configuration.ConfigurationListener, 0, 0, 0, 0, 0, 0, 0, 0, 0, 0, 0, 0, 0, 0,0.0,0.0,0.0,0.0,0.0,0.0,0.0,0.0,0.0,0.0,0.0,0.0,0.0,44,archiva-modules\archiva-base\archiva-configuration\src\main\java\org\apache\archiva\configuration\ConfigurationListener.java,0,0,0,0
org.apache.archiva.configuration.ConfigurationNames, 0, 0, 0, 0, 0, 0, 0, 0, 0, 0, 0, 0, 0, 0,0.0,0.0,0.0,0.2,0.0,0.0,0.0,0.2,0.0,0.0,0.0,0.0,0.0,35,archiva-modules\archiva-base\archiva-configuration\src\main\java\org\apache\archiva\configuration\ConfigurationNames.java,0,0,0,0
org.apache.archiva.configuration.ConfigurationRuntimeException, 0, 0, 0, 0, 0, 1, 0, 0, 0, 0, 0, 0, 0, 1,0.0,0.0,0.0,0.0,0.0,0.0,0.0,0.0,0.0,0.0,0.0,0.0,0.0,8,archiva-modules\archiva-base\archiva-configuration\src\main\java\org\apache\archiva\configuration\ConfigurationRuntimeException.java,0,0,0,0
org.apache.archiva.configuration.FileTypesTest, 0, 0, 0, 0, 0, 0, 0, 0, 0, 0, 0, 0, 0, 0,0.0,0.0,0.0,0.0,0.0,0.0,0.0,0.0,0.0,0.0,0.0,0.0,0.0,43,archiva-modules\archiva-base\archiva-configuration\src\test\java\org\apache\archiva\configuration\FileTypesTest.java,0,0,0,0
org.apache.archiva.configuration.IndeterminateConfigurationException, 0, 0, 0, 0, 0, 1, 0, 0, 0, 0, 0, 0, 0, 1,0.0,0.0,0.0,0.0,0.0,0.0,0.0,0.0,0.0,0.0,0.0,0.0,0.0,8,archiva-modules\archiva-base\archiva-configuration\src\main\java\org\apache\archiva\configuration\IndeterminateConfigurationException.java,0,0,0,0
org.apache.archiva.configuration.InvalidConfigurationException, 0, 0, 0, 0, 0, 0, 0, 0, 0, 0, 0, 0, 0, 0,0.0,0.0,0.0,0.0,0.0,0.0,0.0,0.0,0.0,0.0,0.0,0.0,0.0,19,archiva-modules\archiva-base\archiva-configuration\src\main\java\org\apache\archiva\configuration\InvalidConfigurationException.java,0,0,0,0
org.apache.archiva.configuration.LegacyArtifactPathTest, 0, 0, 0, 0, 0, 0, 0, 0, 0, 0, 0, 0, 0, 0,0.0,0.0,0.0,0.0,0.0,0.0,0.0,0.0,0.0,0.0,0.0,0.0,0.0,24,archiva-modules\archiva-base\archiva-configuration\src\test\java\org\apache\archiva\configuration\LegacyArtifactPathTest.java,0,0,0,0
org.apache.archiva.configuration.StubConfiguration, 0, 0, 0, 0, 0, 0, 0, 0, 0, 0, 0, 0, 0, 0,0.0,0.0,0.0,0.0,0.0,0.0,0.0,0.0,0.0,0.0,0.0,0.0,0.0,45,archiva-modules\plugins\stage-repository-merge\src\test\java\org\apache\archiva\configuration\StubConfiguration.java,0,0,0,0
org.apache.archiva.configuration.TestConfiguration, 0, 0, 0, 0, 0, 0, 0, 0, 0, 0, 0, 0, 0, 0,0.0,0.0,0.0,0.0,0.0,0.0,0.0,0.0,0.0,0.0,0.0,0.0,0.0,41,archiva-modules\plugins\maven2-repository\src\test\java\org\apache\archiva\configuration\TestConfiguration.java,0,0,0,0
org.apache.archiva.configuration.functors.FiletypeSelectionPredicate, 0, 0, 0, 0, 0, 0, 0, 0, 0, 0, 0, 0, 0, 0,0.0,0.0,0.0,0.0,0.0,0.0,0.0,0.0,0.0,0.0,0.0,0.0,0.0,20,archiva-modules\archiva-base\archiva-configuration\src\main\java\org\apache\archiva\configuration\functors\FiletypeSelectionPredicate.java,0,0,0,0
org.apache.archiva.configuration.functors.NetworkProxySelectionPredicate, 0, 0, 0, 0, 0, 0, 0, 0, 0, 0, 0, 0, 0, 0,0.0,0.0,0.0,0.0,0.0,0.0,0.0,0.0,0.0,0.0,0.0,0.0,0.0,20,archiva-modules\archiva-base\archiva-configuration\src\main\java\org\apache\archiva\configuration\functors\NetworkProxySelectionPredicate.java,0,0,0,0
org.apache.archiva.configuration.functors.ProxyConnectorConfigurationOrderComparator, 0, 0, 0, 0, 0, 0, 0, 0, 0, 0, 0, 0, 0, 0,0.0,0.0,0.0,0.0,0.0,0.0,0.0,0.0,0.0,0.0,0.0,0.0,0.0,35,archiva-modules\archiva-base\archiva-configuration\src\main\java\org\apache\archiva\configuration\functors\ProxyConnectorConfigurationOrderComparator.java,0,0,0,0
org.apache.archiva.configuration.functors.ProxyConnectorSelectionPredicate, 0, 0, 0, 0, 0, 0, 0, 0, 0, 0, 0, 0, 0, 0,0.0,0.0,0.0,0.0,0.0,0.0,0.0,0.0,0.0,0.0,0.0,0.0,0.0,23,archiva-modules\archiva-base\archiva-configuration\src\main\java\org\apache\archiva\configuration\functors\ProxyConnectorSelectionPredicate.java,0,0,0,0
org.apache.archiva.configuration.functors.RepositoryConfigurationComparator, 0, 0, 0, 0, 0, 0, 0, 0, 0, 0, 0, 0, 0, 0,0.0,0.0,0.0,0.0,0.0,0.0,0.0,0.0,0.0,0.0,0.0,0.0,0.0,21,archiva-modules\archiva-base\archiva-configuration\src\main\java\org\apache\archiva\configuration\functors\RepositoryConfigurationComparator.java,0,0,0,0
org.apache.archiva.consumers.AbstractMonitoredConsumer, 0, 0, 0, 0, 0, 0, 0, 0, 0, 0, 0, 0, 0, 0,0.0,0.0,0.0,0.13333333333333333,0.0,0.0,0.0,0.06666666666666667,0.0,0.0,0.0,0.0,0.0,62,archiva-modules\archiva-base\archiva-consumers\archiva-consumer-api\src\main\java\org\apache\archiva\consumers\AbstractMonitoredConsumer.java,0,0,0,0
org.apache.archiva.consumers.Consumer, 0, 0, 0, 0, 0, 0, 0, 0, 0, 0, 0, 0, 0, 0,0.0,0.0,0.0,0.0,0.0,0.0,0.0,0.0,0.0,0.0,0.0,0.0,0.0,62,archiva-modules\archiva-base\archiva-consumers\archiva-consumer-api\src\main\java\org\apache\archiva\consumers\Consumer.java,0,0,0,0
org.apache.archiva.consumers.ConsumerException, 0, 0, 0, 0, 0, 0, 0, 0, 0, 0, 0, 0, 0, 0,0.0,0.0,0.0,0.25,0.0,0.0,0.0,0.125,0.0,0.0,0.0,0.0,0.0,12,archiva-modules\archiva-base\archiva-consumers\archiva-consumer-api\src\main\java\org\apache\archiva\consumers\ConsumerException.java,0,0,0,0
org.apache.archiva.consumers.ConsumerMonitor, 0, 0, 0, 0, 0, 0, 0, 0, 0, 0, 0, 0, 0, 0,0.0,0.0,0.0,0.0,0.0,0.0,0.0,0.0,0.0,0.0,0.0,0.0,0.0,12,archiva-modules\archiva-base\archiva-consumers\archiva-consumer-api\src\main\java\org\apache\archiva\consumers\ConsumerMonitor.java,0,0,0,0
org.apache.archiva.consumers.InvalidRepositoryContentConsumer, 0, 0, 0, 0, 0, 0, 0, 0, 0, 0, 0, 0, 0, 0,0.0,0.0,0.0,0.0,0.0,0.0,0.0,0.0,0.0,0.0,0.0,0.0,0.0,12,archiva-modules\archiva-base\archiva-consumers\archiva-consumer-api\src\main\java\org\apache\archiva\consumers\InvalidRepositoryContentConsumer.java,0,0,0,0
org.apache.archiva.consumers.KnownRepositoryContentConsumer, 0, 0, 0, 0, 0, 0, 0, 0, 0, 0, 0, 0, 0, 0,0.0,0.0,0.0,0.0,0.0,0.0,0.0,0.0,0.0,0.0,0.0,0.0,0.0,12,archiva-modules\archiva-base\archiva-consumers\archiva-consumer-api\src\main\java\org\apache\archiva\consumers\KnownRepositoryContentConsumer.java,0,0,0,0
org.apache.archiva.consumers.RepositoryContentConsumer, 0, 0, 0, 0, 0, 0, 0, 0, 0, 0, 0, 0, 0, 0,0.0,0.0,0.0,0.0,0.0,0.0,0.0,0.0,0.0,0.0,0.0,0.0,0.0,12,archiva-modules\archiva-base\archiva-consumers\archiva-consumer-api\src\main\java\org\apache\archiva\consumers\RepositoryContentConsumer.java,0,0,0,0
org.apache.archiva.consumers.core.AbstractArtifactConsumerTest, 0, 0, 0, 0, 0, 0, 0, 0, 0, 0, 0, 0, 0, 0,0.0,0.0,0.0,0.0,0.0,0.0,0.0,0.0,0.0,0.0,0.0,0.0,0.0,55,archiva-modules\archiva-base\archiva-consumers\archiva-core-consumers\src\test\java\org\apache\archiva\consumers\core\AbstractArtifactConsumerTest.java,0,0,0,0
org.apache.archiva.consumers.core.ArtifactMissingChecksumsConsumer, 0, 0, 0, 0, 0, 0, 0, 0, 0, 0, 0, 0, 0, 0,0.0,0.0,0.0,0.0,0.0,0.0,0.0,0.0,0.0,0.0,0.0,0.0,0.0,131,archiva-modules\archiva-base\archiva-consumers\archiva-core-consumers\src\main\java\org\apache\archiva\consumers\core\ArtifactMissingChecksumsConsumer.java,0,0,0,0
org.apache.archiva.consumers.core.ArtifactMissingChecksumsConsumerTest, 0, 0, 0, 0, 0, 0, 0, 0, 0, 0, 0, 0, 0, 0,0.0,0.0,0.0,0.0,0.0,0.0,0.0,0.0,0.0,0.0,0.0,0.0,0.0,56,archiva-modules\archiva-base\archiva-consumers\archiva-core-consumers\src\test\java\org\apache\archiva\consumers\core\ArtifactMissingChecksumsConsumerTest.java,0,0,0,0
org.apache.archiva.consumers.core.AutoRemoveConsumer, 0, 0, 0, 0, 0, 0, 0, 0, 0, 0, 0, 0, 0, 0,0.0,0.0,0.0,0.0,0.0,0.0,0.0,0.0,0.0,0.0,0.0,0.0,0.0,98,archiva-modules\archiva-base\archiva-consumers\archiva-core-consumers\src\main\java\org\apache\archiva\consumers\core\AutoRemoveConsumer.java,0,0,0,0
org.apache.archiva.consumers.core.MetadataUpdateConsumerTest, 0, 0, 0, 0, 0, 0, 0, 0, 0, 0, 0, 0, 0, 0,0.0,0.0,0.0,0.0,0.0,0.0,0.0,0.0,0.0,0.0,0.0,0.0,0.0,12,archiva-modules\archiva-base\archiva-consumers\archiva-core-consumers\src\test\java\org\apache\archiva\consumers\core\MetadataUpdateConsumerTest.java,0,0,0,0
org.apache.archiva.consumers.core.MetadataUpdaterConsumer, 0, 0, 0, 1, 0, 0, 0, 0, 0, 0, 0, 0, 0, 1,0.0,0.0,0.0,0.0,0.0,0.0,0.0,0.0,0.0,0.0,0.0,0.0,0.0,200,archiva-modules\archiva-base\archiva-consumers\archiva-core-consumers\src\main\java\org\apache\archiva\consumers\core\MetadataUpdaterConsumer.java,0,0,0,0
org.apache.archiva.consumers.core.ValidateChecksumConsumer, 0, 0, 0, 0, 0, 0, 0, 0, 0, 0, 0, 0, 0, 0,0.0,0.0,0.0,0.0,0.0,0.0,0.0,0.0,0.0,0.0,0.0,0.0,0.0,109,archiva-modules\archiva-base\archiva-consumers\archiva-core-consumers\src\main\java\org\apache\archiva\consumers\core\ValidateChecksumConsumer.java,0,0,0,0
org.apache.archiva.consumers.core.repository.AbstractRepositoryPurge, 0, 0, 0, 0, 0, 0, 0, 0, 0, 0, 0, 0, 0, 0,0.0,0.0,0.0,0.1111111111111111,0.0,0.0,0.0,0.2222222222222222,0.0,0.0,0.0,0.0,0.0,134,archiva-modules\archiva-base\archiva-consumers\archiva-core-consumers\src\main\java\org\apache\archiva\consumers\core\repository\AbstractRepositoryPurge.java,0,0,1,2
org.apache.archiva.consumers.core.repository.ArtifactFilenameFilter, 0, 0, 0, 0, 0, 0, 0, 0, 0, 0, 0, 0, 0, 0,0.0,0.0,0.0,0.0,0.0,0.0,0.0,0.0,0.0,0.0,0.0,0.0,0.0,17,archiva-modules\archiva-base\archiva-consumers\archiva-core-consumers\src\main\java\org\apache\archiva\consumers\core\repository\ArtifactFilenameFilter.java,0,0,0,0
org.apache.archiva.consumers.core.repository.CleanupReleasedSnapshotsRepositoryPurge, 0, 0, 0, 0, 0, 0, 0, 1, 0, 0, 0, 0, 0, 1,0.0,0.0,0.0,0.08333333333333333,0.0,0.0,0.0,0.0,0.0,0.0,0.0,0.0,0.0,140,archiva-modules\archiva-base\archiva-consumers\archiva-core-consumers\src\main\java\org\apache\archiva\consumers\core\repository\CleanupReleasedSnapshotsRepositoryPurge.java,0,0,0,0
org.apache.archiva.consumers.core.repository.CleanupReleasedSnapshotsRepositoryPurgeTest, 0, 0, 0, 0, 0, 0, 0, 0, 0, 0, 0, 0, 0, 0,0.0,0.0,0.0,0.0,0.0,0.0,0.0,0.5,0.0,0.0,0.0,0.0,0.0,165,archiva-modules\archiva-base\archiva-consumers\archiva-core-consumers\src\test\java\org\apache\archiva\consumers\core\repository\CleanupReleasedSnapshotsRepositoryPurgeTest.java,0,0,0,0
org.apache.archiva.consumers.core.repository.DaysOldRepositoryPurge, 0, 0, 0, 0, 0, 0, 0, 1, 0, 0, 0, 0, 0, 1,0.0,0.0,0.0,0.125,0.0,0.0,0.0,0.0,0.0,0.0,0.0,0.0,0.0,115,archiva-modules\archiva-base\archiva-consumers\archiva-core-consumers\src\main\java\org\apache\archiva\consumers\core\repository\DaysOldRepositoryPurge.java,0,0,0,0
org.apache.archiva.consumers.core.repository.DaysOldRepositoryPurgeTest, 0, 0, 0, 0, 0, 0, 0, 0, 0, 0, 0, 0, 0, 0,0.0,0.0,0.0,0.0,0.0,0.0,0.0,1.0,0.0,0.0,0.0,0.0,0.0,154,archiva-modules\archiva-base\archiva-consumers\archiva-core-consumers\src\test\java\org\apache\archiva\consumers\core\repository\DaysOldRepositoryPurgeTest.java,0,0,0,0
org.apache.archiva.consumers.core.repository.RepositoryPurge, 0, 0, 0, 0, 0, 0, 0, 0, 0, 0, 0, 0, 0, 0,0.0,0.0,0.0,0.0,0.0,0.0,0.0,0.0,0.0,0.0,0.0,0.0,0.0,154,archiva-modules\archiva-base\archiva-consumers\archiva-core-consumers\src\main\java\org\apache\archiva\consumers\core\repository\RepositoryPurge.java,0,0,0,0
org.apache.archiva.consumers.core.repository.RepositoryPurgeConsumer, 0, 0, 0, 1, 0, 0, 0, 0, 0, 0, 0, 0, 0, 1,0.0,0.0,0.0,0.0,0.0,0.0,0.0,0.2,0.0,0.0,0.0,0.0,0.0,225,archiva-modules\archiva-base\archiva-consumers\archiva-core-consumers\src\main\java\org\apache\archiva\consumers\core\repository\RepositoryPurgeConsumer.java,0,2,0,2
org.apache.archiva.consumers.core.repository.RepositoryPurgeConsumerTest, 0, 0, 0, 0, 0, 0, 0, 0, 0, 0, 0, 0, 0, 0,0.0,0.0,0.0,0.0,0.0,0.0,0.0,0.0,0.0,0.0,0.0,0.0,0.0,254,archiva-modules\archiva-base\archiva-consumers\archiva-core-consumers\src\test\java\org\apache\archiva\consumers\core\repository\RepositoryPurgeConsumerTest.java,0,0,0,0
org.apache.archiva.consumers.core.repository.RepositoryPurgeException, 0, 0, 0, 0, 0, 0, 0, 0, 0, 0, 0, 0, 0, 0,0.0,0.0,0.0,0.25,0.0,0.0,0.0,0.5,0.0,0.0,0.0,0.0,0.0,20,archiva-modules\archiva-base\archiva-consumers\archiva-core-consumers\src\main\java\org\apache\archiva\consumers\core\repository\RepositoryPurgeException.java,0,0,0,0
org.apache.archiva.consumers.core.repository.RetentionCountRepositoryPurge, 0, 0, 0, 0, 0, 0, 0, 0, 0, 0, 0, 0, 0, 0,0.0,0.0,0.0,0.125,0.0,0.0,0.0,0.0,0.0,0.0,0.0,0.0,0.0,72,archiva-modules\archiva-base\archiva-consumers\archiva-core-consumers\src\main\java\org\apache\archiva\consumers\core\repository\RetentionCountRepositoryPurge.java,0,0,0,0
org.apache.archiva.consumers.core.repository.RetentionCountRepositoryPurgeTest, 0, 0, 0, 0, 0, 0, 0, 0, 0, 0, 0, 0, 0, 0,0.0,0.0,0.0,0.0,0.0,0.0,0.0,0.0,0.0,0.0,0.0,0.0,0.0,144,archiva-modules\archiva-base\archiva-consumers\archiva-core-consumers\src\test\java\org\apache\archiva\consumers\core\repository\RetentionCountRepositoryPurgeTest.java,0,0,0,0
org.apache.archiva.consumers.functors.ConsumerWantsFilePredicate, 0, 0, 0, 0, 0, 0, 0, 0, 0, 0, 0, 0, 0, 0,0.0,0.0,0.0,0.0,0.0,0.0,0.0,0.0,0.0,0.0,0.0,0.0,0.0,95,archiva-modules\archiva-base\archiva-consumers\archiva-consumer-api\src\main\java\org\apache\archiva\consumers\functors\ConsumerWantsFilePredicate.java,0,0,0,0
org.apache.archiva.consumers.functors.PermanentConsumerPredicate, 0, 0, 0, 0, 0, 0, 0, 0, 0, 0, 0, 0, 0, 0,0.0,0.0,0.0,0.0,0.0,0.0,0.0,0.0,0.0,0.0,0.0,0.0,0.0,15,archiva-modules\archiva-base\archiva-consumers\archiva-consumer-api\src\main\java\org\apache\archiva\consumers\functors\PermanentConsumerPredicate.java,0,0,0,0
org.apache.archiva.consumers.lucene.NexusIndexerConsumer, 0, 0, 0, 0, 0, 0, 0, 1, 0, 0, 0, 0, 0, 1,0.0,0.0,0.0,0.0,0.0,0.0,0.0,0.14285714285714285,0.0,0.0,0.0,0.0,0.0,207,archiva-modules\archiva-base\archiva-consumers\archiva-lucene-consumers\src\main\java\org\apache\archiva\consumers\lucene\NexusIndexerConsumer.java,0,0,0,0
org.apache.archiva.consumers.lucene.NexusIndexerConsumerTest, 0, 0, 0, 0, 0, 0, 0, 0, 0, 0, 0, 0, 0, 0,0.0,0.0,0.0,0.0,0.0,0.0,0.0,0.5,0.0,0.0,0.0,0.0,0.0,143,archiva-modules\archiva-base\archiva-consumers\archiva-lucene-consumers\src\test\java\org\apache\archiva\consumers\lucene\NexusIndexerConsumerTest.java,0,0,0,0
org.apache.archiva.consumers.lucene.test.TestRoleManager, 0, 0, 0, 0, 0, 0, 0, 0, 0, 0, 0, 0, 0, 0,0.0,0.0,0.0,0.0,0.0,0.0,0.0,0.0,0.0,0.0,0.0,0.0,0.0,80,archiva-modules\archiva-base\archiva-consumers\archiva-lucene-consumers\src\test\java\org\apache\archiva\consumers\lucene\test\TestRoleManager.java,0,0,0,0
org.apache.archiva.consumers.metadata.ArchivaMetadataCreationConsumer, 0, 0, 0, 0, 0, 0, 0, 0, 0, 0, 0, 0, 0, 0,0.0,0.0,0.0,0.2222222222222222,0.0,0.1111111111111111,0.0,0.0,0.0,0.0,0.0,0.0,0.0,162,archiva-modules\archiva-base\archiva-consumers\archiva-metadata-consumer\src\main\java\org\apache\archiva\consumers\metadata\ArchivaMetadataCreationConsumer.java,0,0,0,0
org.apache.archiva.converter.RepositoryConversionException, 0, 0, 0, 0, 0, 0, 0, 0, 0, 0, 0, 0, 0, 0,0.0,0.0,0.0,0.0,0.0,0.0,0.0,0.0,0.0,0.0,0.0,0.0,0.0,12,archiva-modules\archiva-base\archiva-converter\src\main\java\org\apache\archiva\converter\RepositoryConversionException.java,0,0,0,0
org.apache.archiva.converter.RepositoryConverterTest, 0, 0, 0, 0, 0, 0, 0, 0, 0, 0, 0, 0, 0, 0,0.0,0.0,0.0,0.0,0.0,0.0,0.0,0.0,0.0,0.0,0.0,0.0,0.0,84,archiva-modules\archiva-base\archiva-converter\src\test\java\org\apache\archiva\converter\RepositoryConverterTest.java,0,0,0,0
org.apache.archiva.converter.artifact.ArtifactConversionException, 0, 0, 0, 0, 0, 0, 0, 0, 0, 0, 0, 0, 0, 0,0.0,0.0,0.0,0.0,0.0,0.0,0.0,0.0,0.0,0.0,0.0,0.0,0.0,19,archiva-modules\archiva-base\archiva-artifact-converter\src\main\java\org\apache\archiva\converter\artifact\ArtifactConversionException.java,20,0,0,20
org.apache.archiva.converter.artifact.Messages, 0, 0, 0, 0, 0, 0, 0, 0, 0, 0, 0, 0, 0, 0,0.0,0.0,0.0,0.0,0.0,0.0,0.0,0.0,0.0,0.0,0.0,0.0,0.0,35,archiva-modules\archiva-base\archiva-artifact-converter\src\main\java\org\apache\archiva\converter\artifact\Messages.java,39,0,0,39
org.apache.archiva.converter.legacy.DefaultLegacyRepositoryConverter, 0, 0, 0, 0, 0, 0, 0, 0, 0, 0, 0, 0, 0, 0,0.0,0.0,0.0,0.0,0.0,0.0,0.0,0.0,0.0,0.0,0.0,0.0,0.0,48,archiva-modules\archiva-base\archiva-converter\src\main\java\org\apache\archiva\converter\legacy\DefaultLegacyRepositoryConverter.java,0,0,0,0
org.apache.archiva.converter.legacy.LegacyConverterArtifactConsumer, 0, 0, 0, 0, 0, 0, 0, 0, 0, 0, 0, 0, 0, 0,0.0,0.0,0.0,0.0,0.0,0.0,0.0,0.0,0.0,0.0,0.0,0.0,0.0,113,archiva-modules\archiva-base\archiva-converter\src\main\java\org\apache\archiva\converter\legacy\LegacyConverterArtifactConsumer.java,0,2,0,2
org.apache.archiva.converter.legacy.LegacyRepositoryConverter, 0, 0, 0, 0, 0, 0, 0, 0, 0, 0, 0, 0, 0, 0,0.0,0.0,0.0,0.0,0.0,0.0,0.0,0.0,0.0,0.0,0.0,0.0,0.0,113,archiva-modules\archiva-base\archiva-converter\src\main\java\org\apache\archiva\converter\legacy\LegacyRepositoryConverter.java,0,0,0,0
org.apache.archiva.converter.mock.MockArchivaAdministration, 0, 0, 0, 0, 0, 0, 0, 0, 0, 0, 0, 0, 0, 0,0.0,0.0,0.0,0.0,0.0,0.0,0.0,0.0,0.0,0.0,0.0,0.0,0.0,127,archiva-modules\archiva-base\archiva-converter\src\test\java\org\apache\archiva\converter\mock\MockArchivaAdministration.java,0,0,0,0
org.apache.archiva.dependency.tree.maven2.ArchivaRepositoryConnectorFactory, 0, 0, 0, 0, 0, 0, 0, 0, 0, 0, 0, 0, 0, 0,0.0,0.0,0.0,0.0,0.0,0.0,0.0,0.0,0.0,0.0,0.0,0.0,0.0,40,archiva-modules\plugins\maven2-repository\src\main\java\org\apache\archiva\dependency\tree\maven2\ArchivaRepositoryConnectorFactory.java,0,0,0,0
org.apache.archiva.dependency.tree.maven2.DependencyTreeBuilder, 0, 0, 0, 0, 0, 0, 0, 0, 0, 0, 0, 0, 0, 0,0.0,0.0,0.0,0.0,0.0,0.0,0.0,0.0,0.0,0.0,0.0,0.0,0.0,40,archiva-modules\plugins\maven2-repository\src\main\java\org\apache\archiva\dependency\tree\maven2\DependencyTreeBuilder.java,0,0,0,0
org.apache.archiva.dependency.tree.maven2.DependencyTreeBuilderException, 0, 0, 0, 0, 0, 1, 0, 0, 0, 0, 0, 0, 0, 1,0.0,0.0,0.0,0.0,0.0,0.0,0.0,0.0,0.0,0.0,0.0,0.0,0.0,8,archiva-modules\plugins\maven2-repository\src\main\java\org\apache\archiva\dependency\tree\maven2\DependencyTreeBuilderException.java,0,0,0,0
org.apache.archiva.dependency.tree.maven2.DependencyTreeBuilderTestMaven3, 0, 0, 0, 0, 0, 0, 0, 0, 0, 0, 0, 0, 0, 0,0.0,0.0,0.0,0.0,0.0,0.0,0.0,0.0,0.0,0.0,0.0,0.0,0.0,69,archiva-modules\plugins\maven2-repository\src\test\java\org\apache\archiva\dependency\tree\maven2\DependencyTreeBuilderTestMaven3.java,0,0,0,0
org.apache.archiva.dependency.tree.maven2.TreeDependencyNodeVisitor, 0, 0, 0, 0, 0, 0, 0, 0, 0, 0, 0, 0, 0, 0,0.0,0.0,0.0,0.0,0.0,0.0,0.0,0.0,0.0,0.0,0.0,0.0,0.0,49,archiva-modules\plugins\maven2-repository\src\main\java\org\apache\archiva\dependency\tree\maven2\TreeDependencyNodeVisitor.java,0,0,0,0
org.apache.archiva.indexer.merger.DefaultIndexMerger, 0, 0, 0, 0, 0, 0, 0, 0, 0, 0, 0, 0, 0, 0,0.0,0.0,0.0,0.0,0.0,0.3333333333333333,0.0,0.0,0.0,0.0,0.0,0.0,0.0,109,archiva-modules\archiva-base\archiva-indexer\src\main\java\org\apache\archiva\indexer\merger\DefaultIndexMerger.java,0,0,0,0
org.apache.archiva.indexer.merger.IndexMerger, 0, 0, 0, 0, 0, 0, 0, 0, 0, 0, 0, 0, 0, 0,0.0,0.0,0.0,0.0,0.0,0.0,0.0,0.0,0.0,0.0,0.0,0.0,0.0,109,archiva-modules\archiva-base\archiva-indexer\src\main\java\org\apache\archiva\indexer\merger\IndexMerger.java,0,0,0,0
org.apache.archiva.indexer.merger.IndexMergerException, 0, 0, 0, 0, 0, 1, 0, 0, 0, 0, 0, 0, 0, 1,0.0,0.0,0.0,0.0,0.0,0.0,0.0,0.0,0.0,0.0,0.0,0.0,0.0,8,archiva-modules\archiva-base\archiva-indexer\src\main\java\org\apache\archiva\indexer\merger\IndexMergerException.java,0,0,0,0
org.apache.archiva.indexer.merger.MergedRemoteIndexesTask, 0, 0, 0, 0, 0, 0, 0, 0, 0, 0, 0, 0, 0, 0,0.0,0.0,0.0,0.0,0.0,0.3333333333333333,0.0,0.0,0.0,0.0,0.0,0.0,0.0,49,archiva-modules\archiva-base\archiva-indexer\src\main\java\org\apache\archiva\indexer\merger\MergedRemoteIndexesTask.java,0,0,0,0
org.apache.archiva.indexer.merger.MergedRemoteIndexesTaskRequest, 0, 0, 0, 0, 0, 0, 0, 0, 0, 0, 0, 0, 0, 0,0.0,0.0,0.0,0.0,0.0,0.0,0.0,0.0,0.0,0.0,0.0,0.0,0.0,45,archiva-modules\archiva-base\archiva-indexer\src\main\java\org\apache\archiva\indexer\merger\MergedRemoteIndexesTaskRequest.java,0,0,0,0
org.apache.archiva.indexer.merger.MergedRemoteIndexesTaskResult, 0, 0, 0, 0, 0, 0, 0, 0, 0, 0, 0, 0, 0, 0,0.0,0.0,0.0,0.0,0.0,0.0,0.0,0.0,0.0,0.0,0.0,0.0,0.0,16,archiva-modules\archiva-base\archiva-indexer\src\main\java\org\apache\archiva\indexer\merger\MergedRemoteIndexesTaskResult.java,0,0,0,0
org.apache.archiva.indexer.merger.TemporaryGroupIndex, 0, 0, 0, 0, 0, 0, 0, 0, 0, 0, 0, 0, 0, 0,0.0,0.0,0.0,0.0,0.0,0.0,0.0,0.0,0.0,0.0,0.0,0.0,0.0,75,archiva-modules\archiva-base\archiva-indexer\src\main\java\org\apache\archiva\indexer\merger\TemporaryGroupIndex.java,0,0,0,0
org.apache.archiva.indexer.merger.TemporaryGroupIndexCleaner, 0, 0, 0, 0, 0, 0, 0, 0, 0, 0, 0, 0, 0, 0,0.0,0.0,0.0,0.0,0.0,0.0,0.0,0.0,0.0,0.0,0.0,0.0,0.0,25,archiva-modules\archiva-base\archiva-indexer\src\main\java\org\apache\archiva\indexer\merger\TemporaryGroupIndexCleaner.java,0,0,0,0
org.apache.archiva.indexer.search.MavenRepositorySearchOSGITest, 0, 0, 0, 0, 0, 0, 0, 0, 0, 0, 0, 0, 0, 0,0.0,0.0,0.0,0.0,0.0,0.0,0.0,0.0,0.0,0.0,0.0,0.0,0.0,31,archiva-modules\archiva-base\archiva-indexer\src\test\java\org\apache\archiva\indexer\search\MavenRepositorySearchOSGITest.java,0,0,0,0
org.apache.archiva.indexer.search.MavenRepositorySearchPaginateTest, 0, 0, 0, 0, 0, 0, 0, 0, 0, 0, 0, 0, 0, 0,0.0,0.0,0.0,0.0,0.0,0.0,0.0,0.0,0.0,0.0,0.0,0.0,0.0,52,archiva-modules\archiva-base\archiva-indexer\src\test\java\org\apache\archiva\indexer\search\MavenRepositorySearchPaginateTest.java,0,0,0,0
org.apache.archiva.indexer.search.MavenRepositorySearchTest, 0, 0, 0, 1, 0, 0, 0, 0, 0, 0, 0, 0, 0, 1,0.0,0.0,0.0,0.0,0.0,0.0,0.0,0.0,0.0,0.0,0.0,0.0,0.0,594,archiva-modules\archiva-base\archiva-indexer\src\test\java\org\apache\archiva\indexer\search\MavenRepositorySearchTest.java,0,0,0,0
org.apache.archiva.indexer.search.RepositorySearch, 0, 0, 0, 0, 0, 0, 0, 0, 0, 0, 0, 0, 0, 0,0.0,0.0,0.0,0.0,0.0,0.0,0.0,0.0,0.0,0.0,0.0,0.0,0.0,594,archiva-modules\archiva-base\archiva-indexer\src\main\java\org\apache\archiva\indexer\search\RepositorySearch.java,0,0,0,0
org.apache.archiva.indexer.search.RepositorySearchException, 0, 0, 0, 0, 0, 0, 0, 0, 0, 0, 0, 0, 0, 0,0.0,0.0,0.0,1.0,0.0,0.0,0.0,0.0,0.0,0.0,0.0,0.0,0.0,20,archiva-modules\archiva-base\archiva-indexer\src\main\java\org\apache\archiva\indexer\search\RepositorySearchException.java,0,0,0,0
org.apache.archiva.indexer.search.SearchResultLimits, 0, 0, 0, 0, 0, 0, 0, 0, 0, 0, 0, 0, 0, 0,0.0,0.0,0.0,0.5,0.0,0.0,0.0,0.0,0.0,0.0,0.0,0.0,0.0,36,archiva-modules\archiva-base\archiva-indexer\src\main\java\org\apache\archiva\indexer\search\SearchResultLimits.java,0,0,0,0
org.apache.archiva.indexer.search.mock.MockRepositorySessionFactory, 0, 0, 0, 0, 0, 0, 0, 0, 0, 0, 0, 0, 0, 0,0.0,0.0,0.0,0.0,0.0,0.0,0.0,0.0,0.0,0.0,0.0,0.0,0.0,228,archiva-modules\archiva-base\archiva-indexer\src\test\java\org\apache\archiva\indexer\search\mock\MockRepositorySessionFactory.java,0,0,0,0
org.apache.archiva.indexer.util.SearchUtil, 0, 0, 0, 0, 0, 0, 0, 0, 0, 0, 0, 0, 0, 0,0.0,0.0,0.0,0.5,0.0,0.0,0.0,0.0,0.0,0.0,0.0,0.0,0.0,10,archiva-modules\archiva-base\archiva-indexer\src\main\java\org\apache\archiva\indexer\util\SearchUtil.java,0,0,0,0
org.apache.archiva.maven2.metadata.MavenMetadataReader, 0, 0, 0, 0, 0, 0, 0, 0, 0, 0, 0, 0, 0, 0,0.0,0.0,0.0,0.2857142857142857,0.0,0.0,0.0,0.42857142857142855,0.0,0.0,0.0,0.0,0.0,40,archiva-modules\archiva-base\archiva-maven2-metadata\src\main\java\org\apache\archiva\maven2\metadata\MavenMetadataReader.java,0,0,0,0
org.apache.archiva.maven2.model.TreeEntry, 0, 0, 0, 0, 0, 0, 0, 0, 0, 0, 0, 0, 0, 0,0.0,0.0,0.0,0.0,0.0,0.0,0.0,0.0,0.0,0.0,0.0,0.0,0.0,64,archiva-modules\archiva-base\archiva-maven2-model\src\main\java\org\apache\archiva\maven2\model\TreeEntry.java,0,0,0,0
org.apache.archiva.metadata.generic.GenericMetadataFacetFactory, 0, 0, 0, 0, 0, 0, 0, 0, 0, 0, 0, 0, 0, 0,0.0,0.0,0.0,0.0,0.0,0.0,0.0,0.0,0.0,0.0,0.0,0.0,0.0,14,archiva-modules\plugins\generic-metadata-support\src\main\java\org\apache\archiva\metadata\generic\GenericMetadataFacetFactory.java,0,0,0,0
org.apache.archiva.metadata.model.ArtifactMetadata, 0, 0, 0, 1, 0, 0, 0, 0, 0, 0, 0, 0, 0, 1,0.058823529411764705,0.0,0.058823529411764705,0.23529411764705882,0.0,0.0,0.0,0.4117647058823529,0.0,0.0,0.0,0.0,0.0,187,archiva-modules\metadata\metadata-model\src\main\java\org\apache\archiva\metadata\model\ArtifactMetadata.java,0,0,0,0
org.apache.archiva.metadata.model.CiManagement, 0, 0, 0, 0, 0, 0, 0, 0, 0, 0, 0, 0, 0, 0,0.0,0.0,0.0,1.0,0.0,0.0,0.0,0.0,0.0,0.0,0.0,0.0,0.0,38,archiva-modules\metadata\metadata-model\src\main\java\org\apache\archiva\metadata\model\CiManagement.java,0,0,0,0
org.apache.archiva.metadata.model.IssueManagement, 0, 0, 0, 0, 0, 0, 0, 0, 0, 0, 0, 0, 0, 0,0.0,0.0,0.0,1.0,0.0,0.0,0.0,0.0,0.0,0.0,0.0,0.0,0.0,38,archiva-modules\metadata\metadata-model\src\main\java\org\apache\archiva\metadata\model\IssueManagement.java,0,0,0,0
org.apache.archiva.metadata.model.License, 0, 0, 0, 0, 0, 0, 0, 0, 0, 0, 0, 0, 0, 0,0.0,0.0,0.0,1.0,0.0,0.0,0.0,0.5,0.0,0.0,0.0,0.0,0.0,64,archiva-modules\metadata\metadata-model\src\main\java\org\apache\archiva\metadata\model\License.java,0,0,0,0
org.apache.archiva.metadata.model.MailingList, 0, 0, 0, 0, 0, 0, 0, 0, 0, 0, 0, 0, 0, 0,0.0,0.0,0.0,1.0,0.0,0.0,0.0,0.5,0.0,0.0,0.0,0.0,0.0,70,archiva-modules\metadata\metadata-model\src\main\java\org\apache\archiva\metadata\model\MailingList.java,0,0,0,0
org.apache.archiva.metadata.model.MetadataFacetFactory, 0, 0, 0, 0, 0, 0, 0, 0, 0, 0, 0, 0, 0, 0,0.0,0.0,0.0,0.0,0.0,0.0,0.0,0.0,0.0,0.0,0.0,0.0,0.0,70,archiva-modules\metadata\metadata-model\src\main\java\org\apache\archiva\metadata\model\MetadataFacetFactory.java,0,0,0,0
org.apache.archiva.metadata.model.Organization, 0, 0, 0, 0, 0, 0, 0, 0, 0, 0, 0, 0, 0, 0,0.0,0.0,0.0,1.0,0.0,0.0,0.0,0.5,0.0,0.0,0.0,0.0,0.0,38,archiva-modules\metadata\metadata-model\src\main\java\org\apache\archiva\metadata\model\Organization.java,0,0,0,0
org.apache.archiva.metadata.model.ProjectVersionMetadata, 0, 0, 0, 1, 0, 0, 0, 0, 0, 0, 0, 0, 0, 1,0.0,0.0,0.0,0.2,0.0,0.0,0.0,0.5333333333333333,0.0,0.0,0.0,0.0,0.0,146,archiva-modules\metadata\metadata-model\src\main\java\org\apache\archiva\metadata\model\ProjectVersionMetadata.java,0,0,0,0
org.apache.archiva.metadata.model.ProjectVersionReference, 0, 0, 0, 0, 0, 0, 0, 0, 0, 0, 0, 0, 0, 0,0.0,0.0,0.0,0.0,0.0,0.0,0.0,1.0,0.0,0.0,0.0,0.0,0.0,94,archiva-modules\metadata\metadata-model\src\main\java\org\apache\archiva\metadata\model\ProjectVersionReference.java,0,0,0,0
org.apache.archiva.metadata.model.Scm, 0, 0, 0, 0, 0, 0, 0, 0, 0, 0, 0, 0, 0, 0,0.0,0.0,0.0,1.0,0.0,0.0,0.0,0.5,0.0,0.0,0.0,0.0,0.0,49,archiva-modules\metadata\metadata-model\src\main\java\org\apache\archiva\metadata\model\Scm.java,0,0,0,0
org.apache.archiva.metadata.repository.DefaultMetadataResolver, 0, 0, 0, 0, 0, 0, 0, 1, 0, 0, 0, 0, 0, 1,0.0,0.0,0.0,0.2,0.0,0.1,0.0,0.0,0.0,0.0,0.0,0.0,0.0,341,archiva-modules\metadata\metadata-repository-api\src\main\java\org\apache\archiva\metadata\repository\DefaultMetadataResolver.java,0,2,1,4
org.apache.archiva.metadata.repository.MetadataRepository, 0, 0, 0, 0, 0, 0, 0, 0, 0, 0, 0, 0, 0, 0,0.0,0.0,0.0,0.0,0.0,0.0,0.0,0.0,0.0,0.0,0.0,0.0,0.0,341,archiva-modules\metadata\metadata-repository-api\src\main\java\org\apache\archiva\metadata\repository\MetadataRepository.java,0,0,0,0
org.apache.archiva.metadata.repository.MetadataRepositoryException, 0, 0, 0, 0, 0, 0, 0, 0, 0, 0, 0, 0, 0, 0,0.0,0.0,0.0,0.07692307692307693,0.0,0.0,0.0,0.23076923076923078,0.0,0.0,0.0,0.0,0.0,12,archiva-modules\metadata\metadata-repository-api\src\main\java\org\apache\archiva\metadata\repository\MetadataRepositoryException.java,0,0,0,0
org.apache.archiva.metadata.repository.MetadataResolutionException, 0, 0, 0, 0, 0, 0, 0, 0, 0, 0, 0, 0, 0, 0,0.0,0.0,0.0,0.3333333333333333,0.0,0.0,0.0,0.6666666666666666,0.0,0.0,0.0,0.0,0.0,12,archiva-modules\metadata\metadata-repository-api\src\main\java\org\apache\archiva\metadata\repository\MetadataResolutionException.java,0,0,0,0
org.apache.archiva.metadata.repository.MetadataResolver, 0, 0, 0, 0, 0, 0, 0, 0, 0, 0, 0, 0, 0, 0,0.0,0.0,0.0,0.0,0.0,0.0,0.0,0.0,0.0,0.0,0.0,0.0,0.0,12,archiva-modules\metadata\metadata-repository-api\src\main\java\org\apache\archiva\metadata\repository\MetadataResolver.java,0,0,0,0
org.apache.archiva.metadata.repository.MockRepositoryArchivaTaskScheduler, 0, 0, 0, 0, 0, 0, 0, 0, 0, 0, 0, 0, 0, 0,0.0,0.0,0.0,0.0,0.0,0.0,0.0,0.0,0.0,0.0,0.0,0.0,0.0,25,archiva-modules\archiva-base\archiva-proxy\src\test\java\org\apache\archiva\metadata\repository\MockRepositoryArchivaTaskScheduler.java,0,0,0,0
org.apache.archiva.metadata.repository.RepositorySession, 0, 0, 0, 0, 0, 0, 0, 0, 0, 0, 0, 0, 0, 0,0.0,0.0,0.0,0.08,0.0,0.0,0.0,0.32,0.0,0.0,0.0,0.0,0.0,68,archiva-modules\metadata\metadata-repository-api\src\main\java\org\apache\archiva\metadata\repository\RepositorySession.java,0,0,0,0
org.apache.archiva.metadata.repository.RepositorySessionFactory, 0, 0, 0, 0, 0, 0, 0, 0, 0, 0, 0, 0, 0, 0,0.0,0.0,0.0,0.0,0.0,0.0,0.0,0.0,0.0,0.0,0.0,0.0,0.0,68,archiva-modules\metadata\metadata-repository-api\src\main\java\org\apache\archiva\metadata\repository\RepositorySessionFactory.java,0,0,0,0
org.apache.archiva.metadata.repository.TestMetadataRepository, 0, 0, 0, 1, 0, 0, 0, 1, 0, 0, 0, 0, 0, 2,0.0,0.0,0.0,1.0,0.0,0.0,0.0,0.0,0.0,0.0,0.0,0.0,0.0,178,archiva-modules\archiva-base\archiva-consumers\archiva-core-consumers\src\test\java\org\apache\archiva\metadata\repository\TestMetadataRepository.java,0,0,0,0
org.apache.archiva.metadata.repository.TestMetadataResolver, 0, 0, 0, 0, 0, 0, 0, 1, 0, 0, 0, 0, 0, 1,0.0,0.0,0.0,0.5,0.0,0.0,0.0,0.0,0.0,0.0,0.0,0.0,0.0,51,archiva-modules\plugins\maven2-repository\src\test\java\org\apache\archiva\metadata\repository\TestMetadataResolver.java,0,0,0,0
org.apache.archiva.metadata.repository.TestRepositorySessionFactory, 0, 0, 0, 0, 0, 0, 0, 0, 0, 0, 0, 0, 0, 0,0.0,0.0,0.0,0.0,0.0,0.0,0.0,0.0,0.0,0.0,0.0,0.0,0.0,26,archiva-modules\archiva-base\archiva-consumers\archiva-core-consumers\src\test\java\org\apache\archiva\metadata\repository\TestRepositorySessionFactory.java,0,0,0,0
org.apache.archiva.metadata.repository.cassandra.CassandraArchivaManager, 0, 0, 0, 0, 0, 0, 0, 0, 0, 0, 0, 0, 0, 0,0.0,0.0,0.0,0.0,0.0,0.0,0.0,0.0,0.0,0.0,0.0,0.0,0.0,26,archiva-modules\plugins\metadata-store-cassandra\src\main\java\org\apache\archiva\metadata\repository\cassandra\CassandraArchivaManager.java,0,0,0,0
org.apache.archiva.metadata.repository.cassandra.DefaultCassandraArchivaManager, 0, 0, 0, 1, 0, 0, 0, 0, 0, 0, 0, 0, 0, 1,0.0,0.0,0.0,0.0,0.0,0.0,0.0,0.0,0.0,0.0,0.0,0.0,0.0,372,archiva-modules\plugins\metadata-store-cassandra\src\main\java\org\apache\archiva\metadata\repository\cassandra\DefaultCassandraArchivaManager.java,0,0,0,0
org.apache.archiva.metadata.repository.cassandra.MockRepositoryStorage, 0, 0, 0, 0, 0, 0, 0, 1, 0, 0, 0, 0, 0, 1,0.0,0.0,0.0,0.5,0.0,0.0,0.0,0.0,0.0,0.0,0.0,0.0,0.0,84,archiva-modules\plugins\metadata-store-cassandra\src\test\java\org\apache\archiva\metadata\repository\cassandra\MockRepositoryStorage.java,0,0,0,0
org.apache.archiva.metadata.repository.cassandra.RepositoriesNamespaceTest, 0, 0, 0, 0, 0, 0, 0, 0, 0, 0, 0, 0, 0, 0,0.0,0.0,0.0,0.0,0.0,0.0,0.0,0.0,0.0,0.0,0.0,0.0,0.0,81,archiva-modules\plugins\metadata-store-cassandra\src\test\java\org\apache\archiva\metadata\repository\cassandra\RepositoriesNamespaceTest.java,0,0,0,0
org.apache.archiva.metadata.repository.cassandra.model.Project, 0, 0, 0, 0, 0, 1, 0, 0, 0, 0, 0, 0, 0, 1,0.0,0.0,0.0,0.0,0.0,0.0,0.0,0.0,0.0,0.0,0.0,0.0,0.0,27,archiva-modules\plugins\metadata-store-cassandra\src\main\java\org\apache\archiva\metadata\repository\cassandra\model\Project.java,0,0,0,0
org.apache.archiva.metadata.repository.cassandra.model.Repository, 0, 0, 0, 0, 0, 0, 0, 0, 0, 0, 0, 0, 0, 0,0.0,0.0,0.0,0.0,0.0,0.0,0.0,0.0,0.0,0.0,0.0,0.0,0.0,50,archiva-modules\plugins\metadata-store-cassandra\src\main\java\org\apache\archiva\metadata\repository\cassandra\model\Repository.java,0,0,0,0
org.apache.archiva.metadata.repository.filter.AllFilter, 0, 0, 0, 0, 0, 0, 0, 0, 0, 0, 0, 0, 0, 0,0.0,0.0,0.0,0.0,0.0,0.0,0.0,0.0,0.0,0.0,0.0,0.0,0.0,8,archiva-modules\metadata\metadata-repository-api\src\main\java\org\apache\archiva\metadata\repository\filter\AllFilter.java,0,0,0,0
org.apache.archiva.metadata.repository.filter.ExcludesFilter, 0, 0, 0, 0, 0, 0, 0, 0, 0, 0, 0, 0, 0, 0,0.0,0.0,0.0,0.0,0.0,0.0,0.0,1.0,0.0,0.0,0.0,0.0,0.0,14,archiva-modules\metadata\metadata-repository-api\src\main\java\org\apache\archiva\metadata\repository\filter\ExcludesFilter.java,0,0,0,0
org.apache.archiva.metadata.repository.filter.Filter, 0, 0, 0, 0, 0, 0, 0, 0, 0, 0, 0, 0, 0, 0,0.0,0.0,0.0,0.0,0.0,0.0,0.0,0.0,0.0,0.0,0.0,0.0,0.0,14,archiva-modules\metadata\metadata-repository-api\src\main\java\org\apache\archiva\metadata\repository\filter\Filter.java,0,0,0,0
org.apache.archiva.metadata.repository.filter.IncludesFilter, 0, 0, 0, 0, 0, 0, 0, 0, 0, 0, 0, 0, 0, 0,0.0,0.0,0.0,0.0,0.0,0.0,0.0,0.0,0.0,0.0,0.0,0.0,0.0,13,archiva-modules\metadata\metadata-repository-api\src\main\java\org\apache\archiva\metadata\repository\filter\IncludesFilter.java,0,0,0,0
org.apache.archiva.metadata.repository.jcr.ArchivaJcrRepositoryConfig, 0, 0, 0, 0, 0, 0, 0, 0, 0, 0, 0, 0, 0, 0,0.0,0.0,0.0,0.0,0.0,0.0,0.0,0.0,0.0,0.0,0.0,0.0,0.0,22,archiva-modules\plugins\metadata-store-jcr\src\main\java\org\apache\archiva\metadata\repository\jcr\ArchivaJcrRepositoryConfig.java,0,0,0,0
org.apache.archiva.metadata.repository.stats.JcrRepositoryStatisticsGatheringTest, 0, 0, 0, 0, 0, 0, 0, 0, 0, 0, 0, 0, 0, 0,0.0,0.0,0.0,0.0,0.0,0.0,0.0,0.0,0.0,0.0,0.0,0.0,0.0,101,archiva-modules\plugins\repository-statistics\src\test\java\org\apache\archiva\metadata\repository\stats\JcrRepositoryStatisticsGatheringTest.java,0,0,0,0
org.apache.archiva.metadata.repository.stats.RepositoryStatisticsFactory, 0, 0, 0, 0, 0, 0, 0, 0, 0, 0, 0, 0, 0, 0,0.0,0.0,0.0,0.0,0.0,0.0,0.0,0.0,0.0,0.0,0.0,0.0,0.0,13,archiva-modules\plugins\repository-statistics\src\main\java\org\apache\archiva\metadata\repository\stats\RepositoryStatisticsFactory.java,0,0,0,0
org.apache.archiva.metadata.repository.stats.RepositoryStatisticsManager, 0, 0, 0, 0, 0, 0, 0, 0, 0, 0, 0, 0, 0, 0,0.0,0.0,0.0,0.0,0.0,0.0,0.0,0.0,0.0,0.0,0.0,0.0,0.0,13,archiva-modules\plugins\repository-statistics\src\main\java\org\apache\archiva\metadata\repository\stats\RepositoryStatisticsManager.java,0,0,0,0
org.apache.archiva.metadata.repository.storage.RelocationException, 0, 0, 0, 0, 0, 0, 0, 0, 0, 0, 0, 0, 0, 0,0.0,0.0,0.0,0.0,0.0,0.0,0.0,0.0,0.0,0.0,0.0,0.0,0.0,30,archiva-modules\metadata\metadata-repository-api\src\main\java\org\apache\archiva\metadata\repository\storage\RelocationException.java,0,0,0,0
org.apache.archiva.metadata.repository.storage.RepositoryPathTranslator, 0, 0, 0, 0, 0, 0, 0, 0, 0, 0, 0, 0, 0, 0,0.0,0.0,0.0,0.0,0.0,0.0,0.0,0.0,0.0,0.0,0.0,0.0,0.0,30,archiva-modules\metadata\metadata-repository-api\src\main\java\org\apache\archiva\metadata\repository\storage\RepositoryPathTranslator.java,0,0,0,0
org.apache.archiva.metadata.repository.storage.RepositoryStorage, 0, 0, 0, 0, 0, 0, 0, 0, 0, 0, 0, 0, 0, 0,0.0,0.0,0.0,0.0,0.0,0.0,0.0,0.0,0.0,0.0,0.0,0.0,0.0,30,archiva-modules\metadata\metadata-repository-api\src\main\java\org\apache\archiva\metadata\repository\storage\RepositoryStorage.java,0,0,0,0
org.apache.archiva.metadata.repository.storage.RepositoryStorageMetadataException, 0, 0, 0, 0, 0, 0, 0, 0, 0, 0, 0, 0, 0, 0,0.0,0.0,0.0,0.0,0.0,0.16666666666666666,0.0,0.5,0.0,0.0,0.0,0.0,0.0,19,archiva-modules\metadata\metadata-repository-api\src\main\java\org\apache\archiva\metadata\repository\storage\RepositoryStorageMetadataException.java,0,0,0,0
org.apache.archiva.metadata.repository.storage.RepositoryStorageMetadataInvalidException, 0, 0, 0, 0, 0, 0, 0, 0, 0, 0, 0, 0, 0, 0,0.0,0.0,0.0,0.0,0.0,0.0,0.0,0.3333333333333333,0.0,0.0,0.0,0.0,0.0,12,archiva-modules\metadata\metadata-repository-api\src\main\java\org\apache\archiva\metadata\repository\storage\RepositoryStorageMetadataInvalidException.java,0,0,0,0
org.apache.archiva.metadata.repository.storage.RepositoryStorageMetadataNotFoundException, 0, 0, 0, 0, 0, 1, 0, 0, 0, 0, 0, 0, 0, 1,0.0,0.0,0.0,0.0,0.0,0.0,0.0,0.3333333333333333,0.0,0.0,0.0,0.0,0.0,8,archiva-modules\metadata\metadata-repository-api\src\main\java\org\apache\archiva\metadata\repository\storage\RepositoryStorageMetadataNotFoundException.java,0,0,0,0
org.apache.archiva.metadata.repository.storage.RepositoryStorageRuntimeException, 0, 0, 0, 0, 0, 0, 0, 0, 0, 0, 0, 0, 0, 0,0.0,0.0,0.0,0.0,0.0,0.0,0.0,0.3333333333333333,0.0,0.0,0.0,0.0,0.0,12,archiva-modules\metadata\metadata-repository-api\src\main\java\org\apache\archiva\metadata\repository\storage\RepositoryStorageRuntimeException.java,0,0,0,0
org.apache.archiva.metadata.repository.storage.maven2.AbstractDefaultRepositoryContentTestCase, 0, 0, 0, 1, 0, 0, 0, 1, 0, 0, 0, 0, 0, 2,0.0,0.0,0.25,0.0,0.0,0.0,0.0,0.0,0.0,0.0,0.0,0.0,0.0,313,archiva-modules\plugins\maven2-repository\src\test\java\org\apache\archiva\metadata\repository\storage\maven2\AbstractDefaultRepositoryContentTestCase.java,0,0,0,0
org.apache.archiva.metadata.repository.storage.maven2.AbstractLegacyRepositoryContentTestCase, 0, 0, 0, 1, 0, 0, 0, 1, 0, 0, 0, 0, 0, 2,0.0,0.0,0.3333333333333333,0.0,0.0,0.0,0.0,0.0,0.0,0.0,0.0,0.0,0.0,266,archiva-modules\plugins\maven2-repository\src\test\java\org\apache\archiva\metadata\repository\storage\maven2\AbstractLegacyRepositoryContentTestCase.java,0,0,0,0
org.apache.archiva.metadata.repository.storage.maven2.ArtifactMappingProvider, 0, 0, 0, 0, 0, 0, 0, 0, 0, 0, 0, 0, 0, 0,0.0,0.0,0.0,0.0,0.0,0.0,0.0,0.0,0.0,0.0,0.0,0.0,0.0,266,archiva-modules\plugins\maven2-repository\src\main\java\org\apache\archiva\metadata\repository\storage\maven2\ArtifactMappingProvider.java,0,0,0,0
org.apache.archiva.metadata.repository.storage.maven2.ArtifactMetadataVersionComparator, 1, 0, 1, 0, 0, 0, 0, 0, 0, 0, 0, 0, 0, 2,0.0,0.0,0.0,1.0,0.0,0.0,0.0,0.0,0.0,0.0,0.0,0.0,0.0,12,archiva-modules\plugins\maven2-repository\src\main\java\org\apache\archiva\metadata\repository\storage\maven2\ArtifactMetadataVersionComparator.java,0,0,0,0
org.apache.archiva.metadata.repository.storage.maven2.DummyLifecycleBindingsInjector, 0, 0, 0, 0, 0, 0, 0, 0, 0, 0, 0, 0, 0, 0,0.0,0.0,0.0,0.0,0.0,0.0,0.0,0.0,0.0,0.0,0.0,0.0,0.0,8,archiva-modules\plugins\maven2-repository\src\main\java\org\apache\archiva\metadata\repository\storage\maven2\DummyLifecycleBindingsInjector.java,0,0,0,0
org.apache.archiva.metadata.repository.storage.maven2.ManagedDefaultRepositoryContentTest, 0, 0, 0, 0, 0, 0, 0, 0, 0, 0, 0, 0, 0, 0,0.0,0.0,0.3333333333333333,0.3333333333333333,0.0,0.0,0.0,0.3333333333333333,0.0,0.0,0.0,0.0,0.0,146,archiva-modules\plugins\maven2-repository\src\test\java\org\apache\archiva\metadata\repository\storage\maven2\ManagedDefaultRepositoryContentTest.java,0,0,0,0
org.apache.archiva.metadata.repository.storage.maven2.Maven2RepositoryMetadataResolverMRM1411RepoGroupTest, 0, 0, 0, 1, 0, 0, 0, 1, 0, 0, 0, 0, 0, 2,0.0,0.0,0.0,0.25,0.0,0.0,0.0,0.0,0.0,0.0,0.0,0.0,0.0,369,archiva-modules\plugins\maven2-repository\src\test\java\org\apache\archiva\metadata\repository\storage\maven2\Maven2RepositoryMetadataResolverMRM1411RepoGroupTest.java,0,0,0,0
org.apache.archiva.metadata.repository.storage.maven2.Maven2RepositoryMetadataResolverManagedReleaseTest, 0, 0, 0, 0, 0, 0, 0, 0, 0, 0, 0, 0, 0, 0,0.0,0.0,0.0,0.0,0.0,0.0,0.0,0.0,0.0,0.0,0.0,0.0,0.0,75,archiva-modules\plugins\maven2-repository\src\test\java\org\apache\archiva\metadata\repository\storage\maven2\Maven2RepositoryMetadataResolverManagedReleaseTest.java,0,0,0,0
org.apache.archiva.metadata.repository.storage.maven2.Maven2RepositoryMetadataResolverManagedSnapshotTest, 0, 0, 0, 0, 0, 0, 0, 0, 0, 0, 0, 0, 0, 0,0.0,0.0,0.0,0.0,0.0,0.0,0.0,0.0,0.0,0.0,0.0,0.0,0.0,76,archiva-modules\plugins\maven2-repository\src\test\java\org\apache\archiva\metadata\repository\storage\maven2\Maven2RepositoryMetadataResolverManagedSnapshotTest.java,0,0,0,0
org.apache.archiva.metadata.repository.storage.maven2.MavenArtifactFacetFactory, 0, 0, 0, 0, 0, 0, 0, 0, 0, 0, 0, 0, 0, 0,0.0,0.0,0.0,0.0,0.0,0.0,0.0,0.0,0.0,0.0,0.0,0.0,0.0,13,archiva-modules\plugins\maven2-repository\src\main\java\org\apache\archiva\metadata\repository\storage\maven2\MavenArtifactFacetFactory.java,0,0,0,0
org.apache.archiva.metadata.repository.storage.maven2.MavenProjectFacetFactory, 0, 0, 0, 0, 0, 0, 0, 0, 0, 0, 0, 0, 0, 0,0.0,0.0,0.0,0.0,0.0,0.0,0.0,0.0,0.0,0.0,0.0,0.0,0.0,14,archiva-modules\plugins\maven2-repository\src\main\java\org\apache\archiva\metadata\repository\storage\maven2\MavenProjectFacetFactory.java,0,0,0,0
org.apache.archiva.metadata.repository.storage.maven2.MavenProjectParent, 0, 0, 0, 0, 0, 0, 0, 0, 0, 0, 0, 0, 0, 0,0.0,0.0,0.0,1.0,0.0,0.0,0.0,1.0,0.0,0.0,0.0,0.0,0.0,30,archiva-modules\plugins\maven2-repository\src\main\java\org\apache\archiva\metadata\repository\storage\maven2\MavenProjectParent.java,0,0,0,0
org.apache.archiva.metadata.repository.storage.maven2.MavenRepositoryMetadataReaderTest, 0, 0, 0, 0, 0, 0, 0, 0, 0, 0, 0, 0, 0, 0,0.0,0.0,0.0,0.0,0.0,0.0,0.0,0.0,0.0,0.0,0.0,0.0,0.0,72,archiva-modules\plugins\maven2-repository\src\test\java\org\apache\archiva\metadata\repository\storage\maven2\MavenRepositoryMetadataReaderTest.java,0,0,0,0
org.apache.archiva.metadata.repository.storage.maven2.MockWagon, 0, 0, 0, 1, 0, 0, 0, 0, 0, 0, 0, 0, 0, 1,0.0,0.0,0.0,0.0,0.0,0.0,0.0,0.0,0.0,0.0,0.0,0.0,0.0,160,archiva-modules\plugins\maven2-repository\src\test\java\org\apache\archiva\metadata\repository\storage\maven2\MockWagon.java,0,0,0,0
org.apache.archiva.metadata.repository.storage.maven2.RemoteDefaultRepositoryContentTest, 0, 0, 0, 0, 0, 0, 0, 0, 0, 0, 0, 0, 0, 0,0.0,0.0,0.5,0.5,0.0,0.0,0.0,0.5,0.0,0.0,0.0,0.0,0.0,26,archiva-modules\plugins\maven2-repository\src\test\java\org\apache\archiva\metadata\repository\storage\maven2\RemoteDefaultRepositoryContentTest.java,0,0,0,0
org.apache.archiva.metadata.repository.storage.maven2.RemoteLegacyRepositoryContentTest, 0, 0, 0, 0, 0, 0, 0, 0, 0, 0, 0, 0, 0, 0,0.0,0.0,0.5,0.5,0.0,0.0,0.0,0.5,0.0,0.0,0.0,0.0,0.0,28,archiva-modules\plugins\maven2-repository\src\test\java\org\apache\archiva\metadata\repository\storage\maven2\RemoteLegacyRepositoryContentTest.java,0,0,0,0
org.apache.archiva.metadata.repository.storage.maven2.conf.MockConfiguration, 0, 0, 0, 0, 0, 0, 0, 0, 0, 0, 0, 0, 0, 0,0.0,0.0,0.0,0.0,0.0,0.0,0.0,0.0,0.0,0.0,0.0,0.0,0.0,67,archiva-modules\plugins\maven2-repository\src\test\java\org\apache\archiva\metadata\repository\storage\maven2\conf\MockConfiguration.java,0,0,0,0
org.apache.archiva.mock.MockArchivaAdministration, 0, 0, 0, 0, 0, 0, 0, 0, 0, 0, 0, 0, 0, 0,0.0,0.0,0.0,0.0,0.0,0.0,0.0,0.0,0.0,0.0,0.0,0.0,0.0,138,archiva-modules\archiva-scheduler\archiva-scheduler-repository\src\test\java\org\apache\archiva\mock\MockArchivaAdministration.java,0,0,0,0
org.apache.archiva.model.ArchivaArtifactPlatformDetails, 0, 0, 0, 0, 0, 0, 0, 0, 0, 0, 0, 0, 0, 0,0.0,0.0,0.0,0.0,0.0,0.0,0.0,0.0,0.0,0.0,0.0,0.0,0.0,138,archiva-modules\archiva-base\archiva-model\src\main\java\org\apache\archiva\model\ArchivaArtifactPlatformDetails.java,0,0,0,0
org.apache.archiva.model.RepositoryURL, 0, 0, 0, 0, 0, 0, 0, 0, 0, 0, 0, 0, 0, 0,0.0,0.0,0.0,0.0,0.0,0.0,0.0,1.0,0.0,0.0,0.0,0.0,0.0,101,archiva-modules\archiva-base\archiva-model\src\main\java\org\apache\archiva\model\RepositoryURL.java,0,0,0,0
org.apache.archiva.model.RepositoryURLTest, 0, 0, 0, 0, 0, 0, 0, 1, 0, 0, 0, 0, 0, 1,0.0,0.0,0.0,0.0,0.0,0.0,0.0,0.0,0.0,0.0,0.0,0.0,0.0,62,archiva-modules\archiva-base\archiva-model\src\test\java\org\apache\archiva\model\RepositoryURLTest.java,0,0,0,0
org.apache.archiva.policies.DownloadPolicy, 0, 0, 0, 0, 0, 0, 0, 0, 0, 0, 0, 0, 0, 0,0.0,0.0,0.0,0.0,0.0,0.0,0.0,0.0,0.0,0.0,0.0,0.0,0.0,62,archiva-modules\archiva-base\archiva-policies\src\main\java\org\apache\archiva\policies\DownloadPolicy.java,0,0,0,0
org.apache.archiva.policies.Policy, 0, 0, 0, 0, 0, 0, 0, 0, 0, 0, 0, 0, 0, 0,0.0,0.0,0.0,0.0,0.0,0.0,0.0,0.0,0.0,0.0,0.0,0.0,0.0,62,archiva-modules\archiva-base\archiva-policies\src\main\java\org\apache\archiva\policies\Policy.java,0,0,0,0
org.apache.archiva.policies.PolicyConfigurationException, 0, 0, 0, 0, 0, 0, 0, 0, 0, 0, 0, 0, 0, 0,0.0,0.0,0.0,0.0,0.0,0.0,0.0,0.0,0.0,0.0,0.0,0.0,0.0,12,archiva-modules\archiva-base\archiva-policies\src\main\java\org\apache\archiva\policies\PolicyConfigurationException.java,0,0,0,0
org.apache.archiva.policies.PolicyViolationException, 0, 0, 0, 0, 0, 0, 0, 0, 0, 0, 0, 0, 0, 0,0.0,0.0,0.0,0.0,0.0,0.0,0.0,0.0,0.0,0.0,0.0,0.0,0.0,12,archiva-modules\archiva-base\archiva-policies\src\main\java\org\apache\archiva\policies\PolicyViolationException.java,0,0,0,0
org.apache.archiva.policies.PostDownloadPolicy, 0, 0, 0, 0, 0, 0, 0, 0, 0, 0, 0, 0, 0, 0,0.0,0.0,0.0,0.0,0.0,0.0,0.0,0.0,0.0,0.0,0.0,0.0,0.0,12,archiva-modules\archiva-base\archiva-policies\src\main\java\org\apache\archiva\policies\PostDownloadPolicy.java,0,0,0,0
org.apache.archiva.policies.PreDownloadPolicy, 0, 0, 0, 0, 0, 0, 0, 0, 0, 0, 0, 0, 0, 0,0.0,0.0,0.0,0.0,0.0,0.0,0.0,0.0,0.0,0.0,0.0,0.0,0.0,12,archiva-modules\archiva-base\archiva-policies\src\main\java\org\apache\archiva\policies\PreDownloadPolicy.java,0,0,0,0
org.apache.archiva.policies.ReleasesPolicy, 0, 0, 0, 0, 0, 0, 0, 0, 0, 0, 0, 0, 0, 0,0.0,0.0,0.0,0.0,0.0,0.0,0.0,0.0,0.0,0.0,0.0,0.0,0.0,30,archiva-modules\archiva-base\archiva-policies\src\main\java\org\apache\archiva\policies\ReleasesPolicy.java,0,0,0,0
org.apache.archiva.policies.SnapshotsPolicy, 0, 0, 0, 0, 0, 0, 0, 0, 0, 0, 0, 0, 0, 0,0.0,0.0,0.0,0.0,0.0,0.0,0.0,0.0,0.0,0.0,0.0,0.0,0.0,30,archiva-modules\archiva-base\archiva-policies\src\main\java\org\apache\archiva\policies\SnapshotsPolicy.java,0,0,0,0
org.apache.archiva.policies.urlcache.DefaultUrlFailureCache, 0, 0, 0, 0, 0, 0, 0, 0, 0, 0, 0, 0, 0, 0,0.0,0.0,0.0,0.0,0.0,0.0,0.0,0.0,0.0,0.0,0.0,0.0,0.0,25,archiva-modules\archiva-base\archiva-policies\src\main\java\org\apache\archiva\policies\urlcache\DefaultUrlFailureCache.java,0,0,0,0
org.apache.archiva.policies.urlcache.UrlFailureCache, 0, 0, 0, 0, 0, 0, 0, 0, 0, 0, 0, 0, 0, 0,0.0,0.0,0.0,0.0,0.0,0.0,0.0,0.0,0.0,0.0,0.0,0.0,0.0,25,archiva-modules\archiva-base\archiva-policies\src\main\java\org\apache\archiva\policies\urlcache\UrlFailureCache.java,0,0,0,0
org.apache.archiva.proxy.CacheFailuresTransferTest, 0, 0, 0, 0, 0, 0, 0, 0, 0, 0, 0, 0, 0, 0,0.0,0.0,0.0,0.0,0.0,0.0,0.0,0.0,0.0,0.0,0.0,0.0,0.0,90,archiva-modules\archiva-base\archiva-proxy\src\test\java\org\apache\archiva\proxy\CacheFailuresTransferTest.java,0,0,0,0
org.apache.archiva.proxy.ChecksumTransferTest, 0, 0, 0, 0, 0, 0, 0, 0, 0, 0, 0, 0, 0, 0,0.0,0.0,0.0,0.0,0.0,0.0,0.0,0.0,0.0,0.0,0.0,0.0,0.0,359,archiva-modules\archiva-base\archiva-proxy\src\test\java\org\apache\archiva\proxy\ChecksumTransferTest.java,0,0,0,0
org.apache.archiva.proxy.ErrorHandlingTest, 0, 0, 0, 1, 0, 0, 0, 0, 0, 0, 0, 0, 0, 1,0.0,0.0,0.0,0.0,0.0,0.0,0.0,0.0,0.0,0.0,0.0,0.0,0.0,450,archiva-modules\archiva-base\archiva-proxy\src\test\java\org\apache\archiva\proxy\ErrorHandlingTest.java,0,0,0,0
org.apache.archiva.proxy.HttpProxyTransferTest, 0, 0, 0, 0, 0, 0, 0, 0, 0, 0, 0, 0, 0, 0,0.0,0.0,0.0,0.0,0.0,0.0,0.0,0.0,0.0,0.0,0.0,0.0,0.0,132,archiva-modules\archiva-base\archiva-proxy\src\test\java\org\apache\archiva\proxy\HttpProxyTransferTest.java,0,0,0,0
org.apache.archiva.proxy.ManagedDefaultTransferTest, 0, 0, 0, 0, 0, 0, 0, 0, 0, 0, 0, 0, 0, 0,0.0,0.0,0.0,0.0,0.0,0.0,0.0,0.0,0.0,0.0,0.0,0.0,0.0,307,archiva-modules\archiva-base\archiva-proxy\src\test\java\org\apache\archiva\proxy\ManagedDefaultTransferTest.java,0,0,0,0
org.apache.archiva.proxy.ManagedLegacyTransferTest, 0, 0, 0, 0, 0, 0, 0, 0, 0, 0, 0, 0, 0, 0,0.0,0.0,0.0,0.0,0.0,0.0,0.0,0.0,0.0,0.0,0.0,0.0,0.0,115,archiva-modules\archiva-base\archiva-proxy\src\test\java\org\apache\archiva\proxy\ManagedLegacyTransferTest.java,0,0,0,0
org.apache.archiva.proxy.MetadataTransferTest, 0, 0, 0, 1, 0, 0, 0, 1, 0, 0, 0, 0, 0, 2,0.0,0.0,0.0,0.0,0.0,0.0,0.0,0.0,0.0,0.0,0.0,0.0,0.0,763,archiva-modules\archiva-base\archiva-proxy\src\test\java\org\apache\archiva\proxy\MetadataTransferTest.java,0,0,0,0
org.apache.archiva.proxy.MockConfiguration, 0, 0, 0, 0, 0, 0, 0, 0, 0, 0, 0, 0, 0, 0,0.0,0.0,0.0,0.5,0.0,0.0,0.0,0.5,0.0,0.0,0.0,0.0,0.0,83,archiva-modules\archiva-base\archiva-proxy\src\test\java\org\apache\archiva\proxy\MockConfiguration.java,0,0,0,0
org.apache.archiva.proxy.NotFoundException, 0, 0, 0, 0, 0, 0, 0, 0, 0, 0, 0, 0, 0, 0,0.0,0.0,0.0,0.0,0.0,0.0,0.0,0.0,0.0,0.0,0.0,0.0,0.0,12,archiva-modules\archiva-base\archiva-proxy\src\main\java\org\apache\archiva\proxy\NotFoundException.java,0,0,0,0
org.apache.archiva.proxy.NotModifiedException, 0, 0, 0, 0, 0, 0, 0, 0, 0, 0, 0, 0, 0, 0,0.0,0.0,0.0,0.0,0.0,0.0,0.0,0.0,0.0,0.0,0.0,0.0,0.0,12,archiva-modules\archiva-base\archiva-proxy\src\main\java\org\apache\archiva\proxy\NotModifiedException.java,0,0,0,0
org.apache.archiva.proxy.ProxyConnectorOrderComparator, 0, 0, 0, 0, 0, 0, 0, 0, 0, 0, 0, 0, 0, 0,0.0,0.0,0.0,0.0,0.0,0.0,0.0,0.0,0.0,0.0,0.0,0.0,0.0,34,archiva-modules\archiva-base\archiva-proxy\src\main\java\org\apache\archiva\proxy\ProxyConnectorOrderComparator.java,0,0,0,0
org.apache.archiva.proxy.ProxyException, 0, 0, 0, 0, 0, 0, 0, 0, 0, 0, 0, 0, 0, 0,0.0,0.0,0.0,0.0,0.0,0.0,0.0,0.0,0.0,0.0,0.0,0.0,0.0,12,archiva-modules\archiva-base\archiva-proxy\src\main\java\org\apache\archiva\proxy\ProxyException.java,0,0,0,0
org.apache.archiva.proxy.SnapshotTransferTest, 0, 0, 0, 0, 0, 0, 0, 0, 0, 0, 0, 0, 0, 0,0.0,0.0,0.0,0.0,0.0,0.0,0.0,0.0,0.0,0.0,0.0,0.0,0.0,150,archiva-modules\archiva-base\archiva-proxy\src\test\java\org\apache\archiva\proxy\SnapshotTransferTest.java,0,0,0,0
org.apache.archiva.proxy.WagonDelegate, 0, 0, 0, 1, 0, 0, 0, 0, 0, 0, 0, 0, 0, 1,0.0,0.0,0.0,0.0,0.0,0.0,0.0,0.0,0.0,0.0,0.0,0.0,0.0,201,archiva-modules\archiva-base\archiva-proxy\src\test\java\org\apache\archiva\proxy\WagonDelegate.java,0,0,0,0
org.apache.archiva.proxy.common.DebugTransferListener, 0, 0, 0, 0, 0, 0, 0, 0, 0, 0, 0, 0, 0, 0,0.0,0.0,0.0,0.0,0.0,0.0,0.0,0.0,0.0,0.0,0.0,0.0,0.0,40,archiva-modules\archiva-base\archiva-proxy-common\src\main\java\org\apache\archiva\proxy\common\DebugTransferListener.java,0,0,0,0
org.apache.archiva.proxy.common.WagonFactory, 0, 0, 0, 0, 0, 0, 0, 0, 0, 0, 0, 0, 0, 0,0.0,0.0,0.0,0.0,0.0,0.0,0.0,0.0,0.0,0.0,0.0,0.0,0.0,40,archiva-modules\archiva-base\archiva-proxy-common\src\main\java\org\apache\archiva\proxy\common\WagonFactory.java,0,0,0,0
org.apache.archiva.proxy.common.WagonFactoryException, 0, 0, 0, 0, 0, 1, 0, 0, 0, 0, 0, 0, 0, 1,0.0,0.0,0.0,0.0,0.0,0.0,0.0,0.0,0.0,0.0,0.0,0.0,0.0,8,archiva-modules\archiva-base\archiva-proxy-common\src\main\java\org\apache\archiva\proxy\common\WagonFactoryException.java,0,0,0,0
org.apache.archiva.proxy.common.WagonFactoryTest, 0, 0, 0, 0, 0, 0, 0, 0, 0, 0, 0, 0, 0, 0,0.0,0.0,0.0,0.0,0.0,0.0,0.0,0.0,0.0,0.0,0.0,0.0,0.0,16,archiva-modules\archiva-base\archiva-proxy-common\src\test\java\org\apache\archiva\proxy\common\WagonFactoryTest.java,0,0,0,0
org.apache.archiva.proxy.model.RepositoryProxyConnectors, 0, 0, 0, 0, 0, 0, 0, 0, 0, 0, 0, 0, 0, 0,0.0,0.0,0.0,0.0,0.0,0.0,0.0,0.0,0.0,0.0,0.0,0.0,0.0,16,archiva-modules\archiva-base\archiva-proxy-api\src\main\java\org\apache\archiva\proxy\model\RepositoryProxyConnectors.java,0,0,0,0
org.apache.archiva.remotedownload.AbstractDownloadTest, 1, 0, 1, 0, 0, 0, 0, 0, 0, 0, 0, 0, 0, 2,0.0,0.0,0.16666666666666666,0.0,0.0,0.0,0.0,0.0,0.0,0.0,0.0,0.0,0.0,186,archiva-modules\archiva-web\archiva-web-common\src\test\java\org\apache\archiva\remotedownload\AbstractDownloadTest.java,0,0,0,0
org.apache.archiva.remotedownload.DownloadArtifactFromQueryTest, 0, 0, 0, 0, 0, 0, 0, 0, 0, 0, 0, 0, 0, 0,1.0,0.0,1.0,0.0,0.0,0.0,0.0,0.0,0.0,0.0,0.0,0.0,0.0,124,archiva-modules\archiva-web\archiva-web-common\src\test\java\org\apache\archiva\remotedownload\DownloadArtifactFromQueryTest.java,0,0,0,0
org.apache.archiva.remotedownload.DownloadArtifactsTest, 0, 0, 1, 0, 0, 0, 0, 0, 0, 0, 0, 0, 0, 1,1.0,0.0,1.0,0.0,0.0,0.0,0.0,0.0,0.0,0.0,0.0,0.0,0.0,124,archiva-modules\archiva-web\archiva-web-common\src\test\java\org\apache\archiva\remotedownload\DownloadArtifactsTest.java,0,0,0,0
org.apache.archiva.remotedownload.DownloadMergedIndexNonDefaultPathTest, 0, 0, 0, 0, 0, 0, 0, 0, 0, 0, 0, 0, 0, 0,0.5,0.0,0.5,0.0,0.0,0.0,0.0,0.0,0.0,0.0,0.0,0.0,0.0,112,archiva-modules\archiva-web\archiva-web-common\src\test\java\org\apache\archiva\remotedownload\DownloadMergedIndexNonDefaultPathTest.java,0,0,0,0
org.apache.archiva.remotedownload.DownloadMergedIndexTest, 0, 0, 0, 0, 0, 0, 0, 0, 0, 0, 0, 0, 0, 0,1.0,0.0,1.0,0.0,0.0,0.0,0.0,0.0,0.0,0.0,0.0,0.0,0.0,118,archiva-modules\archiva-web\archiva-web-common\src\test\java\org\apache\archiva\remotedownload\DownloadMergedIndexTest.java,0,0,0,0
org.apache.archiva.remotedownload.DownloadSnapshotTest, 0, 0, 0, 0, 0, 0, 0, 0, 0, 0, 0, 0, 0, 0,1.0,0.0,1.0,0.0,0.0,0.0,0.0,0.0,0.0,0.0,0.0,0.0,0.0,69,archiva-modules\archiva-web\archiva-web-common\src\test\java\org\apache\archiva\remotedownload\DownloadSnapshotTest.java,0,0,0,0
org.apache.archiva.remotedownload.RemoteRepositoryConnectivityCheckTest, 0, 0, 0, 0, 0, 0, 0, 0, 0, 0, 0, 0, 0, 0,1.0,0.0,1.0,0.0,0.0,0.0,0.0,0.0,0.0,0.0,0.0,0.0,0.0,102,archiva-modules\archiva-web\archiva-web-common\src\test\java\org\apache\archiva\remotedownload\RemoteRepositoryConnectivityCheckTest.java,0,0,0,0
org.apache.archiva.reports.RepositoryProblemEventListener, 0, 0, 0, 0, 0, 0, 0, 1, 0, 0, 0, 0, 0, 1,0.0,0.0,0.0,0.25,0.0,0.0,0.0,0.0,0.0,0.0,0.0,0.0,0.0,56,archiva-modules\plugins\problem-reports\src\main\java\org\apache\archiva\reports\RepositoryProblemEventListener.java,0,1,0,1
org.apache.archiva.reports.RepositoryProblemFacetFactory, 0, 0, 0, 0, 0, 0, 0, 0, 0, 0, 0, 0, 0, 0,0.0,0.0,0.0,0.0,0.0,0.0,0.0,0.0,0.0,0.0,0.0,0.0,0.0,14,archiva-modules\plugins\problem-reports\src\main\java\org\apache\archiva\reports\RepositoryProblemFacetFactory.java,0,1,0,1
org.apache.archiva.reports.consumers.DuplicateArtifactsConsumer, 0, 0, 0, 0, 0, 0, 0, 0, 0, 0, 0, 0, 0, 0,0.0,0.0,0.0,0.14285714285714285,0.0,0.0,0.0,0.0,0.0,0.0,0.0,0.0,0.0,169,archiva-modules\plugins\problem-reports\src\main\java\org\apache\archiva\reports\consumers\DuplicateArtifactsConsumer.java,0,0,1,2
org.apache.archiva.reports.consumers.DuplicateArtifactsConsumerTest, 0, 0, 0, 0, 0, 0, 0, 0, 0, 0, 0, 0, 0, 0,0.0,0.0,0.0,0.25,0.0,0.0,0.0,0.0,0.0,0.0,0.0,0.0,0.0,141,archiva-modules\plugins\problem-reports\src\test\java\org\apache\archiva\reports\consumers\DuplicateArtifactsConsumerTest.java,0,0,1,2
org.apache.archiva.reports.consumers.MockitoFactory, 0, 0, 0, 0, 0, 0, 0, 0, 0, 0, 0, 0, 0, 0,0.0,0.0,0.0,0.0,0.0,0.0,0.0,0.0,0.0,0.0,0.0,0.0,0.0,25,archiva-modules\plugins\problem-reports\src\test\java\org\apache\archiva\reports\consumers\MockitoFactory.java,0,0,0,0
org.apache.archiva.repository.AbstractRepositoryLayerTestCase, 0, 0, 1, 0, 0, 0, 0, 0, 0, 0, 0, 0, 0, 1,0.0,0.0,0.0,0.4,0.0,0.0,0.0,0.4,0.0,0.0,0.0,0.0,0.0,50,archiva-modules\plugins\maven2-repository\src\test\java\org\apache\archiva\repository\AbstractRepositoryLayerTestCase.java,0,0,0,0
org.apache.archiva.repository.ContentNotFoundException, 0, 0, 0, 0, 0, 0, 0, 0, 0, 0, 0, 0, 0, 0,0.0,0.0,0.0,0.2857142857142857,0.0,0.0,0.0,0.42857142857142855,0.0,0.0,0.0,0.0,0.0,20,archiva-modules\archiva-base\archiva-repository-layer\src\main\java\org\apache\archiva\repository\ContentNotFoundException.java,0,0,0,0
org.apache.archiva.repository.ManagedRepositoryContent, 0, 0, 0, 0, 0, 0, 0, 0, 0, 0, 0, 0, 0, 0,0.0,0.0,0.0,0.0,0.0,0.0,0.0,0.0,0.0,0.0,0.0,0.0,0.0,20,archiva-modules\archiva-base\archiva-repository-layer\src\main\java\org\apache\archiva\repository\ManagedRepositoryContent.java,0,0,0,0
org.apache.archiva.repository.RemoteRepositoryContent, 0, 0, 0, 0, 0, 0, 0, 0, 0, 0, 0, 0, 0, 0,0.0,0.0,0.0,0.0,0.0,0.0,0.0,0.0,0.0,0.0,0.0,0.0,0.0,20,archiva-modules\archiva-base\archiva-repository-layer\src\main\java\org\apache\archiva\repository\RemoteRepositoryContent.java,0,0,0,0
org.apache.archiva.repository.RepositoryException, 0, 0, 0, 0, 0, 0, 0, 0, 0, 0, 0, 0, 0, 0,0.0,0.0,0.0,0.3,0.0,0.0,0.0,0.3,0.0,0.0,0.0,0.0,0.0,20,archiva-modules\archiva-base\archiva-repository-layer\src\main\java\org\apache\archiva\repository\RepositoryException.java,0,0,0,0
org.apache.archiva.repository.RepositoryNotFoundException, 0, 0, 0, 0, 0, 0, 0, 0, 0, 0, 0, 0, 0, 0,0.0,0.0,0.0,0.5,0.0,0.0,0.0,0.5,0.0,0.0,0.0,0.0,0.0,19,archiva-modules\archiva-base\archiva-repository-layer\src\main\java\org\apache\archiva\repository\RepositoryNotFoundException.java,0,0,0,0
org.apache.archiva.repository.RepositoryURLTest, 0, 0, 0, 0, 0, 0, 0, 1, 0, 0, 0, 0, 0, 1,0.0,0.0,0.0,0.0,0.0,0.0,0.0,0.0,0.0,0.0,0.0,0.0,0.0,57,archiva-modules\plugins\maven2-repository\src\test\java\org\apache\archiva\repository\RepositoryURLTest.java,0,0,0,0
org.apache.archiva.repository.audit.TestAuditListener, 0, 0, 0, 0, 0, 0, 0, 0, 0, 0, 0, 0, 0, 0,0.0,0.0,0.0,0.0,0.0,0.0,0.0,0.0,0.0,0.0,0.0,0.0,0.0,14,archiva-modules\archiva-web\archiva-webdav\src\test\java\org\apache\archiva\repository\audit\TestAuditListener.java,0,0,2,4
org.apache.archiva.repository.connector.RepositoryConnector, 0, 0, 0, 0, 0, 0, 0, 0, 0, 0, 0, 0, 0, 0,0.0,0.0,0.0,0.0,0.0,0.0,0.0,0.0,0.0,0.0,0.0,0.0,0.0,14,archiva-modules\archiva-base\archiva-repository-layer\src\main\java\org\apache\archiva\repository\connector\RepositoryConnector.java,0,0,0,0
org.apache.archiva.repository.content.PathParser, 0, 0, 0, 0, 0, 0, 0, 0, 0, 0, 0, 0, 0, 0,0.0,0.0,0.0,0.0,0.0,0.0,0.0,0.0,0.0,0.0,0.0,0.0,0.0,14,archiva-modules\archiva-base\archiva-repository-layer\src\main\java\org\apache\archiva\repository\content\PathParser.java,0,0,0,0
org.apache.archiva.repository.content.legacy.LegacyPathParser, 0, 0, 0, 0, 0, 0, 0, 0, 0, 0, 0, 0, 0, 0,0.0,0.0,0.0,0.5,0.0,0.0,0.0,0.3333333333333333,0.0,0.0,0.0,0.0,0.0,121,archiva-modules\plugins\maven2-repository\src\main\java\org\apache\archiva\repository\content\legacy\LegacyPathParser.java,0,0,0,0
org.apache.archiva.repository.content.legacy.LegacyPathParserTest, 0, 0, 0, 1, 0, 0, 0, 1, 0, 0, 0, 0, 0, 2,0.0,0.0,0.0,0.0,0.0,0.0,0.0,0.0,0.0,0.0,0.0,0.0,0.0,297,archiva-modules\plugins\maven2-repository\src\test\java\org\apache\archiva\repository\content\legacy\LegacyPathParserTest.java,0,0,0,0
org.apache.archiva.repository.content.maven2.ArtifactExtensionMapping, 0, 0, 0, 0, 0, 0, 0, 0, 0, 0, 0, 0, 0, 0,0.0,0.0,0.0,0.0,0.0,0.0,0.0,0.0,0.0,0.0,0.0,0.0,0.0,41,archiva-modules\plugins\maven2-repository\src\main\java\org\apache\archiva\repository\content\maven2\ArtifactExtensionMapping.java,0,0,0,0
org.apache.archiva.repository.content.maven2.ArtifactExtensionMappingTest, 0, 0, 0, 0, 0, 0, 0, 0, 0, 0, 0, 0, 0, 0,0.0,0.0,0.0,0.0,0.0,0.0,0.0,0.0,0.0,0.0,0.0,0.0,0.0,35,archiva-modules\plugins\maven2-repository\src\test\java\org\apache\archiva\repository\content\maven2\ArtifactExtensionMappingTest.java,0,0,0,0
org.apache.archiva.repository.content.maven2.DefaultPathParser, 0, 0, 0, 0, 0, 0, 0, 0, 0, 0, 0, 0, 0, 0,0.0,0.0,0.0,0.5,0.0,0.0,0.0,0.0,0.0,0.0,0.0,0.0,0.0,36,archiva-modules\plugins\maven2-repository\src\main\java\org\apache\archiva\repository\content\maven2\DefaultPathParser.java,0,0,0,0
org.apache.archiva.repository.content.maven2.DefaultPathParserTest, 0, 0, 0, 1, 0, 0, 0, 1, 0, 0, 0, 0, 0, 2,0.0,0.0,0.0,0.0,0.0,0.0,0.0,0.0,0.0,0.0,0.0,0.0,0.0,372,archiva-modules\plugins\maven2-repository\src\test\java\org\apache\archiva\repository\content\maven2\DefaultPathParserTest.java,0,0,0,0
org.apache.archiva.repository.content.maven2.FilenameParserTest, 0, 0, 0, 0, 0, 0, 0, 0, 0, 0, 0, 0, 0, 0,0.0,0.0,0.0,0.0,0.0,0.0,0.0,0.0,0.0,0.0,0.0,0.0,0.0,146,archiva-modules\plugins\maven2-repository\src\test\java\org\apache\archiva\repository\content\maven2\FilenameParserTest.java,0,0,0,0
org.apache.archiva.repository.content.maven2.RepositoryRequest, 0, 0, 0, 0, 0, 0, 0, 0, 0, 0, 0, 0, 0, 0,0.0,0.0,0.0,0.5,0.0,0.0,0.0,0.25,0.0,0.0,0.0,0.0,0.0,140,archiva-modules\plugins\maven2-repository\src\main\java\org\apache\archiva\repository\content\maven2\RepositoryRequest.java,0,0,0,0
org.apache.archiva.repository.content.maven2.RepositoryRequestTest, 0, 0, 0, 1, 0, 0, 0, 1, 0, 0, 0, 0, 0, 2,0.0,0.0,0.0,0.0,0.0,0.0,0.0,0.0,0.0,0.0,0.0,0.0,0.0,491,archiva-modules\plugins\maven2-repository\src\test\java\org\apache\archiva\repository\content\maven2\RepositoryRequestTest.java,0,0,0,0
org.apache.archiva.repository.events.RepositoryListener, 0, 0, 0, 0, 0, 0, 0, 0, 0, 0, 0, 0, 0, 0,0.0,0.0,0.0,0.0,0.0,0.0,0.0,0.0,0.0,0.0,0.0,0.0,0.0,491,archiva-modules\metadata\metadata-repository-api\src\main\java\org\apache\archiva\repository\events\RepositoryListener.java,0,0,0,0
org.apache.archiva.repository.layout.LayoutException, 0, 0, 0, 0, 0, 0, 0, 0, 0, 0, 0, 0, 0, 0,0.0,0.0,0.0,0.4,0.0,0.0,0.0,0.4666666666666667,0.0,0.0,0.0,0.0,0.0,11,archiva-modules\archiva-base\archiva-repository-layer\src\main\java\org\apache\archiva\repository\layout\LayoutException.java,0,0,0,0
org.apache.archiva.repository.metadata.Maven2RepositoryStorageTest, 0, 0, 0, 0, 0, 0, 0, 0, 0, 0, 0, 0, 0, 0,0.0,0.0,0.0,0.0,0.0,0.0,0.0,0.0,0.0,0.0,0.0,0.0,0.0,20,archiva-modules\plugins\maven2-repository\src\test\java\org\apache\archiva\repository\metadata\Maven2RepositoryStorageTest.java,0,0,0,0
org.apache.archiva.repository.metadata.RepositoryMetadataException, 0, 0, 0, 0, 0, 0, 0, 0, 0, 0, 0, 0, 0, 0,0.0,0.0,0.0,0.2857142857142857,0.0,0.0,0.0,0.42857142857142855,0.0,0.0,0.0,0.0,0.0,20,archiva-modules\archiva-base\archiva-repository-layer\src\main\java\org\apache\archiva\repository\metadata\RepositoryMetadataException.java,0,0,0,0
org.apache.archiva.repository.metadata.RepositoryMetadataMerge, 0, 0, 0, 0, 0, 0, 0, 0, 0, 0, 0, 0, 0, 0,0.0,0.0,0.0,0.0,0.0,0.0,0.0,0.0,0.0,0.0,0.0,0.0,0.0,168,archiva-modules\archiva-base\archiva-repository-layer\src\main\java\org\apache\archiva\repository\metadata\RepositoryMetadataMerge.java,0,0,0,0
org.apache.archiva.repository.metadata.RepositoryMetadataReaderTest, 0, 0, 0, 0, 0, 0, 0, 0, 0, 0, 0, 0, 0, 0,0.0,0.0,0.0,0.0,0.0,0.0,0.0,0.0,0.0,0.0,0.0,0.0,0.0,36,archiva-modules\plugins\maven2-repository\src\test\java\org\apache\archiva\repository\metadata\RepositoryMetadataReaderTest.java,0,0,0,0
org.apache.archiva.repository.metadata.RepositoryMetadataWriterTest, 0, 0, 0, 0, 0, 0, 0, 0, 0, 0, 0, 0, 0, 0,0.0,0.0,0.0,0.0,0.0,0.0,0.0,0.0,0.0,0.0,0.0,0.0,0.0,23,archiva-modules\plugins\maven2-repository\src\test\java\org\apache\archiva\repository\metadata\RepositoryMetadataWriterTest.java,0,0,0,0
org.apache.archiva.repository.scanner.ArchivaAdministrationStub, 0, 0, 0, 0, 0, 0, 0, 0, 0, 0, 0, 0, 0, 0,0.0,0.0,0.0,0.0,0.0,0.0,0.0,0.0,0.0,0.0,0.0,0.0,0.0,135,archiva-modules\archiva-base\archiva-repository-scanner\src\test\java\org\apache\archiva\repository\scanner\ArchivaAdministrationStub.java,0,0,0,0
org.apache.archiva.repository.scanner.DefaultRepositoryScanner, 0, 0, 0, 0, 0, 0, 0, 1, 0, 0, 0, 0, 0, 1,0.0,0.0,0.0,0.0,0.0,0.0,0.0,0.0,0.0,0.0,0.0,0.0,0.0,94,archiva-modules\archiva-base\archiva-repository-scanner\src\main\java\org\apache\archiva\repository\scanner\DefaultRepositoryScanner.java,0,0,0,0
org.apache.archiva.repository.scanner.InvalidScanConsumer, 0, 0, 0, 0, 0, 0, 0, 0, 0, 0, 0, 0, 0, 0,0.0,0.0,0.0,0.0,0.0,0.0,0.0,0.0,0.0,0.0,0.0,0.0,0.0,84,archiva-modules\archiva-base\archiva-repository-scanner\src\test\java\org\apache\archiva\repository\scanner\InvalidScanConsumer.java,0,0,0,0
org.apache.archiva.repository.scanner.KnownScanConsumer, 0, 0, 0, 0, 0, 0, 0, 0, 0, 0, 0, 0, 0, 0,0.0,0.0,0.0,0.0,0.0,0.0,0.0,0.0,0.0,0.0,0.0,0.0,0.0,87,archiva-modules\archiva-base\archiva-repository-scanner\src\test\java\org\apache\archiva\repository\scanner\KnownScanConsumer.java,0,0,0,0
org.apache.archiva.repository.scanner.RepositoryContentConsumersStub, 0, 0, 0, 0, 0, 0, 0, 0, 0, 0, 0, 0, 0, 0,0.0,0.0,0.0,0.0,0.0,0.0,0.0,0.0,0.0,0.0,0.0,0.0,0.0,15,archiva-modules\archiva-base\archiva-repository-scanner\src\test\java\org\apache\archiva\repository\scanner\RepositoryContentConsumersStub.java,0,0,0,0
org.apache.archiva.repository.scanner.RepositoryScanner, 0, 0, 0, 0, 0, 0, 0, 0, 0, 0, 0, 0, 0, 0,0.0,0.0,0.0,0.0,0.0,0.0,0.0,0.0,0.0,0.0,0.0,0.0,0.0,15,archiva-modules\archiva-base\archiva-repository-scanner\src\main\java\org\apache\archiva\repository\scanner\RepositoryScanner.java,0,0,0,0
org.apache.archiva.repository.scanner.RepositoryScannerException, 0, 0, 0, 0, 0, 0, 0, 0, 0, 0, 0, 0, 0, 0,0.0,0.0,0.0,0.25,0.0,0.0,0.0,0.5,0.0,0.0,0.0,0.0,0.0,20,archiva-modules\archiva-base\archiva-repository-scanner\src\main\java\org\apache\archiva\repository\scanner\RepositoryScannerException.java,0,0,0,0
org.apache.archiva.repository.scanner.RepositoryScannerTest, 0, 0, 0, 0, 0, 0, 0, 0, 0, 0, 0, 0, 0, 0,0.0,0.0,0.0,0.0,0.0,0.0,0.0,0.0,0.0,0.0,0.0,0.0,0.0,310,archiva-modules\archiva-base\archiva-repository-scanner\src\test\java\org\apache\archiva\repository\scanner\RepositoryScannerTest.java,0,0,0,0
org.apache.archiva.repository.scanner.SampleKnownConsumer, 0, 0, 0, 0, 0, 0, 0, 0, 0, 0, 0, 0, 0, 0,0.0,0.0,0.0,0.0,0.0,0.0,0.0,0.0,0.0,0.0,0.0,0.0,0.0,66,archiva-modules\archiva-base\archiva-repository-scanner\src\test\java\org\apache\archiva\repository\scanner\SampleKnownConsumer.java,0,0,0,0
org.apache.archiva.repository.scanner.functors.TriggerBeginScanClosure, 0, 0, 0, 0, 0, 0, 0, 0, 0, 0, 0, 0, 0, 0,0.0,0.0,0.0,0.0,0.0,0.0,0.0,0.0,0.0,0.0,0.0,0.0,0.0,38,archiva-modules\archiva-base\archiva-repository-scanner\src\main\java\org\apache\archiva\repository\scanner\functors\TriggerBeginScanClosure.java,0,0,0,0
org.apache.archiva.repository.scanner.functors.TriggerScanCompletedClosure, 0, 0, 0, 0, 0, 0, 0, 0, 0, 0, 0, 0, 0, 0,0.0,0.0,0.0,0.0,0.0,0.0,0.0,0.0,0.0,0.0,0.0,0.0,0.0,26,archiva-modules\archiva-base\archiva-repository-scanner\src\main\java\org\apache\archiva\repository\scanner\functors\TriggerScanCompletedClosure.java,0,0,0,0
org.apache.archiva.rest.api.model.AdminRepositoryConsumer, 0, 0, 0, 0, 0, 0, 0, 0, 0, 0, 0, 0, 0, 0,0.0,0.0,0.0,0.0,0.0,0.0,0.0,0.0,0.0,0.0,0.0,0.0,0.0,40,archiva-modules\archiva-web\archiva-rest\archiva-rest-api\src\main\java\org\apache\archiva\rest\api\model\AdminRepositoryConsumer.java,0,0,0,0
org.apache.archiva.rest.api.model.ArtifactContent, 0, 0, 0, 0, 0, 0, 0, 0, 0, 0, 0, 0, 0, 0,0.0,0.0,0.0,0.0,0.0,0.0,0.0,0.0,0.0,0.0,0.0,0.0,0.0,30,archiva-modules\archiva-web\archiva-rest\archiva-rest-api\src\main\java\org\apache\archiva\rest\api\model\ArtifactContent.java,0,0,0,0
org.apache.archiva.rest.api.model.ArtifactTransferRequest, 0, 0, 0, 0, 0, 0, 0, 0, 0, 0, 0, 0, 0, 0,0.0,0.0,0.0,0.5,0.0,0.0,0.0,0.5,0.0,0.0,0.0,0.0,0.0,14,archiva-modules\archiva-web\archiva-rest\archiva-rest-api\src\main\java\org\apache\archiva\rest\api\model\ArtifactTransferRequest.java,0,0,0,0
org.apache.archiva.rest.api.model.ConsumerScanningStatistics, 0, 0, 0, 0, 0, 0, 0, 0, 0, 0, 0, 0, 0, 0,0.0,0.0,0.0,0.0,0.0,0.0,0.0,0.0,0.0,0.0,0.0,0.0,0.0,43,archiva-modules\archiva-web\archiva-rest\archiva-rest-api\src\main\java\org\apache\archiva\rest\api\model\ConsumerScanningStatistics.java,0,0,0,0
org.apache.archiva.rest.api.model.Dependency, 0, 0, 0, 0, 0, 0, 0, 1, 0, 0, 0, 0, 0, 1,0.0,0.0,0.0,0.0,0.0,0.0,0.0,0.0,0.0,0.0,0.0,0.0,0.0,126,archiva-modules\archiva-web\archiva-rest\archiva-rest-api\src\main\java\org\apache\archiva\rest\api\model\Dependency.java,0,0,0,0
org.apache.archiva.rest.api.model.GroupIdList, 0, 0, 0, 0, 0, 0, 0, 0, 0, 0, 0, 0, 0, 0,0.0,0.0,0.0,0.0,0.0,0.0,0.0,0.0,0.0,0.0,0.0,0.0,0.0,20,archiva-modules\archiva-web\archiva-rest\archiva-rest-api\src\main\java\org\apache\archiva\rest\api\model\GroupIdList.java,0,0,0,0
org.apache.archiva.rest.api.model.RBACManagerImplementationInformation, 0, 0, 0, 0, 0, 0, 0, 0, 0, 0, 0, 0, 0, 0,0.0,0.0,0.0,0.0,0.0,0.0,0.0,0.0,0.0,0.0,0.0,0.0,0.0,11,archiva-modules\archiva-web\archiva-rest\archiva-rest-api\src\main\java\org\apache\archiva\rest\api\model\RBACManagerImplementationInformation.java,0,0,0,0
org.apache.archiva.rest.api.model.RepositoryScannerStatistics, 0, 0, 0, 0, 0, 0, 0, 0, 0, 0, 0, 0, 0, 0,0.0,0.0,0.0,0.0,0.0,0.0,0.0,0.0,0.0,0.0,0.0,0.0,0.0,43,archiva-modules\archiva-web\archiva-rest\archiva-rest-api\src\main\java\org\apache\archiva\rest\api\model\RepositoryScannerStatistics.java,0,0,0,0
org.apache.archiva.rest.api.model.StringList, 0, 0, 0, 0, 0, 0, 0, 0, 0, 0, 0, 0, 0, 0,0.0,0.0,0.0,0.5,0.0,0.0,0.0,0.5,0.0,0.0,0.0,0.0,0.0,20,archiva-modules\archiva-web\archiva-rest\archiva-rest-api\src\main\java\org\apache\archiva\rest\api\model\StringList.java,0,0,0,0
org.apache.archiva.rest.api.model.UserManagerImplementationInformation, 0, 0, 0, 0, 0, 0, 0, 0, 0, 0, 0, 0, 0, 0,0.0,0.0,0.0,0.0,0.0,0.0,0.0,0.0,0.0,0.0,0.0,0.0,0.0,12,archiva-modules\archiva-web\archiva-rest\archiva-rest-api\src\main\java\org\apache\archiva\rest\api\model\UserManagerImplementationInformation.java,0,0,0,0
org.apache.archiva.rest.api.services.ArchivaAdministrationService, 0, 0, 0, 0, 0, 0, 0, 0, 0, 0, 0, 0, 0, 0,0.0,0.0,0.0,0.0,0.0,0.0,0.0,0.0,0.0,0.0,0.0,0.0,0.0,12,archiva-modules\archiva-web\archiva-rest\archiva-rest-api\src\main\java\org\apache\archiva\rest\api\services\ArchivaAdministrationService.java,0,0,0,0
org.apache.archiva.rest.api.services.ArchivaRestServiceException, 0, 0, 0, 0, 0, 0, 0, 0, 0, 0, 0, 0, 0, 0,0.0,0.0,0.0,0.09090909090909091,0.0,0.0,0.0,0.09090909090909091,0.0,0.0,0.0,0.0,0.0,50,archiva-modules\archiva-web\archiva-rest\archiva-rest-api\src\main\java\org\apache\archiva\rest\api\services\ArchivaRestServiceException.java,0,0,0,0
org.apache.archiva.rest.api.services.ArchivaRuntimeConfigurationService, 0, 0, 0, 0, 0, 0, 0, 0, 0, 0, 0, 0, 0, 0,0.0,0.0,0.0,0.0,0.0,0.0,0.0,0.0,0.0,0.0,0.0,0.0,0.0,50,archiva-modules\archiva-web\archiva-rest\archiva-rest-api\src\main\java\org\apache\archiva\rest\api\services\ArchivaRuntimeConfigurationService.java,0,0,0,0
org.apache.archiva.rest.api.services.BrowseService, 0, 0, 0, 0, 0, 0, 0, 0, 0, 0, 0, 0, 0, 0,0.0,0.0,0.0,0.0,0.0,0.0,0.0,0.0,0.0,0.0,0.0,0.0,0.0,50,archiva-modules\archiva-web\archiva-rest\archiva-rest-api\src\main\java\org\apache\archiva\rest\api\services\BrowseService.java,0,0,0,0
org.apache.archiva.rest.api.services.CommonServices, 0, 0, 0, 0, 0, 0, 0, 0, 0, 0, 0, 0, 0, 0,0.0,0.0,0.0,0.0,0.0,0.0,0.0,0.0,0.0,0.0,0.0,0.0,0.0,50,archiva-modules\archiva-web\archiva-rest\archiva-rest-api\src\main\java\org\apache\archiva\rest\api\services\CommonServices.java,0,0,0,0
org.apache.archiva.rest.api.services.ManagedRepositoriesService, 0, 0, 0, 0, 0, 0, 0, 0, 0, 0, 0, 0, 0, 0,0.0,0.0,0.0,0.0,0.0,0.0,0.0,0.0,0.0,0.0,0.0,0.0,0.0,50,archiva-modules\archiva-web\archiva-rest\archiva-rest-api\src\main\java\org\apache\archiva\rest\api\services\ManagedRepositoriesService.java,0,0,0,0
org.apache.archiva.rest.api.services.MergeRepositoriesService, 0, 0, 0, 0, 0, 0, 0, 0, 0, 0, 0, 0, 0, 0,0.0,0.0,0.0,0.0,0.0,0.0,0.0,0.0,0.0,0.0,0.0,0.0,0.0,50,archiva-modules\archiva-web\archiva-rest\archiva-rest-api\src\main\java\org\apache\archiva\rest\api\services\MergeRepositoriesService.java,0,0,0,0
org.apache.archiva.rest.api.services.NetworkProxyService, 0, 0, 0, 0, 0, 0, 0, 0, 0, 0, 0, 0, 0, 0,0.0,0.0,0.0,0.0,0.0,0.0,0.0,0.0,0.0,0.0,0.0,0.0,0.0,50,archiva-modules\archiva-web\archiva-rest\archiva-rest-api\src\main\java\org\apache\archiva\rest\api\services\NetworkProxyService.java,0,0,0,0
org.apache.archiva.rest.api.services.PingService, 0, 0, 0, 0, 0, 0, 0, 0, 0, 0, 0, 0, 0, 0,0.0,0.0,0.0,0.0,0.0,0.0,0.0,0.0,0.0,0.0,0.0,0.0,0.0,50,archiva-modules\archiva-web\archiva-rest\archiva-rest-api\src\main\java\org\apache\archiva\rest\api\services\PingService.java,0,0,0,0
org.apache.archiva.rest.api.services.PluginsService, 0, 0, 0, 0, 0, 0, 0, 0, 0, 0, 0, 0, 0, 0,0.0,0.0,0.0,0.0,0.0,0.0,0.0,0.0,0.0,0.0,0.0,0.0,0.0,50,archiva-modules\archiva-web\archiva-rest\archiva-rest-api\src\main\java\org\apache\archiva\rest\api\services\PluginsService.java,0,0,0,0
org.apache.archiva.rest.api.services.ProxyConnectorRuleService, 0, 0, 0, 0, 0, 0, 0, 0, 0, 0, 0, 0, 0, 0,0.0,0.0,0.0,0.0,0.0,0.0,0.0,0.0,0.0,0.0,0.0,0.0,0.0,50,archiva-modules\archiva-web\archiva-rest\archiva-rest-api\src\main\java\org\apache\archiva\rest\api\services\ProxyConnectorRuleService.java,0,0,0,0
org.apache.archiva.rest.api.services.ProxyConnectorService, 0, 0, 0, 0, 0, 0, 0, 0, 0, 0, 0, 0, 0, 0,0.0,0.0,0.0,0.0,0.0,0.0,0.0,0.0,0.0,0.0,0.0,0.0,0.0,50,archiva-modules\archiva-web\archiva-rest\archiva-rest-api\src\main\java\org\apache\archiva\rest\api\services\ProxyConnectorService.java,0,0,0,0
org.apache.archiva.rest.api.services.RedbackRuntimeConfigurationService, 0, 0, 0, 0, 0, 0, 0, 0, 0, 0, 0, 0, 0, 0,0.0,0.0,0.0,0.0,0.0,0.0,0.0,0.0,0.0,0.0,0.0,0.0,0.0,50,archiva-modules\archiva-web\archiva-rest\archiva-rest-api\src\main\java\org\apache\archiva\rest\api\services\RedbackRuntimeConfigurationService.java,0,0,0,0
org.apache.archiva.rest.api.services.RemoteRepositoriesService, 0, 0, 0, 0, 0, 0, 0, 0, 0, 0, 0, 0, 0, 0,0.0,0.0,0.0,0.0,0.0,0.0,0.0,0.0,0.0,0.0,0.0,0.0,0.0,50,archiva-modules\archiva-web\archiva-rest\archiva-rest-api\src\main\java\org\apache\archiva\rest\api\services\RemoteRepositoriesService.java,0,0,0,0
org.apache.archiva.rest.api.services.ReportRepositoriesService, 0, 0, 0, 0, 0, 0, 0, 0, 0, 0, 0, 0, 0, 0,0.0,0.0,0.0,0.0,0.0,0.0,0.0,0.0,0.0,0.0,0.0,0.0,0.0,50,archiva-modules\archiva-web\archiva-rest\archiva-rest-api\src\main\java\org\apache\archiva\rest\api\services\ReportRepositoriesService.java,1,1,0,2
org.apache.archiva.rest.api.services.RepositoriesService, 0, 0, 0, 0, 0, 0, 0, 0, 0, 0, 0, 0, 0, 0,0.0,0.0,0.0,0.0,0.0,0.0,0.0,0.0,0.0,0.0,0.0,0.0,0.0,50,archiva-modules\archiva-web\archiva-rest\archiva-rest-api\src\main\java\org\apache\archiva\rest\api\services\RepositoriesService.java,0,0,0,0
org.apache.archiva.rest.api.services.RepositoryGroupService, 0, 0, 0, 0, 0, 0, 0, 0, 0, 0, 0, 0, 0, 0,0.0,0.0,0.0,0.0,0.0,0.0,0.0,0.0,0.0,0.0,0.0,0.0,0.0,50,archiva-modules\archiva-web\archiva-rest\archiva-rest-api\src\main\java\org\apache\archiva\rest\api\services\RepositoryGroupService.java,0,0,0,0
org.apache.archiva.rest.api.services.SearchService, 0, 0, 0, 0, 0, 0, 0, 0, 0, 0, 0, 0, 0, 0,0.0,0.0,0.0,0.0,0.0,0.0,0.0,0.0,0.0,0.0,0.0,0.0,0.0,50,archiva-modules\archiva-web\archiva-rest\archiva-rest-api\src\main\java\org\apache\archiva\rest\api\services\SearchService.java,0,0,0,0
org.apache.archiva.rest.api.services.SystemStatusService, 0, 0, 0, 0, 0, 0, 0, 0, 0, 0, 0, 0, 0, 0,0.0,0.0,0.0,0.0,0.0,0.0,0.0,0.0,0.0,0.0,0.0,0.0,0.0,50,archiva-modules\archiva-web\archiva-rest\archiva-rest-api\src\main\java\org\apache\archiva\rest\api\services\SystemStatusService.java,0,0,0,0
org.apache.archiva.rest.services.ArchivaAdministrationServiceTest, 0, 0, 0, 0, 0, 0, 0, 0, 0, 0, 0, 0, 0, 0,0.0,0.0,0.0,0.0,0.0,0.0,0.0,0.0,0.0,0.0,0.0,0.0,0.0,143,archiva-modules\archiva-web\archiva-rest\archiva-rest-services\src\test\java\org\apache\archiva\rest\services\ArchivaAdministrationServiceTest.java,0,0,0,0
org.apache.archiva.rest.services.ArchivaRestError, 0, 0, 0, 0, 0, 0, 0, 0, 0, 0, 0, 0, 0, 0,0.0,0.0,0.0,0.0,0.0,0.0,0.0,0.0,0.0,0.0,0.0,0.0,0.0,39,archiva-modules\archiva-web\archiva-rest\archiva-rest-services\src\main\java\org\apache\archiva\rest\services\ArchivaRestError.java,0,0,0,0
org.apache.archiva.rest.services.ArtifactContentEntriesTests, 0, 0, 0, 0, 0, 0, 0, 0, 0, 0, 0, 0, 0, 0,0.0,0.0,0.0,0.0,0.0,0.0,0.0,0.0,0.0,0.0,0.0,0.0,0.0,82,archiva-modules\archiva-web\archiva-rest\archiva-rest-services\src\test\java\org\apache\archiva\rest\services\ArtifactContentEntriesTests.java,0,0,0,0
org.apache.archiva.rest.services.CommonServicesTest, 0, 0, 0, 0, 0, 0, 0, 0, 0, 0, 0, 0, 0, 0,0.0,0.0,0.0,0.0,0.0,0.0,0.0,0.0,0.0,0.0,0.0,0.0,0.0,18,archiva-modules\archiva-web\archiva-rest\archiva-rest-services\src\test\java\org\apache\archiva\rest\services\CommonServicesTest.java,0,0,0,0
org.apache.archiva.rest.services.CopyArtifactTest, 0, 0, 0, 0, 0, 0, 0, 0, 0, 0, 0, 0, 0, 0,0.0,0.0,0.0,0.0,0.0,0.0,0.0,0.0,0.0,0.0,0.0,0.0,0.0,67,archiva-modules\archiva-web\archiva-rest\archiva-rest-services\src\test\java\org\apache\archiva\rest\services\CopyArtifactTest.java,0,0,0,0
org.apache.archiva.rest.services.DefaultArchivaRuntimeConfigurationService, 0, 0, 0, 0, 0, 0, 0, 0, 0, 0, 0, 0, 0, 0,0.0,0.0,0.0,0.0,0.0,0.0,0.0,0.0,0.0,0.0,0.0,0.0,0.0,54,archiva-modules\archiva-web\archiva-rest\archiva-rest-services\src\main\java\org\apache\archiva\rest\services\DefaultArchivaRuntimeConfigurationService.java,0,0,0,0
org.apache.archiva.rest.services.DefaultMergeRepositoriesService, 0, 0, 0, 0, 0, 0, 0, 0, 0, 0, 0, 0, 0, 0,0.0,0.0,0.0,0.125,0.0,0.125,0.0,0.0,0.0,0.0,0.0,0.0,0.0,148,archiva-modules\archiva-web\archiva-rest\archiva-rest-services\src\main\java\org\apache\archiva\rest\services\DefaultMergeRepositoriesService.java,0,0,1,2
org.apache.archiva.rest.services.DefaultNetworkProxyService, 0, 0, 0, 0, 0, 0, 0, 0, 0, 0, 0, 0, 0, 0,0.0,0.0,0.0,0.0,0.0,0.0,0.0,0.0,0.0,0.0,0.0,0.0,0.0,90,archiva-modules\archiva-web\archiva-rest\archiva-rest-services\src\main\java\org\apache\archiva\rest\services\DefaultNetworkProxyService.java,0,0,0,0
org.apache.archiva.rest.services.DefaultPingService, 0, 0, 0, 0, 0, 0, 0, 0, 0, 0, 0, 0, 0, 0,0.0,0.0,0.0,0.0,0.0,0.0,0.0,0.0,0.0,0.0,0.0,0.0,0.0,14,archiva-modules\archiva-web\archiva-rest\archiva-rest-services\src\main\java\org\apache\archiva\rest\services\DefaultPingService.java,0,0,0,0
org.apache.archiva.rest.services.DefaultProxyConnectorRuleService, 0, 0, 0, 0, 0, 0, 0, 0, 0, 0, 0, 0, 0, 0,0.0,0.0,0.0,0.0,0.0,0.0,0.0,0.0,0.0,0.0,0.0,0.0,0.0,91,archiva-modules\archiva-web\archiva-rest\archiva-rest-services\src\main\java\org\apache\archiva\rest\services\DefaultProxyConnectorRuleService.java,0,0,0,0
org.apache.archiva.rest.services.DefaultProxyConnectorService, 0, 0, 0, 0, 0, 0, 0, 0, 0, 0, 0, 0, 0, 0,0.0,0.0,0.0,0.0,0.0,0.0,0.0,0.0,0.0,0.0,0.0,0.0,0.0,123,archiva-modules\archiva-web\archiva-rest\archiva-rest-services\src\main\java\org\apache\archiva\rest\services\DefaultProxyConnectorService.java,0,0,0,0
org.apache.archiva.rest.services.DefaultRemoteRepositoriesService, 0, 0, 0, 0, 0, 0, 0, 0, 0, 0, 0, 0, 0, 0,0.0,0.0,0.0,0.0,0.0,0.0,0.0,0.0,0.0,0.0,0.0,0.0,0.0,135,archiva-modules\archiva-web\archiva-rest\archiva-rest-services\src\main\java\org\apache\archiva\rest\services\DefaultRemoteRepositoriesService.java,0,0,0,0
org.apache.archiva.rest.services.DefaultReportRepositoriesService, 0, 0, 0, 0, 0, 0, 0, 0, 0, 0, 0, 0, 0, 0,0.0,0.0,0.0,0.0,0.0,0.0,0.0,0.0,0.0,0.0,0.0,0.0,0.0,121,archiva-modules\archiva-web\archiva-rest\archiva-rest-services\src\main\java\org\apache\archiva\rest\services\DefaultReportRepositoriesService.java,1,1,0,2
org.apache.archiva.rest.services.DefaultRepositoriesService, 0, 0, 0, 1, 0, 0, 0, 1, 0, 0, 0, 0, 0, 2,0.0,0.0,0.0,0.043478260869565216,0.0,0.043478260869565216,0.0,0.043478260869565216,0.0,0.0,0.0,0.0,0.0,901,archiva-modules\archiva-web\archiva-rest\archiva-rest-services\src\main\java\org\apache\archiva\rest\services\DefaultRepositoriesService.java,0,14,2,18
org.apache.archiva.rest.services.DefaultRepositoryGroupService, 0, 0, 0, 0, 0, 0, 0, 0, 0, 0, 0, 0, 0, 0,0.0,0.0,0.0,0.0,0.0,0.0,0.0,0.0,0.0,0.0,0.0,0.0,0.0,115,archiva-modules\archiva-web\archiva-rest\archiva-rest-services\src\main\java\org\apache\archiva\rest\services\DefaultRepositoryGroupService.java,0,0,0,0
org.apache.archiva.rest.services.ManagedRepositoriesServiceTest, 0, 0, 0, 0, 0, 0, 0, 0, 0, 0, 0, 0, 0, 0,0.0,0.0,0.0,0.0,0.0,0.0,0.0,0.0,0.0,0.0,0.0,0.0,0.0,101,archiva-modules\archiva-web\archiva-rest\archiva-rest-services\src\test\java\org\apache\archiva\rest\services\ManagedRepositoriesServiceTest.java,0,0,0,0
org.apache.archiva.rest.services.MergeRepositoriesServiceTest, 0, 0, 0, 0, 0, 0, 0, 0, 0, 0, 0, 0, 0, 0,0.0,0.0,0.0,0.0,0.0,0.0,0.0,0.0,0.0,0.0,0.0,0.0,0.0,77,archiva-modules\archiva-web\archiva-rest\archiva-rest-services\src\test\java\org\apache\archiva\rest\services\MergeRepositoriesServiceTest.java,37,14,8,67
org.apache.archiva.rest.services.NetworkProxyServiceTest, 0, 0, 0, 0, 0, 0, 0, 0, 0, 0, 0, 0, 0, 0,0.0,0.0,0.0,0.0,0.0,0.0,0.0,0.0,0.0,0.0,0.0,0.0,0.0,52,archiva-modules\archiva-web\archiva-rest\archiva-rest-services\src\test\java\org\apache\archiva\rest\services\NetworkProxyServiceTest.java,0,0,0,0
org.apache.archiva.rest.services.PingServiceTest, 0, 0, 0, 0, 0, 0, 0, 0, 0, 0, 0, 0, 0, 0,0.0,0.0,0.0,0.0,0.0,0.0,0.0,0.0,0.0,0.0,0.0,0.0,0.0,46,archiva-modules\archiva-web\archiva-rest\archiva-rest-services\src\test\java\org\apache\archiva\rest\services\PingServiceTest.java,0,0,0,0
org.apache.archiva.rest.services.PluginServiceTest, 0, 0, 0, 0, 0, 0, 0, 0, 0, 0, 0, 0, 0, 0,0.0,0.0,0.0,0.0,0.0,0.0,0.0,0.0,0.0,0.0,0.0,0.0,0.0,12,archiva-modules\archiva-web\archiva-rest\archiva-rest-services\src\test\java\org\apache\archiva\rest\services\PluginServiceTest.java,0,0,0,0
org.apache.archiva.rest.services.ProxyConnectorRuleServiceTest, 0, 0, 0, 0, 0, 0, 0, 0, 0, 0, 0, 0, 0, 0,0.0,0.0,0.0,0.0,0.0,0.0,0.0,0.0,0.0,0.0,0.0,0.0,0.0,35,archiva-modules\archiva-web\archiva-rest\archiva-rest-services\src\test\java\org\apache\archiva\rest\services\ProxyConnectorRuleServiceTest.java,0,0,0,0
org.apache.archiva.rest.services.ProxyConnectorServiceTest, 0, 0, 0, 0, 0, 0, 0, 0, 0, 0, 0, 0, 0, 0,0.0,0.0,0.0,0.0,0.0,0.0,0.0,0.0,0.0,0.0,0.0,0.0,0.0,11,archiva-modules\archiva-web\archiva-rest\archiva-rest-services\src\test\java\org\apache\archiva\rest\services\ProxyConnectorServiceTest.java,0,0,0,0
org.apache.archiva.rest.services.RedbackRuntimeConfigurationServiceTest, 0, 0, 0, 0, 0, 0, 0, 0, 0, 0, 0, 0, 0, 0,0.0,0.0,0.0,0.0,0.0,0.0,0.0,0.0,0.0,0.0,0.0,0.0,0.0,42,archiva-modules\archiva-web\archiva-rest\archiva-rest-services\src\test\java\org\apache\archiva\rest\services\RedbackRuntimeConfigurationServiceTest.java,0,0,0,0
org.apache.archiva.rest.services.RemoteRepositoriesServiceTest, 0, 0, 0, 0, 0, 0, 0, 0, 0, 0, 0, 0, 0, 0,0.0,0.0,0.0,0.0,0.0,0.0,0.0,0.0,0.0,0.0,0.0,0.0,0.0,91,archiva-modules\archiva-web\archiva-rest\archiva-rest-services\src\test\java\org\apache\archiva\rest\services\RemoteRepositoriesServiceTest.java,0,0,0,0
org.apache.archiva.rest.services.RepositoriesServiceTest, 0, 0, 0, 0, 0, 0, 0, 0, 0, 0, 0, 0, 0, 0,0.0,0.0,0.0,0.0,0.0,0.0,0.0,0.0,0.0,0.0,0.0,0.0,0.0,383,archiva-modules\archiva-web\archiva-rest\archiva-rest-services\src\test\java\org\apache\archiva\rest\services\RepositoriesServiceTest.java,0,0,0,0
org.apache.archiva.rest.services.RepositoryGroupServiceTest, 0, 0, 0, 0, 0, 0, 0, 0, 0, 0, 0, 0, 0, 0,0.0,0.0,0.0,0.0,0.0,0.0,0.0,0.0,0.0,0.0,0.0,0.0,0.0,26,archiva-modules\archiva-web\archiva-rest\archiva-rest-services\src\test\java\org\apache\archiva\rest\services\RepositoryGroupServiceTest.java,0,0,0,0
org.apache.archiva.rest.services.SearchServiceTest, 0, 0, 0, 0, 0, 0, 0, 0, 0, 0, 0, 0, 0, 0,0.0,0.0,0.0,0.0,0.0,0.0,0.0,0.0,0.0,0.0,0.0,0.0,0.0,233,archiva-modules\archiva-web\archiva-rest\archiva-rest-services\src\test\java\org\apache\archiva\rest\services\SearchServiceTest.java,71,18,8,105
org.apache.archiva.rest.services.interceptors.ArchivaRestServiceExceptionMapper, 0, 0, 0, 0, 0, 0, 0, 0, 0, 0, 0, 0, 0, 0,0.0,0.0,0.0,0.0,0.0,0.0,0.0,0.0,0.0,0.0,0.0,0.0,0.0,11,archiva-modules\archiva-web\archiva-rest\archiva-rest-services\src\main\java\org\apache\archiva\rest\services\interceptors\ArchivaRestServiceExceptionMapper.java,0,0,0,0
org.apache.archiva.rest.services.interceptors.JacksonJsonConfigurator, 0, 0, 0, 0, 0, 0, 0, 0, 0, 0, 0, 0, 0, 0,0.0,0.0,0.0,0.0,0.0,0.0,0.0,0.0,0.0,0.0,0.0,0.0,0.0,10,archiva-modules\archiva-web\archiva-rest\archiva-rest-services\src\main\java\org\apache\archiva\rest\services\interceptors\JacksonJsonConfigurator.java,0,0,0,0
org.apache.archiva.rest.services.utils.AddAdminRepoConsumerClosure, 0, 0, 0, 0, 0, 0, 0, 0, 0, 0, 0, 0, 0, 0,0.0,0.0,0.0,0.0,0.0,0.0,0.0,0.0,0.0,0.0,0.0,0.0,0.0,28,archiva-modules\archiva-web\archiva-rest\archiva-rest-services\src\main\java\org\apache\archiva\rest\services\utils\AddAdminRepoConsumerClosure.java,0,0,0,0
org.apache.archiva.rest.services.utils.ArtifactBuilder, 0, 0, 0, 0, 0, 0, 0, 0, 0, 0, 0, 0, 0, 0,0.0,0.0,0.0,1.0,0.0,0.0,0.0,0.0,0.0,0.0,0.0,0.0,0.0,65,archiva-modules\archiva-web\archiva-rest\archiva-rest-services\src\main\java\org\apache\archiva\rest\services\utils\ArtifactBuilder.java,0,0,0,0
org.apache.archiva.rest.services.utils.ArtifactContentEntryComparator, 0, 0, 0, 0, 0, 0, 0, 0, 0, 0, 0, 0, 0, 0,0.0,0.0,0.0,0.0,0.0,0.0,0.0,0.0,0.0,0.0,0.0,0.0,0.0,10,archiva-modules\archiva-web\archiva-rest\archiva-rest-services\src\main\java\org\apache\archiva\rest\services\utils\ArtifactContentEntryComparator.java,0,0,0,0
org.apache.archiva.rest.services.utils.ConsumerScanningStatisticsComparator, 0, 0, 0, 0, 0, 0, 0, 0, 0, 0, 0, 0, 0, 0,0.0,0.0,0.0,0.0,0.0,0.0,0.0,0.0,0.0,0.0,0.0,0.0,0.0,14,archiva-modules\archiva-web\archiva-rest\archiva-rest-services\src\main\java\org\apache\archiva\rest\services\utils\ConsumerScanningStatisticsComparator.java,0,0,0,0
org.apache.archiva.rest.services.utils.MavenIndexerCleaner, 0, 0, 0, 0, 0, 0, 0, 0, 0, 0, 0, 0, 0, 0,0.0,0.0,0.0,0.0,0.0,0.0,0.0,0.0,0.0,0.0,0.0,0.0,0.0,17,archiva-modules\archiva-web\archiva-rest\archiva-rest-services\src\test\java\org\apache\archiva\rest\services\utils\MavenIndexerCleaner.java,0,0,0,0
org.apache.archiva.rss.RssFeedEntry, 0, 0, 0, 1, 0, 0, 0, 0, 0, 0, 0, 0, 0, 1,0.5,0.0,0.5,0.0,0.0,0.0,0.0,0.0,0.0,0.0,0.0,0.0,0.0,100,archiva-modules\archiva-web\archiva-rss\src\main\java\org\apache\archiva\rss\RssFeedEntry.java,0,0,0,0
org.apache.archiva.rss.RssFeedGenerator, 1, 0, 1, 0, 0, 0, 0, 0, 0, 0, 0, 0, 0, 2,0.0,0.0,0.0,0.5,0.0,0.0,0.0,0.0,0.0,0.0,0.0,0.0,0.0,41,archiva-modules\archiva-web\archiva-rss\src\main\java\org\apache\archiva\rss\RssFeedGenerator.java,0,0,0,0
org.apache.archiva.rss.RssFeedGeneratorTest, 0, 0, 0, 0, 0, 0, 0, 0, 0, 0, 0, 0, 0, 0,0.5,0.0,0.5,0.5,0.0,0.0,0.0,0.0,0.0,0.0,0.0,0.0,0.0,53,archiva-modules\archiva-web\archiva-rss\src\test\java\org\apache\archiva\rss\RssFeedGeneratorTest.java,0,0,0,0
org.apache.archiva.rss.processor.AbstractArtifactsRssFeedProcessor, 0, 0, 0, 0, 0, 0, 0, 0, 0, 0, 0, 0, 0, 0,0.0,0.0,0.0,0.0,0.0,0.0,0.0,0.0,0.0,0.0,0.0,0.0,0.0,6,archiva-modules\archiva-web\archiva-rss\src\main\java\org\apache\archiva\rss\processor\AbstractArtifactsRssFeedProcessor.java,0,0,0,0
org.apache.archiva.scheduler.ArchivaTaskScheduler, 0, 0, 0, 0, 0, 0, 0, 0, 0, 0, 0, 0, 0, 0,0.0,0.0,0.0,0.0,0.0,0.0,0.0,0.0,0.0,0.0,0.0,0.0,0.0,6,archiva-modules\archiva-scheduler\archiva-scheduler-api\src\main\java\org\apache\archiva\scheduler\ArchivaTaskScheduler.java,0,0,0,0
org.apache.archiva.scheduler.MergedRemoteIndexesScheduler, 0, 0, 0, 0, 0, 0, 0, 0, 0, 0, 0, 0, 0, 0,0.0,0.0,0.0,0.0,0.0,0.0,0.0,0.0,0.0,0.0,0.0,0.0,0.0,6,archiva-modules\archiva-scheduler\archiva-scheduler-api\src\main\java\org\apache\archiva\scheduler\MergedRemoteIndexesScheduler.java,0,0,0,0
org.apache.archiva.scheduler.indexing.ArchivaIndexingTaskExecutor, 0, 0, 0, 0, 0, 0, 0, 0, 0, 0, 0, 0, 0, 0,0.0,0.0,0.0,0.25,0.0,0.0,0.0,0.5,0.0,0.0,0.0,0.0,0.0,182,archiva-modules\archiva-scheduler\archiva-scheduler-indexing\src\main\java\org\apache\archiva\scheduler\indexing\ArchivaIndexingTaskExecutor.java,0,0,0,0
org.apache.archiva.scheduler.indexing.ArchivaIndexingTaskExecutorTest, 0, 0, 0, 0, 0, 0, 0, 0, 0, 0, 0, 0, 0, 0,0.0,0.0,0.0,0.0,0.0,0.0,0.0,0.3333333333333333,0.0,0.0,0.0,0.0,0.0,221,archiva-modules\archiva-scheduler\archiva-scheduler-indexing\src\test\java\org\apache\archiva\scheduler\indexing\ArchivaIndexingTaskExecutorTest.java,0,0,0,0
org.apache.archiva.scheduler.indexing.ArtifactIndexingTask, 0, 0, 0, 0, 0, 0, 0, 1, 0, 0, 0, 0, 0, 1,0.0,0.0,0.0,0.2,0.0,0.0,0.0,0.4,0.0,0.0,0.0,0.0,0.0,126,archiva-modules\archiva-scheduler\archiva-scheduler-indexing\src\main\java\org\apache\archiva\scheduler\indexing\ArtifactIndexingTask.java,0,0,0,0
org.apache.archiva.scheduler.indexing.DefaultDownloadRemoteIndexScheduler, 0, 0, 0, 0, 0, 0, 0, 0, 0, 0, 0, 0, 0, 0,0.0,0.0,0.0,0.0,0.0,0.16666666666666666,0.0,0.0,0.0,0.0,0.0,0.0,0.0,150,archiva-modules\archiva-scheduler\archiva-scheduler-indexing\src\main\java\org\apache\archiva\scheduler\indexing\DefaultDownloadRemoteIndexScheduler.java,0,0,0,0
org.apache.archiva.scheduler.indexing.DownloadRemoteIndexException, 0, 0, 0, 0, 0, 1, 0, 0, 0, 0, 0, 0, 0, 1,0.0,0.0,0.0,0.5,0.0,0.0,0.0,0.5,0.0,0.0,0.0,0.0,0.0,8,archiva-modules\archiva-scheduler\archiva-scheduler-indexing\src\main\java\org\apache\archiva\scheduler\indexing\DownloadRemoteIndexException.java,0,0,0,0
org.apache.archiva.scheduler.indexing.DownloadRemoteIndexScheduler, 0, 0, 0, 0, 0, 0, 0, 0, 0, 0, 0, 0, 0, 0,0.0,0.0,0.0,0.0,0.0,0.0,0.0,0.0,0.0,0.0,0.0,0.0,0.0,8,archiva-modules\archiva-scheduler\archiva-scheduler-indexing\src\main\java\org\apache\archiva\scheduler\indexing\DownloadRemoteIndexScheduler.java,0,0,0,0
org.apache.archiva.scheduler.indexing.DownloadRemoteIndexTaskRequest, 0, 0, 0, 0, 0, 0, 0, 0, 0, 0, 0, 0, 0, 0,0.0,0.0,0.0,0.0,0.0,0.0,0.0,0.0,0.0,0.0,0.0,0.0,0.0,76,archiva-modules\archiva-scheduler\archiva-scheduler-indexing\src\main\java\org\apache\archiva\scheduler\indexing\DownloadRemoteIndexTaskRequest.java,0,0,0,0
org.apache.archiva.scheduler.indexing.DownloadRemoteIndexTaskTest, 0, 0, 0, 0, 0, 0, 0, 0, 0, 0, 0, 0, 0, 0,0.0,0.0,0.0,0.0,0.0,0.0,0.0,0.0,0.0,0.0,0.0,0.0,0.0,77,archiva-modules\archiva-scheduler\archiva-scheduler-indexing\src\test\java\org\apache\archiva\scheduler\indexing\DownloadRemoteIndexTaskTest.java,0,0,0,0
org.apache.archiva.scheduler.indexing.IndexingArchivaTaskScheduler, 0, 0, 0, 0, 0, 0, 0, 0, 0, 0, 0, 0, 0, 0,0.0,0.0,0.0,0.0,0.0,0.0,0.0,1.0,0.0,0.0,0.0,0.0,0.0,14,archiva-modules\archiva-scheduler\archiva-scheduler-indexing\src\main\java\org\apache\archiva\scheduler\indexing\IndexingArchivaTaskScheduler.java,0,0,0,0
org.apache.archiva.scheduler.indexing.mock.MockRepositorySessionFactory, 0, 0, 0, 0, 0, 0, 0, 0, 0, 0, 0, 0, 0, 0,0.0,0.0,0.0,0.0,0.0,0.0,0.0,0.0,0.0,0.0,0.0,0.0,0.0,229,archiva-modules\archiva-scheduler\archiva-scheduler-indexing\src\test\java\org\apache\archiva\scheduler\indexing\mock\MockRepositorySessionFactory.java,0,0,0,0
org.apache.archiva.scheduler.repository.ArchivaRepositoryScanningTaskExecutor, 0, 0, 0, 0, 0, 0, 0, 0, 0, 0, 0, 0, 0, 0,0.0,0.0,0.0,0.0,0.0,0.0,0.0,0.0,0.0,0.0,0.0,0.0,0.0,146,archiva-modules\archiva-scheduler\archiva-scheduler-repository\src\main\java\org\apache\archiva\scheduler\repository\ArchivaRepositoryScanningTaskExecutor.java,1,0,9,19
org.apache.archiva.scheduler.repository.ArchivaRepositoryScanningTaskExecutorAbstractTest, 0, 0, 0, 0, 0, 0, 0, 0, 0, 0, 0, 0, 0, 0,0.0,0.0,0.0,0.0,0.0,0.0,0.0,0.0,0.0,0.0,0.0,0.0,0.0,64,archiva-modules\archiva-scheduler\archiva-scheduler-repository\src\test\java\org\apache\archiva\scheduler\repository\ArchivaRepositoryScanningTaskExecutorAbstractTest.java,0,0,0,0
org.apache.archiva.scheduler.repository.ArchivaRepositoryScanningTaskExecutorPhase1Test, 0, 0, 0, 0, 0, 0, 0, 0, 0, 0, 0, 0, 0, 0,0.0,0.0,0.0,0.0,0.0,0.0,0.0,0.0,0.0,0.0,0.0,0.0,0.0,15,archiva-modules\archiva-scheduler\archiva-scheduler-repository\src\test\java\org\apache\archiva\scheduler\repository\ArchivaRepositoryScanningTaskExecutorPhase1Test.java,0,0,0,0
org.apache.archiva.scheduler.repository.ArchivaRepositoryScanningTaskExecutorPhase2Test, 0, 0, 0, 0, 0, 0, 0, 0, 0, 0, 0, 0, 0, 0,0.0,0.0,0.0,0.0,0.0,0.0,0.0,0.0,0.0,0.0,0.0,0.0,0.0,128,archiva-modules\archiva-scheduler\archiva-scheduler-repository\src\test\java\org\apache\archiva\scheduler\repository\ArchivaRepositoryScanningTaskExecutorPhase2Test.java,0,0,0,0
org.apache.archiva.scheduler.repository.DefaultRepositoryArchivaTaskScheduler, 0, 0, 0, 0, 0, 0, 0, 0, 0, 0, 0, 0, 0, 0,0.0,0.0,0.0,0.16666666666666666,0.0,0.0,0.0,0.16666666666666666,0.0,0.0,0.0,0.0,0.0,272,archiva-modules\archiva-scheduler\archiva-scheduler-repository\src\main\java\org\apache\archiva\scheduler\repository\DefaultRepositoryArchivaTaskScheduler.java,0,0,0,0
org.apache.archiva.scheduler.repository.RepositoryTaskJob, 0, 0, 0, 0, 0, 0, 0, 0, 0, 0, 0, 0, 0, 0,0.0,0.0,0.0,0.0,0.0,0.0,0.0,0.0,0.0,0.0,0.0,0.0,0.0,23,archiva-modules\archiva-scheduler\archiva-scheduler-repository\src\main\java\org\apache\archiva\scheduler\repository\RepositoryTaskJob.java,0,0,0,0
org.apache.archiva.scheduler.repository.TestConsumer, 0, 0, 0, 0, 0, 0, 0, 0, 0, 0, 0, 0, 0, 0,0.0,0.0,0.0,0.0,0.0,0.0,0.0,0.0,0.0,0.0,0.0,0.0,0.0,88,archiva-modules\archiva-scheduler\archiva-scheduler-repository\src\test\java\org\apache\archiva\scheduler\repository\TestConsumer.java,0,0,0,0
org.apache.archiva.scheduler.repository.model.RepositoryArchivaTaskScheduler, 0, 0, 0, 0, 0, 0, 0, 0, 0, 0, 0, 0, 0, 0,0.0,0.0,0.0,0.0,0.0,0.0,0.0,0.0,0.0,0.0,0.0,0.0,0.0,88,archiva-modules\archiva-scheduler\archiva-scheduler-repository-api\src\main\java\org\apache\archiva\scheduler\repository\model\RepositoryArchivaTaskScheduler.java,0,0,0,0
org.apache.archiva.scheduler.repository.model.RepositoryTask, 0, 0, 0, 0, 0, 0, 0, 0, 0, 0, 0, 0, 0, 0,0.0,0.0,0.0,0.18181818181818182,0.0,0.0,0.0,0.36363636363636365,0.0,0.0,0.0,0.0,0.0,100,archiva-modules\archiva-scheduler\archiva-scheduler-repository-api\src\main\java\org\apache\archiva\scheduler\repository\model\RepositoryTask.java,0,0,0,0
org.apache.archiva.security.AbstractSecurityTest, 0, 0, 0, 0, 0, 0, 0, 0, 0, 0, 0, 0, 0, 0,0.0,0.0,0.0,0.0,0.0,0.0,0.0,0.0,0.0,0.0,0.0,0.0,0.0,87,archiva-modules\archiva-web\archiva-security\src\test\java\org\apache\archiva\security\AbstractSecurityTest.java,0,0,0,0
org.apache.archiva.security.AccessDeniedException, 0, 0, 0, 0, 0, 0, 0, 0, 0, 0, 0, 0, 0, 0,0.0,0.0,0.0,0.0,0.0,0.0,0.0,0.0,0.0,0.0,0.0,0.0,0.0,12,archiva-modules\archiva-web\archiva-security\src\main\java\org\apache\archiva\security\AccessDeniedException.java,0,0,0,0
org.apache.archiva.security.ArchivaSecurityException, 0, 0, 0, 0, 0, 0, 0, 0, 0, 0, 0, 0, 0, 0,0.0,0.0,0.0,0.2,0.0,0.0,0.0,0.2,0.0,0.0,0.0,0.0,0.0,12,archiva-modules\archiva-web\archiva-security\src\main\java\org\apache\archiva\security\ArchivaSecurityException.java,0,0,0,0
org.apache.archiva.security.ArchivaServletAuthenticator, 0, 0, 0, 0, 0, 0, 0, 0, 0, 0, 0, 0, 0, 0,0.0,0.0,0.0,0.0,0.0,0.0,0.0,0.0,0.0,0.0,0.0,0.0,0.0,75,archiva-modules\archiva-web\archiva-security\src\main\java\org\apache\archiva\security\ArchivaServletAuthenticator.java,0,0,0,0
org.apache.archiva.security.ArchivaServletAuthenticatorTest, 0, 0, 0, 0, 0, 0, 0, 0, 0, 0, 0, 0, 0, 0,0.0,0.0,0.0,0.0,0.0,0.0,0.0,0.0,0.0,0.0,0.0,0.0,0.0,159,archiva-modules\archiva-web\archiva-security\src\test\java\org\apache\archiva\security\ArchivaServletAuthenticatorTest.java,0,0,0,0
org.apache.archiva.security.ArchivaStandardRolesCheck, 0, 0, 0, 0, 0, 0, 0, 0, 0, 0, 0, 0, 0, 0,0.0,0.0,0.0,0.0,0.0,0.0,0.0,0.0,0.0,0.0,0.0,0.0,0.0,52,archiva-modules\archiva-web\archiva-security\src\main\java\org\apache\archiva\security\ArchivaStandardRolesCheck.java,0,0,0,0
org.apache.archiva.security.DefaultUserRepositories, 0, 0, 0, 0, 0, 0, 0, 0, 0, 0, 0, 0, 0, 0,0.0,0.0,0.0,0.0,0.0,0.0,0.0,0.0,0.0,0.0,0.0,0.0,0.0,169,archiva-modules\archiva-web\archiva-security\src\main\java\org\apache\archiva\security\DefaultUserRepositories.java,0,0,0,0
org.apache.archiva.security.DefaultUserRepositoriesTest, 0, 0, 0, 0, 0, 0, 0, 0, 0, 0, 0, 0, 0, 0,0.0,0.0,0.0,0.0,0.0,0.0,0.0,0.0,0.0,0.0,0.0,0.0,0.0,60,archiva-modules\archiva-web\archiva-security\src\test\java\org\apache\archiva\security\DefaultUserRepositoriesTest.java,0,0,0,0
org.apache.archiva.security.PrincipalNotFoundException, 0, 0, 0, 0, 0, 0, 0, 0, 0, 0, 0, 0, 0, 0,0.0,0.0,0.0,0.0,0.0,0.0,0.0,0.0,0.0,0.0,0.0,0.0,0.0,12,archiva-modules\archiva-web\archiva-security\src\main\java\org\apache\archiva\security\PrincipalNotFoundException.java,0,0,0,0
org.apache.archiva.security.RoleManagerTest, 0, 0, 0, 0, 0, 0, 0, 0, 0, 0, 0, 0, 0, 0,0.0,0.0,0.0,0.0,0.0,0.0,0.0,0.0,0.0,0.0,0.0,0.0,0.0,17,archiva-modules\archiva-web\archiva-security\src\test\java\org\apache\archiva\security\RoleManagerTest.java,0,0,0,0
org.apache.archiva.security.ServletAuthenticator, 0, 0, 0, 0, 0, 0, 0, 0, 0, 0, 0, 0, 0, 0,0.0,0.0,0.0,0.0,0.0,0.0,0.0,0.0,0.0,0.0,0.0,0.0,0.0,17,archiva-modules\archiva-web\archiva-security\src\main\java\org\apache\archiva\security\ServletAuthenticator.java,0,0,0,0
org.apache.archiva.security.UserRepositories, 0, 0, 0, 0, 0, 0, 0, 0, 0, 0, 0, 0, 0, 0,0.0,0.0,0.0,0.0,0.0,0.0,0.0,0.0,0.0,0.0,0.0,0.0,0.0,17,archiva-modules\archiva-web\archiva-security\src\main\java\org\apache\archiva\security\UserRepositories.java,0,0,0,0
org.apache.archiva.security.UserRepositoriesStub, 0, 0, 0, 0, 0, 0, 0, 0, 0, 0, 0, 0, 0, 0,0.0,0.0,0.0,0.0,0.0,0.0,0.0,0.0,0.0,0.0,0.0,0.0,0.0,51,archiva-modules\archiva-web\archiva-web-common\src\test\java\org\apache\archiva\security\UserRepositoriesStub.java,0,0,0,0
org.apache.archiva.security.common.ArchivaRoleConstants, 0, 0, 0, 1, 0, 0, 0, 0, 0, 0, 0, 0, 0, 1,0.0,0.0,0.0,0.0,0.0,0.0,0.0,0.0,0.0,0.0,0.0,0.0,0.0,35,archiva-modules\archiva-base\archiva-security-common\src\main\java\org\apache\archiva\security\common\ArchivaRoleConstants.java,0,0,0,0
org.apache.archiva.security.mock.MockBeanServices, 0, 0, 0, 0, 0, 0, 0, 1, 0, 0, 0, 0, 0, 1,0.0,0.0,0.0,0.4,0.0,0.0,0.0,0.0,0.0,0.0,0.0,0.0,0.0,104,archiva-modules\archiva-web\archiva-security\src\test\java\org\apache\archiva\security\mock\MockBeanServices.java,0,0,0,0
org.apache.archiva.stagerepository.merge.Maven2RepositoryMerger, 0, 0, 0, 0, 0, 0, 0, 0, 0, 0, 0, 0, 0, 0,0.0,0.0,0.0,0.1,0.0,0.1,0.0,0.0,0.0,0.0,0.0,0.0,0.0,272,archiva-modules\plugins\stage-repository-merge\src\main\java\org\apache\archiva\stagerepository\merge\Maven2RepositoryMerger.java,0,0,0,0
org.apache.archiva.stagerepository.merge.Maven2RepositoryMergerTest, 0, 0, 0, 0, 0, 0, 0, 0, 0, 0, 0, 0, 0, 0,0.0,0.0,0.0,0.5,0.0,0.0,0.0,0.0,0.0,0.0,0.0,0.0,0.0,106,archiva-modules\plugins\stage-repository-merge\src\test\java\org\apache\archiva\stagerepository\merge\Maven2RepositoryMergerTest.java,0,0,0,0
org.apache.archiva.stagerepository.merge.RepositoryMerger, 0, 0, 0, 0, 0, 0, 0, 0, 0, 0, 0, 0, 0, 0,0.0,0.0,0.0,0.0,0.0,0.0,0.0,0.0,0.0,0.0,0.0,0.0,0.0,106,archiva-modules\plugins\stage-repository-merge\src\main\java\org\apache\archiva\stagerepository\merge\RepositoryMerger.java,0,0,0,0
org.apache.archiva.stagerepository.merge.RepositoryMergerException, 0, 0, 0, 0, 0, 1, 0, 0, 0, 0, 0, 0, 0, 1,0.0,0.0,0.0,0.0,0.0,0.0,0.0,0.0,0.0,0.0,0.0,0.0,0.0,8,archiva-modules\plugins\stage-repository-merge\src\main\java\org\apache\archiva\stagerepository\merge\RepositoryMergerException.java,0,0,0,0
org.apache.archiva.test.utils.ArchivaBlockJUnit4ClassRunner, 0, 0, 0, 0, 0, 0, 0, 0, 0, 0, 0, 0, 0, 0,0.0,0.0,0.0,0.0,0.0,0.0,0.0,0.0,0.0,0.0,0.0,0.0,0.0,14,archiva-modules\archiva-base\archiva-test-utils\src\main\java\org\apache\archiva\test\utils\ArchivaBlockJUnit4ClassRunner.java,0,0,0,0
org.apache.archiva.test.utils.ArchivaSpringJUnit4ClassRunner, 0, 0, 0, 0, 0, 0, 0, 0, 0, 0, 0, 0, 0, 0,0.0,0.0,0.0,0.0,0.0,0.0,0.0,0.0,0.0,0.0,0.0,0.0,0.0,14,archiva-modules\archiva-base\archiva-test-utils\src\main\java\org\apache\archiva\test\utils\ArchivaSpringJUnit4ClassRunner.java,0,0,0,0
org.apache.archiva.test.utils.ListGenerator, 0, 0, 0, 0, 0, 0, 0, 0, 0, 0, 0, 0, 0, 0,0.0,0.0,0.0,0.0,0.0,0.0,0.0,0.0,0.0,0.0,0.0,0.0,0.0,35,archiva-modules\archiva-base\archiva-test-utils\src\main\java\org\apache\archiva\test\utils\ListGenerator.java,0,0,0,0
org.apache.archiva.transaction.AbstractFileEventTest, 0, 0, 0, 0, 0, 0, 0, 0, 0, 0, 0, 0, 0, 0,0.0,0.0,0.0,0.0,0.0,0.0,0.0,0.0,0.0,0.0,0.0,0.0,0.0,50,archiva-modules\archiva-base\archiva-transaction\src\test\java\org\apache\archiva\transaction\AbstractFileEventTest.java,0,0,0,0
org.apache.archiva.transaction.CopyFileEvent, 0, 0, 0, 0, 0, 0, 0, 0, 0, 0, 0, 0, 0, 0,0.0,0.0,0.0,0.0,0.0,0.0,0.0,0.0,0.0,0.0,0.0,0.0,0.0,52,archiva-modules\archiva-base\archiva-transaction\src\main\java\org\apache\archiva\transaction\CopyFileEvent.java,0,0,0,0
org.apache.archiva.transaction.CopyFileEventTest, 0, 0, 0, 0, 0, 0, 0, 0, 0, 0, 0, 0, 0, 0,0.0,0.0,0.0,0.0,0.0,0.0,0.0,0.0,0.0,0.0,0.0,0.0,0.0,101,archiva-modules\archiva-base\archiva-transaction\src\test\java\org\apache\archiva\transaction\CopyFileEventTest.java,0,0,0,0
org.apache.archiva.transaction.CreateFileEvent, 0, 0, 0, 0, 0, 0, 0, 0, 0, 0, 0, 0, 0, 0,0.0,0.0,0.0,0.0,0.0,0.0,0.0,0.0,0.0,0.0,0.0,0.0,0.0,34,archiva-modules\archiva-base\archiva-transaction\src\main\java\org\apache\archiva\transaction\CreateFileEvent.java,0,0,0,0
org.apache.archiva.transaction.CreateFileEventTest, 0, 0, 0, 0, 0, 0, 0, 0, 0, 0, 0, 0, 0, 0,0.0,0.0,0.0,0.0,0.0,0.0,0.0,0.0,0.0,0.0,0.0,0.0,0.0,62,archiva-modules\archiva-base\archiva-transaction\src\test\java\org\apache\archiva\transaction\CreateFileEventTest.java,0,0,0,0
org.apache.archiva.transaction.FileTransaction, 0, 0, 0, 0, 0, 0, 0, 0, 0, 0, 0, 0, 0, 0,0.0,0.0,0.0,0.0,0.0,0.0,0.0,0.0,0.0,0.0,0.0,0.0,0.0,47,archiva-modules\archiva-base\archiva-transaction\src\main\java\org\apache\archiva\transaction\FileTransaction.java,0,0,0,0
org.apache.archiva.transaction.TransactionEvent, 0, 0, 0, 0, 0, 0, 0, 0, 0, 0, 0, 0, 0, 0,0.0,0.0,0.0,0.0,0.0,0.0,0.0,0.0,0.0,0.0,0.0,0.0,0.0,47,archiva-modules\archiva-base\archiva-transaction\src\main\java\org\apache\archiva\transaction\TransactionEvent.java,0,0,0,0
org.apache.archiva.transaction.TransactionException, 0, 0, 0, 0, 0, 0, 0, 0, 0, 0, 0, 0, 0, 0,0.0,0.0,0.0,0.0,0.0,0.0,0.0,0.0,0.0,0.0,0.0,0.0,0.0,19,archiva-modules\archiva-base\archiva-transaction\src\main\java\org\apache\archiva\transaction\TransactionException.java,0,0,0,0
org.apache.archiva.web.api.DataValidatorService, 0, 0, 0, 0, 0, 0, 0, 0, 0, 0, 0, 0, 0, 0,0.0,0.0,0.0,0.0,0.0,0.0,0.0,0.0,0.0,0.0,0.0,0.0,0.0,19,archiva-modules\archiva-web\archiva-web-common\src\main\java\org\apache\archiva\web\api\DataValidatorService.java,0,0,0,0
org.apache.archiva.web.api.DefaultDataValidatorService, 0, 0, 0, 0, 0, 0, 0, 0, 0, 0, 0, 0, 0, 0,0.0,0.0,0.0,0.0,0.0,0.0,0.0,0.0,0.0,0.0,0.0,0.0,0.0,58,archiva-modules\archiva-web\archiva-web-common\src\main\java\org\apache\archiva\web\api\DefaultDataValidatorService.java,0,0,0,0
org.apache.archiva.web.api.DefaultFileUploadService, 0, 0, 0, 0, 0, 0, 0, 1, 0, 0, 0, 0, 0, 1,0.0,0.0,0.0,0.0,0.0,0.0,0.0,0.0,0.0,0.0,0.0,0.0,0.0,487,archiva-modules\archiva-web\archiva-web-common\src\main\java\org\apache\archiva\web\api\DefaultFileUploadService.java,0,0,1,2
org.apache.archiva.web.api.DefaultJavascriptLogger, 0, 0, 0, 0, 0, 0, 0, 0, 0, 0, 0, 0, 0, 0,0.0,0.0,0.0,0.0,0.0,0.0,0.0,0.0,0.0,0.0,0.0,0.0,0.0,65,archiva-modules\archiva-web\archiva-web-common\src\main\java\org\apache\archiva\web\api\DefaultJavascriptLogger.java,0,0,0,0
org.apache.archiva.web.api.DefaultRuntimeInfoService, 0, 0, 0, 0, 0, 0, 0, 0, 0, 0, 0, 0, 0, 0,0.0,0.0,0.0,0.0,0.0,0.0,0.0,0.0,0.0,0.0,0.0,0.0,0.0,56,archiva-modules\archiva-web\archiva-web-common\src\main\java\org\apache\archiva\web\api\DefaultRuntimeInfoService.java,0,0,0,0
org.apache.archiva.web.api.FileUploadService, 0, 0, 0, 0, 0, 0, 0, 0, 0, 0, 0, 0, 0, 0,0.0,0.0,0.0,0.0,0.0,0.0,0.0,0.0,0.0,0.0,0.0,0.0,0.0,56,archiva-modules\archiva-web\archiva-web-common\src\main\java\org\apache\archiva\web\api\FileUploadService.java,0,0,0,0
org.apache.archiva.web.api.JavascriptLogger, 0, 0, 0, 0, 0, 0, 0, 0, 0, 0, 0, 0, 0, 0,0.0,0.0,0.0,0.0,0.0,0.0,0.0,0.0,0.0,0.0,0.0,0.0,0.0,56,archiva-modules\archiva-web\archiva-web-common\src\main\java\org\apache\archiva\web\api\JavascriptLogger.java,0,0,0,0
org.apache.archiva.web.api.RuntimeInfoService, 0, 0, 0, 0, 0, 0, 0, 0, 0, 0, 0, 0, 0, 0,0.0,0.0,0.0,0.0,0.0,0.0,0.0,0.0,0.0,0.0,0.0,0.0,0.0,56,archiva-modules\archiva-web\archiva-web-common\src\main\java\org\apache\archiva\web\api\RuntimeInfoService.java,0,0,0,0
org.apache.archiva.web.docs.RestDocsServlet, 0, 0, 0, 0, 0, 0, 0, 0, 0, 0, 0, 0, 0, 0,0.0,0.0,0.0,0.0,0.0,0.0,0.0,0.0,0.0,0.0,0.0,0.0,0.0,44,archiva-modules\archiva-web\archiva-web-common\src\main\java\org\apache\archiva\web\docs\RestDocsServlet.java,0,0,0,0
org.apache.archiva.web.mocks.MockInvalidRepositoryContentConsumer, 0, 0, 0, 0, 0, 0, 0, 0, 0, 0, 0, 0, 0, 0,0.0,0.0,0.0,0.0,0.0,0.0,0.0,0.0,0.0,0.0,0.0,0.0,0.0,70,archiva-modules\archiva-web\archiva-test-mocks\src\main\java\org\apache\archiva\web\mocks\MockInvalidRepositoryContentConsumer.java,0,0,0,0
org.apache.archiva.web.rss.RoleManagerStub, 0, 0, 0, 0, 0, 0, 0, 0, 0, 0, 0, 0, 0, 0,0.0,0.0,0.0,0.0,0.0,0.0,0.0,0.0,0.0,0.0,0.0,0.0,0.0,80,archiva-modules\archiva-web\archiva-web-common\src\test\java\org\apache\archiva\web\rss\RoleManagerStub.java,0,0,0,0
org.apache.archiva.web.security.ArchivaLockedAdminEnvironmentCheck, 0, 0, 0, 0, 0, 0, 0, 0, 0, 0, 0, 0, 0, 0,0.0,0.0,0.0,0.0,0.0,0.0,0.0,0.0,0.0,0.0,0.0,0.0,0.0,74,archiva-modules\archiva-web\archiva-web-common\src\main\java\org\apache\archiva\web\security\ArchivaLockedAdminEnvironmentCheck.java,0,0,0,0
org.apache.archiva.web.security.ArchivaUserManagerAuthenticator, 0, 0, 0, 0, 0, 0, 0, 0, 0, 0, 0, 0, 0, 0,0.0,0.0,0.0,0.0,0.0,0.0,0.0,0.0,0.0,0.0,0.0,0.0,0.0,147,archiva-modules\archiva-web\archiva-web-common\src\main\java\org\apache\archiva\web\security\ArchivaUserManagerAuthenticator.java,0,0,0,0
org.apache.archiva.web.test.ArchivaAdminTest, 0, 0, 0, 0, 0, 0, 0, 0, 0, 0, 0, 0, 0, 0,0.0,0.0,0.0,0.0,0.0,0.0,0.0,1.0,0.0,0.0,0.0,0.0,0.0,9,archiva-modules\archiva-web\archiva-webapp-test\src\test\java\org\apache\archiva\web\test\ArchivaAdminTest.java,0,0,0,0
org.apache.archiva.web.test.LoginTest, 0, 0, 0, 0, 0, 0, 0, 0, 0, 0, 0, 0, 0, 0,0.0,0.0,0.0,0.0,0.0,0.0,0.0,1.0,0.0,0.0,0.0,0.0,0.0,45,archiva-modules\archiva-web\archiva-webapp-test\src\test\java\org\apache\archiva\web\test\LoginTest.java,0,0,0,0
org.apache.archiva.web.test.RepositoryAdminTest, 0, 0, 0, 0, 0, 0, 0, 0, 0, 0, 0, 0, 0, 0,0.0,0.0,0.0,0.0,0.0,0.0,0.0,1.0,0.0,0.0,0.0,0.0,0.0,30,archiva-modules\archiva-web\archiva-webapp-test\src\test\java\org\apache\archiva\web\test\RepositoryAdminTest.java,0,0,0,0
org.apache.archiva.web.test.RolesManagementTest, 0, 0, 0, 0, 0, 0, 0, 0, 0, 0, 0, 0, 0, 0,0.0,0.0,0.0,0.0,0.0,0.0,0.0,1.0,0.0,0.0,0.0,0.0,0.0,19,archiva-modules\archiva-web\archiva-webapp-test\src\test\java\org\apache\archiva\web\test\RolesManagementTest.java,0,0,0,0
org.apache.archiva.web.test.UserManagementTest, 0, 0, 0, 0, 0, 0, 0, 0, 0, 0, 0, 0, 0, 0,0.0,0.0,0.0,0.0,0.0,0.0,0.0,1.0,0.0,0.0,0.0,0.0,0.0,14,archiva-modules\archiva-web\archiva-webapp-test\src\test\java\org\apache\archiva\web\test\UserManagementTest.java,0,0,0,0
org.apache.archiva.web.test.XPathExpressionUtil, 0, 0, 0, 1, 0, 0, 0, 1, 0, 0, 0, 0, 0, 2,0.0,0.0,0.0,0.0,0.0,0.0,0.0,0.0,0.0,0.0,0.0,0.0,0.0,130,archiva-modules\archiva-web\archiva-webapp-test\src\test\java\org\apache\archiva\web\test\XPathExpressionUtil.java,0,0,0,0
org.apache.archiva.web.test.parent.AbstractArchivaTest, 0, 0, 0, 0, 0, 0, 0, 1, 0, 0, 0, 0, 0, 1,0.0,0.0,0.0,0.0,0.0,0.0,0.0,0.0,0.0,0.0,0.0,0.0,0.0,120,archiva-modules\archiva-web\archiva-webapp-test\src\test\java\org\apache\archiva\web\test\parent\AbstractArchivaTest.java,0,0,0,0
org.apache.archiva.web.test.tools.ArchivaSeleniumExecutionRule, 0, 0, 1, 0, 0, 0, 0, 0, 0, 0, 0, 0, 0, 1,0.0,0.0,0.0,0.0,0.0,0.0,0.0,0.0,0.0,0.0,0.0,0.0,0.0,36,archiva-modules\archiva-web\archiva-webapp-test\src\test\java\org\apache\archiva\web\test\tools\ArchivaSeleniumExecutionRule.java,0,0,0,0
org.apache.archiva.webdav.AbstractRepositoryServletProxiedTestCase, 0, 0, 0, 0, 0, 0, 0, 0, 0, 0, 0, 0, 0, 0,0.0,0.0,0.0,0.0,0.0,0.0,0.0,0.125,0.0,0.0,0.0,0.0,0.0,170,archiva-modules\archiva-web\archiva-webdav\src\test\java\org\apache\archiva\webdav\AbstractRepositoryServletProxiedTestCase.java,0,0,0,0
org.apache.archiva.webdav.ArchivaDavResource, 0, 0, 0, 1, 0, 0, 0, 1, 0, 0, 0, 0, 0, 2,0.0,0.0,0.0,0.0,0.0,0.4,0.0,0.0,0.0,0.0,0.0,0.0,0.0,539,archiva-modules\archiva-web\archiva-webdav\src\main\java\org\apache\archiva\webdav\ArchivaDavResource.java,1,0,2,5
org.apache.archiva.webdav.ArchivaDavResourceFactoryTest, 0, 0, 0, 1, 0, 0, 0, 0, 0, 0, 0, 0, 0, 1,0.0,0.0,0.0,0.0,0.0,0.0,0.0,0.0,0.0,0.0,0.0,0.0,0.0,428,archiva-modules\archiva-web\archiva-webdav\src\test\java\org\apache\archiva\webdav\ArchivaDavResourceFactoryTest.java,0,0,0,0
org.apache.archiva.webdav.ArchivaDavResourceLocator, 0, 0, 0, 0, 0, 0, 0, 0, 0, 0, 0, 0, 0, 0,0.0,0.0,0.0,0.5,0.0,0.0,0.0,0.3333333333333333,0.0,0.0,0.0,0.0,0.0,110,archiva-modules\archiva-web\archiva-webdav\src\main\java\org\apache\archiva\webdav\ArchivaDavResourceLocator.java,0,0,0,0
org.apache.archiva.webdav.ArchivaDavResourceLocatorTest, 0, 0, 0, 0, 0, 0, 0, 0, 0, 0, 0, 0, 0, 0,0.0,0.0,0.0,0.0,0.0,0.0,0.0,0.0,0.0,0.0,0.0,0.0,0.0,81,archiva-modules\archiva-web\archiva-webdav\src\test\java\org\apache\archiva\webdav\ArchivaDavResourceLocatorTest.java,0,0,0,0
org.apache.archiva.webdav.ArchivaDavSession, 0, 0, 0, 0, 0, 0, 0, 0, 0, 0, 0, 0, 0, 0,0.0,0.0,0.0,0.0,0.0,0.0,0.0,0.0,0.0,0.0,0.0,0.0,0.0,30,archiva-modules\archiva-web\archiva-webdav\src\main\java\org\apache\archiva\webdav\ArchivaDavSession.java,0,0,0,0
org.apache.archiva.webdav.ArchivaDavSessionProvider, 0, 0, 0, 0, 0, 0, 0, 0, 0, 0, 0, 0, 0, 0,0.0,0.0,0.0,0.0,0.0,0.0,0.0,0.0,0.0,0.0,0.0,0.0,0.0,66,archiva-modules\archiva-web\archiva-webdav\src\main\java\org\apache\archiva\webdav\ArchivaDavSessionProvider.java,0,0,0,0
org.apache.archiva.webdav.ArchivaDavSessionTest, 0, 0, 0, 0, 0, 0, 0, 0, 0, 0, 0, 0, 0, 0,0.0,0.0,0.0,0.0,0.0,0.0,0.0,0.0,0.0,0.0,0.0,0.0,0.0,42,archiva-modules\archiva-web\archiva-webdav\src\test\java\org\apache\archiva\webdav\ArchivaDavSessionTest.java,0,0,0,0
org.apache.archiva.webdav.ArchivaVirtualDavResource, 0, 0, 0, 1, 0, 0, 0, 1, 0, 0, 0, 0, 0, 2,0.0,0.0,0.0,0.0,0.0,0.0,0.0,0.0,0.0,0.0,0.0,0.0,0.0,260,archiva-modules\archiva-web\archiva-webdav\src\main\java\org\apache\archiva\webdav\ArchivaVirtualDavResource.java,0,0,0,0
org.apache.archiva.webdav.BrowserRedirectException, 0, 0, 0, 0, 0, 0, 0, 0, 0, 0, 0, 0, 0, 0,0.0,0.0,0.0,0.0,0.0,0.0,0.0,0.0,0.0,0.0,0.0,0.0,0.0,21,archiva-modules\archiva-web\archiva-webdav\src\main\java\org\apache\archiva\webdav\BrowserRedirectException.java,0,0,0,0
org.apache.archiva.webdav.BypassSecuritySystem, 0, 0, 0, 0, 0, 0, 0, 0, 0, 0, 0, 0, 0, 0,0.0,0.0,0.0,0.0,0.0,0.0,0.0,0.0,0.0,0.0,0.0,0.0,0.0,86,archiva-modules\archiva-web\archiva-webdav\src\test\java\org\apache\archiva\webdav\BypassSecuritySystem.java,0,0,0,0
org.apache.archiva.webdav.DavResourceTest, 0, 0, 0, 0, 0, 0, 0, 0, 0, 0, 0, 0, 0, 0,0.0,0.0,0.0,0.5,0.0,0.0,0.0,0.5,0.0,0.0,0.0,0.0,0.0,225,archiva-modules\archiva-web\archiva-webdav\src\test\java\org\apache\archiva\webdav\DavResourceTest.java,0,0,1,2
org.apache.archiva.webdav.LogicalResource, 0, 0, 0, 0, 0, 0, 0, 0, 0, 0, 0, 0, 0, 0,0.0,0.0,0.0,0.0,0.0,0.0,0.0,0.0,0.0,0.0,0.0,0.0,0.0,12,archiva-modules\archiva-web\archiva-webdav\src\main\java\org\apache\archiva\webdav\LogicalResource.java,0,0,0,0
org.apache.archiva.webdav.MimeTypesLoaderTest, 0, 0, 0, 0, 0, 0, 0, 0, 0, 0, 0, 0, 0, 0,0.0,0.0,0.0,0.0,0.0,0.0,0.0,0.0,0.0,0.0,0.0,0.0,0.0,17,archiva-modules\archiva-web\archiva-webdav\src\test\java\org\apache\archiva\webdav\MimeTypesLoaderTest.java,0,0,0,0
org.apache.archiva.webdav.MockServletAuthenticator, 0, 0, 0, 0, 0, 0, 0, 0, 0, 0, 0, 0, 0, 0,0.0,0.0,0.0,0.0,0.0,0.0,0.0,0.0,0.0,0.0,0.0,0.0,0.0,10,archiva-modules\archiva-web\archiva-webdav\src\test\java\org\apache\archiva\webdav\MockServletAuthenticator.java,0,0,0,0
org.apache.archiva.webdav.RepositoryLocator, 0, 0, 0, 0, 0, 0, 0, 0, 0, 0, 0, 0, 0, 0,0.0,0.0,0.0,0.0,0.0,0.0,0.0,0.0,0.0,0.0,0.0,0.0,0.0,10,archiva-modules\archiva-web\archiva-webdav\src\main\java\org\apache\archiva\webdav\RepositoryLocator.java,0,0,0,0
org.apache.archiva.webdav.RepositoryServletBrowseTest, 0, 0, 0, 0, 0, 0, 0, 0, 0, 0, 0, 0, 0, 0,0.0,0.0,0.0,0.0,0.0,0.0,0.0,0.0,0.0,0.0,0.0,0.0,0.0,71,archiva-modules\archiva-web\archiva-webdav\src\test\java\org\apache\archiva\webdav\RepositoryServletBrowseTest.java,0,0,0,0
org.apache.archiva.webdav.RepositoryServletDeployTest, 0, 0, 0, 0, 0, 0, 0, 0, 0, 0, 0, 0, 0, 0,0.0,0.0,0.0,0.0,0.0,1.0,0.0,0.0,0.0,0.0,0.0,0.0,0.0,156,archiva-modules\archiva-web\archiva-webdav\src\test\java\org\apache\archiva\webdav\RepositoryServletDeployTest.java,0,0,0,0
org.apache.archiva.webdav.RepositoryServletNoProxyMetadataTest, 0, 0, 0, 0, 0, 0, 0, 0, 0, 0, 0, 0, 0, 0,0.0,0.0,0.0,0.0,0.0,0.0,0.0,0.0,0.0,0.0,0.0,0.0,0.0,69,archiva-modules\archiva-web\archiva-webdav\src\test\java\org\apache\archiva\webdav\RepositoryServletNoProxyMetadataTest.java,0,0,0,0
org.apache.archiva.webdav.RepositoryServletNoProxyTest, 0, 0, 0, 1, 0, 0, 0, 0, 0, 0, 0, 0, 0, 1,0.0,0.0,0.0,0.0,0.0,0.0,0.0,0.0,0.0,0.0,0.0,0.0,0.0,377,archiva-modules\archiva-web\archiva-webdav\src\test\java\org\apache\archiva\webdav\RepositoryServletNoProxyTest.java,0,0,0,0
org.apache.archiva.webdav.RepositoryServletProxiedMetadataLocalOnlyTest, 0, 0, 0, 0, 0, 0, 0, 0, 0, 0, 0, 0, 0, 0,0.0,0.0,0.0,0.0,0.0,0.0,0.0,0.0,0.0,0.0,0.0,0.0,0.0,76,archiva-modules\archiva-web\archiva-webdav\src\test\java\org\apache\archiva\webdav\RepositoryServletProxiedMetadataLocalOnlyTest.java,0,0,0,0
org.apache.archiva.webdav.RepositoryServletProxiedMetadataRemoteOnlyTest, 0, 0, 0, 0, 0, 0, 0, 0, 0, 0, 0, 0, 0, 0,0.0,0.0,0.0,0.0,0.0,0.0,0.0,0.0,0.0,0.0,0.0,0.0,0.0,115,archiva-modules\archiva-web\archiva-webdav\src\test\java\org\apache\archiva\webdav\RepositoryServletProxiedMetadataRemoteOnlyTest.java,0,0,0,0
org.apache.archiva.webdav.RepositoryServletProxiedPassthroughTest, 0, 0, 0, 0, 0, 0, 0, 1, 0, 0, 0, 0, 0, 1,0.0,0.0,0.0,0.0,0.0,0.0,0.0,0.0,0.0,0.0,0.0,0.0,0.0,118,archiva-modules\archiva-web\archiva-webdav\src\test\java\org\apache\archiva\webdav\RepositoryServletProxiedPassthroughTest.java,0,0,0,0
org.apache.archiva.webdav.RepositoryServletProxiedPluginSnapshotPolicyTest, 0, 0, 0, 0, 0, 0, 0, 0, 0, 0, 0, 0, 0, 0,0.0,0.0,0.0,0.0,0.0,0.0,0.0,0.0,0.0,0.0,0.0,0.0,0.0,147,archiva-modules\archiva-web\archiva-webdav\src\test\java\org\apache\archiva\webdav\RepositoryServletProxiedPluginSnapshotPolicyTest.java,0,0,0,0
org.apache.archiva.webdav.RepositoryServletProxiedReleasePolicyTest, 0, 0, 0, 0, 0, 0, 0, 0, 0, 0, 0, 0, 0, 0,0.0,0.0,0.0,0.0,0.0,0.0,0.0,0.0,0.0,0.0,0.0,0.0,0.0,145,archiva-modules\archiva-web\archiva-webdav\src\test\java\org\apache\archiva\webdav\RepositoryServletProxiedReleasePolicyTest.java,0,0,0,0
org.apache.archiva.webdav.RepositoryServletProxiedRelocatedTest, 0, 0, 0, 0, 0, 0, 0, 0, 0, 0, 0, 0, 0, 0,0.0,0.0,0.0,0.0,0.0,0.0,0.0,0.0,0.0,0.0,0.0,0.0,0.0,34,archiva-modules\archiva-web\archiva-webdav\src\test\java\org\apache\archiva\webdav\RepositoryServletProxiedRelocatedTest.java,0,0,0,0
org.apache.archiva.webdav.RepositoryServletProxiedSnapshotPolicyTest, 0, 0, 0, 0, 0, 0, 0, 0, 0, 0, 0, 0, 0, 0,0.0,0.0,0.0,0.0,0.0,0.0,0.0,0.0,0.0,0.0,0.0,0.0,0.0,163,archiva-modules\archiva-web\archiva-webdav\src\test\java\org\apache\archiva\webdav\RepositoryServletProxiedSnapshotPolicyTest.java,0,0,0,0
org.apache.archiva.webdav.RepositoryServletProxiedTimestampedSnapshotPolicyTest, 0, 0, 0, 0, 0, 0, 0, 0, 0, 0, 0, 0, 0, 0,0.0,0.0,0.0,0.0,0.0,0.0,0.0,0.0,0.0,0.0,0.0,0.0,0.0,160,archiva-modules\archiva-web\archiva-webdav\src\test\java\org\apache\archiva\webdav\RepositoryServletProxiedTimestampedSnapshotPolicyTest.java,0,0,0,0
org.apache.archiva.webdav.RepositoryServletRepositoryGroupTest, 0, 0, 0, 0, 0, 0, 0, 0, 0, 0, 0, 0, 0, 0,0.0,0.0,0.0,0.0,0.0,0.0,0.0,0.0,0.0,0.0,0.0,0.0,0.0,199,archiva-modules\archiva-web\archiva-webdav\src\test\java\org\apache\archiva\webdav\RepositoryServletRepositoryGroupTest.java,0,0,0,0
org.apache.archiva.webdav.RepositoryServletSecurityTest, 0, 0, 0, 0, 0, 0, 0, 0, 0, 0, 0, 0, 0, 0,0.0,0.0,0.0,0.0,0.0,0.0,0.0,0.0,0.0,0.0,0.0,0.0,0.0,437,archiva-modules\archiva-web\archiva-webdav\src\test\java\org\apache\archiva\webdav\RepositoryServletSecurityTest.java,0,0,0,0
org.apache.archiva.webdav.RepositoryServletTest, 0, 0, 0, 0, 0, 0, 0, 0, 0, 0, 0, 0, 0, 0,0.0,0.0,0.0,0.0,0.0,0.0,0.0,0.0,0.0,0.0,0.0,0.0,0.0,82,archiva-modules\archiva-web\archiva-webdav\src\test\java\org\apache\archiva\webdav\RepositoryServletTest.java,0,0,0,0
org.apache.archiva.webdav.StubRepositoryContentConsumers, 0, 0, 0, 0, 0, 0, 0, 0, 0, 0, 0, 0, 0, 0,0.0,0.0,0.0,0.0,0.0,0.0,0.0,0.0,0.0,0.0,0.0,0.0,0.0,18,archiva-modules\archiva-web\archiva-webdav\src\test\java\org\apache\archiva\webdav\StubRepositoryContentConsumers.java,0,0,0,0
org.apache.archiva.webdav.UnauthenticatedDavResourceFactory, 0, 0, 0, 0, 0, 0, 0, 0, 0, 0, 0, 0, 0, 0,0.0,0.0,0.0,0.0,0.0,0.0,0.0,0.0,0.0,0.0,0.0,0.0,0.0,17,archiva-modules\archiva-web\archiva-webdav\src\test\java\org\apache\archiva\webdav\UnauthenticatedDavResourceFactory.java,0,0,0,0
org.apache.archiva.webdav.UnauthenticatedDavSessionProvider, 0, 0, 0, 0, 0, 0, 0, 0, 0, 0, 0, 0, 0, 0,0.0,0.0,0.0,0.0,0.0,0.0,0.0,0.0,0.0,0.0,0.0,0.0,0.0,14,archiva-modules\archiva-web\archiva-webdav\src\test\java\org\apache\archiva\webdav\UnauthenticatedDavSessionProvider.java,0,0,0,0
org.apache.archiva.webdav.UnauthenticatedRepositoryServlet, 0, 0, 0, 0, 0, 0, 0, 0, 0, 0, 0, 0, 0, 0,0.0,0.0,0.0,0.0,0.0,0.0,0.0,0.0,0.0,0.0,0.0,0.0,0.0,29,archiva-modules\archiva-web\archiva-webdav\src\test\java\org\apache\archiva\webdav\UnauthenticatedRepositoryServlet.java,0,0,0,0
org.apache.archiva.webdav.UnauthorizedDavException, 0, 0, 0, 0, 0, 0, 0, 0, 0, 0, 0, 0, 0, 0,0.0,0.0,0.0,0.0,0.0,0.0,0.0,0.0,0.0,0.0,0.0,0.0,0.0,14,archiva-modules\archiva-web\archiva-webdav\src\main\java\org\apache\archiva\webdav\UnauthorizedDavException.java,0,0,0,0
org.apache.archiva.webdav.httpunit.MkColMethodWebRequest, 0, 0, 0, 0, 0, 1, 0, 0, 0, 0, 0, 0, 0, 1,0.0,0.0,0.0,0.0,0.0,0.0,0.0,0.0,0.0,0.0,0.0,0.0,0.0,9,archiva-modules\archiva-web\archiva-webdav\src\test\java\org\apache\archiva\webdav\httpunit\MkColMethodWebRequest.java,0,0,0,0
org.apache.archiva.webdav.util.MavenIndexerCleaner, 0, 0, 0, 0, 0, 0, 0, 0, 0, 0, 0, 0, 0, 0,0.0,0.0,0.0,0.0,0.0,0.0,0.0,0.0,0.0,0.0,0.0,0.0,0.0,64,archiva-modules\archiva-web\archiva-webdav\src\test\java\org\apache\archiva\webdav\util\MavenIndexerCleaner.java,0,0,0,0
org.apache.archiva.webdav.util.MimeTypesTest, 0, 0, 0, 0, 0, 0, 0, 0, 0, 0, 0, 0, 0, 0,0.0,0.0,0.0,0.0,0.0,0.0,0.0,0.0,0.0,0.0,0.0,0.0,0.0,16,archiva-modules\archiva-web\archiva-webdav\src\test\java\org\apache\archiva\webdav\util\MimeTypesTest.java,0,0,0,0
org.apache.archiva.webdav.util.ReinitServlet, 0, 0, 0, 0, 0, 0, 0, 0, 0, 0, 0, 0, 0, 0,0.0,0.0,0.0,0.0,0.0,0.0,0.0,0.0,0.0,0.0,0.0,0.0,0.0,13,archiva-modules\archiva-web\archiva-webdav\src\test\java\org\apache\archiva\webdav\util\ReinitServlet.java,0,0,0,0
org.apache.archiva.webdav.util.RepositoryPathUtil, 0, 0, 0, 0, 0, 0, 0, 0, 0, 0, 0, 0, 0, 0,0.0,0.0,0.0,0.0,0.0,0.0,0.0,0.0,0.0,0.0,0.0,0.0,0.0,33,archiva-modules\archiva-web\archiva-webdav\src\main\java\org\apache\archiva\webdav\util\RepositoryPathUtil.java,0,0,0,0
org.apache.archiva.webdav.util.RepositoryPathUtilTest, 0, 0, 0, 0, 0, 0, 0, 0, 0, 0, 0, 0, 0, 0,0.0,0.0,0.0,0.0,0.0,0.0,0.0,0.0,0.0,0.0,0.0,0.0,0.0,12,archiva-modules\archiva-web\archiva-webdav\src\test\java\org\apache\archiva\webdav\util\RepositoryPathUtilTest.java,0,0,0,0
org.apache.archiva.webdav.util.WebdavMethodUtil, 0, 0, 0, 0, 0, 0, 0, 0, 0, 0, 0, 0, 0, 0,0.0,0.0,0.0,0.0,0.0,0.0,0.0,0.0,0.0,0.0,0.0,0.0,0.0,40,archiva-modules\archiva-web\archiva-webdav\src\main\java\org\apache\archiva\webdav\util\WebdavMethodUtil.java,0,0,0,0
org.apache.archiva.webtest.memory.TestMetadataRepository, 0, 0, 0, 1, 0, 0, 0, 1, 0, 0, 0, 0, 0, 2,0.0,0.0,0.0,0.6666666666666666,0.0,0.0,0.0,0.0,0.0,0.0,0.0,0.0,0.0,216,archiva-modules\archiva-web\archiva-web-common\src\test\java\org\apache\archiva\webtest\memory\TestMetadataRepository.java,0,0,0,0
org.apache.archiva.webtest.memory.TestRepositorySessionFactory, 0, 0, 0, 0, 0, 0, 0, 0, 0, 0, 0, 0, 0, 0,0.0,0.0,0.0,0.5,0.0,0.0,0.0,0.5,0.0,0.0,0.0,0.0,0.0,27,archiva-modules\archiva-web\archiva-web-common\src\test\java\org\apache\archiva\webtest\memory\TestRepositorySessionFactory.java,0,0,0,0
org.apache.archiva.xml.AbstractArchivaXmlTestCase, 0, 0, 0, 0, 0, 0, 0, 0, 0, 0, 0, 0, 0, 0,0.0,0.0,0.0,0.0,0.0,0.0,0.0,0.0,0.0,0.0,0.0,0.0,0.0,22,archiva-modules\archiva-base\archiva-xml-tools\src\test\java\org\apache\archiva\xml\AbstractArchivaXmlTestCase.java,0,0,0,0
org.apache.archiva.xml.ElementTextListClosure, 0, 0, 0, 0, 0, 0, 0, 0, 0, 0, 0, 0, 0, 0,0.0,0.0,0.0,0.0,0.0,0.0,0.0,0.0,0.0,0.0,0.0,0.0,0.0,18,archiva-modules\archiva-base\archiva-xml-tools\src\main\java\org\apache\archiva\xml\ElementTextListClosure.java,0,0,0,0
org.apache.archiva.xml.LatinEntitiesTest, 0, 0, 0, 0, 0, 0, 0, 0, 0, 0, 0, 0, 0, 0,0.0,0.0,0.0,0.0,0.0,0.0,0.0,0.0,0.0,0.0,0.0,0.0,0.0,14,archiva-modules\archiva-base\archiva-xml-tools\src\test\java\org\apache\archiva\xml\LatinEntitiesTest.java,0,0,0,0
org.apache.archiva.xml.XMLException, 0, 0, 0, 0, 0, 0, 0, 0, 0, 0, 0, 0, 0, 0,0.0,0.0,0.0,0.2,0.0,0.0,0.0,0.4,0.0,0.0,0.0,0.0,0.0,11,archiva-modules\archiva-base\archiva-xml-tools\src\main\java\org\apache\archiva\xml\XMLException.java,0,0,0,0
org.apache.archiva.xml.XMLReaderTest, 0, 0, 0, 0, 0, 0, 0, 0, 0, 0, 0, 0, 0, 0,0.0,0.0,0.0,0.0,0.0,0.0,0.0,0.0,0.0,0.0,0.0,0.0,0.0,65,archiva-modules\archiva-base\archiva-xml-tools\src\test\java\org\apache\archiva\xml\XMLReaderTest.java,0,0,0,0
org.apache.archiva.xml.XMLWriter, 0, 0, 0, 0, 0, 0, 0, 0, 0, 0, 0, 0, 0, 0,0.0,0.0,0.0,0.0,0.0,0.0,0.0,0.0,0.0,0.0,0.0,0.0,0.0,37,archiva-modules\archiva-base\archiva-xml-tools\src\main\java\org\apache\archiva\xml\XMLWriter.java,0,0,0,0
,0.0,0.0,0.0,0.0,0.0,0.0,0.0,0.0,0.0,0.0,0.0,0.0,0.0,37,archiva-cli\src\main\java\org\apache\archiva\cli\AbstractProgressConsumer.java,0,0,0,0
