ClassName,AntiSingleton,Blob,ClassDataShouldBePrivate,ComplexClass,LargeClass,LazyClass,LongMethod,LongParameterList,MessageChains,RefusedParentBequest,SpaghettiCode,SpeculativeGenerality,SwissArmyKnife,NumOfAPs,AntiSingleton,Blob,ClassDataShouldBePrivate,ComplexClass,LargeClass,LazyClass,LongMethod,LongParameterList,MessageChains,RefusedParentBequest,SpaghettiCode,SpeculativeGenerality,SwissArmyKnife,LOC,name,deleted,added,changed,all
org.apache.any23.AbstractAny23TestBase, 0, 0, 1, 0, 0, 0, 0, 0, 0, 0, 0, 0, 0, 1,0.0,0.0,0.0,0.0,0.0,0.0,0.0,0.0,0.0,0.0,0.0,0.0,0.0,37,core\src\test\java\org\apache\any23\AbstractAny23TestBase.java,0,0,0,0
org.apache.any23.Any23, 0, 0, 0, 1, 0, 0, 0, 1, 0, 0, 0, 0, 0, 2,0.0,0.0,0.0,0.0,0.0,0.0,0.0,0.14285714285714285,0.0,0.0,0.0,0.0,0.0,171,core\src\main\java\org\apache\any23\Any23.java,0,0,0,0
org.apache.any23.Any23OnlineTestBase, 0, 0, 0, 0, 0, 0, 0, 0, 0, 0, 0, 0, 0, 0,0.0,0.0,0.3333333333333333,0.0,0.0,0.0,0.0,0.0,0.0,0.0,0.0,0.0,0.0,6,core\src\test\java\org\apache\any23\Any23OnlineTestBase.java,0,0,0,0
org.apache.any23.SesameTest, 0, 0, 0, 0, 0, 0, 0, 0, 0, 0, 0, 0, 0, 0,0.0,0.0,0.0,0.0,0.0,0.0,0.0,0.0,0.0,0.0,0.0,0.0,0.0,18,core\src\test\java\org\apache\any23\SesameTest.java,0,0,0,0
org.apache.any23.cli.ExtractorDocumentation, 0, 0, 0, 0, 0, 0, 0, 0, 0, 0, 0, 0, 0, 0,0.0,0.0,0.0,0.0,0.0,0.0,0.0,0.0,0.0,0.0,0.0,0.0,0.0,95,core\src\main\java\org\apache\any23\cli\ExtractorDocumentation.java,0,0,0,0
org.apache.any23.cli.ExtractorDocumentationTest, 0, 0, 0, 0, 0, 0, 0, 0, 0, 0, 0, 0, 0, 0,0.0,0.0,0.0,0.0,0.0,0.0,0.0,0.0,0.0,0.0,0.0,0.0,0.0,22,core\src\test\java\org\apache\any23\cli\ExtractorDocumentationTest.java,0,0,0,0
org.apache.any23.cli.MicrodataParserTest, 0, 0, 0, 0, 0, 0, 0, 0, 0, 0, 0, 0, 0, 0,0.0,0.0,1.0,0.0,0.0,0.0,0.0,0.0,0.0,0.0,0.0,0.0,0.0,14,core\src\test\java\org\apache\any23\cli\MicrodataParserTest.java,0,0,0,0
org.apache.any23.cli.MimeDetector, 0, 0, 0, 0, 0, 0, 0, 0, 0, 0, 0, 0, 0, 0,0.0,0.0,0.0,0.0,0.0,0.0,0.0,0.0,0.0,0.0,0.0,0.0,0.0,45,core\src\main\java\org\apache\any23\cli\MimeDetector.java,0,0,0,0
org.apache.any23.cli.MimeDetectorTest, 0, 0, 0, 0, 0, 0, 0, 0, 0, 0, 0, 0, 0, 0,0.0,0.0,0.5,0.0,0.0,0.0,0.0,0.0,0.0,0.0,0.0,0.0,0.0,20,core\src\test\java\org\apache\any23\cli\MimeDetectorTest.java,0,0,0,0
org.apache.any23.cli.PluginVerifierTest, 0, 0, 0, 0, 0, 0, 0, 0, 0, 0, 0, 0, 0, 0,0.0,0.0,0.0,0.0,0.0,0.0,0.0,0.0,0.0,0.0,0.0,0.0,0.0,9,core\src\test\java\org\apache\any23\cli\PluginVerifierTest.java,0,0,0,0
org.apache.any23.cli.Tool, 0, 0, 0, 0, 0, 0, 0, 0, 0, 0, 0, 0, 0, 0,0.0,0.0,0.0,0.0,0.0,0.0,0.0,0.0,0.0,0.0,0.0,0.0,0.0,9,api\src\main\java\org\apache\any23\cli\Tool.java,0,0,0,0
org.apache.any23.cli.VocabPrinter, 0, 0, 0, 0, 0, 0, 0, 0, 0, 0, 0, 0, 0, 0,0.0,0.0,0.0,0.0,0.0,0.0,0.0,0.0,0.0,0.0,0.0,0.0,0.0,19,core\src\main\java\org\apache\any23\cli\VocabPrinter.java,0,0,0,0
org.apache.any23.cli.VocabPrinterTest, 0, 0, 0, 0, 0, 0, 0, 0, 0, 0, 0, 0, 0, 0,0.0,0.0,0.0,0.0,0.0,0.0,0.0,0.0,0.0,0.0,0.0,0.0,0.0,9,core\src\test\java\org\apache\any23\cli\VocabPrinterTest.java,0,0,0,0
org.apache.any23.configuration.Configuration, 0, 0, 0, 0, 0, 0, 0, 0, 0, 0, 0, 0, 0, 0,0.0,0.0,0.0,0.0,0.0,0.0,0.0,0.0,0.0,0.0,0.0,0.0,0.0,9,api\src\main\java\org\apache\any23\configuration\Configuration.java,0,0,0,0
org.apache.any23.configuration.DefaultConfigurationTest, 0, 0, 0, 0, 0, 0, 0, 0, 0, 0, 0, 0, 0, 0,0.0,0.0,0.0,0.0,0.0,0.0,0.0,0.0,0.0,0.0,0.0,0.0,0.0,96,core\src\test\java\org\apache\any23\configuration\DefaultConfigurationTest.java,0,0,0,0
org.apache.any23.configuration.DefaultModifiableConfiguration, 0, 0, 0, 0, 0, 0, 0, 0, 0, 0, 0, 0, 0, 0,0.0,0.0,0.0,0.0,0.0,0.0,0.0,0.0,0.0,0.0,0.0,0.0,0.0,11,api\src\main\java\org\apache\any23\configuration\DefaultModifiableConfiguration.java,0,0,0,0
org.apache.any23.configuration.ModifiableConfiguration, 0, 0, 0, 0, 0, 0, 0, 0, 0, 0, 0, 0, 0, 0,0.0,0.0,0.0,0.0,0.0,0.0,0.0,0.0,0.0,0.0,0.0,0.0,0.0,11,api\src\main\java\org\apache\any23\configuration\ModifiableConfiguration.java,0,0,0,0
org.apache.any23.encoding.EncodingDetector, 0, 0, 0, 0, 0, 0, 0, 0, 0, 0, 0, 0, 0, 0,0.0,0.0,0.0,0.0,0.0,0.0,0.0,0.0,0.0,0.0,0.0,0.0,0.0,11,api\src\main\java\org\apache\any23\encoding\EncodingDetector.java,0,0,0,0
org.apache.any23.encoding.TikaEncodingDetector, 0, 0, 0, 0, 0, 0, 0, 0, 0, 0, 0, 0, 0, 0,0.0,0.0,0.0,0.0,0.0,0.0,0.0,0.0,0.0,0.0,0.0,0.0,0.0,9,encoding\src\main\java\org\apache\any23\encoding\TikaEncodingDetector.java,0,0,0,0
org.apache.any23.encoding.TikaEncodingDetectorTest, 0, 0, 0, 0, 0, 0, 0, 0, 0, 0, 0, 0, 0, 0,0.0,0.0,0.0,0.0,0.0,0.0,0.0,0.0,0.0,0.0,0.0,0.0,0.0,44,encoding\src\test\java\org\apache\any23\encoding\TikaEncodingDetectorTest.java,0,0,0,0
org.apache.any23.extractor.ExampleInputOutput, 0, 0, 0, 0, 0, 0, 0, 0, 0, 0, 0, 0, 0, 0,0.0,0.0,0.0,0.0,0.0,0.16666666666666666,0.0,0.0,0.0,0.0,0.0,0.0,0.0,55,core\src\main\java\org\apache\any23\extractor\ExampleInputOutput.java,0,0,0,0
org.apache.any23.extractor.ExtractionAPITest, 0, 0, 0, 0, 0, 0, 0, 0, 0, 0, 0, 0, 0, 0,0.0,0.0,0.0,0.0,0.0,0.0,0.0,0.3333333333333333,0.0,0.0,0.0,0.0,0.0,14,core\src\test\java\org\apache\any23\extractor\ExtractionAPITest.java,0,0,0,0
org.apache.any23.extractor.ExtractionContext, 0, 0, 0, 0, 0, 0, 0, 0, 0, 0, 0, 0, 0, 0,0.0,0.0,0.0,0.0,0.0,0.0,0.0,0.4,0.0,0.0,0.0,0.0,0.0,55,api\src\main\java\org\apache\any23\extractor\ExtractionContext.java,0,0,0,0
org.apache.any23.extractor.ExtractionException, 0, 0, 0, 0, 0, 0, 0, 0, 0, 0, 0, 0, 0, 0,0.0,0.0,0.0,0.2,0.0,0.0,0.0,0.4,0.0,0.0,0.0,0.0,0.0,34,api\src\main\java\org\apache\any23\extractor\ExtractionException.java,0,0,0,0
org.apache.any23.extractor.ExtractionParametersTest, 0, 0, 0, 0, 0, 0, 0, 0, 0, 0, 0, 0, 0, 0,0.0,0.0,0.0,0.0,0.0,0.0,0.0,0.0,0.0,0.0,0.0,0.0,0.0,32,core\src\test\java\org\apache\any23\extractor\ExtractionParametersTest.java,0,0,0,0
org.apache.any23.extractor.ExtractionResult, 0, 0, 0, 0, 0, 0, 0, 0, 0, 0, 0, 0, 0, 0,0.0,0.0,0.0,0.0,0.0,0.0,0.0,0.0,0.0,0.0,0.0,0.0,0.0,32,api\src\main\java\org\apache\any23\extractor\ExtractionResult.java,0,0,0,0
org.apache.any23.extractor.Extractor, 0, 0, 0, 0, 0, 0, 0, 0, 0, 0, 0, 0, 0, 0,0.0,0.0,0.0,0.0,0.0,0.0,0.0,0.0,0.0,0.0,0.0,0.0,0.0,32,api\src\main\java\org\apache\any23\extractor\Extractor.java,0,0,0,0
org.apache.any23.extractor.ExtractorDescription, 0, 0, 0, 0, 0, 0, 0, 0, 0, 0, 0, 0, 0, 0,0.0,0.0,0.0,0.0,0.0,0.0,0.0,0.0,0.0,0.0,0.0,0.0,0.0,32,api\src\main\java\org\apache\any23\extractor\ExtractorDescription.java,0,0,0,0
org.apache.any23.extractor.ExtractorFactory, 0, 0, 0, 0, 0, 0, 0, 0, 0, 0, 0, 0, 0, 0,0.0,0.0,0.0,0.0,0.0,0.0,0.0,0.0,0.0,0.0,0.0,0.0,0.0,32,api\src\main\java\org\apache\any23\extractor\ExtractorFactory.java,0,0,0,0
org.apache.any23.extractor.ExtractorRegistry, 0, 0, 0, 0, 0, 0, 0, 0, 0, 0, 0, 0, 0, 0,0.0,0.0,0.0,0.0,0.0,0.0,0.0,0.0,0.0,0.0,0.0,0.0,0.0,32,api\src\main\java\org\apache\any23\extractor\ExtractorRegistry.java,0,0,0,0
org.apache.any23.extractor.IssueReport, 0, 0, 0, 0, 0, 0, 0, 0, 0, 0, 0, 0, 0, 0,0.0,0.0,0.0,0.0,0.0,0.0,0.0,0.0,0.0,0.0,0.0,0.0,0.0,32,api\src\main\java\org\apache\any23\extractor\IssueReport.java,0,0,0,0
org.apache.any23.extractor.MockTripleHandler, 0, 0, 0, 0, 0, 0, 0, 1, 0, 0, 0, 0, 0, 1,0.0,0.0,0.0,0.0,0.0,0.0,0.0,0.0,0.0,0.0,0.0,0.0,0.0,66,core\src\test\java\org\apache\any23\extractor\MockTripleHandler.java,0,0,0,0
org.apache.any23.extractor.SimpleExtractorFactory, 0, 0, 0, 0, 0, 0, 0, 0, 0, 0, 0, 0, 0, 0,0.0,0.0,0.0,0.0,0.0,0.0,0.0,0.0,0.0,0.0,0.0,0.0,0.0,41,core\src\main\java\org\apache\any23\extractor\SimpleExtractorFactory.java,0,0,0,0
org.apache.any23.extractor.SingleDocumentExtractionTest, 0, 0, 0, 0, 0, 0, 0, 0, 0, 0, 0, 0, 0, 0,0.0,0.0,0.1,0.2,0.0,0.1,0.0,0.3,0.0,0.0,0.0,0.0,0.0,140,core\src\test\java\org\apache\any23\extractor\SingleDocumentExtractionTest.java,0,0,0,0
org.apache.any23.extractor.TagSoupExtractionResult, 0, 0, 0, 0, 0, 0, 0, 0, 0, 0, 0, 0, 0, 0,0.0,0.0,0.0,0.0,0.0,0.0,0.0,0.0,0.0,0.0,0.0,0.0,0.0,140,core\src\main\java\org\apache\any23\extractor\TagSoupExtractionResult.java,0,0,0,0
org.apache.any23.extractor.csv.CSVExtractorFactory, 0, 0, 0, 0, 0, 0, 0, 0, 0, 0, 0, 0, 0, 0,0.0,0.0,0.0,0.0,0.0,0.0,0.0,0.0,0.0,0.0,0.0,0.0,0.0,22,core\src\main\java\org\apache\any23\extractor\csv\CSVExtractorFactory.java,0,0,0,0
org.apache.any23.extractor.csv.CSVExtractorTest, 0, 0, 0, 0, 0, 0, 0, 0, 0, 0, 0, 0, 0, 0,0.0,0.0,0.5,0.0,0.0,0.0,0.0,0.0,0.0,0.0,0.0,0.0,0.0,67,core\src\test\java\org\apache\any23\extractor\csv\CSVExtractorTest.java,0,0,0,0
org.apache.any23.extractor.csv.CSVReaderBuilder, 0, 0, 0, 0, 0, 0, 0, 0, 0, 0, 0, 0, 0, 0,0.0,0.0,0.0,0.0,0.0,0.0,0.0,0.0,0.0,0.0,0.0,0.0,0.0,89,core\src\test\java\org\apache\any23\extractor\csv\CSVReaderBuilderTest.java,0,0,0,0
org.apache.any23.extractor.csv.CSVReaderBuilderTest, 0, 0, 0, 0, 0, 0, 0, 0, 0, 0, 0, 0, 0, 0,0.0,0.0,0.0,0.0,0.0,0.0,0.0,0.0,0.0,0.0,0.0,0.0,0.0,34,core\src\test\java\org\apache\any23\extractor\csv\CSVReaderBuilderTest.java,0,0,0,0
org.apache.any23.extractor.example.ExampleExtractor, 0, 0, 0, 0, 0, 0, 0, 0, 0, 0, 0, 0, 0, 0,0.0,0.0,0.0,0.25,0.0,0.0,0.0,0.0,0.0,0.0,0.0,0.0,0.0,17,core\src\test\java\org\apache\any23\extractor\example\ExampleExtractor.java,0,0,0,0
org.apache.any23.extractor.example.ExampleExtractorFactory, 0, 0, 0, 0, 0, 0, 0, 0, 0, 0, 0, 0, 0, 0,0.0,0.0,0.0,0.0,0.0,0.0,0.0,0.0,0.0,0.0,0.0,0.0,0.0,20,core\src\test\java\org\apache\any23\extractor\example\ExampleExtractorFactory.java,0,0,0,0
org.apache.any23.extractor.html.AdrExtractor, 0, 0, 0, 0, 0, 0, 0, 0, 0, 0, 0, 0, 0, 0,0.0,0.0,0.0,0.3333333333333333,0.0,0.0,0.0,0.0,0.0,0.0,0.0,0.0,0.0,48,core\src\main\java\org\apache\any23\extractor\html\AdrExtractor.java,0,0,0,0
org.apache.any23.extractor.html.AdrExtractorFactory, 0, 0, 0, 0, 0, 0, 0, 0, 0, 0, 0, 0, 0, 0,0.0,0.0,0.0,0.0,0.0,0.0,0.0,0.0,0.0,0.0,0.0,0.0,0.0,20,core\src\main\java\org\apache\any23\extractor\html\AdrExtractorFactory.java,0,0,0,0
org.apache.any23.extractor.html.AdrExtractorTest, 0, 0, 0, 0, 0, 0, 0, 0, 0, 0, 0, 0, 0, 0,0.0,0.0,0.0,0.5,0.0,0.0,0.0,0.0,0.0,0.0,0.0,0.0,0.0,21,core\src\test\java\org\apache\any23\extractor\html\AdrExtractorTest.java,0,0,0,0
org.apache.any23.extractor.html.DocumentReport, 0, 0, 0, 0, 0, 0, 0, 0, 0, 0, 0, 0, 0, 0,0.0,0.0,0.0,0.0,0.0,0.0,0.0,0.0,0.0,0.0,0.0,0.0,0.0,14,core\src\main\java\org\apache\any23\extractor\html\DocumentReport.java,0,0,0,0
org.apache.any23.extractor.html.DomUtilsTest, 0, 0, 0, 0, 0, 0, 0, 0, 0, 0, 0, 0, 0, 0,0.0,0.0,0.5,0.0,0.0,0.0,0.0,0.0,0.0,0.0,0.0,0.0,0.0,146,core\src\test\java\org\apache\any23\extractor\html\DomUtilsTest.java,0,0,0,0
org.apache.any23.extractor.html.EncodingTest, 0, 0, 0, 0, 0, 0, 0, 0, 0, 0, 0, 0, 0, 0,0.0,0.0,0.5,0.0,0.0,0.0,0.0,0.0,0.0,0.0,0.0,0.0,0.0,31,core\src\test\java\org\apache\any23\extractor\html\EncodingTest.java,0,0,0,0
org.apache.any23.extractor.html.EntityBasedMicroformatExtractor, 0, 0, 0, 0, 0, 0, 0, 0, 0, 0, 0, 0, 0, 0,0.0,0.0,0.0,0.0,0.0,0.0,0.0,0.0,0.0,0.0,0.0,0.0,0.0,22,core\src\main\java\org\apache\any23\extractor\html\EntityBasedMicroformatExtractor.java,0,0,0,0
org.apache.any23.extractor.html.GeoExtractor, 0, 0, 0, 0, 0, 0, 0, 0, 0, 0, 0, 0, 0, 0,0.0,0.0,0.0,0.3333333333333333,0.0,0.0,0.0,0.0,0.0,0.0,0.0,0.0,0.0,41,core\src\main\java\org\apache\any23\extractor\html\GeoExtractor.java,0,0,0,0
org.apache.any23.extractor.html.GeoExtractorFactory, 0, 0, 0, 0, 0, 0, 0, 0, 0, 0, 0, 0, 0, 0,0.0,0.0,0.0,0.0,0.0,0.0,0.0,0.0,0.0,0.0,0.0,0.0,0.0,20,core\src\main\java\org\apache\any23\extractor\html\GeoExtractorFactory.java,0,0,0,0
org.apache.any23.extractor.html.HCalendarExtractor, 0, 0, 0, 0, 0, 0, 0, 0, 0, 0, 0, 0, 0, 0,0.0,0.0,0.0,0.6666666666666666,0.0,0.0,0.0,0.0,0.0,0.0,0.0,0.0,0.0,135,core\src\main\java\org\apache\any23\extractor\html\HCalendarExtractor.java,0,0,0,0
org.apache.any23.extractor.html.HCalendarExtractorFactory, 0, 0, 0, 0, 0, 0, 0, 0, 0, 0, 0, 0, 0, 0,0.0,0.0,0.0,0.3333333333333333,0.0,0.0,0.0,0.0,0.0,0.0,0.0,0.0,0.0,20,core\src\main\java\org\apache\any23\extractor\html\HCalendarExtractorFactory.java,0,0,0,0
org.apache.any23.extractor.html.HCalendarExtractorTest, 0, 0, 0, 1, 0, 0, 0, 0, 0, 0, 0, 0, 0, 1,0.0,0.0,0.0,0.3333333333333333,0.0,0.0,0.0,0.0,0.0,0.0,0.0,0.0,0.0,316,core\src\test\java\org\apache\any23\extractor\html\HCalendarExtractorTest.java,0,0,0,0
org.apache.any23.extractor.html.HCardExtractor, 0, 0, 0, 0, 0, 0, 0, 0, 0, 0, 0, 0, 0, 0,0.0,0.0,0.0,0.5,0.0,0.0,0.0,0.0,0.0,0.0,0.0,0.0,0.0,315,core\src\main\java\org\apache\any23\extractor\html\HCardExtractor.java,0,0,0,0
org.apache.any23.extractor.html.HCardExtractorFactory, 0, 0, 0, 0, 0, 0, 0, 0, 0, 0, 0, 0, 0, 0,0.0,0.0,0.0,0.3333333333333333,0.0,0.0,0.0,0.0,0.0,0.0,0.0,0.0,0.0,20,core\src\main\java\org\apache\any23\extractor\html\HCardExtractorFactory.java,0,0,0,0
org.apache.any23.extractor.html.HCardExtractorTest, 0, 0, 0, 1, 0, 0, 0, 0, 0, 0, 0, 0, 0, 1,0.0,0.0,0.0,0.5,0.0,0.0,0.0,0.0,0.0,0.0,0.0,0.0,0.0,801,core\src\test\java\org\apache\any23\extractor\html\HCardExtractorTest.java,0,0,0,0
org.apache.any23.extractor.html.HListingExtractorFactory, 0, 0, 0, 0, 0, 0, 0, 0, 0, 0, 0, 0, 0, 0,0.0,0.0,0.0,0.5,0.0,0.0,0.0,0.0,0.0,0.0,0.0,0.0,0.0,20,core\src\main\java\org\apache\any23\extractor\html\HListingExtractorFactory.java,0,0,0,0
org.apache.any23.extractor.html.HListingExtractorTest, 0, 0, 0, 1, 0, 0, 0, 0, 0, 0, 0, 0, 0, 1,0.0,0.0,0.0,0.5,0.0,0.0,0.0,0.0,0.0,0.0,0.0,0.0,0.0,244,core\src\test\java\org\apache\any23\extractor\html\HListingExtractorTest.java,0,0,0,0
org.apache.any23.extractor.html.HRecipeExtractor, 0, 0, 0, 0, 0, 0, 0, 0, 0, 0, 0, 0, 0, 0,0.0,0.0,0.3333333333333333,0.0,0.0,0.0,0.0,0.0,0.0,0.0,0.0,0.0,0.0,129,core\src\main\java\org\apache\any23\extractor\html\HRecipeExtractor.java,0,0,0,0
org.apache.any23.extractor.html.HRecipeExtractorFactory, 0, 0, 0, 0, 0, 0, 0, 0, 0, 0, 0, 0, 0, 0,0.0,0.0,0.0,0.0,0.0,0.0,0.0,0.0,0.0,0.0,0.0,0.0,0.0,20,core\src\main\java\org\apache\any23\extractor\html\HRecipeExtractorFactory.java,0,0,0,0
org.apache.any23.extractor.html.HRecipeExtractorTest, 0, 0, 0, 0, 0, 0, 0, 0, 0, 0, 0, 0, 0, 0,0.0,0.0,0.3333333333333333,0.0,0.0,0.0,0.0,0.0,0.0,0.0,0.0,0.0,0.0,30,core\src\test\java\org\apache\any23\extractor\html\HRecipeExtractorTest.java,0,0,0,0
org.apache.any23.extractor.html.HResumeExtractor, 0, 0, 0, 0, 0, 0, 0, 0, 0, 0, 0, 0, 0, 0,0.0,0.0,0.0,0.6,0.0,0.0,0.0,0.0,0.0,0.0,0.0,0.0,0.0,131,core\src\main\java\org\apache\any23\extractor\html\HResumeExtractor.java,0,0,0,0
org.apache.any23.extractor.html.HResumeExtractorFactory, 0, 0, 0, 0, 0, 0, 0, 0, 0, 0, 0, 0, 0, 0,0.0,0.0,0.0,0.0,0.0,0.0,0.0,0.0,0.0,0.0,0.0,0.0,0.0,20,core\src\main\java\org\apache\any23\extractor\html\HResumeExtractorFactory.java,0,0,0,0
org.apache.any23.extractor.html.HResumeExtractorTest, 0, 0, 0, 0, 0, 0, 0, 0, 0, 0, 0, 0, 0, 0,0.0,0.0,0.0,0.6,0.0,0.0,0.0,0.0,0.0,0.0,0.0,0.0,0.0,96,core\src\test\java\org\apache\any23\extractor\html\HResumeExtractorTest.java,0,0,0,0
org.apache.any23.extractor.html.HReviewAggregateExtractor, 0, 0, 0, 0, 0, 0, 0, 0, 0, 0, 0, 0, 0, 0,0.0,0.0,0.0,0.2,0.0,0.0,0.0,0.0,0.0,0.0,0.0,0.0,0.0,100,core\src\main\java\org\apache\any23\extractor\html\HReviewAggregateExtractor.java,0,0,0,0
org.apache.any23.extractor.html.HReviewAggregateExtractorFactory, 0, 0, 0, 0, 0, 0, 0, 0, 0, 0, 0, 0, 0, 0,0.0,0.0,0.0,0.0,0.0,0.0,0.0,0.0,0.0,0.0,0.0,0.0,0.0,21,core\src\main\java\org\apache\any23\extractor\html\HReviewAggregateExtractorFactory.java,0,0,0,0
org.apache.any23.extractor.html.HReviewExtractor, 0, 0, 0, 0, 0, 0, 0, 0, 0, 0, 0, 0, 0, 0,0.0,0.0,0.0,0.2,0.0,0.0,0.0,0.0,0.0,0.0,0.0,0.0,0.0,104,core\src\main\java\org\apache\any23\extractor\html\HReviewExtractor.java,0,0,0,0
org.apache.any23.extractor.html.HReviewExtractorFactory, 0, 0, 0, 0, 0, 0, 0, 0, 0, 0, 0, 0, 0, 0,0.0,0.0,0.0,0.0,0.0,0.0,0.0,0.0,0.0,0.0,0.0,0.0,0.0,20,core\src\main\java\org\apache\any23\extractor\html\HReviewExtractorFactory.java,0,0,0,0
org.apache.any23.extractor.html.HReviewExtractorTest, 0, 0, 0, 0, 0, 0, 0, 0, 0, 0, 0, 0, 0, 0,0.0,0.0,0.0,0.2,0.0,0.0,0.0,0.0,0.0,0.0,0.0,0.0,0.0,195,core\src\test\java\org\apache\any23\extractor\html\HReviewExtractorTest.java,0,0,0,0
org.apache.any23.extractor.html.HTMLDocumentTest, 0, 0, 0, 0, 0, 0, 0, 0, 0, 0, 0, 0, 0, 0,0.0,0.0,0.0,0.0,0.0,0.0,0.0,0.0,0.0,0.0,0.0,0.0,0.0,13,core\src\test\java\org\apache\any23\extractor\html\HTMLDocumentTest.java,0,0,0,0
org.apache.any23.extractor.html.HTMLFixture, 0, 0, 0, 0, 0, 0, 0, 0, 0, 0, 0, 0, 0, 0,0.0,0.0,0.0,0.0,0.0,0.0,0.0,0.0,0.0,0.0,0.0,0.0,0.0,24,core\src\test\java\org\apache\any23\extractor\html\HTMLFixture.java,0,0,0,0
org.apache.any23.extractor.html.HTMLMetaExtractorFactory, 0, 0, 0, 0, 0, 0, 0, 0, 0, 0, 0, 0, 0, 0,0.0,0.0,0.0,0.0,0.0,0.0,0.0,0.0,0.0,0.0,0.0,0.0,0.0,20,core\src\main\java\org\apache\any23\extractor\html\HTMLMetaExtractorFactory.java,0,0,0,0
org.apache.any23.extractor.html.HTMLMetaExtractorTest, 0, 0, 0, 0, 0, 0, 0, 0, 0, 0, 0, 0, 0, 0,0.0,0.0,0.0,0.0,0.0,0.0,0.0,0.0,0.0,0.0,0.0,0.0,0.0,59,core\src\test\java\org\apache\any23\extractor\html\HTMLMetaExtractorTest.java,0,0,0,0
org.apache.any23.extractor.html.HeadLinkExtractor, 0, 0, 0, 0, 0, 0, 0, 0, 0, 0, 0, 0, 0, 0,0.0,0.0,0.0,0.0,0.0,0.0,0.0,0.0,0.0,0.0,0.0,0.0,0.0,51,core\src\main\java\org\apache\any23\extractor\html\HeadLinkExtractor.java,0,0,0,0
org.apache.any23.extractor.html.HeadLinkExtractorFactory, 0, 0, 0, 0, 0, 0, 0, 0, 0, 0, 0, 0, 0, 0,0.0,0.0,0.0,0.0,0.0,0.0,0.0,0.0,0.0,0.0,0.0,0.0,0.0,20,core\src\main\java\org\apache\any23\extractor\html\HeadLinkExtractorFactory.java,0,0,0,0
org.apache.any23.extractor.html.HeadLinkExtractorTest, 0, 0, 0, 0, 0, 0, 0, 0, 0, 0, 0, 0, 0, 0,0.0,0.0,0.0,0.0,0.0,0.0,0.0,0.0,0.0,0.0,0.0,0.0,0.0,28,core\src\test\java\org\apache\any23\extractor\html\HeadLinkExtractorTest.java,0,0,0,0
org.apache.any23.extractor.html.ICBMExtractor, 0, 0, 0, 0, 0, 0, 0, 0, 0, 0, 0, 0, 0, 0,0.0,0.0,0.0,0.3333333333333333,0.0,0.0,0.0,0.0,0.0,0.0,0.0,0.0,0.0,32,core\src\main\java\org\apache\any23\extractor\html\ICBMExtractor.java,0,0,0,0
org.apache.any23.extractor.html.ICBMExtractorFactory, 0, 0, 0, 0, 0, 0, 0, 0, 0, 0, 0, 0, 0, 0,0.0,0.0,0.0,0.0,0.0,0.0,0.0,0.0,0.0,0.0,0.0,0.0,0.0,20,core\src\main\java\org\apache\any23\extractor\html\ICBMExtractorFactory.java,0,0,0,0
org.apache.any23.extractor.html.LicenseExtractor, 0, 0, 0, 0, 0, 0, 0, 0, 0, 0, 0, 0, 0, 0,0.0,0.0,0.0,0.0,0.0,0.0,0.0,0.0,0.0,0.0,0.0,0.0,0.0,32,core\src\main\java\org\apache\any23\extractor\html\LicenseExtractor.java,0,0,0,0
org.apache.any23.extractor.html.LicenseExtractorFactory, 0, 0, 0, 0, 0, 0, 0, 0, 0, 0, 0, 0, 0, 0,0.0,0.0,0.0,0.0,0.0,0.0,0.0,0.0,0.0,0.0,0.0,0.0,0.0,20,core\src\main\java\org\apache\any23\extractor\html\LicenseExtractorFactory.java,0,0,0,0
org.apache.any23.extractor.html.LicenseExtractorTest, 0, 0, 0, 0, 0, 0, 0, 0, 0, 0, 0, 0, 0, 0,0.0,0.0,0.0,0.0,0.0,0.0,0.0,0.0,0.0,0.0,0.0,0.0,0.0,49,core\src\test\java\org\apache\any23\extractor\html\LicenseExtractorTest.java,0,0,0,0
org.apache.any23.extractor.html.SpanCloserInputStream, 0, 0, 0, 0, 0, 0, 0, 0, 0, 0, 0, 0, 0, 0,0.0,0.0,0.0,0.0,0.0,0.0,0.0,0.0,0.0,0.0,0.0,0.0,0.0,62,core\src\main\java\org\apache\any23\extractor\html\SpanCloserInputStream.java,0,0,0,0
org.apache.any23.extractor.html.SpeciesExtractor, 0, 0, 0, 0, 0, 0, 0, 0, 0, 0, 0, 0, 0, 0,0.0,0.0,0.0,0.3333333333333333,0.0,0.0,0.0,0.0,0.0,0.0,0.0,0.0,0.0,84,core\src\main\java\org\apache\any23\extractor\html\SpeciesExtractor.java,0,0,0,0
org.apache.any23.extractor.html.SpeciesExtractorFactory, 0, 0, 0, 0, 0, 0, 0, 0, 0, 0, 0, 0, 0, 0,0.0,0.0,0.0,0.0,0.0,0.0,0.0,0.0,0.0,0.0,0.0,0.0,0.0,20,core\src\main\java\org\apache\any23\extractor\html\SpeciesExtractorFactory.java,0,0,0,0
org.apache.any23.extractor.html.SpeciesExtractorTest, 0, 0, 0, 0, 0, 0, 0, 0, 0, 0, 0, 0, 0, 0,0.0,0.0,0.0,0.5,0.0,0.0,0.0,0.0,0.0,0.0,0.0,0.0,0.0,15,core\src\test\java\org\apache\any23\extractor\html\SpeciesExtractorTest.java,0,0,0,0
org.apache.any23.extractor.html.TagSoupParser, 0, 0, 0, 0, 0, 0, 0, 0, 0, 0, 0, 0, 0, 0,0.0,0.0,0.0,0.0,0.0,0.0,0.0,0.0,0.0,0.0,0.0,0.0,0.0,132,core\src\main\java\org\apache\any23\extractor\html\TagSoupParser.java,0,0,0,0
org.apache.any23.extractor.html.TagSoupParserTest, 0, 0, 0, 0, 0, 0, 0, 0, 0, 0, 0, 0, 0, 0,0.0,0.0,0.0,0.0,0.0,0.0,0.0,0.0,0.0,0.0,0.0,0.0,0.0,96,core\src\test\java\org\apache\any23\extractor\html\TagSoupParserTest.java,0,0,0,0
org.apache.any23.extractor.html.TitleExtractor, 0, 0, 0, 0, 0, 0, 0, 0, 0, 0, 0, 0, 0, 0,0.0,0.0,0.0,0.25,0.0,0.0,0.0,0.0,0.0,0.0,0.0,0.0,0.0,26,core\src\main\java\org\apache\any23\extractor\html\TitleExtractor.java,0,0,0,0
org.apache.any23.extractor.html.TitleExtractorFactory, 0, 0, 0, 0, 0, 0, 0, 0, 0, 0, 0, 0, 0, 0,0.0,0.0,0.0,0.0,0.0,0.0,0.0,0.0,0.0,0.0,0.0,0.0,0.0,20,core\src\main\java\org\apache\any23\extractor\html\TitleExtractorFactory.java,0,0,0,0
org.apache.any23.extractor.html.TitleExtractorTest, 0, 0, 0, 0, 0, 0, 0, 0, 0, 0, 0, 0, 0, 0,0.0,0.0,0.0,0.0,0.0,0.0,0.0,0.0,0.0,0.0,0.0,0.0,0.0,35,core\src\test\java\org\apache\any23\extractor\html\TitleExtractorTest.java,0,0,0,0
org.apache.any23.extractor.html.TurtleHTMLExtractor, 0, 0, 0, 0, 0, 0, 0, 0, 0, 0, 0, 0, 0, 0,0.0,0.0,0.0,0.0,0.0,0.0,0.0,0.3333333333333333,0.0,0.0,0.0,0.0,0.0,51,core\src\main\java\org\apache\any23\extractor\html\TurtleHTMLExtractor.java,0,0,0,0
org.apache.any23.extractor.html.TurtleHTMLExtractorFactory, 0, 0, 0, 0, 0, 0, 0, 0, 0, 0, 0, 0, 0, 0,0.0,0.0,0.0,0.0,0.0,0.0,0.0,0.0,0.0,0.0,0.0,0.0,0.0,20,core\src\main\java\org\apache\any23\extractor\html\TurtleHTMLExtractorFactory.java,0,0,0,0
org.apache.any23.extractor.html.TurtleHTMLExtractorTest, 0, 0, 0, 0, 0, 0, 0, 0, 0, 0, 0, 0, 0, 0,0.0,0.0,0.0,0.0,0.0,0.0,0.0,0.0,0.0,0.0,0.0,0.0,0.0,13,core\src\test\java\org\apache\any23\extractor\html\TurtleHTMLExtractorTest.java,0,0,0,0
org.apache.any23.extractor.html.XFNExtractor, 0, 0, 0, 0, 0, 0, 0, 1, 0, 0, 0, 0, 0, 1,0.0,0.0,0.0,0.5,0.0,0.0,0.0,0.0,0.0,0.0,0.0,0.0,0.0,87,core\src\main\java\org\apache\any23\extractor\html\XFNExtractor.java,0,0,0,0
org.apache.any23.extractor.html.XFNExtractorFactory, 0, 0, 0, 0, 0, 0, 0, 0, 0, 0, 0, 0, 0, 0,0.0,0.0,0.0,0.0,0.0,0.0,0.0,0.3333333333333333,0.0,0.0,0.0,0.0,0.0,20,core\src\main\java\org\apache\any23\extractor\html\XFNExtractorFactory.java,0,0,0,0
org.apache.any23.extractor.html.XFNExtractorTest, 0, 0, 0, 0, 0, 0, 0, 0, 0, 0, 0, 0, 0, 0,0.0,0.0,0.0,0.3333333333333333,0.0,0.0,0.0,0.0,0.0,0.0,0.0,0.0,0.0,106,core\src\test\java\org\apache\any23\extractor\html\XFNExtractorTest.java,0,0,0,0
org.apache.any23.extractor.microdata.Item, 0, 0, 0, 0, 0, 0, 0, 0, 0, 0, 0, 0, 0, 0,0.0,0.0,0.0,0.0,0.0,0.0,0.0,0.0,0.0,0.0,0.0,0.0,0.0,31,core\src\main\java\org\apache\any23\extractor\microdata\Item.java,0,0,0,0
org.apache.any23.extractor.microdata.ItemProp, 0, 0, 0, 0, 0, 0, 0, 0, 0, 0, 0, 0, 0, 0,0.0,0.0,0.0,0.0,0.0,0.0,0.0,0.0,0.0,0.0,0.0,0.0,0.0,55,core\src\main\java\org\apache\any23\extractor\microdata\ItemProp.java,0,0,0,0
org.apache.any23.extractor.microdata.ItemPropValue, 0, 0, 0, 0, 0, 0, 0, 0, 0, 0, 0, 0, 0, 0,0.0,0.0,0.0,0.0,0.0,0.0,0.0,0.0,0.0,0.0,0.0,0.0,0.0,131,core\src\main\java\org\apache\any23\extractor\microdata\ItemPropValue.java,0,0,0,0
org.apache.any23.extractor.microdata.MicrodataExtractorFactory, 0, 0, 0, 0, 0, 0, 0, 0, 0, 0, 0, 0, 0, 0,0.0,0.0,0.0,0.0,0.0,0.0,0.0,0.0,0.0,0.0,0.0,0.0,0.0,20,core\src\main\java\org\apache\any23\extractor\microdata\MicrodataExtractorFactory.java,0,0,0,0
org.apache.any23.extractor.microdata.MicrodataExtractorTest, 0, 0, 0, 0, 0, 0, 0, 0, 0, 0, 0, 0, 0, 0,0.0,0.0,0.3333333333333333,0.0,0.0,0.0,0.0,0.0,0.0,0.0,0.0,0.0,0.0,110,core\src\test\java\org\apache\any23\extractor\microdata\MicrodataExtractorTest.java,0,0,0,0
org.apache.any23.extractor.microdata.MicrodataParserException, 0, 0, 0, 0, 0, 0, 0, 0, 0, 0, 0, 0, 0, 0,0.0,0.0,0.0,0.0,0.0,0.0,0.0,0.0,0.0,0.0,0.0,0.0,0.0,54,core\src\main\java\org\apache\any23\extractor\microdata\MicrodataParserException.java,0,0,0,0
org.apache.any23.extractor.microdata.MicrodataParserReport, 0, 0, 0, 0, 0, 0, 0, 0, 0, 0, 0, 0, 0, 0,0.0,0.0,0.0,0.0,0.0,0.0,0.0,0.0,0.0,0.0,0.0,0.0,0.0,21,core\src\main\java\org\apache\any23\extractor\microdata\MicrodataParserReport.java,0,0,0,0
org.apache.any23.extractor.rdf.BaseRDFExtractor, 0, 0, 0, 0, 0, 0, 0, 0, 0, 0, 0, 0, 0, 0,0.0,0.0,0.0,0.0,0.0,0.0,0.0,0.0,0.0,0.0,0.0,0.0,0.0,49,core\src\main\java\org\apache\any23\extractor\rdf\BaseRDFExtractor.java,0,0,0,0
org.apache.any23.extractor.rdf.JSONLDExtractor, 0, 0, 0, 0, 0, 0, 0, 0, 0, 0, 0, 0, 0, 0,0.0,0.0,0.0,0.0,0.0,0.0,0.0,0.25,0.0,0.0,0.0,0.0,0.0,18,core\src\main\java\org\apache\any23\extractor\rdf\JSONLDExtractor.java,0,0,0,0
org.apache.any23.extractor.rdf.JSONLDExtractorFactory, 0, 0, 0, 0, 0, 0, 0, 0, 0, 0, 0, 0, 0, 0,0.0,0.0,0.0,0.0,0.0,0.0,0.0,0.0,0.0,0.0,0.0,0.0,0.0,22,core\src\main\java\org\apache\any23\extractor\rdf\JSONLDExtractorFactory.java,0,0,0,0
org.apache.any23.extractor.rdf.JSONLDExtractorTest, 0, 0, 0, 0, 0, 0, 0, 0, 0, 0, 0, 0, 0, 0,0.0,0.0,0.0,0.0,0.0,0.25,0.0,0.0,0.0,0.0,0.0,0.0,0.0,45,core\src\test\java\org\apache\any23\extractor\rdf\JSONLDExtractorTest.java,0,0,0,0
org.apache.any23.extractor.rdf.NQuadsExtractor, 0, 0, 0, 0, 0, 0, 0, 0, 0, 0, 0, 0, 0, 0,0.0,0.0,0.0,0.0,0.0,0.0,0.0,0.3333333333333333,0.0,0.0,0.0,0.0,0.0,18,core\src\main\java\org\apache\any23\extractor\rdf\NQuadsExtractor.java,0,0,0,0
org.apache.any23.extractor.rdf.NQuadsExtractorFactory, 0, 0, 0, 0, 0, 0, 0, 0, 0, 0, 0, 0, 0, 0,0.0,0.0,0.0,0.0,0.0,0.0,0.0,0.0,0.0,0.0,0.0,0.0,0.0,26,core\src\main\java\org\apache\any23\extractor\rdf\NQuadsExtractorFactory.java,0,0,0,0
org.apache.any23.extractor.rdf.NTriplesExtractor, 0, 0, 0, 0, 0, 0, 0, 0, 0, 0, 0, 0, 0, 0,0.0,0.0,0.0,0.0,0.0,0.0,0.0,0.3333333333333333,0.0,0.0,0.0,0.0,0.0,18,core\src\main\java\org\apache\any23\extractor\rdf\NTriplesExtractor.java,0,0,0,0
org.apache.any23.extractor.rdf.NTriplesExtractorFactory, 0, 0, 0, 0, 0, 0, 0, 0, 0, 0, 0, 0, 0, 0,0.0,0.0,0.0,0.0,0.0,0.0,0.0,0.0,0.0,0.0,0.0,0.0,0.0,24,core\src\main\java\org\apache\any23\extractor\rdf\NTriplesExtractorFactory.java,0,0,0,0
org.apache.any23.extractor.rdf.RDFHandlerAdapter, 0, 0, 0, 0, 0, 0, 0, 0, 0, 0, 0, 0, 0, 0,0.0,0.0,0.0,0.0,0.0,0.0,0.0,1.0,0.0,0.0,0.0,0.0,0.0,25,core\src\main\java\org\apache\any23\extractor\rdf\RDFHandlerAdapter.java,0,0,0,0
org.apache.any23.extractor.rdf.RDFParserFactory, 0, 0, 0, 0, 0, 0, 0, 1, 0, 0, 0, 0, 0, 1,0.0,0.0,0.0,0.08333333333333333,0.0,0.0,0.0,0.0,0.0,0.0,0.0,0.0,0.0,162,core\src\main\java\org\apache\any23\extractor\rdf\RDFParserFactory.java,0,0,0,0
org.apache.any23.extractor.rdf.RDFXMLExtractor, 0, 0, 0, 0, 0, 0, 0, 0, 0, 0, 0, 0, 0, 0,0.0,0.0,0.0,0.0,0.0,0.0,0.0,0.3333333333333333,0.0,0.0,0.0,0.0,0.0,18,core\src\main\java\org\apache\any23\extractor\rdf\RDFXMLExtractor.java,0,0,0,0
org.apache.any23.extractor.rdf.RDFXMLExtractorFactory, 0, 0, 0, 0, 0, 0, 0, 0, 0, 0, 0, 0, 0, 0,0.0,0.0,0.0,0.0,0.0,0.0,0.0,0.0,0.0,0.0,0.0,0.0,0.0,25,core\src\main\java\org\apache\any23\extractor\rdf\RDFXMLExtractorFactory.java,0,0,0,0
org.apache.any23.extractor.rdf.TriXExtractor, 0, 0, 0, 0, 0, 0, 0, 0, 0, 0, 0, 0, 0, 0,0.0,0.0,0.0,0.0,0.0,0.0,0.0,0.3333333333333333,0.0,0.0,0.0,0.0,0.0,18,core\src\main\java\org\apache\any23\extractor\rdf\TriXExtractor.java,0,0,0,0
org.apache.any23.extractor.rdf.TriXExtractorFactory, 0, 0, 0, 0, 0, 0, 0, 0, 0, 0, 0, 0, 0, 0,0.0,0.0,0.0,0.0,0.0,0.0,0.0,0.0,0.0,0.0,0.0,0.0,0.0,22,core\src\main\java\org\apache\any23\extractor\rdf\TriXExtractorFactory.java,0,0,0,0
org.apache.any23.extractor.rdf.TurtleExtractor, 0, 0, 0, 0, 0, 0, 0, 0, 0, 0, 0, 0, 0, 0,0.0,0.0,0.0,0.0,0.0,0.0,0.0,0.25,0.0,0.0,0.0,0.0,0.0,18,core\src\main\java\org\apache\any23\extractor\rdf\TurtleExtractor.java,0,0,0,0
org.apache.any23.extractor.rdf.TurtleExtractorFactory, 0, 0, 0, 0, 0, 0, 0, 0, 0, 0, 0, 0, 0, 0,0.0,0.0,0.0,0.0,0.0,0.0,0.0,0.0,0.0,0.0,0.0,0.0,0.0,27,core\src\main\java\org\apache\any23\extractor\rdf\TurtleExtractorFactory.java,0,0,0,0
org.apache.any23.extractor.rdf.TurtleExtractorTest, 0, 0, 0, 0, 0, 0, 0, 0, 0, 0, 0, 0, 0, 0,0.0,0.0,0.0,0.0,0.0,0.25,0.0,0.0,0.0,0.0,0.0,0.0,0.0,34,core\src\test\java\org\apache\any23\extractor\rdf\TurtleExtractorTest.java,0,0,0,0
org.apache.any23.extractor.rdfa.AbstractRDFaExtractorTestCase, 0, 0, 0, 0, 0, 0, 0, 0, 0, 0, 0, 0, 0, 0,0.0,0.0,0.0,0.25,0.0,0.0,0.0,0.0,0.0,0.0,0.0,0.0,0.0,95,core\src\test\java\org\apache\any23\extractor\rdfa\AbstractRDFaExtractorTestCase.java,0,0,0,0
org.apache.any23.extractor.rdfa.RDFa11Extractor, 0, 0, 0, 0, 0, 0, 0, 0, 0, 0, 0, 0, 0, 0,0.0,0.0,0.0,0.0,0.0,0.0,0.0,0.3333333333333333,0.0,0.0,0.0,0.0,0.0,18,core\src\main\java\org\apache\any23\extractor\rdfa\RDFa11Extractor.java,0,0,0,0
org.apache.any23.extractor.rdfa.RDFa11ExtractorFactory, 0, 0, 0, 0, 0, 0, 0, 0, 0, 0, 0, 0, 0, 0,0.0,0.0,0.0,0.0,0.0,0.0,0.0,0.0,0.0,0.0,0.0,0.0,0.0,20,core\src\main\java\org\apache\any23\extractor\rdfa\RDFa11ExtractorFactory.java,0,0,0,0
org.apache.any23.extractor.rdfa.RDFa11ExtractorTest, 0, 0, 0, 0, 0, 0, 0, 0, 0, 0, 0, 0, 0, 0,0.0,0.0,0.0,0.5,0.0,0.0,0.0,0.0,0.0,0.0,0.0,0.0,0.0,122,core\src\test\java\org\apache\any23\extractor\rdfa\RDFa11ExtractorTest.java,0,0,0,0
org.apache.any23.extractor.rdfa.RDFa11ParserException, 0, 0, 0, 0, 0, 0, 0, 0, 0, 0, 0, 0, 0, 0,0.0,0.0,0.0,0.0,0.0,0.0,0.0,0.0,0.0,0.0,0.0,0.0,0.0,8,core\src\main\java\org\apache\any23\extractor\rdfa\RDFa11ParserException.java,0,0,0,0
org.apache.any23.extractor.rdfa.RDFa11ParserTest, 0, 0, 0, 0, 0, 0, 0, 0, 0, 0, 0, 0, 0, 0,0.0,0.0,0.0,0.0,0.0,0.0,0.0,0.0,0.0,0.0,0.0,0.0,0.0,92,core\src\test\java\org\apache\any23\extractor\rdfa\RDFa11ParserTest.java,0,0,0,0
org.apache.any23.extractor.rdfa.RDFaExtractor, 0, 0, 0, 0, 0, 0, 0, 0, 0, 0, 0, 0, 0, 0,0.0,0.0,0.0,0.0,0.0,0.0,0.0,0.3333333333333333,0.0,0.0,0.0,0.0,0.0,17,core\src\main\java\org\apache\any23\extractor\rdfa\RDFaExtractor.java,0,0,0,0
org.apache.any23.extractor.rdfa.RDFaExtractorFactory, 0, 0, 0, 0, 0, 0, 0, 0, 0, 0, 0, 0, 0, 0,0.0,0.0,0.0,0.0,0.0,0.0,0.0,0.0,0.0,0.0,0.0,0.0,0.0,20,core\src\main\java\org\apache\any23\extractor\rdfa\RDFaExtractorFactory.java,0,0,0,0
org.apache.any23.extractor.rdfa.RDFaExtractorTest, 0, 0, 0, 0, 0, 0, 0, 0, 0, 0, 0, 0, 0, 0,0.0,0.0,0.0,0.0,0.0,0.0,0.0,0.0,0.0,0.0,0.0,0.0,0.0,25,core\src\test\java\org\apache\any23\extractor\rdfa\RDFaExtractorTest.java,0,0,0,0
org.apache.any23.extractor.rdfa.XSLTStylesheetException, 0, 0, 0, 0, 0, 0, 0, 0, 0, 0, 0, 0, 0, 0,0.0,0.0,0.0,0.0,0.0,0.0,0.0,0.0,0.0,0.0,0.0,0.0,0.0,8,core\src\main\java\org\apache\any23\extractor\rdfa\XSLTStylesheetException.java,0,0,0,0
org.apache.any23.extractor.xpath.TemplateGraph, 0, 0, 0, 0, 0, 0, 0, 0, 0, 0, 0, 0, 0, 0,0.0,0.0,0.0,0.0,0.0,0.0,0.0,0.0,0.0,0.0,0.0,0.0,0.0,13,core\src\main\java\org\apache\any23\extractor\xpath\TemplateGraph.java,0,0,0,0
org.apache.any23.extractor.xpath.TemplateObject, 0, 0, 0, 0, 0, 0, 0, 0, 0, 0, 0, 0, 0, 0,0.0,0.0,0.0,0.0,0.0,0.0,0.0,0.0,0.0,0.0,0.0,0.0,0.0,49,core\src\main\java\org\apache\any23\extractor\xpath\TemplateObject.java,0,0,0,0
org.apache.any23.extractor.xpath.TemplatePredicate, 0, 0, 0, 0, 0, 0, 0, 0, 0, 0, 0, 0, 0, 0,0.0,0.0,0.0,0.0,0.0,0.0,0.0,0.0,0.0,0.0,0.0,0.0,0.0,20,core\src\main\java\org\apache\any23\extractor\xpath\TemplatePredicate.java,0,0,0,0
org.apache.any23.extractor.xpath.TemplateSubject, 0, 0, 0, 0, 0, 0, 0, 0, 0, 0, 0, 0, 0, 0,0.0,0.0,0.0,0.0,0.0,0.0,0.0,0.0,0.0,0.0,0.0,0.0,0.0,37,core\src\main\java\org\apache\any23\extractor\xpath\TemplateSubject.java,0,0,0,0
org.apache.any23.extractor.xpath.TemplateXPathExtractionRule, 0, 0, 0, 0, 0, 0, 0, 0, 0, 0, 0, 0, 0, 0,0.0,0.0,0.0,0.0,0.0,0.0,0.0,0.0,0.0,0.0,0.0,0.0,0.0,37,core\src\main\java\org\apache\any23\extractor\xpath\TemplateXPathExtractionRule.java,0,0,0,0
org.apache.any23.extractor.xpath.TemplateXPathExtractorRuleImplTest, 0, 0, 0, 0, 0, 0, 0, 0, 0, 0, 0, 0, 0, 0,0.0,0.0,0.0,0.0,0.0,0.0,0.0,0.0,0.0,0.0,0.0,0.0,0.0,112,core\src\test\java\org\apache\any23\extractor\xpath\TemplateXPathExtractorRuleImplTest.java,0,0,0,0
org.apache.any23.extractor.xpath.Variable, 0, 0, 0, 0, 0, 0, 0, 0, 0, 0, 0, 0, 0, 0,0.0,0.0,0.0,0.0,0.0,0.0,0.0,0.0,0.0,0.0,0.0,0.0,0.0,14,core\src\main\java\org\apache\any23\extractor\xpath\Variable.java,0,0,0,0
org.apache.any23.extractor.xpath.XPathExtractionRule, 0, 0, 0, 0, 0, 0, 0, 0, 0, 0, 0, 0, 0, 0,0.0,0.0,0.0,0.0,0.0,0.0,0.0,0.0,0.0,0.0,0.0,0.0,0.0,14,core\src\main\java\org\apache\any23\extractor\xpath\XPathExtractionRule.java,0,0,0,0
org.apache.any23.extractor.xpath.XPathExtractor, 0, 0, 0, 0, 0, 0, 0, 0, 0, 0, 0, 0, 0, 0,0.0,0.0,0.0,0.0,0.0,0.0,0.0,0.0,0.0,0.0,0.0,0.0,0.0,36,core\src\main\java\org\apache\any23\extractor\xpath\XPathExtractor.java,0,0,0,0
org.apache.any23.extractor.xpath.XPathExtractorFactory, 0, 0, 0, 0, 0, 0, 0, 0, 0, 0, 0, 0, 0, 0,0.0,0.0,0.0,0.0,0.0,0.0,0.0,0.0,0.0,0.0,0.0,0.0,0.0,20,core\src\main\java\org\apache\any23\extractor\xpath\XPathExtractorFactory.java,0,0,0,0
org.apache.any23.filter.ExtractionContextBlockerTest, 0, 0, 0, 0, 0, 0, 0, 0, 0, 0, 0, 0, 0, 0,0.0,0.0,0.0,0.0,0.0,0.0,0.0,0.5,0.0,0.0,0.0,0.0,0.0,30,core\src\test\java\org\apache\any23\filter\ExtractionContextBlockerTest.java,0,0,0,0
org.apache.any23.filter.IgnoreAccidentalRDFa, 0, 0, 0, 0, 0, 0, 0, 1, 0, 0, 0, 0, 0, 1,0.0,0.0,0.0,0.0,0.0,0.0,0.0,0.25,0.0,0.0,0.0,0.0,0.0,49,core\src\main\java\org\apache\any23\filter\IgnoreAccidentalRDFa.java,0,0,0,0
org.apache.any23.filter.IgnoreAccidentalRDFaTest, 0, 0, 0, 0, 0, 0, 0, 0, 0, 0, 0, 0, 0, 0,0.0,0.0,0.0,0.0,0.0,0.0,0.0,0.5,0.0,0.0,0.0,0.0,0.0,40,core\src\test\java\org\apache\any23\filter\IgnoreAccidentalRDFaTest.java,0,0,0,0
org.apache.any23.filter.IgnoreTitlesOfEmptyDocuments, 0, 0, 0, 0, 0, 0, 0, 1, 0, 0, 0, 0, 0, 1,0.0,0.0,0.0,0.0,0.0,0.0,0.0,0.5,0.0,0.0,0.0,0.0,0.0,40,core\src\main\java\org\apache\any23\filter\IgnoreTitlesOfEmptyDocuments.java,0,0,0,0
org.apache.any23.http.AcceptHeaderBuilderTest, 0, 0, 0, 0, 0, 0, 0, 0, 0, 0, 0, 0, 0, 0,0.0,0.0,0.0,0.0,0.0,0.0,0.0,0.0,0.0,0.0,0.0,0.0,0.0,86,core\src\test\java\org\apache\any23\http\AcceptHeaderBuilderTest.java,0,0,0,0
org.apache.any23.http.DefaultHTTPClient, 0, 0, 0, 0, 0, 0, 0, 0, 0, 0, 0, 0, 0, 0,0.0,0.0,0.0,0.0,0.0,0.0,0.0,0.0,0.0,0.0,0.0,0.0,0.0,100,core\src\main\java\org\apache\any23\http\DefaultHTTPClient.java,23,5,4,36
org.apache.any23.http.DefaultHTTPClientConfiguration, 0, 0, 0, 0, 0, 0, 0, 0, 0, 0, 0, 0, 0, 0,0.0,0.0,0.0,0.5,0.0,0.0,0.0,0.5,0.0,0.0,0.0,0.0,0.0,46,core\src\main\java\org\apache\any23\http\DefaultHTTPClientConfiguration.java,0,0,0,0
org.apache.any23.http.HTTPClient, 0, 0, 0, 0, 0, 0, 0, 0, 0, 0, 0, 0, 0, 0,0.0,0.0,0.0,0.0,0.0,0.0,0.0,0.0,0.0,0.0,0.0,0.0,0.0,46,core\src\main\java\org\apache\any23\http\HTTPClient.java,0,0,0,0
org.apache.any23.http.HTTPClientConfiguration, 0, 0, 0, 0, 0, 0, 0, 0, 0, 0, 0, 0, 0, 0,0.0,0.0,0.0,0.0,0.0,0.0,0.0,0.0,0.0,0.0,0.0,0.0,0.0,46,core\src\main\java\org\apache\any23\http\HTTPClientConfiguration.java,0,0,0,0
org.apache.any23.io.nquads.NQuadsParser, 0, 0, 0, 0, 0, 0, 0, 0, 0, 0, 0, 0, 0, 0,0.0,0.0,0.0,0.5,0.0,0.0,0.0,0.0,0.0,0.0,0.0,0.0,0.0,13,nquads\src\main\java\org\apache\any23\io\nquads\NQuadsParser.java,0,0,0,0
org.apache.any23.io.nquads.NQuadsParserFactory, 0, 0, 0, 0, 0, 0, 0, 0, 0, 0, 0, 0, 0, 0,0.0,0.0,0.0,0.0,0.0,0.0,0.0,0.0,0.0,0.0,0.0,0.0,0.0,11,nquads\src\main\java\org\apache\any23\io\nquads\NQuadsParserFactory.java,0,0,0,0
org.apache.any23.io.nquads.NQuadsParserTest, 0, 0, 0, 1, 0, 0, 0, 0, 0, 0, 0, 0, 0, 1,0.0,0.0,0.0,0.0,0.0,0.0,0.0,0.0,0.0,0.0,0.0,0.0,0.0,432,nquads\src\test\java\org\apache\any23\io\nquads\NQuadsParserTest.java,0,0,0,0
org.apache.any23.io.nquads.NQuadsWriter, 0, 0, 0, 0, 0, 0, 0, 0, 0, 0, 0, 0, 0, 0,0.0,0.0,0.0,0.0,0.0,0.0,0.0,0.0,0.0,0.0,0.0,0.0,0.0,8,nquads\src\main\java\org\apache\any23\io\nquads\NQuadsWriter.java,0,0,0,0
org.apache.any23.io.nquads.NQuadsWriterFactory, 0, 0, 0, 0, 0, 0, 0, 0, 0, 0, 0, 0, 0, 0,0.0,0.0,0.0,0.0,0.0,0.0,0.0,0.0,0.0,0.0,0.0,0.0,0.0,14,nquads\src\main\java\org\apache\any23\io\nquads\NQuadsWriterFactory.java,0,0,0,0
org.apache.any23.io.nquads.NQuadsWriterTest, 0, 0, 0, 0, 0, 0, 0, 0, 0, 0, 0, 0, 0, 0,0.0,0.0,0.0,0.0,0.0,0.0,0.0,0.0,0.0,0.0,0.0,0.0,0.0,105,nquads\src\test\java\org\apache\any23\io\nquads\NQuadsWriterTest.java,0,0,0,0
org.apache.any23.mime.MIMEType, 0, 0, 0, 0, 0, 0, 0, 0, 0, 0, 0, 0, 0, 0,0.0,0.0,0.0,0.0,0.0,0.0,0.0,0.0,0.0,0.0,0.0,0.0,0.0,79,api\src\main\java\org\apache\any23\mime\MIMEType.java,0,0,0,0
org.apache.any23.mime.MIMETypeDetector, 0, 0, 0, 0, 0, 0, 0, 0, 0, 0, 0, 0, 0, 0,0.0,0.0,0.0,0.0,0.0,0.0,0.0,0.0,0.0,0.0,0.0,0.0,0.0,79,api\src\main\java\org\apache\any23\mime\MIMETypeDetector.java,0,0,0,0
org.apache.any23.mime.purifier.Purifier, 0, 0, 0, 0, 0, 0, 0, 0, 0, 0, 0, 0, 0, 0,0.0,0.0,0.0,0.0,0.0,0.0,0.0,0.0,0.0,0.0,0.0,0.0,0.0,79,api\src\main\java\org\apache\any23\mime\purifier\Purifier.java,0,0,0,0
org.apache.any23.mime.purifier.WhiteSpacesPurifier, 0, 0, 0, 0, 0, 0, 0, 0, 0, 0, 0, 0, 0, 0,0.0,0.0,0.0,0.0,0.0,0.0,0.0,0.0,0.0,0.0,0.0,0.0,0.0,18,mime\src\main\java\org\apache\any23\mime\purifier\WhiteSpacesPurifier.java,0,0,0,0
org.apache.any23.mime.purifier.WhiteSpacesPurifierTest, 0, 0, 0, 0, 0, 0, 0, 0, 0, 0, 0, 0, 0, 0,0.0,0.0,0.0,0.0,0.0,0.0,0.0,0.0,0.0,0.0,0.0,0.0,0.0,27,mime\src\test\java\org\apache\any23\mime\purifier\WhiteSpacesPurifierTest.java,0,0,0,0
org.apache.any23.plugin.Any23PluginManagerTest, 0, 0, 0, 0, 0, 0, 0, 0, 0, 0, 0, 0, 0, 0,0.0,0.0,0.0,0.0,0.0,0.0,0.0,0.0,0.0,0.0,0.0,0.0,0.0,53,core\src\test\java\org\apache\any23\plugin\Any23PluginManagerTest.java,0,0,0,0
org.apache.any23.plugin.ExtractorPlugin, 0, 0, 0, 0, 0, 0, 0, 0, 0, 0, 0, 0, 0, 0,0.0,0.0,0.0,0.0,0.0,0.0,0.0,0.0,0.0,0.0,0.0,0.0,0.0,53,api\src\main\java\org\apache\any23\plugin\ExtractorPlugin.java,0,0,0,0
org.apache.any23.plugin.PluginIT, 0, 0, 0, 0, 0, 0, 0, 0, 0, 0, 0, 0, 0, 0,0.0,0.0,0.0,0.0,0.0,0.0,0.0,0.0,0.0,0.0,0.0,0.0,0.0,50,plugins\integration-test\src\test\java\org\apache\any23\plugin\PluginIT.java,0,0,0,0
org.apache.any23.plugin.crawler.CrawlerListener, 0, 0, 0, 0, 0, 0, 0, 0, 0, 0, 0, 0, 0, 0,0.0,0.0,0.0,0.0,0.0,0.0,0.0,0.0,0.0,0.0,0.0,0.0,0.0,50,plugins\basic-crawler\src\main\java\org\apache\any23\plugin\crawler\CrawlerListener.java,0,0,0,0
org.apache.any23.plugin.crawler.DefaultWebCrawler, 0, 0, 0, 0, 0, 0, 0, 0, 0, 0, 0, 0, 0, 0,0.0,0.0,0.0,0.0,0.0,0.0,0.0,0.0,0.0,0.0,0.0,0.0,0.0,17,plugins\basic-crawler\src\main\java\org\apache\any23\plugin\crawler\DefaultWebCrawler.java,0,0,0,0
org.apache.any23.plugin.crawler.SharedData, 0, 0, 0, 0, 0, 0, 0, 0, 0, 0, 0, 0, 0, 0,0.0,0.0,0.0,0.0,0.0,0.0,0.0,0.0,0.0,0.0,0.0,0.0,0.0,33,plugins\basic-crawler\src\main\java\org\apache\any23\plugin\crawler\SharedData.java,0,0,0,0
org.apache.any23.plugin.crawler.SiteCrawler, 0, 0, 0, 0, 0, 0, 0, 0, 0, 0, 0, 0, 0, 0,0.0,0.0,0.0,0.0,0.0,0.0,0.0,0.0,0.0,0.0,0.0,0.0,0.0,100,plugins\basic-crawler\src\main\java\org\apache\any23\plugin\crawler\SiteCrawler.java,0,0,0,0
org.apache.any23.plugin.crawler.SiteCrawlerTest, 0, 0, 0, 0, 0, 0, 0, 0, 0, 0, 0, 0, 0, 0,0.0,0.0,0.0,0.0,0.0,0.0,0.0,0.0,0.0,0.0,0.0,0.0,0.0,32,plugins\basic-crawler\src\test\java\org\apache\any23\plugin\crawler\SiteCrawlerTest.java,0,0,1,2
org.apache.any23.plugin.htmlscraper.HTMLScraperExtractor, 0, 0, 0, 0, 0, 0, 0, 0, 0, 0, 0, 0, 0, 0,0.0,0.0,0.0,0.0,0.0,0.0,0.0,0.0,0.0,0.0,0.0,0.0,0.0,77,plugins\html-scraper\src\main\java\org\apache\any23\plugin\htmlscraper\HTMLScraperExtractor.java,0,0,0,0
org.apache.any23.plugin.htmlscraper.HTMLScraperExtractorFactory, 0, 0, 0, 0, 0, 0, 0, 0, 0, 0, 0, 0, 0, 0,0.0,0.0,0.0,0.0,0.0,0.0,0.0,0.0,0.0,0.0,0.0,0.0,0.0,20,plugins\html-scraper\src\main\java\org\apache\any23\plugin\htmlscraper\HTMLScraperExtractorFactory.java,0,0,0,0
org.apache.any23.plugin.htmlscraper.HTMLScraperExtractorTest, 0, 0, 0, 0, 0, 0, 0, 0, 0, 0, 0, 0, 0, 0,0.0,0.0,0.0,0.0,0.0,0.0,0.0,0.0,0.0,0.0,0.0,0.0,0.0,39,plugins\html-scraper\src\test\java\org\apache\any23\plugin\htmlscraper\HTMLScraperExtractorTest.java,0,0,0,0
org.apache.any23.plugin.officescraper.ExcelExtractor, 0, 0, 0, 0, 0, 0, 0, 0, 0, 0, 0, 0, 0, 0,0.0,0.0,0.0,0.2,0.0,0.0,0.0,0.0,0.0,0.0,0.0,0.0,0.0,114,plugins\office-scraper\src\main\java\org\apache\any23\plugin\officescraper\ExcelExtractor.java,0,0,0,0
org.apache.any23.plugin.officescraper.ExcelExtractorFactory, 0, 0, 0, 0, 0, 0, 0, 0, 0, 0, 0, 0, 0, 0,0.0,0.0,0.0,0.0,0.0,0.0,0.0,0.0,0.0,0.0,0.0,0.0,0.0,28,plugins\office-scraper\src\main\java\org\apache\any23\plugin\officescraper\ExcelExtractorFactory.java,0,0,0,0
org.apache.any23.plugin.officescraper.ExcelExtractorTest, 0, 0, 0, 0, 0, 0, 0, 0, 0, 0, 0, 0, 0, 0,0.0,0.0,0.0,0.14285714285714285,0.0,0.14285714285714285,0.0,0.2857142857142857,0.0,0.0,0.0,0.0,0.0,69,plugins\office-scraper\src\test\java\org\apache\any23\plugin\officescraper\ExcelExtractorTest.java,0,0,0,0
org.apache.any23.plugin.officescraper.XSSFWorkbookTest, 0, 0, 0, 0, 0, 0, 0, 0, 0, 0, 0, 0, 0, 0,0.0,0.0,0.0,0.0,0.0,0.0,0.0,0.0,0.0,0.0,0.0,0.0,0.0,52,plugins\office-scraper\src\test\java\org\apache\any23\plugin\officescraper\XSSFWorkbookTest.java,0,0,0,0
org.apache.any23.rdf.Any23ValueFactoryWrapper, 0, 0, 0, 1, 0, 0, 0, 0, 0, 0, 0, 0, 0, 1,0.0,0.0,0.0,0.0,0.0,0.0,0.0,0.2857142857142857,0.0,0.0,0.0,0.0,0.0,138,core\src\main\java\org\apache\any23\rdf\Any23ValueFactoryWrapper.java,0,0,0,0
org.apache.any23.rdf.PrefixesTest, 0, 0, 0, 1, 0, 0, 0, 0, 0, 0, 0, 0, 0, 1,0.0,0.0,0.0,0.0,0.0,0.0,0.0,0.0,0.0,0.0,0.0,0.0,0.0,275,core\src\test\java\org\apache\any23\rdf\PrefixesTest.java,0,0,0,0
org.apache.any23.rdf.RDFUtilsTest, 0, 0, 0, 0, 0, 0, 0, 0, 0, 0, 0, 0, 0, 0,0.0,0.0,0.0,0.0,0.0,0.0,0.0,0.0,0.0,0.0,0.0,0.0,0.0,45,core\src\test\java\org\apache\any23\rdf\RDFUtilsTest.java,0,0,0,0
org.apache.any23.servlet.RedirectServlet, 0, 0, 0, 0, 0, 0, 0, 0, 0, 0, 0, 0, 0, 0,0.0,0.0,0.0,0.0,0.0,0.0,0.0,0.0,0.0,0.0,0.0,0.0,0.0,24,service\src\main\java\org\apache\any23\servlet\RedirectServlet.java,0,0,0,0
org.apache.any23.servlet.Servlet, 0, 0, 0, 0, 0, 0, 0, 0, 0, 0, 0, 0, 0, 0,0.0,0.0,0.0,0.16666666666666666,0.0,0.0,0.0,0.3333333333333333,0.0,0.0,0.0,0.0,0.0,201,service\src\main\java\org\apache\any23\servlet\Servlet.java,6,6,9,30
org.apache.any23.servlet.WebResponder, 0, 0, 0, 0, 0, 0, 0, 1, 0, 0, 0, 0, 0, 1,0.0,0.0,0.0,0.1111111111111111,0.0,0.0,0.0,0.6666666666666666,0.0,0.0,0.0,0.0,0.0,245,service\src\main\java\org\apache\any23\servlet\WebResponder.java,9,0,1,11
org.apache.any23.servlet.conneg.Any23Negotiator, 0, 0, 0, 0, 0, 0, 0, 0, 0, 0, 0, 0, 0, 0,0.0,0.0,0.0,0.0,0.0,0.0,0.0,0.0,0.0,0.0,0.0,0.0,0.0,23,service\src\main\java\org\apache\any23\servlet\conneg\Any23Negotiator.java,0,0,0,0
org.apache.any23.servlet.conneg.ContentTypeNegotiator, 0, 0, 0, 0, 0, 0, 0, 0, 0, 0, 0, 0, 0, 0,0.0,0.0,0.0,0.0,0.0,0.0,0.0,0.0,0.0,0.0,0.0,0.0,0.0,137,service\src\main\java\org\apache\any23\servlet\conneg\ContentTypeNegotiator.java,0,0,0,0
org.apache.any23.source.ByteArrayDocumentSource, 0, 0, 0, 0, 0, 0, 0, 0, 0, 0, 0, 0, 0, 0,0.0,0.0,0.0,0.0,0.0,0.0,0.0,0.0,0.0,0.0,0.0,0.0,0.0,29,core\src\main\java\org\apache\any23\source\ByteArrayDocumentSource.java,0,0,0,0
org.apache.any23.source.DocumentSource, 0, 0, 0, 0, 0, 0, 0, 0, 0, 0, 0, 0, 0, 0,0.0,0.0,0.0,0.0,0.0,0.0,0.0,0.0,0.0,0.0,0.0,0.0,0.0,29,api\src\main\java\org\apache\any23\source\DocumentSource.java,0,0,0,0
org.apache.any23.source.FileDocumentSource, 0, 0, 0, 0, 0, 0, 0, 0, 0, 0, 0, 0, 0, 0,0.0,0.0,0.3333333333333333,0.3333333333333333,0.0,0.0,0.0,0.3333333333333333,0.0,0.0,0.0,0.0,0.0,40,core\src\main\java\org\apache\any23\source\FileDocumentSource.java,0,0,0,0
org.apache.any23.source.HTTPDocumentSource, 0, 0, 0, 0, 0, 0, 0, 0, 0, 0, 0, 0, 0, 0,0.0,0.0,0.0,0.5,0.0,0.0,0.0,0.5,0.0,0.0,0.0,0.0,0.0,42,core\src\main\java\org\apache\any23\source\HTTPDocumentSource.java,1,14,1,17
org.apache.any23.source.LocalCopyFactory, 0, 0, 0, 0, 0, 0, 0, 0, 0, 0, 0, 0, 0, 0,0.0,0.0,0.0,0.0,0.0,0.0,0.0,0.0,0.0,0.0,0.0,0.0,0.0,42,core\src\main\java\org\apache\any23\source\LocalCopyFactory.java,0,0,0,0
org.apache.any23.source.MemCopyFactory, 0, 0, 0, 0, 0, 0, 0, 0, 0, 0, 0, 0, 0, 0,0.0,0.0,0.0,0.0,0.0,0.0,0.0,0.0,0.0,0.0,0.0,0.0,0.0,16,core\src\main\java\org\apache\any23\source\MemCopyFactory.java,0,0,0,0
org.apache.any23.source.StringDocumentSource, 0, 0, 0, 0, 0, 0, 0, 0, 0, 0, 0, 0, 0, 0,0.0,0.0,0.0,0.3333333333333333,0.0,0.0,0.0,0.3333333333333333,0.0,0.0,0.0,0.0,0.0,36,core\src\main\java\org\apache\any23\source\StringDocumentSource.java,0,0,0,0
org.apache.any23.util.DiscoveryUtilsTest, 0, 0, 0, 0, 0, 0, 0, 0, 0, 0, 0, 0, 0, 0,0.0,0.0,0.0,0.0,0.0,0.0,0.0,0.0,0.0,0.0,0.0,0.0,0.0,12,core\src\test\java\org\apache\any23\util\DiscoveryUtilsTest.java,0,0,0,0
org.apache.any23.util.FileUtils, 0, 0, 0, 0, 0, 0, 0, 0, 0, 0, 0, 0, 0, 0,0.0,0.0,0.0,0.0,0.0,0.0,0.0,0.0,0.0,0.0,0.0,0.0,0.0,99,core\src\main\java\org\apache\any23\util\FileUtils.java,0,0,0,0
org.apache.any23.util.LogUtils, 0, 0, 0, 0, 0, 0, 0, 0, 0, 0, 0, 0, 0, 0,0.0,0.0,0.0,0.0,0.0,0.0,0.0,0.0,0.0,0.0,0.0,0.0,0.0,12,core\src\main\java\org\apache\any23\util\LogUtils.java,0,0,0,0
org.apache.any23.util.StringUtilsTest, 0, 0, 0, 0, 0, 0, 0, 0, 0, 0, 0, 0, 0, 0,0.0,0.0,0.0,0.0,0.0,0.0,0.0,0.0,0.0,0.0,0.0,0.0,0.0,18,core\src\test\java\org\apache\any23\util\StringUtilsTest.java,0,0,0,0
org.apache.any23.util.URLUtils, 0, 0, 0, 0, 0, 0, 0, 0, 0, 0, 0, 0, 0, 0,0.0,0.0,0.0,0.0,0.0,0.0,0.0,0.0,0.0,0.0,0.0,0.0,0.0,15,core\src\main\java\org\apache\any23\util\URLUtils.java,0,0,0,0
org.apache.any23.validator.DOMDocument, 0, 0, 0, 0, 0, 0, 0, 0, 0, 0, 0, 0, 0, 0,0.0,0.0,0.0,0.0,0.0,0.0,0.0,0.0,0.0,0.0,0.0,0.0,0.0,15,core\src\main\java\org\apache\any23\validator\DOMDocument.java,0,0,0,0
org.apache.any23.validator.DefaultDOMDocument, 0, 0, 0, 0, 0, 0, 0, 0, 0, 0, 0, 0, 0, 0,0.0,0.0,0.0,0.0,0.0,0.0,0.0,0.0,0.0,0.0,0.0,0.0,0.0,46,core\src\main\java\org\apache\any23\validator\DefaultDOMDocument.java,0,0,0,0
org.apache.any23.validator.EmptyValidationReport, 0, 0, 0, 0, 0, 0, 0, 0, 0, 0, 0, 0, 0, 0,0.0,0.0,0.0,0.0,0.0,0.0,0.0,0.0,0.0,0.0,0.0,0.0,0.0,23,core\src\main\java\org\apache\any23\validator\EmptyValidationReport.java,0,0,0,0
org.apache.any23.validator.Fix, 0, 0, 0, 0, 0, 0, 0, 0, 0, 0, 0, 0, 0, 0,0.0,0.0,0.0,0.0,0.0,0.0,0.0,0.0,0.0,0.0,0.0,0.0,0.0,23,core\src\main\java\org\apache\any23\validator\Fix.java,0,0,0,0
org.apache.any23.validator.Rule, 0, 0, 0, 0, 0, 0, 0, 0, 0, 0, 0, 0, 0, 0,0.0,0.0,0.0,0.0,0.0,0.0,0.0,0.0,0.0,0.0,0.0,0.0,0.0,23,core\src\main\java\org\apache\any23\validator\Rule.java,0,0,0,0
org.apache.any23.validator.RuleContext, 0, 0, 0, 0, 0, 0, 0, 0, 0, 0, 0, 0, 0, 0,0.0,0.0,0.0,0.0,0.0,0.0,0.0,0.0,0.0,0.0,0.0,0.0,0.0,23,core\src\main\java\org\apache\any23\validator\RuleContext.java,0,0,0,0
org.apache.any23.validator.SerializationException, 0, 0, 0, 0, 0, 0, 0, 0, 0, 0, 0, 0, 0, 0,0.0,0.0,0.0,0.0,0.0,0.0,0.0,0.5,0.0,0.0,0.0,0.0,0.0,8,core\src\main\java\org\apache\any23\validator\SerializationException.java,0,0,0,0
org.apache.any23.validator.ValidationReport, 0, 0, 0, 0, 0, 0, 0, 0, 0, 0, 0, 0, 0, 0,0.0,0.0,0.0,0.0,0.0,0.0,0.0,0.0,0.0,0.0,0.0,0.0,0.0,8,core\src\main\java\org\apache\any23\validator\ValidationReport.java,0,0,0,0
org.apache.any23.validator.ValidationReportBuilder, 0, 0, 0, 0, 0, 0, 0, 0, 0, 0, 0, 0, 0, 0,0.0,0.0,0.0,0.0,0.0,0.0,0.0,0.0,0.0,0.0,0.0,0.0,0.0,8,core\src\main\java\org\apache\any23\validator\ValidationReportBuilder.java,0,0,0,0
org.apache.any23.validator.ValidationReportSerializer, 0, 0, 0, 0, 0, 0, 0, 0, 0, 0, 0, 0, 0, 0,0.0,0.0,0.0,0.0,0.0,0.0,0.0,0.0,0.0,0.0,0.0,0.0,0.0,8,core\src\main\java\org\apache\any23\validator\ValidationReportSerializer.java,0,0,0,0
org.apache.any23.validator.Validator, 0, 0, 0, 0, 0, 0, 0, 0, 0, 0, 0, 0, 0, 0,0.0,0.0,0.0,0.0,0.0,0.0,0.0,0.0,0.0,0.0,0.0,0.0,0.0,8,core\src\main\java\org\apache\any23\validator\Validator.java,0,0,0,0
org.apache.any23.validator.ValidatorException, 0, 0, 0, 0, 0, 0, 0, 0, 0, 0, 0, 0, 0, 0,0.0,0.0,0.0,0.0,0.0,0.0,0.0,0.0,0.0,0.0,0.0,0.0,0.0,8,core\src\main\java\org\apache\any23\validator\ValidatorException.java,0,0,0,0
org.apache.any23.validator.XMLValidationReportSerializer, 0, 0, 0, 0, 0, 0, 0, 0, 0, 0, 0, 0, 0, 0,0.0,0.0,0.0,0.0,0.0,0.0,0.0,0.0,0.0,0.0,0.0,0.0,0.0,132,core\src\main\java\org\apache\any23\validator\XMLValidationReportSerializer.java,0,0,0,0
org.apache.any23.validator.rule.AboutNotURIRule, 0, 0, 0, 0, 0, 0, 0, 0, 0, 0, 0, 0, 0, 0,0.0,0.0,0.0,0.0,0.0,0.0,0.0,0.0,0.0,0.0,0.0,0.0,0.0,45,core\src\main\java\org\apache\any23\validator\rule\AboutNotURIRule.java,0,0,0,0
org.apache.any23.validator.rule.MetaNameMisuseFix, 0, 0, 0, 0, 0, 0, 0, 0, 0, 0, 0, 0, 0, 0,0.0,0.0,0.0,0.0,0.0,0.0,0.0,0.0,0.0,0.0,0.0,0.0,0.0,16,core\src\main\java\org\apache\any23\validator\rule\MetaNameMisuseFix.java,0,0,0,0
org.apache.any23.validator.rule.MissingOpenGraphNamespaceRule, 0, 0, 0, 0, 0, 0, 0, 0, 0, 0, 0, 0, 0, 0,0.0,0.0,0.0,0.0,0.0,0.0,0.0,0.0,0.0,0.0,0.0,0.0,0.0,32,core\src\main\java\org\apache\any23\validator\rule\MissingOpenGraphNamespaceRule.java,0,0,0,0
org.apache.any23.validator.rule.OpenGraphNamespaceFix, 0, 0, 0, 0, 0, 0, 0, 0, 0, 0, 0, 0, 0, 0,0.0,0.0,0.0,0.0,0.0,0.0,0.0,0.0,0.0,0.0,0.0,0.0,0.0,9,core\src\main\java\org\apache\any23\validator\rule\OpenGraphNamespaceFix.java,0,0,0,0
org.apache.any23.vocab.CSV, 0, 0, 1, 0, 0, 0, 0, 0, 0, 0, 0, 0, 0, 1,0.0,0.0,0.0,0.0,0.0,0.0,0.0,0.0,0.0,0.0,0.0,0.0,0.0,30,api\src\main\java\org\apache\any23\vocab\CSV.java,0,0,0,0
org.apache.any23.vocab.DCTerms, 0, 0, 0, 0, 0, 0, 0, 0, 0, 0, 0, 0, 0, 0,0.0,0.0,0.0,0.0,0.0,0.0,0.0,0.0,0.0,0.0,0.0,0.0,0.0,19,api\src\main\java\org\apache\any23\vocab\DCTerms.java,0,0,0,0
org.apache.any23.vocab.DOAC, 0, 0, 0, 1, 0, 0, 0, 0, 0, 0, 0, 0, 0, 1,0.0,0.0,0.0,0.0,0.0,0.0,0.0,0.0,0.0,0.0,0.0,0.0,0.0,46,api\src\main\java\org\apache\any23\vocab\DOAC.java,0,0,0,0
org.apache.any23.vocab.DOAP, 0, 0, 0, 1, 0, 0, 0, 0, 0, 0, 0, 0, 0, 1,0.0,0.0,0.0,0.0,0.0,0.0,0.0,0.0,0.0,0.0,0.0,0.0,0.0,62,api\src\main\java\org\apache\any23\vocab\DOAP.java,0,0,0,0
org.apache.any23.vocab.Excel, 0, 0, 0, 1, 0, 0, 0, 0, 0, 0, 0, 0, 0, 1,0.0,0.0,0.0,0.0,0.0,0.0,0.0,0.0,0.0,0.0,0.0,0.0,0.0,43,plugins\office-scraper\src\main\java\org\apache\any23\vocab\Excel.java,0,0,0,0
org.apache.any23.vocab.FOAF, 0, 0, 0, 1, 0, 0, 0, 0, 0, 0, 0, 0, 0, 1,0.0,0.0,0.0,0.125,0.0,0.0,0.0,0.125,0.0,0.0,0.0,0.0,0.0,78,api\src\main\java\org\apache\any23\vocab\FOAF.java,0,0,0,0
org.apache.any23.vocab.GeoNames, 0, 0, 0, 0, 0, 0, 0, 0, 0, 0, 0, 0, 0, 0,0.0,0.0,0.0,0.0,0.0,0.0,0.0,0.0,0.0,0.0,0.0,0.0,0.0,16,api\src\main\java\org\apache\any23\vocab\GeoNames.java,0,0,0,0
org.apache.any23.vocab.HListing, 0, 0, 0, 1, 0, 0, 0, 0, 0, 0, 0, 0, 0, 1,0.0,0.0,0.0,1.0,0.0,0.0,0.0,0.0,0.0,0.0,0.0,0.0,0.0,55,api\src\main\java\org\apache\any23\vocab\HListing.java,0,0,0,0
org.apache.any23.vocab.HRecipe, 0, 0, 1, 0, 0, 0, 0, 0, 0, 0, 0, 0, 0, 1,0.0,0.0,0.0,0.0,0.0,0.0,0.0,0.0,0.0,0.0,0.0,0.0,0.0,35,api\src\main\java\org\apache\any23\vocab\HRecipe.java,0,0,0,0
org.apache.any23.vocab.ICAL, 0, 0, 0, 1, 0, 0, 0, 0, 0, 0, 0, 0, 0, 1,0.0,0.0,0.0,0.3333333333333333,0.0,0.0,0.0,0.0,0.0,0.0,0.0,0.0,0.0,116,api\src\main\java\org\apache\any23\vocab\ICAL.java,0,0,0,0
org.apache.any23.vocab.LKIFCoreAction, 0, 0, 0, 0, 0, 0, 0, 0, 0, 0, 0, 0, 0, 0,0.0,0.0,0.0,0.0,0.0,0.0,0.0,0.0,0.0,0.0,0.0,0.0,0.0,38,api\src\main\java\org\apache\any23\vocab\LKIFCoreAction.java,0,0,0,0
org.apache.any23.vocab.LKIFCoreExpression, 0, 0, 0, 1, 0, 0, 0, 0, 0, 0, 0, 0, 0, 1,0.0,0.0,0.0,0.0,0.0,0.0,0.0,0.0,0.0,0.0,0.0,0.0,0.0,78,api\src\main\java\org\apache\any23\vocab\LKIFCoreExpression.java,0,0,0,0
org.apache.any23.vocab.LKIFCoreLegalAction, 0, 0, 0, 0, 0, 0, 0, 0, 0, 0, 0, 0, 0, 0,0.0,0.0,0.0,0.0,0.0,0.0,0.0,0.0,0.0,0.0,0.0,0.0,0.0,35,api\src\main\java\org\apache\any23\vocab\LKIFCoreLegalAction.java,0,0,0,0
org.apache.any23.vocab.LKIFCoreLegalRole, 0, 0, 0, 0, 0, 0, 0, 0, 0, 0, 0, 0, 0, 0,0.0,0.0,0.0,0.0,0.0,0.0,0.0,0.0,0.0,0.0,0.0,0.0,0.0,16,api\src\main\java\org\apache\any23\vocab\LKIFCoreLegalRole.java,0,0,0,0
org.apache.any23.vocab.LKIFCoreMereology, 0, 0, 0, 0, 0, 0, 0, 0, 0, 0, 0, 0, 0, 0,0.0,0.0,0.0,0.0,0.0,0.0,0.0,0.0,0.0,0.0,0.0,0.0,0.0,32,api\src\main\java\org\apache\any23\vocab\LKIFCoreMereology.java,0,0,0,0
org.apache.any23.vocab.LKIFCoreNorm, 0, 0, 0, 1, 0, 0, 0, 0, 0, 0, 0, 0, 0, 1,0.0,0.0,0.0,0.0,0.0,0.0,0.0,0.0,0.0,0.0,0.0,0.0,0.0,79,api\src\main\java\org\apache\any23\vocab\LKIFCoreNorm.java,0,0,0,0
org.apache.any23.vocab.LKIFCoreProcess, 0, 0, 0, 0, 0, 0, 0, 0, 0, 0, 0, 0, 0, 0,0.0,0.0,0.0,0.0,0.0,0.0,0.0,0.0,0.0,0.0,0.0,0.0,0.0,31,api\src\main\java\org\apache\any23\vocab\LKIFCoreProcess.java,0,0,0,0
org.apache.any23.vocab.LKIFCoreRelativePlaces, 0, 0, 0, 0, 0, 0, 0, 0, 0, 0, 0, 0, 0, 0,0.0,0.0,0.0,0.0,0.0,0.0,0.0,0.0,0.0,0.0,0.0,0.0,0.0,33,api\src\main\java\org\apache\any23\vocab\LKIFCoreRelativePlaces.java,0,0,0,0
org.apache.any23.vocab.LKIFCoreRole, 0, 0, 0, 0, 0, 0, 0, 0, 0, 0, 0, 0, 0, 0,0.0,0.0,0.0,0.0,0.0,0.0,0.0,0.0,0.0,0.0,0.0,0.0,0.0,25,api\src\main\java\org\apache\any23\vocab\LKIFCoreRole.java,0,0,0,0
org.apache.any23.vocab.LKIFCoreRules, 0, 0, 0, 0, 0, 0, 0, 0, 0, 0, 0, 0, 0, 0,0.0,0.0,0.0,0.0,0.0,0.0,0.0,0.0,0.0,0.0,0.0,0.0,0.0,20,api\src\main\java\org\apache\any23\vocab\LKIFCoreRules.java,0,0,0,0
org.apache.any23.vocab.LKIFCoreTime, 0, 0, 0, 0, 0, 0, 0, 0, 0, 0, 0, 0, 0, 0,0.0,0.0,0.0,0.0,0.0,0.0,0.0,0.0,0.0,0.0,0.0,0.0,0.0,28,api\src\main\java\org\apache\any23\vocab\LKIFCoreTime.java,0,0,0,0
org.apache.any23.vocab.LKIFCoreTimeModification, 0, 0, 0, 1, 0, 0, 0, 0, 0, 0, 0, 0, 0, 1,0.0,0.0,0.0,0.0,0.0,0.0,0.0,0.0,0.0,0.0,0.0,0.0,0.0,69,api\src\main\java\org\apache\any23\vocab\LKIFCoreTimeModification.java,0,0,0,0
org.apache.any23.vocab.LKIFCoreTop, 0, 0, 0, 0, 0, 0, 0, 0, 0, 0, 0, 0, 0, 0,0.0,0.0,0.0,0.0,0.0,0.0,0.0,0.0,0.0,0.0,0.0,0.0,0.0,19,api\src\main\java\org\apache\any23\vocab\LKIFCoreTop.java,0,0,0,0
org.apache.any23.vocab.OGP, 0, 0, 0, 1, 0, 0, 0, 0, 0, 0, 0, 0, 0, 1,0.0,0.0,0.0,0.0,0.0,0.0,0.0,0.0,0.0,0.0,0.0,0.0,0.0,66,api\src\main\java\org\apache\any23\vocab\OGP.java,0,0,0,0
org.apache.any23.vocab.Programme, 0, 0, 0, 1, 0, 0, 0, 0, 0, 0, 0, 0, 0, 1,0.0,0.0,0.0,0.0,0.0,0.0,0.0,0.0,0.0,0.0,0.0,0.0,0.0,101,api\src\main\java\org\apache\any23\vocab\Programme.java,0,0,0,0
org.apache.any23.vocab.RDFSchemaUtilsTest, 0, 0, 0, 0, 0, 0, 0, 0, 0, 0, 0, 0, 0, 0,0.0,0.0,0.0,0.0,0.0,0.0,0.0,0.0,0.0,0.0,0.0,0.0,0.0,21,core\src\test\java\org\apache\any23\vocab\RDFSchemaUtilsTest.java,0,0,0,0
org.apache.any23.vocab.Review, 0, 0, 0, 0, 0, 0, 0, 0, 0, 0, 0, 0, 0, 0,0.0,0.0,0.0,0.0,0.0,0.0,0.0,0.0,0.0,0.0,0.0,0.0,0.0,33,api\src\main\java\org\apache\any23\vocab\Review.java,0,0,0,0
org.apache.any23.vocab.ReviewAggregate, 0, 0, 0, 0, 0, 0, 0, 0, 0, 0, 0, 0, 0, 0,0.0,0.0,0.0,0.0,0.0,0.0,0.0,0.0,0.0,0.0,0.0,0.0,0.0,23,api\src\main\java\org\apache\any23\vocab\ReviewAggregate.java,0,0,0,0
org.apache.any23.vocab.SINDICE, 0, 0, 0, 0, 0, 0, 0, 0, 0, 0, 0, 0, 0, 0,0.0,0.0,0.0,0.18181818181818182,0.0,0.0,0.0,0.0,0.0,0.0,0.0,0.0,0.0,31,api\src\main\java\org\apache\any23\vocab\SINDICE.java,0,0,0,0
org.apache.any23.vocab.SchemaOrg, 0, 0, 0, 0, 0, 0, 0, 0, 0, 0, 0, 0, 0, 0,0.0,0.0,0.0,0.0,0.0,0.0,0.0,0.0,0.0,0.0,0.0,0.0,0.0,13,api\src\main\java\org\apache\any23\vocab\SchemaOrg.java,0,0,0,0
org.apache.any23.vocab.VCard, 0, 0, 0, 1, 0, 0, 0, 0, 0, 0, 0, 0, 0, 1,0.0,0.0,0.0,0.1,0.0,0.0,0.0,0.0,0.0,0.0,0.0,0.0,0.0,78,api\src\main\java\org\apache\any23\vocab\VCard.java,0,0,0,0
org.apache.any23.vocab.VocabularyTest, 0, 0, 0, 0, 0, 0, 0, 0, 0, 0, 0, 0, 0, 0,0.0,0.0,0.0,0.0,0.0,0.0,0.0,0.0,0.0,0.0,0.0,0.0,0.0,53,core\src\test\java\org\apache\any23\vocab\VocabularyTest.java,0,0,0,0
org.apache.any23.vocab.WO, 0, 0, 0, 1, 0, 0, 0, 0, 0, 0, 0, 0, 0, 1,0.0,0.0,0.0,0.0,0.0,0.0,0.0,0.0,0.0,0.0,0.0,0.0,0.0,103,api\src\main\java\org\apache\any23\vocab\WO.java,0,0,0,0
org.apache.any23.vocab.XHTML, 0, 0, 0, 0, 0, 0, 0, 0, 0, 0, 0, 0, 0, 0,0.0,0.0,0.0,0.0,0.0,0.0,0.0,0.3333333333333333,0.0,0.0,0.0,0.0,0.0,17,api\src\main\java\org\apache\any23\vocab\XHTML.java,0,0,0,0
org.apache.any23.writer.CompositeTripleHandler, 0, 0, 0, 0, 0, 0, 0, 1, 0, 0, 0, 0, 0, 1,0.0,0.0,0.0,0.0,0.0,0.0,0.0,0.25,0.0,0.0,0.0,0.0,0.0,54,core\src\main\java\org\apache\any23\writer\CompositeTripleHandler.java,0,0,0,0
org.apache.any23.writer.CountingTripleHandler, 0, 0, 0, 0, 0, 0, 0, 1, 0, 0, 0, 0, 0, 1,0.0,0.0,0.0,0.0,0.0,0.0,0.0,0.25,0.0,0.0,0.0,0.0,0.0,37,core\src\main\java\org\apache\any23\writer\CountingTripleHandler.java,0,0,0,0
org.apache.any23.writer.FormatWriter, 0, 0, 0, 0, 0, 0, 0, 0, 0, 0, 0, 0, 0, 0,0.0,0.0,0.0,0.0,0.0,0.0,0.0,0.0,0.0,0.0,0.0,0.0,0.0,37,api\src\main\java\org\apache\any23\writer\FormatWriter.java,0,0,0,0
org.apache.any23.writer.JSONWriter, 0, 0, 0, 0, 0, 0, 0, 1, 0, 0, 0, 0, 0, 1,0.0,0.0,0.0,0.0,0.0,0.0,0.0,0.0,0.0,0.0,0.0,0.0,0.0,146,core\src\main\java\org\apache\any23\writer\JSONWriter.java,0,0,0,0
org.apache.any23.writer.JSONWriterFactory, 0, 0, 0, 0, 0, 0, 0, 0, 0, 0, 0, 0, 0, 0,0.0,0.0,0.0,0.0,0.0,0.0,0.0,1.0,0.0,0.0,0.0,0.0,0.0,23,core\src\main\java\org\apache\any23\writer\JSONWriterFactory.java,0,0,0,0
org.apache.any23.writer.JSONWriterTest, 0, 0, 0, 0, 0, 0, 0, 0, 0, 0, 0, 0, 0, 0,0.0,0.0,0.0,0.0,0.0,0.0,0.0,1.0,0.0,0.0,0.0,0.0,0.0,58,core\src\test\java\org\apache\any23\writer\JSONWriterTest.java,0,0,0,0
org.apache.any23.writer.NQuadsWriter, 0, 0, 0, 0, 0, 1, 0, 0, 0, 0, 0, 0, 0, 1,0.0,0.0,0.0,0.0,0.0,0.0,0.0,0.5,0.0,0.0,0.0,0.0,0.0,5,core\src\main\java\org\apache\any23\writer\NQuadsWriter.java,0,0,0,0
org.apache.any23.writer.NQuadsWriterFactory, 0, 0, 0, 0, 0, 0, 0, 0, 0, 0, 0, 0, 0, 0,0.0,0.0,0.0,0.0,0.0,1.0,0.0,0.0,0.0,0.0,0.0,0.0,0.0,22,core\src\main\java\org\apache\any23\writer\NQuadsWriterFactory.java,0,0,0,0
org.apache.any23.writer.NTriplesWriter, 0, 0, 0, 0, 0, 1, 0, 0, 0, 0, 0, 0, 0, 1,0.0,0.0,0.0,0.0,0.0,0.0,0.0,0.3333333333333333,0.0,0.0,0.0,0.0,0.0,5,core\src\main\java\org\apache\any23\writer\NTriplesWriter.java,0,0,0,0
org.apache.any23.writer.NTriplesWriterFactory, 0, 0, 0, 0, 0, 0, 0, 0, 0, 0, 0, 0, 0, 0,0.0,0.0,0.0,0.0,0.0,1.0,0.0,0.0,0.0,0.0,0.0,0.0,0.0,22,core\src\main\java\org\apache\any23\writer\NTriplesWriterFactory.java,0,0,0,0
org.apache.any23.writer.RDFWriterTripleHandler, 0, 0, 0, 0, 0, 0, 0, 1, 0, 0, 0, 0, 0, 1,0.0,0.0,0.0,0.0,0.0,0.625,0.0,0.0,0.0,0.0,0.0,0.0,0.0,82,core\src\main\java\org\apache\any23\writer\RDFWriterTripleHandler.java,0,0,0,0
org.apache.any23.writer.RDFXMLWriter, 0, 0, 0, 0, 0, 1, 0, 0, 0, 0, 0, 0, 0, 1,0.0,0.0,0.0,0.0,0.0,0.0,0.0,0.2,0.0,0.0,0.0,0.0,0.0,5,core\src\main\java\org\apache\any23\writer\RDFXMLWriter.java,0,0,0,0
org.apache.any23.writer.RDFXMLWriterFactory, 0, 0, 0, 0, 0, 0, 0, 0, 0, 0, 0, 0, 0, 0,0.0,0.0,0.0,0.0,0.0,1.0,0.0,0.0,0.0,0.0,0.0,0.0,0.0,22,core\src\main\java\org\apache\any23\writer\RDFXMLWriterFactory.java,0,0,0,0
org.apache.any23.writer.ReportingTripleHandler, 0, 0, 0, 0, 0, 0, 0, 1, 0, 0, 0, 0, 0, 1,0.0,0.0,0.0,0.0,0.0,0.0,0.0,0.5,0.0,0.0,0.0,0.0,0.0,60,core\src\main\java\org\apache\any23\writer\ReportingTripleHandler.java,0,0,0,0
org.apache.any23.writer.RepositoryWriter, 0, 0, 0, 0, 0, 0, 0, 1, 0, 0, 0, 0, 0, 1,0.0,0.0,0.0,0.0,0.0,0.0,0.0,0.0,0.0,0.0,0.0,0.0,0.0,60,core\src\main\java\org\apache\any23\writer\RepositoryWriter.java,0,0,0,0
org.apache.any23.writer.TriXWriter, 0, 0, 0, 0, 0, 1, 0, 0, 0, 0, 0, 0, 0, 1,0.0,0.0,0.0,0.0,0.0,0.0,0.0,0.5,0.0,0.0,0.0,0.0,0.0,5,core\src\main\java\org\apache\any23\writer\TriXWriter.java,0,0,0,0
org.apache.any23.writer.TriXWriterFactory, 0, 0, 0, 0, 0, 0, 0, 0, 0, 0, 0, 0, 0, 0,0.0,0.0,0.0,0.0,0.0,1.0,0.0,0.0,0.0,0.0,0.0,0.0,0.0,22,core\src\main\java\org\apache\any23\writer\TriXWriterFactory.java,0,0,0,0
org.apache.any23.writer.TripleHandler, 0, 0, 0, 0, 0, 0, 0, 0, 0, 0, 0, 0, 0, 0,0.0,0.0,0.0,0.0,0.0,0.0,0.0,0.0,0.0,0.0,0.0,0.0,0.0,22,api\src\main\java\org\apache\any23\writer\TripleHandler.java,0,0,0,0
org.apache.any23.writer.TripleHandlerException, 0, 0, 0, 0, 0, 0, 0, 0, 0, 0, 0, 0, 0, 0,0.0,0.0,0.0,0.0,0.0,0.0,0.0,0.6666666666666666,0.0,0.0,0.0,0.0,0.0,8,api\src\main\java\org\apache\any23\writer\TripleHandlerException.java,0,0,0,0
org.apache.any23.writer.TurtleWriter, 0, 0, 0, 0, 0, 1, 0, 0, 0, 0, 0, 0, 0, 1,0.0,0.0,0.0,0.0,0.0,0.0,0.0,0.3333333333333333,0.0,0.0,0.0,0.0,0.0,5,core\src\main\java\org\apache\any23\writer\TurtleWriter.java,0,0,0,0
org.apache.any23.writer.TurtleWriterFactory, 0, 0, 0, 0, 0, 0, 0, 0, 0, 0, 0, 0, 0, 0,0.0,0.0,0.0,0.0,0.0,1.0,0.0,0.0,0.0,0.0,0.0,0.0,0.0,22,core\src\main\java\org\apache\any23\writer\TurtleWriterFactory.java,0,0,0,0
org.apache.any23.writer.URIListWriter, 0, 0, 0, 0, 0, 0, 0, 1, 0, 0, 0, 0, 0, 1,0.0,0.0,0.0,0.0,0.0,0.0,0.0,0.0,0.0,0.0,0.0,0.0,0.0,45,core\src\main\java\org\apache\any23\writer\URIListWriter.java,0,0,0,0
org.apache.any23.writer.URIListWriterFactory, 0, 0, 0, 0, 0, 0, 0, 0, 0, 0, 0, 0, 0, 0,0.0,0.0,0.0,0.0,0.0,0.0,0.0,1.0,0.0,0.0,0.0,0.0,0.0,22,core\src\main\java\org\apache\any23\writer\URIListWriterFactory.java,0,0,0,0
org.apache.any23.writer.WriterFactory, 0, 0, 0, 0, 0, 0, 0, 0, 0, 0, 0, 0, 0, 0,0.0,0.0,0.0,0.0,0.0,0.0,0.0,0.0,0.0,0.0,0.0,0.0,0.0,22,api\src\main\java\org\apache\any23\writer\WriterFactory.java,0,0,0,0
org.apache.any23.writer.WriterRegistryTest, 0, 0, 0, 0, 0, 0, 0, 0, 0, 0, 0, 0, 0, 0,0.0,0.0,0.0,0.0,0.0,0.0,0.0,0.0,0.0,0.0,0.0,0.0,0.0,55,core\src\test\java\org\apache\any23\writer\WriterRegistryTest.java,0,0,0,0
