ClassName,AntiSingleton,Blob,ClassDataShouldBePrivate,ComplexClass,LargeClass,LazyClass,LongMethod,LongParameterList,MessageChains,RefusedParentBequest,SpaghettiCode,SpeculativeGenerality,SwissArmyKnife,NumOfAPs,AntiSingleton,Blob,ClassDataShouldBePrivate,ComplexClass,LargeClass,LazyClass,LongMethod,LongParameterList,MessageChains,RefusedParentBequest,SpaghettiCode,SpeculativeGenerality,SwissArmyKnife,LOC,name,deleted,added,changed,all
org.apache.abdera.Abdera, 0, 0, 0, 1, 0, 0, 0, 0, 0, 0, 0, 0, 0, 1,0.019801980198019802,0.0,0.0,0.06930693069306931,0.0,0.0,0.0,0.0297029702970297,0.0,0.0,0.0,0.0,0.0,109,core\src\main\java\org\apache\abdera\Abdera.java,0,0,0,0
org.apache.abdera.examples.appclient.Main, 0, 0, 0, 0, 0, 0, 0, 0, 0, 0, 0, 0, 0, 0,0.0,0.0,0.0,1.0,0.0,0.0,0.0,0.0,0.0,0.0,0.0,0.0,0.0,61,examples\src\main\java\org\apache\abdera\examples\appclient\Main.java,0,0,0,0
org.apache.abdera.examples.appclient.SSLExample, 0, 0, 0, 0, 0, 0, 0, 0, 0, 0, 0, 0, 0, 0,0.0,0.0,0.0,0.5,0.0,0.0,0.0,0.5,0.0,0.0,0.0,0.0,0.0,38,examples\src\main\java\org\apache\abdera\examples\appclient\SSLExample.java,0,0,0,0
org.apache.abdera.examples.appclient.Services, 0, 0, 0, 0, 0, 0, 0, 0, 0, 0, 0, 0, 0, 0,0.0,0.0,0.0,0.3333333333333333,0.0,0.0,0.0,0.0,0.0,0.0,0.0,0.0,0.0,98,examples\src\main\java\org\apache\abdera\examples\appclient\Services.java,0,0,0,0
org.apache.abdera.examples.appserver.custom.AppServer, 0, 0, 0, 0, 0, 0, 0, 0, 0, 0, 0, 0, 0, 0,0.0,0.0,0.0,0.0,0.0,0.0,0.0,0.0,0.0,0.0,0.0,0.0,0.0,16,examples\src\main\java\org\apache\abdera\examples\appserver\custom\AppServer.java,0,0,0,0
org.apache.abdera.examples.appserver.custom.CustomProvider, 0, 0, 0, 0, 0, 0, 0, 0, 0, 0, 0, 0, 0, 0,0.0,0.0,0.0,0.0,0.0,0.0,0.0,0.0,0.0,0.0,0.0,0.0,0.0,31,examples\src\main\java\org\apache\abdera\examples\appserver\custom\CustomProvider.java,0,0,0,0
org.apache.abdera.examples.appserver.employee.AppServer, 0, 0, 0, 0, 0, 0, 0, 0, 0, 0, 0, 0, 0, 0,0.0,0.0,0.0,0.0,0.0,0.0,0.0,0.0,0.0,0.0,0.0,0.0,0.0,28,examples\src\main\java\org\apache\abdera\examples\appserver\employee\AppServer.java,0,0,0,0
org.apache.abdera.examples.appserver.employee.Employee, 0, 0, 0, 0, 0, 0, 0, 0, 0, 0, 0, 0, 0, 0,0.0,0.0,0.0,0.0,0.0,0.0,0.0,0.0,0.0,0.0,0.0,0.0,0.0,23,examples\src\main\java\org\apache\abdera\examples\appserver\employee\Employee.java,0,0,0,0
org.apache.abdera.examples.ext.Bidi, 0, 0, 0, 0, 0, 0, 0, 0, 0, 0, 0, 0, 0, 0,0.0,0.0,0.0,0.5,0.0,0.0,0.0,0.0,0.0,0.0,0.0,0.0,0.0,18,examples\src\main\java\org\apache\abdera\examples\ext\Bidi.java,0,0,0,0
org.apache.abdera.examples.ext.Features, 0, 0, 0, 0, 0, 0, 0, 0, 0, 0, 0, 0, 0, 0,0.0,0.0,0.0,0.25,0.0,0.0,0.0,0.0,0.0,0.0,0.0,0.0,0.0,28,examples\src\main\java\org\apache\abdera\examples\ext\Features.java,0,0,0,0
org.apache.abdera.examples.ext.Geo, 0, 0, 0, 0, 0, 0, 0, 0, 0, 0, 0, 0, 0, 0,0.0,0.0,0.0,0.5,0.0,0.0,0.0,0.0,0.0,0.0,0.0,0.0,0.0,18,examples\src\main\java\org\apache\abdera\examples\ext\Geo.java,0,0,0,0
org.apache.abdera.examples.ext.Json, 0, 0, 0, 0, 0, 0, 0, 0, 0, 0, 0, 0, 0, 0,0.0,0.0,0.0,1.0,0.0,0.0,0.0,0.0,0.0,0.0,0.0,0.0,0.0,12,examples\src\main\java\org\apache\abdera\examples\ext\Json.java,0,0,0,0
org.apache.abdera.examples.ext.License, 0, 0, 0, 0, 0, 0, 0, 0, 0, 0, 0, 0, 0, 0,0.0,0.0,0.0,0.5,0.0,0.0,0.0,0.5,0.0,0.0,0.0,0.0,0.0,18,examples\src\main\java\org\apache\abdera\examples\ext\License.java,0,0,0,0
org.apache.abdera.examples.ext.Paging, 0, 0, 0, 0, 0, 0, 0, 0, 0, 0, 0, 0, 0, 0,0.0,0.0,0.0,0.5,0.0,0.0,0.0,0.0,0.0,0.0,0.0,0.0,0.0,26,examples\src\main\java\org\apache\abdera\examples\ext\Paging.java,0,0,0,0
org.apache.abdera.examples.ext.Serializer, 1, 0, 0, 0, 0, 0, 0, 0, 0, 0, 0, 0, 0, 1,0.0,0.0,0.0,0.5,0.0,0.0,0.0,0.0,0.0,0.0,0.0,0.0,0.0,82,examples\src\main\java\org\apache\abdera\examples\ext\Serializer.java,0,0,0,0
org.apache.abdera.examples.ext.Sharing, 0, 0, 0, 0, 0, 0, 0, 0, 0, 0, 0, 0, 0, 0,0.0,0.0,0.0,0.3333333333333333,0.0,0.0,0.0,0.0,0.0,0.0,0.0,0.0,0.0,25,examples\src\main\java\org\apache\abdera\examples\ext\Sharing.java,0,0,0,0
org.apache.abdera.examples.ext.Thread, 0, 0, 0, 0, 0, 0, 0, 0, 0, 0, 0, 0, 0, 0,0.0,0.0,0.0,0.3333333333333333,0.0,0.0,0.0,0.3333333333333333,0.0,0.0,0.0,0.0,0.0,15,examples\src\main\java\org\apache\abdera\examples\ext\Thread.java,0,0,0,0
org.apache.abdera.examples.extension.Bar, 0, 0, 0, 0, 0, 0, 0, 0, 0, 0, 0, 0, 0, 0,0.0,0.0,0.0,0.0,0.0,0.0,0.0,0.0,0.0,0.0,0.0,0.0,0.0,14,examples\src\main\java\org\apache\abdera\examples\extension\Bar.java,0,0,0,0
org.apache.abdera.examples.extension.Example, 0, 0, 0, 0, 0, 0, 0, 0, 0, 0, 0, 0, 0, 0,0.0,0.0,0.0,0.3333333333333333,0.0,0.0,0.0,0.0,0.0,0.0,0.0,0.0,0.0,12,examples\src\main\java\org\apache\abdera\examples\extension\Example.java,0,0,0,0
org.apache.abdera.examples.extension.Foo, 0, 0, 0, 0, 0, 0, 0, 0, 0, 0, 0, 0, 0, 0,0.0,0.0,0.0,0.0,0.0,0.0,0.0,0.0,0.0,0.0,0.0,0.0,0.0,14,examples\src\main\java\org\apache\abdera\examples\extension\Foo.java,0,0,0,0
org.apache.abdera.examples.extension.FooExtensionFactory, 0, 0, 0, 0, 0, 0, 0, 0, 0, 0, 0, 0, 0, 0,0.0,0.0,0.0,0.0,0.0,0.0,0.0,0.0,0.0,0.0,0.0,0.0,0.0,10,examples\src\main\java\org\apache\abdera\examples\extension\FooExtensionFactory.java,0,0,0,0
org.apache.abdera.examples.extension.Geo, 0, 0, 0, 0, 0, 0, 0, 0, 0, 0, 0, 0, 0, 0,0.0,0.0,0.0,1.0,0.0,0.0,0.0,0.0,0.0,0.0,0.0,0.0,0.0,14,examples\src\main\java\org\apache\abdera\examples\extension\Geo.java,0,0,0,0
org.apache.abdera.examples.html.HtmlExample, 0, 0, 0, 0, 0, 0, 0, 0, 0, 0, 0, 0, 0, 0,0.0,0.0,0.0,1.0,0.0,0.0,0.0,0.0,0.0,0.0,0.0,0.0,0.0,16,examples\src\main\java\org\apache\abdera\examples\html\HtmlExample.java,0,0,0,0
org.apache.abdera.examples.security.DSig, 0, 0, 0, 0, 0, 0, 0, 0, 0, 0, 0, 0, 0, 0,0.0,0.0,0.0,0.5,0.0,0.0,0.0,0.0,0.0,0.0,0.0,0.0,0.0,39,examples\src\main\java\org\apache\abdera\examples\security\DSig.java,0,0,0,0
org.apache.abdera.examples.simple.Create, 0, 0, 0, 0, 0, 0, 0, 0, 0, 0, 0, 0, 0, 0,0.0,0.0,0.0,1.0,0.0,0.0,0.0,0.0,0.0,0.0,0.0,0.0,0.0,57,examples\src\main\java\org\apache\abdera\examples\simple\Create.java,0,0,0,0
org.apache.abdera.examples.simple.EntityProviderExample, 0, 0, 0, 0, 0, 0, 0, 0, 0, 0, 0, 0, 0, 0,0.0,0.0,0.0,1.0,0.0,0.0,0.0,0.0,0.0,0.0,0.0,0.0,0.0,31,examples\src\main\java\org\apache\abdera\examples\simple\EntityProviderExample.java,0,0,0,0
org.apache.abdera.examples.simple.LangTagExample, 0, 0, 0, 0, 0, 0, 0, 0, 0, 0, 0, 0, 0, 0,0.0,0.0,0.0,1.0,0.0,0.0,0.0,0.0,0.0,0.0,0.0,0.0,0.0,15,examples\src\main\java\org\apache\abdera\examples\simple\LangTagExample.java,0,0,0,0
org.apache.abdera.examples.simple.Parse, 0, 0, 0, 0, 0, 0, 0, 0, 0, 0, 0, 0, 0, 0,0.0,0.0,0.0,1.0,0.0,0.0,0.0,0.0,0.0,0.0,0.0,0.0,0.0,23,examples\src\main\java\org\apache\abdera\examples\simple\Parse.java,0,0,0,0
org.apache.abdera.examples.simple.PrintTitles, 0, 0, 0, 0, 0, 0, 0, 0, 0, 0, 0, 0, 0, 0,0.0,0.0,0.0,0.5,0.0,0.0,0.0,0.0,0.0,0.0,0.0,0.0,0.0,30,examples\src\main\java\org\apache\abdera\examples\simple\PrintTitles.java,0,0,0,0
org.apache.abdera.examples.simple.StreamBuilderExample, 0, 0, 0, 0, 0, 0, 0, 0, 0, 0, 0, 0, 0, 0,0.0,0.0,0.0,1.0,0.0,0.0,0.0,0.5,0.0,0.0,0.0,0.0,0.0,24,examples\src\main\java\org\apache\abdera\examples\simple\StreamBuilderExample.java,0,0,0,0
org.apache.abdera.examples.simple.StreamWriterExample, 0, 0, 0, 0, 0, 0, 0, 0, 0, 0, 0, 0, 0, 0,0.0,0.0,0.0,1.0,0.0,0.0,0.0,0.0,0.0,0.0,0.0,0.0,0.0,26,examples\src\main\java\org\apache\abdera\examples\simple\StreamWriterExample.java,0,0,0,0
org.apache.abdera.examples.simple.UnacceptableElementsExample, 0, 0, 0, 0, 0, 0, 0, 0, 0, 0, 0, 0, 0, 0,0.0,0.0,0.0,1.0,0.0,0.0,0.0,0.0,0.0,0.0,0.0,0.0,0.0,26,examples\src\main\java\org\apache\abdera\examples\simple\UnacceptableElementsExample.java,0,0,0,0
org.apache.abdera.examples.simple.i18nExample, 0, 0, 0, 0, 0, 0, 0, 0, 0, 0, 0, 0, 0, 0,0.0,0.0,0.0,0.5,0.0,0.0,0.0,0.0,0.0,0.0,0.0,0.0,0.0,29,examples\src\main\java\org\apache\abdera\examples\simple\i18nExample.java,0,0,0,0
org.apache.abdera.examples.unicode.NormalizationExample, 0, 0, 0, 0, 0, 0, 0, 0, 0, 0, 0, 0, 0, 0,0.0,0.0,0.0,0.0,0.0,0.0,0.0,0.0,0.0,0.0,0.0,0.0,0.0,17,examples\src\main\java\org\apache\abdera\examples\unicode\NormalizationExample.java,0,0,0,0
org.apache.abdera.examples.unicode.SlugSanitization, 0, 0, 0, 0, 0, 0, 0, 0, 0, 0, 0, 0, 0, 0,0.0,0.0,0.0,0.0,0.0,0.0,0.0,1.0,0.0,0.0,0.0,0.0,0.0,11,examples\src\main\java\org\apache\abdera\examples\unicode\SlugSanitization.java,0,0,0,0
org.apache.abdera.examples.uritemplates.AtomIDTemplate, 0, 0, 0, 0, 0, 0, 0, 0, 0, 0, 0, 0, 0, 0,0.0,0.0,0.0,1.0,0.0,0.0,0.0,0.0,0.0,0.0,0.0,0.0,0.0,30,examples\src\main\java\org\apache\abdera\examples\uritemplates\AtomIDTemplate.java,0,0,0,0
org.apache.abdera.examples.uritemplates.AtomLinkTemplate, 0, 0, 0, 0, 0, 0, 0, 0, 0, 0, 0, 0, 0, 0,0.0,0.0,0.0,1.0,0.0,0.0,0.0,0.0,0.0,0.0,0.0,0.0,0.0,34,examples\src\main\java\org\apache\abdera\examples\uritemplates\AtomLinkTemplate.java,0,0,0,0
org.apache.abdera.examples.xsltxpath.XPathExample, 0, 0, 0, 0, 0, 0, 0, 0, 0, 0, 0, 0, 0, 0,0.0,0.0,0.0,1.0,0.0,0.0,0.0,0.0,0.0,0.0,0.0,0.0,0.0,19,examples\src\main\java\org\apache\abdera\examples\xsltxpath\XPathExample.java,0,0,0,0
org.apache.abdera.examples.xsltxpath.XsltExample, 0, 0, 0, 0, 0, 0, 0, 0, 0, 0, 0, 0, 0, 0,0.0,0.0,0.0,0.5,0.0,0.0,0.0,0.0,0.0,0.0,0.0,0.0,0.0,29,examples\src\main\java\org\apache\abdera\examples\xsltxpath\XsltExample.java,0,0,0,0
org.apache.abdera.ext.bidi.BidiHelper, 0, 0, 0, 0, 0, 0, 0, 0, 0, 0, 0, 0, 0, 0,0.0,0.0,0.0,0.0,0.0,0.0,0.0,0.0,0.0,0.0,0.0,0.0,0.0,97,extensions\main\src\main\java\org\apache\abdera\ext\bidi\BidiHelper.java,0,0,0,0
org.apache.abdera.ext.features.AbstractSelector, 0, 0, 0, 0, 0, 0, 0, 0, 0, 0, 0, 0, 0, 0,0.0,0.0,0.0,0.0,0.0,0.0,0.0,0.0,0.0,0.0,0.0,0.0,0.0,12,extensions\features\src\main\java\org\apache\abdera\ext\features\AbstractSelector.java,0,0,0,0
org.apache.abdera.ext.features.AcceptSelector, 0, 0, 0, 0, 0, 0, 0, 0, 0, 0, 0, 0, 0, 0,0.0,0.0,0.0,0.0,0.0,0.0,0.0,0.0,0.0,0.0,0.0,0.0,0.0,15,extensions\features\src\main\java\org\apache\abdera\ext\features\AcceptSelector.java,0,0,0,0
org.apache.abdera.ext.features.Feature, 0, 0, 0, 0, 0, 0, 0, 0, 0, 0, 0, 0, 0, 0,0.0,0.0,0.0,0.0,0.0,0.0,0.0,0.0,0.0,0.0,0.0,0.0,0.0,62,extensions\features\src\main\java\org\apache\abdera\ext\features\Feature.java,0,0,0,0
org.apache.abdera.ext.features.FeatureSelector, 0, 0, 0, 0, 0, 0, 0, 0, 0, 0, 0, 0, 0, 0,0.0,0.0,0.0,0.0,0.0,0.0,0.0,0.0,0.0,0.0,0.0,0.0,0.0,46,extensions\features\src\main\java\org\apache\abdera\ext\features\FeatureSelector.java,0,0,0,0
org.apache.abdera.ext.features.Features, 0, 0, 0, 0, 0, 0, 0, 0, 0, 0, 0, 0, 0, 0,0.0,0.0,0.0,0.0,0.0,0.0,0.0,0.0,0.0,0.0,0.0,0.0,0.0,54,extensions\features\src\main\java\org\apache\abdera\ext\features\Features.java,0,0,0,0
org.apache.abdera.ext.features.FeaturesExtensionFactory, 0, 0, 0, 0, 0, 1, 0, 0, 0, 0, 0, 0, 0, 1,0.0,0.0,0.0,0.0,0.0,0.0,0.0,0.0,0.0,0.0,0.0,0.0,0.0,7,extensions\features\src\main\java\org\apache\abdera\ext\features\FeaturesExtensionFactory.java,0,0,0,0
org.apache.abdera.ext.features.Selector, 0, 0, 0, 0, 0, 0, 0, 0, 0, 0, 0, 0, 0, 0,0.0,0.0,0.0,0.0,0.0,0.0,0.0,0.0,0.0,0.0,0.0,0.0,0.0,7,extensions\features\src\main\java\org\apache\abdera\ext\features\Selector.java,0,0,0,0
org.apache.abdera.ext.gdata.GoogleLoginAuthCredentials, 0, 0, 0, 0, 0, 0, 0, 0, 0, 0, 0, 0, 0, 0,0.0,0.0,0.0,0.0,0.0,0.0,0.0,0.0,0.0,0.0,0.0,0.0,0.0,18,extensions\gdata\src\main\java\org\apache\abdera\ext\gdata\GoogleLoginAuthCredentials.java,0,0,0,0
org.apache.abdera.ext.geo.Box, 0, 0, 0, 0, 0, 0, 0, 0, 0, 0, 0, 0, 0, 0,0.0,0.0,0.0,0.3333333333333333,0.0,0.0,0.0,0.0,0.0,0.0,0.0,0.0,0.0,57,extensions\geo\src\main\java\org\apache\abdera\ext\geo\Box.java,0,0,0,0
org.apache.abdera.ext.geo.Coordinate, 0, 0, 0, 0, 0, 0, 0, 0, 0, 0, 0, 0, 0, 0,0.0,0.0,0.0,0.16666666666666666,0.0,0.0,0.0,0.0,0.0,0.0,0.0,0.0,0.0,95,extensions\geo\src\main\java\org\apache\abdera\ext\geo\Coordinate.java,0,0,0,0
org.apache.abdera.ext.geo.GeoHelper, 0, 0, 0, 1, 0, 0, 0, 0, 0, 0, 0, 0, 0, 1,0.0,0.0,0.0,0.0,0.0,0.0,0.0,0.0,0.0,0.0,0.0,0.0,0.0,252,extensions\geo\src\main\java\org\apache\abdera\ext\geo\GeoHelper.java,0,0,0,0
org.apache.abdera.ext.geo.Line, 0, 0, 0, 0, 0, 0, 0, 0, 0, 0, 0, 0, 0, 0,0.0,0.0,0.0,0.0,0.0,0.0,0.0,0.0,0.0,0.0,0.0,0.0,0.0,45,extensions\geo\src\main\java\org\apache\abdera\ext\geo\Line.java,0,0,0,0
org.apache.abdera.ext.geo.Point, 0, 0, 0, 0, 0, 0, 0, 0, 0, 0, 0, 0, 0, 0,0.0,0.0,0.0,0.14285714285714285,0.0,0.0,0.0,0.0,0.0,0.0,0.0,0.0,0.0,58,extensions\geo\src\main\java\org\apache\abdera\ext\geo\Point.java,0,0,0,0
org.apache.abdera.ext.geo.Polygon, 0, 0, 0, 0, 0, 0, 0, 0, 0, 0, 0, 0, 0, 0,0.0,0.0,0.0,0.0,0.0,0.0,0.0,0.0,0.0,0.0,0.0,0.0,0.0,46,extensions\geo\src\main\java\org\apache\abdera\ext\geo\Polygon.java,0,0,0,0
org.apache.abdera.ext.geo.Position, 0, 0, 0, 0, 0, 0, 0, 0, 0, 0, 0, 0, 0, 0,0.0,0.0,0.0,0.5,0.0,0.0,0.0,0.0,0.0,0.0,0.0,0.0,0.0,102,extensions\geo\src\main\java\org\apache\abdera\ext\geo\Position.java,0,0,0,0
org.apache.abdera.ext.history.FeedPagingHelper, 0, 0, 0, 0, 0, 0, 0, 0, 0, 0, 0, 0, 0, 0,0.0,0.0,0.0,0.0,0.0,0.0,0.0,0.0,0.0,0.0,0.0,0.0,0.0,150,extensions\main\src\main\java\org\apache\abdera\ext\history\FeedPagingHelper.java,0,0,0,0
org.apache.abdera.ext.html.HtmlHelper, 0, 0, 0, 0, 0, 0, 0, 0, 0, 0, 0, 0, 0, 0,0.0,0.0,0.0,0.3333333333333333,0.0,0.0,0.0,0.0,0.0,0.0,0.0,0.0,0.0,94,extensions\html\src\main\java\org\apache\abdera\ext\html\HtmlHelper.java,0,0,0,0
org.apache.abdera.ext.html.HtmlParser, 0, 0, 0, 0, 0, 0, 0, 0, 0, 0, 0, 0, 0, 0,0.0,0.0,0.0,0.2,0.0,0.0,0.0,0.0,0.0,0.0,0.0,0.0,0.0,34,extensions\html\src\main\java\org\apache\abdera\ext\html\HtmlParser.java,0,0,0,0
org.apache.abdera.ext.html.HtmlParserOptions, 0, 0, 0, 0, 0, 0, 0, 0, 0, 0, 0, 0, 0, 0,0.0,0.0,0.0,0.25,0.0,0.0,0.0,0.0,0.0,0.0,0.0,0.0,0.0,19,extensions\html\src\main\java\org\apache\abdera\ext\html\HtmlParserOptions.java,0,0,0,0
org.apache.abdera.ext.json.JSONFilter, 0, 0, 0, 0, 0, 0, 0, 0, 0, 0, 0, 0, 0, 0,0.0,0.0,0.0,0.0,0.0,0.0,0.0,0.0,0.0,0.0,0.0,0.0,0.0,55,extensions\json\src\main\java\org\apache\abdera\ext\json\JSONFilter.java,0,0,0,0
org.apache.abdera.ext.json.JSONServlet, 0, 0, 0, 0, 0, 0, 0, 0, 0, 0, 0, 0, 0, 0,0.0,0.0,0.0,1.0,0.0,0.0,0.0,0.0,0.0,0.0,0.0,0.0,0.0,61,extensions\json\src\main\java\org\apache\abdera\ext\json\JSONServlet.java,0,0,0,0
org.apache.abdera.ext.json.JSONUtil, 0, 0, 0, 0, 0, 0, 0, 0, 0, 0, 0, 0, 0, 0,0.0,0.0,0.0,0.14285714285714285,0.0,0.0,0.0,0.14285714285714285,0.0,0.0,0.0,0.0,0.0,501,extensions\json\src\main\java\org\apache\abdera\ext\json\JSONUtil.java,0,0,0,0
org.apache.abdera.ext.json.JSONWriter, 0, 0, 0, 0, 0, 0, 0, 0, 0, 0, 0, 0, 0, 0,0.0,0.0,0.0,0.0,0.0,0.0,0.0,0.0,0.0,0.0,0.0,0.0,0.0,41,extensions\json\src\main\java\org\apache\abdera\ext\json\JSONWriter.java,0,0,0,0
org.apache.abdera.ext.license.LicenseHelper, 0, 0, 0, 0, 0, 0, 0, 1, 0, 0, 0, 0, 0, 1,0.0,0.0,0.0,0.0,0.0,0.0,0.0,0.0,0.0,0.0,0.0,0.0,0.0,81,extensions\main\src\main\java\org\apache\abdera\ext\license\LicenseHelper.java,0,0,0,0
org.apache.abdera.ext.media.MediaAdult, 0, 0, 0, 0, 0, 0, 0, 0, 0, 0, 0, 0, 0, 0,0.0,0.0,0.0,0.0,0.0,0.0,0.0,0.0,0.0,0.0,0.0,0.0,0.0,8,extensions\media\src\main\java\org\apache\abdera\ext\media\MediaAdult.java,0,0,0,0
org.apache.abdera.ext.media.MediaCategory, 0, 0, 0, 0, 0, 0, 0, 0, 0, 0, 0, 0, 0, 0,0.0,0.0,0.0,0.0,0.0,0.0,0.0,0.0,0.0,0.0,0.0,0.0,0.0,27,extensions\media\src\main\java\org\apache\abdera\ext\media\MediaCategory.java,0,0,0,0
org.apache.abdera.ext.media.MediaConstants, 0, 0, 0, 0, 0, 0, 0, 0, 0, 0, 0, 0, 0, 0,0.0,0.0,0.0,0.0,0.0,0.0,0.0,0.0,0.0,0.0,0.0,0.0,0.0,27,extensions\media\src\main\java\org\apache\abdera\ext\media\MediaConstants.java,0,0,0,0
org.apache.abdera.ext.media.MediaContent, 0, 0, 0, 1, 0, 0, 0, 0, 0, 0, 0, 0, 0, 1,0.0,0.0,0.0,0.0,0.0,0.0,0.0,0.0,0.0,0.0,0.0,0.0,0.0,147,extensions\media\src\main\java\org\apache\abdera\ext\media\MediaContent.java,0,0,0,0
org.apache.abdera.ext.media.MediaCopyright, 0, 0, 0, 0, 0, 0, 0, 0, 0, 0, 0, 0, 0, 0,0.0,0.0,0.0,0.0,0.0,0.0,0.0,0.0,0.0,0.0,0.0,0.0,0.0,18,extensions\media\src\main\java\org\apache\abdera\ext\media\MediaCopyright.java,0,0,0,0
org.apache.abdera.ext.media.MediaCredit, 0, 0, 0, 0, 0, 0, 0, 0, 0, 0, 0, 0, 0, 0,0.0,0.0,0.0,0.0,0.0,0.0,0.0,0.0,0.0,0.0,0.0,0.0,0.0,27,extensions\media\src\main\java\org\apache\abdera\ext\media\MediaCredit.java,0,0,0,0
org.apache.abdera.ext.media.MediaDescription, 0, 0, 0, 0, 0, 0, 0, 0, 0, 0, 0, 0, 0, 0,0.0,0.0,0.0,0.0,0.0,0.0,0.0,0.0,0.0,0.0,0.0,0.0,0.0,24,extensions\media\src\main\java\org\apache\abdera\ext\media\MediaDescription.java,0,0,0,0
org.apache.abdera.ext.media.MediaExtensionFactory, 0, 0, 0, 0, 0, 1, 0, 0, 0, 0, 0, 0, 0, 1,0.0,0.0,0.0,0.0,0.0,0.0,0.0,0.0,0.0,0.0,0.0,0.0,0.0,21,extensions\media\src\main\java\org\apache\abdera\ext\media\MediaExtensionFactory.java,0,0,0,0
org.apache.abdera.ext.media.MediaGroup, 0, 0, 0, 0, 0, 0, 0, 0, 0, 0, 0, 0, 0, 0,0.0,0.0,0.0,0.0,0.0,0.0,0.0,0.0,0.0,0.0,0.0,0.0,0.0,8,extensions\media\src\main\java\org\apache\abdera\ext\media\MediaGroup.java,0,0,0,0
org.apache.abdera.ext.media.MediaHash, 0, 0, 0, 0, 0, 0, 0, 0, 0, 0, 0, 0, 0, 0,0.0,0.0,0.0,0.0,0.0,0.0,0.0,0.0,0.0,0.0,0.0,0.0,0.0,30,extensions\media\src\main\java\org\apache\abdera\ext\media\MediaHash.java,0,0,0,0
org.apache.abdera.ext.media.MediaKeywords, 0, 0, 0, 0, 0, 0, 0, 0, 0, 0, 0, 0, 0, 0,0.0,0.0,0.0,0.0,0.0,0.0,0.0,0.0,0.0,0.0,0.0,0.0,0.0,8,extensions\media\src\main\java\org\apache\abdera\ext\media\MediaKeywords.java,0,0,0,0
org.apache.abdera.ext.media.MediaPlayer, 0, 0, 0, 0, 0, 0, 0, 0, 0, 0, 0, 0, 0, 0,0.0,0.0,0.0,0.0,0.0,0.0,0.0,0.0,0.0,0.0,0.0,0.0,0.0,41,extensions\media\src\main\java\org\apache\abdera\ext\media\MediaPlayer.java,0,0,0,0
org.apache.abdera.ext.media.MediaRating, 0, 0, 0, 0, 0, 0, 0, 0, 0, 0, 0, 0, 0, 0,0.0,0.0,0.0,0.0,0.0,0.0,0.0,0.0,0.0,0.0,0.0,0.0,0.0,27,extensions\media\src\main\java\org\apache\abdera\ext\media\MediaRating.java,0,0,0,0
org.apache.abdera.ext.media.MediaRestriction, 0, 0, 0, 0, 0, 0, 0, 0, 0, 0, 0, 0, 0, 0,0.0,0.0,0.0,0.0,0.0,0.0,0.0,0.0,0.0,0.0,0.0,0.0,0.0,40,extensions\media\src\main\java\org\apache\abdera\ext\media\MediaRestriction.java,0,0,0,0
org.apache.abdera.ext.media.MediaText, 0, 0, 0, 0, 0, 0, 0, 0, 0, 0, 0, 0, 0, 0,0.0,0.0,0.0,0.0,0.0,0.0,0.0,0.0,0.0,0.0,0.0,0.0,0.0,51,extensions\media\src\main\java\org\apache\abdera\ext\media\MediaText.java,0,0,0,0
org.apache.abdera.ext.media.MediaThumbnail, 0, 0, 0, 0, 0, 0, 0, 0, 0, 0, 0, 0, 0, 0,0.0,0.0,0.0,0.0,0.0,0.0,0.0,0.0,0.0,0.0,0.0,0.0,0.0,50,extensions\media\src\main\java\org\apache\abdera\ext\media\MediaThumbnail.java,0,0,0,0
org.apache.abdera.ext.media.MediaTitle, 0, 0, 0, 0, 0, 0, 0, 0, 0, 0, 0, 0, 0, 0,0.0,0.0,0.0,0.0,0.0,0.0,0.0,0.0,0.0,0.0,0.0,0.0,0.0,24,extensions\media\src\main\java\org\apache\abdera\ext\media\MediaTitle.java,0,0,0,0
org.apache.abdera.ext.oauth.OAuthCredentials, 0, 0, 0, 0, 0, 0, 0, 1, 0, 0, 0, 0, 0, 1,0.0,0.0,0.0,0.0,0.0,0.0,0.0,0.0,0.0,0.0,0.0,0.0,0.0,67,extensions\oauth\src\main\java\org\apache\abdera\ext\oauth\OAuthCredentials.java,0,0,0,0
org.apache.abdera.ext.oauth.OAuthScheme, 0, 0, 0, 0, 0, 0, 0, 0, 0, 0, 0, 0, 0, 0,0.0,0.0,0.0,0.0,0.0,0.0,0.0,0.5,0.0,0.0,0.0,0.0,0.0,160,extensions\oauth\src\main\java\org\apache\abdera\ext\oauth\OAuthScheme.java,0,0,0,0
org.apache.abdera.ext.oauth.OAuthSchemeTest, 0, 0, 0, 0, 0, 0, 0, 0, 0, 0, 0, 0, 0, 0,0.0,0.0,0.0,0.0,0.0,0.0,0.0,0.5,0.0,0.0,0.0,0.0,0.0,15,extensions\oauth\src\test\java\org\apache\abdera\ext\oauth\OAuthSchemeTest.java,0,0,0,0
org.apache.abdera.ext.opensearch.OpenSearchConstants, 0, 0, 0, 0, 0, 0, 0, 0, 0, 0, 0, 0, 0, 0,0.0,0.0,0.0,0.0,0.0,0.0,0.0,0.0,0.0,0.0,0.0,0.0,0.0,15,extensions\opensearch\src\main\java\org\apache\abdera\ext\opensearch\OpenSearchConstants.java,0,0,0,0
org.apache.abdera.ext.opensearch.model.IntegerElement, 0, 0, 0, 0, 0, 0, 0, 0, 0, 0, 0, 0, 0, 0,0.0,0.0,0.0,0.0,0.0,0.0,0.0,0.0,0.0,0.0,0.0,0.0,0.0,15,extensions\opensearch\src\main\java\org\apache\abdera\ext\opensearch\model\IntegerElement.java,0,0,0,0
org.apache.abdera.ext.opensearch.model.OpenSearchExtensionFactory, 0, 0, 0, 0, 0, 1, 0, 0, 0, 0, 0, 0, 0, 1,0.0,0.0,0.0,0.0,0.0,0.0,0.0,0.0,0.0,0.0,0.0,0.0,0.0,14,extensions\opensearch\src\main\java\org\apache\abdera\ext\opensearch\model\OpenSearchExtensionFactory.java,0,0,0,0
org.apache.abdera.ext.opensearch.model.Query, 0, 0, 0, 0, 0, 0, 0, 0, 0, 0, 0, 0, 0, 0,0.0,0.0,0.0,0.3333333333333333,0.0,0.0,0.0,0.0,0.0,0.0,0.0,0.0,0.0,129,extensions\opensearch\src\main\java\org\apache\abdera\ext\opensearch\model\Query.java,0,0,0,0
org.apache.abdera.ext.opensearch.model.StringElement, 0, 0, 0, 0, 0, 0, 0, 0, 0, 0, 0, 0, 0, 0,0.0,0.0,0.0,0.0,0.0,0.0,0.0,0.0,0.0,0.0,0.0,0.0,0.0,15,extensions\opensearch\src\main\java\org\apache\abdera\ext\opensearch\model\StringElement.java,0,0,0,0
org.apache.abdera.ext.opensearch.model.Url, 0, 0, 0, 0, 0, 0, 0, 0, 0, 0, 0, 0, 0, 0,0.0,0.0,0.0,1.0,0.0,0.0,0.0,0.0,0.0,0.0,0.0,0.0,0.0,55,extensions\opensearch\src\main\java\org\apache\abdera\ext\opensearch\model\Url.java,0,0,0,0
org.apache.abdera.ext.opensearch.server.OpenSearchInfo, 0, 0, 0, 0, 0, 0, 0, 0, 0, 0, 0, 0, 0, 0,0.0,0.0,0.0,0.0,0.0,0.0,0.0,0.0,0.0,0.0,0.0,0.0,0.0,55,extensions\opensearch\src\main\java\org\apache\abdera\ext\opensearch\server\OpenSearchInfo.java,0,0,0,0
org.apache.abdera.ext.opensearch.server.OpenSearchQueryInfo, 0, 0, 0, 0, 0, 0, 0, 0, 0, 0, 0, 0, 0, 0,0.0,0.0,0.0,0.0,0.0,0.0,0.0,0.0,0.0,0.0,0.0,0.0,0.0,55,extensions\opensearch\src\main\java\org\apache\abdera\ext\opensearch\server\OpenSearchQueryInfo.java,0,0,0,0
org.apache.abdera.ext.opensearch.server.OpenSearchUrlInfo, 0, 0, 0, 0, 0, 0, 0, 0, 0, 0, 0, 0, 0, 0,0.0,0.0,0.0,0.0,0.0,0.0,0.0,0.0,0.0,0.0,0.0,0.0,0.0,55,extensions\opensearch\src\main\java\org\apache\abdera\ext\opensearch\server\OpenSearchUrlInfo.java,0,0,0,0
org.apache.abdera.ext.opensearch.server.OpenSearchUrlParameterInfo, 0, 0, 0, 0, 0, 0, 0, 0, 0, 0, 0, 0, 0, 0,0.0,0.0,0.0,0.0,0.0,0.0,0.0,0.0,0.0,0.0,0.0,0.0,0.0,55,extensions\opensearch\src\main\java\org\apache\abdera\ext\opensearch\server\OpenSearchUrlParameterInfo.java,0,0,0,0
org.apache.abdera.ext.opensearch.server.impl.SimpleOpenSearchInfo, 0, 0, 0, 0, 0, 0, 0, 0, 0, 0, 0, 0, 0, 0,0.0,0.0,0.0,0.0,0.0,0.0,0.0,0.0,0.0,0.0,0.0,0.0,0.0,58,extensions\opensearch\src\main\java\org\apache\abdera\ext\opensearch\server\impl\SimpleOpenSearchInfo.java,0,0,0,0
org.apache.abdera.ext.opensearch.server.impl.SimpleOpenSearchQueryInfo, 0, 0, 0, 0, 0, 0, 0, 0, 0, 0, 0, 0, 0, 0,0.0,0.0,0.0,0.0,0.0,0.0,0.0,0.0,0.0,0.0,0.0,0.0,0.0,22,extensions\opensearch\src\main\java\org\apache\abdera\ext\opensearch\server\impl\SimpleOpenSearchQueryInfo.java,0,0,0,0
org.apache.abdera.ext.opensearch.server.impl.SimpleOpenSearchUrlParameterInfo, 0, 0, 0, 0, 0, 0, 0, 0, 0, 0, 0, 0, 0, 0,0.0,0.0,0.0,0.0,0.0,0.0,0.0,0.0,0.0,0.0,0.0,0.0,0.0,23,extensions\opensearch\src\main\java\org\apache\abdera\ext\opensearch\server\impl\SimpleOpenSearchUrlParameterInfo.java,0,0,0,0
org.apache.abdera.ext.opensearch.server.processors.OpenSearchDescriptionRequestProcessor, 0, 0, 0, 0, 0, 0, 0, 0, 0, 0, 0, 0, 0, 0,0.0,0.0,0.0,0.0,0.0,0.0,0.0,0.0,0.0,0.0,0.0,0.0,0.0,19,extensions\opensearch\src\main\java\org\apache\abdera\ext\opensearch\server\processors\OpenSearchDescriptionRequestProcessor.java,0,0,0,0
org.apache.abdera.ext.opensearch.server.processors.OpenSearchTargetTypes, 0, 0, 0, 0, 0, 0, 0, 0, 0, 0, 0, 0, 0, 0,0.0,0.0,0.0,0.0,0.0,0.0,0.0,0.0,0.0,0.0,0.0,0.0,0.0,19,extensions\opensearch\src\main\java\org\apache\abdera\ext\opensearch\server\processors\OpenSearchTargetTypes.java,0,0,0,0
org.apache.abdera.ext.rss.RssCategory, 0, 0, 0, 0, 0, 0, 0, 0, 0, 0, 0, 0, 0, 0,0.0,0.0,0.0,0.0,0.0,0.0,0.0,0.0,0.0,0.0,0.0,0.0,0.0,63,extensions\rss\src\main\java\org\apache\abdera\ext\rss\RssCategory.java,0,0,0,0
org.apache.abdera.ext.rss.RssCloud, 0, 0, 0, 0, 0, 0, 0, 0, 0, 0, 0, 0, 0, 0,0.0,0.0,0.0,0.0,0.0,0.0,0.0,0.0,0.0,0.0,0.0,0.0,0.0,24,extensions\rss\src\main\java\org\apache\abdera\ext\rss\RssCloud.java,0,0,0,0
org.apache.abdera.ext.rss.RssConstants, 0, 0, 0, 0, 0, 0, 0, 0, 0, 0, 0, 0, 0, 0,0.0,0.0,0.0,0.0,0.0,0.0,0.0,0.0,0.0,0.0,0.0,0.0,0.0,24,extensions\rss\src\main\java\org\apache\abdera\ext\rss\RssConstants.java,0,0,0,0
org.apache.abdera.ext.rss.RssContent, 0, 0, 0, 0, 0, 0, 0, 0, 0, 0, 0, 0, 0, 0,0.0,0.0,0.0,0.0,0.0,0.0,0.0,0.0,0.0,0.0,0.0,0.0,0.0,53,extensions\rss\src\main\java\org\apache\abdera\ext\rss\RssContent.java,0,0,0,0
org.apache.abdera.ext.rss.RssDateTime, 0, 0, 0, 0, 0, 0, 0, 0, 0, 0, 0, 0, 0, 0,0.0,0.0,0.0,0.0,0.0,0.0,0.0,0.0,0.0,0.0,0.0,0.0,0.0,58,extensions\rss\src\main\java\org\apache\abdera\ext\rss\RssDateTime.java,0,0,0,0
org.apache.abdera.ext.rss.RssEnclosure, 0, 0, 0, 1, 0, 0, 0, 0, 0, 0, 0, 0, 0, 1,0.0,0.0,0.0,0.0,0.0,0.0,0.0,0.0,0.0,0.0,0.0,0.0,0.0,90,extensions\rss\src\main\java\org\apache\abdera\ext\rss\RssEnclosure.java,0,0,0,0
org.apache.abdera.ext.rss.RssExtensionFactory, 0, 0, 0, 0, 0, 1, 0, 0, 0, 0, 0, 0, 0, 1,0.0,0.0,0.0,0.0,0.0,0.0,0.0,0.0,0.0,0.0,0.0,0.0,0.0,58,extensions\rss\src\main\java\org\apache\abdera\ext\rss\RssExtensionFactory.java,0,0,0,0
org.apache.abdera.ext.rss.RssGenerator, 0, 0, 0, 0, 0, 0, 0, 0, 0, 0, 0, 0, 0, 0,0.0,0.0,0.0,0.0,0.0,0.0,0.0,0.0,0.0,0.0,0.0,0.0,0.0,23,extensions\rss\src\main\java\org\apache\abdera\ext\rss\RssGenerator.java,0,0,0,0
org.apache.abdera.ext.rss.RssGuid, 0, 0, 0, 1, 0, 0, 0, 0, 0, 0, 0, 0, 0, 1,0.0,0.0,0.0,0.5,0.0,0.0,0.0,0.5,0.0,0.0,0.0,0.0,0.0,102,extensions\rss\src\main\java\org\apache\abdera\ext\rss\RssGuid.java,0,0,0,0
org.apache.abdera.ext.rss.RssImage, 0, 0, 0, 0, 0, 0, 0, 0, 0, 0, 0, 0, 0, 0,0.0,0.0,0.0,0.0,0.0,0.0,0.0,0.0,0.0,0.0,0.0,0.0,0.0,55,extensions\rss\src\main\java\org\apache\abdera\ext\rss\RssImage.java,0,0,0,0
org.apache.abdera.ext.rss.RssItem, 0, 0, 0, 1, 0, 0, 0, 1, 0, 0, 0, 0, 0, 2,0.0,0.0,0.0,0.25,0.0,0.0,0.0,0.25,0.0,0.0,0.0,0.0,0.0,450,extensions\rss\src\main\java\org\apache\abdera\ext\rss\RssItem.java,0,0,0,0
org.apache.abdera.ext.rss.RssLink, 0, 0, 0, 0, 0, 0, 0, 0, 0, 0, 0, 0, 0, 0,0.0,0.0,0.0,0.5,0.0,0.0,0.0,0.5,0.0,0.0,0.0,0.0,0.0,55,extensions\rss\src\main\java\org\apache\abdera\ext\rss\RssLink.java,0,0,0,0
org.apache.abdera.ext.rss.RssSkipDays, 0, 0, 0, 0, 0, 0, 0, 0, 0, 0, 0, 0, 0, 0,0.0,0.0,0.0,0.0,0.0,0.0,0.0,0.0,0.0,0.0,0.0,0.0,0.0,23,extensions\rss\src\main\java\org\apache\abdera\ext\rss\RssSkipDays.java,0,0,0,0
org.apache.abdera.ext.rss.RssSkipHours, 0, 0, 0, 0, 0, 0, 0, 0, 0, 0, 0, 0, 0, 0,0.0,0.0,0.0,0.0,0.0,0.0,0.0,0.0,0.0,0.0,0.0,0.0,0.0,20,extensions\rss\src\main\java\org\apache\abdera\ext\rss\RssSkipHours.java,0,0,0,0
org.apache.abdera.ext.rss.RssSource, 0, 0, 0, 1, 0, 0, 0, 1, 0, 0, 0, 0, 0, 2,0.0,0.0,0.0,0.0,0.0,0.0,0.0,0.0,0.0,0.0,0.0,0.0,0.0,260,extensions\rss\src\main\java\org\apache\abdera\ext\rss\RssSource.java,0,0,0,0
org.apache.abdera.ext.rss.RssText, 0, 0, 0, 0, 0, 0, 0, 0, 0, 0, 0, 0, 0, 0,0.0,0.0,0.0,0.0,0.0,0.0,0.0,0.0,0.0,0.0,0.0,0.0,0.0,32,extensions\rss\src\main\java\org\apache\abdera\ext\rss\RssText.java,0,0,0,0
org.apache.abdera.ext.rss.RssTextInput, 0, 0, 0, 0, 0, 0, 0, 0, 0, 0, 0, 0, 0, 0,0.0,0.0,0.0,0.0,0.0,0.0,0.0,0.0,0.0,0.0,0.0,0.0,0.0,24,extensions\rss\src\main\java\org\apache\abdera\ext\rss\RssTextInput.java,0,0,0,0
org.apache.abdera.ext.rss.RssUriElement, 0, 0, 0, 0, 0, 0, 0, 0, 0, 0, 0, 0, 0, 0,0.0,0.0,0.0,0.0,0.0,0.0,0.0,0.0,0.0,0.0,0.0,0.0,0.0,20,extensions\rss\src\main\java\org\apache\abdera\ext\rss\RssUriElement.java,0,0,0,0
org.apache.abdera.ext.serializer.DefaultConventions, 0, 0, 0, 0, 0, 0, 0, 0, 0, 0, 0, 0, 0, 0,0.0,0.0,0.0,0.0,0.0,0.0,0.0,0.0,0.0,0.0,0.0,0.0,0.0,16,extensions\serializer\src\main\java\org\apache\abdera\ext\serializer\DefaultConventions.java,0,0,0,0
org.apache.abdera.ext.serializer.SerializationContext, 0, 0, 0, 0, 0, 0, 0, 0, 0, 0, 0, 0, 0, 0,0.0,0.0,0.0,0.0,0.0,0.0,0.0,0.0,0.0,0.0,0.0,0.0,0.0,16,extensions\serializer\src\main\java\org\apache\abdera\ext\serializer\SerializationContext.java,0,0,0,0
org.apache.abdera.ext.serializer.SerializationException, 0, 0, 0, 0, 0, 0, 0, 0, 0, 0, 0, 0, 0, 0,0.0,0.0,0.0,0.0,0.0,0.0,0.0,0.0,0.0,0.0,0.0,0.0,0.0,15,extensions\serializer\src\main\java\org\apache\abdera\ext\serializer\SerializationException.java,0,0,0,0
org.apache.abdera.ext.serializer.Serializer, 0, 0, 0, 0, 0, 0, 0, 0, 0, 0, 0, 0, 0, 0,0.0,0.0,0.0,0.0,0.0,0.0,0.0,0.0,0.0,0.0,0.0,0.0,0.0,6,extensions\serializer\src\main\java\org\apache\abdera\ext\serializer\Serializer.java,0,0,0,0
org.apache.abdera.ext.serializer.SerializerProvider, 0, 0, 0, 0, 0, 0, 0, 0, 0, 0, 0, 0, 0, 0,0.0,0.0,0.0,0.0,0.0,0.0,0.0,0.0,0.0,0.0,0.0,0.0,0.0,9,extensions\serializer\src\main\java\org\apache\abdera\ext\serializer\SerializerProvider.java,0,0,0,0
org.apache.abdera.ext.serializer.impl.CategoriesSerializer, 0, 0, 0, 0, 0, 0, 0, 0, 0, 0, 0, 0, 0, 0,0.0,0.0,0.0,0.0,0.0,0.0,0.0,0.0,0.0,0.0,0.0,0.0,0.0,13,extensions\serializer\src\main\java\org\apache\abdera\ext\serializer\impl\CategoriesSerializer.java,0,0,0,0
org.apache.abdera.ext.serializer.impl.CategorySerializer, 0, 0, 0, 0, 0, 0, 0, 0, 0, 0, 0, 0, 0, 0,0.0,0.0,0.0,0.0,0.0,0.0,0.0,0.0,0.0,0.0,0.0,0.0,0.0,61,extensions\serializer\src\main\java\org\apache\abdera\ext\serializer\impl\CategorySerializer.java,0,0,0,0
org.apache.abdera.ext.serializer.impl.CollectionSerializer, 0, 0, 0, 0, 0, 0, 0, 0, 0, 0, 0, 0, 0, 0,0.0,0.0,0.0,0.0,0.0,0.0,0.0,0.0,0.0,0.0,0.0,0.0,0.0,20,extensions\serializer\src\main\java\org\apache\abdera\ext\serializer\impl\CollectionSerializer.java,0,0,0,0
org.apache.abdera.ext.serializer.impl.ContentSerializer, 0, 0, 0, 0, 0, 0, 0, 0, 0, 0, 0, 0, 0, 0,0.0,0.0,0.0,0.3333333333333333,0.0,0.0,0.0,0.0,0.0,0.0,0.0,0.0,0.0,85,extensions\serializer\src\main\java\org\apache\abdera\ext\serializer\impl\ContentSerializer.java,0,0,0,0
org.apache.abdera.ext.serializer.impl.ControlSerializer, 0, 0, 0, 0, 0, 0, 0, 0, 0, 0, 0, 0, 0, 0,0.0,0.0,0.0,0.0,0.0,0.0,0.0,0.0,0.0,0.0,0.0,0.0,0.0,25,extensions\serializer\src\main\java\org\apache\abdera\ext\serializer\impl\ControlSerializer.java,0,0,0,0
org.apache.abdera.ext.serializer.impl.DateTimeSerializer, 0, 0, 0, 0, 0, 0, 0, 0, 0, 0, 0, 0, 0, 0,0.0,0.0,0.0,0.0,0.0,0.0,0.0,0.0,0.0,0.0,0.0,0.0,0.0,48,extensions\serializer\src\main\java\org\apache\abdera\ext\serializer\impl\DateTimeSerializer.java,0,0,0,0
org.apache.abdera.ext.serializer.impl.ElementSerializer, 0, 0, 0, 0, 0, 0, 0, 0, 0, 0, 0, 0, 0, 0,0.0,0.0,0.0,0.0,0.0,0.0,0.0,0.0,0.0,0.0,0.0,0.0,0.0,24,extensions\serializer\src\main\java\org\apache\abdera\ext\serializer\impl\ElementSerializer.java,0,0,0,0
org.apache.abdera.ext.serializer.impl.EntrySerializer, 0, 0, 0, 0, 0, 0, 0, 0, 0, 0, 0, 0, 0, 0,0.15384615384615385,0.0,0.0,0.0,0.0,0.0,0.0,0.0,0.0,0.0,0.0,0.0,0.0,45,extensions\serializer\src\main\java\org\apache\abdera\ext\serializer\impl\EntrySerializer.java,0,0,0,0
org.apache.abdera.ext.serializer.impl.ExtensionSerializer, 0, 0, 0, 0, 0, 0, 0, 0, 0, 0, 0, 0, 0, 0,0.0,0.0,0.0,0.0,0.0,0.0,0.0,0.0,0.0,0.0,0.0,0.0,0.0,15,extensions\serializer\src\main\java\org\apache\abdera\ext\serializer\impl\ExtensionSerializer.java,0,0,0,0
org.apache.abdera.ext.serializer.impl.FOMSerializer, 0, 0, 0, 0, 0, 0, 0, 0, 0, 0, 0, 0, 0, 0,0.0,0.0,0.0,1.0,0.0,0.0,0.0,0.0,0.0,0.0,0.0,0.0,0.0,43,extensions\serializer\src\main\java\org\apache\abdera\ext\serializer\impl\FOMSerializer.java,0,0,0,0
org.apache.abdera.ext.serializer.impl.FeedSerializer, 0, 0, 0, 0, 0, 0, 0, 0, 0, 0, 0, 0, 0, 0,0.0,0.0,0.0,0.0,0.0,0.0,0.0,0.0,0.0,0.0,0.0,0.0,0.0,12,extensions\serializer\src\main\java\org\apache\abdera\ext\serializer\impl\FeedSerializer.java,0,0,0,0
org.apache.abdera.ext.serializer.impl.GeneratorSerializer, 0, 0, 0, 0, 0, 0, 0, 0, 0, 0, 0, 0, 0, 0,0.0,0.0,0.0,0.0,0.0,0.0,0.0,0.0,0.0,0.0,0.0,0.0,0.0,50,extensions\serializer\src\main\java\org\apache\abdera\ext\serializer\impl\GeneratorSerializer.java,0,0,0,0
org.apache.abdera.ext.serializer.impl.IRISerializer, 0, 0, 0, 0, 0, 0, 0, 0, 0, 0, 0, 0, 0, 0,0.0,0.0,0.0,0.0,0.0,0.0,0.0,0.0,0.0,0.0,0.0,0.0,0.0,23,extensions\serializer\src\main\java\org\apache\abdera\ext\serializer\impl\IRISerializer.java,0,0,0,0
org.apache.abdera.ext.serializer.impl.LinkSerializer, 0, 0, 0, 0, 0, 0, 0, 0, 0, 0, 0, 0, 0, 0,0.0,0.0,0.0,0.0,0.0,0.0,0.0,0.0,0.0,0.0,0.0,0.0,0.0,91,extensions\serializer\src\main\java\org\apache\abdera\ext\serializer\impl\LinkSerializer.java,0,0,0,0
org.apache.abdera.ext.serializer.impl.PersonSerializer, 0, 0, 0, 0, 0, 0, 0, 0, 0, 0, 0, 0, 0, 0,0.0,0.0,0.0,0.0,0.0,0.0,0.0,0.0,0.0,0.0,0.0,0.0,0.0,38,extensions\serializer\src\main\java\org\apache\abdera\ext\serializer\impl\PersonSerializer.java,0,0,0,0
org.apache.abdera.ext.serializer.impl.ServiceSerializer, 0, 0, 0, 0, 0, 0, 0, 0, 0, 0, 0, 0, 0, 0,0.0,0.0,0.0,0.0,0.0,0.0,0.0,0.0,0.0,0.0,0.0,0.0,0.0,13,extensions\serializer\src\main\java\org\apache\abdera\ext\serializer\impl\ServiceSerializer.java,0,0,0,0
org.apache.abdera.ext.serializer.impl.SimpleElementSerializer, 0, 0, 0, 0, 0, 0, 0, 0, 0, 0, 0, 0, 0, 0,0.0,0.0,0.0,0.0,0.0,0.0,0.0,0.0,0.0,0.0,0.0,0.0,0.0,12,extensions\serializer\src\main\java\org\apache\abdera\ext\serializer\impl\SimpleElementSerializer.java,0,0,0,0
org.apache.abdera.ext.serializer.impl.SourceSerializer, 0, 0, 0, 0, 0, 0, 0, 0, 0, 0, 0, 0, 0, 0,0.0,0.0,0.0,0.0,0.0,0.0,0.0,0.0,0.0,0.0,0.0,0.0,0.0,41,extensions\serializer\src\main\java\org\apache\abdera\ext\serializer\impl\SourceSerializer.java,0,0,0,0
org.apache.abdera.ext.serializer.impl.TextSerializer, 0, 0, 0, 0, 0, 0, 0, 0, 0, 0, 0, 0, 0, 0,0.0,0.0,0.0,0.2,0.0,0.0,0.0,0.0,0.0,0.0,0.0,0.0,0.0,53,extensions\serializer\src\main\java\org\apache\abdera\ext\serializer\impl\TextSerializer.java,0,0,0,0
org.apache.abdera.ext.serializer.impl.WorkspaceSerializer, 0, 0, 0, 0, 0, 0, 0, 0, 0, 0, 0, 0, 0, 0,0.0,0.0,0.0,0.0,0.0,0.0,0.0,0.0,0.0,0.0,0.0,0.0,0.0,14,extensions\serializer\src\main\java\org\apache\abdera\ext\serializer\impl\WorkspaceSerializer.java,0,0,0,0
org.apache.abdera.ext.sharing.Conflicts, 0, 0, 0, 0, 0, 0, 0, 0, 0, 0, 0, 0, 0, 0,0.0,0.0,0.0,0.0,0.0,0.0,0.0,0.0,0.0,0.0,0.0,0.0,0.0,14,extensions\sharing\src\main\java\org\apache\abdera\ext\sharing\Conflicts.java,0,0,0,0
org.apache.abdera.ext.sharing.History, 0, 0, 0, 0, 0, 0, 0, 0, 0, 0, 0, 0, 0, 0,0.0,0.0,0.0,0.0,0.0,0.0,0.0,0.0,0.0,0.0,0.0,0.0,0.0,42,extensions\sharing\src\main\java\org\apache\abdera\ext\sharing\History.java,0,0,0,0
org.apache.abdera.ext.sharing.Related, 0, 0, 0, 0, 0, 0, 0, 0, 0, 0, 0, 0, 0, 0,0.0,0.0,0.0,0.0,0.0,0.0,0.0,0.0,0.0,0.0,0.0,0.0,0.0,43,extensions\sharing\src\main\java\org\apache\abdera\ext\sharing\Related.java,0,0,0,0
org.apache.abdera.ext.sharing.Sharing, 0, 0, 0, 0, 0, 0, 0, 0, 0, 0, 0, 0, 0, 0,0.0,0.0,0.0,0.0,0.0,0.0,0.0,0.0,0.0,0.0,0.0,0.0,0.0,57,extensions\sharing\src\main\java\org\apache\abdera\ext\sharing\Sharing.java,0,0,0,0
org.apache.abdera.ext.sharing.SharingExtensionFactory, 0, 0, 0, 0, 0, 1, 0, 0, 0, 0, 0, 0, 0, 1,0.0,0.0,0.0,0.0,0.0,0.0,0.0,0.0,0.0,0.0,0.0,0.0,0.0,11,extensions\sharing\src\main\java\org\apache\abdera\ext\sharing\SharingExtensionFactory.java,0,0,0,0
org.apache.abdera.ext.sharing.Sync, 0, 0, 0, 0, 0, 0, 0, 0, 0, 0, 0, 0, 0, 0,0.0,0.0,0.0,0.0,0.0,0.0,0.0,0.0,0.0,0.0,0.0,0.0,0.0,89,extensions\sharing\src\main\java\org\apache\abdera\ext\sharing\Sync.java,0,0,0,0
org.apache.abdera.ext.sharing.Unpublished, 0, 0, 0, 0, 0, 0, 0, 0, 0, 0, 0, 0, 0, 0,0.0,0.0,0.0,0.0,0.0,0.0,0.0,0.0,0.0,0.0,0.0,0.0,0.0,14,extensions\sharing\src\main\java\org\apache\abdera\ext\sharing\Unpublished.java,0,0,0,0
org.apache.abdera.ext.thread.InReplyTo, 0, 0, 0, 0, 0, 0, 0, 0, 0, 0, 0, 0, 0, 0,0.0,0.0,0.0,0.0,0.0,0.0,0.0,0.25,0.0,0.0,0.0,0.0,0.0,62,extensions\main\src\main\java\org\apache\abdera\ext\thread\InReplyTo.java,0,0,0,0
org.apache.abdera.ext.thread.ThreadConstants, 0, 0, 0, 0, 0, 0, 0, 0, 0, 0, 0, 0, 0, 0,0.0,0.0,0.0,0.0,0.0,0.0,0.0,0.0,0.0,0.0,0.0,0.0,0.0,62,extensions\main\src\main\java\org\apache\abdera\ext\thread\ThreadConstants.java,0,0,0,0
org.apache.abdera.ext.thread.ThreadExtensionFactory, 0, 0, 0, 0, 0, 1, 0, 0, 0, 0, 0, 0, 0, 1,0.0,0.0,0.0,0.0,0.0,0.0,0.0,0.0,0.0,0.0,0.0,0.0,0.0,7,extensions\main\src\main\java\org\apache\abdera\ext\thread\ThreadExtensionFactory.java,0,0,0,0
org.apache.abdera.ext.thread.ThreadHelper, 0, 0, 0, 0, 0, 0, 0, 1, 0, 0, 0, 0, 0, 1,0.0,0.0,0.0,0.0,0.0,0.0,0.0,0.0,0.0,0.0,0.0,0.0,0.0,118,extensions\main\src\main\java\org\apache\abdera\ext\thread\ThreadHelper.java,0,0,0,0
org.apache.abdera.ext.thread.Total, 0, 0, 0, 0, 0, 0, 0, 0, 0, 0, 0, 0, 0, 0,0.0,0.0,0.0,0.0,0.0,0.0,0.0,1.0,0.0,0.0,0.0,0.0,0.0,15,extensions\main\src\main\java\org\apache\abdera\ext\thread\Total.java,0,0,0,0
org.apache.abdera.ext.tombstones.Tombstone, 0, 0, 0, 0, 0, 0, 0, 0, 0, 0, 0, 0, 0, 0,0.0,0.0,0.0,0.0,0.0,0.0,0.0,0.5,0.0,0.0,0.0,0.0,0.0,88,extensions\main\src\main\java\org\apache\abdera\ext\tombstones\Tombstone.java,0,0,0,0
org.apache.abdera.ext.tombstones.TombstonesExtensionFactory, 0, 0, 0, 0, 0, 1, 0, 0, 0, 0, 0, 0, 0, 1,0.0,0.0,0.0,0.0,0.0,0.0,0.0,0.0,0.0,0.0,0.0,0.0,0.0,6,extensions\main\src\main\java\org\apache\abdera\ext\tombstones\TombstonesExtensionFactory.java,0,0,0,0
org.apache.abdera.ext.tombstones.TombstonesHelper, 0, 0, 0, 0, 0, 0, 0, 1, 0, 0, 0, 0, 0, 1,0.0,0.0,0.0,0.0,0.0,0.0,0.0,0.0,0.0,0.0,0.0,0.0,0.0,94,extensions\main\src\main\java\org\apache\abdera\ext\tombstones\TombstonesHelper.java,0,0,0,0
org.apache.abdera.ext.wsse.WSSEAuthScheme, 0, 0, 0, 0, 0, 0, 0, 0, 0, 0, 0, 0, 0, 0,0.0,0.0,0.0,0.0,0.0,0.0,0.0,0.0,0.0,0.0,0.0,0.0,0.0,68,extensions\wsse\src\main\java\org\apache\abdera\ext\wsse\WSSEAuthScheme.java,0,0,0,0
org.apache.abdera.factory.ExtensionFactory, 0, 0, 0, 0, 0, 0, 0, 0, 0, 0, 0, 0, 0, 0,0.0,0.0,0.0,0.0,0.0,0.0,0.0,0.0,0.0,0.0,0.0,0.0,0.0,68,core\src\main\java\org\apache\abdera\factory\ExtensionFactory.java,0,0,0,0
org.apache.abdera.factory.ExtensionFactoryMap, 0, 0, 0, 0, 0, 0, 0, 0, 0, 0, 0, 0, 0, 0,0.0,0.0,0.0,1.0,0.0,0.0,0.0,0.0,0.0,0.0,0.0,0.0,0.0,70,core\src\main\java\org\apache\abdera\factory\ExtensionFactoryMap.java,0,0,0,0
org.apache.abdera.factory.Factory, 0, 0, 0, 0, 0, 0, 0, 0, 0, 0, 0, 0, 0, 0,0.0,0.0,0.0,0.0,0.0,0.0,0.0,0.0,0.0,0.0,0.0,0.0,0.0,70,core\src\main\java\org\apache\abdera\factory\Factory.java,0,0,0,0
org.apache.abdera.factory.StreamBuilder, 0, 0, 0, 1, 0, 0, 0, 1, 0, 0, 0, 0, 0, 2,0.0,0.0,0.0,0.5,0.0,0.0,0.0,0.0,0.0,0.0,0.0,0.0,0.0,577,core\src\main\java\org\apache\abdera\factory\StreamBuilder.java,0,0,0,0
org.apache.abdera.filter.ListParseFilter, 0, 0, 0, 0, 0, 0, 0, 0, 0, 0, 0, 0, 0, 0,0.0,0.0,0.0,0.0,0.0,0.0,0.0,0.0,0.0,0.0,0.0,0.0,0.0,577,core\src\main\java\org\apache\abdera\filter\ListParseFilter.java,0,0,0,0
org.apache.abdera.filter.ParseFilter, 0, 0, 0, 0, 0, 0, 0, 0, 0, 0, 0, 0, 0, 0,0.0,0.0,0.0,0.0,0.0,0.0,0.0,0.0,0.0,0.0,0.0,0.0,0.0,577,core\src\main\java\org\apache\abdera\filter\ParseFilter.java,0,0,0,0
org.apache.abdera.i18n.iri.AbstractScheme, 0, 0, 0, 0, 0, 0, 0, 0, 0, 0, 0, 0, 0, 0,0.0,0.0,0.0,0.0,0.0,0.0,0.0,0.0,0.0,0.0,0.0,0.0,0.0,20,dependencies\i18n\src\main\java\org\apache\abdera\i18n\iri\AbstractScheme.java,0,0,0,0
org.apache.abdera.i18n.iri.DefaultScheme, 0, 0, 0, 0, 0, 0, 0, 0, 0, 0, 0, 0, 0, 0,0.0,0.0,0.0,0.0,0.0,0.0,0.0,0.0,0.0,0.0,0.0,0.0,0.0,8,dependencies\i18n\src\main\java\org\apache\abdera\i18n\iri\DefaultScheme.java,0,0,0,0
org.apache.abdera.i18n.iri.FtpScheme, 0, 0, 0, 0, 0, 0, 0, 0, 0, 0, 0, 0, 0, 0,0.0,0.0,0.0,0.0,0.0,0.0,0.0,0.0,0.0,0.0,0.0,0.0,0.0,7,dependencies\i18n\src\main\java\org\apache\abdera\i18n\iri\FtpScheme.java,0,0,0,0
org.apache.abdera.i18n.iri.HttpScheme, 0, 0, 0, 0, 0, 0, 0, 0, 0, 0, 0, 0, 0, 0,0.0,0.0,0.0,0.0,0.0,0.0,0.0,0.0,0.0,0.0,0.0,0.0,0.0,27,dependencies\i18n\src\main\java\org\apache\abdera\i18n\iri\HttpScheme.java,0,0,0,0
org.apache.abdera.i18n.iri.HttpsScheme, 0, 0, 0, 0, 0, 0, 0, 0, 0, 0, 0, 0, 0, 0,0.0,0.0,0.0,0.0,0.0,0.0,0.0,0.0,0.0,0.0,0.0,0.0,0.0,7,dependencies\i18n\src\main\java\org\apache\abdera\i18n\iri\HttpsScheme.java,0,0,0,0
org.apache.abdera.i18n.iri.IRIHelper, 0, 0, 0, 0, 0, 0, 0, 0, 0, 0, 0, 0, 0, 0,0.0,0.0,0.0,1.0,0.0,0.0,0.0,1.0,0.0,0.0,0.0,0.0,0.0,16,dependencies\i18n\src\main\java\org\apache\abdera\i18n\iri\IRIHelper.java,0,0,0,0
org.apache.abdera.i18n.iri.IRISyntaxException, 0, 0, 0, 0, 0, 0, 0, 0, 0, 0, 0, 0, 0, 0,0.0,0.0,0.0,0.0,0.0,0.0,0.0,0.0,0.0,0.0,0.0,0.0,0.0,9,dependencies\i18n\src\main\java\org\apache\abdera\i18n\iri\IRISyntaxException.java,0,0,0,0
org.apache.abdera.i18n.iri.Scheme, 0, 0, 0, 0, 0, 0, 0, 0, 0, 0, 0, 0, 0, 0,0.0,0.0,0.0,0.0,0.0,0.0,0.0,0.0,0.0,0.0,0.0,0.0,0.0,9,dependencies\i18n\src\main\java\org\apache\abdera\i18n\iri\Scheme.java,0,0,0,0
org.apache.abdera.i18n.lang.InvalidLangTagSyntax, 0, 0, 0, 0, 0, 0, 0, 0, 0, 0, 0, 0, 0, 0,0.0,0.0,0.0,0.0,0.0,0.0,0.0,0.0,0.0,0.0,0.0,0.0,0.0,15,dependencies\i18n\src\main\java\org\apache\abdera\i18n\lang\InvalidLangTagSyntax.java,0,0,0,0
org.apache.abdera.i18n.rfc4646.Subtag, 0, 0, 0, 1, 0, 0, 0, 0, 0, 0, 0, 0, 0, 1,0.0,0.0,0.0,0.0,0.0,0.0,0.0,0.0,0.0,0.0,0.0,0.0,0.0,255,dependencies\i18n\src\main\java\org\apache\abdera\i18n\rfc4646\Subtag.java,0,0,0,0
org.apache.abdera.i18n.templates.AbstractContext, 0, 0, 0, 0, 0, 0, 0, 0, 0, 0, 0, 0, 0, 0,0.0,0.0,0.0,0.0,0.0,0.0,0.0,0.0,0.0,0.0,0.0,0.0,0.0,16,dependencies\i18n\src\main\java\org\apache\abdera\i18n\templates\AbstractContext.java,0,0,0,0
org.apache.abdera.i18n.templates.DelegatingContext, 0, 0, 0, 0, 0, 0, 0, 0, 0, 0, 0, 0, 0, 0,0.0,0.0,0.0,0.0,0.0,0.0,0.0,0.0,0.0,0.0,0.0,0.0,0.0,12,dependencies\i18n\src\main\java\org\apache\abdera\i18n\templates\DelegatingContext.java,0,0,0,0
org.apache.abdera.i18n.test.iri.TestBase, 0, 0, 0, 0, 0, 0, 0, 0, 0, 0, 0, 0, 0, 0,0.0,0.0,0.0,0.0,0.0,0.0,0.0,0.0,0.0,0.0,0.0,0.0,0.0,13,dependencies\i18n\src\test\java\org\apache\abdera\i18n\test\iri\TestBase.java,0,0,0,0
org.apache.abdera.i18n.test.iri.TestIDNA, 0, 0, 0, 0, 0, 0, 0, 0, 0, 0, 0, 0, 0, 0,0.0,0.0,0.0,0.0,0.0,0.0,0.0,0.0,0.0,0.0,0.0,0.0,0.0,11,dependencies\i18n\src\test\java\org\apache\abdera\i18n\test\iri\TestIDNA.java,0,0,0,0
org.apache.abdera.i18n.test.iri.TestIO, 0, 0, 0, 0, 0, 0, 0, 0, 0, 0, 0, 0, 0, 0,0.0,0.0,0.0,0.0,0.0,0.0,0.0,0.0,0.0,0.0,0.0,0.0,0.0,126,dependencies\i18n\src\test\java\org\apache\abdera\i18n\test\iri\TestIO.java,0,0,0,0
org.apache.abdera.i18n.test.iri.TestIRI, 0, 0, 0, 0, 0, 0, 0, 0, 0, 0, 0, 0, 0, 0,0.0,0.0,0.0,0.0,0.0,0.0,0.0,0.0,0.0,0.0,0.0,0.0,0.0,152,dependencies\i18n\src\test\java\org\apache\abdera\i18n\test\iri\TestIRI.java,0,5,0,5
org.apache.abdera.i18n.test.iri.TestLang, 0, 0, 0, 0, 0, 0, 0, 0, 0, 0, 0, 0, 0, 0,0.0,0.0,0.0,0.3333333333333333,0.0,0.0,0.0,0.0,0.0,0.0,0.0,0.0,0.0,67,dependencies\i18n\src\test\java\org\apache\abdera\i18n\test\iri\TestLang.java,0,0,0,0
org.apache.abdera.i18n.test.iri.TestNFKC, 0, 0, 0, 0, 0, 0, 0, 0, 0, 0, 0, 0, 0, 0,0.0,0.0,0.0,0.0,0.0,0.0,0.0,0.0,0.0,0.0,0.0,0.0,0.0,11,dependencies\i18n\src\test\java\org\apache\abdera\i18n\test\iri\TestNFKC.java,0,0,0,0
org.apache.abdera.i18n.test.iri.TestNameprep, 0, 0, 0, 0, 0, 0, 0, 0, 0, 0, 0, 0, 0, 0,0.0,0.0,0.0,0.0,0.0,0.0,0.0,0.0,0.0,0.0,0.0,0.0,0.0,198,dependencies\i18n\src\test\java\org\apache\abdera\i18n\test\iri\TestNameprep.java,0,0,0,0
org.apache.abdera.i18n.test.iri.TestPunycode, 0, 0, 0, 0, 0, 0, 0, 0, 0, 0, 0, 0, 0, 0,0.0,0.0,0.0,0.0,0.0,0.0,0.0,0.0,0.0,0.0,0.0,0.0,0.0,72,dependencies\i18n\src\test\java\org\apache\abdera\i18n\test\iri\TestPunycode.java,0,0,0,0
org.apache.abdera.i18n.test.iri.TestText, 0, 0, 0, 0, 0, 0, 0, 0, 0, 0, 0, 0, 0, 0,0.0,0.0,0.0,0.0,0.0,0.0,0.0,0.5,0.0,0.0,0.0,0.0,0.0,85,dependencies\i18n\src\test\java\org\apache\abdera\i18n\test\iri\TestText.java,0,0,0,0
org.apache.abdera.i18n.text.Bidi, 0, 0, 0, 0, 0, 0, 0, 0, 0, 0, 0, 0, 0, 0,0.0,0.0,0.0,0.5,0.0,0.0,0.0,0.0,0.0,0.0,0.0,0.0,0.0,61,dependencies\i18n\src\main\java\org\apache\abdera\i18n\text\Bidi.java,0,0,0,0
org.apache.abdera.i18n.text.DelegatingCodepointIterator, 0, 0, 0, 0, 0, 0, 0, 0, 0, 0, 0, 0, 0, 0,0.0,0.0,0.0,0.0,0.0,0.0,0.0,0.0,0.0,0.0,0.0,0.0,0.0,62,dependencies\i18n\src\main\java\org\apache\abdera\i18n\text\DelegatingCodepointIterator.java,0,0,0,0
org.apache.abdera.i18n.text.Filter, 0, 0, 0, 0, 0, 0, 0, 0, 0, 0, 0, 0, 0, 0,0.0,0.0,0.0,0.0,0.0,0.0,0.0,0.0,0.0,0.0,0.0,0.0,0.0,62,dependencies\i18n\src\main\java\org\apache\abdera\i18n\text\Filter.java,0,0,0,0
org.apache.abdera.i18n.text.InvalidCharacterException, 0, 0, 0, 0, 0, 0, 0, 0, 0, 0, 0, 0, 0, 0,0.0,0.0,0.0,0.0,0.0,0.0,0.0,0.0,0.0,0.0,0.0,0.0,0.0,11,dependencies\i18n\src\main\java\org\apache\abdera\i18n\text\InvalidCharacterException.java,0,0,0,0
org.apache.abdera.i18n.text.Localizer, 0, 0, 0, 0, 0, 0, 0, 0, 0, 0, 0, 0, 0, 0,0.0,0.0,0.0,0.2222222222222222,0.0,0.0,0.0,0.2222222222222222,0.0,0.0,0.0,0.0,0.0,74,dependencies\i18n\src\main\java\org\apache\abdera\i18n\text\Localizer.java,0,0,0,0
org.apache.abdera.i18n.text.Nameprep, 0, 0, 0, 0, 0, 0, 0, 0, 0, 0, 0, 0, 0, 0,0.0,0.0,0.0,0.0,0.0,0.0,0.0,0.0,0.0,0.0,0.0,0.0,0.0,366,dependencies\i18n\src\main\java\org\apache\abdera\i18n\text\Nameprep.java,0,0,0,0
org.apache.abdera.i18n.text.Rfc2047Helper, 0, 0, 0, 0, 0, 0, 0, 0, 0, 0, 0, 0, 0, 0,0.0,0.0,0.0,0.0,0.0,0.0,0.0,0.0,0.0,0.0,0.0,0.0,0.0,42,dependencies\i18n\src\main\java\org\apache\abdera\i18n\text\Rfc2047Helper.java,0,0,0,0
org.apache.abdera.i18n.text.Sanitizer, 0, 0, 0, 0, 0, 0, 0, 1, 0, 0, 0, 0, 0, 1,0.0,0.0,0.0,0.3333333333333333,0.0,0.0,0.0,0.3333333333333333,0.0,0.0,0.0,0.0,0.0,54,dependencies\i18n\src\main\java\org\apache\abdera\i18n\text\Sanitizer.java,0,0,0,0
org.apache.abdera.i18n.text.data.UnicodeCharacterDatabase, 0, 0, 0, 1, 0, 0, 0, 0, 0, 0, 0, 0, 0, 1,0.0,0.0,0.0,0.0,0.0,0.0,0.0,0.0,0.0,0.0,0.0,0.0,0.0,4620,dependencies\i18n\src\main\java\org\apache\abdera\i18n\text\data\UnicodeCharacterDatabase.java,0,0,0,0
org.apache.abdera.i18n.text.io.CharsetSniffingInputStream, 0, 0, 0, 0, 0, 0, 0, 0, 0, 0, 0, 0, 0, 0,0.0,0.0,0.0,0.0,0.0,0.0,0.0,0.0,0.0,0.0,0.0,0.0,0.0,83,dependencies\i18n\src\main\java\org\apache\abdera\i18n\text\io\CharsetSniffingInputStream.java,0,0,0,0
org.apache.abdera.i18n.text.io.CompressionUtil, 0, 0, 0, 0, 0, 0, 0, 0, 0, 0, 0, 0, 0, 0,0.0,0.0,0.0,0.0,0.0,0.0,0.0,0.0,0.0,0.0,0.0,0.0,0.0,79,dependencies\i18n\src\main\java\org\apache\abdera\i18n\text\io\CompressionUtil.java,0,0,0,0
org.apache.abdera.i18n.text.io.CompressionUtilTest, 0, 0, 0, 0, 0, 0, 0, 0, 0, 0, 0, 0, 0, 0,0.0,0.0,0.0,0.0,0.0,0.0,0.0,0.0,0.0,0.0,0.0,0.0,0.0,13,dependencies\i18n\src\test\java\org\apache\abdera\i18n\text\io\CompressionUtilTest.java,0,0,0,0
org.apache.abdera.i18n.text.io.DynamicPushbackInputStream, 0, 0, 0, 0, 0, 0, 0, 0, 0, 0, 0, 0, 0, 0,0.0,0.0,0.0,0.0,0.0,0.0,0.0,0.0,0.0,0.0,0.0,0.0,0.0,79,dependencies\i18n\src\main\java\org\apache\abdera\i18n\text\io\DynamicPushbackInputStream.java,0,0,0,0
org.apache.abdera.i18n.text.io.InputStreamDataSource, 0, 0, 0, 0, 0, 0, 0, 0, 0, 0, 0, 0, 0, 0,0.0,0.0,0.0,0.0,0.0,0.0,0.0,0.0,0.0,0.0,0.0,0.0,0.0,24,dependencies\i18n\src\main\java\org\apache\abdera\i18n\text\io\InputStreamDataSource.java,0,0,0,0
org.apache.abdera.i18n.text.io.PeekAheadInputStream, 0, 0, 0, 0, 0, 0, 0, 0, 0, 0, 0, 0, 0, 0,0.0,0.0,0.0,0.0,0.0,0.0,0.0,0.0,0.0,0.0,0.0,0.0,0.0,21,dependencies\i18n\src\main\java\org\apache\abdera\i18n\text\io\PeekAheadInputStream.java,0,0,0,0
org.apache.abdera.i18n.text.io.RewindableInputStream, 0, 0, 0, 0, 0, 0, 0, 0, 0, 0, 0, 0, 0, 0,0.0,0.0,0.0,0.0,0.0,0.0,0.0,0.0,0.0,0.0,0.0,0.0,0.0,76,dependencies\i18n\src\main\java\org\apache\abdera\i18n\text\io\RewindableInputStream.java,0,0,0,0
org.apache.abdera.jcr.JcrCollectionAdapterTest, 0, 0, 0, 0, 0, 0, 0, 0, 0, 0, 0, 0, 0, 0,0.0,0.0,0.0,0.5,0.0,0.0,0.0,0.25,0.0,0.0,0.0,0.0,0.0,104,adapters\jcr\src\test\java\org\apache\abdera\jcr\JcrCollectionAdapterTest.java,0,0,0,0
org.apache.abdera.model.AtomDateTest, 0, 0, 0, 0, 0, 0, 0, 0, 0, 0, 0, 0, 0, 0,0.0,0.0,0.0,0.0,0.0,0.0,0.0,0.0,0.0,0.0,0.0,0.0,0.0,74,core\src\test\java\org\apache\abdera\model\AtomDateTest.java,0,0,0,0
org.apache.abdera.model.Attribute, 0, 0, 0, 0, 0, 0, 0, 0, 0, 0, 0, 0, 0, 0,0.0,0.0,0.0,0.0,0.0,0.0,0.0,0.0,0.0,0.0,0.0,0.0,0.0,74,core\src\main\java\org\apache\abdera\model\Attribute.java,0,0,0,0
org.apache.abdera.model.Base, 0, 0, 0, 0, 0, 0, 0, 0, 0, 0, 0, 0, 0, 0,0.0,0.0,0.0,0.0,0.0,0.0,0.0,0.0,0.0,0.0,0.0,0.0,0.0,74,core\src\main\java\org\apache\abdera\model\Base.java,0,0,0,0
org.apache.abdera.model.Categories, 0, 0, 0, 0, 0, 0, 0, 0, 0, 0, 0, 0, 0, 0,0.0,0.0,0.0,0.0,0.0,0.0,0.0,0.0,0.0,0.0,0.0,0.0,0.0,74,core\src\main\java\org\apache\abdera\model\Categories.java,0,0,0,0
org.apache.abdera.model.Category, 0, 0, 0, 0, 0, 0, 0, 0, 0, 0, 0, 0, 0, 0,0.0,0.0,0.0,0.0,0.0,0.0,0.0,0.0,0.0,0.0,0.0,0.0,0.0,74,core\src\main\java\org\apache\abdera\model\Category.java,0,0,0,0
org.apache.abdera.model.Collection, 0, 0, 0, 0, 0, 0, 0, 0, 0, 0, 0, 0, 0, 0,0.0,0.0,0.0,0.0,0.0,0.0,0.0,0.0,0.0,0.0,0.0,0.0,0.0,74,core\src\main\java\org\apache\abdera\model\Collection.java,0,0,0,0
org.apache.abdera.model.Comment, 0, 0, 0, 0, 0, 0, 0, 0, 0, 0, 0, 0, 0, 0,0.0,0.0,0.0,0.0,0.0,0.0,0.0,0.0,0.0,0.0,0.0,0.0,0.0,74,core\src\main\java\org\apache\abdera\model\Comment.java,0,0,0,0
org.apache.abdera.model.Content, 0, 0, 0, 0, 0, 0, 0, 0, 0, 0, 0, 0, 0, 0,0.0,0.0,0.0,0.0,0.0,0.0,0.0,0.0,0.0,0.0,0.0,0.0,0.0,74,core\src\main\java\org\apache\abdera\model\Content.java,0,0,0,0
org.apache.abdera.model.Control, 0, 0, 0, 0, 0, 0, 0, 0, 0, 0, 0, 0, 0, 0,0.0,0.0,0.0,0.0,0.0,0.0,0.0,0.0,0.0,0.0,0.0,0.0,0.0,74,core\src\main\java\org\apache\abdera\model\Control.java,0,0,0,0
org.apache.abdera.model.DateTime, 0, 0, 0, 0, 0, 0, 0, 0, 0, 0, 0, 0, 0, 0,0.0,0.0,0.0,0.0,0.0,0.0,0.0,0.0,0.0,0.0,0.0,0.0,0.0,74,core\src\main\java\org\apache\abdera\model\DateTime.java,0,0,0,0
org.apache.abdera.model.DateTimeWrapper, 0, 0, 0, 0, 0, 0, 0, 0, 0, 0, 0, 0, 0, 0,0.0,0.0,0.0,0.0,0.0,0.0,0.0,0.0,0.0,0.0,0.0,0.0,0.0,64,core\src\main\java\org\apache\abdera\model\DateTimeWrapper.java,0,0,0,0
org.apache.abdera.model.Div, 0, 0, 0, 0, 0, 0, 0, 0, 0, 0, 0, 0, 0, 0,0.0,0.0,0.0,0.0,0.0,0.0,0.0,0.0,0.0,0.0,0.0,0.0,0.0,64,core\src\main\java\org\apache\abdera\model\Div.java,0,0,0,0
org.apache.abdera.model.Document, 0, 0, 0, 0, 0, 0, 0, 0, 0, 0, 0, 0, 0, 0,0.0,0.0,0.0,0.0,0.0,0.0,0.0,0.0,0.0,0.0,0.0,0.0,0.0,64,core\src\main\java\org\apache\abdera\model\Document.java,0,0,0,0
org.apache.abdera.model.Entry, 0, 0, 0, 0, 0, 0, 0, 0, 0, 0, 0, 0, 0, 0,0.0,0.0,0.0,0.0,0.0,0.0,0.0,0.0,0.0,0.0,0.0,0.0,0.0,64,core\src\main\java\org\apache\abdera\model\Entry.java,0,0,0,0
org.apache.abdera.model.ExtensibleElement, 0, 0, 0, 0, 0, 0, 0, 0, 0, 0, 0, 0, 0, 0,0.0,0.0,0.0,0.0,0.0,0.0,0.0,0.0,0.0,0.0,0.0,0.0,0.0,64,core\src\main\java\org\apache\abdera\model\ExtensibleElement.java,0,0,0,0
org.apache.abdera.model.ExtensibleElementWrapper, 0, 0, 0, 0, 0, 0, 0, 0, 0, 0, 0, 0, 0, 0,0.0,0.0,0.0,0.20833333333333334,0.0,0.0,0.0,0.08333333333333333,0.0,0.0,0.0,0.0,0.0,62,core\src\main\java\org\apache\abdera\model\ExtensibleElementWrapper.java,0,0,0,0
org.apache.abdera.model.Generator, 0, 0, 0, 0, 0, 0, 0, 0, 0, 0, 0, 0, 0, 0,0.0,0.0,0.0,0.0,0.0,0.0,0.0,0.0,0.0,0.0,0.0,0.0,0.0,62,core\src\main\java\org\apache\abdera\model\Generator.java,0,0,0,0
org.apache.abdera.model.IRIElement, 0, 0, 0, 0, 0, 0, 0, 0, 0, 0, 0, 0, 0, 0,0.0,0.0,0.0,0.0,0.0,0.0,0.0,0.0,0.0,0.0,0.0,0.0,0.0,62,core\src\main\java\org\apache\abdera\model\IRIElement.java,0,0,0,0
org.apache.abdera.model.Link, 0, 0, 0, 0, 0, 0, 0, 0, 0, 0, 0, 0, 0, 0,0.0,0.0,0.0,0.0,0.0,0.0,0.0,0.0,0.0,0.0,0.0,0.0,0.0,62,core\src\main\java\org\apache\abdera\model\Link.java,0,0,0,0
org.apache.abdera.model.Person, 0, 0, 0, 0, 0, 0, 0, 0, 0, 0, 0, 0, 0, 0,0.0,0.0,0.0,0.0,0.0,0.0,0.0,0.0,0.0,0.0,0.0,0.0,0.0,62,core\src\main\java\org\apache\abdera\model\Person.java,0,0,0,0
org.apache.abdera.model.PersonWrapper, 0, 0, 0, 0, 0, 0, 0, 0, 0, 0, 0, 0, 0, 0,0.0,0.0,0.0,0.0,0.0,0.0,0.0,0.0,0.0,0.0,0.0,0.0,0.0,98,core\src\main\java\org\apache\abdera\model\PersonWrapper.java,0,0,0,0
org.apache.abdera.model.ProcessingInstruction, 0, 0, 0, 0, 0, 0, 0, 0, 0, 0, 0, 0, 0, 0,0.0,0.0,0.0,0.0,0.0,0.0,0.0,0.0,0.0,0.0,0.0,0.0,0.0,98,core\src\main\java\org\apache\abdera\model\ProcessingInstruction.java,0,0,0,0
org.apache.abdera.model.Service, 0, 0, 0, 0, 0, 0, 0, 0, 0, 0, 0, 0, 0, 0,0.0,0.0,0.0,0.0,0.0,0.0,0.0,0.0,0.0,0.0,0.0,0.0,0.0,98,core\src\main\java\org\apache\abdera\model\Service.java,0,0,0,0
org.apache.abdera.model.Source, 0, 0, 0, 0, 0, 0, 0, 0, 0, 0, 0, 0, 0, 0,0.0,0.0,0.0,0.0,0.0,0.0,0.0,0.0,0.0,0.0,0.0,0.0,0.0,98,core\src\main\java\org\apache\abdera\model\Source.java,0,0,0,0
org.apache.abdera.model.Text, 0, 0, 0, 0, 0, 0, 0, 0, 0, 0, 0, 0, 0, 0,0.0,0.0,0.0,0.0,0.0,0.0,0.0,0.0,0.0,0.0,0.0,0.0,0.0,98,core\src\main\java\org\apache\abdera\model\Text.java,0,0,0,0
org.apache.abdera.model.TextValue, 0, 0, 0, 0, 0, 0, 0, 0, 0, 0, 0, 0, 0, 0,0.0,0.0,0.0,0.0,0.0,0.0,0.0,0.0,0.0,0.0,0.0,0.0,0.0,98,core\src\main\java\org\apache\abdera\model\TextValue.java,0,0,0,0
org.apache.abdera.model.Workspace, 0, 0, 0, 0, 0, 0, 0, 0, 0, 0, 0, 0, 0, 0,0.0,0.0,0.0,0.0,0.0,0.0,0.0,0.0,0.0,0.0,0.0,0.0,0.0,98,core\src\main\java\org\apache\abdera\model\Workspace.java,0,0,0,0
org.apache.abdera.parser.NamedParser, 0, 0, 0, 0, 0, 0, 0, 0, 0, 0, 0, 0, 0, 0,0.0,0.0,0.0,0.0,0.0,0.0,0.0,0.0,0.0,0.0,0.0,0.0,0.0,98,core\src\main\java\org\apache\abdera\parser\NamedParser.java,0,0,0,0
org.apache.abdera.parser.ParseException, 0, 0, 0, 0, 0, 0, 0, 0, 0, 0, 0, 0, 0, 0,0.0,0.0,0.0,0.0,0.0,0.0,0.0,0.0,0.0,0.0,0.0,0.0,0.0,15,core\src\main\java\org\apache\abdera\parser\ParseException.java,0,0,0,0
org.apache.abdera.parser.Parser, 0, 0, 0, 0, 0, 0, 0, 0, 0, 0, 0, 0, 0, 0,0.0,0.0,0.0,0.0,0.0,0.0,0.0,0.0,0.0,0.0,0.0,0.0,0.0,15,core\src\main\java\org\apache\abdera\parser\Parser.java,0,0,0,0
org.apache.abdera.parser.ParserFactory, 0, 0, 0, 0, 0, 0, 0, 0, 0, 0, 0, 0, 0, 0,0.0,0.0,0.0,0.0,0.0,0.0,0.0,0.0,0.0,0.0,0.0,0.0,0.0,15,core\src\main\java\org\apache\abdera\parser\ParserFactory.java,0,0,0,0
org.apache.abdera.parser.stax.FOMAttribute, 0, 0, 0, 0, 0, 0, 0, 0, 0, 0, 0, 0, 0, 0,0.0,0.0,0.0,0.0,0.0,0.0,0.0,0.0,0.0,0.0,0.0,0.0,0.0,42,parser\src\main\java\org\apache\abdera\parser\stax\FOMAttribute.java,0,0,0,0
org.apache.abdera.parser.stax.FOMCategories, 0, 0, 0, 1, 0, 0, 0, 0, 0, 0, 0, 0, 0, 1,0.0,0.0,0.0,0.5,0.0,0.0,0.0,0.0,0.0,0.0,0.0,0.0,0.0,134,parser\src\main\java\org\apache\abdera\parser\stax\FOMCategories.java,3,0,2,7
org.apache.abdera.parser.stax.FOMCategory, 0, 0, 0, 0, 0, 0, 0, 0, 0, 0, 0, 0, 0, 0,0.0,0.0,0.0,0.5,0.0,0.0,0.0,0.0,0.0,0.0,0.0,0.0,0.0,75,parser\src\main\java\org\apache\abdera\parser\stax\FOMCategory.java,17,0,2,21
org.apache.abdera.parser.stax.FOMCollection, 0, 0, 0, 1, 0, 0, 0, 0, 0, 0, 0, 0, 0, 1,0.0,0.0,0.0,0.5,0.0,0.0,0.0,0.0,0.0,0.0,0.0,0.0,0.0,198,parser\src\main\java\org\apache\abdera\parser\stax\FOMCollection.java,13,0,2,17
org.apache.abdera.parser.stax.FOMComment, 0, 0, 0, 0, 0, 0, 0, 0, 0, 0, 0, 0, 0, 0,0.0,0.0,0.0,1.0,0.0,0.0,0.0,0.0,0.0,0.0,0.0,0.0,0.0,36,parser\src\main\java\org\apache\abdera\parser\stax\FOMComment.java,3,0,3,9
org.apache.abdera.parser.stax.FOMContent, 0, 0, 0, 1, 0, 0, 0, 1, 0, 0, 0, 0, 0, 2,0.0,0.0,0.0,0.3333333333333333,0.0,0.0,0.0,0.0,0.0,0.0,0.0,0.0,0.0,307,parser\src\main\java\org\apache\abdera\parser\stax\FOMContent.java,8,0,2,12
org.apache.abdera.parser.stax.FOMControl, 0, 0, 0, 0, 0, 0, 0, 0, 0, 0, 0, 0, 0, 0,0.0,0.0,0.0,0.5,0.0,0.0,0.0,0.0,0.0,0.0,0.0,0.0,0.0,39,parser\src\main\java\org\apache\abdera\parser\stax\FOMControl.java,7,0,2,11
org.apache.abdera.parser.stax.FOMDateTime, 0, 0, 0, 0, 0, 0, 0, 0, 0, 0, 0, 0, 0, 0,0.0,0.0,0.0,1.0,0.0,0.0,0.0,0.0,0.0,0.0,0.0,0.0,0.0,104,parser\src\main\java\org\apache\abdera\parser\stax\FOMDateTime.java,23,0,2,27
org.apache.abdera.parser.stax.FOMDocument, 0, 0, 0, 1, 0, 0, 0, 0, 0, 0, 0, 0, 0, 1,0.0,0.0,0.0,0.42857142857142855,0.0,0.0,0.0,0.0,0.0,0.0,0.0,0.0,0.0,254,parser\src\main\java\org\apache\abdera\parser\stax\FOMDocument.java,6,0,4,14
org.apache.abdera.parser.stax.FOMException, 0, 0, 0, 0, 0, 0, 0, 0, 0, 0, 0, 0, 0, 0,0.0,0.0,0.0,0.0,0.0,0.0,0.0,0.0,0.0,0.0,0.0,0.0,0.0,15,parser\src\main\java\org\apache\abdera\parser\stax\FOMException.java,0,0,0,0
org.apache.abdera.parser.stax.FOMExtensibleElement, 0, 0, 0, 0, 0, 0, 0, 0, 0, 0, 0, 0, 0, 0,0.0,0.0,0.0,0.45454545454545453,0.0,0.0,0.0,0.18181818181818182,0.0,0.0,0.0,0.0,0.0,131,parser\src\main\java\org\apache\abdera\parser\stax\FOMExtensibleElement.java,4,0,2,8
org.apache.abdera.parser.stax.FOMFactory, 0, 0, 0, 1, 0, 0, 0, 0, 0, 0, 0, 0, 0, 1,0.0,0.0,0.0,0.24,0.0,0.0,0.0,0.16,0.0,0.0,0.0,0.0,0.0,581,parser\src\main\java\org\apache\abdera\parser\stax\FOMFactory.java,74,10,35,154
org.apache.abdera.parser.stax.FOMGenerator, 0, 0, 0, 0, 0, 0, 0, 0, 0, 0, 0, 0, 0, 0,0.0,0.0,0.0,1.0,0.0,0.0,0.0,0.0,0.0,0.0,0.0,0.0,0.0,54,parser\src\main\java\org\apache\abdera\parser\stax\FOMGenerator.java,14,0,2,18
org.apache.abdera.parser.stax.FOMIRI, 0, 0, 0, 0, 0, 0, 0, 0, 0, 0, 0, 0, 0, 0,0.0,0.0,0.0,1.0,0.0,0.0,0.0,0.0,0.0,0.0,0.0,0.0,0.0,40,parser\src\main\java\org\apache\abdera\parser\stax\FOMIRI.java,7,0,2,11
org.apache.abdera.parser.stax.FOMMetaFactory, 0, 0, 0, 0, 0, 0, 0, 0, 0, 0, 0, 0, 0, 0,0.0,0.0,0.0,0.0,0.0,0.0,0.0,0.0,0.0,0.0,0.0,0.0,0.0,14,parser\src\main\java\org\apache\abdera\parser\stax\FOMMetaFactory.java,11,0,2,15
org.apache.abdera.parser.stax.FOMParser, 0, 0, 0, 0, 0, 0, 0, 0, 0, 0, 0, 0, 0, 0,0.0,0.0,0.0,0.2222222222222222,0.0,0.0,0.0,0.0,0.0,0.0,0.0,0.0,0.0,143,parser\src\main\java\org\apache\abdera\parser\stax\FOMParser.java,0,0,0,0
org.apache.abdera.parser.stax.FOMParserOptions, 0, 0, 0, 0, 0, 0, 0, 0, 0, 0, 0, 0, 0, 0,0.0,0.0,0.0,0.25,0.0,0.0,0.0,0.0,0.0,0.0,0.0,0.0,0.0,14,parser\src\main\java\org\apache\abdera\parser\stax\FOMParserOptions.java,0,0,0,0
org.apache.abdera.parser.stax.FOMPerson, 0, 0, 0, 0, 0, 0, 0, 0, 0, 0, 0, 0, 0, 0,0.0,0.0,0.0,0.5,0.0,0.0,0.0,0.0,0.0,0.0,0.0,0.0,0.0,112,parser\src\main\java\org\apache\abdera\parser\stax\FOMPerson.java,15,0,2,19
org.apache.abdera.parser.stax.FOMProcessingInstruction, 0, 0, 0, 0, 0, 0, 0, 0, 0, 0, 0, 0, 0, 0,0.0,0.0,0.0,1.0,0.0,0.0,0.0,0.0,0.0,0.0,0.0,0.0,0.0,41,parser\src\main\java\org\apache\abdera\parser\stax\FOMProcessingInstruction.java,5,0,3,11
org.apache.abdera.parser.stax.FOMService, 0, 0, 0, 0, 0, 0, 0, 0, 0, 0, 0, 0, 0, 0,0.0,0.0,0.0,0.6666666666666666,0.0,0.0,0.0,0.0,0.0,0.0,0.0,0.0,0.0,102,parser\src\main\java\org\apache\abdera\parser\stax\FOMService.java,5,0,2,9
org.apache.abdera.parser.stax.FOMSource, 0, 0, 0, 1, 0, 0, 0, 1, 0, 0, 0, 0, 0, 2,0.0,0.0,0.0,0.25,0.0,0.0,0.0,0.0,0.0,0.0,0.0,0.0,0.0,502,parser\src\main\java\org\apache\abdera\parser\stax\FOMSource.java,7,0,2,11
org.apache.abdera.parser.stax.FOMText, 0, 0, 0, 0, 0, 0, 0, 1, 0, 0, 0, 0, 0, 1,0.0,0.0,0.0,1.0,0.0,0.0,0.0,0.0,0.0,0.0,0.0,0.0,0.0,175,parser\src\main\java\org\apache\abdera\parser\stax\FOMText.java,4,0,2,8
org.apache.abdera.parser.stax.FOMTextValue, 0, 0, 0, 0, 0, 0, 0, 1, 0, 0, 0, 0, 0, 1,0.0,0.0,0.0,1.0,0.0,0.0,0.0,0.0,0.0,0.0,0.0,0.0,0.0,58,parser\src\main\java\org\apache\abdera\parser\stax\FOMTextValue.java,5,11,22,60
org.apache.abdera.parser.stax.FOMUnsupportedContentTypeException, 0, 0, 0, 0, 0, 0, 0, 0, 0, 0, 0, 0, 0, 0,0.0,0.0,0.0,0.0,0.0,0.0,0.0,0.0,0.0,0.0,0.0,0.0,0.0,6,parser\src\main\java\org\apache\abdera\parser\stax\FOMUnsupportedContentTypeException.java,0,0,0,0
org.apache.abdera.parser.stax.FOMUnsupportedTextTypeException, 0, 0, 0, 0, 0, 0, 0, 0, 0, 0, 0, 0, 0, 0,0.0,0.0,0.0,0.0,0.0,0.0,0.0,0.0,0.0,0.0,0.0,0.0,0.0,6,parser\src\main\java\org\apache\abdera\parser\stax\FOMUnsupportedTextTypeException.java,0,0,0,0
org.apache.abdera.parser.stax.FOMWorkspace, 0, 0, 0, 0, 0, 0, 0, 0, 0, 0, 0, 0, 0, 0,0.0,0.0,0.0,0.5,0.0,0.0,0.0,0.0,0.0,0.0,0.0,0.0,0.0,143,parser\src\main\java\org\apache\abdera\parser\stax\FOMWorkspace.java,11,0,2,15
org.apache.abdera.parser.stax.FOMWriter, 0, 0, 0, 0, 0, 0, 0, 0, 0, 0, 0, 0, 0, 0,0.0,0.0,0.0,0.6666666666666666,0.0,0.0,0.0,0.0,0.0,0.0,0.0,0.0,0.0,61,parser\src\main\java\org\apache\abdera\parser\stax\FOMWriter.java,0,0,0,0
org.apache.abdera.parser.stax.FOMWriterOptions, 0, 0, 0, 0, 0, 1, 0, 0, 0, 0, 0, 0, 0, 1,0.0,0.0,0.0,0.0,0.0,0.0,0.0,0.0,0.0,0.0,0.0,0.0,0.0,2,parser\src\main\java\org\apache\abdera\parser\stax\FOMWriterOptions.java,0,0,0,0
org.apache.abdera.parser.stax.util.FOMElementIterator, 0, 0, 0, 0, 0, 0, 0, 1, 0, 0, 0, 0, 0, 1,0.0,0.0,0.0,0.3333333333333333,0.0,0.0,0.0,0.6666666666666666,0.0,0.0,0.0,0.0,0.0,56,parser\src\main\java\org\apache\abdera\parser\stax\util\FOMElementIterator.java,29,1,6,42
org.apache.abdera.parser.stax.util.FOMExtensionIterator, 0, 0, 0, 0, 0, 0, 0, 0, 0, 0, 0, 0, 0, 0,0.0,0.0,0.0,0.5,0.0,0.0,0.0,0.0,0.0,0.0,0.0,0.0,0.0,50,parser\src\main\java\org\apache\abdera\parser\stax\util\FOMExtensionIterator.java,23,2,10,45
org.apache.abdera.parser.stax.util.FOMHelper, 0, 0, 0, 0, 0, 0, 0, 0, 0, 0, 0, 0, 0, 0,0.0,0.0,0.0,0.5714285714285714,0.0,0.0,0.0,0.5714285714285714,0.0,0.0,0.0,0.0,0.0,21,parser\src\main\java\org\apache\abdera\parser\stax\util\FOMHelper.java,0,0,2,4
org.apache.abdera.parser.stax.util.FOMLinkIterator, 0, 0, 0, 0, 0, 0, 0, 1, 0, 0, 0, 0, 0, 1,0.0,0.0,0.0,0.0,0.0,0.0,0.0,0.5,0.0,0.0,0.0,0.0,0.0,16,parser\src\main\java\org\apache\abdera\parser\stax\util\FOMLinkIterator.java,0,0,0,0
org.apache.abdera.parser.stax.util.FOMSniffingInputStream, 0, 0, 0, 0, 0, 0, 0, 0, 0, 0, 0, 0, 0, 0,0.0,0.0,0.0,0.0,0.0,0.0,0.0,0.0,0.0,0.0,0.0,0.0,0.0,20,parser\src\main\java\org\apache\abdera\parser\stax\util\FOMSniffingInputStream.java,0,0,0,0
org.apache.abdera.parser.stax.util.FOMXmlRestrictedCharReader, 0, 0, 0, 0, 0, 0, 0, 0, 0, 0, 0, 0, 0, 0,0.0,0.0,0.0,0.0,0.0,0.0,0.0,0.0,0.0,0.0,0.0,0.0,0.0,40,parser\src\main\java\org\apache\abdera\parser\stax\util\FOMXmlRestrictedCharReader.java,0,0,0,0
org.apache.abdera.parser.stax.util.FOMXmlVersionInputStream, 0, 0, 0, 0, 0, 0, 0, 0, 0, 0, 0, 0, 0, 0,0.0,0.0,0.0,0.0,0.0,0.0,0.0,0.0,0.0,0.0,0.0,0.0,0.0,28,parser\src\main\java\org\apache\abdera\parser\stax\util\FOMXmlVersionInputStream.java,0,0,0,0
org.apache.abdera.parser.stax.util.PrettyWriter, 0, 0, 0, 0, 0, 0, 0, 0, 0, 0, 0, 0, 0, 0,0.0,0.0,0.0,0.0,0.0,0.0,0.0,0.0,0.0,0.0,0.0,0.0,0.0,202,parser\src\main\java\org\apache\abdera\parser\stax\util\PrettyWriter.java,0,0,0,0
org.apache.abdera.parser.stax.util.ResolveFunction, 0, 0, 0, 0, 0, 0, 0, 0, 0, 0, 0, 0, 0, 0,0.0,0.0,0.0,0.0,0.0,0.0,0.0,0.0,0.0,0.0,0.0,0.0,0.0,48,parser\src\main\java\org\apache\abdera\parser\stax\util\ResolveFunction.java,0,0,0,0
org.apache.abdera.protocol.EntityProvider, 0, 0, 0, 0, 0, 0, 0, 0, 0, 0, 0, 0, 0, 0,0.0,0.0,0.0,0.0,0.0,0.0,0.0,0.0,0.0,0.0,0.0,0.0,0.0,48,core\src\main\java\org\apache\abdera\protocol\EntityProvider.java,0,0,0,0
org.apache.abdera.protocol.ItemManager, 0, 0, 0, 0, 0, 0, 0, 0, 0, 0, 0, 0, 0, 0,0.0,0.0,0.0,0.0,0.0,0.0,0.0,0.0,0.0,0.0,0.0,0.0,0.0,48,core\src\main\java\org\apache\abdera\protocol\ItemManager.java,0,0,0,0
org.apache.abdera.protocol.Message, 0, 0, 0, 0, 0, 0, 0, 0, 0, 0, 0, 0, 0, 0,0.0,0.0,0.0,0.0,0.0,0.0,0.0,0.0,0.0,0.0,0.0,0.0,0.0,48,core\src\main\java\org\apache\abdera\protocol\Message.java,0,0,0,0
org.apache.abdera.protocol.Request, 0, 0, 0, 0, 0, 0, 0, 0, 0, 0, 0, 0, 0, 0,0.0,0.0,0.0,0.0,0.0,0.0,0.0,0.0,0.0,0.0,0.0,0.0,0.0,48,core\src\main\java\org\apache\abdera\protocol\Request.java,0,0,0,0
org.apache.abdera.protocol.Resolver, 0, 0, 0, 0, 0, 0, 0, 0, 0, 0, 0, 0, 0, 0,0.0,0.0,0.0,0.0,0.0,0.0,0.0,0.0,0.0,0.0,0.0,0.0,0.0,48,core\src\main\java\org\apache\abdera\protocol\Resolver.java,0,0,0,0
org.apache.abdera.protocol.Response, 0, 0, 0, 0, 0, 0, 0, 0, 0, 0, 0, 0, 0, 0,0.0,0.0,0.0,0.0,0.0,0.0,0.0,0.0,0.0,0.0,0.0,0.0,0.0,48,core\src\main\java\org\apache\abdera\protocol\Response.java,0,0,0,0
org.apache.abdera.protocol.client.AbstractClientResponse, 0, 0, 0, 0, 0, 0, 0, 0, 0, 0, 0, 0, 0, 0,0.0,0.0,0.0,0.5,0.0,0.0,0.0,0.0,0.0,0.0,0.0,0.0,0.0,107,client\src\main\java\org\apache\abdera\protocol\client\AbstractClientResponse.java,0,0,0,0
org.apache.abdera.protocol.client.ClientResponse, 0, 0, 0, 0, 0, 0, 0, 0, 0, 0, 0, 0, 0, 0,0.0,0.0,0.0,0.0,0.0,0.0,0.0,0.0,0.0,0.0,0.0,0.0,0.0,107,client\src\main\java\org\apache\abdera\protocol\client\ClientResponse.java,0,0,0,0
org.apache.abdera.protocol.client.cache.AbstractCache, 0, 0, 0, 0, 0, 0, 0, 0, 0, 0, 0, 0, 0, 0,0.0,0.0,0.0,0.3333333333333333,0.0,0.0,0.0,0.0,0.0,0.0,0.0,0.0,0.0,94,client\src\main\java\org\apache\abdera\protocol\client\cache\AbstractCache.java,0,0,0,0
org.apache.abdera.protocol.client.cache.CacheFactory, 0, 0, 0, 0, 0, 0, 0, 0, 0, 0, 0, 0, 0, 0,0.0,0.0,0.0,0.0,0.0,0.0,0.0,0.0,0.0,0.0,0.0,0.0,0.0,94,client\src\main\java\org\apache\abdera\protocol\client\cache\CacheFactory.java,0,0,0,0
org.apache.abdera.protocol.client.cache.CachedResponse, 0, 0, 0, 0, 0, 0, 0, 0, 0, 0, 0, 0, 0, 0,0.0,0.0,0.0,0.0,0.0,0.0,0.0,0.0,0.0,0.0,0.0,0.0,0.0,94,client\src\main\java\org\apache\abdera\protocol\client\cache\CachedResponse.java,0,0,0,0
org.apache.abdera.protocol.client.cache.CachedResponseBase, 0, 0, 0, 0, 0, 0, 0, 0, 0, 0, 0, 0, 0, 0,0.0,0.0,0.0,0.5,0.0,0.0,0.0,0.0,0.0,0.0,0.0,0.0,0.0,66,client\src\main\java\org\apache\abdera\protocol\client\cache\CachedResponseBase.java,0,0,0,0
org.apache.abdera.protocol.client.cache.LRUCache, 0, 0, 0, 0, 0, 0, 0, 0, 0, 0, 0, 0, 0, 0,0.0,0.0,0.0,0.5,0.0,0.0,0.0,0.0,0.0,0.0,0.0,0.0,0.0,9,client\src\main\java\org\apache\abdera\protocol\client\cache\LRUCache.java,0,0,0,0
org.apache.abdera.protocol.client.cache.LRUCacheFactory, 0, 0, 0, 0, 0, 0, 0, 0, 0, 0, 0, 0, 0, 0,0.0,0.0,0.0,0.5,0.0,0.0,0.0,0.0,0.0,0.0,0.0,0.0,0.0,9,client\src\main\java\org\apache\abdera\protocol\client\cache\LRUCacheFactory.java,0,0,0,0
org.apache.abdera.protocol.client.util.AutoReleasingInputStream, 0, 0, 0, 0, 0, 0, 0, 0, 0, 0, 0, 0, 0, 0,0.0,0.0,0.0,0.0,0.0,0.0,0.0,0.0,0.0,0.0,0.0,0.0,0.0,39,client\src\main\java\org\apache\abdera\protocol\client\util\AutoReleasingInputStream.java,0,0,0,0
org.apache.abdera.protocol.client.util.BaseRequestEntity, 0, 0, 0, 0, 0, 0, 0, 0, 0, 0, 0, 0, 0, 0,0.0,0.0,0.0,0.0,0.0,0.0,0.0,0.0,0.0,0.0,0.0,0.0,0.0,43,client\src\main\java\org\apache\abdera\protocol\client\util\BaseRequestEntity.java,0,0,0,0
org.apache.abdera.protocol.client.util.ClientAuthSSLProtocolSocketFactory, 0, 0, 0, 0, 0, 0, 0, 1, 0, 0, 0, 0, 0, 1,0.0,0.0,0.0,0.0,0.0,0.0,0.0,0.0,0.0,0.0,0.0,0.0,0.0,72,client\src\main\java\org\apache\abdera\protocol\client\util\ClientAuthSSLProtocolSocketFactory.java,0,0,0,0
org.apache.abdera.protocol.client.util.DataSourceRequestEntity, 0, 0, 0, 0, 0, 0, 0, 0, 0, 0, 0, 0, 0, 0,0.0,0.0,0.0,0.0,0.0,0.0,0.0,0.0,0.0,0.0,0.0,0.0,0.0,27,client\src\main\java\org\apache\abdera\protocol\client\util\DataSourceRequestEntity.java,0,0,0,0
org.apache.abdera.protocol.client.util.EntityProviderRequestEntity, 0, 0, 0, 0, 0, 0, 0, 0, 0, 0, 0, 0, 0, 0,0.0,0.0,0.0,1.0,0.0,0.0,0.0,0.0,0.0,0.0,0.0,0.0,0.0,59,client\src\main\java\org\apache\abdera\protocol\client\util\EntityProviderRequestEntity.java,0,0,0,0
org.apache.abdera.protocol.client.util.MultipartRelatedRequestEntity, 0, 0, 0, 0, 0, 0, 0, 0, 0, 0, 0, 0, 0, 0,0.0,0.0,0.0,0.0,0.0,0.0,0.0,0.0,0.0,0.0,0.0,0.0,0.0,58,client\src\main\java\org\apache\abdera\protocol\client\util\MultipartRelatedRequestEntity.java,0,0,0,0
org.apache.abdera.protocol.client.util.NonOpTrustManager, 0, 0, 0, 0, 0, 0, 0, 0, 0, 0, 0, 0, 0, 0,0.0,0.0,0.0,0.0,0.0,0.0,0.0,0.0,0.0,0.0,0.0,0.0,0.0,9,client\src\main\java\org\apache\abdera\protocol\client\util\NonOpTrustManager.java,0,0,0,0
org.apache.abdera.protocol.client.util.SimpleSSLProtocolSocketFactory, 0, 0, 0, 0, 0, 0, 0, 1, 0, 0, 0, 0, 0, 1,0.0,0.0,0.0,0.0,0.0,0.0,0.0,0.0,0.0,0.0,0.0,0.0,0.0,31,client\src\main\java\org\apache\abdera\protocol\client\util\SimpleSSLProtocolSocketFactory.java,0,0,0,0
org.apache.abdera.protocol.error.Error, 0, 0, 0, 0, 0, 0, 0, 0, 0, 0, 0, 0, 0, 0,0.0,0.0,0.0,0.3333333333333333,0.0,0.0,0.0,0.0,0.0,0.0,0.0,0.0,0.0,65,core\src\main\java\org\apache\abdera\protocol\error\Error.java,0,0,0,0
org.apache.abdera.protocol.error.ErrorExtensionFactory, 0, 0, 0, 0, 0, 1, 0, 0, 0, 0, 0, 0, 0, 1,0.0,0.0,0.0,0.0,0.0,0.0,0.0,0.0,0.0,0.0,0.0,0.0,0.0,6,core\src\main\java\org\apache\abdera\protocol\error\ErrorExtensionFactory.java,0,0,0,0
org.apache.abdera.protocol.error.ProtocolException, 0, 0, 0, 0, 0, 0, 0, 0, 0, 0, 0, 0, 0, 0,0.0,0.0,0.0,0.5,0.0,0.0,0.0,0.0,0.0,0.0,0.0,0.0,0.0,47,core\src\main\java\org\apache\abdera\protocol\error\ProtocolException.java,0,0,0,0
org.apache.abdera.protocol.server.CategoryInfo, 0, 0, 0, 0, 0, 0, 0, 0, 0, 0, 0, 0, 0, 0,0.0,0.0,0.0,0.0,0.0,0.0,0.0,0.0,0.0,0.0,0.0,0.0,0.0,47,server\src\main\java\org\apache\abdera\protocol\server\CategoryInfo.java,0,0,0,0
org.apache.abdera.protocol.server.CollectionAdapter, 0, 0, 0, 0, 0, 0, 0, 0, 0, 0, 0, 0, 0, 0,0.0,0.0,0.0,0.0,0.0,0.0,0.0,0.0,0.0,0.0,0.0,0.0,0.0,47,server\src\main\java\org\apache\abdera\protocol\server\CollectionAdapter.java,0,0,0,0
org.apache.abdera.protocol.server.CollectionInfo, 0, 0, 0, 0, 0, 0, 0, 0, 0, 0, 0, 0, 0, 0,0.0,0.0,0.0,0.0,0.0,0.0,0.0,0.0,0.0,0.0,0.0,0.0,0.0,47,server\src\main\java\org\apache\abdera\protocol\server\CollectionInfo.java,0,0,0,0
org.apache.abdera.protocol.server.Filter, 0, 0, 0, 0, 0, 0, 0, 0, 0, 0, 0, 0, 0, 0,0.0,0.0,0.0,0.0,0.0,0.0,0.0,0.0,0.0,0.0,0.0,0.0,0.0,47,server\src\main\java\org\apache\abdera\protocol\server\Filter.java,0,0,0,0
org.apache.abdera.protocol.server.FilterChain, 0, 0, 0, 0, 0, 0, 0, 0, 0, 0, 0, 0, 0, 0,0.0,0.0,0.0,0.16666666666666666,0.0,0.0,0.0,0.16666666666666666,0.0,0.0,0.0,0.0,0.0,11,server\src\main\java\org\apache\abdera\protocol\server\FilterChain.java,0,0,0,0
org.apache.abdera.protocol.server.MediaCollectionAdapter, 0, 0, 0, 0, 0, 0, 0, 0, 0, 0, 0, 0, 0, 0,0.0,0.0,0.0,0.0,0.0,0.0,0.0,0.0,0.0,0.0,0.0,0.0,0.0,11,server\src\main\java\org\apache\abdera\protocol\server\MediaCollectionAdapter.java,0,0,0,0
org.apache.abdera.protocol.server.RequestContext, 0, 0, 0, 0, 0, 0, 0, 0, 0, 0, 0, 0, 0, 0,0.0,0.0,0.0,0.0,0.0,0.0,0.0,0.0,0.0,0.0,0.0,0.0,0.0,11,server\src\main\java\org\apache\abdera\protocol\server\RequestContext.java,0,0,0,0
org.apache.abdera.protocol.server.RequestProcessor, 0, 0, 0, 0, 0, 0, 0, 0, 0, 0, 0, 0, 0, 0,0.0,0.0,0.0,0.0,0.0,0.0,0.0,0.0,0.0,0.0,0.0,0.0,0.0,11,server\src\main\java\org\apache\abdera\protocol\server\RequestProcessor.java,0,0,0,0
org.apache.abdera.protocol.server.ResponseContext, 0, 0, 0, 0, 0, 0, 0, 0, 0, 0, 0, 0, 0, 0,0.0,0.0,0.0,0.0,0.0,0.0,0.0,0.0,0.0,0.0,0.0,0.0,0.0,11,server\src\main\java\org\apache\abdera\protocol\server\ResponseContext.java,0,0,0,0
org.apache.abdera.protocol.server.TargetBuilder, 0, 0, 0, 0, 0, 0, 0, 0, 0, 0, 0, 0, 0, 0,0.0,0.0,0.0,0.0,0.0,0.0,0.0,0.0,0.0,0.0,0.0,0.0,0.0,11,server\src\main\java\org\apache\abdera\protocol\server\TargetBuilder.java,0,0,0,0
org.apache.abdera.protocol.server.Transactional, 0, 0, 0, 0, 0, 0, 0, 0, 0, 0, 0, 0, 0, 0,0.0,0.0,0.0,0.0,0.0,0.0,0.0,0.0,0.0,0.0,0.0,0.0,0.0,11,server\src\main\java\org\apache\abdera\protocol\server\Transactional.java,0,0,0,0
org.apache.abdera.protocol.server.WorkspaceInfo, 0, 0, 0, 0, 0, 0, 0, 0, 0, 0, 0, 0, 0, 0,0.0,0.0,0.0,0.0,0.0,0.0,0.0,0.0,0.0,0.0,0.0,0.0,0.0,11,server\src\main\java\org\apache\abdera\protocol\server\WorkspaceInfo.java,0,0,0,0
org.apache.abdera.protocol.server.WorkspaceManager, 0, 0, 0, 0, 0, 0, 0, 0, 0, 0, 0, 0, 0, 0,0.0,0.0,0.0,0.0,0.0,0.0,0.0,0.0,0.0,0.0,0.0,0.0,0.0,11,server\src\main\java\org\apache\abdera\protocol\server\WorkspaceManager.java,0,0,0,0
org.apache.abdera.protocol.server.adapters.hibernate.AtomEntryResultTransformer, 0, 0, 0, 0, 0, 0, 0, 0, 0, 0, 0, 0, 0, 0,0.0,0.0,0.0,0.5,0.0,0.0,0.0,0.0,0.0,0.0,0.0,0.0,0.0,46,adapters\hibernate\src\main\java\org\apache\abdera\protocol\server\adapters\hibernate\AtomEntryResultTransformer.java,0,0,0,0
org.apache.abdera.protocol.server.adapters.hibernate.DummyData, 0, 0, 0, 0, 0, 0, 0, 0, 0, 0, 0, 0, 0, 0,0.0,0.0,0.0,0.0,0.0,0.0,0.0,0.0,0.0,0.0,0.0,0.0,0.0,38,adapters\hibernate\src\test\java\org\apache\abdera\protocol\server\adapters\hibernate\DummyData.java,0,0,0,0
org.apache.abdera.protocol.server.adapters.hibernate.HibernateCollectionAdapterTest, 0, 0, 0, 0, 0, 0, 0, 0, 0, 0, 0, 0, 0, 0,0.0,0.0,0.0,1.0,0.0,0.0,0.0,0.0,0.0,0.0,0.0,0.0,0.0,86,adapters\hibernate\src\test\java\org\apache\abdera\protocol\server\adapters\hibernate\HibernateCollectionAdapterTest.java,0,0,0,0
org.apache.abdera.protocol.server.adapters.hibernate.TestSuite, 0, 0, 0, 0, 0, 0, 0, 0, 0, 0, 0, 0, 0, 0,0.0,0.0,0.0,0.0,0.0,0.0,0.0,0.0,0.0,0.0,0.0,0.0,0.0,7,adapters\hibernate\src\test\java\org\apache\abdera\protocol\server\adapters\hibernate\TestSuite.java,0,0,0,0
org.apache.abdera.protocol.server.adapters.jcr.JcrCollectionAdapter, 0, 0, 0, 1, 0, 0, 0, 1, 0, 0, 0, 0, 0, 2,0.0,0.0,0.0,0.16666666666666666,0.0,0.0,0.0,0.16666666666666666,0.0,0.0,0.0,0.0,0.0,427,adapters\jcr\src\main\java\org\apache\abdera\protocol\server\adapters\jcr\JcrCollectionAdapter.java,0,0,0,0
org.apache.abdera.protocol.server.adapters.jcr.SessionPoolManager, 0, 0, 0, 0, 0, 0, 0, 0, 0, 0, 0, 0, 0, 0,0.0,0.0,0.0,0.5,0.0,0.0,0.0,0.5,0.0,0.0,0.0,0.0,0.0,20,adapters\jcr\src\main\java\org\apache\abdera\protocol\server\adapters\jcr\SessionPoolManager.java,0,0,0,0
org.apache.abdera.protocol.server.context.AbstractRequestContext, 0, 0, 0, 1, 0, 0, 0, 0, 0, 0, 0, 0, 0, 1,0.0,0.0,0.0,0.2,0.0,0.0,0.0,0.0,0.0,0.0,0.0,0.0,0.0,112,server\src\main\java\org\apache\abdera\protocol\server\context\AbstractRequestContext.java,0,0,0,0
org.apache.abdera.protocol.server.context.BaseResponseContext, 0, 0, 0, 0, 0, 0, 0, 0, 0, 0, 0, 0, 0, 0,0.0,0.0,0.0,0.3333333333333333,0.0,0.0,0.0,0.0,0.0,0.0,0.0,0.0,0.0,91,server\src\main\java\org\apache\abdera\protocol\server\context\BaseResponseContext.java,0,0,0,0
org.apache.abdera.protocol.server.context.EmptyResponseContext, 0, 0, 0, 0, 0, 0, 0, 0, 0, 0, 0, 0, 0, 0,0.0,0.0,0.0,0.3333333333333333,0.0,0.0,0.0,0.3333333333333333,0.0,0.0,0.0,0.0,0.0,14,server\src\main\java\org\apache\abdera\protocol\server\context\EmptyResponseContext.java,0,0,0,0
org.apache.abdera.protocol.server.context.EntityProviderResponseContext, 0, 0, 0, 0, 0, 0, 0, 0, 0, 0, 0, 0, 0, 0,0.0,0.0,0.0,0.5,0.0,0.0,0.0,0.0,0.0,0.0,0.0,0.0,0.0,27,server\src\main\java\org\apache\abdera\protocol\server\context\EntityProviderResponseContext.java,0,0,0,0
org.apache.abdera.protocol.server.context.RequestContextWrapper, 0, 0, 0, 1, 0, 0, 0, 0, 0, 0, 0, 0, 0, 1,0.0,0.0,0.0,1.0,0.0,0.0,0.0,0.0,0.0,0.0,0.0,0.0,0.0,186,server\src\main\java\org\apache\abdera\protocol\server\context\RequestContextWrapper.java,0,0,0,0
org.apache.abdera.protocol.server.context.ResponseContextException, 0, 0, 0, 0, 0, 0, 0, 0, 0, 0, 0, 0, 0, 0,0.0,0.0,0.0,0.5,0.0,0.0,0.0,0.5,0.0,0.0,0.0,0.0,0.0,32,server\src\main\java\org\apache\abdera\protocol\server\context\ResponseContextException.java,0,0,0,0
org.apache.abdera.protocol.server.context.ResponseContextWrapper, 0, 0, 0, 1, 0, 0, 0, 0, 0, 0, 0, 0, 0, 1,0.0,0.0,0.0,0.0,0.0,0.0,0.0,0.0,0.0,0.0,0.0,0.0,0.0,232,server\src\main\java\org\apache\abdera\protocol\server\context\ResponseContextWrapper.java,0,0,0,0
org.apache.abdera.protocol.server.context.SimpleResponseContext, 0, 0, 0, 0, 0, 0, 0, 0, 0, 0, 0, 0, 0, 0,0.0,0.0,0.0,0.0,0.0,0.0,0.0,0.0,0.0,0.0,0.0,0.0,0.0,36,server\src\main\java\org\apache\abdera\protocol\server\context\SimpleResponseContext.java,0,0,0,0
org.apache.abdera.protocol.server.context.StreamWriterResponseContext, 0, 0, 0, 0, 0, 0, 0, 0, 0, 0, 0, 0, 0, 0,0.0,0.0,0.0,0.3333333333333333,0.0,0.0,0.0,0.0,0.0,0.0,0.0,0.0,0.0,36,server\src\main\java\org\apache\abdera\protocol\server\context\StreamWriterResponseContext.java,0,0,0,0
org.apache.abdera.protocol.server.filters.CompressionFilter, 0, 0, 0, 0, 0, 0, 0, 0, 0, 0, 0, 0, 0, 0,0.0,0.0,0.0,0.0,0.0,0.0,0.0,0.0,0.0,0.0,0.0,0.0,0.0,49,server\src\main\java\org\apache\abdera\protocol\server\filters\CompressionFilter.java,0,0,0,0
org.apache.abdera.protocol.server.filters.MethodOverrideFilter, 0, 0, 0, 0, 0, 0, 0, 0, 0, 0, 0, 0, 0, 0,0.0,0.0,0.0,0.0,0.0,0.0,0.0,0.0,0.0,0.0,0.0,0.0,0.0,38,server\src\main\java\org\apache\abdera\protocol\server\filters\MethodOverrideFilter.java,0,0,0,0
org.apache.abdera.protocol.server.impl.AbstractWorkspaceManager, 0, 0, 0, 0, 0, 0, 0, 0, 0, 0, 0, 0, 0, 0,0.0,0.0,0.0,0.0,0.0,0.0,0.0,0.0,0.0,0.0,0.0,0.0,0.0,15,server\src\main\java\org\apache\abdera\protocol\server\impl\AbstractWorkspaceManager.java,0,0,0,0
org.apache.abdera.protocol.server.impl.AbstractWorkspaceProvider, 0, 0, 0, 0, 0, 0, 0, 0, 0, 0, 0, 0, 0, 0,0.0,0.0,0.0,0.0,0.0,0.0,0.0,0.0,0.0,0.0,0.0,0.0,0.0,29,server\src\main\java\org\apache\abdera\protocol\server\impl\AbstractWorkspaceProvider.java,0,0,0,0
org.apache.abdera.protocol.server.impl.DefaultProvider, 0, 0, 0, 0, 0, 0, 0, 0, 0, 0, 0, 0, 0, 0,0.0,0.0,0.0,0.0,0.0,0.0,0.0,0.0,0.0,0.0,0.0,0.0,0.0,71,server\src\main\java\org\apache\abdera\protocol\server\impl\DefaultProvider.java,0,0,0,0
org.apache.abdera.protocol.server.impl.SimpleCategoriesInfo, 0, 0, 0, 0, 0, 0, 0, 0, 0, 0, 0, 0, 0, 0,0.0,0.0,0.0,1.0,0.0,0.0,0.0,0.0,0.0,0.0,0.0,0.0,0.0,93,server\src\main\java\org\apache\abdera\protocol\server\impl\SimpleCategoriesInfo.java,0,0,0,0
org.apache.abdera.protocol.server.impl.SimpleCategoryInfo, 0, 0, 0, 0, 0, 0, 0, 0, 0, 0, 0, 0, 0, 0,0.0,0.0,0.0,1.0,0.0,0.0,0.0,0.0,0.0,0.0,0.0,0.0,0.0,68,server\src\main\java\org\apache\abdera\protocol\server\impl\SimpleCategoryInfo.java,0,0,0,0
org.apache.abdera.protocol.server.impl.SimpleCollectionInfo, 0, 0, 0, 0, 0, 0, 0, 0, 0, 0, 0, 0, 0, 0,0.0,0.0,0.0,1.0,0.0,0.0,0.0,0.0,0.0,0.0,0.0,0.0,0.0,78,server\src\main\java\org\apache\abdera\protocol\server\impl\SimpleCollectionInfo.java,0,0,0,0
org.apache.abdera.protocol.server.impl.SimpleSubjectResolver, 0, 0, 0, 0, 0, 0, 0, 0, 0, 0, 0, 0, 0, 0,0.0,0.0,0.0,0.0,0.0,0.0,0.0,0.0,0.0,0.0,0.0,0.0,0.0,74,server\src\main\java\org\apache\abdera\protocol\server\impl\SimpleSubjectResolver.java,0,0,0,0
org.apache.abdera.protocol.server.impl.SimpleTarget, 0, 0, 0, 0, 0, 0, 0, 0, 0, 0, 0, 0, 0, 0,0.0,0.0,0.0,1.0,0.0,0.0,0.0,0.0,0.0,0.0,0.0,0.0,0.0,62,server\src\main\java\org\apache\abdera\protocol\server\impl\SimpleTarget.java,0,0,0,0
org.apache.abdera.protocol.server.impl.SimpleWorkspaceInfo, 0, 0, 0, 0, 0, 0, 0, 0, 0, 0, 0, 0, 0, 0,0.0,0.0,0.0,0.16666666666666666,0.0,0.0,0.0,0.0,0.0,0.0,0.0,0.0,0.0,68,server\src\main\java\org\apache\abdera\protocol\server\impl\SimpleWorkspaceInfo.java,0,0,0,0
org.apache.abdera.protocol.server.multipart.MultipartInputStream, 0, 0, 0, 0, 0, 0, 0, 1, 0, 0, 0, 0, 0, 1,0.0,0.0,0.0,0.0,0.0,0.0,0.0,0.0,0.0,0.0,0.0,0.0,0.0,150,server\src\main\java\org\apache\abdera\protocol\server\multipart\MultipartInputStream.java,0,0,0,0
org.apache.abdera.protocol.server.processors.CategoriesRequestProcessor, 0, 0, 0, 0, 0, 0, 0, 0, 0, 0, 0, 0, 0, 0,0.0,0.0,0.0,0.0,0.0,0.0,0.0,0.0,0.0,0.0,0.0,0.0,0.0,14,server\src\main\java\org\apache\abdera\protocol\server\processors\CategoriesRequestProcessor.java,0,0,0,0
org.apache.abdera.protocol.server.processors.CollectionRequestProcessor, 0, 0, 0, 0, 0, 0, 0, 0, 0, 0, 0, 0, 0, 0,0.0,0.0,0.0,0.0,0.0,0.0,0.0,0.0,0.0,0.0,0.0,0.0,0.0,23,server\src\main\java\org\apache\abdera\protocol\server\processors\CollectionRequestProcessor.java,0,0,0,0
org.apache.abdera.protocol.server.processors.EntryRequestProcessor, 0, 0, 0, 0, 0, 0, 0, 0, 0, 0, 0, 0, 0, 0,0.0,0.0,0.0,0.0,0.0,0.0,0.0,0.0,0.0,0.0,0.0,0.0,0.0,29,server\src\main\java\org\apache\abdera\protocol\server\processors\EntryRequestProcessor.java,0,0,0,0
org.apache.abdera.protocol.server.processors.EntryRequestProcessorTest, 0, 0, 0, 0, 0, 0, 0, 0, 0, 0, 0, 0, 0, 0,0.0,0.0,0.0,0.0,0.0,0.0,0.0,0.0,0.0,0.0,0.0,0.0,0.0,72,server\src\test\java\org\apache\abdera\protocol\server\processors\EntryRequestProcessorTest.java,0,0,0,0
org.apache.abdera.protocol.server.processors.MediaRequestProcessor, 0, 0, 0, 0, 0, 0, 0, 0, 0, 0, 0, 0, 0, 0,0.0,0.0,0.0,0.0,0.0,0.0,0.0,0.0,0.0,0.0,0.0,0.0,0.0,34,server\src\main\java\org\apache\abdera\protocol\server\processors\MediaRequestProcessor.java,0,0,0,0
org.apache.abdera.protocol.server.processors.MediaRequestProcessorTest, 0, 0, 0, 0, 0, 0, 0, 0, 0, 0, 0, 0, 0, 0,0.0,0.0,0.0,0.0,0.0,0.0,0.0,0.0,0.0,0.0,0.0,0.0,0.0,72,server\src\test\java\org\apache\abdera\protocol\server\processors\MediaRequestProcessorTest.java,0,0,0,0
org.apache.abdera.protocol.server.processors.ServiceRequestProcessor, 0, 0, 0, 0, 0, 0, 0, 0, 0, 0, 0, 0, 0, 0,0.0,0.0,0.0,0.0,0.0,0.0,0.0,0.0,0.0,0.0,0.0,0.0,0.0,53,server\src\main\java\org\apache\abdera\protocol\server\processors\ServiceRequestProcessor.java,0,0,0,0
org.apache.abdera.protocol.server.provider.basic.BasicProvider, 0, 0, 0, 0, 0, 0, 0, 0, 0, 0, 0, 0, 0, 0,0.0,0.0,0.0,0.0,0.0,0.0,0.0,0.0,0.0,0.0,0.0,0.0,0.0,27,server\src\main\java\org\apache\abdera\protocol\server\provider\basic\BasicProvider.java,0,0,0,0
org.apache.abdera.protocol.server.provider.managed.BasicServerConfiguration, 0, 0, 0, 0, 0, 0, 0, 0, 0, 0, 0, 0, 0, 0,0.0,0.0,0.0,0.0,0.0,0.0,0.0,0.0,0.0,0.0,0.0,0.0,0.0,13,server\src\main\java\org\apache\abdera\protocol\server\provider\managed\BasicServerConfiguration.java,0,0,0,0
org.apache.abdera.protocol.server.provider.managed.CollectionAdapterConfiguration, 0, 0, 0, 0, 0, 0, 0, 0, 0, 0, 0, 0, 0, 0,0.0,0.0,0.0,0.0,0.0,0.0,0.0,0.0,0.0,0.0,0.0,0.0,0.0,18,server\src\main\java\org\apache\abdera\protocol\server\provider\managed\CollectionAdapterConfiguration.java,0,0,0,0
org.apache.abdera.protocol.server.provider.managed.ManagedCollectionAdapter, 0, 0, 0, 0, 0, 0, 0, 0, 0, 0, 0, 0, 0, 0,0.0,0.0,0.0,1.0,0.0,0.0,0.0,0.0,0.0,0.0,0.0,0.0,0.0,23,server\src\main\java\org\apache\abdera\protocol\server\provider\managed\ManagedCollectionAdapter.java,0,0,0,0
org.apache.abdera.protocol.server.provider.managed.ManagedProvider, 0, 0, 0, 0, 0, 0, 0, 0, 0, 0, 0, 0, 0, 0,0.0,0.0,0.0,0.0,0.0,0.0,0.0,0.0,0.0,0.0,0.0,0.0,0.0,9,server\src\main\java\org\apache\abdera\protocol\server\provider\managed\ManagedProvider.java,0,0,0,0
org.apache.abdera.protocol.server.provider.managed.ServerConfiguration, 0, 0, 0, 0, 0, 0, 0, 0, 0, 0, 0, 0, 0, 0,0.0,0.0,0.0,0.0,0.0,0.0,0.0,0.0,0.0,0.0,0.0,0.0,0.0,10,server\src\main\java\org\apache\abdera\protocol\server\provider\managed\ServerConfiguration.java,0,0,0,0
org.apache.abdera.protocol.server.test.JettyServer, 0, 0, 0, 0, 0, 0, 0, 0, 0, 0, 0, 0, 0, 0,0.0,0.0,0.0,0.0,0.0,0.0,0.0,0.0,0.0,0.0,0.0,0.0,0.0,22,server\src\test\java\org\apache\abdera\protocol\server\test\JettyServer.java,0,0,0,0
org.apache.abdera.protocol.server.test.TestSuite, 0, 0, 0, 0, 0, 0, 0, 0, 0, 0, 0, 0, 0, 0,0.0,0.0,0.0,0.0,0.0,0.0,0.0,0.0,0.0,0.0,0.0,0.0,0.0,11,server\src\test\java\org\apache\abdera\protocol\server\test\TestSuite.java,0,0,0,0
org.apache.abdera.protocol.server.test.basic.BasicTest, 0, 0, 0, 0, 0, 0, 0, 0, 0, 0, 0, 0, 0, 0,0.0,0.0,0.0,0.5,0.0,0.0,0.0,0.0,0.0,0.0,0.0,0.0,0.0,118,server\src\test\java\org\apache\abdera\protocol\server\test\basic\BasicTest.java,0,0,0,0
org.apache.abdera.protocol.server.test.couchdb.CouchDbTest, 0, 0, 0, 0, 0, 0, 0, 0, 0, 0, 0, 0, 0, 0,0.0,0.0,0.0,1.0,0.0,0.0,0.0,0.0,0.0,0.0,0.0,0.0,0.0,120,adapters\couchdb\src\test\java\org\apache\abdera\protocol\server\test\couchdb\CouchDbTest.java,154,0,0,154
org.apache.abdera.protocol.server.test.couchdb.TestSuite, 0, 0, 0, 0, 0, 0, 0, 0, 0, 0, 0, 0, 0, 0,0.0,0.0,0.0,0.0,0.0,0.0,0.0,0.0,0.0,0.0,0.0,0.0,0.0,7,adapters\couchdb\src\test\java\org\apache\abdera\protocol\server\test\couchdb\TestSuite.java,10,0,0,10
org.apache.abdera.protocol.server.test.custom.CustomProvider, 0, 0, 0, 0, 0, 0, 0, 0, 0, 0, 0, 0, 0, 0,0.0,0.0,0.0,0.0,0.0,0.0,0.0,0.0,0.0,0.0,0.0,0.0,0.0,43,server\src\test\java\org\apache\abdera\protocol\server\test\custom\CustomProvider.java,0,0,0,0
org.apache.abdera.protocol.server.test.custom.CustomProviderTest, 0, 0, 0, 0, 0, 0, 0, 0, 0, 0, 0, 0, 0, 0,0.0,0.0,0.0,0.5,0.0,0.0,0.0,0.0,0.0,0.0,0.0,0.0,0.0,148,server\src\test\java\org\apache\abdera\protocol\server\test\custom\CustomProviderTest.java,0,0,0,0
org.apache.abdera.protocol.server.test.customer.Customer, 0, 0, 0, 0, 0, 0, 0, 0, 0, 0, 0, 0, 0, 0,0.0,0.0,0.0,0.0,0.0,0.0,0.0,0.0,0.0,0.0,0.0,0.0,0.0,16,server\src\test\java\org\apache\abdera\protocol\server\test\customer\Customer.java,0,0,0,0
org.apache.abdera.protocol.server.test.customer.CustomerAdapterTest, 0, 0, 0, 0, 0, 0, 0, 0, 0, 0, 0, 0, 0, 0,0.0,0.0,0.0,0.3333333333333333,0.0,0.0,0.0,0.0,0.0,0.0,0.0,0.0,0.0,116,server\src\test\java\org\apache\abdera\protocol\server\test\customer\CustomerAdapterTest.java,0,0,0,0
org.apache.abdera.protocol.server.test.filesystem.FilesystemTest, 0, 0, 0, 0, 0, 0, 0, 0, 0, 0, 0, 0, 0, 0,0.0,0.0,0.0,1.0,0.0,0.0,0.0,0.0,0.0,0.0,0.0,0.0,0.0,119,adapters\filesystem\src\test\java\org\apache\abdera\protocol\server\test\filesystem\FilesystemTest.java,0,0,0,0
org.apache.abdera.protocol.server.test.filesystem.TestSuite, 0, 0, 0, 0, 0, 0, 0, 0, 0, 0, 0, 0, 0, 0,0.0,0.0,0.0,0.0,0.0,0.0,0.0,0.0,0.0,0.0,0.0,0.0,0.0,7,adapters\filesystem\src\test\java\org\apache\abdera\protocol\server\test\filesystem\TestSuite.java,0,0,0,0
org.apache.abdera.protocol.util.AbstractEntityProvider, 0, 0, 0, 0, 0, 0, 0, 0, 0, 0, 0, 0, 0, 0,0.0,0.0,0.0,0.0,0.0,0.0,0.0,0.0,0.0,0.0,0.0,0.0,0.0,11,core\src\main\java\org\apache\abdera\protocol\util\AbstractEntityProvider.java,0,0,0,0
org.apache.abdera.protocol.util.AbstractItemManager, 0, 0, 0, 0, 0, 0, 0, 0, 0, 0, 0, 0, 0, 0,0.0,0.0,0.0,0.0,0.0,0.0,0.0,0.0,0.0,0.0,0.0,0.0,0.0,11,core\src\main\java\org\apache\abdera\protocol\util\AbstractItemManager.java,0,0,0,0
org.apache.abdera.protocol.util.AbstractMessage, 0, 0, 0, 0, 0, 0, 0, 0, 0, 0, 0, 0, 0, 0,0.0,0.0,0.0,0.25,0.0,0.0,0.0,0.0,0.0,0.0,0.0,0.0,0.0,67,core\src\main\java\org\apache\abdera\protocol\util\AbstractMessage.java,0,0,0,0
org.apache.abdera.protocol.util.AbstractRequest, 0, 0, 0, 0, 0, 0, 0, 0, 0, 0, 0, 0, 0, 0,0.0,0.0,0.0,0.5,0.0,0.0,0.0,0.0,0.0,0.0,0.0,0.0,0.0,68,core\src\main\java\org\apache\abdera\protocol\util\AbstractRequest.java,0,0,0,0
org.apache.abdera.protocol.util.AbstractResponse, 0, 0, 0, 1, 0, 0, 0, 0, 0, 0, 0, 0, 0, 1,0.0,0.0,0.0,0.0,0.0,0.0,0.0,0.0,0.0,0.0,0.0,0.0,0.0,105,core\src\main\java\org\apache\abdera\protocol\util\AbstractResponse.java,0,0,0,0
org.apache.abdera.protocol.util.ProtocolConstants, 0, 0, 0, 0, 0, 0, 0, 0, 0, 0, 0, 0, 0, 0,0.0,0.0,0.0,0.0,0.0,0.0,0.0,0.0,0.0,0.0,0.0,0.0,0.0,105,core\src\main\java\org\apache\abdera\protocol\util\ProtocolConstants.java,0,0,0,0
org.apache.abdera.security.AbderaSecurity, 0, 0, 0, 0, 0, 0, 0, 0, 0, 0, 0, 0, 0, 0,0.0,0.0,0.0,0.3333333333333333,0.0,0.0,0.0,0.16666666666666666,0.0,0.0,0.0,0.0,0.0,35,security\src\main\java\org\apache\abdera\security\AbderaSecurity.java,0,0,0,0
org.apache.abdera.security.Encryption, 0, 0, 0, 0, 0, 0, 0, 0, 0, 0, 0, 0, 0, 0,0.0,0.0,0.0,0.0,0.0,0.0,0.0,0.0,0.0,0.0,0.0,0.0,0.0,35,security\src\main\java\org\apache\abdera\security\Encryption.java,0,0,0,0
org.apache.abdera.security.EncryptionOptions, 0, 0, 0, 0, 0, 0, 0, 0, 0, 0, 0, 0, 0, 0,0.0,0.0,0.0,0.0,0.0,0.0,0.0,0.0,0.0,0.0,0.0,0.0,0.0,35,security\src\main\java\org\apache\abdera\security\EncryptionOptions.java,0,0,0,0
org.apache.abdera.security.SecurityException, 0, 0, 0, 0, 0, 0, 0, 0, 0, 0, 0, 0, 0, 0,0.0,0.0,0.0,0.0,0.0,0.0,0.0,0.0,0.0,0.0,0.0,0.0,0.0,15,security\src\main\java\org\apache\abdera\security\SecurityException.java,0,0,0,0
org.apache.abdera.security.SecurityOptions, 0, 0, 0, 0, 0, 0, 0, 0, 0, 0, 0, 0, 0, 0,0.0,0.0,0.0,0.0,0.0,0.0,0.0,0.0,0.0,0.0,0.0,0.0,0.0,15,security\src\main\java\org\apache\abdera\security\SecurityOptions.java,0,0,0,0
org.apache.abdera.security.Signature, 0, 0, 0, 0, 0, 0, 0, 0, 0, 0, 0, 0, 0, 0,0.0,0.0,0.0,0.0,0.0,0.0,0.0,0.0,0.0,0.0,0.0,0.0,0.0,15,security\src\main\java\org\apache\abdera\security\Signature.java,0,0,0,0
org.apache.abdera.security.SignatureOptions, 0, 0, 0, 0, 0, 0, 0, 0, 0, 0, 0, 0, 0, 0,0.0,0.0,0.0,0.0,0.0,0.0,0.0,0.0,0.0,0.0,0.0,0.0,0.0,15,security\src\main\java\org\apache\abdera\security\SignatureOptions.java,0,0,0,0
org.apache.abdera.security.util.Constants, 0, 0, 0, 0, 0, 0, 0, 0, 0, 0, 0, 0, 0, 0,0.0,0.0,0.0,0.0,0.0,0.0,0.0,0.0,0.0,0.0,0.0,0.0,0.0,14,security\src\main\java\org\apache\abdera\security\util\Constants.java,0,0,0,0
org.apache.abdera.security.util.EncryptionBase, 0, 0, 0, 0, 0, 0, 0, 0, 0, 0, 0, 0, 0, 0,0.0,0.0,0.0,0.3333333333333333,0.0,0.0,0.0,0.0,0.0,0.0,0.0,0.0,0.0,9,security\src\main\java\org\apache\abdera\security\util\EncryptionBase.java,0,0,0,0
org.apache.abdera.security.util.SecurityBase, 0, 0, 0, 0, 0, 0, 0, 0, 0, 0, 0, 0, 0, 0,0.0,0.0,0.0,0.2,0.0,0.0,0.0,0.0,0.0,0.0,0.0,0.0,0.0,71,security\src\main\java\org\apache\abdera\security\util\SecurityBase.java,0,0,0,0
org.apache.abdera.security.util.SignatureBase, 0, 0, 0, 0, 0, 0, 0, 0, 0, 0, 0, 0, 0, 0,0.0,0.0,0.0,0.3333333333333333,0.0,0.0,0.0,0.0,0.0,0.0,0.0,0.0,0.0,14,security\src\main\java\org\apache\abdera\security\util\SignatureBase.java,0,0,0,0
org.apache.abdera.security.util.filters.AESEncryptedResponseFilter, 0, 0, 0, 0, 0, 0, 0, 0, 0, 0, 0, 0, 0, 0,0.0,0.0,0.0,0.0,0.0,0.0,0.0,0.0,0.0,0.0,0.0,0.0,0.0,38,security\src\main\java\org\apache\abdera\security\util\filters\AESEncryptedResponseFilter.java,0,0,0,0
org.apache.abdera.security.util.filters.DHEncryptedRequestFilter, 0, 0, 0, 0, 0, 0, 0, 0, 0, 0, 0, 0, 0, 0,0.0,0.0,0.0,0.0,0.0,0.0,0.0,0.0,0.0,0.0,0.0,0.0,0.0,44,security\src\main\java\org\apache\abdera\security\util\filters\DHEncryptedRequestFilter.java,0,0,0,0
org.apache.abdera.security.util.filters.DHEncryptedResponseFilter, 0, 0, 0, 0, 0, 0, 0, 0, 0, 0, 0, 0, 0, 0,0.0,0.0,0.0,0.0,0.0,0.0,0.0,0.0,0.0,0.0,0.0,0.0,0.0,40,security\src\main\java\org\apache\abdera\security\util\filters\DHEncryptedResponseFilter.java,0,0,0,0
org.apache.abdera.security.util.filters.SignedRequestFilter, 0, 0, 0, 0, 0, 0, 0, 0, 0, 0, 0, 0, 0, 0,0.0,0.0,0.0,0.0,0.0,0.0,0.0,0.0,0.0,0.0,0.0,0.0,0.0,21,security\src\main\java\org\apache\abdera\security\util\filters\SignedRequestFilter.java,0,0,0,0
org.apache.abdera.security.util.filters.SignedResponseFilter, 0, 0, 0, 1, 0, 0, 0, 1, 0, 0, 0, 0, 0, 2,0.0,0.0,0.0,0.25,0.0,0.0,0.0,0.0,0.0,0.0,0.0,0.0,0.0,141,security\src\main\java\org\apache\abdera\security\util\filters\SignedResponseFilter.java,0,0,0,0
org.apache.abdera.security.xmlsec.XmlEncryption, 0, 0, 0, 0, 0, 0, 0, 0, 0, 0, 0, 0, 0, 0,0.0,0.0,0.0,0.25,0.0,0.0,0.0,0.0,0.0,0.0,0.0,0.0,0.0,58,security\src\main\java\org\apache\abdera\security\xmlsec\XmlEncryption.java,0,0,0,0
org.apache.abdera.security.xmlsec.XmlEncryptionOptions, 0, 0, 0, 0, 0, 0, 0, 0, 0, 0, 0, 0, 0, 0,0.0,0.0,0.0,0.3333333333333333,0.0,0.0,0.0,0.0,0.0,0.0,0.0,0.0,0.0,45,security\src\main\java\org\apache\abdera\security\xmlsec\XmlEncryptionOptions.java,0,0,0,0
org.apache.abdera.security.xmlsec.XmlSecurityOptions, 0, 0, 0, 0, 0, 0, 0, 0, 0, 0, 0, 0, 0, 0,0.0,0.0,0.0,0.3333333333333333,0.0,0.0,0.0,0.0,0.0,0.0,0.0,0.0,0.0,15,security\src\main\java\org\apache\abdera\security\xmlsec\XmlSecurityOptions.java,0,0,0,0
org.apache.abdera.security.xmlsec.XmlSignature, 0, 0, 0, 0, 0, 0, 0, 0, 0, 0, 0, 0, 0, 0,0.0,0.0,0.0,0.25,0.0,0.0,0.0,0.0,0.0,0.0,0.0,0.0,0.0,201,security\src\main\java\org\apache\abdera\security\xmlsec\XmlSignature.java,0,0,0,0
org.apache.abdera.security.xmlsec.XmlSignatureOptions, 0, 0, 0, 0, 0, 0, 0, 0, 0, 0, 0, 0, 0, 0,0.0,0.0,0.0,0.3333333333333333,0.0,0.0,0.0,0.0,0.0,0.0,0.0,0.0,0.0,63,security\src\main\java\org\apache\abdera\security\xmlsec\XmlSignatureOptions.java,0,0,0,0
org.apache.abdera.spring.AbstractSingleBeanDefinitionParser, 0, 0, 0, 0, 0, 0, 0, 0, 0, 0, 0, 0, 0, 0,0.0,0.0,0.0,0.0,0.0,0.0,0.0,0.0,0.0,0.0,0.0,0.0,0.0,88,spring\src\main\java\org\apache\abdera\spring\AbstractSingleBeanDefinitionParser.java,0,0,0,0
org.apache.abdera.spring.DefaultProviderDefinitionParser, 0, 0, 0, 0, 0, 0, 0, 0, 0, 0, 0, 0, 0, 0,0.0,0.0,0.0,0.0,0.0,0.0,0.0,0.0,0.0,0.0,0.0,0.0,0.0,68,spring\src\main\java\org\apache\abdera\spring\DefaultProviderDefinitionParser.java,0,0,0,0
org.apache.abdera.spring.DummyFilter, 0, 0, 0, 0, 0, 0, 0, 0, 0, 0, 0, 0, 0, 0,0.0,0.0,0.0,0.0,0.0,0.0,0.0,0.0,0.0,0.0,0.0,0.0,0.0,5,spring\src\test\java\org\apache\abdera\spring\DummyFilter.java,0,0,0,0
org.apache.abdera.spring.NamespaceHandler, 0, 0, 0, 0, 0, 0, 0, 0, 0, 0, 0, 0, 0, 0,0.0,0.0,0.0,0.0,0.0,0.0,0.0,0.0,0.0,0.0,0.0,0.0,0.0,7,spring\src\main\java\org\apache\abdera\spring\NamespaceHandler.java,0,0,0,0
org.apache.abdera.spring.ProviderDefinitionParserTest, 0, 0, 0, 0, 0, 0, 0, 0, 0, 0, 0, 0, 0, 0,0.0,0.0,0.0,0.0,0.0,0.0,0.0,0.0,0.0,0.0,0.0,0.0,0.0,21,spring\src\test\java\org\apache\abdera\spring\ProviderDefinitionParserTest.java,0,0,0,0
org.apache.abdera.spring.ProviderFactoryBean, 0, 0, 0, 0, 0, 0, 0, 0, 0, 0, 0, 0, 0, 0,0.0,0.0,0.0,0.0,0.0,0.0,0.0,0.0,0.0,0.0,0.0,0.0,0.0,82,spring\src\main\java\org\apache\abdera\spring\ProviderFactoryBean.java,0,0,0,0
org.apache.abdera.spring.RegexTargetResolverDefinitionParser, 0, 0, 0, 0, 0, 0, 0, 0, 0, 0, 0, 0, 0, 0,0.0,0.0,0.0,0.0,0.0,0.0,0.0,0.0,0.0,0.0,0.0,0.0,0.0,81,spring\src\main\java\org\apache\abdera\spring\RegexTargetResolverDefinitionParser.java,0,0,0,0
org.apache.abdera.spring.RegexTargetResolverFactoryBean, 0, 0, 0, 0, 0, 0, 0, 0, 0, 0, 0, 0, 0, 0,0.0,0.0,0.0,0.0,0.0,0.0,0.0,0.0,0.0,0.0,0.0,0.0,0.0,59,spring\src\main\java\org\apache\abdera\spring\RegexTargetResolverFactoryBean.java,0,0,0,0
org.apache.abdera.spring.SpringAbderaServlet, 0, 0, 0, 0, 0, 0, 0, 0, 0, 0, 0, 0, 0, 0,0.0,0.0,0.0,0.0,0.0,0.0,0.0,0.0,0.0,0.0,0.0,0.0,0.0,13,spring\src\main\java\org\apache\abdera\spring\SpringAbderaServlet.java,0,0,0,0
org.apache.abdera.spring.TestAdapter, 0, 0, 0, 0, 0, 0, 0, 0, 0, 0, 0, 0, 0, 0,0.0,0.0,0.0,0.0,0.0,0.0,0.0,0.0,0.0,0.0,0.0,0.0,0.0,31,spring\src\test\java\org\apache\abdera\spring\TestAdapter.java,0,0,0,0
org.apache.abdera.spring.TestSuite, 0, 0, 0, 0, 0, 0, 0, 0, 0, 0, 0, 0, 0, 0,0.0,0.0,0.0,0.0,0.0,0.0,0.0,0.0,0.0,0.0,0.0,0.0,0.0,7,spring\src\test\java\org\apache\abdera\spring\TestAdapter.java,0,0,0,0
org.apache.abdera.spring.WorkspaceDefinitionParser, 0, 0, 0, 0, 0, 0, 0, 0, 0, 0, 0, 0, 0, 0,0.0,0.0,0.0,0.0,0.0,0.0,0.0,0.0,0.0,0.0,0.0,0.0,0.0,34,spring\src\main\java\org\apache\abdera\spring\WorkspaceDefinitionParser.java,0,0,0,0
org.apache.abdera.test.client.JettyUtil, 0, 0, 0, 0, 0, 0, 0, 0, 0, 0, 0, 0, 0, 0,0.0,0.0,0.0,1.0,0.0,0.0,0.0,0.0,0.0,0.0,0.0,0.0,0.0,44,client\src\test\java\org\apache\abdera\test\client\JettyUtil.java,0,0,0,0
org.apache.abdera.test.client.TestSuite, 0, 0, 0, 0, 0, 0, 0, 0, 0, 0, 0, 0, 0, 0,0.0,0.0,0.0,0.0,0.0,0.0,0.0,0.0,0.0,0.0,0.0,0.0,0.0,7,client\src\test\java\org\apache\abdera\test\client\TestSuite.java,0,0,0,0
org.apache.abdera.test.client.cache.CacheTest, 0, 0, 0, 1, 0, 0, 0, 0, 0, 0, 0, 0, 0, 1,0.0,0.0,0.0,0.0,0.0,0.0,0.0,0.0,0.0,0.0,0.0,0.0,0.0,298,client\src\test\java\org\apache\abdera\test\client\cache\CacheTest.java,0,0,0,0
org.apache.abdera.test.core.CoreTest, 0, 0, 0, 0, 0, 0, 0, 0, 0, 0, 0, 0, 0, 0,0.0,0.0,0.0,0.0,0.0,0.0,0.0,0.0,0.0,0.0,0.0,0.0,0.0,29,core\src\test\java\org\apache\abdera\test\core\CoreTest.java,0,0,0,0
org.apache.abdera.test.ext.bidi.BidiTest, 0, 0, 0, 0, 0, 0, 0, 0, 0, 0, 0, 0, 0, 0,0.0,0.0,0.0,0.5,0.0,0.0,0.0,0.0,0.0,0.0,0.0,0.0,0.0,27,extensions\main\src\test\java\org\apache\abdera\test\ext\bidi\BidiTest.java,0,0,0,0
org.apache.abdera.test.ext.features.FeatureTest, 0, 0, 0, 0, 0, 0, 0, 0, 0, 0, 0, 0, 0, 0,0.0,0.0,0.0,0.2,0.0,0.0,0.0,0.0,0.0,0.0,0.0,0.0,0.0,56,extensions\features\src\test\java\org\apache\abdera\test\ext\features\FeatureTest.java,0,0,0,0
org.apache.abdera.test.ext.features.TestSuite, 0, 0, 0, 0, 0, 0, 0, 0, 0, 0, 0, 0, 0, 0,0.0,0.0,0.0,0.0,0.0,0.0,0.0,0.0,0.0,0.0,0.0,0.0,0.0,7,extensions\features\src\test\java\org\apache\abdera\test\ext\features\TestSuite.java,0,0,0,0
org.apache.abdera.test.ext.history.FeedPagingTest, 0, 0, 0, 0, 0, 0, 0, 0, 0, 0, 0, 0, 0, 0,0.0,0.0,0.0,0.5,0.0,0.0,0.0,0.0,0.0,0.0,0.0,0.0,0.0,42,extensions\main\src\test\java\org\apache\abdera\test\ext\history\FeedPagingTest.java,0,0,0,0
org.apache.abdera.test.ext.license.LicenseTest, 0, 0, 0, 0, 0, 0, 0, 0, 0, 0, 0, 0, 0, 0,0.0,0.0,0.0,0.5,0.0,0.0,0.0,0.5,0.0,0.0,0.0,0.0,0.0,53,extensions\main\src\test\java\org\apache\abdera\test\ext\license\LicenseTest.java,0,0,0,0
org.apache.abdera.test.ext.main.TestSuite, 0, 0, 0, 0, 0, 0, 0, 0, 0, 0, 0, 0, 0, 0,0.0,0.0,0.0,0.0,0.0,0.0,0.0,0.0,0.0,0.0,0.0,0.0,0.0,7,extensions\main\src\test\java\org\apache\abdera\test\ext\main\TestSuite.java,0,0,0,0
org.apache.abdera.test.ext.media.MediaTest, 0, 0, 0, 0, 0, 0, 0, 0, 0, 0, 0, 0, 0, 0,0.0,0.0,0.0,0.5,0.0,0.0,0.0,0.0,0.0,0.0,0.0,0.0,0.0,43,extensions\media\src\test\java\org\apache\abdera\test\ext\media\MediaTest.java,0,0,0,0
org.apache.abdera.test.ext.media.TestSuite, 0, 0, 0, 0, 0, 0, 0, 0, 0, 0, 0, 0, 0, 0,0.0,0.0,0.0,0.0,0.0,0.0,0.0,0.0,0.0,0.0,0.0,0.0,0.0,7,extensions\media\src\test\java\org\apache\abdera\test\ext\media\TestSuite.java,0,0,0,0
org.apache.abdera.test.ext.opensearch.TestSuite, 0, 0, 0, 0, 0, 0, 0, 0, 0, 0, 0, 0, 0, 0,0.0,0.0,0.0,0.0,0.0,0.0,0.0,0.0,0.0,0.0,0.0,0.0,0.0,13,extensions\opensearch\src\test\java\org\apache\abdera\test\ext\opensearch\TestSuite.java,0,0,0,0
org.apache.abdera.test.ext.opensearch.server.JettyServer, 0, 0, 0, 0, 0, 0, 0, 0, 0, 0, 0, 0, 0, 0,0.0,0.0,0.0,0.0,0.0,0.0,0.0,0.0,0.0,0.0,0.0,0.0,0.0,26,extensions\opensearch\src\test\java\org\apache\abdera\test\ext\opensearch\server\JettyServer.java,0,0,0,0
org.apache.abdera.test.ext.opensearch.server.impl.SimpleOpenSearchInfoTest, 0, 0, 0, 0, 0, 0, 0, 0, 0, 0, 0, 0, 0, 0,0.0,0.0,0.0,1.0,0.0,0.0,0.0,0.0,0.0,0.0,0.0,0.0,0.0,34,extensions\opensearch\src\test\java\org\apache\abdera\test\ext\opensearch\server\impl\SimpleOpenSearchInfoTest.java,0,0,0,0
org.apache.abdera.test.ext.rss.RssTest, 0, 0, 0, 0, 0, 0, 0, 0, 0, 0, 0, 0, 0, 0,0.0,0.0,0.0,1.0,0.0,0.0,0.0,0.0,0.0,0.0,0.0,0.0,0.0,47,extensions\rss\src\test\java\org\apache\abdera\test\ext\rss\RssTest.java,0,0,0,0
org.apache.abdera.test.ext.serializer.SerializerTest, 1, 0, 0, 0, 0, 0, 0, 0, 0, 0, 0, 0, 0, 1,0.0,0.0,0.0,0.5,0.0,0.0,0.0,0.0,0.0,0.0,0.0,0.0,0.0,98,extensions\serializer\src\test\java\org\apache\abdera\test\ext\serializer\SerializerTest.java,0,0,0,0
org.apache.abdera.test.ext.serializer.TestSuite, 0, 0, 0, 0, 0, 0, 0, 0, 0, 0, 0, 0, 0, 0,0.0,0.0,0.0,0.0,0.0,0.0,0.0,0.0,0.0,0.0,0.0,0.0,0.0,7,extensions\serializer\src\test\java\org\apache\abdera\test\ext\serializer\TestSuite.java,0,0,0,0
org.apache.abdera.test.ext.sharing.SharingTest, 0, 0, 0, 0, 0, 0, 0, 0, 0, 0, 0, 0, 0, 0,0.0,0.0,0.0,0.14285714285714285,0.0,0.0,0.0,0.0,0.0,0.0,0.0,0.0,0.0,188,extensions\sharing\src\test\java\org\apache\abdera\test\ext\sharing\SharingTest.java,0,0,0,0
org.apache.abdera.test.ext.sharing.TestSuite, 0, 0, 0, 0, 0, 0, 0, 0, 0, 0, 0, 0, 0, 0,0.0,0.0,0.0,0.0,0.0,0.0,0.0,0.0,0.0,0.0,0.0,0.0,0.0,7,extensions\sharing\src\test\java\org\apache\abdera\test\ext\sharing\TestSuite.java,0,0,0,0
org.apache.abdera.test.ext.thread.ThreadTest, 0, 0, 0, 0, 0, 0, 0, 0, 0, 0, 0, 0, 0, 0,0.0,0.0,0.0,0.3333333333333333,0.0,0.0,0.0,0.3333333333333333,0.0,0.0,0.0,0.0,0.0,15,extensions\main\src\test\java\org\apache\abdera\test\ext\thread\ThreadTest.java,0,0,0,0
org.apache.abdera.test.parser.EncodingTest, 0, 0, 0, 0, 0, 0, 0, 0, 0, 0, 0, 0, 0, 0,0.0,0.0,0.0,1.0,0.0,0.0,0.0,0.0,0.0,0.0,0.0,0.0,0.0,74,parser\src\test\java\org\apache\abdera\test\parser\EncodingTest.java,0,0,0,0
org.apache.abdera.test.parser.stax.AtomConformanceTest, 0, 0, 0, 0, 0, 0, 0, 0, 0, 0, 0, 0, 0, 0,0.0,0.0,0.0,0.0,0.0,0.0,0.0,0.0,0.0,0.0,0.0,0.0,0.0,269,parser\src\test\java\org\apache\abdera\test\parser\stax\AtomConformanceTest.java,0,0,0,0
org.apache.abdera.test.parser.stax.BaseParserTestCase, 0, 0, 0, 0, 0, 0, 0, 0, 0, 0, 0, 0, 0, 0,0.25,0.0,0.0,0.5,0.0,0.0,0.0,0.0,0.0,0.0,0.0,0.0,0.0,20,parser\src\test\java\org\apache\abdera\test\parser\stax\BaseParserTestCase.java,8,0,1,10
org.apache.abdera.test.parser.stax.ConcurrencyTest, 0, 0, 0, 0, 0, 0, 0, 0, 0, 0, 0, 0, 0, 0,0.0,0.0,0.0,1.0,0.0,0.0,0.0,0.0,0.0,0.0,0.0,0.0,0.0,41,parser\src\test\java\org\apache\abdera\test\parser\stax\ConcurrencyTest.java,0,0,0,0
org.apache.abdera.test.parser.stax.EntryLinkTest, 0, 0, 0, 0, 0, 0, 0, 0, 0, 0, 0, 0, 0, 0,0.0,0.0,0.0,1.0,0.0,0.0,0.0,0.0,0.0,0.0,0.0,0.0,0.0,23,parser\src\test\java\org\apache\abdera\test\parser\stax\EntryLinkTest.java,0,0,0,0
org.apache.abdera.test.parser.stax.FOMTest, 0, 0, 0, 0, 0, 0, 0, 0, 0, 0, 0, 0, 0, 0,0.0,0.0,0.0,0.5,0.0,0.0,0.0,0.0,0.0,0.0,0.0,0.0,0.0,652,parser\src\test\java\org\apache\abdera\test\parser\stax\FOMTest.java,0,0,0,0
org.apache.abdera.test.parser.stax.FeedParserTest, 1, 0, 0, 0, 0, 0, 0, 0, 0, 0, 0, 0, 0, 1,0.0,0.0,0.0,0.0,0.0,0.0,0.0,0.0,0.0,0.0,0.0,0.0,0.0,60,parser\src\test\java\org\apache\abdera\test\parser\stax\FeedParserTest.java,0,0,0,0
org.apache.abdera.test.parser.stax.FeedValidatorTest, 0, 0, 0, 1, 0, 0, 0, 0, 0, 0, 0, 0, 0, 1,0.0,0.0,0.0,0.0,0.0,0.0,0.0,0.0,0.0,0.0,0.0,0.0,0.0,3178,parser\src\test\java\org\apache\abdera\test\parser\stax\FeedValidatorTest.java,512,0,251,1014
org.apache.abdera.test.parser.stax.ParserTest, 0, 0, 0, 0, 0, 0, 0, 0, 0, 0, 0, 0, 0, 0,0.0,0.0,0.0,1.0,0.0,0.0,0.0,0.0,0.0,0.0,0.0,0.0,0.0,45,parser\src\test\java\org\apache\abdera\test\parser\stax\ParserTest.java,0,0,0,0
org.apache.abdera.test.parser.stax.XhtmlTest, 0, 0, 0, 0, 0, 0, 0, 0, 0, 0, 0, 0, 0, 0,0.0,0.0,0.0,1.0,0.0,0.0,0.0,0.0,0.0,0.0,0.0,0.0,0.0,28,parser\src\test\java\org\apache\abdera\test\parser\stax\XhtmlTest.java,0,0,0,0
org.apache.abdera.test.security.DigitalSignatureTest, 0, 0, 0, 0, 0, 0, 0, 0, 0, 0, 0, 0, 0, 0,0.0,0.0,0.0,0.5,0.0,0.0,0.0,0.0,0.0,0.0,0.0,0.0,0.0,49,security\src\test\java\org\apache\abdera\test\security\DigitalSignatureTest.java,0,0,0,0
org.apache.abdera.test.security.filter.CustomProvider, 0, 0, 0, 0, 0, 0, 0, 0, 0, 0, 0, 0, 0, 0,0.0,0.0,0.0,0.3333333333333333,0.0,0.0,0.0,0.3333333333333333,0.0,0.0,0.0,0.0,0.0,27,security\src\test\java\org\apache\abdera\test\security\filter\CustomProvider.java,0,0,0,0
org.apache.abdera.test.security.filter.JettyServer, 0, 0, 0, 0, 0, 0, 0, 0, 0, 0, 0, 0, 0, 0,0.0,0.0,0.0,0.0,0.0,0.0,0.0,0.0,0.0,0.0,0.0,0.0,0.0,25,security\src\test\java\org\apache\abdera\test\security\filter\JettyServer.java,0,0,0,0
org.apache.abdera.test.security.filter.SecurityFilterTest, 0, 0, 0, 0, 0, 0, 0, 0, 0, 0, 0, 0, 0, 0,0.0,0.0,0.0,0.3333333333333333,0.0,0.0,0.0,0.0,0.0,0.0,0.0,0.0,0.0,65,security\src\test\java\org\apache\abdera\test\security\filter\SecurityFilterTest.java,0,0,0,0
org.apache.abdera.util.AbderaDataSource, 0, 0, 0, 0, 0, 0, 0, 0, 0, 0, 0, 0, 0, 0,0.0,0.0,0.0,0.0,0.0,0.0,0.0,0.0,0.0,0.0,0.0,0.0,0.0,32,core\src\main\java\org\apache\abdera\util\AbderaDataSource.java,0,0,0,0
org.apache.abdera.util.AbderaResult, 0, 0, 0, 0, 0, 0, 0, 0, 0, 0, 0, 0, 0, 0,0.0,0.0,0.0,1.0,0.0,0.0,0.0,0.0,0.0,0.0,0.0,0.0,0.0,44,core\src\main\java\org\apache\abdera\util\AbderaResult.java,0,0,0,0
org.apache.abdera.util.AbderaSource, 0, 0, 0, 0, 0, 0, 0, 0, 0, 0, 0, 0, 0, 0,0.0,0.0,0.0,0.0,0.0,0.0,0.0,0.0,0.0,0.0,0.0,0.0,0.0,31,core\src\main\java\org\apache\abdera\util\AbderaSource.java,0,0,0,0
org.apache.abdera.util.AbstractNamedParser, 0, 0, 0, 0, 0, 0, 0, 0, 0, 0, 0, 0, 0, 0,0.0,0.0,0.0,0.3333333333333333,0.0,0.0,0.0,0.0,0.0,0.0,0.0,0.0,0.0,22,core\src\main\java\org\apache\abdera\util\AbstractNamedParser.java,0,0,0,0
org.apache.abdera.util.AbstractNamedWriter, 0, 0, 0, 0, 0, 0, 0, 0, 0, 0, 0, 0, 0, 0,0.0,0.0,0.0,0.0,0.0,0.0,0.0,0.0,0.0,0.0,0.0,0.0,0.0,21,core\src\main\java\org\apache\abdera\util\AbstractNamedWriter.java,0,0,0,0
org.apache.abdera.util.AbstractParser, 0, 0, 0, 0, 0, 0, 0, 0, 0, 0, 0, 0, 0, 0,0.0,0.0,0.0,0.25,0.0,0.0,0.0,0.0,0.0,0.0,0.0,0.0,0.0,76,core\src\main\java\org\apache\abdera\util\AbstractParser.java,0,0,0,0
org.apache.abdera.util.AbstractWriter, 0, 0, 0, 0, 0, 0, 0, 0, 0, 0, 0, 0, 0, 0,0.0,0.0,0.0,0.2,0.0,0.0,0.0,0.0,0.0,0.0,0.0,0.0,0.0,57,core\src\main\java\org\apache\abdera\util\AbstractWriter.java,0,0,0,0
org.apache.abdera.util.AbstractWriterOptions, 0, 0, 0, 0, 0, 0, 0, 0, 0, 0, 0, 0, 0, 0,0.0,0.0,0.0,0.0,0.0,1.0,0.0,0.0,0.0,0.0,0.0,0.0,0.0,30,core\src\main\java\org\apache\abdera\util\AbstractWriterOptions.java,0,0,0,0
org.apache.abdera.util.ConfigurationTest, 0, 0, 0, 0, 0, 0, 0, 0, 0, 0, 0, 0, 0, 0,0.0,0.0,0.0,0.0,0.0,0.0,0.0,0.0,0.0,0.0,0.0,0.0,0.0,19,core\src\test\java\org\apache\abdera\util\ConfigurationTest.java,0,0,0,0
org.apache.abdera.util.Constants, 0, 0, 0, 0, 0, 0, 0, 0, 0, 0, 0, 0, 0, 0,0.0,0.0,0.0,0.0,0.0,0.0,0.0,0.0,0.0,0.0,0.0,0.0,0.0,19,core\src\main\java\org\apache\abdera\util\Constants.java,0,0,0,0
org.apache.abdera.util.EntityTagTest, 0, 0, 0, 0, 0, 0, 0, 0, 0, 0, 0, 0, 0, 0,0.0,0.0,0.0,0.0,0.0,0.0,0.0,0.0,0.0,0.0,0.0,0.0,0.0,43,core\src\test\java\org\apache\abdera\util\EntityTagTest.java,0,0,0,0
org.apache.abdera.util.MimeTypeHelperTest, 0, 0, 0, 0, 0, 0, 0, 0, 0, 0, 0, 0, 0, 0,0.0,0.0,0.0,0.0,0.0,0.0,0.0,0.0,0.0,0.0,0.0,0.0,0.0,73,core\src\test\java\org\apache\abdera\util\MimeTypeHelperTest.java,0,0,0,0
org.apache.abdera.util.MimeTypeParseException, 0, 0, 0, 0, 0, 0, 0, 0, 0, 0, 0, 0, 0, 0,0.0,0.0,0.0,0.0,0.0,0.0,0.0,0.0,0.0,0.0,0.0,0.0,0.0,6,core\src\main\java\org\apache\abdera\util\MimeTypeParseException.java,0,0,0,0
org.apache.abdera.util.NamedItem, 0, 0, 0, 0, 0, 0, 0, 0, 0, 0, 0, 0, 0, 0,0.0,0.0,0.0,0.0,0.0,0.0,0.0,0.0,0.0,0.0,0.0,0.0,0.0,6,core\src\main\java\org\apache\abdera\util\NamedItem.java,0,0,0,0
org.apache.abdera.util.ServiceUtil, 0, 0, 0, 0, 0, 0, 0, 0, 0, 0, 0, 0, 0, 0,0.0,0.0,0.0,1.0,0.0,0.0,0.0,0.0,0.0,0.0,0.0,0.0,0.0,54,core\src\main\java\org\apache\abdera\util\ServiceUtil.java,0,0,0,0
org.apache.abdera.util.Version, 0, 0, 0, 0, 0, 0, 0, 0, 0, 0, 0, 0, 0, 0,0.0,0.0,0.0,0.0,0.0,0.0,0.0,0.0,0.0,0.0,0.0,0.0,0.0,54,core\src\main\java\org\apache\abdera\util\Version.java,0,0,0,0
org.apache.abdera.util.XmlRestrictedCharReader, 0, 0, 0, 0, 0, 0, 0, 0, 0, 0, 0, 0, 0, 0,0.0,0.0,0.0,0.0,0.0,0.0,0.0,0.0,0.0,0.0,0.0,0.0,0.0,41,core\src\main\java\org\apache\abdera\util\XmlRestrictedCharReader.java,0,0,0,0
org.apache.abdera.util.XmlRestrictedCharReaderTest, 0, 0, 0, 0, 0, 0, 0, 0, 0, 0, 0, 0, 0, 0,0.0,0.0,0.0,0.0,0.0,0.0,0.0,0.0,0.0,0.0,0.0,0.0,0.0,12,core\src\test\java\org\apache\abdera\util\XmlRestrictedCharReaderTest.java,0,0,0,0
org.apache.abdera.util.XmlUtil, 0, 0, 0, 0, 0, 0, 0, 0, 0, 0, 0, 0, 0, 0,0.0,0.0,0.0,0.5,0.0,0.0,0.0,0.0,0.0,0.0,0.0,0.0,0.0,33,core\src\main\java\org\apache\abdera\util\XmlUtil.java,0,0,0,0
org.apache.abdera.util.filter.AbstractListParseFilterTest, 0, 0, 0, 0, 0, 0, 0, 0, 0, 0, 0, 0, 0, 0,0.0,0.0,0.0,0.0,0.0,0.0,0.0,0.0,0.0,0.0,0.0,0.0,0.0,27,core\src\test\java\org\apache\abdera\util\filter\AbstractListParseFilterTest.java,0,0,0,0
org.apache.abdera.util.filter.AbstractParseFilter, 0, 0, 0, 0, 0, 0, 0, 0, 0, 0, 0, 0, 0, 0,0.0,0.0,0.0,0.0,0.0,0.0,0.0,0.0,0.0,0.0,0.0,0.0,0.0,40,core\src\main\java\org\apache\abdera\util\filter\AbstractParseFilter.java,0,0,0,0
org.apache.abdera.util.filter.BlackListParseFilter, 0, 0, 0, 0, 0, 0, 0, 0, 0, 0, 0, 0, 0, 0,0.0,0.0,0.0,0.0,0.0,0.0,0.0,0.0,0.0,0.0,0.0,0.0,0.0,9,core\src\main\java\org\apache\abdera\util\filter\BlackListParseFilter.java,0,0,0,0
org.apache.abdera.util.filter.CompoundParseFilter, 0, 0, 0, 0, 0, 0, 0, 0, 0, 0, 0, 0, 0, 0,0.0,0.0,0.0,0.0,0.0,0.0,0.0,0.0,0.0,0.0,0.0,0.0,0.0,61,core\src\main\java\org\apache\abdera\util\filter\CompoundParseFilter.java,0,0,0,0
org.apache.abdera.util.filter.NonOpParseFilter, 0, 0, 0, 0, 0, 0, 0, 0, 0, 0, 0, 0, 0, 0,0.0,0.0,0.0,0.0,0.0,0.0,0.0,0.0,0.0,0.0,0.0,0.0,0.0,9,core\src\main\java\org\apache\abdera\util\filter\NonOpParseFilter.java,0,0,0,0
org.apache.abdera.util.filter.SafeContentWhiteListParseFilter, 0, 0, 0, 0, 0, 0, 0, 0, 0, 0, 0, 0, 0, 0,0.0,0.0,0.0,0.0,0.0,0.0,0.0,0.0,0.0,0.0,0.0,0.0,0.0,45,core\src\main\java\org\apache\abdera\util\filter\SafeContentWhiteListParseFilter.java,0,0,0,0
org.apache.abdera.util.filter.WhiteListParseFilter, 0, 0, 0, 0, 0, 0, 0, 0, 0, 0, 0, 0, 0, 0,0.0,0.0,0.0,0.0,0.0,0.0,0.0,0.0,0.0,0.0,0.0,0.0,0.0,16,core\src\main\java\org\apache\abdera\util\filter\WhiteListParseFilter.java,0,0,0,0
org.apache.abdera.writer.NamedWriter, 0, 0, 0, 0, 0, 0, 0, 0, 0, 0, 0, 0, 0, 0,0.0,0.0,0.0,0.0,0.0,0.0,0.0,0.0,0.0,0.0,0.0,0.0,0.0,16,core\src\main\java\org\apache\abdera\writer\NamedWriter.java,0,0,0,0
org.apache.abdera.writer.Writer, 0, 0, 0, 0, 0, 0, 0, 0, 0, 0, 0, 0, 0, 0,0.0,0.0,0.0,0.0,0.0,0.0,0.0,0.0,0.0,0.0,0.0,0.0,0.0,16,core\src\main\java\org\apache\abdera\writer\Writer.java,0,0,0,0
org.apache.abdera.writer.WriterFactory, 0, 0, 0, 0, 0, 0, 0, 0, 0, 0, 0, 0, 0, 0,0.0,0.0,0.0,0.0,0.0,0.0,0.0,0.0,0.0,0.0,0.0,0.0,0.0,16,core\src\main\java\org\apache\abdera\writer\WriterFactory.java,0,0,0,0
org.apache.abdera.writer.WriterOptions, 0, 0, 0, 0, 0, 0, 0, 0, 0, 0, 0, 0, 0, 0,0.0,0.0,0.0,0.0,0.0,0.0,0.0,0.0,0.0,0.0,0.0,0.0,0.0,16,core\src\main\java\org\apache\abdera\writer\WriterOptions.java,0,0,0,0
org.apache.abdera.xpath.XPathException, 0, 0, 0, 0, 0, 0, 0, 0, 0, 0, 0, 0, 0, 0,0.0,0.0,0.0,0.0,0.0,0.0,0.0,0.0,0.0,0.0,0.0,0.0,0.0,15,core\src\main\java\org\apache\abdera\xpath\XPathException.java,0,0,0,0
