ClassName,AntiSingleton,Blob,ClassDataShouldBePrivate,ComplexClass,LargeClass,LazyClass,LongMethod,LongParameterList,MessageChains,RefusedParentBequest,SpaghettiCode,SpeculativeGenerality,SwissArmyKnife,NumOfAPs,AntiSingleton,Blob,ClassDataShouldBePrivate,ComplexClass,LargeClass,LazyClass,LongMethod,LongParameterList,MessageChains,RefusedParentBequest,SpaghettiCode,SpeculativeGenerality,SwissArmyKnife,LOC,name,deleted,added,changed,all
org.apache.ode.axis2.AuthenticationHelper, 0, 0, 0, 0, 0, 0, 0, 0, 0, 0, 0, 0, 0, 0,0.0,0.0,0.0,1.0,0.0,0.0,0.0,1.0,0.0,0.0,0.0,0.0,0.0,55,axis2\src\main\java\org\apache\ode\axis2\AuthenticationHelper.java,0,0,0,0
org.apache.ode.axis2.BpelActivityTest, 0, 0, 0, 0, 0, 0, 0, 0, 0, 0, 0, 0, 0, 0,0.0,0.0,0.0,0.0,0.0,0.0,0.0,0.0,0.0,0.0,0.0,0.0,0.0,48,axis2-war\src\test\java\org\apache\ode\axis2\BpelActivityTest.java,0,0,0,0
org.apache.ode.axis2.DummyException, 0, 0, 0, 0, 0, 0, 0, 0, 0, 0, 0, 0, 0, 0,0.0,0.0,0.0,0.0,0.0,0.0,0.0,0.0,0.0,0.0,0.0,0.0,0.0,9,axis2-war\src\test\java\org\apache\ode\axis2\DummyException.java,0,0,0,0
org.apache.ode.axis2.DummyService, 0, 0, 0, 0, 0, 0, 0, 0, 0, 0, 0, 0, 0, 0,0.0,0.0,0.0,0.0,0.0,0.0,0.0,0.0,0.0,0.0,0.0,0.0,0.0,28,axis2-war\src\test\java\org\apache\ode\axis2\DummyService.java,0,3,0,3
org.apache.ode.axis2.ExternalService, 0, 0, 0, 0, 0, 0, 0, 0, 0, 0, 0, 0, 0, 0,0.0,0.0,0.0,0.0,0.0,0.0,0.0,0.0,0.0,0.0,0.0,0.0,0.0,28,axis2\src\main\java\org\apache\ode\axis2\ExternalService.java,0,0,0,0
org.apache.ode.axis2.FailureInvokeTest, 0, 0, 0, 0, 0, 0, 0, 0, 0, 0, 0, 0, 0, 0,0.0,0.0,0.0,0.0,0.0,0.0,0.0,0.0,0.0,0.0,0.0,0.0,0.0,41,axis2-war\src\test\java\org\apache\ode\axis2\FailureInvokeTest.java,0,0,0,0
org.apache.ode.axis2.MessageExchangeContextImpl, 0, 0, 0, 0, 0, 0, 0, 0, 0, 0, 0, 0, 0, 0,0.0,0.0,0.0,0.0,0.0,0.0,0.0,0.0,0.0,0.0,0.0,0.0,0.0,19,axis2\src\main\java\org\apache\ode\axis2\MessageExchangeContextImpl.java,0,0,0,0
org.apache.ode.axis2.MessageStructureTest, 0, 0, 0, 0, 0, 0, 0, 0, 0, 0, 0, 0, 0, 0,0.0,0.0,0.0,0.0,0.0,0.0,0.0,0.0,0.0,0.0,0.0,0.0,0.0,20,axis2-war\src\test\java\org\apache\ode\axis2\MessageStructureTest.java,0,0,0,0
org.apache.ode.axis2.Messages, 0, 0, 0, 1, 0, 0, 0, 0, 0, 0, 0, 0, 0, 1,0.0,0.0,0.0,0.0,0.0,0.0,0.0,0.0,0.0,0.0,0.0,0.0,0.0,81,axis2\src\main\java\org\apache\ode\axis2\Messages.java,0,0,0,0
org.apache.ode.axis2.ODEConfigDirAware, 0, 0, 0, 0, 0, 0, 0, 0, 0, 0, 0, 0, 0, 0,0.0,0.0,0.0,0.0,0.0,0.0,0.0,0.0,0.0,0.0,0.0,0.0,0.0,81,axis2-war\src\test\java\org\apache\ode\axis2\ODEConfigDirAware.java,0,0,2,4
org.apache.ode.axis2.ODEConfigProperties, 0, 0, 0, 0, 0, 0, 0, 0, 0, 0, 0, 0, 0, 0,0.0,0.0,0.0,0.0,0.0,0.0,0.0,1.0,0.0,0.0,0.0,0.0,0.0,7,axis2\src\main\java\org\apache\ode\axis2\ODEConfigProperties.java,0,0,0,0
org.apache.ode.axis2.OdeFault, 0, 0, 0, 0, 0, 0, 0, 0, 0, 0, 0, 0, 0, 0,0.0,0.0,0.0,0.0,0.0,0.0,0.0,0.0,0.0,0.0,0.0,0.0,0.0,16,axis2\src\main\java\org\apache\ode\axis2\OdeFault.java,0,0,1,2
org.apache.ode.axis2.SoapExternalService, 0, 0, 0, 1, 0, 0, 0, 1, 0, 0, 0, 0, 0, 2,0.0,0.0,0.0,0.4,0.0,0.0,0.0,0.4,0.0,0.0,0.0,0.0,0.0,401,axis2\src\main\java\org\apache\ode\axis2\SoapExternalService.java,0,0,3,6
org.apache.ode.axis2.SoapHeaderTest, 0, 0, 0, 0, 0, 0, 0, 0, 0, 0, 0, 0, 0, 0,0.0,0.0,0.0,0.0,0.0,0.0,0.0,0.0,0.0,0.0,0.0,0.0,0.0,38,axis2-war\src\test\java\org\apache\ode\axis2\SoapHeaderTest.java,0,0,0,0
org.apache.ode.axis2.SoapMessageConverterTest, 0, 0, 0, 1, 0, 0, 0, 0, 0, 0, 0, 0, 0, 1,0.0,0.0,0.0,0.0,0.0,0.0,0.0,0.0,0.0,0.0,0.0,0.0,0.0,106,axis2\src\test\java\org\apache\ode\axis2\SoapMessageConverterTest.java,0,0,0,0
org.apache.ode.axis2.XSDReferencesDeployTest, 0, 0, 0, 0, 0, 0, 0, 0, 0, 0, 0, 0, 0, 0,0.0,0.0,0.0,0.0,0.0,0.0,0.0,0.0,0.0,0.0,0.0,0.0,0.0,8,axis2-war\src\test\java\org\apache\ode\axis2\XSDReferencesDeployTest.java,0,0,0,0
org.apache.ode.axis2.correlation.CorrelationJoinHibTest, 0, 0, 0, 0, 0, 0, 0, 0, 0, 0, 0, 0, 0, 0,0.0,0.0,0.0,0.0,0.0,0.0,0.0,0.0,0.0,0.0,0.0,0.0,0.0,5,axis2-war\src\test\java\org\apache\ode\axis2\correlation\CorrelationJoinHibTest.java,0,0,1,2
org.apache.ode.axis2.correlation.CorrelationJoinLazyHibTest, 0, 0, 0, 0, 0, 0, 0, 0, 0, 0, 0, 0, 0, 0,0.0,0.0,0.0,0.0,0.0,0.0,0.0,0.0,0.0,0.0,0.0,0.0,0.0,5,axis2-war\src\test\java\org\apache\ode\axis2\correlation\CorrelationJoinLazyHibTest.java,0,0,1,2
org.apache.ode.axis2.correlation.CorrelationMultiHibTest, 0, 0, 0, 0, 0, 0, 0, 0, 0, 0, 0, 0, 0, 0,0.0,0.0,0.0,0.0,0.0,0.0,0.0,0.0,0.0,0.0,0.0,0.0,0.0,5,axis2-war\src\test\java\org\apache\ode\axis2\correlation\CorrelationMultiHibTest.java,0,0,1,2
org.apache.ode.axis2.hooks.ODEAxisOperationDispatcher, 0, 0, 0, 0, 0, 0, 0, 1, 0, 0, 0, 0, 0, 1,0.0,0.0,0.0,0.0,0.0,0.0,0.0,0.0,0.0,0.0,0.0,0.0,0.0,54,axis2\src\main\java\org\apache\ode\axis2\hooks\ODEAxisOperationDispatcher.java,3,7,0,10
org.apache.ode.axis2.hooks.ODEAxisServiceDispatcher, 0, 0, 0, 0, 0, 0, 0, 0, 0, 0, 0, 0, 0, 0,0.0,0.0,0.0,0.0,0.0,0.0,0.0,0.0,0.0,0.0,0.0,0.0,0.0,46,axis2\src\main\java\org\apache\ode\axis2\hooks\ODEAxisServiceDispatcher.java,1,11,4,20
org.apache.ode.axis2.hooks.ODEAxisServlet, 0, 0, 0, 0, 0, 0, 0, 0, 0, 0, 0, 0, 0, 0,0.0,0.0,0.0,0.0,0.0,0.0,0.0,0.0,0.0,0.0,0.0,0.0,0.0,26,axis2\src\main\java\org\apache\ode\axis2\hooks\ODEAxisServlet.java,0,0,2,4
org.apache.ode.axis2.hooks.ODEMessageReceiver, 0, 0, 0, 0, 0, 0, 0, 0, 0, 0, 0, 0, 0, 0,0.0,0.0,0.0,0.0,0.0,0.0,0.0,0.0,0.0,0.0,0.0,0.0,0.0,47,axis2\src\main\java\org\apache\ode\axis2\hooks\ODEMessageReceiver.java,0,0,0,0
org.apache.ode.axis2.hooks.SessionInHandler, 0, 0, 0, 0, 0, 0, 0, 0, 0, 0, 0, 0, 0, 0,0.0,0.0,0.0,0.0,0.0,0.0,0.0,0.0,0.0,0.0,0.0,0.0,0.0,55,axis2\src\main\java\org\apache\ode\axis2\hooks\SessionInHandler.java,0,3,1,5
org.apache.ode.axis2.hooks.SessionOutHandler, 0, 0, 0, 0, 0, 0, 0, 0, 0, 0, 0, 0, 0, 0,0.0,0.0,0.0,0.0,0.0,0.0,0.0,0.0,0.0,0.0,0.0,0.0,0.0,80,axis2\src\main\java\org\apache\ode\axis2\hooks\SessionOutHandler.java,0,0,0,0
org.apache.ode.axis2.httpbinding.HttpBindingTest, 0, 0, 0, 0, 0, 0, 0, 0, 0, 0, 0, 0, 0, 0,0.0,0.0,0.0,0.0,0.0,0.0,0.0,0.0,0.0,0.0,0.0,0.0,0.0,63,axis2-war\src\test\java\org\apache\ode\axis2\httpbinding\HttpBindingTest.java,0,0,0,0
org.apache.ode.axis2.httpbinding.HttpHelperTest, 0, 0, 0, 0, 0, 0, 0, 0, 0, 0, 0, 0, 0, 0,0.0,0.0,0.0,0.0,0.0,0.0,0.0,0.0,0.0,0.0,0.0,0.0,0.0,43,axis2\src\test\java\org\apache\ode\axis2\httpbinding\HttpHelperTest.java,0,0,0,0
org.apache.ode.axis2.httpbinding.Messages, 0, 0, 0, 0, 0, 0, 0, 1, 0, 0, 0, 0, 0, 1,0.0,0.0,0.0,0.0,0.0,0.0,0.0,0.0,0.0,0.0,0.0,0.0,0.0,35,axis2\src\main\java\org\apache\ode\axis2\httpbinding\Messages.java,0,0,0,0
org.apache.ode.axis2.httpbinding.ProxyConf, 0, 0, 0, 0, 0, 0, 0, 1, 0, 0, 0, 0, 0, 1,0.0,0.0,0.0,0.0,0.0,0.0,0.0,0.0,0.0,0.0,0.0,0.0,0.0,47,axis2\src\main\java\org\apache\ode\axis2\httpbinding\ProxyConf.java,0,0,0,0
org.apache.ode.axis2.instancecleanup.CleanFailureHibTest, 0, 0, 0, 0, 0, 0, 0, 0, 0, 0, 0, 0, 0, 0,0.0,0.0,0.0,0.0,0.0,0.0,0.0,0.5,0.0,0.0,0.0,0.0,0.0,13,axis2-war\src\test\java\org\apache\ode\axis2\instancecleanup\CleanFailureHibTest.java,0,0,0,0
org.apache.ode.axis2.instancecleanup.CleanFailureTest, 0, 0, 0, 0, 0, 0, 0, 0, 0, 0, 0, 0, 0, 0,0.0,0.0,0.0,0.0,0.0,0.0,0.0,0.3333333333333333,0.0,0.0,0.0,0.0,0.0,29,axis2-war\src\test\java\org\apache\ode\axis2\instancecleanup\CleanFailureTest.java,0,0,0,0
org.apache.ode.axis2.instancecleanup.CleanFaultHibTest, 0, 0, 0, 0, 0, 0, 0, 0, 0, 0, 0, 0, 0, 0,0.0,0.0,0.0,0.0,0.0,0.0,0.0,1.0,0.0,0.0,0.0,0.0,0.0,9,axis2-war\src\test\java\org\apache\ode\axis2\instancecleanup\CleanFaultHibTest.java,0,0,0,0
org.apache.ode.axis2.instancecleanup.CleanFaultTest, 0, 0, 0, 0, 0, 0, 0, 1, 0, 0, 0, 0, 0, 1,0.0,0.0,0.0,0.0,0.0,0.0,0.0,0.25,0.0,0.0,0.0,0.0,0.0,63,axis2-war\src\test\java\org\apache\ode\axis2\instancecleanup\CleanFaultTest.java,0,0,0,0
org.apache.ode.axis2.instancecleanup.CleanSuccessHibTest, 0, 0, 0, 0, 0, 0, 0, 0, 0, 0, 0, 0, 0, 0,0.0,0.0,0.0,0.0,0.0,0.0,0.0,1.0,0.0,0.0,0.0,0.0,0.0,9,axis2-war\src\test\java\org\apache\ode\axis2\instancecleanup\CleanSuccessHibTest.java,0,0,0,0
org.apache.ode.axis2.instancecleanup.CleanSuccessTest, 0, 0, 0, 0, 0, 0, 0, 1, 0, 0, 0, 0, 0, 1,0.0,0.0,0.0,0.0,0.0,0.0,0.0,0.25,0.0,0.0,0.0,0.0,0.0,63,axis2-war\src\test\java\org\apache\ode\axis2\instancecleanup\CleanSuccessTest.java,0,0,0,0
org.apache.ode.axis2.instancecleanup.CleanTestBase, 0, 0, 0, 0, 0, 0, 0, 1, 0, 0, 0, 0, 0, 1,0.0,0.0,0.0,0.0,0.0,0.0,0.0,0.5,0.0,0.0,0.0,0.0,0.0,93,axis2-war\src\test\java\org\apache\ode\axis2\instancecleanup\CleanTestBase.java,0,0,0,0
org.apache.ode.axis2.instancecleanup.HibDaoConnectionFactoryImpl, 0, 0, 0, 0, 0, 0, 0, 1, 0, 0, 0, 0, 0, 1,0.0,0.0,0.0,0.3333333333333333,0.0,0.0,0.0,0.3333333333333333,0.0,0.0,0.0,0.0,0.0,46,axis2-war\src\test\java\org\apache\ode\axis2\instancecleanup\HibDaoConnectionFactoryImpl.java,0,0,0,0
org.apache.ode.axis2.instancecleanup.JpaDaoConnectionFactoryImpl, 0, 0, 0, 0, 0, 0, 0, 0, 0, 0, 0, 0, 0, 0,0.0,0.0,0.0,0.0,0.0,0.0,0.0,0.6666666666666666,0.0,0.0,0.0,0.0,0.0,40,axis2-war\src\test\java\org\apache\ode\axis2\instancecleanup\JpaDaoConnectionFactoryImpl.java,0,0,0,0
org.apache.ode.axis2.instancecleanup.ProcessCronCleanupTest, 0, 0, 0, 0, 0, 0, 0, 1, 0, 0, 0, 0, 0, 1,0.0,0.0,0.0,0.0,0.0,0.0,0.0,1.0,0.0,0.0,0.0,0.0,0.0,25,axis2-war\src\test\java\org\apache\ode\axis2\instancecleanup\ProcessCronCleanupTest.java,0,0,0,0
org.apache.ode.axis2.instancecleanup.ProfilingBpelDAOConnection, 0, 0, 0, 0, 0, 0, 0, 0, 0, 0, 0, 0, 0, 0,0.0,0.0,0.0,0.0,0.0,0.0,0.0,0.0,0.0,0.0,0.0,0.0,0.0,25,axis2-war\src\test\java\org\apache\ode\axis2\instancecleanup\ProfilingBpelDAOConnection.java,0,0,0,0
org.apache.ode.axis2.management.ExecutionPathTest, 0, 0, 0, 0, 0, 0, 0, 0, 0, 0, 0, 0, 0, 0,0.0,0.0,0.0,0.0,0.0,0.0,0.0,1.0,0.0,0.0,0.0,0.0,0.0,81,axis2\src\test\java\org\apache\ode\axis2\management\ExecutionPathTest.java,0,0,0,0
org.apache.ode.axis2.management.InstanceManagementTest, 0, 0, 0, 1, 0, 0, 0, 0, 0, 0, 0, 0, 0, 1,0.0,0.0,0.0,0.0,0.0,0.0,0.0,1.0,0.0,0.0,0.0,0.0,0.0,179,axis2-war\src\test\java\org\apache\ode\axis2\management\InstanceManagementTest.java,0,0,0,0
org.apache.ode.axis2.management.ProcessManagementTest, 0, 0, 0, 0, 0, 0, 0, 0, 0, 0, 0, 0, 0, 0,0.0,0.0,0.0,0.0,0.0,0.0,0.0,1.0,0.0,0.0,0.0,0.0,0.0,110,axis2\src\test\java\org\apache\ode\axis2\management\ProcessManagementTest.java,0,0,0,0
org.apache.ode.axis2.management.Retire2Test, 0, 0, 0, 0, 0, 0, 0, 0, 0, 0, 0, 0, 0, 0,0.0,0.0,0.0,0.0,0.0,0.0,0.0,0.0,0.0,0.0,0.0,0.0,0.0,21,axis2-war\src\test\java\org\apache\ode\axis2\management\Retire2Test.java,0,0,0,0
org.apache.ode.axis2.management.RetireTest, 0, 0, 0, 0, 0, 0, 0, 0, 0, 0, 0, 0, 0, 0,0.0,0.0,0.0,0.0,0.0,0.0,0.0,0.0,0.0,0.0,0.0,0.0,0.0,20,axis2-war\src\test\java\org\apache\ode\axis2\management\RetireTest.java,0,0,0,0
org.apache.ode.axis2.service.DeploymentWebService, 0, 0, 0, 0, 0, 0, 0, 1, 0, 0, 0, 0, 0, 1,0.0,0.0,0.0,0.0,0.0,0.0,0.0,0.0,0.0,0.0,0.0,0.0,0.0,221,axis2\src\main\java\org\apache\ode\axis2\service\DeploymentWebService.java,0,0,0,0
org.apache.ode.axis2.service.ManagementService, 0, 0, 0, 0, 0, 0, 0, 1, 0, 0, 0, 0, 0, 1,0.0,0.0,0.0,0.0,0.0,0.0,0.0,0.0,0.0,0.0,0.0,0.0,0.0,79,axis2\src\main\java\org\apache\ode\axis2\service\ManagementService.java,0,0,0,0
org.apache.ode.axis2.service.ServiceClientUtil, 0, 0, 0, 0, 0, 0, 0, 1, 0, 0, 0, 0, 0, 1,0.0,0.0,0.0,0.3333333333333333,0.0,0.0,0.0,0.0,0.0,0.0,0.0,0.0,0.0,42,axis2\src\main\java\org\apache\ode\axis2\service\ServiceClientUtil.java,0,6,1,8
org.apache.ode.axis2.util.Axis2UriResolver, 0, 0, 0, 0, 0, 0, 0, 1, 0, 0, 0, 0, 0, 1,0.0,0.0,0.0,0.0,0.0,0.0,0.0,0.0,0.0,0.0,0.0,0.0,0.0,26,axis2\src\main\java\org\apache\ode\axis2\util\Axis2UriResolver.java,0,0,0,0
org.apache.ode.axis2.util.Axis2WSDLLocator, 0, 0, 0, 0, 0, 0, 0, 0, 0, 0, 0, 0, 0, 0,0.0,0.0,0.0,0.0,0.0,0.0,0.0,0.0,0.0,0.0,0.0,0.0,0.0,70,axis2\src\main\java\org\apache\ode\axis2\util\Axis2WSDLLocator.java,0,0,0,0
org.apache.ode.axis2.util.AxisUtils, 0, 0, 0, 0, 0, 0, 0, 1, 0, 0, 0, 0, 0, 1,0.0,0.0,0.0,1.0,0.0,0.0,0.0,1.0,0.0,0.0,0.0,0.0,0.0,62,axis2\src\main\java\org\apache\ode\axis2\util\AxisUtils.java,0,0,0,0
org.apache.ode.axis2.util.GeronimoFactory, 0, 0, 0, 0, 0, 0, 0, 0, 0, 0, 0, 0, 0, 0,0.0,0.0,0.0,0.0,0.0,0.0,0.0,0.0,0.0,0.0,0.0,0.0,0.0,11,axis2\src\main\java\org\apache\ode\axis2\util\GeronimoFactory.java,0,0,0,0
org.apache.ode.bpel.bdi.breaks.ActivityBreakpoint, 0, 0, 0, 0, 0, 0, 0, 0, 0, 0, 0, 0, 0, 0,0.0,0.0,0.0,0.0,0.0,0.0,0.0,0.0,0.0,0.0,0.0,0.0,0.0,11,bpel-api\src\main\java\org\apache\ode\bpel\bdi\breaks\ActivityBreakpoint.java,0,0,0,0
org.apache.ode.bpel.bdi.breaks.Breakpoint, 0, 0, 0, 0, 0, 0, 0, 0, 0, 0, 0, 0, 0, 0,0.0,0.0,0.0,0.0,0.0,0.0,0.0,0.0,0.0,0.0,0.0,0.0,0.0,11,bpel-api\src\main\java\org\apache\ode\bpel\bdi\breaks\Breakpoint.java,0,0,0,0
org.apache.ode.bpel.bdi.breaks.VariableModificationBreakpoint, 0, 0, 0, 0, 0, 0, 0, 0, 0, 0, 0, 0, 0, 0,0.0,0.0,0.0,0.0,0.0,0.0,0.0,0.0,0.0,0.0,0.0,0.0,0.0,11,bpel-api\src\main\java\org\apache\ode\bpel\bdi\breaks\VariableModificationBreakpoint.java,0,0,0,0
org.apache.ode.bpel.common.BpelEventFilter, 0, 0, 1, 0, 0, 0, 0, 0, 0, 0, 0, 0, 0, 1,0.0,0.0,0.0,0.0,0.0,0.0,0.0,0.0,0.0,0.0,0.0,0.0,0.0,48,bpel-api\src\main\java\org\apache\ode\bpel\common\BpelEventFilter.java,0,0,0,0
org.apache.ode.bpel.common.FaultException, 0, 0, 0, 0, 0, 0, 0, 1, 0, 0, 0, 0, 0, 1,0.0,0.0,0.0,0.07692307692307693,0.0,0.0,0.0,1.0,0.0,0.0,0.0,0.0,0.0,23,bpel-api\src\main\java\org\apache\ode\bpel\common\FaultException.java,0,0,0,0
org.apache.ode.bpel.common.InvalidMessageException, 0, 0, 0, 0, 0, 0, 0, 0, 0, 0, 0, 0, 0, 0,0.0,0.0,0.0,0.0,0.0,0.0,0.0,0.0,0.0,0.0,0.0,0.0,0.0,6,bpel-api\src\main\java\org\apache\ode\bpel\common\InvalidMessageException.java,0,0,0,0
org.apache.ode.bpel.common.Messages, 0, 0, 0, 0, 0, 0, 0, 0, 0, 0, 0, 0, 0, 0,0.0,0.0,0.0,0.0,0.0,0.0,0.0,0.0,0.0,0.0,0.0,0.0,0.0,11,bpel-api\src\main\java\org\apache\ode\bpel\common\Messages.java,0,0,0,0
org.apache.ode.bpel.common.ProcessFilter, 0, 0, 0, 0, 0, 0, 0, 0, 0, 0, 0, 0, 0, 0,0.0,0.0,0.0,0.0,0.0,0.0,0.0,0.0,0.0,0.0,0.0,0.0,0.0,121,bpel-api\src\main\java\org\apache\ode\bpel\common\ProcessFilter.java,0,0,0,0
org.apache.ode.bpel.common.ProcessState, 0, 0, 0, 0, 0, 0, 0, 0, 0, 0, 0, 0, 0, 0,0.0,0.0,0.0,1.0,0.0,0.0,0.0,1.0,0.0,0.0,0.0,0.0,0.0,47,bpel-api\src\main\java\org\apache\ode\bpel\common\ProcessState.java,0,0,0,0
org.apache.ode.bpel.compiler.ActivityGenerator, 0, 0, 0, 0, 0, 0, 0, 0, 0, 0, 0, 0, 0, 0,0.0,0.0,0.0,0.0,0.0,0.0,0.0,0.0,0.0,0.0,0.0,0.0,0.0,47,bpel-compiler\src\main\java\org\apache\ode\bpel\compiler\ActivityGenerator.java,0,0,0,0
org.apache.ode.bpel.compiler.AssignGenerator, 0, 0, 0, 0, 0, 0, 0, 0, 0, 0, 0, 0, 0, 0,0.0,0.0,0.0,0.0,0.0,0.06666666666666667,0.0,0.06666666666666667,0.0,0.0,0.0,0.0,0.0,178,bpel-compiler\src\main\java\org\apache\ode\bpel\compiler\AssignGenerator.java,0,0,0,0
org.apache.ode.bpel.compiler.AssignGeneratorMessages, 0, 0, 0, 0, 0, 0, 0, 1, 0, 0, 0, 0, 0, 1,0.0,0.0,0.0,0.0,0.0,0.0,0.0,0.0,0.0,0.0,0.0,0.0,0.0,38,bpel-compiler\src\main\java\org\apache\ode\bpel\compiler\AssignGeneratorMessages.java,0,0,0,0
org.apache.ode.bpel.compiler.BpelCompiler11, 0, 0, 0, 0, 0, 0, 0, 0, 0, 0, 0, 0, 0, 0,0.0,0.0,0.0,0.0,0.0,0.0,0.0,0.0,0.0,0.0,0.0,0.0,0.0,27,bpel-compiler\src\main\java\org\apache\ode\bpel\compiler\BpelCompiler11.java,0,0,0,0
org.apache.ode.bpel.compiler.BpelCompiler20, 0, 0, 0, 0, 0, 0, 0, 0, 0, 0, 0, 0, 0, 0,0.0,0.0,0.0,0.0,0.0,0.0,0.0,0.0,0.0,0.0,0.0,0.0,0.0,45,bpel-compiler\src\main\java\org\apache\ode\bpel\compiler\BpelCompiler20.java,0,0,0,0
org.apache.ode.bpel.compiler.BpelCompiler20Draft, 0, 0, 0, 0, 0, 0, 0, 0, 0, 0, 0, 0, 0, 0,0.0,0.0,0.0,0.0,0.0,0.5,0.0,0.0,0.0,0.0,0.0,0.0,0.0,44,bpel-compiler\src\main\java\org\apache\ode\bpel\compiler\BpelCompiler20Draft.java,0,0,0,0
org.apache.ode.bpel.compiler.CommonCompilationMessages, 0, 0, 0, 1, 0, 0, 0, 1, 0, 0, 0, 0, 0, 2,0.0,0.0,0.0,0.0,0.0,0.0,0.0,0.4,0.0,0.0,0.0,0.0,0.0,291,bpel-compiler\src\main\java\org\apache\ode\bpel\compiler\CommonCompilationMessages.java,0,0,0,0
org.apache.ode.bpel.compiler.CompensateGenerator, 0, 0, 0, 0, 0, 0, 0, 0, 0, 0, 0, 0, 0, 0,0.0,0.0,0.3333333333333333,0.0,0.0,0.0,0.0,0.0,0.0,0.0,0.0,0.0,0.0,7,bpel-compiler\src\main\java\org\apache\ode\bpel\compiler\CompensateGenerator.java,0,0,0,0
org.apache.ode.bpel.compiler.CompensateGeneratorMessages, 0, 0, 0, 0, 0, 0, 0, 0, 0, 0, 0, 0, 0, 0,0.0,0.0,0.0,0.0,0.0,0.0,0.0,0.0,0.0,0.0,0.0,0.0,0.0,5,bpel-compiler\src\main\java\org\apache\ode\bpel\compiler\CompensateGeneratorMessages.java,0,0,0,0
org.apache.ode.bpel.compiler.CompensateScopeGenerator, 0, 0, 0, 0, 0, 0, 0, 0, 0, 0, 0, 0, 0, 0,0.0,0.0,0.16666666666666666,0.0,0.0,0.0,0.0,0.0,0.0,0.0,0.0,0.0,0.0,12,bpel-compiler\src\main\java\org\apache\ode\bpel\compiler\CompensateScopeGenerator.java,0,0,0,0
org.apache.ode.bpel.compiler.CompilationMessageTest, 0, 0, 0, 0, 0, 0, 0, 0, 0, 0, 0, 0, 0, 0,0.0,0.0,0.0,0.0,0.0,0.0,0.0,0.0,0.0,0.0,0.0,0.0,0.0,75,bpel-compiler\src\test\java\org\apache\ode\bpel\compiler\CompilationMessageTest.java,0,0,0,0
org.apache.ode.bpel.compiler.CompilationTestMessages, 0, 0, 0, 0, 0, 0, 0, 0, 0, 0, 0, 0, 0, 0,0.0,0.0,0.0,0.0,0.0,0.0,0.0,0.0,0.0,0.0,0.0,0.0,0.0,23,bpel-compiler\src\test\java\org\apache\ode\bpel\compiler\CompilationTestMessages.java,0,0,0,0
org.apache.ode.bpel.compiler.CompilationTestMessages_de, 0, 0, 0, 0, 0, 0, 0, 0, 0, 0, 0, 0, 0, 0,0.0,0.0,0.0,0.0,0.0,0.0,0.0,0.0,0.0,0.0,0.0,0.0,0.0,5,bpel-compiler\src\test\java\org\apache\ode\bpel\compiler\CompilationTestMessages_de.java,0,0,0,0
org.apache.ode.bpel.compiler.DefaultActivityGenerator, 0, 0, 0, 0, 0, 0, 0, 0, 0, 0, 0, 0, 0, 0,0.0,0.0,0.0,0.0,0.0,0.0,0.0,0.10526315789473684,0.0,0.0,0.0,0.0,0.0,22,bpel-compiler\src\main\java\org\apache\ode\bpel\compiler\DefaultActivityGenerator.java,0,0,0,0
org.apache.ode.bpel.compiler.DefaultResourceFinder, 0, 0, 0, 0, 0, 0, 0, 0, 0, 0, 0, 0, 0, 0,0.0,0.0,0.0,0.0,0.0,0.0,0.0,0.0,0.0,0.0,0.0,0.0,0.0,88,bpel-compiler\src\main\java\org\apache\ode\bpel\compiler\DefaultResourceFinder.java,0,0,0,0
org.apache.ode.bpel.compiler.EmptyGenerator, 0, 0, 0, 0, 0, 0, 0, 0, 0, 0, 0, 0, 0, 0,0.0,0.0,0.0,0.0,0.0,0.0,0.0,0.0,0.0,0.0,0.0,0.0,0.0,7,bpel-compiler\src\main\java\org\apache\ode\bpel\compiler\EmptyGenerator.java,0,0,0,0
org.apache.ode.bpel.compiler.FlowGenerator, 0, 0, 0, 0, 0, 0, 0, 0, 0, 0, 0, 0, 0, 0,0.0,0.0,0.1111111111111111,0.0,0.0,0.0,0.0,0.0,0.0,0.0,0.0,0.0,0.0,54,bpel-compiler\src\main\java\org\apache\ode\bpel\compiler\FlowGenerator.java,0,0,0,0
org.apache.ode.bpel.compiler.FlowGeneratorMessages, 0, 0, 0, 0, 0, 0, 0, 0, 0, 0, 0, 0, 0, 0,0.0,0.0,0.0,0.0,0.0,0.0,0.0,0.0,0.0,0.0,0.0,0.0,0.0,11,bpel-compiler\src\main\java\org\apache\ode\bpel\compiler\FlowGeneratorMessages.java,0,0,0,0
org.apache.ode.bpel.compiler.ForEachGenerator, 0, 0, 0, 0, 0, 0, 0, 0, 0, 0, 0, 0, 0, 0,0.0,0.0,0.2,0.0,0.0,0.0,0.0,0.0,0.0,0.0,0.0,0.0,0.0,37,bpel-compiler\src\main\java\org\apache\ode\bpel\compiler\ForEachGenerator.java,0,0,2,4
org.apache.ode.bpel.compiler.ForEachGeneratorMessages, 0, 0, 0, 0, 0, 0, 0, 0, 0, 0, 0, 0, 0, 0,0.0,0.0,0.0,0.0,0.0,0.0,0.0,0.0,0.0,0.0,0.0,0.0,0.0,9,bpel-compiler\src\main\java\org\apache\ode\bpel\compiler\ForEachGeneratorMessages.java,0,0,0,0
org.apache.ode.bpel.compiler.IfGenerator, 0, 0, 0, 0, 0, 0, 0, 0, 0, 0, 0, 0, 0, 0,0.0,0.0,0.0,0.0,0.0,0.0,0.0,0.0,0.0,0.0,0.0,0.0,0.0,28,bpel-compiler\src\main\java\org\apache\ode\bpel\compiler\IfGenerator.java,0,0,0,0
org.apache.ode.bpel.compiler.IfGeneratorMessages, 0, 0, 0, 0, 0, 0, 0, 0, 0, 0, 0, 0, 0, 0,0.0,0.0,0.0,0.0,0.0,0.0,0.0,0.0,0.0,0.0,0.0,0.0,0.0,5,bpel-compiler\src\main\java\org\apache\ode\bpel\compiler\IfGeneratorMessages.java,0,0,0,0
org.apache.ode.bpel.compiler.InvokeGenerator, 0, 0, 0, 0, 0, 0, 0, 1, 0, 0, 0, 0, 0, 1,0.0,0.0,0.14285714285714285,0.14285714285714285,0.0,0.0,0.0,0.14285714285714285,0.0,0.0,0.0,0.0,0.0,99,bpel-compiler\src\main\java\org\apache\ode\bpel\compiler\InvokeGenerator.java,0,0,0,0
org.apache.ode.bpel.compiler.InvokeGeneratorMessages, 0, 0, 0, 0, 0, 0, 0, 0, 0, 0, 0, 0, 0, 0,0.0,0.0,0.0,0.0,0.0,0.0,0.0,0.5,0.0,0.0,0.0,0.0,0.0,12,bpel-compiler\src\main\java\org\apache\ode\bpel\compiler\InvokeGeneratorMessages.java,0,0,0,0
org.apache.ode.bpel.compiler.PickGenerator, 0, 0, 0, 0, 0, 0, 0, 0, 0, 0, 0, 0, 0, 0,0.0,0.0,0.1111111111111111,0.0,0.0,0.0,0.0,0.1111111111111111,0.0,0.0,0.0,0.0,0.0,42,bpel-compiler\src\main\java\org\apache\ode\bpel\compiler\PickGenerator.java,0,0,0,0
org.apache.ode.bpel.compiler.PickGeneratorMessages, 0, 0, 0, 0, 0, 0, 0, 0, 0, 0, 0, 0, 0, 0,0.0,0.0,0.0,0.0,0.0,0.0,0.0,0.3333333333333333,0.0,0.0,0.0,0.0,0.0,18,bpel-compiler\src\main\java\org\apache\ode\bpel\compiler\PickGeneratorMessages.java,0,0,0,0
org.apache.ode.bpel.compiler.PickReceiveGenerator, 0, 0, 0, 0, 0, 0, 0, 1, 0, 0, 0, 0, 0, 1,0.0,0.0,0.125,0.125,0.0,0.0,0.0,0.125,0.0,0.0,0.0,0.0,0.0,61,bpel-compiler\src\main\java\org\apache\ode\bpel\compiler\PickReceiveGenerator.java,0,0,0,0
org.apache.ode.bpel.compiler.ReceiveGenerator, 0, 0, 0, 0, 0, 0, 0, 0, 0, 0, 0, 0, 0, 0,0.0,0.0,0.0,0.0,0.0,0.0,0.0,0.2,0.0,0.0,0.0,0.0,0.0,18,bpel-compiler\src\main\java\org\apache\ode\bpel\compiler\ReceiveGenerator.java,0,0,0,0
org.apache.ode.bpel.compiler.RepeatUntilGenerator, 0, 0, 0, 0, 0, 0, 0, 0, 0, 0, 0, 0, 0, 0,0.0,0.0,0.25,0.0,0.0,0.0,0.0,0.0,0.0,0.0,0.0,0.0,0.0,11,bpel-compiler\src\main\java\org\apache\ode\bpel\compiler\RepeatUntilGenerator.java,0,0,0,0
org.apache.ode.bpel.compiler.ReplyGenerator, 0, 0, 0, 0, 0, 0, 0, 0, 0, 0, 0, 0, 0, 0,0.0,0.0,0.14285714285714285,0.14285714285714285,0.0,0.0,0.0,0.14285714285714285,0.0,0.0,0.0,0.0,0.0,72,bpel-compiler\src\main\java\org\apache\ode\bpel\compiler\ReplyGenerator.java,0,0,0,0
org.apache.ode.bpel.compiler.ReplyGeneratorMessages, 0, 0, 0, 0, 0, 0, 0, 0, 0, 0, 0, 0, 0, 0,0.0,0.0,0.0,0.0,0.0,0.0,0.0,0.0,0.0,0.0,0.0,0.0,0.0,9,bpel-compiler\src\main\java\org\apache\ode\bpel\compiler\ReplyGeneratorMessages.java,0,0,0,0
org.apache.ode.bpel.compiler.ResourceFinder, 0, 0, 0, 0, 0, 0, 0, 0, 0, 0, 0, 0, 0, 0,0.0,0.0,0.0,0.0,0.0,0.0,0.0,0.0,0.0,0.0,0.0,0.0,0.0,9,bpel-compiler\src\main\java\org\apache\ode\bpel\compiler\ResourceFinder.java,0,0,0,0
org.apache.ode.bpel.compiler.RethrowGenerator, 0, 0, 0, 0, 0, 0, 0, 0, 0, 0, 0, 0, 0, 0,0.0,0.0,0.0,0.0,0.0,0.0,0.0,0.0,0.0,0.0,0.0,0.0,0.0,7,bpel-compiler\src\main\java\org\apache\ode\bpel\compiler\RethrowGenerator.java,0,0,0,0
org.apache.ode.bpel.compiler.SequenceGenerator, 0, 0, 0, 0, 0, 0, 0, 0, 0, 0, 0, 0, 0, 0,0.0,0.0,0.0,0.16666666666666666,0.0,0.0,0.0,0.16666666666666666,0.0,0.0,0.0,0.0,0.0,24,bpel-compiler\src\main\java\org\apache\ode\bpel\compiler\SequenceGenerator.java,0,0,0,0
org.apache.ode.bpel.compiler.SourceLocationImpl, 0, 0, 0, 0, 0, 0, 0, 0, 0, 0, 0, 0, 0, 0,0.0,0.0,0.0,0.0,0.0,0.0,0.0,0.0,0.0,0.0,0.0,0.0,0.0,21,bpel-compiler\src\main\java\org\apache\ode\bpel\compiler\SourceLocationImpl.java,0,0,0,0
org.apache.ode.bpel.compiler.StaticCheckSuite, 0, 0, 0, 0, 0, 0, 0, 0, 0, 0, 0, 0, 0, 0,0.0,0.0,0.0,0.0,0.0,0.0,0.0,0.0,0.0,0.0,0.0,0.0,0.0,17,bpel-compiler\src\test\java\org\apache\ode\bpel\compiler\StaticCheckSuite.java,0,0,0,0
org.apache.ode.bpel.compiler.StaticCheckTCase, 0, 0, 0, 0, 0, 0, 0, 0, 0, 0, 0, 0, 0, 0,0.0,0.0,0.0,0.0,0.0,0.0,0.0,0.0,0.0,0.0,0.0,0.0,0.0,61,bpel-compiler\src\test\java\org\apache\ode\bpel\compiler\StaticCheckTCase.java,0,0,0,0
org.apache.ode.bpel.compiler.SwitchGenerator, 0, 0, 0, 0, 0, 0, 0, 0, 0, 0, 0, 0, 0, 0,0.0,0.0,0.0,0.0,0.0,0.0,0.0,0.0,0.0,0.0,0.0,0.0,0.0,14,bpel-compiler\src\main\java\org\apache\ode\bpel\compiler\SwitchGenerator.java,0,0,0,0
org.apache.ode.bpel.compiler.TerminateGenerator, 0, 0, 0, 0, 0, 0, 0, 0, 0, 0, 0, 0, 0, 0,0.0,0.0,0.0,0.0,0.0,0.0,0.0,0.0,0.0,0.0,0.0,0.0,0.0,8,bpel-compiler\src\main\java\org\apache\ode\bpel\compiler\TerminateGenerator.java,0,0,0,0
org.apache.ode.bpel.compiler.ThrowGenerator, 0, 0, 0, 0, 0, 0, 0, 0, 0, 0, 0, 0, 0, 0,0.0,0.0,0.25,0.0,0.0,0.0,0.0,0.0,0.0,0.0,0.0,0.0,0.0,12,bpel-compiler\src\main\java\org\apache\ode\bpel\compiler\ThrowGenerator.java,0,0,0,0
org.apache.ode.bpel.compiler.WSDLLocatorImpl, 0, 0, 0, 0, 0, 0, 0, 0, 0, 0, 0, 0, 0, 0,0.0,0.0,0.0,0.0,0.0,0.0,0.0,0.0,0.0,0.0,0.0,0.0,0.0,50,bpel-compiler\src\main\java\org\apache\ode\bpel\compiler\WSDLLocatorImpl.java,0,0,0,0
org.apache.ode.bpel.compiler.WSDLRegistryTest, 0, 0, 0, 0, 0, 0, 0, 0, 0, 0, 0, 0, 0, 0,0.0,0.0,0.0,0.0,0.0,0.0,0.0,0.0,0.0,0.0,0.0,0.0,0.0,37,bpel-compiler\src\test\java\org\apache\ode\bpel\compiler\WSDLRegistryTest.java,0,0,0,0
org.apache.ode.bpel.compiler.WaitGenerator, 0, 0, 0, 0, 0, 0, 0, 0, 0, 0, 0, 0, 0, 0,0.0,0.0,0.16666666666666666,0.0,0.0,0.0,0.0,0.0,0.0,0.0,0.0,0.0,0.0,19,bpel-compiler\src\main\java\org\apache\ode\bpel\compiler\WaitGenerator.java,0,0,0,0
org.apache.ode.bpel.compiler.WaitGeneratorMessages, 0, 0, 0, 0, 0, 0, 0, 0, 0, 0, 0, 0, 0, 0,0.0,0.0,0.0,0.0,0.0,0.0,0.0,0.0,0.0,0.0,0.0,0.0,0.0,5,bpel-compiler\src\main\java\org\apache\ode\bpel\compiler\WaitGeneratorMessages.java,0,0,0,0
org.apache.ode.bpel.compiler.WhileGenerator, 0, 0, 0, 0, 0, 0, 0, 0, 0, 0, 0, 0, 0, 0,0.0,0.0,0.25,0.0,0.0,0.0,0.0,0.0,0.0,0.0,0.0,0.0,0.0,11,bpel-compiler\src\main\java\org\apache\ode\bpel\compiler\WhileGenerator.java,0,0,0,0
org.apache.ode.bpel.compiler.api.CompilationException, 0, 0, 0, 0, 0, 0, 0, 0, 0, 0, 0, 0, 0, 0,0.0,0.0,0.0,0.05555555555555555,0.0,0.0,0.0,0.2222222222222222,0.0,0.0,0.0,0.0,0.0,17,bpel-compiler\src\main\java\org\apache\ode\bpel\compiler\api\CompilationException.java,0,0,0,0
org.apache.ode.bpel.compiler.api.CompilationMessageBundle, 0, 0, 0, 0, 0, 0, 0, 0, 0, 0, 0, 0, 0, 0,0.0,0.0,0.0,0.07142857142857142,0.0,0.0,0.0,0.14285714285714285,0.0,0.0,0.0,0.0,0.0,33,bpel-compiler\src\main\java\org\apache\ode\bpel\compiler\api\CompilationMessageBundle.java,0,0,0,0
org.apache.ode.bpel.compiler.api.CompileListener, 0, 0, 0, 0, 0, 0, 0, 0, 0, 0, 0, 0, 0, 0,0.0,0.0,0.0,0.0,0.0,0.0,0.0,0.0,0.0,0.0,0.0,0.0,0.0,33,bpel-compiler\src\main\java\org\apache\ode\bpel\compiler\api\CompileListener.java,0,0,0,0
org.apache.ode.bpel.compiler.api.ExpressionValidator, 0, 0, 0, 0, 0, 0, 0, 0, 0, 0, 0, 0, 0, 0,0.0,0.0,0.0,0.0,0.0,0.0,0.0,0.0,0.0,0.0,0.0,0.0,0.0,33,bpel-compiler\src\main\java\org\apache\ode\bpel\compiler\api\ExpressionValidator.java,0,0,0,0
org.apache.ode.bpel.compiler.api.SourceLocation, 0, 0, 0, 0, 0, 0, 0, 0, 0, 0, 0, 0, 0, 0,0.0,0.0,0.0,0.0,0.0,0.0,0.0,0.0,0.0,0.0,0.0,0.0,0.0,33,bpel-compiler\src\main\java\org\apache\ode\bpel\compiler\api\SourceLocation.java,0,0,0,0
org.apache.ode.bpel.compiler.bom.Activity, 0, 0, 0, 0, 0, 0, 0, 0, 0, 0, 0, 0, 0, 0,0.0,0.0,0.0,0.0,0.0,0.08888888888888889,0.0,0.044444444444444446,0.0,0.0,0.0,0.0,0.0,34,bpel-compiler\src\main\java\org\apache\ode\bpel\compiler\bom\Activity.java,0,0,0,0
org.apache.ode.bpel.compiler.bom.AssignActivity, 0, 0, 0, 0, 0, 0, 0, 0, 0, 0, 0, 0, 0, 0,0.0,0.0,0.0,0.0,0.0,0.0,0.0,0.0,0.0,0.0,0.0,0.0,0.0,8,bpel-compiler\src\main\java\org\apache\ode\bpel\compiler\bom\AssignActivity.java,0,0,0,0
org.apache.ode.bpel.compiler.bom.Bpel11QNames, 0, 0, 0, 1, 0, 0, 0, 0, 0, 0, 0, 0, 0, 1,0.0,0.0,0.0,0.0,0.0,0.0,0.0,0.0,0.0,0.0,0.0,0.0,0.0,54,bpel-compiler\src\main\java\org\apache\ode\bpel\compiler\bom\Bpel11QNames.java,0,0,0,0
org.apache.ode.bpel.compiler.bom.Bpel20QNames, 0, 0, 0, 1, 0, 0, 0, 0, 0, 0, 0, 0, 0, 1,0.0,0.0,0.0,0.0,0.0,0.0,0.0,0.0,0.0,0.0,0.0,0.0,0.0,161,bpel-compiler\src\main\java\org\apache\ode\bpel\compiler\bom\Bpel20QNames.java,0,0,0,0
org.apache.ode.bpel.compiler.bom.BpelObject4WSDL, 0, 0, 0, 0, 0, 0, 0, 0, 0, 0, 0, 0, 0, 0,0.0,0.0,0.0,0.0,0.0,0.0,0.0,0.25,0.0,0.0,0.0,0.0,0.0,28,bpel-compiler\src\main\java\org\apache\ode\bpel\compiler\bom\BpelObject4WSDL.java,0,0,0,0
org.apache.ode.bpel.compiler.bom.Catch, 0, 0, 0, 0, 0, 0, 0, 0, 0, 0, 0, 0, 0, 0,0.0,0.0,0.0,0.0,0.0,0.0,0.0,0.0,0.0,0.0,0.0,0.0,0.0,20,bpel-compiler\src\main\java\org\apache\ode\bpel\compiler\bom\Catch.java,0,0,0,0
org.apache.ode.bpel.compiler.bom.Communication, 0, 0, 0, 0, 0, 0, 0, 0, 0, 0, 0, 0, 0, 0,0.0,0.0,0.0,0.0,0.0,0.0,0.0,0.0,0.0,0.0,0.0,0.0,0.0,20,bpel-compiler\src\main\java\org\apache\ode\bpel\compiler\bom\Communication.java,0,0,0,0
org.apache.ode.bpel.compiler.bom.CommunicationHelper, 0, 0, 0, 0, 0, 0, 0, 0, 0, 0, 0, 0, 0, 0,0.0,0.0,0.0,0.0,0.0,0.0,0.0,0.0,0.0,0.0,0.0,0.0,0.0,20,bpel-compiler\src\main\java\org\apache\ode\bpel\compiler\bom\CommunicationHelper.java,0,0,0,0
org.apache.ode.bpel.compiler.bom.CompensateActivity, 0, 0, 0, 0, 0, 1, 0, 0, 0, 0, 0, 0, 0, 1,0.0,0.0,0.0,0.0,0.0,0.0,0.0,0.0,0.0,0.0,0.0,0.0,0.0,5,bpel-compiler\src\main\java\org\apache\ode\bpel\compiler\bom\CompensateActivity.java,0,0,0,0
org.apache.ode.bpel.compiler.bom.CompensateScopeActivity, 0, 0, 0, 0, 0, 0, 0, 0, 0, 0, 0, 0, 0, 0,0.0,0.0,0.0,0.0,0.0,0.0,0.0,0.0,0.0,0.0,0.0,0.0,0.0,8,bpel-compiler\src\main\java\org\apache\ode\bpel\compiler\bom\CompensateScopeActivity.java,0,0,0,0
org.apache.ode.bpel.compiler.bom.CompensationHandler, 0, 0, 0, 0, 0, 0, 0, 0, 0, 0, 0, 0, 0, 0,0.0,0.0,0.0,0.0,0.0,0.0,0.0,0.0,0.0,0.0,0.0,0.0,0.0,8,bpel-compiler\src\main\java\org\apache\ode\bpel\compiler\bom\CompensationHandler.java,0,0,0,0
org.apache.ode.bpel.compiler.bom.CompletionCondition, 0, 0, 0, 0, 0, 0, 0, 0, 0, 0, 0, 0, 0, 0,0.0,0.0,0.0,0.0,0.0,0.0,0.0,0.0,0.0,0.0,0.0,0.0,0.0,8,bpel-compiler\src\main\java\org\apache\ode\bpel\compiler\bom\CompletionCondition.java,0,3,0,3
org.apache.ode.bpel.compiler.bom.CompositeActivity, 0, 0, 0, 0, 0, 0, 0, 0, 0, 0, 0, 0, 0, 0,0.0,0.0,0.0,0.0,0.0,0.16666666666666666,0.0,0.0,0.0,0.0,0.0,0.0,0.0,8,bpel-compiler\src\main\java\org\apache\ode\bpel\compiler\bom\CompositeActivity.java,0,0,0,0
org.apache.ode.bpel.compiler.bom.Copy, 0, 0, 0, 0, 0, 0, 0, 0, 0, 0, 0, 0, 0, 0,0.0,0.0,0.0,0.0,0.0,0.3333333333333333,0.0,0.0,0.0,0.0,0.0,0.0,0.0,23,bpel-compiler\src\main\java\org\apache\ode\bpel\compiler\bom\Copy.java,0,0,0,0
org.apache.ode.bpel.compiler.bom.CorrelationSet, 0, 0, 0, 0, 0, 0, 0, 0, 0, 0, 0, 0, 0, 0,0.0,0.0,0.0,0.0,0.0,0.0,0.0,0.0,0.0,0.0,0.0,0.0,0.0,28,bpel-compiler\src\main\java\org\apache\ode\bpel\compiler\bom\CorrelationSet.java,0,0,0,0
org.apache.ode.bpel.compiler.bom.CorrelationSets, 0, 0, 0, 0, 0, 1, 0, 0, 0, 0, 0, 0, 0, 1,0.0,0.0,0.0,0.0,0.0,0.0,0.0,0.0,0.0,0.0,0.0,0.0,0.0,5,bpel-compiler\src\main\java\org\apache\ode\bpel\compiler\bom\CorrelationSets.java,0,0,0,0
org.apache.ode.bpel.compiler.bom.Correlations, 0, 0, 0, 0, 0, 1, 0, 0, 0, 0, 0, 0, 0, 1,0.0,0.0,0.0,0.0,0.0,0.0,0.0,0.0,0.0,0.0,0.0,0.0,0.0,5,bpel-compiler\src\main\java\org\apache\ode\bpel\compiler\bom\Correlations.java,0,0,0,0
org.apache.ode.bpel.compiler.bom.CreateInstanceActivity, 0, 0, 0, 0, 0, 0, 0, 0, 0, 0, 0, 0, 0, 0,0.0,0.0,0.0,0.0,0.0,0.0,0.0,0.0,0.0,0.0,0.0,0.0,0.0,8,bpel-compiler\src\main\java\org\apache\ode\bpel\compiler\bom\CreateInstanceActivity.java,0,0,0,0
org.apache.ode.bpel.compiler.bom.DOMBuilderContentHandler, 0, 0, 0, 0, 0, 0, 0, 1, 0, 0, 0, 0, 0, 1,0.0,0.0,0.0,0.0,0.0,0.0,0.0,0.0,0.0,0.0,0.0,0.0,0.0,30,bpel-compiler\src\main\java\org\apache\ode\bpel\compiler\bom\DOMBuilderContentHandler.java,0,0,0,0
org.apache.ode.bpel.compiler.bom.EmptyActivity, 0, 0, 0, 0, 0, 1, 0, 0, 0, 0, 0, 0, 0, 1,0.0,0.0,0.0,0.0,0.0,0.0,0.0,0.0,0.0,0.0,0.0,0.0,0.0,5,bpel-compiler\src\main\java\org\apache\ode\bpel\compiler\bom\EmptyActivity.java,0,0,0,0
org.apache.ode.bpel.compiler.bom.Expression, 0, 0, 0, 0, 0, 0, 0, 0, 0, 0, 0, 0, 0, 0,0.0,0.0,0.0,0.0,0.0,0.0,0.0,0.0,0.0,0.0,0.0,0.0,0.0,19,bpel-compiler\src\main\java\org\apache\ode\bpel\compiler\bom\Expression.java,0,4,1,6
org.apache.ode.bpel.compiler.bom.Expression11, 0, 0, 0, 0, 0, 0, 0, 0, 0, 0, 0, 0, 0, 0,0.0,0.0,0.0,0.0,0.0,0.14285714285714285,0.0,0.0,0.0,0.0,0.0,0.0,0.0,13,bpel-compiler\src\main\java\org\apache\ode\bpel\compiler\bom\Expression11.java,0,0,0,0
org.apache.ode.bpel.compiler.bom.ExtensibilityQNames, 0, 0, 0, 0, 0, 0, 0, 0, 0, 0, 0, 0, 0, 0,0.0,0.0,0.0,0.0,0.0,0.0,0.0,0.0,0.0,0.0,0.0,0.0,0.0,10,bpel-compiler\src\main\java\org\apache\ode\bpel\compiler\bom\ExtensibilityQNames.java,0,0,0,0
org.apache.ode.bpel.compiler.bom.ExtensionVal, 0, 0, 0, 0, 0, 0, 0, 0, 0, 0, 0, 0, 0, 0,0.0,0.0,0.0,0.0,0.0,0.0,0.0,0.0,0.0,0.0,0.0,0.0,0.0,11,bpel-compiler\src\main\java\org\apache\ode\bpel\compiler\bom\ExtensionVal.java,0,0,0,0
org.apache.ode.bpel.compiler.bom.FailureHandling, 0, 0, 0, 0, 0, 0, 0, 0, 0, 0, 0, 0, 0, 0,0.0,0.0,0.0,0.0,0.0,0.0,0.0,0.0,0.0,0.0,0.0,0.0,0.0,44,bpel-compiler\src\main\java\org\apache\ode\bpel\compiler\bom\FailureHandling.java,0,0,0,0
org.apache.ode.bpel.compiler.bom.FaultHandler, 0, 0, 0, 0, 0, 0, 0, 0, 0, 0, 0, 0, 0, 0,0.0,0.0,0.0,0.0,0.0,0.0,0.0,0.0,0.0,0.0,0.0,0.0,0.0,8,bpel-compiler\src\main\java\org\apache\ode\bpel\compiler\bom\FaultHandler.java,0,0,0,0
org.apache.ode.bpel.compiler.bom.FlowActivity, 0, 0, 0, 0, 0, 0, 0, 0, 0, 0, 0, 0, 0, 0,0.0,0.0,0.0,0.0,0.0,0.0,0.0,0.0,0.0,0.0,0.0,0.0,0.0,11,bpel-compiler\src\main\java\org\apache\ode\bpel\compiler\bom\FlowActivity.java,0,0,0,0
org.apache.ode.bpel.compiler.bom.ForEachActivity, 0, 0, 0, 0, 0, 0, 0, 0, 0, 0, 0, 0, 0, 0,0.0,0.0,0.0,0.0,0.0,0.0,0.0,0.0,0.0,0.0,0.0,0.0,0.0,23,bpel-compiler\src\main\java\org\apache\ode\bpel\compiler\bom\ForEachActivity.java,0,0,0,0
org.apache.ode.bpel.compiler.bom.From, 0, 0, 0, 0, 0, 0, 0, 0, 0, 0, 0, 0, 0, 0,0.0,0.0,0.0,0.0,0.0,0.0,0.0,0.0,0.0,0.0,0.0,0.0,0.0,19,bpel-compiler\src\main\java\org\apache\ode\bpel\compiler\bom\From.java,0,0,0,0
org.apache.ode.bpel.compiler.bom.IfActivity, 0, 0, 0, 0, 0, 0, 0, 0, 0, 0, 0, 0, 0, 0,0.0,0.0,0.0,0.0,0.0,0.0,0.0,0.0,0.0,0.0,0.0,0.0,0.0,25,bpel-compiler\src\main\java\org\apache\ode\bpel\compiler\bom\IfActivity.java,0,0,0,0
org.apache.ode.bpel.compiler.bom.Import, 0, 0, 0, 0, 0, 0, 0, 0, 0, 0, 0, 0, 0, 0,0.0,0.0,0.0,0.0,0.0,0.0,0.0,0.0,0.0,0.0,0.0,0.0,0.0,23,bpel-compiler\src\main\java\org\apache\ode\bpel\compiler\bom\Import.java,0,0,0,0
org.apache.ode.bpel.compiler.bom.InvokeActivity, 0, 0, 0, 0, 0, 0, 0, 0, 0, 0, 0, 0, 0, 0,0.0,0.0,0.0,0.0,0.0,0.0,0.0,0.3333333333333333,0.0,0.0,0.0,0.0,0.0,66,bpel-compiler\src\main\java\org\apache\ode\bpel\compiler\bom\InvokeActivity.java,0,0,0,0
org.apache.ode.bpel.compiler.bom.Link, 0, 0, 0, 0, 0, 0, 0, 0, 0, 0, 0, 0, 0, 0,0.0,0.0,0.0,0.0,0.0,0.0,0.0,0.0,0.0,0.0,0.0,0.0,0.0,8,bpel-compiler\src\main\java\org\apache\ode\bpel\compiler\bom\Link.java,0,0,0,0
org.apache.ode.bpel.compiler.bom.LinkSource, 0, 0, 0, 0, 0, 0, 0, 0, 0, 0, 0, 0, 0, 0,0.0,0.0,0.0,0.0,0.0,0.0,0.0,0.0,0.0,0.0,0.0,0.0,0.0,15,bpel-compiler\src\main\java\org\apache\ode\bpel\compiler\bom\LinkSource.java,0,0,0,0
org.apache.ode.bpel.compiler.bom.LinkTarget, 0, 0, 0, 0, 0, 0, 0, 0, 0, 0, 0, 0, 0, 0,0.0,0.0,0.0,0.0,0.0,0.0,0.0,0.0,0.0,0.0,0.0,0.0,0.0,8,bpel-compiler\src\main\java\org\apache\ode\bpel\compiler\bom\LinkTarget.java,0,0,0,0
org.apache.ode.bpel.compiler.bom.Links, 0, 0, 0, 0, 0, 1, 0, 0, 0, 0, 0, 0, 0, 1,0.0,0.0,0.0,0.0,0.0,0.0,0.0,0.0,0.0,0.0,0.0,0.0,0.0,5,bpel-compiler\src\main\java\org\apache\ode\bpel\compiler\bom\Links.java,0,0,0,0
org.apache.ode.bpel.compiler.bom.LiteralVal, 0, 0, 0, 0, 0, 0, 0, 0, 0, 0, 0, 0, 0, 0,0.0,0.0,0.0,0.0,0.0,0.0,0.0,0.0,0.0,0.0,0.0,0.0,0.0,8,bpel-compiler\src\main\java\org\apache\ode\bpel\compiler\bom\LiteralVal.java,0,0,0,0
org.apache.ode.bpel.compiler.bom.OnAlarm, 0, 0, 0, 0, 0, 0, 0, 0, 0, 0, 0, 0, 0, 0,0.0,0.0,0.0,0.0,0.0,0.0,0.0,0.0,0.0,0.0,0.0,0.0,0.0,17,bpel-compiler\src\main\java\org\apache\ode\bpel\compiler\bom\OnAlarm.java,0,0,0,0
org.apache.ode.bpel.compiler.bom.OnEvent, 0, 0, 0, 0, 0, 0, 0, 0, 0, 0, 0, 0, 0, 0,0.0,0.0,0.0,0.0,0.0,0.0,0.0,0.0,0.0,0.0,0.0,0.0,0.0,10,bpel-compiler\src\main\java\org\apache\ode\bpel\compiler\bom\OnEvent.java,0,0,0,0
org.apache.ode.bpel.compiler.bom.OnMessage, 0, 0, 0, 0, 0, 0, 0, 0, 0, 0, 0, 0, 0, 0,0.0,0.0,0.0,0.0,0.0,0.0,0.0,0.0,0.0,0.0,0.0,0.0,0.0,31,bpel-compiler\src\main\java\org\apache\ode\bpel\compiler\bom\OnMessage.java,0,0,0,0
org.apache.ode.bpel.compiler.bom.PartnerLink, 0, 0, 0, 0, 0, 0, 0, 0, 0, 0, 0, 0, 0, 0,0.0,0.0,0.0,0.0,0.0,0.0,0.0,0.0,0.0,0.0,0.0,0.0,0.0,26,bpel-compiler\src\main\java\org\apache\ode\bpel\compiler\bom\PartnerLink.java,0,0,0,0
org.apache.ode.bpel.compiler.bom.PartnerLinkType, 0, 0, 0, 0, 0, 0, 0, 0, 0, 0, 0, 0, 0, 0,0.0,0.0,0.0,0.0,0.0,0.0,0.0,0.0,0.0,0.0,0.0,0.0,0.0,62,bpel-compiler\src\main\java\org\apache\ode\bpel\compiler\bom\PartnerLinkType.java,0,0,0,0
org.apache.ode.bpel.compiler.bom.PartnerLinks, 0, 0, 0, 0, 0, 1, 0, 0, 0, 0, 0, 0, 0, 1,0.0,0.0,0.0,0.0,0.0,0.0,0.0,0.0,0.0,0.0,0.0,0.0,0.0,5,bpel-compiler\src\main\java\org\apache\ode\bpel\compiler\bom\PartnerLinks.java,0,0,0,0
org.apache.ode.bpel.compiler.bom.PickActivity, 0, 0, 0, 0, 0, 0, 0, 0, 0, 0, 0, 0, 0, 0,0.0,0.0,0.0,0.0,0.0,0.0,0.0,0.0,0.0,0.0,0.0,0.0,0.0,11,bpel-compiler\src\main\java\org\apache\ode\bpel\compiler\bom\PickActivity.java,0,0,0,0
org.apache.ode.bpel.compiler.bom.Process, 0, 0, 0, 0, 0, 0, 0, 0, 0, 0, 0, 0, 0, 0,0.0,0.0,0.0,0.0,0.0,0.0,0.0,0.0,0.0,0.0,0.0,0.0,0.0,36,bpel-compiler\src\main\java\org\apache\ode\bpel\compiler\bom\Process.java,0,0,0,0
org.apache.ode.bpel.compiler.bom.Property, 0, 0, 0, 0, 0, 0, 0, 0, 0, 0, 0, 0, 0, 0,0.0,0.0,0.0,0.0,0.0,0.0,0.0,0.0,0.0,0.0,0.0,0.0,0.0,12,bpel-compiler\src\main\java\org\apache\ode\bpel\compiler\bom\Property.java,0,0,0,0
org.apache.ode.bpel.compiler.bom.PropertyAlias, 0, 0, 0, 0, 0, 0, 0, 0, 0, 0, 0, 0, 0, 0,0.0,0.0,0.0,0.0,0.0,0.0,0.0,0.0,0.0,0.0,0.0,0.0,0.0,21,bpel-compiler\src\main\java\org\apache\ode\bpel\compiler\bom\PropertyAlias.java,0,0,0,0
org.apache.ode.bpel.compiler.bom.PropertyAlias11, 0, 0, 0, 0, 0, 0, 0, 0, 0, 0, 0, 0, 0, 0,0.0,0.0,0.0,0.0,0.0,0.5,0.0,0.0,0.0,0.0,0.0,0.0,0.0,10,bpel-compiler\src\main\java\org\apache\ode\bpel\compiler\bom\PropertyAlias11.java,0,0,0,0
org.apache.ode.bpel.compiler.bom.PropertyVal, 0, 0, 0, 0, 0, 0, 0, 0, 0, 0, 0, 0, 0, 0,0.0,0.0,0.0,0.0,0.0,0.0,0.0,0.0,0.0,0.0,0.0,0.0,0.0,11,bpel-compiler\src\main\java\org\apache\ode\bpel\compiler\bom\PropertyVal.java,0,0,0,0
org.apache.ode.bpel.compiler.bom.Query, 0, 0, 0, 0, 0, 0, 0, 0, 0, 0, 0, 0, 0, 0,0.0,0.0,0.0,0.0,0.0,0.0,0.0,0.0,0.0,0.0,0.0,0.0,0.0,9,bpel-compiler\src\main\java\org\apache\ode\bpel\compiler\bom\Query.java,0,0,0,0
org.apache.ode.bpel.compiler.bom.Query11, 0, 0, 0, 0, 0, 1, 0, 0, 0, 0, 0, 0, 0, 1,0.0,0.0,0.0,0.0,0.0,0.0,0.0,0.0,0.0,0.0,0.0,0.0,0.0,5,bpel-compiler\src\main\java\org\apache\ode\bpel\compiler\bom\Query11.java,0,0,0,0
org.apache.ode.bpel.compiler.bom.RdfLabel, 0, 0, 0, 0, 0, 0, 0, 0, 0, 0, 0, 0, 0, 0,0.0,0.0,0.0,0.0,0.0,0.0,0.0,0.0,0.0,0.0,0.0,0.0,0.0,8,bpel-compiler\src\main\java\org\apache\ode\bpel\compiler\bom\RdfLabel.java,0,0,0,0
org.apache.ode.bpel.compiler.bom.ReceiveActivity, 0, 0, 0, 0, 0, 0, 0, 0, 0, 0, 0, 0, 0, 0,0.0,0.0,0.0,0.0,0.0,0.0,0.0,0.0,0.0,0.0,0.0,0.0,0.0,28,bpel-compiler\src\main\java\org\apache\ode\bpel\compiler\bom\ReceiveActivity.java,0,0,0,0
org.apache.ode.bpel.compiler.bom.RepeatUntilActivity, 0, 0, 0, 0, 0, 0, 0, 0, 0, 0, 0, 0, 0, 0,0.0,0.0,0.0,0.0,0.0,0.0,0.0,0.0,0.0,0.0,0.0,0.0,0.0,11,bpel-compiler\src\main\java\org\apache\ode\bpel\compiler\bom\RepeatUntilActivity.java,0,0,0,0
org.apache.ode.bpel.compiler.bom.ReplyActivity, 0, 0, 0, 0, 0, 0, 0, 0, 0, 0, 0, 0, 0, 0,0.0,0.0,0.0,0.0,0.0,0.0,0.0,0.0,0.0,0.0,0.0,0.0,0.0,28,bpel-compiler\src\main\java\org\apache\ode\bpel\compiler\bom\ReplyActivity.java,0,0,0,0
org.apache.ode.bpel.compiler.bom.RethrowActivity, 0, 0, 0, 0, 0, 1, 0, 0, 0, 0, 0, 0, 0, 1,0.0,0.0,0.0,0.0,0.0,0.0,0.0,0.0,0.0,0.0,0.0,0.0,0.0,5,bpel-compiler\src\main\java\org\apache\ode\bpel\compiler\bom\RethrowActivity.java,0,0,0,0
org.apache.ode.bpel.compiler.bom.Scope, 0, 0, 0, 0, 0, 0, 0, 0, 0, 0, 0, 0, 0, 0,0.0,0.0,0.0,0.0,0.0,0.0,0.0,0.0,0.0,0.0,0.0,0.0,0.0,79,bpel-compiler\src\main\java\org\apache\ode\bpel\compiler\bom\Scope.java,0,0,0,0
org.apache.ode.bpel.compiler.bom.ScopeActivity, 0, 0, 0, 0, 0, 0, 0, 0, 0, 0, 0, 0, 0, 0,0.0,0.0,0.0,0.0,0.0,0.0,0.0,0.0,0.0,0.0,0.0,0.0,0.0,8,bpel-compiler\src\main\java\org\apache\ode\bpel\compiler\bom\ScopeActivity.java,0,0,0,0
org.apache.ode.bpel.compiler.bom.ScopeLikeActivity, 0, 0, 0, 0, 0, 0, 0, 0, 0, 0, 0, 0, 0, 0,0.0,0.0,0.0,0.0,0.0,0.0,0.0,0.0,0.0,0.0,0.0,0.0,0.0,10,bpel-compiler\src\main\java\org\apache\ode\bpel\compiler\bom\ScopeLikeActivity.java,0,0,0,0
org.apache.ode.bpel.compiler.bom.SequenceActivity, 0, 0, 0, 0, 0, 1, 0, 0, 0, 0, 0, 0, 0, 1,0.0,0.0,0.0,0.0,0.0,0.0,0.0,0.0,0.0,0.0,0.0,0.0,0.0,5,bpel-compiler\src\main\java\org\apache\ode\bpel\compiler\bom\SequenceActivity.java,0,0,0,0
org.apache.ode.bpel.compiler.bom.Sources, 0, 0, 0, 0, 0, 1, 0, 0, 0, 0, 0, 0, 0, 1,0.0,0.0,0.0,0.0,0.0,0.0,0.0,0.0,0.0,0.0,0.0,0.0,0.0,5,bpel-compiler\src\main\java\org\apache\ode\bpel\compiler\bom\Sources.java,0,0,0,0
org.apache.ode.bpel.compiler.bom.SwitchActivity, 0, 0, 0, 0, 0, 0, 0, 0, 0, 0, 0, 0, 0, 0,0.0,0.0,0.0,0.0,0.0,0.0,0.0,0.0,0.0,0.0,0.0,0.0,0.0,21,bpel-compiler\src\main\java\org\apache\ode\bpel\compiler\bom\SwitchActivity.java,0,0,0,0
org.apache.ode.bpel.compiler.bom.Targets, 0, 0, 0, 0, 0, 1, 0, 0, 0, 0, 0, 0, 0, 1,0.0,0.0,0.0,0.0,0.0,0.0,0.0,0.0,0.0,0.0,0.0,0.0,0.0,5,bpel-compiler\src\main\java\org\apache\ode\bpel\compiler\bom\Targets.java,0,0,0,0
org.apache.ode.bpel.compiler.bom.TerminateActivity, 0, 0, 0, 0, 0, 1, 0, 0, 0, 0, 0, 0, 0, 1,0.0,0.0,0.0,0.0,0.0,0.0,0.0,0.0,0.0,0.0,0.0,0.0,0.0,5,bpel-compiler\src\main\java\org\apache\ode\bpel\compiler\bom\TerminateActivity.java,0,0,0,0
org.apache.ode.bpel.compiler.bom.TerminationHandler, 0, 0, 0, 0, 0, 0, 0, 0, 0, 0, 0, 0, 0, 0,0.0,0.0,0.0,0.0,0.0,0.0,0.0,0.0,0.0,0.0,0.0,0.0,0.0,8,bpel-compiler\src\main\java\org\apache\ode\bpel\compiler\bom\TerminationHandler.java,0,0,0,0
org.apache.ode.bpel.compiler.bom.ThrowActivity, 0, 0, 0, 0, 0, 0, 0, 0, 0, 0, 0, 0, 0, 0,0.0,0.0,0.0,0.0,0.0,0.0,0.0,0.0,0.0,0.0,0.0,0.0,0.0,11,bpel-compiler\src\main\java\org\apache\ode\bpel\compiler\bom\ThrowActivity.java,0,0,0,0
org.apache.ode.bpel.compiler.bom.To, 0, 0, 0, 0, 0, 1, 0, 0, 0, 0, 0, 0, 0, 1,0.0,0.0,0.0,0.0,0.0,0.0,0.0,0.0,0.0,0.0,0.0,0.0,0.0,5,bpel-compiler\src\main\java\org\apache\ode\bpel\compiler\bom\To.java,0,0,0,0
org.apache.ode.bpel.compiler.bom.ToFrom, 0, 0, 0, 0, 0, 0, 0, 0, 0, 0, 0, 0, 0, 0,0.0,0.0,0.0,0.0,0.0,0.125,0.0,0.0,0.0,0.0,0.0,0.0,0.0,44,bpel-compiler\src\main\java\org\apache\ode\bpel\compiler\bom\ToFrom.java,0,0,0,0
org.apache.ode.bpel.compiler.bom.Variable, 0, 0, 0, 0, 0, 0, 0, 0, 0, 0, 0, 0, 0, 0,0.0,0.0,0.0,0.0,0.0,0.0,0.0,0.0,0.0,0.0,0.0,0.0,0.0,45,bpel-compiler\src\main\java\org\apache\ode\bpel\compiler\bom\Variable.java,0,0,0,0
org.apache.ode.bpel.compiler.bom.VariableVal, 0, 0, 0, 0, 0, 0, 0, 0, 0, 0, 0, 0, 0, 0,0.0,0.0,0.0,0.0,0.0,0.0,0.0,0.0,0.0,0.0,0.0,0.0,0.0,17,bpel-compiler\src\main\java\org\apache\ode\bpel\compiler\bom\VariableVal.java,0,0,0,0
org.apache.ode.bpel.compiler.bom.VariableVal11, 0, 0, 0, 0, 0, 0, 0, 0, 0, 0, 0, 0, 0, 0,0.0,0.0,0.0,0.0,0.0,0.0,0.0,0.0,0.0,0.0,0.0,0.0,0.0,10,bpel-compiler\src\main\java\org\apache\ode\bpel\compiler\bom\VariableVal11.java,0,0,0,0
org.apache.ode.bpel.compiler.bom.Variables, 0, 0, 0, 0, 0, 1, 0, 0, 0, 0, 0, 0, 0, 1,0.0,0.0,0.0,0.0,0.0,0.0,0.0,0.0,0.0,0.0,0.0,0.0,0.0,5,bpel-compiler\src\main\java\org\apache\ode\bpel\compiler\bom\Variables.java,0,0,0,0
org.apache.ode.bpel.compiler.bom.WaitActivity, 0, 0, 0, 0, 0, 0, 0, 0, 0, 0, 0, 0, 0, 0,0.0,0.0,0.0,0.0,0.0,0.0,0.0,0.0,0.0,0.0,0.0,0.0,0.0,11,bpel-compiler\src\main\java\org\apache\ode\bpel\compiler\bom\WaitActivity.java,0,0,0,0
org.apache.ode.bpel.compiler.bom.WhileActivity, 0, 0, 0, 0, 0, 0, 0, 0, 0, 0, 0, 0, 0, 0,0.0,0.0,0.0,0.0,0.0,0.0,0.0,0.0,0.0,0.0,0.0,0.0,0.0,11,bpel-compiler\src\main\java\org\apache\ode\bpel\compiler\bom\WhileActivity.java,0,0,0,0
org.apache.ode.bpel.compiler.bom.WhileActivity11, 0, 0, 0, 0, 0, 0, 0, 0, 0, 0, 0, 0, 0, 0,0.0,0.0,0.0,0.0,0.0,0.0,0.0,0.0,0.0,0.0,0.0,0.0,0.0,10,bpel-compiler\src\main\java\org\apache\ode\bpel\compiler\bom\WhileActivity11.java,0,0,0,0
org.apache.ode.bpel.compiler.wsdl.BpelExtensionSerializer, 0, 0, 0, 0, 0, 0, 0, 1, 0, 0, 0, 0, 0, 1,0.0,0.0,0.0,0.0,0.0,0.0,0.0,0.2,0.0,0.0,0.0,0.0,0.0,69,bpel-compiler\src\main\java\org\apache\ode\bpel\compiler\wsdl\BpelExtensionSerializer.java,0,0,0,0
org.apache.ode.bpel.compiler.wsdl.Definition4BPEL, 0, 0, 0, 0, 0, 0, 0, 0, 0, 0, 0, 0, 0, 0,0.0,0.0,0.0,0.0,0.0,0.0,0.0,0.0,0.0,0.0,0.0,0.0,0.0,69,bpel-compiler\src\main\java\org\apache\ode\bpel\compiler\wsdl\Definition4BPEL.java,0,0,0,0
org.apache.ode.bpel.compiler.wsdl.InvalidBpelPartnerLinkTypeException, 0, 0, 0, 0, 0, 0, 0, 0, 0, 0, 0, 0, 0, 0,0.0,0.0,0.0,0.0,0.0,0.0,0.0,0.0,0.0,0.0,0.0,0.0,0.0,10,bpel-compiler\src\main\java\org\apache\ode\bpel\compiler\wsdl\InvalidBpelPartnerLinkTypeException.java,0,0,0,0
org.apache.ode.bpel.compiler.wsdl.InvalidBpelPropertyAliasException, 0, 0, 0, 0, 0, 0, 0, 0, 0, 0, 0, 0, 0, 0,0.0,0.0,0.0,0.0,0.0,0.0,0.0,0.0,0.0,0.0,0.0,0.0,0.0,10,bpel-compiler\src\main\java\org\apache\ode\bpel\compiler\wsdl\InvalidBpelPropertyAliasException.java,0,0,0,0
org.apache.ode.bpel.compiler.wsdl.InvalidBpelPropertyException, 0, 0, 0, 0, 0, 0, 0, 0, 0, 0, 0, 0, 0, 0,0.0,0.0,0.0,0.0,0.0,0.0,0.0,0.0,0.0,0.0,0.0,0.0,0.0,10,bpel-compiler\src\main\java\org\apache\ode\bpel\compiler\wsdl\InvalidBpelPropertyException.java,0,0,0,0
org.apache.ode.bpel.compiler.wsdl.InvalidBpelRoleException, 0, 0, 0, 0, 0, 0, 0, 0, 0, 0, 0, 0, 0, 0,0.0,0.0,0.0,0.0,0.0,0.0,0.0,0.0,0.0,0.0,0.0,0.0,0.0,10,bpel-compiler\src\main\java\org\apache\ode\bpel\compiler\wsdl\InvalidBpelRoleException.java,0,0,0,0
org.apache.ode.bpel.compiler.wsdl.Messages, 0, 0, 0, 0, 0, 0, 0, 1, 0, 0, 0, 0, 0, 1,0.0,0.0,0.0,0.0,0.0,0.0,0.0,0.5,0.0,0.0,0.0,0.0,0.0,64,bpel-compiler\src\main\java\org\apache\ode\bpel\compiler\wsdl\Messages.java,0,0,0,0
org.apache.ode.bpel.compiler.wsdl.WSDLFactory4BPEL, 0, 0, 0, 0, 0, 0, 0, 0, 0, 0, 0, 0, 0, 0,0.0,0.0,0.0,0.0,0.0,0.0,0.0,0.0,0.0,0.0,0.0,0.0,0.0,64,bpel-compiler\src\main\java\org\apache\ode\bpel\compiler\wsdl\WSDLFactory4BPEL.java,0,0,0,0
org.apache.ode.bpel.compiler.wsdl.WSDLFactoryBPEL11, 0, 0, 0, 0, 0, 0, 0, 0, 0, 0, 0, 0, 0, 0,0.0,0.0,0.0,0.0,0.0,0.0,0.0,0.6,0.0,0.0,0.0,0.0,0.0,24,bpel-compiler\src\main\java\org\apache\ode\bpel\compiler\wsdl\WSDLFactoryBPEL11.java,0,0,0,0
org.apache.ode.bpel.compiler.wsdl.WSDLFactoryBPEL20, 0, 0, 0, 0, 0, 0, 0, 0, 0, 0, 0, 0, 0, 0,0.0,0.0,0.0,0.0,0.0,0.0,0.0,0.75,0.0,0.0,0.0,0.0,0.0,22,bpel-compiler\src\main\java\org\apache\ode\bpel\compiler\wsdl\WSDLFactoryBPEL20.java,0,0,0,0
org.apache.ode.bpel.compiler.wsdl.WSDLFactoryBPEL20Draft, 0, 0, 0, 0, 0, 0, 0, 0, 0, 0, 0, 0, 0, 0,0.0,0.0,0.0,0.0,0.0,0.0,0.0,0.75,0.0,0.0,0.0,0.0,0.0,21,bpel-compiler\src\main\java\org\apache\ode\bpel\compiler\wsdl\WSDLFactoryBPEL20Draft.java,0,0,0,0
org.apache.ode.bpel.compiler.wsdl.WSDLFactoryImpl, 0, 0, 0, 0, 0, 0, 0, 1, 0, 0, 0, 0, 0, 1,0.0,0.0,0.0,0.0,0.0,0.0,0.0,0.0,0.0,0.0,0.0,0.0,0.0,44,bpel-compiler\src\main\java\org\apache\ode\bpel\compiler\wsdl\WSDLFactoryImpl.java,0,0,0,0
org.apache.ode.bpel.compiler.wsdl.WSDLReaderImpl, 0, 0, 0, 0, 0, 0, 0, 0, 0, 0, 0, 0, 0, 0,0.0,0.0,0.0,0.0,0.0,0.0,0.0,1.0,0.0,0.0,0.0,0.0,0.0,10,bpel-compiler\src\main\java\org\apache\ode\bpel\compiler\wsdl\WSDLReaderImpl.java,0,0,0,0
org.apache.ode.bpel.compiler.wsdl.XMLSchemaType, 0, 0, 0, 0, 0, 0, 0, 0, 0, 0, 0, 0, 0, 0,0.0,0.0,0.0,0.0,0.0,0.0,0.0,1.0,0.0,0.0,0.0,0.0,0.0,24,bpel-compiler\src\main\java\org\apache\ode\bpel\compiler\wsdl\XMLSchemaType.java,0,0,0,0
org.apache.ode.bpel.compiler.wsdl.XMLSchemaTypeSerializer, 0, 0, 0, 0, 0, 0, 0, 1, 0, 0, 0, 0, 0, 1,0.0,0.0,0.0,0.0,0.0,0.0,0.0,0.0,0.0,0.0,0.0,0.0,0.0,25,bpel-compiler\src\main\java\org\apache\ode\bpel\compiler\wsdl\XMLSchemaTypeSerializer.java,0,0,0,0
org.apache.ode.bpel.compiler_2_0.GoodCompileTCase, 0, 0, 0, 0, 0, 0, 0, 0, 0, 0, 0, 0, 0, 0,0.0,0.0,0.0,0.0,0.0,0.0,0.0,0.0,0.0,0.0,0.0,0.0,0.0,30,bpel-compiler\src\test\java\org\apache\ode\bpel\compiler_2_0\GoodCompileTCase.java,0,0,0,0
org.apache.ode.bpel.compiler_2_0.GoodCompileTest, 0, 0, 0, 0, 0, 0, 0, 0, 0, 0, 0, 0, 0, 0,0.0,0.0,0.0,0.0,0.0,0.0,0.0,0.0,0.0,0.0,0.0,0.0,0.0,52,bpel-compiler\src\test\java\org\apache\ode\bpel\compiler_2_0\GoodCompileTest.java,0,3,0,3
org.apache.ode.bpel.compiler_2_0.XslTest, 0, 0, 0, 0, 0, 0, 0, 0, 0, 0, 0, 0, 0, 0,0.0,0.0,0.0,0.0,0.0,0.0,0.0,0.0,0.0,0.0,0.0,0.0,0.0,39,bpel-compiler\src\test\java\org\apache\ode\bpel\compiler_2_0\XslTest.java,0,0,0,0
org.apache.ode.bpel.connector.BpelServerConnector, 0, 0, 0, 0, 0, 0, 0, 0, 0, 0, 0, 0, 0, 0,0.0,0.0,0.0,0.3333333333333333,0.0,0.0,0.0,0.0,0.0,0.0,0.0,0.0,0.0,32,bpel-connector\src\main\java\org\apache\ode\bpel\connector\BpelServerConnector.java,0,0,0,0
org.apache.ode.bpel.connector.ConnectionProviderImpl, 0, 0, 0, 0, 0, 0, 0, 0, 0, 0, 0, 0, 0, 0,0.0,0.0,0.0,0.5,0.0,0.0,0.0,0.5,0.0,0.0,0.0,0.0,0.0,17,bpel-connector\src\main\java\org\apache\ode\bpel\connector\ConnectionProviderImpl.java,0,0,0,0
org.apache.ode.bpel.dao.ActivityRecoveryDAO, 0, 0, 0, 0, 0, 0, 0, 0, 0, 0, 0, 0, 0, 0,0.0,0.0,0.0,0.0,0.0,0.0,0.0,0.0,0.0,0.0,0.0,0.0,0.0,17,bpel-dao\src\main\java\org\apache\ode\bpel\dao\ActivityRecoveryDAO.java,0,0,0,0
org.apache.ode.bpel.dao.BpelDAOConnectionFactory, 0, 0, 0, 0, 0, 0, 0, 0, 0, 0, 0, 0, 0, 0,0.0,0.0,0.0,0.0,0.0,0.0,0.0,0.0,0.0,0.0,0.0,0.0,0.0,17,bpel-dao\src\main\java\org\apache\ode\bpel\dao\BpelDAOConnectionFactory.java,0,0,0,0
org.apache.ode.bpel.dao.BpelDAOConnectionFactoryJDBC, 0, 0, 0, 0, 0, 0, 0, 0, 0, 0, 0, 0, 0, 0,0.0,0.0,0.0,0.0,0.0,0.0,0.0,0.0,0.0,0.0,0.0,0.0,0.0,17,bpel-dao\src\main\java\org\apache\ode\bpel\dao\BpelDAOConnectionFactoryJDBC.java,0,0,0,0
org.apache.ode.bpel.dao.CorrelatorDAO, 0, 0, 0, 0, 0, 0, 0, 0, 0, 0, 0, 0, 0, 0,0.0,0.0,0.0,0.0,0.0,0.0,0.0,0.0,0.0,0.0,0.0,0.0,0.0,17,bpel-dao\src\main\java\org\apache\ode\bpel\dao\CorrelatorDAO.java,0,0,0,0
org.apache.ode.bpel.dao.CorrelatorMessageDAO, 0, 0, 0, 0, 0, 0, 0, 0, 0, 0, 0, 0, 0, 0,0.0,0.0,0.0,0.0,0.0,0.0,0.0,0.0,0.0,0.0,0.0,0.0,0.0,17,bpel-dao\src\main\java\org\apache\ode\bpel\dao\CorrelatorMessageDAO.java,0,0,0,0
org.apache.ode.bpel.dao.DeferredProcessInstanceCleanable, 0, 0, 0, 0, 0, 0, 0, 0, 0, 0, 0, 0, 0, 0,0.0,0.0,0.0,0.0,0.0,0.0,0.0,0.0,0.0,0.0,0.0,0.0,0.0,17,bpel-dao\src\main\java\org\apache\ode\bpel\dao\DeferredProcessInstanceCleanable.java,0,0,0,0
org.apache.ode.bpel.dao.FaultDAO, 0, 0, 0, 0, 0, 0, 0, 0, 0, 0, 0, 0, 0, 0,0.0,0.0,0.0,0.0,0.0,0.0,0.0,0.0,0.0,0.0,0.0,0.0,0.0,17,bpel-dao\src\main\java\org\apache\ode\bpel\dao\FaultDAO.java,0,0,0,0
org.apache.ode.bpel.dao.FilteredInstanceDeletable, 0, 0, 0, 0, 0, 0, 0, 0, 0, 0, 0, 0, 0, 0,0.0,0.0,0.0,0.0,0.0,0.0,0.0,0.0,0.0,0.0,0.0,0.0,0.0,17,bpel-dao\src\main\java\org\apache\ode\bpel\dao\FilteredInstanceDeletable.java,0,0,0,0
org.apache.ode.bpel.dao.MessageDAO, 0, 0, 0, 0, 0, 0, 0, 0, 0, 0, 0, 0, 0, 0,0.0,0.0,0.0,0.0,0.0,0.0,0.0,0.0,0.0,0.0,0.0,0.0,0.0,17,bpel-dao\src\main\java\org\apache\ode\bpel\dao\MessageDAO.java,0,0,0,0
org.apache.ode.bpel.dao.MessageExchangeDAO, 0, 0, 0, 0, 0, 0, 0, 0, 0, 0, 0, 0, 0, 0,0.0,0.0,0.0,0.0,0.0,0.0,0.0,0.0,0.0,0.0,0.0,0.0,0.0,17,bpel-dao\src\main\java\org\apache\ode\bpel\dao\MessageExchangeDAO.java,0,0,0,0
org.apache.ode.bpel.dao.MessageRouteDAO, 0, 0, 0, 0, 0, 0, 0, 0, 0, 0, 0, 0, 0, 0,0.0,0.0,0.0,0.0,0.0,0.0,0.0,0.0,0.0,0.0,0.0,0.0,0.0,17,bpel-dao\src\main\java\org\apache\ode\bpel\dao\MessageRouteDAO.java,0,0,0,0
org.apache.ode.bpel.dao.NoRootContextException, 0, 0, 0, 0, 0, 0, 0, 0, 0, 0, 0, 0, 0, 0,0.0,0.0,0.0,0.0,0.0,0.0,0.0,0.0,0.0,0.0,0.0,0.0,0.0,3,bpel-dao\src\main\java\org\apache\ode\bpel\dao\NoRootContextException.java,0,0,0,0
org.apache.ode.bpel.dao.PartnerLinkDAO, 0, 0, 0, 0, 0, 0, 0, 0, 0, 0, 0, 0, 0, 0,0.0,0.0,0.0,0.0,0.0,0.0,0.0,0.0,0.0,0.0,0.0,0.0,0.0,3,bpel-dao\src\main\java\org\apache\ode\bpel\dao\PartnerLinkDAO.java,0,0,0,0
org.apache.ode.bpel.dao.ProcessDAO, 0, 0, 0, 0, 0, 0, 0, 0, 0, 0, 0, 0, 0, 0,0.0,0.0,0.0,0.0,0.0,0.0,0.0,0.0,0.0,0.0,0.0,0.0,0.0,3,bpel-dao\src\main\java\org\apache\ode\bpel\dao\ProcessDAO.java,0,0,0,0
org.apache.ode.bpel.dao.ProcessInstanceDAO, 0, 0, 0, 0, 0, 0, 0, 0, 0, 0, 0, 0, 0, 0,0.0,0.0,0.0,0.0,0.0,0.0,0.0,0.0,0.0,0.0,0.0,0.0,0.0,3,bpel-dao\src\main\java\org\apache\ode\bpel\dao\ProcessInstanceDAO.java,0,0,0,0
org.apache.ode.bpel.dao.ProcessInstanceProfileDAO, 0, 0, 0, 0, 0, 0, 0, 0, 0, 0, 0, 0, 0, 0,0.0,0.0,0.0,0.0,0.0,0.0,0.0,0.0,0.0,0.0,0.0,0.0,0.0,3,axis2-war\src\test\java\org\apache\ode\bpel\dao\ProcessInstanceProfileDAO.java,0,0,0,0
org.apache.ode.bpel.dao.ProcessProfileDAO, 0, 0, 0, 0, 0, 0, 0, 0, 0, 0, 0, 0, 0, 0,0.0,0.0,0.0,0.0,0.0,0.0,0.0,0.0,0.0,0.0,0.0,0.0,0.0,3,axis2-war\src\test\java\org\apache\ode\bpel\dao\ProcessProfileDAO.java,0,0,0,0
org.apache.ode.bpel.dao.QueryReturnedEmptyResultException, 0, 0, 0, 0, 0, 0, 0, 0, 0, 0, 0, 0, 0, 0,0.0,0.0,0.0,0.0,0.0,0.0,0.0,0.0,0.0,0.0,0.0,0.0,0.0,3,bpel-dao\src\main\java\org\apache\ode\bpel\dao\QueryReturnedEmptyResultException.java,0,0,0,0
org.apache.ode.bpel.dao.QueryReturnedMultipleResultsException, 0, 0, 0, 0, 0, 0, 0, 0, 0, 0, 0, 0, 0, 0,0.0,0.0,0.0,0.0,0.0,0.0,0.0,0.0,0.0,0.0,0.0,0.0,0.0,3,bpel-dao\src\main\java\org\apache\ode\bpel\dao\QueryReturnedMultipleResultsException.java,0,0,0,0
org.apache.ode.bpel.dao.RoleEnum, 0, 0, 0, 0, 0, 0, 0, 0, 0, 0, 0, 0, 0, 0,0.0,0.0,0.0,0.0,0.0,0.0,0.0,0.0,0.0,0.0,0.0,0.0,0.0,27,bpel-dao\src\main\java\org\apache\ode\bpel\dao\RoleEnum.java,0,0,0,0
org.apache.ode.bpel.dao.ScopeDAO, 0, 0, 0, 0, 0, 0, 0, 0, 0, 0, 0, 0, 0, 0,0.0,0.0,0.0,0.0,0.0,0.0,0.0,0.0,0.0,0.0,0.0,0.0,0.0,27,bpel-dao\src\main\java\org\apache\ode\bpel\dao\ScopeDAO.java,0,0,0,0
org.apache.ode.bpel.dao.XmlDataDAO, 0, 0, 0, 0, 0, 0, 0, 0, 0, 0, 0, 0, 0, 0,0.0,0.0,0.0,0.0,0.0,0.0,0.0,0.0,0.0,0.0,0.0,0.0,0.0,27,bpel-dao\src\main\java\org\apache\ode\bpel\dao\XmlDataDAO.java,0,0,0,0
org.apache.ode.bpel.elang.URIResolverTest, 0, 0, 0, 0, 0, 0, 0, 0, 0, 0, 0, 0, 0, 0,0.0,0.0,0.0,0.0,0.0,0.0,0.0,0.0,0.0,0.0,0.0,0.0,0.0,37,bpel-runtime\src\test\java\org\apache\ode\bpel\elang\URIResolverTest.java,0,0,0,0
org.apache.ode.bpel.elang.XslRuntimeUriResolver, 0, 0, 0, 0, 0, 0, 0, 0, 0, 0, 0, 0, 0, 0,0.0,0.0,0.0,0.0,0.0,0.0,0.0,0.0,0.0,0.0,0.0,0.0,0.0,44,bpel-runtime\src\main\java\org\apache\ode\bpel\elang\XslRuntimeUriResolver.java,0,0,0,0
org.apache.ode.bpel.elang.xpath10.compiler.CompilationExceptionWrapper, 0, 0, 0, 0, 0, 0, 0, 0, 0, 0, 0, 0, 0, 0,0.0,0.0,0.0,0.0,0.0,0.0,0.0,0.5,0.0,0.0,0.0,0.0,0.0,10,bpel-compiler\src\main\java\org\apache\ode\bpel\elang\xpath10\compiler\CompilationExceptionWrapper.java,0,0,0,0
org.apache.ode.bpel.elang.xpath10.compiler.Constants, 0, 0, 0, 0, 0, 0, 0, 0, 0, 0, 0, 0, 0, 0,0.0,0.0,0.0,0.0,0.0,0.0,0.0,0.0,0.0,0.0,0.0,0.0,0.0,6,bpel-compiler\src\main\java\org\apache\ode\bpel\elang\xpath10\compiler\Constants.java,0,0,0,0
org.apache.ode.bpel.elang.xpath10.compiler.JaxenBpelHandler, 0, 0, 0, 0, 0, 0, 0, 1, 0, 0, 0, 0, 0, 1,0.0,0.0,0.0,0.0,0.0,0.0,0.0,0.0,0.0,0.0,0.0,0.0,0.0,146,bpel-compiler\src\main\java\org\apache\ode\bpel\elang\xpath10\compiler\JaxenBpelHandler.java,0,0,0,0
org.apache.ode.bpel.elang.xpath10.compiler.SourceLocatorWrapper, 0, 0, 0, 0, 0, 0, 0, 0, 0, 0, 0, 0, 0, 0,0.0,0.0,0.0,0.0,0.0,0.0,0.0,0.0,0.0,0.0,0.0,0.0,0.0,22,bpel-compiler\src\main\java\org\apache\ode\bpel\elang\xpath10\compiler\SourceLocatorWrapper.java,0,0,0,0
org.apache.ode.bpel.elang.xpath10.compiler.XPath10ExpressionCompilerBPEL11, 0, 0, 0, 0, 0, 0, 0, 0, 0, 0, 0, 0, 0, 0,0.0,0.0,1.0,0.0,0.0,0.0,0.0,0.0,0.0,0.0,0.0,0.0,0.0,22,bpel-compiler\src\main\java\org\apache\ode\bpel\elang\xpath10\compiler\XPath10ExpressionCompilerBPEL11.java,0,0,0,0
org.apache.ode.bpel.elang.xpath10.compiler.XPath10ExpressionCompilerBPEL20, 0, 0, 0, 0, 0, 0, 0, 0, 0, 0, 0, 0, 0, 0,0.0,0.0,0.2857142857142857,0.0,0.0,0.14285714285714285,0.0,0.14285714285714285,0.0,0.0,0.0,0.0,0.0,39,bpel-compiler\src\main\java\org\apache\ode\bpel\elang\xpath10\compiler\XPath10ExpressionCompilerBPEL20.java,0,0,0,0
org.apache.ode.bpel.elang.xpath10.compiler.XPath10ExpressionCompilerBPEL20Draft, 0, 0, 0, 0, 0, 1, 0, 0, 0, 0, 0, 0, 0, 1,0.0,0.0,0.0,0.0,0.0,0.0,0.0,0.0,0.0,0.0,0.0,0.0,0.0,5,bpel-compiler\src\main\java\org\apache\ode\bpel\elang\xpath10\compiler\XPath10ExpressionCompilerBPEL20Draft.java,0,0,0,0
org.apache.ode.bpel.elang.xpath10.compiler.XPathMessages, 0, 0, 0, 0, 0, 0, 0, 0, 0, 0, 0, 0, 0, 0,0.0,0.0,0.0,0.0,0.0,0.0,0.0,0.5,0.0,0.0,0.0,0.0,0.0,61,bpel-compiler\src\main\java\org\apache\ode\bpel\elang\xpath10\compiler\XPathMessages.java,0,0,0,0
org.apache.ode.bpel.elang.xpath10.compiler.XslCompilationErrorListener, 0, 0, 0, 0, 0, 0, 0, 0, 0, 0, 0, 0, 0, 0,0.0,0.0,0.0,0.0,0.0,0.0,0.0,0.0,0.0,0.0,0.0,0.0,0.0,40,bpel-compiler\src\main\java\org\apache\ode\bpel\elang\xpath10\compiler\XslCompilationErrorListener.java,0,0,0,0
org.apache.ode.bpel.elang.xpath10.compiler.XslCompileUriResolver, 0, 0, 0, 0, 0, 0, 0, 0, 0, 0, 0, 0, 0, 0,0.0,0.0,0.0,0.0,0.0,0.0,0.0,1.0,0.0,0.0,0.0,0.0,0.0,13,bpel-compiler\src\main\java\org\apache\ode\bpel\elang\xpath10\compiler\XslCompileUriResolver.java,0,0,0,0
org.apache.ode.bpel.elang.xpath10.o.OXPath10ExpressionBPEL20, 0, 0, 0, 0, 0, 0, 0, 1, 0, 0, 0, 0, 0, 1,0.0,0.0,0.0,0.0,0.0,0.0,0.0,0.5,0.0,0.0,0.0,0.0,0.0,19,bpel-obj\src\main\java\org\apache\ode\bpel\elang\xpath10\o\OXPath10ExpressionBPEL20.java,0,0,0,0
org.apache.ode.bpel.elang.xpath10.runtime.BpelDocumentNavigator, 0, 0, 0, 0, 0, 0, 0, 0, 0, 0, 0, 0, 0, 0,0.0,0.0,0.0,0.0,0.0,0.0,0.0,0.0,0.0,0.0,0.0,0.0,0.0,10,bpel-runtime\src\main\java\org\apache\ode\bpel\elang\xpath10\runtime\BpelDocumentNavigator.java,0,0,0,0
org.apache.ode.bpel.elang.xpath10.runtime.JaxenNamespaceContextAdapter, 0, 0, 0, 0, 0, 0, 0, 0, 0, 0, 0, 0, 0, 0,0.0,0.0,0.0,0.0,0.0,0.0,0.0,0.0,0.0,0.0,0.0,0.0,0.0,14,bpel-runtime\src\main\java\org\apache\ode\bpel\elang\xpath10\runtime\JaxenNamespaceContextAdapter.java,0,0,0,0
org.apache.ode.bpel.elang.xpath10.runtime.WrappedFaultException, 0, 0, 0, 0, 0, 0, 0, 0, 0, 0, 0, 0, 0, 0,0.0,0.0,0.0,0.0,0.0,0.0,0.0,0.0,0.0,0.0,0.0,0.0,0.0,14,bpel-runtime\src\main\java\org\apache\ode\bpel\elang\xpath10\runtime\WrappedFaultException.java,0,0,0,0
org.apache.ode.bpel.elang.xpath20.compiler.Constants, 0, 0, 0, 1, 0, 0, 0, 0, 0, 0, 0, 0, 0, 1,0.0,0.0,0.0,0.0,0.0,0.0,0.0,0.0,0.0,0.0,0.0,0.0,0.0,31,bpel-compiler\src\main\java\org\apache\ode\bpel\elang\xpath20\compiler\Constants.java,0,0,0,0
org.apache.ode.bpel.elang.xpath20.compiler.JaxpFunctionResolver, 0, 0, 0, 0, 0, 0, 0, 1, 0, 0, 0, 0, 0, 1,0.0,0.0,0.16666666666666666,0.0,0.0,0.0,0.0,0.6666666666666666,0.0,0.0,0.0,0.0,0.0,221,bpel-compiler\src\main\java\org\apache\ode\bpel\elang\xpath20\compiler\JaxpFunctionResolver.java,0,0,0,0
org.apache.ode.bpel.elang.xpath20.compiler.JaxpVariableResolver, 0, 0, 0, 0, 0, 0, 0, 0, 0, 0, 0, 0, 0, 0,0.0,0.0,0.16666666666666666,0.0,0.0,0.0,0.0,0.3333333333333333,0.0,0.0,0.0,0.0,0.0,73,bpel-compiler\src\main\java\org\apache\ode\bpel\elang\xpath20\compiler\JaxpVariableResolver.java,0,0,0,0
org.apache.ode.bpel.elang.xpath20.compiler.OdeXPathFunctionLibrary, 0, 0, 0, 0, 0, 0, 0, 1, 0, 0, 0, 0, 0, 1,0.0,0.0,0.0,0.0,0.0,0.0,0.0,1.0,0.0,0.0,0.0,0.0,0.0,29,bpel-compiler\src\main\java\org\apache\ode\bpel\elang\xpath20\compiler\OdeXPathFunctionLibrary.java,0,0,0,0
org.apache.ode.bpel.elang.xpath20.compiler.SaxonContext, 0, 0, 0, 0, 0, 0, 0, 1, 0, 0, 0, 0, 0, 1,0.0,0.0,0.0,0.0,0.0,0.0,0.0,0.6666666666666666,0.0,0.0,0.0,0.0,0.0,24,bpel-compiler\src\main\java\org\apache\ode\bpel\elang\xpath20\compiler\SaxonContext.java,0,0,0,0
org.apache.ode.bpel.elang.xpath20.compiler.WrappedResolverException, 0, 0, 1, 0, 0, 0, 0, 0, 0, 0, 0, 0, 0, 1,0.0,0.0,0.0,0.0,0.0,0.0,0.0,0.5,0.0,0.0,0.0,0.0,0.0,16,bpel-compiler\src\main\java\org\apache\ode\bpel\elang\xpath20\compiler\WrappedResolverException.java,0,0,0,0
org.apache.ode.bpel.elang.xpath20.compiler.XPath20ExpressionCompilerBPEL20, 0, 0, 0, 0, 0, 1, 0, 0, 0, 0, 0, 0, 0, 1,0.0,0.0,0.0,0.0,0.0,0.0,0.0,0.0,0.0,0.0,0.0,0.0,0.0,5,bpel-compiler\src\main\java\org\apache\ode\bpel\elang\xpath20\compiler\XPath20ExpressionCompilerBPEL20.java,0,0,0,0
org.apache.ode.bpel.elang.xpath20.compiler.XPath20ExpressionCompilerBPEL20Draft, 0, 0, 0, 0, 0, 1, 0, 0, 0, 0, 0, 0, 0, 1,0.0,0.0,0.0,0.0,0.0,0.0,0.0,0.0,0.0,0.0,0.0,0.0,0.0,5,bpel-compiler\src\main\java\org\apache\ode\bpel\elang\xpath20\compiler\XPath20ExpressionCompilerBPEL20Draft.java,0,0,0,0
org.apache.ode.bpel.elang.xpath20.compiler.XPath20ExpressionCompilerImplTest, 0, 0, 0, 0, 0, 0, 0, 0, 0, 0, 0, 0, 0, 0,0.0,0.0,0.0,0.0,0.0,0.0,0.0,0.0,0.0,0.0,0.0,0.0,0.0,70,bpel-compiler\src\test\java\org\apache\ode\bpel\elang\xpath20\compiler\XPath20ExpressionCompilerImplTest.java,0,0,0,0
org.apache.ode.bpel.elang.xpath20.o.OXPath20ExpressionBPEL20, 0, 0, 0, 0, 0, 0, 0, 1, 0, 0, 0, 0, 0, 1,0.0,0.0,0.3333333333333333,0.0,0.0,0.0,0.0,1.0,0.0,0.0,0.0,0.0,0.0,16,bpel-obj\src\main\java\org\apache\ode\bpel\elang\xpath20\o\OXPath20ExpressionBPEL20.java,0,0,0,0
org.apache.ode.bpel.elang.xpath20.runtime.FunctionHelperTest, 0, 0, 0, 0, 0, 0, 0, 0, 0, 0, 0, 0, 0, 0,0.0,0.0,0.0,0.0,0.0,0.0,0.0,0.0,0.0,0.0,0.0,0.0,0.0,18,bpel-runtime\src\test\java\org\apache\ode\bpel\elang\xpath20\runtime\FunctionHelperTest.java,0,0,0,0
org.apache.ode.bpel.elang.xpath20.runtime.JaxpVariableResolver, 0, 0, 0, 0, 0, 0, 0, 1, 0, 0, 0, 0, 0, 1,0.0,0.0,0.0,0.0,0.0,0.0,0.0,1.0,0.0,0.0,0.0,0.0,0.0,92,bpel-runtime\src\main\java\org\apache\ode\bpel\elang\xpath20\runtime\JaxpVariableResolver.java,0,0,0,0
org.apache.ode.bpel.elang.xpath20.runtime.XPath20ExpressionModifier, 0, 0, 0, 0, 0, 0, 0, 1, 0, 0, 0, 0, 0, 1,0.0,0.0,0.0,0.0,0.0,0.0,0.0,0.0,0.0,0.0,0.0,0.0,0.0,105,bpel-runtime\src\main\java\org\apache\ode\bpel\elang\xpath20\runtime\XPath20ExpressionModifier.java,0,2,0,2
org.apache.ode.bpel.elang.xquery10.compiler.XQuery10BpelFunctions, 0, 0, 0, 0, 0, 0, 0, 1, 0, 0, 0, 0, 0, 1,0.0,0.0,0.0,0.0,0.0,0.0,0.0,1.0,0.0,0.0,0.0,0.0,0.0,67,bpel-compiler\src\main\java\org\apache\ode\bpel\elang\xquery10\compiler\XQuery10BpelFunctions.java,0,0,0,0
org.apache.ode.bpel.elang.xquery10.compiler.XQuery10ExpressionCompilerBPEL20, 0, 0, 0, 0, 0, 1, 0, 0, 0, 0, 0, 0, 0, 1,0.0,0.0,0.0,0.0,0.0,0.0,0.0,0.0,0.0,0.0,0.0,0.0,0.0,5,bpel-compiler\src\main\java\org\apache\ode\bpel\elang\xquery10\compiler\XQuery10ExpressionCompilerBPEL20.java,0,0,0,0
org.apache.ode.bpel.elang.xquery10.compiler.XQuery10ExpressionCompilerBPEL20Draft, 0, 0, 0, 0, 0, 1, 0, 0, 0, 0, 0, 0, 0, 1,0.0,0.0,0.0,0.0,0.0,0.0,0.0,0.0,0.0,0.0,0.0,0.0,0.0,5,bpel-compiler\src\main\java\org\apache\ode\bpel\elang\xquery10\compiler\XQuery10ExpressionCompilerBPEL20Draft.java,0,0,0,0
org.apache.ode.bpel.elang.xquery10.compiler.XQuery10ExpressionCompilerImplTest, 0, 0, 0, 0, 0, 0, 0, 0, 0, 0, 0, 0, 0, 0,0.0,0.0,0.0,0.0,0.0,0.0,0.0,0.0,0.0,0.0,0.0,0.0,0.0,24,bpel-compiler\src\test\java\org\apache\ode\bpel\elang\xquery10\compiler\XQuery10ExpressionCompilerImplTest.java,0,0,0,0
org.apache.ode.bpel.elang.xquery10.o.OXQuery10ExpressionBPEL20, 0, 0, 1, 0, 0, 0, 0, 1, 0, 0, 0, 0, 0, 2,0.0,0.0,0.0,0.0,0.0,0.0,0.0,1.0,0.0,0.0,0.0,0.0,0.0,10,bpel-obj\src\main\java\org\apache\ode\bpel\elang\xquery10\o\OXQuery10ExpressionBPEL20.java,0,0,0,0
org.apache.ode.bpel.elang.xquery10.runtime.XQuery10BpelFunctions, 0, 0, 0, 0, 0, 0, 0, 1, 0, 0, 0, 0, 0, 1,0.0,0.0,0.0,0.0,0.0,0.0,0.0,0.0,0.0,0.0,0.0,0.0,0.0,63,bpel-runtime\src\main\java\org\apache\ode\bpel\elang\xquery10\runtime\XQuery10BpelFunctions.java,0,0,0,0
org.apache.ode.bpel.engine.BpelDatabase, 1, 0, 0, 0, 0, 0, 0, 0, 0, 0, 0, 0, 0, 1,0.5,0.0,0.0,0.5,0.0,0.0,0.0,1.0,0.0,0.0,0.0,0.0,0.0,29,bpel-runtime\src\main\java\org\apache\ode\bpel\engine\BpelDatabase.java,0,0,0,0
org.apache.ode.bpel.engine.BpelManagementFacadeImpl, 0, 0, 0, 1, 0, 0, 0, 1, 0, 0, 0, 0, 0, 2,0.125,0.0,0.0,0.0,0.0,0.0,0.0,0.0,0.0,0.0,0.0,0.0,0.0,200,bpel-runtime\src\main\java\org\apache\ode\bpel\engine\BpelManagementFacadeImpl.java,0,0,0,0
org.apache.ode.bpel.engine.BpelProcessConfigurationException, 0, 0, 0, 0, 0, 0, 0, 0, 0, 0, 0, 0, 0, 0,0.0,0.0,0.0,0.0,0.0,0.0,0.0,0.0,0.0,0.0,0.0,0.0,0.0,6,bpel-runtime\src\main\java\org\apache\ode\bpel\engine\BpelProcessConfigurationException.java,0,0,0,0
org.apache.ode.bpel.engine.BpelProcessDatabase, 1, 0, 0, 0, 0, 0, 0, 1, 0, 0, 0, 0, 0, 2,1.0,0.0,0.0,0.0,0.0,0.0,0.0,0.0,0.0,0.0,0.0,0.0,0.0,24,bpel-runtime\src\main\java\org\apache\ode\bpel\engine\BpelProcessDatabase.java,0,0,0,0
org.apache.ode.bpel.engine.BpelRuntimeContextImpl, 0, 0, 0, 1, 0, 0, 0, 1, 0, 0, 0, 0, 0, 2,0.043478260869565216,0.0,0.21739130434782608,0.17391304347826086,0.0,0.0,0.0,0.30434782608695654,0.0,0.0,0.0,0.0,0.0,1076,bpel-runtime\src\main\java\org\apache\ode\bpel\engine\BpelRuntimeContextImpl.java,0,7,1,9
org.apache.ode.bpel.engine.BrokeredMyRoleMessageExchangeImpl, 0, 0, 0, 0, 0, 0, 0, 1, 0, 0, 0, 0, 0, 1,0.0,0.0,0.0,1.0,0.0,0.0,0.0,1.0,0.0,0.0,0.0,0.0,0.0,58,bpel-runtime\src\main\java\org\apache\ode\bpel\engine\BrokeredMyRoleMessageExchangeImpl.java,0,0,0,0
org.apache.ode.bpel.engine.DehydrationPolicy, 0, 0, 0, 0, 0, 0, 0, 0, 0, 0, 0, 0, 0, 0,0.0,0.0,0.0,0.0,0.0,0.0,0.0,0.0,0.0,0.0,0.0,0.0,0.0,58,bpel-runtime\src\main\java\org\apache\ode\bpel\engine\DehydrationPolicy.java,0,0,0,0
org.apache.ode.bpel.engine.InstanceLockManagerTest, 0, 0, 0, 0, 0, 0, 0, 0, 0, 0, 0, 0, 0, 0,0.0,0.0,0.0,0.0,0.0,0.0,0.0,0.0,0.0,0.0,0.0,0.0,0.0,55,bpel-runtime\src\test\java\org\apache\ode\bpel\engine\InstanceLockManagerTest.java,0,0,0,0
org.apache.ode.bpel.engine.InterceptorContextImpl, 0, 0, 0, 0, 0, 0, 0, 1, 0, 0, 0, 0, 0, 1,0.0,0.0,0.0,0.0,0.0,0.0,0.0,0.0,0.0,0.0,0.0,0.0,0.0,29,bpel-runtime\src\main\java\org\apache\ode\bpel\engine\InterceptorContextImpl.java,0,0,0,0
org.apache.ode.bpel.engine.MessageExchangeImpl, 0, 0, 0, 1, 0, 0, 0, 1, 0, 0, 0, 0, 0, 2,0.0,0.0,0.2,0.2,0.0,0.0,0.0,1.0,0.0,0.0,0.0,0.0,0.0,156,bpel-runtime\src\main\java\org\apache\ode\bpel\engine\MessageExchangeImpl.java,0,0,0,0
org.apache.ode.bpel.engine.MexDaoUtil, 0, 0, 0, 0, 0, 0, 0, 1, 0, 0, 0, 0, 0, 1,0.0,0.0,0.0,1.0,0.0,0.0,0.0,1.0,0.0,0.0,0.0,0.0,0.0,23,bpel-runtime\src\main\java\org\apache\ode\bpel\engine\MexDaoUtil.java,0,0,0,0
org.apache.ode.bpel.engine.NStateLatch, 0, 0, 0, 0, 0, 0, 0, 0, 0, 0, 0, 0, 0, 0,0.0,0.0,0.0,0.0,0.0,0.0,0.0,0.0,0.0,0.0,0.0,0.0,0.0,59,bpel-runtime\src\main\java\org\apache\ode\bpel\engine\NStateLatch.java,0,0,0,0
org.apache.ode.bpel.engine.PartnerLinkPartnerRoleImpl, 0, 0, 1, 0, 0, 0, 0, 1, 0, 0, 0, 0, 0, 2,0.0,0.0,0.0,0.5,0.0,0.0,0.0,0.5,0.0,0.0,0.0,0.0,0.0,19,bpel-runtime\src\main\java\org\apache\ode\bpel\engine\PartnerLinkPartnerRoleImpl.java,0,0,0,0
org.apache.ode.bpel.engine.PartnerLinkRoleImpl, 0, 0, 0, 0, 0, 0, 0, 0, 0, 0, 0, 0, 0, 0,0.0,0.0,1.0,0.0,0.0,0.0,0.0,1.0,0.0,0.0,0.0,0.0,0.0,15,bpel-runtime\src\main\java\org\apache\ode\bpel\engine\PartnerLinkRoleImpl.java,0,0,0,0
org.apache.ode.bpel.engine.ProcessLifecycleCallback, 0, 0, 0, 0, 0, 0, 0, 0, 0, 0, 0, 0, 0, 0,0.0,0.0,0.0,0.0,0.0,0.0,0.0,0.0,0.0,0.0,0.0,0.0,0.0,15,bpel-runtime\src\main\java\org\apache\ode\bpel\engine\ProcessLifecycleCallback.java,0,0,0,0
org.apache.ode.bpel.engine.ReplacementMapImpl, 0, 0, 0, 0, 0, 0, 0, 0, 0, 0, 0, 0, 0, 0,0.0,0.0,0.0,0.0,0.0,0.0,0.0,0.0,0.0,0.0,0.0,0.0,0.0,37,bpel-runtime\src\main\java\org\apache\ode\bpel\engine\ReplacementMapImpl.java,0,0,0,0
org.apache.ode.bpel.engine.migration.CorrelationKeySetDataMigration, 0, 0, 0, 0, 0, 0, 0, 0, 0, 0, 0, 0, 0, 0,0.0,0.0,0.0,0.0,0.0,0.0,0.0,0.0,0.0,0.0,0.0,0.0,0.0,28,bpel-runtime\src\main\java\org\apache\ode\bpel\engine\migration\CorrelationKeySetDataMigration.java,0,0,0,0
org.apache.ode.bpel.engine.migration.CorrelatorsMigration, 0, 0, 0, 0, 0, 0, 0, 0, 0, 0, 0, 0, 0, 0,0.0,0.0,0.0,0.0,0.0,0.0,0.0,0.0,0.0,0.0,0.0,0.0,0.0,25,bpel-runtime\src\main\java\org\apache\ode\bpel\engine\migration\CorrelatorsMigration.java,0,0,0,0
org.apache.ode.bpel.engine.migration.Migration, 0, 0, 0, 0, 0, 0, 0, 0, 0, 0, 0, 0, 0, 0,0.0,0.0,0.0,0.0,0.0,0.0,0.0,0.0,0.0,0.0,0.0,0.0,0.0,25,bpel-runtime\src\main\java\org\apache\ode\bpel\engine\migration\Migration.java,0,0,0,0
org.apache.ode.bpel.engine.migration.OldSelector, 0, 0, 1, 0, 0, 0, 0, 1, 0, 0, 0, 0, 0, 2,0.0,0.0,1.0,0.0,0.0,0.0,0.0,0.0,0.0,0.0,0.0,0.0,0.0,26,bpel-runtime\src\main\java\org\apache\ode\bpel\engine\migration\OldSelector.java,0,0,0,0
org.apache.ode.bpel.engine.migration.OutstandingRequestsMigration, 0, 0, 0, 0, 0, 0, 0, 0, 0, 0, 0, 0, 0, 0,0.0,0.0,0.0,0.0,0.0,0.0,0.0,0.0,0.0,0.0,0.0,0.0,0.0,38,bpel-runtime\src\main\java\org\apache\ode\bpel\engine\migration\OutstandingRequestsMigration.java,0,0,0,0
org.apache.ode.bpel.engine.replayer.RemainingExchangesException, 0, 0, 0, 0, 0, 0, 0, 0, 0, 0, 0, 0, 0, 0,0.0,0.0,0.0,0.0,0.0,0.0,0.0,0.0,0.0,0.0,0.0,0.0,0.0,11,bpel-runtime\src\main\java\org\apache\ode\bpel\engine\replayer\RemainingExchangesException.java,0,0,0,0
org.apache.ode.bpel.engine.replayer.ReplayerBpelRuntimeContextImpl, 0, 0, 0, 0, 0, 0, 0, 1, 0, 0, 0, 0, 0, 1,0.16666666666666666,0.0,0.16666666666666666,0.5,0.0,0.0,0.0,0.5,0.0,0.0,0.0,0.0,0.0,190,bpel-runtime\src\main\java\org\apache\ode\bpel\engine\replayer\ReplayerBpelRuntimeContextImpl.java,0,0,0,0
org.apache.ode.bpel.epr.WSDL11EndpointTest, 0, 0, 0, 0, 0, 0, 0, 0, 0, 0, 0, 0, 0, 0,0.0,0.0,0.0,0.0,0.0,0.0,0.0,0.0,0.0,0.0,0.0,0.0,0.0,31,bpel-epr\src\main\test\org\apache\ode\bpel\epr\WSDL11EndpointTest.java,37,0,0,37
org.apache.ode.bpel.evar.ExternalVariableModule, 0, 0, 0, 0, 0, 0, 0, 0, 0, 0, 0, 0, 0, 0,0.0,0.0,0.0,0.0,0.0,0.0,0.0,0.0,0.0,0.0,0.0,0.0,0.0,31,bpel-api\src\main\java\org\apache\ode\bpel\evar\ExternalVariableModule.java,0,0,0,0
org.apache.ode.bpel.evar.ExternalVariableModuleException, 0, 0, 0, 0, 0, 0, 0, 0, 0, 0, 0, 0, 0, 0,0.0,0.0,0.0,0.0,0.0,0.0,0.0,0.8,0.0,0.0,0.0,0.0,0.0,9,bpel-api\src\main\java\org\apache\ode\bpel\evar\ExternalVariableModuleException.java,0,0,0,0
org.apache.ode.bpel.evar.IncompleteKeyException, 0, 0, 0, 0, 0, 0, 0, 0, 0, 0, 0, 0, 0, 0,0.0,0.0,0.0,0.0,0.0,0.0,0.0,0.0,0.0,0.0,0.0,0.0,0.0,12,bpel-api\src\main\java\org\apache\ode\bpel\evar\IncompleteKeyException.java,0,0,0,0
org.apache.ode.bpel.evt.ActivityEnabledEvent, 0, 0, 0, 0, 0, 0, 0, 0, 0, 0, 0, 0, 0, 0,0.0,0.0,0.0,0.0,0.0,0.0,0.0,0.0,0.0,0.0,0.0,0.0,0.0,3,bpel-api\src\main\java\org\apache\ode\bpel\evt\ActivityEnabledEvent.java,0,0,0,0
org.apache.ode.bpel.evt.ActivityEvent, 0, 0, 0, 0, 0, 0, 0, 0, 0, 0, 0, 0, 0, 0,0.0,0.0,0.0,0.125,0.0,0.0,0.0,0.125,0.0,0.0,0.0,0.0,0.0,36,bpel-api\src\main\java\org\apache\ode\bpel\evt\ActivityEvent.java,0,0,0,0
org.apache.ode.bpel.evt.ActivityExecEndEvent, 0, 0, 0, 0, 0, 0, 0, 0, 0, 0, 0, 0, 0, 0,0.0,0.0,0.0,0.0,0.0,0.0,0.0,0.0,0.0,0.0,0.0,0.0,0.0,3,bpel-api\src\main\java\org\apache\ode\bpel\evt\ActivityExecEndEvent.java,0,0,0,0
org.apache.ode.bpel.evt.ActivityExecStartEvent, 0, 0, 0, 0, 0, 0, 0, 0, 0, 0, 0, 0, 0, 0,0.0,0.0,0.0,0.0,0.0,0.0,0.0,0.0,0.0,0.0,0.0,0.0,0.0,3,bpel-api\src\main\java\org\apache\ode\bpel\evt\ActivityExecStartEvent.java,0,0,0,0
org.apache.ode.bpel.evt.ActivityFailureEvent, 0, 0, 0, 0, 0, 0, 0, 0, 0, 0, 0, 0, 0, 0,0.0,0.0,0.0,0.0,0.0,0.0,0.0,0.0,0.0,0.0,0.0,0.0,0.0,15,bpel-api\src\main\java\org\apache\ode\bpel\evt\ActivityFailureEvent.java,0,0,0,0
org.apache.ode.bpel.evt.ActivityRecoveryEvent, 0, 0, 0, 0, 0, 0, 0, 0, 0, 0, 0, 0, 0, 0,0.0,0.0,0.0,0.0,0.0,0.0,0.0,0.0,0.0,0.0,0.0,0.0,0.0,16,bpel-api\src\main\java\org\apache\ode\bpel\evt\ActivityRecoveryEvent.java,0,0,0,0
org.apache.ode.bpel.evt.CompensationHandlerRegistered, 0, 0, 0, 0, 0, 0, 0, 0, 0, 0, 0, 0, 0, 0,0.0,0.0,0.0,0.0,0.0,0.0,0.0,0.0,0.0,0.0,0.0,0.0,0.0,6,bpel-api\src\main\java\org\apache\ode\bpel\evt\CompensationHandlerRegistered.java,0,0,0,0
org.apache.ode.bpel.evt.CorrelationEvent, 0, 0, 0, 0, 0, 0, 0, 1, 0, 0, 0, 0, 0, 1,0.0,0.0,0.0,0.0,0.0,0.0,0.0,0.5,0.0,0.0,0.0,0.0,0.0,35,bpel-api\src\main\java\org\apache\ode\bpel\evt\CorrelationEvent.java,0,0,0,0
org.apache.ode.bpel.evt.CorrelationMatchEvent, 0, 0, 0, 0, 0, 0, 0, 1, 0, 0, 0, 0, 0, 1,0.0,0.0,0.0,1.0,0.0,0.0,0.0,1.0,0.0,0.0,0.0,0.0,0.0,25,bpel-api\src\main\java\org\apache\ode\bpel\evt\CorrelationMatchEvent.java,0,0,0,0
org.apache.ode.bpel.evt.CorrelationNoMatchEvent, 0, 0, 0, 0, 0, 0, 0, 1, 0, 0, 0, 0, 0, 1,0.0,0.0,0.0,0.0,0.0,0.0,0.0,1.0,0.0,0.0,0.0,0.0,0.0,24,bpel-api\src\main\java\org\apache\ode\bpel\evt\CorrelationNoMatchEvent.java,0,0,0,0
org.apache.ode.bpel.evt.CorrelationSetEvent, 0, 0, 1, 0, 0, 0, 0, 0, 0, 0, 0, 0, 0, 1,0.0,0.0,0.0,0.0,0.0,0.0,0.0,0.0,0.0,0.0,0.0,0.0,0.0,19,bpel-api\src\main\java\org\apache\ode\bpel\evt\CorrelationSetEvent.java,0,0,0,0
org.apache.ode.bpel.evt.CorrelationSetWriteEvent, 0, 0, 0, 0, 0, 0, 0, 0, 0, 0, 0, 0, 0, 0,0.0,0.0,0.5,0.5,0.0,0.0,0.0,0.5,0.0,0.0,0.0,0.0,0.0,14,bpel-api\src\main\java\org\apache\ode\bpel\evt\CorrelationSetWriteEvent.java,0,0,0,0
org.apache.ode.bpel.evt.EventContext, 0, 0, 0, 0, 0, 0, 0, 0, 0, 0, 0, 0, 0, 0,0.0,0.0,0.0,0.0,0.0,0.0,0.0,0.0,0.0,0.0,0.0,0.0,0.0,14,bpel-api\src\main\java\org\apache\ode\bpel\evt\EventContext.java,0,0,0,0
org.apache.ode.bpel.evt.ExpressionEvaluationEvent, 0, 0, 0, 0, 0, 0, 0, 0, 0, 0, 0, 0, 0, 0,0.0,0.0,0.0,0.0,0.0,0.0,0.0,0.0,0.0,0.0,0.0,0.0,0.0,13,bpel-api\src\main\java\org\apache\ode\bpel\evt\ExpressionEvaluationEvent.java,0,0,0,0
org.apache.ode.bpel.evt.ExpressionEvaluationFailedEvent, 0, 0, 0, 0, 0, 0, 0, 0, 0, 0, 0, 0, 0, 0,0.0,0.0,0.0,0.0,0.0,0.0,0.0,0.0,0.0,0.0,0.0,0.0,0.0,10,bpel-api\src\main\java\org\apache\ode\bpel\evt\ExpressionEvaluationFailedEvent.java,0,0,0,0
org.apache.ode.bpel.evt.ExpressionEvaluationSuccessEvent, 0, 0, 0, 0, 0, 0, 0, 0, 0, 0, 0, 0, 0, 0,0.0,0.0,0.0,0.0,0.0,0.0,0.0,0.0,0.0,0.0,0.0,0.0,0.0,10,bpel-api\src\main\java\org\apache\ode\bpel\evt\ExpressionEvaluationSuccessEvent.java,0,0,0,0
org.apache.ode.bpel.evt.NewProcessInstanceEvent, 0, 0, 0, 0, 0, 0, 0, 1, 0, 0, 0, 0, 0, 1,0.0,0.0,0.0,1.0,0.0,0.0,0.0,1.0,0.0,0.0,0.0,0.0,0.0,27,bpel-api\src\main\java\org\apache\ode\bpel\evt\NewProcessInstanceEvent.java,0,0,0,0
org.apache.ode.bpel.evt.PartnerLinkEvent, 0, 0, 0, 0, 0, 0, 0, 0, 0, 0, 0, 0, 0, 0,0.0,0.0,0.0,0.0,0.0,0.0,0.0,0.0,0.0,0.0,0.0,0.0,0.0,19,bpel-api\src\main\java\org\apache\ode\bpel\evt\PartnerLinkEvent.java,0,0,0,0
org.apache.ode.bpel.evt.PartnerLinkModificationEvent, 0, 0, 0, 0, 0, 0, 0, 0, 0, 0, 0, 0, 0, 0,0.0,0.0,0.0,0.0,0.0,0.0,0.0,0.5,0.0,0.0,0.0,0.0,0.0,9,bpel-api\src\main\java\org\apache\ode\bpel\evt\PartnerLinkModificationEvent.java,0,0,0,0
org.apache.ode.bpel.evt.ProcessCompletionEvent, 0, 0, 0, 0, 0, 0, 0, 0, 0, 0, 0, 0, 0, 0,0.0,0.0,0.0,0.5,0.0,0.0,0.0,0.5,0.0,0.0,0.0,0.0,0.0,17,bpel-api\src\main\java\org\apache\ode\bpel\evt\ProcessCompletionEvent.java,0,0,0,0
org.apache.ode.bpel.evt.ProcessEvent, 0, 0, 0, 0, 0, 0, 0, 0, 0, 0, 0, 0, 0, 0,0.0,0.0,0.0,0.5,0.0,0.0,0.0,0.75,0.0,0.0,0.0,0.0,0.0,18,bpel-api\src\main\java\org\apache\ode\bpel\evt\ProcessEvent.java,0,0,0,0
org.apache.ode.bpel.evt.ProcessInstanceEvent, 0, 0, 0, 0, 0, 0, 0, 0, 0, 0, 0, 0, 0, 0,0.0,0.0,0.0,0.4,0.0,0.0,0.0,0.4,0.0,0.0,0.0,0.0,0.0,18,bpel-api\src\main\java\org\apache\ode\bpel\evt\ProcessInstanceEvent.java,0,0,0,0
org.apache.ode.bpel.evt.ProcessInstanceStartedEvent, 0, 0, 0, 0, 0, 0, 0, 0, 0, 0, 0, 0, 0, 0,0.0,0.0,0.0,0.0,0.0,0.0,0.0,0.0,0.0,0.0,0.0,0.0,0.0,20,bpel-api\src\main\java\org\apache\ode\bpel\evt\ProcessInstanceStartedEvent.java,0,0,0,0
org.apache.ode.bpel.evt.ProcessInstanceStateChangeEvent, 0, 0, 0, 0, 0, 0, 0, 0, 0, 0, 0, 0, 0, 0,0.0,0.0,0.0,0.5,0.0,0.0,0.0,0.5,0.0,0.0,0.0,0.0,0.0,20,bpel-api\src\main\java\org\apache\ode\bpel\evt\ProcessInstanceStateChangeEvent.java,0,0,0,0
org.apache.ode.bpel.evt.ProcessMessageExchangeEvent, 0, 0, 0, 1, 0, 0, 0, 1, 0, 0, 0, 0, 0, 2,0.0,0.0,0.0,0.2,0.0,0.0,0.0,0.6,0.0,0.0,0.0,0.0,0.0,47,bpel-api\src\main\java\org\apache\ode\bpel\evt\ProcessMessageExchangeEvent.java,0,0,0,0
org.apache.ode.bpel.evt.ProcessTerminationEvent, 0, 0, 0, 0, 0, 0, 0, 0, 0, 0, 0, 0, 0, 0,0.0,0.0,0.0,0.5,0.0,0.0,0.0,0.5,0.0,0.0,0.0,0.0,0.0,6,bpel-api\src\main\java\org\apache\ode\bpel\evt\ProcessTerminationEvent.java,0,0,0,0
org.apache.ode.bpel.evt.ScopeCompletionEvent, 0, 0, 0, 0, 0, 0, 0, 0, 0, 0, 0, 0, 0, 0,0.0,0.0,0.0,0.0,0.0,0.0,0.0,0.0,0.0,0.0,0.0,0.0,0.0,5,bpel-api\src\main\java\org\apache\ode\bpel\evt\ScopeCompletionEvent.java,0,0,0,0
org.apache.ode.bpel.evt.ScopeEvent, 0, 0, 0, 0, 0, 0, 0, 0, 0, 0, 0, 0, 0, 0,0.0,0.0,0.07692307692307693,0.15384615384615385,0.0,0.0,0.0,0.23076923076923078,0.0,0.0,0.0,0.0,0.0,43,bpel-api\src\main\java\org\apache\ode\bpel\evt\ScopeEvent.java,0,0,0,0
org.apache.ode.bpel.evt.ScopeFaultEvent, 0, 0, 0, 0, 0, 0, 0, 1, 0, 0, 0, 0, 0, 1,0.0,0.0,0.0,0.0,0.0,0.0,0.0,0.0,0.0,0.0,0.0,0.0,0.0,33,bpel-api\src\main\java\org\apache\ode\bpel\evt\ScopeFaultEvent.java,0,0,0,0
org.apache.ode.bpel.evt.ScopeStartEvent, 0, 0, 0, 0, 0, 0, 0, 0, 0, 0, 0, 0, 0, 0,0.0,0.0,0.0,0.0,0.0,0.0,0.0,0.0,0.0,0.0,0.0,0.0,0.0,3,bpel-api\src\main\java\org\apache\ode\bpel\evt\ScopeStartEvent.java,0,0,0,0
org.apache.ode.bpel.evt.VariableEvent, 0, 0, 0, 0, 0, 0, 0, 0, 0, 0, 0, 0, 0, 0,0.0,0.0,0.0,0.25,0.0,0.0,0.0,0.25,0.0,0.0,0.0,0.0,0.0,19,bpel-api\src\main\java\org\apache\ode\bpel\evt\VariableEvent.java,0,0,0,0
org.apache.ode.bpel.evt.VariableModificationEvent, 0, 0, 0, 0, 0, 0, 0, 0, 0, 0, 0, 0, 0, 0,0.0,0.0,0.0,0.0,0.0,0.0,0.0,0.75,0.0,0.0,0.0,0.0,0.0,16,bpel-api\src\main\java\org\apache\ode\bpel\evt\VariableModificationEvent.java,0,0,0,0
org.apache.ode.bpel.evt.VariableReadEvent, 0, 0, 0, 0, 0, 0, 0, 0, 0, 0, 0, 0, 0, 0,0.0,0.0,0.0,0.0,0.0,0.0,0.0,0.0,0.0,0.0,0.0,0.0,0.0,3,bpel-api\src\main\java\org\apache\ode\bpel\evt\VariableReadEvent.java,0,0,0,0
org.apache.ode.bpel.explang.ConfigurationException, 0, 0, 0, 0, 0, 0, 0, 0, 0, 0, 0, 0, 0, 0,0.0,0.0,0.0,0.0,0.0,0.0,0.0,0.0,0.0,0.0,0.0,0.0,0.0,6,bpel-api\src\main\java\org\apache\ode\bpel\explang\ConfigurationException.java,0,0,0,0
org.apache.ode.bpel.explang.EvaluationContext, 0, 0, 0, 0, 0, 0, 0, 0, 0, 0, 0, 0, 0, 0,0.0,0.0,0.0,0.0,0.0,0.0,0.0,0.0,0.0,0.0,0.0,0.0,0.0,6,bpel-api\src\main\java\org\apache\ode\bpel\explang\EvaluationContext.java,0,0,0,0
org.apache.ode.bpel.explang.EvaluationException, 0, 0, 0, 0, 0, 0, 0, 0, 0, 0, 0, 0, 0, 0,0.0,0.0,0.0,0.0,0.0,0.0,0.0,0.8888888888888888,0.0,0.0,0.0,0.0,0.0,6,bpel-api\src\main\java\org\apache\ode\bpel\explang\EvaluationException.java,0,0,0,0
org.apache.ode.bpel.explang.TypeCastException, 0, 0, 0, 0, 0, 0, 0, 0, 0, 0, 0, 0, 0, 0,0.0,0.0,0.0,0.0,0.0,0.0,0.0,0.0,0.0,0.0,0.0,0.0,0.0,22,bpel-api\src\main\java\org\apache\ode\bpel\explang\TypeCastException.java,0,0,0,0
org.apache.ode.bpel.extvar.jdbc.EVarId, 0, 0, 0, 0, 0, 0, 0, 0, 0, 0, 0, 0, 0, 0,0.0,0.0,0.0,0.0,0.0,0.0,0.0,0.0,0.0,0.0,0.0,0.0,0.0,17,bpel-runtime\src\main\java\org\apache\ode\bpel\extvar\jdbc\EVarId.java,0,0,0,0
org.apache.ode.bpel.iapi.BindingContext, 0, 0, 0, 0, 0, 0, 0, 0, 0, 0, 0, 0, 0, 0,0.0,0.0,0.0,0.0,0.0,0.0,0.0,0.0,0.0,0.0,0.0,0.0,0.0,17,bpel-api\src\main\java\org\apache\ode\bpel\iapi\BindingContext.java,0,0,0,0
org.apache.ode.bpel.iapi.BpelEngine, 0, 0, 0, 0, 0, 0, 0, 0, 0, 0, 0, 0, 0, 0,0.0,0.0,0.0,0.0,0.0,0.0,0.0,0.0,0.0,0.0,0.0,0.0,0.0,17,bpel-api\src\main\java\org\apache\ode\bpel\iapi\BpelEngine.java,0,0,0,0
org.apache.ode.bpel.iapi.BpelEngineException, 0, 0, 0, 0, 0, 0, 0, 0, 0, 0, 0, 0, 0, 0,0.0,0.0,0.0,0.5,0.0,0.0,0.0,1.0,0.0,0.0,0.0,0.0,0.0,12,bpel-api\src\main\java\org\apache\ode\bpel\iapi\BpelEngineException.java,0,0,0,0
org.apache.ode.bpel.iapi.BpelEventListener, 0, 0, 0, 0, 0, 0, 0, 0, 0, 0, 0, 0, 0, 0,0.0,0.0,0.0,0.0,0.0,0.0,0.0,0.0,0.0,0.0,0.0,0.0,0.0,12,bpel-api\src\main\java\org\apache\ode\bpel\iapi\BpelEventListener.java,0,0,0,0
org.apache.ode.bpel.iapi.BpelServer, 0, 0, 0, 0, 0, 0, 0, 0, 0, 0, 0, 0, 0, 0,0.0,0.0,0.0,0.0,0.0,0.0,0.0,0.0,0.0,0.0,0.0,0.0,0.0,12,bpel-api\src\main\java\org\apache\ode\bpel\iapi\BpelServer.java,0,1,0,1
org.apache.ode.bpel.iapi.ClusterAware, 0, 0, 0, 0, 0, 0, 0, 0, 0, 0, 0, 0, 0, 0,0.0,0.0,0.0,0.0,0.0,0.0,0.0,0.0,0.0,0.0,0.0,0.0,0.0,12,bpel-api\src\main\java\org\apache\ode\bpel\iapi\ClusterAware.java,0,0,0,0
org.apache.ode.bpel.iapi.Content, 0, 0, 0, 0, 0, 0, 0, 0, 0, 0, 0, 0, 0, 0,0.0,0.0,0.0,0.0,0.0,0.0,0.0,0.0,0.0,0.0,0.0,0.0,0.0,12,bpel-api\src\main\java\org\apache\ode\bpel\iapi\Content.java,0,0,0,0
org.apache.ode.bpel.iapi.ContextException, 0, 0, 0, 0, 0, 0, 0, 0, 0, 0, 0, 0, 0, 0,0.2,0.0,0.0,0.2,0.0,0.0,0.0,0.6,0.0,0.0,0.0,0.0,0.0,12,bpel-api\src\main\java\org\apache\ode\bpel\iapi\ContextException.java,0,0,0,0
org.apache.ode.bpel.iapi.DebuggerContext, 0, 0, 0, 0, 0, 0, 0, 0, 0, 0, 0, 0, 0, 0,0.0,0.0,0.0,0.0,0.0,0.0,0.0,0.0,0.0,0.0,0.0,0.0,0.0,12,bpel-api\src\main\java\org\apache\ode\bpel\iapi\DebuggerContext.java,0,0,0,0
org.apache.ode.bpel.iapi.Endpoint, 0, 0, 0, 0, 0, 0, 0, 0, 0, 0, 0, 0, 0, 0,0.0,0.0,0.25,0.0,0.0,0.0,0.0,0.5,0.0,0.0,0.0,0.0,0.0,26,bpel-api\src\main\java\org\apache\ode\bpel\iapi\Endpoint.java,0,0,0,0
org.apache.ode.bpel.iapi.EndpointReference, 0, 0, 0, 0, 0, 0, 0, 0, 0, 0, 0, 0, 0, 0,0.0,0.0,0.0,0.0,0.0,0.0,0.0,0.0,0.0,0.0,0.0,0.0,0.0,26,bpel-api\src\main\java\org\apache\ode\bpel\iapi\EndpointReference.java,0,0,0,0
org.apache.ode.bpel.iapi.MessageExchange, 0, 0, 0, 0, 0, 0, 0, 0, 0, 0, 0, 0, 0, 0,0.0,0.0,0.0,0.0,0.0,0.0,0.0,0.0,0.0,0.0,0.0,0.0,0.0,26,bpel-api\src\main\java\org\apache\ode\bpel\iapi\MessageExchange.java,0,0,0,0
org.apache.ode.bpel.iapi.MessageExchangeContext, 0, 0, 0, 0, 0, 0, 0, 0, 0, 0, 0, 0, 0, 0,0.0,0.0,0.0,0.0,0.0,0.0,0.0,0.0,0.0,0.0,0.0,0.0,0.0,26,bpel-api\src\main\java\org\apache\ode\bpel\iapi\MessageExchangeContext.java,0,0,0,0
org.apache.ode.bpel.iapi.MyRoleMessageExchange, 0, 0, 0, 0, 0, 0, 0, 0, 0, 0, 0, 0, 0, 0,0.0,0.0,0.0,0.0,0.0,0.0,0.0,0.0,0.0,0.0,0.0,0.0,0.0,26,bpel-api\src\main\java\org\apache\ode\bpel\iapi\MyRoleMessageExchange.java,0,0,0,0
org.apache.ode.bpel.iapi.PartnerRoleChannel, 0, 0, 0, 0, 0, 0, 0, 0, 0, 0, 0, 0, 0, 0,0.0,0.0,0.0,0.0,0.0,0.0,0.0,0.0,0.0,0.0,0.0,0.0,0.0,26,bpel-api\src\main\java\org\apache\ode\bpel\iapi\PartnerRoleChannel.java,0,0,0,0
org.apache.ode.bpel.iapi.PartnerRoleMessageExchange, 0, 0, 0, 0, 0, 0, 0, 0, 0, 0, 0, 0, 0, 0,0.0,0.0,0.0,0.0,0.0,0.0,0.0,0.0,0.0,0.0,0.0,0.0,0.0,26,bpel-api\src\main\java\org\apache\ode\bpel\iapi\PartnerRoleMessageExchange.java,0,0,0,0
org.apache.ode.bpel.iapi.ProcessStore, 0, 0, 0, 0, 0, 0, 0, 0, 0, 0, 0, 0, 0, 0,0.0,0.0,0.0,0.0,0.0,0.0,0.0,0.0,0.0,0.0,0.0,0.0,0.0,26,bpel-api\src\main\java\org\apache\ode\bpel\iapi\ProcessStore.java,0,0,0,0
org.apache.ode.bpel.iapi.ProcessStoreEvent, 0, 0, 0, 0, 0, 0, 0, 1, 0, 0, 0, 0, 0, 1,0.0,0.0,0.0,0.0,0.0,0.0,0.0,0.0,0.0,0.0,0.0,0.0,0.0,24,bpel-api\src\main\java\org\apache\ode\bpel\iapi\ProcessStoreEvent.java,0,0,0,0
org.apache.ode.bpel.iapi.ProcessStoreListener, 0, 0, 0, 0, 0, 0, 0, 0, 0, 0, 0, 0, 0, 0,0.0,0.0,0.0,0.0,0.0,0.0,0.0,0.0,0.0,0.0,0.0,0.0,0.0,24,bpel-api\src\main\java\org\apache\ode\bpel\iapi\ProcessStoreListener.java,0,0,0,0
org.apache.ode.bpel.intercept.AbortMessageExchangeException, 0, 0, 0, 0, 0, 0, 0, 0, 0, 0, 0, 0, 0, 0,0.0,0.0,0.0,0.0,0.0,0.0,0.0,0.5,0.0,0.0,0.0,0.0,0.0,8,bpel-runtime\src\main\java\org\apache\ode\bpel\intercept\AbortMessageExchangeException.java,0,0,0,0
org.apache.ode.bpel.intercept.FailMessageExchangeException, 0, 0, 0, 0, 0, 0, 0, 0, 0, 0, 0, 0, 0, 0,0.0,0.0,0.0,0.0,0.0,0.0,0.0,0.0,0.0,0.0,0.0,0.0,0.0,9,bpel-runtime\src\main\java\org\apache\ode\bpel\intercept\FailMessageExchangeException.java,0,0,0,0
org.apache.ode.bpel.intercept.FaultMessageExchangeException, 0, 0, 0, 0, 0, 0, 0, 1, 0, 0, 0, 0, 0, 1,0.0,0.0,0.0,0.0,0.0,0.0,0.0,0.0,0.0,0.0,0.0,0.0,0.0,16,bpel-runtime\src\main\java\org\apache\ode\bpel\intercept\FaultMessageExchangeException.java,0,0,0,0
org.apache.ode.bpel.intercept.InterceptorInvoker, 0, 0, 0, 0, 0, 0, 0, 1, 0, 0, 0, 0, 0, 1,0.0,0.0,0.0,0.0,0.0,0.0,0.0,0.0,0.0,0.0,0.0,0.0,0.0,41,bpel-runtime\src\main\java\org\apache\ode\bpel\intercept\InterceptorInvoker.java,0,0,0,0
org.apache.ode.bpel.intercept.MessageExchangeInterceptor, 0, 0, 0, 0, 0, 0, 0, 0, 0, 0, 0, 0, 0, 0,0.0,0.0,0.0,0.0,0.0,0.0,0.0,0.0,0.0,0.0,0.0,0.0,0.0,41,bpel-runtime\src\main\java\org\apache\ode\bpel\intercept\MessageExchangeInterceptor.java,0,0,0,0
org.apache.ode.bpel.intercept.NoOpInterceptor, 0, 0, 0, 0, 0, 0, 0, 0, 0, 0, 0, 0, 0, 0,0.0,0.0,0.0,0.0,0.0,0.0,0.0,0.0,0.0,0.0,0.0,0.0,0.0,22,bpel-runtime\src\main\java\org\apache\ode\bpel\intercept\NoOpInterceptor.java,0,0,0,0
org.apache.ode.bpel.intercept.ProcessCountThrottler, 0, 0, 0, 0, 0, 0, 0, 0, 0, 0, 0, 0, 0, 0,0.0,0.0,0.0,0.0,0.0,0.0,0.0,0.0,0.0,0.0,0.0,0.0,0.0,13,bpel-runtime\src\main\java\org\apache\ode\bpel\intercept\ProcessCountThrottler.java,0,0,0,0
org.apache.ode.bpel.intercept.ProcessSizeThrottler, 0, 0, 0, 0, 0, 0, 0, 0, 0, 0, 0, 0, 0, 0,0.0,0.0,0.0,0.0,0.0,0.0,0.0,0.0,0.0,0.0,0.0,0.0,0.0,13,bpel-runtime\src\main\java\org\apache\ode\bpel\intercept\ProcessSizeThrottler.java,0,0,0,0
org.apache.ode.bpel.jca.clientapi.ProcessManagementConnection, 0, 0, 0, 0, 0, 0, 0, 0, 0, 0, 0, 0, 0, 0,0.0,0.0,0.0,0.0,0.0,0.0,0.0,0.0,0.0,0.0,0.0,0.0,0.0,13,bpel-api-jca\src\main\java\org\apache\ode\bpel\jca\clientapi\ProcessManagementConnection.java,0,0,0,0
org.apache.ode.bpel.jmx.BpelEventNotification, 0, 0, 0, 0, 0, 0, 0, 1, 0, 0, 0, 0, 0, 1,0.0,0.0,0.0,0.0,0.0,0.0,0.0,0.0,0.0,0.0,0.0,0.0,0.0,11,bpel-api\src\main\java\org\apache\ode\bpel\jmx\BpelEventNotification.java,0,0,0,0
org.apache.ode.bpel.jmx.ProcessMBean, 0, 0, 0, 0, 0, 0, 0, 0, 0, 0, 0, 0, 0, 0,0.0,0.0,0.0,0.0,0.0,0.0,0.0,0.0,0.0,0.0,0.0,0.0,0.0,11,bpel-api\src\main\java\org\apache\ode\bpel\jmx\ProcessMBean.java,0,0,0,0
org.apache.ode.bpel.memdao.DaoBaseImpl, 0, 0, 0, 0, 0, 0, 0, 0, 0, 0, 0, 0, 0, 0,0.0,0.0,0.0,0.25,0.0,0.0,0.0,0.5,0.0,0.0,0.0,0.0,0.0,8,bpel-runtime\src\main\java\org\apache\ode\bpel\memdao\DaoBaseImpl.java,0,0,0,0
org.apache.ode.bpel.memdao.FaultDaoImpl, 0, 0, 0, 0, 0, 0, 0, 1, 0, 0, 0, 0, 0, 1,0.0,0.0,0.0,0.0,0.0,0.0,0.0,0.0,0.0,0.0,0.0,0.0,0.0,44,bpel-runtime\src\main\java\org\apache\ode\bpel\memdao\FaultDaoImpl.java,0,0,0,0
org.apache.ode.bpel.memdao.IdGen, 0, 0, 0, 0, 0, 0, 0, 0, 0, 0, 0, 0, 0, 0,0.0,0.0,0.0,0.0,0.0,0.0,0.0,0.0,0.0,0.0,0.0,0.0,0.0,14,bpel-runtime\src\main\java\org\apache\ode\bpel\memdao\IdGen.java,0,0,0,0
org.apache.ode.bpel.memdao.MessageDAOImpl, 0, 0, 0, 0, 0, 0, 0, 0, 0, 0, 0, 0, 0, 0,0.0,0.0,0.0,0.5,0.0,0.0,0.0,0.0,0.0,0.0,0.0,0.0,0.0,32,bpel-runtime\src\main\java\org\apache\ode\bpel\memdao\MessageDAOImpl.java,0,0,0,0
org.apache.ode.bpel.memdao.MessageRouteDaoImpl, 0, 0, 0, 0, 0, 0, 0, 1, 0, 0, 0, 0, 0, 1,0.0,0.0,0.0,0.0,0.0,0.0,0.0,0.0,0.0,0.0,0.0,0.0,0.0,39,bpel-runtime\src\main\java\org\apache\ode\bpel\memdao\MessageRouteDaoImpl.java,0,0,0,0
org.apache.ode.bpel.memdao.PartnerLinkDAOImpl, 0, 0, 0, 1, 0, 0, 0, 0, 0, 0, 0, 0, 0, 1,0.0,0.0,0.0,0.0,0.0,0.0,0.0,0.0,0.0,0.0,0.0,0.0,0.0,65,bpel-runtime\src\main\java\org\apache\ode\bpel\memdao\PartnerLinkDAOImpl.java,0,0,0,0
org.apache.ode.bpel.o.FailureHandling, 0, 0, 1, 0, 0, 0, 0, 0, 0, 0, 0, 0, 0, 1,0.0,0.0,0.0,0.0,0.0,0.0,0.0,0.0,0.0,0.0,0.0,0.0,0.0,9,bpel-obj\src\main\java\org\apache\ode\bpel\o\FailureHandling.java,0,0,0,0
org.apache.ode.bpel.o.OAgent, 0, 0, 0, 0, 0, 0, 0, 0, 0, 0, 0, 0, 0, 0,0.0,0.0,1.0,0.0,0.0,0.0,0.0,0.0,0.0,0.0,0.0,0.0,0.0,11,bpel-obj\src\main\java\org\apache\ode\bpel\o\OAgent.java,0,0,0,0
org.apache.ode.bpel.o.OAssign, 0, 0, 0, 0, 0, 0, 0, 0, 0, 0, 0, 0, 0, 0,0.0,0.0,0.0,0.0,0.0,0.0,0.0,0.5,0.0,0.0,0.0,0.0,0.0,167,bpel-obj\src\main\java\org\apache\ode\bpel\o\OAssign.java,0,0,0,0
org.apache.ode.bpel.o.OCatch, 0, 0, 1, 0, 0, 0, 0, 0, 0, 0, 0, 0, 0, 1,0.0,0.0,0.0,0.0,0.0,0.0,0.0,1.0,0.0,0.0,0.0,0.0,0.0,11,bpel-obj\src\main\java\org\apache\ode\bpel\o\OCatch.java,0,0,0,0
org.apache.ode.bpel.o.OCompensate, 0, 0, 1, 0, 0, 0, 0, 0, 0, 0, 0, 0, 0, 1,0.0,0.0,0.0,0.0,0.0,0.0,0.0,0.3333333333333333,0.0,0.0,0.0,0.0,0.0,7,bpel-obj\src\main\java\org\apache\ode\bpel\o\OCompensate.java,0,0,0,0
org.apache.ode.bpel.o.OCompensationHandler, 0, 0, 0, 0, 0, 0, 0, 0, 0, 0, 0, 0, 0, 0,0.0,0.0,0.0,0.0,0.0,0.0,0.0,0.0,0.0,0.0,0.0,0.0,0.0,6,bpel-obj\src\main\java\org\apache\ode\bpel\o\OCompensationHandler.java,0,0,0,0
org.apache.ode.bpel.o.OConstantExpression, 0, 0, 0, 0, 0, 0, 0, 0, 0, 0, 0, 0, 0, 0,0.0,0.0,1.0,0.0,0.0,0.0,0.0,0.0,0.0,0.0,0.0,0.0,0.0,19,bpel-obj\src\main\java\org\apache\ode\bpel\o\OConstantExpression.java,0,0,0,0
org.apache.ode.bpel.o.OConstantVarType, 0, 0, 0, 0, 0, 0, 0, 0, 0, 0, 0, 0, 0, 0,0.0,0.0,0.0,0.0,0.0,0.0,0.0,0.0,0.0,0.0,0.0,0.0,0.0,20,bpel-obj\src\main\java\org\apache\ode\bpel\o\OConstantVarType.java,0,0,0,0
org.apache.ode.bpel.o.OConstants, 0, 0, 1, 1, 0, 0, 0, 0, 0, 0, 0, 0, 0, 2,0.0,0.0,0.0,1.0,0.0,0.0,0.0,1.0,0.0,0.0,0.0,0.0,0.0,33,bpel-obj\src\main\java\org\apache\ode\bpel\o\OConstants.java,0,0,0,0
org.apache.ode.bpel.o.OElementVarType, 0, 0, 1, 0, 0, 0, 0, 0, 0, 0, 0, 0, 0, 1,0.0,0.0,0.0,0.0,0.0,0.0,0.0,0.0,0.0,0.0,0.0,0.0,0.0,13,bpel-obj\src\main\java\org\apache\ode\bpel\o\OElementVarType.java,0,0,0,0
org.apache.ode.bpel.o.OEmpty, 0, 0, 0, 0, 0, 0, 0, 0, 0, 0, 0, 0, 0, 0,0.0,0.0,0.0,0.0,0.0,0.0,0.0,0.0,0.0,0.0,0.0,0.0,0.0,6,bpel-obj\src\main\java\org\apache\ode\bpel\o\OEmpty.java,0,0,0,0
org.apache.ode.bpel.o.OEventHandler, 0, 0, 1, 0, 0, 0, 0, 0, 0, 0, 0, 0, 0, 1,0.0,0.0,0.0,0.0,0.0,0.0,0.0,0.0,0.0,0.0,0.0,0.0,0.0,58,bpel-obj\src\main\java\org\apache\ode\bpel\o\OEventHandler.java,0,0,0,0
org.apache.ode.bpel.o.OExpression, 0, 0, 1, 0, 0, 0, 0, 0, 0, 0, 0, 0, 0, 1,0.0,0.0,0.5,0.0,0.0,0.0,0.0,0.16666666666666666,0.0,0.0,0.0,0.0,0.0,10,bpel-obj\src\main\java\org\apache\ode\bpel\o\OExpression.java,0,0,0,0
org.apache.ode.bpel.o.OExtVar, 0, 0, 1, 0, 0, 0, 0, 0, 0, 0, 0, 0, 0, 1,0.0,0.0,0.0,0.0,0.0,0.0,0.0,0.0,0.0,0.0,0.0,0.0,0.0,8,bpel-obj\src\main\java\org\apache\ode\bpel\o\OExtVar.java,0,0,0,0
org.apache.ode.bpel.o.OFailureHandling, 0, 0, 1, 0, 0, 0, 0, 0, 0, 0, 0, 0, 0, 1,0.0,0.0,0.0,0.0,0.0,0.0,0.0,0.0,0.0,0.0,0.0,0.0,0.0,9,bpel-obj\src\main\java\org\apache\ode\bpel\o\OFailureHandling.java,0,0,0,0
org.apache.ode.bpel.o.OFaultHandler, 0, 0, 0, 0, 0, 0, 0, 0, 0, 0, 0, 0, 0, 0,0.0,0.0,0.0,0.0,0.0,0.0,0.0,1.0,0.0,0.0,0.0,0.0,0.0,10,bpel-obj\src\main\java\org\apache\ode\bpel\o\OFaultHandler.java,0,0,0,0
org.apache.ode.bpel.o.OFlow, 0, 0, 0, 0, 0, 0, 0, 0, 0, 0, 0, 0, 0, 0,0.0,0.0,0.3333333333333333,0.0,0.0,0.0,0.0,0.3333333333333333,0.0,0.0,0.0,0.0,0.0,15,bpel-obj\src\main\java\org\apache\ode\bpel\o\OFlow.java,0,0,0,0
org.apache.ode.bpel.o.OForEach, 0, 0, 1, 0, 0, 0, 0, 0, 0, 0, 0, 0, 0, 1,0.0,0.0,0.3333333333333333,0.0,0.0,0.0,0.0,0.3333333333333333,0.0,0.0,0.0,0.0,0.0,28,bpel-obj\src\main\java\org\apache\ode\bpel\o\OForEach.java,0,0,0,0
org.apache.ode.bpel.o.OInvoke, 0, 0, 1, 0, 0, 0, 0, 0, 0, 0, 0, 0, 0, 1,0.0,0.0,0.0,0.0,0.0,0.0,0.0,0.6666666666666666,0.0,0.0,0.0,0.0,0.0,41,bpel-obj\src\main\java\org\apache\ode\bpel\o\OInvoke.java,0,0,0,0
org.apache.ode.bpel.o.OLValueExpression, 0, 0, 1, 0, 0, 0, 0, 0, 0, 0, 0, 0, 0, 1,0.0,0.0,0.3333333333333333,0.0,0.0,0.0,0.0,0.0,0.0,0.0,0.0,0.0,0.0,8,bpel-obj\src\main\java\org\apache\ode\bpel\o\OLValueExpression.java,0,0,0,0
org.apache.ode.bpel.o.OLink, 0, 0, 1, 0, 0, 0, 0, 0, 0, 0, 0, 0, 0, 1,0.0,0.0,0.2,0.0,0.0,0.0,0.0,0.2,0.0,0.0,0.0,0.0,0.0,11,bpel-obj\src\main\java\org\apache\ode\bpel\o\OLink.java,0,0,0,0
org.apache.ode.bpel.o.OPickReceive, 0, 0, 1, 0, 0, 0, 0, 0, 0, 0, 0, 0, 0, 1,0.0,0.0,0.0,0.0,0.0,0.0,0.0,0.6666666666666666,0.0,0.0,0.0,0.0,0.0,59,bpel-obj\src\main\java\org\apache\ode\bpel\o\OPickReceive.java,0,0,0,0
org.apache.ode.bpel.o.ORepeatUntil, 0, 0, 1, 0, 0, 0, 0, 0, 0, 0, 0, 0, 0, 1,0.0,0.0,0.3333333333333333,0.0,0.0,0.0,0.0,0.3333333333333333,0.0,0.0,0.0,0.0,0.0,8,bpel-obj\src\main\java\org\apache\ode\bpel\o\ORepeatUntil.java,0,0,0,0
org.apache.ode.bpel.o.OReply, 0, 0, 1, 0, 0, 0, 0, 0, 0, 0, 0, 0, 0, 1,0.0,0.0,0.0,0.0,0.0,0.0,0.0,0.0,0.0,0.0,0.0,0.0,0.0,29,bpel-obj\src\main\java\org\apache\ode\bpel\o\OReply.java,0,0,0,0
org.apache.ode.bpel.o.ORethrow, 0, 0, 0, 0, 0, 0, 0, 0, 0, 0, 0, 0, 0, 0,0.0,0.0,0.0,0.0,0.0,0.0,0.0,0.0,0.0,0.0,0.0,0.0,0.0,6,bpel-obj\src\main\java\org\apache\ode\bpel\o\ORethrow.java,0,0,0,0
org.apache.ode.bpel.o.OSequence, 0, 0, 0, 0, 0, 0, 0, 0, 0, 0, 0, 0, 0, 0,0.0,0.0,0.0,0.0,0.0,0.0,0.0,0.0,0.0,0.0,0.0,0.0,0.0,7,bpel-obj\src\main\java\org\apache\ode\bpel\o\OSequence.java,0,0,0,0
org.apache.ode.bpel.o.OSwitch, 0, 0, 0, 0, 0, 0, 0, 0, 0, 0, 0, 0, 0, 0,0.0,0.0,0.0,0.0,0.0,0.0,0.0,0.3333333333333333,0.0,0.0,0.0,0.0,0.0,21,bpel-obj\src\main\java\org\apache\ode\bpel\o\OSwitch.java,0,0,0,0
org.apache.ode.bpel.o.OTerminate, 0, 0, 0, 0, 0, 0, 0, 0, 0, 0, 0, 0, 0, 0,0.0,0.0,0.0,0.0,0.0,0.0,0.0,0.0,0.0,0.0,0.0,0.0,0.0,6,bpel-obj\src\main\java\org\apache\ode\bpel\o\OTerminate.java,0,0,0,0
org.apache.ode.bpel.o.OTerminationHandler, 0, 0, 0, 0, 0, 0, 0, 0, 0, 0, 0, 0, 0, 0,0.0,0.0,0.0,0.0,0.0,0.0,0.0,0.0,0.0,0.0,0.0,0.0,0.0,6,bpel-obj\src\main\java\org\apache\ode\bpel\o\OTerminationHandler.java,0,0,0,0
org.apache.ode.bpel.o.OThrow, 0, 0, 1, 0, 0, 0, 0, 0, 0, 0, 0, 0, 0, 1,0.0,0.0,0.0,0.0,0.0,0.0,0.0,0.5,0.0,0.0,0.0,0.0,0.0,8,bpel-obj\src\main\java\org\apache\ode\bpel\o\OThrow.java,0,0,0,0
org.apache.ode.bpel.o.OVarType, 0, 0, 0, 0, 0, 0, 0, 0, 0, 0, 0, 0, 0, 0,0.0,0.0,0.2857142857142857,0.0,0.0,0.0,0.0,0.42857142857142855,0.0,0.0,0.0,0.0,0.0,6,bpel-obj\src\main\java\org\apache\ode\bpel\o\OVarType.java,0,0,0,0
org.apache.ode.bpel.o.OWait, 0, 0, 1, 0, 0, 0, 0, 0, 0, 0, 0, 0, 0, 1,0.0,0.0,0.3333333333333333,0.0,0.0,0.0,0.0,0.3333333333333333,0.0,0.0,0.0,0.0,0.0,10,bpel-obj\src\main\java\org\apache\ode\bpel\o\OWait.java,0,0,0,0
org.apache.ode.bpel.o.OWhile, 0, 0, 1, 0, 0, 0, 0, 0, 0, 0, 0, 0, 0, 1,0.0,0.0,0.3333333333333333,0.0,0.0,0.0,0.0,0.3333333333333333,0.0,0.0,0.0,0.0,0.0,8,bpel-obj\src\main\java\org\apache\ode\bpel\o\OWhile.java,0,0,0,0
org.apache.ode.bpel.o.OXsdTypeVarType, 0, 0, 1, 0, 0, 0, 0, 0, 0, 0, 0, 0, 0, 1,0.0,0.0,0.0,0.0,0.0,0.0,0.0,0.0,0.0,0.0,0.0,0.0,0.0,16,bpel-obj\src\main\java\org\apache\ode\bpel\o\OXsdTypeVarType.java,0,0,0,0
org.apache.ode.bpel.o.OXslSheet, 0, 0, 1, 0, 0, 0, 0, 0, 0, 0, 0, 0, 0, 1,0.0,0.0,0.0,0.0,0.0,0.0,0.0,0.0,0.0,0.0,0.0,0.0,0.0,8,bpel-obj\src\main\java\org\apache\ode\bpel\o\OXslSheet.java,0,0,0,0
org.apache.ode.bpel.o.SerializerTest, 0, 0, 0, 0, 0, 0, 0, 0, 0, 0, 0, 0, 0, 0,0.0,0.0,1.0,0.0,0.0,0.0,0.0,0.0,0.0,0.0,0.0,0.0,0.0,113,bpel-obj\src\test\java\org\apache\ode\bpel\o\SerializerTest.java,0,0,0,0
org.apache.ode.bpel.pmapi.BpelManagementFacade, 0, 0, 0, 0, 0, 0, 0, 0, 0, 0, 0, 0, 0, 0,0.0,0.0,0.0,0.0,0.0,0.0,0.0,0.0,0.0,0.0,0.0,0.0,0.0,113,bpel-api\src\main\java\org\apache\ode\bpel\pmapi\BpelManagementFacade.java,0,0,0,0
org.apache.ode.bpel.pmapi.InstanceManagement, 0, 0, 0, 0, 0, 0, 0, 0, 0, 0, 0, 0, 0, 0,0.0,0.0,0.0,0.0,0.0,0.0,0.0,0.0,0.0,0.0,0.0,0.0,0.0,113,bpel-api\src\main\java\org\apache\ode\bpel\pmapi\InstanceManagement.java,0,0,0,0
org.apache.ode.bpel.pmapi.InstanceNotFoundException, 0, 0, 0, 0, 0, 0, 0, 0, 0, 0, 0, 0, 0, 0,0.0,0.0,0.0,0.0,0.0,0.0,0.0,0.0,0.0,0.0,0.0,0.0,0.0,6,bpel-api\src\main\java\org\apache\ode\bpel\pmapi\InstanceNotFoundException.java,0,0,0,0
org.apache.ode.bpel.pmapi.InvalidRequestException, 0, 0, 0, 0, 0, 0, 0, 0, 0, 0, 0, 0, 0, 0,0.0,0.0,0.0,0.2,0.0,0.0,0.0,0.2,0.0,0.0,0.0,0.0,0.0,9,bpel-api\src\main\java\org\apache\ode\bpel\pmapi\InvalidRequestException.java,0,0,0,0
org.apache.ode.bpel.pmapi.ManagementException, 0, 0, 0, 0, 0, 0, 0, 0, 0, 0, 0, 0, 0, 0,0.0,0.0,0.0,0.3333333333333333,0.0,0.0,0.0,0.3333333333333333,0.0,0.0,0.0,0.0,0.0,9,bpel-api\src\main\java\org\apache\ode\bpel\pmapi\ManagementException.java,0,0,0,0
org.apache.ode.bpel.pmapi.ProcessManagement, 0, 0, 0, 0, 0, 0, 0, 0, 0, 0, 0, 0, 0, 0,0.0,0.0,0.0,0.0,0.0,0.0,0.0,0.0,0.0,0.0,0.0,0.0,0.0,9,bpel-api\src\main\java\org\apache\ode\bpel\pmapi\ProcessManagement.java,0,0,0,0
org.apache.ode.bpel.pmapi.ProcessNotFoundException, 0, 0, 0, 0, 0, 0, 0, 0, 0, 0, 0, 0, 0, 0,0.0,0.0,0.0,0.0,0.0,0.0,0.0,0.0,0.0,0.0,0.0,0.0,0.0,6,bpel-api\src\main\java\org\apache\ode\bpel\pmapi\ProcessNotFoundException.java,0,0,0,0
org.apache.ode.bpel.pmapi.ProcessingException, 0, 0, 0, 0, 0, 0, 0, 0, 0, 0, 0, 0, 0, 0,0.0,0.0,0.0,0.5,0.0,0.0,0.0,0.5,0.0,0.0,0.0,0.0,0.0,9,bpel-api\src\main\java\org\apache\ode\bpel\pmapi\ProcessingException.java,0,0,0,0
org.apache.ode.bpel.runtime.ACTIVITY, 0, 0, 0, 1, 0, 0, 0, 1, 0, 0, 0, 0, 0, 2,0.0,0.0,0.04,0.04,0.0,0.0,0.0,0.8,0.0,0.0,0.0,0.0,0.0,106,bpel-runtime\src\main\java\org\apache\ode\bpel\runtime\ACTIVITY.java,0,0,0,0
org.apache.ode.bpel.runtime.ASSIGN, 0, 0, 0, 0, 0, 0, 0, 1, 0, 0, 0, 0, 0, 1,0.0,0.0,0.14285714285714285,0.07142857142857142,0.0,0.0,0.0,0.2857142857142857,0.0,0.0,0.0,0.0,0.0,516,bpel-runtime\src\main\java\org\apache\ode\bpel\runtime\ASSIGN.java,13,25,3,44
org.apache.ode.bpel.runtime.ASSIGNMessages, 0, 0, 0, 0, 0, 0, 0, 0, 0, 0, 0, 0, 0, 0,0.0,0.0,0.0,0.0,0.0,0.0,0.0,0.5,0.0,0.0,0.0,0.0,0.0,37,bpel-runtime\src\main\java\org\apache\ode\bpel\runtime\ASSIGNMessages.java,0,0,0,0
org.apache.ode.bpel.runtime.ActivityTemplateFactory, 0, 0, 0, 0, 0, 0, 0, 1, 0, 0, 0, 0, 0, 1,0.0,0.0,0.0,0.058823529411764705,0.0,0.0,0.0,1.0,0.0,0.0,0.0,0.0,0.0,22,bpel-runtime\src\main\java\org\apache\ode\bpel\runtime\ActivityTemplateFactory.java,0,0,0,0
org.apache.ode.bpel.runtime.BpelJacobRunnable, 0, 0, 0, 0, 0, 0, 0, 1, 0, 0, 0, 0, 0, 1,0.0,0.0,0.045454545454545456,0.045454545454545456,0.0,0.0,0.0,0.7727272727272727,0.0,0.0,0.0,0.0,0.0,49,bpel-runtime\src\main\java\org\apache\ode\bpel\runtime\BpelJacobRunnable.java,0,0,0,0
org.apache.ode.bpel.runtime.BpelRuntimeContext, 0, 0, 0, 0, 0, 0, 0, 0, 0, 0, 0, 0, 0, 0,0.0,0.0,0.0,0.0,0.0,0.0,0.0,0.0,0.0,0.0,0.0,0.0,0.0,49,bpel-runtime\src\main\java\org\apache\ode\bpel\runtime\BpelRuntimeContext.java,0,0,0,0
org.apache.ode.bpel.runtime.COMPENSATE, 0, 0, 0, 0, 0, 0, 0, 1, 0, 0, 0, 0, 0, 1,0.0,0.0,0.25,0.25,0.0,0.0,0.0,0.5,0.0,0.0,0.0,0.0,0.0,19,bpel-runtime\src\main\java\org\apache\ode\bpel\runtime\COMPENSATE.java,0,0,0,0
org.apache.ode.bpel.runtime.ChildInfo, 0, 0, 0, 0, 0, 0, 0, 0, 0, 0, 0, 0, 0, 0,0.0,0.0,0.0,0.0,0.0,0.0,0.0,1.0,0.0,0.0,0.0,0.0,0.0,9,bpel-runtime\src\main\java\org\apache\ode\bpel\runtime\ChildInfo.java,0,0,0,0
org.apache.ode.bpel.runtime.CorrelationSetInstance, 0, 0, 1, 0, 0, 0, 0, 0, 0, 0, 0, 0, 0, 1,0.0,0.0,0.0,0.5,0.0,0.0,0.0,1.0,0.0,0.0,0.0,0.0,0.0,8,bpel-runtime\src\main\java\org\apache\ode\bpel\runtime\CorrelationSetInstance.java,0,0,0,0
org.apache.ode.bpel.runtime.EH_ALARM, 0, 0, 0, 0, 0, 0, 0, 1, 0, 0, 0, 0, 0, 1,0.0,0.0,0.0,0.0,0.0,0.0,0.0,0.6,0.0,0.0,0.0,0.0,0.0,151,bpel-runtime\src\main\java\org\apache\ode\bpel\runtime\EH_ALARM.java,0,10,0,10
org.apache.ode.bpel.runtime.EH_EVENT, 0, 0, 0, 0, 0, 0, 0, 1, 0, 0, 0, 0, 0, 1,0.0,0.0,0.0,0.0,0.0,0.0,0.0,0.6666666666666666,0.0,0.0,0.0,0.0,0.0,216,bpel-runtime\src\main\java\org\apache\ode\bpel\runtime\EH_EVENT.java,0,0,0,0
org.apache.ode.bpel.runtime.EMPTY, 0, 0, 0, 0, 0, 0, 0, 1, 0, 0, 0, 0, 0, 1,0.0,0.0,0.0,0.5,0.0,0.0,0.0,1.0,0.0,0.0,0.0,0.0,0.0,13,bpel-runtime\src\main\java\org\apache\ode\bpel\runtime\EMPTY.java,0,0,0,0
org.apache.ode.bpel.runtime.EventContextImpl, 0, 0, 0, 0, 0, 0, 0, 1, 0, 0, 0, 0, 0, 1,0.0,0.0,0.0,0.5,0.0,0.0,0.0,0.5,0.0,0.0,0.0,0.0,0.0,50,bpel-runtime\src\main\java\org\apache\ode\bpel\runtime\EventContextImpl.java,0,0,0,0
org.apache.ode.bpel.runtime.FLOW, 0, 0, 0, 0, 0, 0, 0, 1, 0, 0, 0, 0, 0, 1,0.0,0.0,0.0,0.14285714285714285,0.0,0.0,0.0,0.5714285714285714,0.0,0.0,0.0,0.0,0.0,80,bpel-runtime\src\main\java\org\apache\ode\bpel\runtime\FLOW.java,0,0,0,0
org.apache.ode.bpel.runtime.FOREACH, 0, 0, 0, 0, 0, 0, 0, 1, 0, 0, 0, 0, 0, 1,0.0,0.0,0.16666666666666666,0.08333333333333333,0.0,0.0,0.0,0.4166666666666667,0.0,0.0,0.0,0.0,0.0,151,bpel-runtime\src\main\java\org\apache\ode\bpel\runtime\FOREACH.java,1,11,3,18
org.apache.ode.bpel.runtime.INVOKE, 0, 0, 0, 0, 0, 0, 0, 1, 0, 0, 0, 0, 0, 1,0.0,0.0,0.14285714285714285,0.14285714285714285,0.0,0.0,0.0,0.5714285714285714,0.0,0.0,0.0,0.0,0.0,141,bpel-runtime\src\main\java\org\apache\ode\bpel\runtime\INVOKE.java,0,0,1,2
org.apache.ode.bpel.runtime.InvalidContextException, 0, 0, 0, 0, 0, 0, 0, 0, 0, 0, 0, 0, 0, 0,0.0,0.0,0.0,0.0,0.0,0.0,0.0,1.0,0.0,0.0,0.0,0.0,0.0,14,bpel-runtime\src\main\java\org\apache\ode\bpel\runtime\InvalidContextException.java,0,0,0,0
org.apache.ode.bpel.runtime.InvalidProcessException, 0, 0, 0, 0, 0, 0, 0, 0, 0, 0, 0, 0, 0, 0,0.0,0.0,0.0,0.0,0.0,0.0,0.0,0.6666666666666666,0.0,0.0,0.0,0.0,0.0,32,bpel-runtime\src\main\java\org\apache\ode\bpel\runtime\InvalidProcessException.java,0,0,0,0
org.apache.ode.bpel.runtime.LinkInfo, 0, 0, 0, 0, 0, 0, 0, 1, 0, 0, 0, 0, 0, 1,0.0,0.0,0.5,0.0,0.0,0.0,0.0,0.5,0.0,0.0,0.0,0.0,0.0,11,bpel-runtime\src\main\java\org\apache\ode\bpel\runtime\LinkInfo.java,0,0,0,0
org.apache.ode.bpel.runtime.PICK, 0, 0, 0, 0, 0, 0, 0, 1, 0, 0, 0, 0, 0, 1,0.0,0.0,0.21428571428571427,0.07142857142857142,0.0,0.0,0.0,0.35714285714285715,0.0,0.0,0.0,0.0,0.0,233,bpel-runtime\src\main\java\org\apache\ode\bpel\runtime\PICK.java,0,0,0,0
org.apache.ode.bpel.runtime.PROCESS, 0, 0, 0, 0, 0, 0, 0, 0, 0, 0, 0, 0, 0, 0,0.0,0.0,0.0,0.16666666666666666,0.0,0.0,0.0,0.6666666666666666,0.0,0.0,0.0,0.0,0.0,41,bpel-runtime\src\main\java\org\apache\ode\bpel\runtime\PROCESS.java,0,0,0,0
org.apache.ode.bpel.runtime.PartnerLinkInstance, 0, 0, 1, 0, 0, 0, 0, 0, 0, 0, 0, 0, 0, 1,0.0,0.0,0.3333333333333333,0.16666666666666666,0.0,0.0,0.0,1.0,0.0,0.0,0.0,0.0,0.0,20,bpel-runtime\src\main\java\org\apache\ode\bpel\runtime\PartnerLinkInstance.java,0,0,0,0
org.apache.ode.bpel.runtime.ProcessManagementTest, 0, 0, 0, 0, 0, 0, 0, 0, 0, 0, 0, 0, 0, 0,0.0,0.0,0.0,1.0,0.0,0.0,0.0,1.0,0.0,0.0,0.0,0.0,0.0,63,bpel-runtime\src\test\java\org\apache\ode\bpel\runtime\ProcessManagementTest.java,0,0,0,0
org.apache.ode.bpel.runtime.PropertyAliasEvaluationContext, 0, 0, 0, 0, 0, 0, 0, 0, 0, 0, 0, 0, 0, 0,0.0,0.0,0.6666666666666666,0.0,0.0,0.0,0.0,0.0,0.0,0.0,0.0,0.0,0.0,50,bpel-runtime\src\main\java\org\apache\ode\bpel\runtime\PropertyAliasEvaluationContext.java,0,0,0,0
org.apache.ode.bpel.runtime.REPEATUNTIL, 0, 0, 0, 0, 0, 0, 0, 1, 0, 0, 0, 0, 0, 1,0.0,0.0,0.16666666666666666,0.16666666666666666,0.0,0.0,0.0,0.5,0.0,0.0,0.0,0.0,0.0,78,bpel-runtime\src\main\java\org\apache\ode\bpel\runtime\REPEATUNTIL.java,0,0,0,0
org.apache.ode.bpel.runtime.REPLY, 0, 0, 0, 0, 0, 0, 0, 1, 0, 0, 0, 0, 0, 1,0.0,0.0,0.0,0.25,0.0,0.0,0.0,1.0,0.0,0.0,0.0,0.0,0.0,35,bpel-runtime\src\main\java\org\apache\ode\bpel\runtime\REPLY.java,0,0,0,0
org.apache.ode.bpel.runtime.RETHROW, 0, 0, 0, 0, 0, 0, 0, 1, 0, 0, 0, 0, 0, 1,0.0,0.0,0.0,0.3333333333333333,0.0,0.0,0.0,0.6666666666666666,0.0,0.0,0.0,0.0,0.0,16,bpel-runtime\src\main\java\org\apache\ode\bpel\runtime\RETHROW.java,0,0,0,0
org.apache.ode.bpel.runtime.ResumeWork, 0, 0, 0, 0, 0, 0, 0, 0, 0, 0, 0, 0, 0, 0,0.0,0.0,0.0,0.0,0.0,0.0,0.0,0.0,0.0,0.0,0.0,0.0,0.0,13,bpel-runtime\src\main\java\org\apache\ode\bpel\runtime\ResumeWork.java,0,0,0,0
org.apache.ode.bpel.runtime.SCOPE, 0, 0, 0, 0, 0, 0, 0, 1, 0, 0, 0, 0, 0, 1,0.0,0.0,0.09090909090909091,0.09090909090909091,0.0,0.0,0.0,0.5454545454545454,0.0,0.0,0.0,0.0,0.0,303,bpel-runtime\src\main\java\org\apache\ode\bpel\runtime\SCOPE.java,0,23,2,27
org.apache.ode.bpel.runtime.SCOPEACT, 0, 0, 0, 0, 0, 0, 0, 1, 0, 0, 0, 0, 0, 1,0.0,0.0,0.0,0.2,0.0,0.0,0.0,0.8,0.0,0.0,0.0,0.0,0.0,13,bpel-runtime\src\main\java\org\apache\ode\bpel\runtime\SCOPEACT.java,0,0,0,0
org.apache.ode.bpel.runtime.SWITCH, 0, 0, 0, 0, 0, 0, 0, 1, 0, 0, 0, 0, 0, 1,0.0,0.0,0.0,0.14285714285714285,0.0,0.0,0.0,0.5714285714285714,0.0,0.0,0.0,0.0,0.0,44,bpel-runtime\src\main\java\org\apache\ode\bpel\runtime\SWITCH.java,0,0,0,0
org.apache.ode.bpel.runtime.Selector, 0, 0, 1, 0, 0, 0, 0, 1, 0, 0, 0, 0, 0, 2,0.0,0.0,0.3333333333333333,0.3333333333333333,0.0,0.0,0.0,0.6666666666666666,0.0,0.0,0.0,0.0,0.0,32,bpel-runtime\src\main\java\org\apache\ode\bpel\runtime\Selector.java,0,0,1,2
org.apache.ode.bpel.runtime.SystemException, 0, 0, 0, 0, 0, 0, 0, 0, 0, 0, 0, 0, 0, 0,0.0,0.0,0.0,0.0,0.0,0.0,0.0,0.0,0.0,0.0,0.0,0.0,0.0,6,bpel-runtime\src\main\java\org\apache\ode\bpel\runtime\SystemException.java,0,0,0,0
org.apache.ode.bpel.runtime.TERMINATE, 0, 0, 0, 0, 0, 0, 0, 1, 0, 0, 0, 0, 0, 1,0.0,0.0,0.0,0.3333333333333333,0.0,0.0,0.0,1.0,0.0,0.0,0.0,0.0,0.0,10,bpel-runtime\src\main\java\org\apache\ode\bpel\runtime\TERMINATE.java,0,0,0,0
org.apache.ode.bpel.runtime.THROW, 0, 0, 0, 0, 0, 0, 0, 1, 0, 0, 0, 0, 0, 1,0.0,0.0,0.2,0.2,0.0,0.0,0.0,0.8,0.0,0.0,0.0,0.0,0.0,25,bpel-runtime\src\main\java\org\apache\ode\bpel\runtime\THROW.java,0,0,0,0
org.apache.ode.bpel.runtime.TimerWork, 0, 0, 0, 0, 0, 0, 0, 0, 0, 0, 0, 0, 0, 0,0.0,0.0,0.0,0.0,0.0,0.0,0.0,0.0,0.0,0.0,0.0,0.0,0.0,21,bpel-runtime\src\main\java\org\apache\ode\bpel\runtime\TimerWork.java,0,0,0,0
org.apache.ode.bpel.runtime.VariableInstance, 0, 0, 0, 0, 0, 0, 0, 0, 0, 0, 0, 0, 0, 0,0.0,0.0,0.0,0.4,0.0,0.0,0.0,1.0,0.0,0.0,0.0,0.0,0.0,13,bpel-runtime\src\main\java\org\apache\ode\bpel\runtime\VariableInstance.java,0,0,0,0
org.apache.ode.bpel.runtime.WAIT, 0, 0, 0, 0, 0, 0, 0, 1, 0, 0, 0, 0, 0, 1,0.0,0.0,0.14285714285714285,0.14285714285714285,0.0,0.0,0.0,0.5714285714285714,0.0,0.0,0.0,0.0,0.0,71,bpel-runtime\src\main\java\org\apache\ode\bpel\runtime\WAIT.java,0,0,0,0
org.apache.ode.bpel.runtime.WHILE, 0, 0, 0, 0, 0, 0, 0, 1, 0, 0, 0, 0, 0, 1,0.0,0.0,0.14285714285714285,0.14285714285714285,0.0,0.0,0.0,0.5714285714285714,0.0,0.0,0.0,0.0,0.0,78,bpel-runtime\src\main\java\org\apache\ode\bpel\runtime\WHILE.java,0,0,0,0
org.apache.ode.bpel.runtime.breaks.ActivityBreakpointImpl, 0, 0, 0, 0, 0, 0, 0, 0, 0, 0, 0, 0, 0, 0,0.0,0.0,0.0,0.25,0.0,0.0,0.0,0.25,0.0,0.0,0.0,0.0,0.0,21,bpel-runtime\src\main\java\org\apache\ode\bpel\runtime\breaks\ActivityBreakpointImpl.java,0,0,0,0
org.apache.ode.bpel.runtime.breaks.BreakpointImpl, 0, 0, 0, 0, 0, 0, 0, 0, 0, 0, 0, 0, 0, 0,0.0,0.0,0.0,0.0,0.0,0.0,0.0,0.0,0.0,0.0,0.0,0.0,0.0,21,bpel-runtime\src\main\java\org\apache\ode\bpel\runtime\breaks\BreakpointImpl.java,0,0,0,0
org.apache.ode.bpel.runtime.channels.ActivityRecovery, 0, 0, 0, 0, 0, 0, 0, 0, 0, 0, 0, 0, 0, 0,0.0,0.0,0.0,0.0,0.0,0.0,0.0,0.0,0.0,0.0,0.0,0.0,0.0,21,bpel-runtime\src\main\java\org\apache\ode\bpel\runtime\channels\ActivityRecovery.java,0,0,0,0
org.apache.ode.bpel.runtime.channels.Compensation, 0, 0, 0, 0, 0, 0, 0, 0, 0, 0, 0, 0, 0, 0,0.0,0.0,0.0,0.0,0.0,0.0,0.0,0.0,0.0,0.0,0.0,0.0,0.0,21,bpel-runtime\src\main\java\org\apache\ode\bpel\runtime\channels\Compensation.java,0,0,0,0
org.apache.ode.bpel.runtime.channels.EventHandlerControl, 0, 0, 0, 0, 0, 0, 0, 0, 0, 0, 0, 0, 0, 0,0.0,0.0,0.0,0.0,0.0,0.0,0.0,0.0,0.0,0.0,0.0,0.0,0.0,21,bpel-runtime\src\main\java\org\apache\ode\bpel\runtime\channels\EventHandlerControl.java,0,0,0,0
org.apache.ode.bpel.runtime.channels.InvokeResponse, 0, 0, 0, 0, 0, 0, 0, 0, 0, 0, 0, 0, 0, 0,0.0,0.0,0.0,0.0,0.0,0.0,0.0,0.0,0.0,0.0,0.0,0.0,0.0,21,bpel-runtime\src\main\java\org\apache\ode\bpel\runtime\channels\InvokeResponse.java,0,0,0,0
org.apache.ode.bpel.runtime.channels.LinkStatus, 0, 0, 0, 0, 0, 0, 0, 0, 0, 0, 0, 0, 0, 0,0.0,0.0,0.0,0.0,0.0,0.0,0.0,0.0,0.0,0.0,0.0,0.0,0.0,21,bpel-runtime\src\main\java\org\apache\ode\bpel\runtime\channels\LinkStatus.java,0,0,0,0
org.apache.ode.bpel.runtime.channels.ParentScope, 0, 0, 0, 0, 0, 0, 0, 0, 0, 0, 0, 0, 0, 0,0.0,0.0,0.0,0.0,0.0,0.0,0.0,0.0,0.0,0.0,0.0,0.0,0.0,21,bpel-runtime\src\main\java\org\apache\ode\bpel\runtime\channels\ParentScope.java,0,0,0,0
org.apache.ode.bpel.runtime.channels.PickResponse, 0, 0, 0, 0, 0, 0, 0, 0, 0, 0, 0, 0, 0, 0,0.0,0.0,0.0,0.0,0.0,0.0,0.0,0.0,0.0,0.0,0.0,0.0,0.0,21,bpel-runtime\src\main\java\org\apache\ode\bpel\runtime\channels\PickResponse.java,0,0,0,0
org.apache.ode.bpel.runtime.channels.Termination, 0, 0, 0, 0, 0, 0, 0, 0, 0, 0, 0, 0, 0, 0,0.0,0.0,0.0,0.0,0.0,0.0,0.0,0.0,0.0,0.0,0.0,0.0,0.0,21,bpel-runtime\src\main\java\org\apache\ode\bpel\runtime\channels\Termination.java,0,0,0,0
org.apache.ode.bpel.runtime.channels.TimerResponse, 0, 0, 0, 0, 0, 0, 0, 0, 0, 0, 0, 0, 0, 0,0.0,0.0,0.0,0.0,0.0,0.0,0.0,0.0,0.0,0.0,0.0,0.0,0.0,21,bpel-runtime\src\main\java\org\apache\ode\bpel\runtime\channels\TimerResponse.java,0,0,0,0
org.apache.ode.bpel.runtime.monitor.EventFilter, 0, 0, 0, 0, 0, 0, 0, 0, 0, 0, 0, 0, 0, 0,0.0,0.0,0.0,0.0,0.0,0.0,0.0,0.0,0.0,0.0,0.0,0.0,0.0,28,bpel-runtime\src\main\java\org\apache\ode\bpel\runtime\monitor\EventFilter.java,0,0,0,0
org.apache.ode.bpel.runtime.monitor.MonitorException, 0, 0, 0, 0, 0, 0, 0, 0, 0, 0, 0, 0, 0, 0,0.0,0.0,0.0,0.0,0.0,0.0,0.0,0.0,0.0,0.0,0.0,0.0,0.0,12,bpel-runtime\src\main\java\org\apache\ode\bpel\runtime\monitor\MonitorException.java,0,0,0,0
org.apache.ode.bpel.runtime.monitor.ProcessMonitor, 0, 0, 0, 0, 0, 0, 0, 0, 0, 0, 0, 0, 0, 0,0.0,0.0,0.0,0.0,0.0,0.0,0.0,0.0,0.0,0.0,0.0,0.0,0.0,12,bpel-runtime\src\main\java\org\apache\ode\bpel\runtime\monitor\ProcessMonitor.java,0,0,0,0
org.apache.ode.bpel.runtime.msgs.Messages, 0, 0, 0, 0, 0, 0, 0, 1, 0, 0, 0, 0, 0, 1,0.0,0.0,0.0,0.0,0.0,0.0,0.0,0.0,0.0,0.0,0.0,0.0,0.0,22,bpel-runtime\src\main\java\org\apache\ode\bpel\runtime\msgs\Messages.java,0,0,0,0
org.apache.ode.dao.jpa.ActivityRecoveryDAOImpl, 0, 0, 0, 1, 0, 0, 0, 1, 0, 0, 0, 0, 0, 2,0.0,0.0,0.0,1.0,0.0,0.0,0.0,1.0,0.0,0.0,0.0,0.0,0.0,81,dao-jpa\src\main\java\org\apache\ode\dao\jpa\ActivityRecoveryDAOImpl.java,0,0,0,0
org.apache.ode.dao.jpa.CorrSetProperty, 0, 0, 0, 0, 0, 0, 0, 0, 0, 0, 0, 0, 0, 0,0.0,0.0,0.0,0.0,0.0,0.0,0.0,0.0,0.0,0.0,0.0,0.0,0.0,40,dao-jpa\src\main\java\org\apache\ode\dao\jpa\CorrSetProperty.java,0,0,0,0
org.apache.ode.dao.jpa.EventDAOImpl, 0, 0, 0, 1, 0, 0, 0, 0, 0, 0, 0, 0, 0, 1,0.0,0.0,0.0,0.75,0.0,0.0,0.0,1.0,0.0,0.0,0.0,0.0,0.0,70,dao-jpa\src\main\java\org\apache\ode\dao\jpa\EventDAOImpl.java,0,0,0,0
org.apache.ode.dao.jpa.FaultDAOImpl, 0, 0, 0, 0, 0, 0, 0, 1, 0, 0, 0, 0, 0, 1,0.0,0.0,0.0,1.0,0.0,0.0,0.0,1.0,0.0,0.0,0.0,0.0,0.0,47,dao-jpa\src\main\java\org\apache\ode\dao\jpa\FaultDAOImpl.java,0,0,0,0
org.apache.ode.dao.jpa.JpaTxMgrProvider, 0, 0, 0, 0, 0, 0, 0, 0, 0, 0, 0, 0, 0, 0,0.0,0.0,0.0,0.0,0.0,0.0,0.0,0.0,0.0,0.0,0.0,0.0,0.0,45,dao-jpa\src\main\java\org\apache\ode\dao\jpa\JpaTxMgrProvider.java,0,0,0,0
org.apache.ode.dao.jpa.MessageDAOImpl, 0, 0, 0, 0, 0, 0, 0, 0, 0, 0, 0, 0, 0, 0,0.0,0.0,0.0,1.0,0.0,0.0,0.0,0.0,0.0,0.0,0.0,0.0,0.0,70,dao-jpa\src\main\java\org\apache\ode\dao\jpa\MessageDAOImpl.java,0,0,2,4
org.apache.ode.dao.jpa.MessageExchangeDAOImpl, 0, 0, 0, 1, 0, 0, 0, 0, 0, 0, 0, 0, 0, 1,0.0,0.0,0.0,0.42857142857142855,0.0,0.0,0.0,0.7142857142857143,0.0,0.0,0.0,0.0,0.0,259,dao-jpa\src\main\java\org\apache\ode\dao\jpa\MessageExchangeDAOImpl.java,0,1,0,1
org.apache.ode.dao.jpa.MessageRouteDAOImpl, 0, 0, 0, 1, 0, 0, 0, 1, 0, 0, 0, 0, 0, 2,0.0,0.0,0.0,1.0,0.0,0.0,0.0,1.0,0.0,0.0,0.0,0.0,0.0,60,dao-jpa\src\main\java\org\apache\ode\dao\jpa\MessageRouteDAOImpl.java,0,0,0,0
org.apache.ode.dao.jpa.MexProperty, 0, 0, 0, 0, 0, 0, 0, 1, 0, 0, 0, 0, 0, 1,0.0,0.0,0.0,1.0,0.0,0.0,0.0,0.0,0.0,0.0,0.0,0.0,0.0,37,dao-jpa\src\main\java\org\apache\ode\dao\jpa\MexProperty.java,0,0,0,0
org.apache.ode.dao.jpa.OpenJPADAO, 0, 0, 0, 0, 0, 0, 0, 1, 0, 0, 0, 0, 0, 1,0.0,0.0,0.0,0.8333333333333334,0.0,0.0,0.0,0.5,0.0,0.0,0.0,0.0,0.0,31,dao-jpa\src\main\java\org\apache\ode\dao\jpa\OpenJPADAO.java,0,0,0,0
org.apache.ode.dao.jpa.PartnerLinkDAOImpl, 0, 0, 0, 1, 0, 0, 0, 1, 0, 0, 0, 0, 0, 2,0.0,0.0,0.0,1.0,0.0,0.0,0.0,0.5,0.0,0.0,0.0,0.0,0.0,103,dao-jpa\src\main\java\org\apache\ode\dao\jpa\PartnerLinkDAOImpl.java,0,0,0,0
org.apache.ode.dao.jpa.ProcessDAOImpl, 0, 0, 0, 1, 0, 0, 0, 1, 0, 0, 0, 0, 0, 2,0.0,0.0,0.0,0.6,0.0,0.0,0.0,0.4,0.0,0.0,0.0,0.0,0.0,144,dao-jpa\src\main\java\org\apache\ode\dao\jpa\ProcessDAOImpl.java,0,0,0,0
org.apache.ode.dao.jpa.ProcessInstanceDAOImpl, 0, 0, 0, 1, 0, 0, 0, 1, 0, 0, 0, 0, 0, 2,0.0,0.0,0.0,0.5454545454545454,0.0,0.0,0.0,0.5454545454545454,0.0,0.0,0.0,0.0,0.0,256,dao-jpa\src\main\java\org\apache\ode\dao\jpa\ProcessInstanceDAOImpl.java,0,0,0,0
org.apache.ode.dao.jpa.ProcessInstanceProfileDAOImpl, 0, 0, 0, 0, 0, 0, 0, 0, 0, 0, 0, 0, 0, 0,0.0,0.0,0.0,0.5,0.0,0.0,0.0,0.5,0.0,0.0,0.0,0.0,0.0,49,axis2-war\src\test\java\org\apache\ode\dao\jpa\ProcessInstanceProfileDAOImpl.java,0,0,0,0
org.apache.ode.dao.jpa.ProcessProfileDAOImpl, 0, 0, 0, 0, 0, 0, 0, 0, 0, 0, 0, 0, 0, 0,0.0,0.0,0.0,0.3333333333333333,0.0,0.0,0.0,0.6666666666666666,0.0,0.0,0.0,0.0,0.0,58,axis2-war\src\test\java\org\apache\ode\dao\jpa\ProcessProfileDAOImpl.java,0,0,0,0
org.apache.ode.dao.jpa.ScopeDAOImpl, 0, 0, 0, 1, 0, 0, 0, 1, 0, 0, 0, 0, 0, 2,0.0,0.0,0.0,0.8,0.0,0.0,0.0,0.6,0.0,0.0,0.0,0.0,0.0,112,dao-jpa\src\main\java\org\apache\ode\dao\jpa\ScopeDAOImpl.java,0,0,0,0
org.apache.ode.dao.jpa.XmlDataDAOImpl, 0, 0, 0, 1, 0, 0, 0, 0, 0, 0, 0, 0, 0, 1,0.0,0.0,0.0,0.5,0.0,0.0,0.0,1.0,0.0,0.0,0.0,0.0,0.0,89,dao-jpa\src\main\java\org\apache\ode\dao\jpa\XmlDataDAOImpl.java,0,0,0,0
org.apache.ode.dao.jpa.XmlDataProperty, 0, 0, 0, 0, 0, 0, 0, 1, 0, 0, 0, 0, 0, 1,0.0,0.0,0.0,1.0,0.0,0.0,0.0,0.0,0.0,0.0,0.0,0.0,0.0,37,dao-jpa\src\main\java\org\apache\ode\dao\jpa\XmlDataProperty.java,0,0,0,0
org.apache.ode.daohib.DataSourceConnectionProvider, 0, 0, 0, 0, 0, 0, 0, 0, 0, 0, 0, 0, 0, 0,0.0,0.0,0.0,0.0,0.0,0.0,0.0,0.0,0.0,0.0,0.0,0.0,0.0,21,dao-hibernate\src\main\java\org\apache\ode\daohib\DataSourceConnectionProvider.java,0,0,0,0
org.apache.ode.daohib.HibernateTransactionManagerLookup, 0, 0, 0, 0, 0, 0, 0, 0, 0, 0, 0, 0, 0, 0,0.0,0.0,0.0,0.0,0.0,0.0,0.0,0.0,0.0,0.0,0.0,0.0,0.0,15,dao-hibernate\src\main\java\org\apache\ode\daohib\HibernateTransactionManagerLookup.java,0,0,0,0
org.apache.ode.daohib.NativeHiLoGenerator, 0, 0, 0, 0, 0, 0, 0, 1, 0, 0, 0, 0, 0, 1,0.0,0.0,0.0,0.0,0.0,0.0,0.0,0.0,0.0,0.0,0.0,0.0,0.0,47,dao-hibernate\src\main\java\org\apache\ode\daohib\NativeHiLoGenerator.java,0,0,0,0
org.apache.ode.daohib.bpel.ActivityRecoveryDaoImpl, 0, 0, 0, 0, 0, 0, 0, 0, 0, 0, 0, 0, 0, 0,0.0,0.0,0.0,0.6666666666666666,0.0,0.0,0.0,0.6666666666666666,0.0,0.0,0.0,0.0,0.0,42,dao-hibernate\src\main\java\org\apache\ode\daohib\bpel\ActivityRecoveryDaoImpl.java,0,0,0,0
org.apache.ode.daohib.bpel.CorrelatorMessageDaoImpl, 0, 0, 0, 0, 0, 0, 0, 0, 0, 0, 0, 0, 0, 0,0.0,0.0,0.0,0.0,0.0,0.0,0.0,0.5,0.0,0.0,0.0,0.0,0.0,14,dao-hibernate\src\main\java\org\apache\ode\daohib\bpel\CorrelatorMessageDaoImpl.java,0,0,0,0
org.apache.ode.daohib.bpel.FaultDAOImpl, 0, 0, 0, 0, 0, 0, 0, 0, 0, 0, 0, 0, 0, 0,0.0,0.0,0.0,0.25,0.0,0.0,0.0,0.5,0.0,0.0,0.0,0.0,0.0,31,dao-hibernate\src\main\java\org\apache\ode\daohib\bpel\FaultDAOImpl.java,0,0,0,0
org.apache.ode.daohib.bpel.HibernateDao, 0, 0, 0, 0, 0, 0, 0, 1, 0, 0, 0, 0, 0, 1,0.0,0.0,0.0,0.21428571428571427,0.0,0.0,0.0,0.2857142857142857,0.0,0.0,0.0,0.0,0.0,59,dao-hibernate\src\main\java\org\apache\ode\daohib\bpel\HibernateDao.java,0,0,0,0
org.apache.ode.daohib.bpel.HibernateHandle, 0, 0, 0, 0, 0, 0, 0, 1, 0, 0, 0, 0, 0, 1,0.0,0.0,0.0,0.0,0.0,0.0,0.0,1.0,0.0,0.0,0.0,0.0,0.0,20,dao-hibernate\src\main\java\org\apache\ode\daohib\bpel\HibernateHandle.java,0,0,0,0
org.apache.ode.daohib.bpel.MessageDaoImpl, 0, 0, 0, 0, 0, 0, 0, 0, 0, 0, 0, 0, 0, 0,0.0,0.0,0.0,0.3333333333333333,0.0,0.0,0.0,0.3333333333333333,0.0,0.0,0.0,0.0,0.0,54,dao-hibernate\src\main\java\org\apache\ode\daohib\bpel\MessageDaoImpl.java,0,0,0,0
org.apache.ode.daohib.bpel.MessageExchangeDaoImpl, 0, 0, 0, 1, 0, 0, 0, 0, 0, 0, 0, 0, 0, 1,0.0,0.0,0.0,0.2857142857142857,0.0,0.0,0.0,0.2857142857142857,0.0,0.0,0.0,0.0,0.0,265,dao-hibernate\src\main\java\org\apache\ode\daohib\bpel\MessageExchangeDaoImpl.java,0,0,0,0
org.apache.ode.daohib.bpel.MessageRouteDaoImpl, 0, 0, 0, 0, 0, 0, 0, 0, 0, 0, 0, 0, 0, 0,0.0,0.0,0.0,0.5,0.0,0.0,0.0,0.5,0.0,0.0,0.0,0.0,0.0,44,dao-hibernate\src\main\java\org\apache\ode\daohib\bpel\MessageRouteDaoImpl.java,0,0,0,0
org.apache.ode.daohib.bpel.PartnerLinkDAOImpl, 0, 0, 0, 0, 0, 0, 0, 0, 0, 0, 0, 0, 0, 0,0.0,0.0,0.0,0.6666666666666666,0.0,0.0,0.0,0.3333333333333333,0.0,0.0,0.0,0.0,0.0,88,dao-hibernate\src\main\java\org\apache\ode\daohib\bpel\PartnerLinkDAOImpl.java,0,0,0,0
org.apache.ode.daohib.bpel.ProcessDaoImpl, 0, 0, 0, 1, 0, 0, 0, 0, 0, 0, 0, 0, 0, 1,0.0,0.0,0.0,0.4444444444444444,0.0,0.0,0.0,0.4444444444444444,0.0,0.0,0.0,0.0,0.0,181,dao-hibernate\src\main\java\org\apache\ode\daohib\bpel\ProcessDaoImpl.java,0,0,0,0
org.apache.ode.daohib.bpel.ProcessInstanceDaoImpl, 0, 0, 0, 1, 0, 0, 0, 1, 0, 0, 0, 0, 0, 2,0.0,0.0,0.0,0.3333333333333333,0.0,0.0,0.0,0.16666666666666666,0.0,0.0,0.0,0.0,0.0,352,dao-hibernate\src\main\java\org\apache\ode\daohib\bpel\ProcessInstanceDaoImpl.java,0,0,0,0
org.apache.ode.daohib.bpel.ProcessInstanceProfileDaoImpl, 0, 0, 0, 0, 0, 0, 0, 1, 0, 0, 0, 0, 0, 1,0.0,0.0,0.0,0.3333333333333333,0.0,0.0,0.0,1.0,0.0,0.0,0.0,0.0,0.0,62,axis2-war\src\test\java\org\apache\ode\daohib\bpel\ProcessInstanceProfileDaoImpl.java,0,0,0,0
org.apache.ode.daohib.bpel.ProcessProfileDaoImpl, 0, 0, 0, 0, 0, 0, 0, 1, 0, 0, 0, 0, 0, 1,0.0,0.0,0.0,0.5,0.0,0.0,0.0,0.5,0.0,0.0,0.0,0.0,0.0,75,axis2-war\src\test\java\org\apache\ode\daohib\bpel\ProcessProfileDaoImpl.java,0,0,0,0
org.apache.ode.daohib.bpel.XmlDataDaoImpl, 0, 0, 0, 0, 0, 0, 0, 0, 0, 0, 0, 0, 0, 0,0.0,0.0,0.0,0.4,0.0,0.0,0.0,0.6,0.0,0.0,0.0,0.0,0.0,113,dao-hibernate\src\main\java\org\apache\ode\daohib\bpel\XmlDataDaoImpl.java,0,0,0,0
org.apache.ode.daohib.bpel.hobj.GZipDataType, 0, 0, 0, 1, 0, 0, 0, 1, 0, 0, 0, 0, 0, 2,0.0,0.0,0.0,0.0,0.0,0.0,0.0,0.0,0.0,0.0,0.0,0.0,0.0,133,dao-hibernate\src\main\java\org\apache\ode\daohib\bpel\hobj\GZipDataType.java,0,0,0,0
org.apache.ode.daohib.bpel.hobj.HActivityRecovery, 0, 0, 0, 1, 0, 0, 0, 0, 0, 0, 0, 0, 0, 1,0.0,0.0,0.0,0.5,0.0,0.0,0.0,0.25,0.0,0.0,0.0,0.0,0.0,59,dao-hibernate\src\main\java\org\apache\ode\daohib\bpel\hobj\HActivityRecovery.java,0,0,0,0
org.apache.ode.daohib.bpel.hobj.HBpelEvent, 0, 0, 0, 1, 0, 0, 0, 0, 0, 0, 0, 0, 0, 1,0.0,0.0,0.0,0.6666666666666666,0.0,0.0,0.0,0.0,0.0,0.0,0.0,0.0,0.0,52,dao-hibernate\src\main\java\org\apache\ode\daohib\bpel\hobj\HBpelEvent.java,0,0,0,0
org.apache.ode.daohib.bpel.hobj.HCorrelationProperty, 0, 0, 0, 0, 0, 0, 0, 1, 0, 0, 0, 0, 0, 1,0.0,0.0,0.0,0.5,0.0,0.0,0.0,0.0,0.0,0.0,0.0,0.0,0.0,53,dao-hibernate\src\main\java\org\apache\ode\daohib\bpel\hobj\HCorrelationProperty.java,0,0,0,0
org.apache.ode.daohib.bpel.hobj.HCorrelationSet, 0, 0, 0, 1, 0, 0, 0, 0, 0, 0, 0, 0, 0, 1,0.0,0.0,0.0,0.6666666666666666,0.0,0.0,0.0,0.3333333333333333,0.0,0.0,0.0,0.0,0.0,57,dao-hibernate\src\main\java\org\apache\ode\daohib\bpel\hobj\HCorrelationSet.java,0,0,0,0
org.apache.ode.daohib.bpel.hobj.HCorrelator, 0, 0, 0, 0, 0, 0, 0, 0, 0, 0, 0, 0, 0, 0,0.0,0.0,0.0,0.6666666666666666,0.0,0.0,0.0,0.0,0.0,0.0,0.0,0.0,0.0,38,dao-hibernate\src\main\java\org\apache\ode\daohib\bpel\hobj\HCorrelator.java,0,0,0,0
org.apache.ode.daohib.bpel.hobj.HCorrelatorMessage, 0, 0, 0, 0, 0, 0, 0, 0, 0, 0, 0, 0, 0, 0,0.0,0.0,0.0,0.0,0.0,0.0,0.0,0.0,0.0,0.0,0.0,0.0,0.0,30,dao-hibernate\src\main\java\org\apache\ode\daohib\bpel\hobj\HCorrelatorMessage.java,0,0,0,0
org.apache.ode.daohib.bpel.hobj.HCorrelatorMessageKey, 0, 0, 0, 0, 0, 0, 0, 0, 0, 0, 0, 0, 0, 0,0.0,0.0,0.0,0.0,0.0,0.0,0.0,0.0,0.0,0.0,0.0,0.0,0.0,19,dao-hibernate\src\main\java\org\apache\ode\daohib\bpel\hobj\HCorrelatorMessageKey.java,0,0,0,0
org.apache.ode.daohib.bpel.hobj.HCorrelatorSelector, 0, 0, 0, 1, 0, 0, 0, 0, 0, 0, 0, 0, 0, 1,0.0,0.0,0.0,0.25,0.0,0.0,0.0,0.0,0.0,0.0,0.0,0.0,0.0,66,dao-hibernate\src\main\java\org\apache\ode\daohib\bpel\hobj\HCorrelatorSelector.java,0,0,0,0
org.apache.ode.daohib.bpel.hobj.HFaultData, 0, 0, 0, 0, 0, 0, 0, 0, 0, 0, 0, 0, 0, 0,0.0,0.0,0.0,0.5,0.0,0.0,0.0,0.25,0.0,0.0,0.0,0.0,0.0,40,dao-hibernate\src\main\java\org\apache\ode\daohib\bpel\hobj\HFaultData.java,0,0,0,0
org.apache.ode.daohib.bpel.hobj.HMessage, 0, 0, 0, 0, 0, 0, 0, 0, 0, 0, 0, 0, 0, 0,0.0,0.0,0.0,0.3333333333333333,0.0,0.0,0.0,0.0,0.0,0.0,0.0,0.0,0.0,33,dao-hibernate\src\main\java\org\apache\ode\daohib\bpel\hobj\HMessage.java,0,0,0,0
org.apache.ode.daohib.bpel.hobj.HMessageExchangeProperty, 0, 0, 0, 0, 0, 0, 0, 0, 0, 0, 0, 0, 0, 0,0.0,0.0,0.0,0.0,0.0,0.0,0.0,0.0,0.0,0.0,0.0,0.0,0.0,37,dao-hibernate\src\main\java\org\apache\ode\daohib\bpel\hobj\HMessageExchangeProperty.java,0,0,0,0
org.apache.ode.daohib.bpel.hobj.HObject, 0, 0, 0, 0, 0, 0, 0, 0, 0, 0, 0, 0, 0, 0,0.0,0.0,0.0,0.5454545454545454,0.0,0.0,0.0,0.18181818181818182,0.0,0.0,0.0,0.0,0.0,46,dao-hibernate\src\main\java\org\apache\ode\daohib\bpel\hobj\HObject.java,0,0,0,0
org.apache.ode.daohib.bpel.hobj.HPartnerLink, 0, 0, 0, 1, 0, 0, 0, 0, 0, 0, 0, 0, 0, 1,0.0,0.0,0.0,0.5,0.0,0.0,0.0,0.0,0.0,0.0,0.0,0.0,0.0,90,dao-hibernate\src\main\java\org\apache\ode\daohib\bpel\hobj\HPartnerLink.java,0,0,0,0
org.apache.ode.daohib.bpel.hobj.HProcess, 0, 0, 0, 1, 0, 0, 0, 0, 0, 0, 0, 0, 0, 1,0.0,0.0,0.0,0.625,0.0,0.0,0.0,0.125,0.0,0.0,0.0,0.0,0.0,94,dao-hibernate\src\main\java\org\apache\ode\daohib\bpel\hobj\HProcess.java,0,0,0,0
org.apache.ode.daohib.bpel.hobj.HProcessInstance, 0, 0, 0, 1, 0, 0, 0, 0, 0, 0, 0, 0, 0, 1,0.0,0.0,0.0,0.6923076923076923,0.0,0.0,0.0,0.07692307692307693,0.0,0.0,0.0,0.0,0.0,128,dao-hibernate\src\main\java\org\apache\ode\daohib\bpel\hobj\HProcessInstance.java,0,0,0,0
org.apache.ode.daohib.bpel.hobj.HScope, 0, 0, 0, 1, 0, 0, 0, 0, 0, 0, 0, 0, 0, 1,0.0,0.0,0.0,0.8333333333333334,0.0,0.0,0.0,0.16666666666666666,0.0,0.0,0.0,0.0,0.0,63,dao-hibernate\src\main\java\org\apache\ode\daohib\bpel\hobj\HScope.java,0,0,0,0
org.apache.ode.daohib.bpel.hobj.HVariableProperty, 0, 0, 0, 0, 0, 0, 0, 1, 0, 0, 0, 0, 0, 1,0.0,0.0,0.0,0.3333333333333333,0.0,0.0,0.0,0.0,0.0,0.0,0.0,0.0,0.0,32,dao-hibernate\src\main\java\org\apache\ode\daohib\bpel\hobj\HVariableProperty.java,0,0,0,0
org.apache.ode.daohib.bpel.hobj.HXmlData, 0, 0, 0, 1, 0, 0, 0, 0, 0, 0, 0, 0, 0, 1,0.0,0.0,0.0,0.4,0.0,0.0,0.0,0.2,0.0,0.0,0.0,0.0,0.0,58,dao-hibernate\src\main\java\org\apache\ode\daohib\bpel\hobj\HXmlData.java,0,0,0,0
org.apache.ode.daohib.bpel.ql.StateComparator, 0, 0, 0, 0, 0, 0, 0, 0, 0, 0, 0, 0, 0, 0,0.0,0.0,0.0,1.0,0.0,0.0,0.0,0.0,0.0,0.0,0.0,0.0,0.0,20,dao-hibernate\src\main\java\org\apache\ode\daohib\bpel\ql\StateComparator.java,0,0,0,0
org.apache.ode.il.DynamicService, 0, 0, 0, 0, 0, 0, 0, 0, 0, 0, 0, 0, 0, 0,0.0,0.0,0.0,0.0,0.0,0.0,0.0,0.0,0.0,0.0,0.0,0.0,0.0,137,bpel-epr\src\main\java\org\apache\ode\il\DynamicService.java,0,0,1,2
org.apache.ode.il.EmbeddedGeronimoFactory, 0, 0, 0, 0, 0, 0, 0, 0, 0, 0, 0, 0, 0, 0,0.0,0.0,0.0,0.0,0.0,0.0,0.0,0.5,0.0,0.0,0.0,0.0,0.0,13,bpel-epr\src\main\java\org\apache\ode\il\EmbeddedGeronimoFactory.java,0,0,0,0
org.apache.ode.il.dbutil.DatabaseConfigException, 0, 0, 0, 0, 0, 0, 0, 0, 0, 0, 0, 0, 0, 0,0.0,0.0,0.0,1.0,0.0,0.0,0.0,0.0,0.0,0.0,0.0,0.0,0.0,6,bpel-epr\src\main\java\org\apache\ode\il\dbutil\DatabaseConfigException.java,0,0,0,0
org.apache.ode.il.dbutil.Messages, 0, 0, 0, 0, 0, 0, 0, 0, 0, 0, 0, 0, 0, 0,0.0,0.0,0.0,0.0,0.0,0.0,0.0,0.0,0.0,0.0,0.0,0.0,0.0,26,bpel-epr\src\main\java\org\apache\ode\il\dbutil\Messages.java,0,0,0,0
org.apache.ode.jacob.Channel, 0, 0, 0, 0, 0, 0, 0, 0, 0, 0, 0, 0, 0, 0,0.0,0.0,0.0,0.0,0.0,0.0,0.0,0.0,0.0,0.0,0.0,0.0,0.0,26,jacob\src\main\java\org\apache\ode\jacob\Channel.java,0,0,0,0
org.apache.ode.jacob.DebugInfo, 0, 0, 0, 0, 0, 0, 0, 0, 0, 0, 0, 0, 0, 0,0.0,0.0,0.0,0.0,0.0,0.0,0.0,0.0,0.0,0.0,0.0,0.0,0.0,23,jacob\src\main\java\org\apache\ode\jacob\DebugInfo.java,0,0,0,0
org.apache.ode.jacob.IndexedObject, 0, 0, 0, 0, 0, 0, 0, 0, 0, 0, 0, 0, 0, 0,0.0,0.0,0.0,0.0,0.0,0.0,0.0,0.0,0.0,0.0,0.0,0.0,0.0,23,jacob\src\main\java\org\apache\ode\jacob\IndexedObject.java,0,0,0,0
org.apache.ode.jacob.JacobObject, 0, 0, 0, 0, 0, 0, 0, 0, 0, 0, 0, 0, 0, 0,0.0,0.0,0.0,0.0,0.0,0.0,0.0,0.7368421052631579,0.0,0.0,0.0,0.0,0.0,60,jacob\src\main\java\org\apache\ode\jacob\JacobObject.java,0,0,0,0
org.apache.ode.jacob.JacobRunnable, 0, 0, 0, 0, 0, 0, 0, 0, 0, 0, 0, 0, 0, 0,0.0,0.0,0.0,0.0,0.0,0.0,0.0,0.2,0.0,0.0,0.0,0.0,0.0,18,jacob\src\main\java\org\apache\ode\jacob\JacobRunnable.java,0,0,0,0
org.apache.ode.jacob.JacobThread, 0, 0, 0, 0, 0, 0, 0, 0, 0, 0, 0, 0, 0, 0,0.0,0.0,0.0,0.0,0.0,0.0,0.0,0.0,0.0,0.0,0.0,0.0,0.0,18,jacob\src\main\java\org\apache\ode\jacob\JacobThread.java,0,0,0,0
org.apache.ode.jacob.Synch, 0, 0, 0, 0, 0, 0, 0, 0, 0, 0, 0, 0, 0, 0,0.0,0.0,0.0,0.0,0.0,0.0,0.0,0.0,0.0,0.0,0.0,0.0,0.0,18,jacob\src\main\java\org\apache\ode\jacob\Synch.java,0,0,0,0
org.apache.ode.jacob.Val, 0, 0, 0, 0, 0, 0, 0, 0, 0, 0, 0, 0, 0, 0,0.0,0.0,0.0,0.0,0.0,0.0,0.0,0.0,0.0,0.0,0.0,0.0,0.0,18,jacob\src\main\java\org\apache\ode\jacob\Val.java,0,0,0,0
org.apache.ode.jacob.ap.ChannelTypeAnnotationProcessor, 0, 0, 0, 0, 0, 0, 0, 0, 0, 0, 0, 0, 0, 0,0.0,0.0,0.0,0.0,0.0,0.0,0.0,0.0,0.0,0.0,0.0,0.0,0.0,100,jacob-ap\src\main\java\org\apache\ode\jacob\ap\ChannelTypeAnnotationProcessor.java,0,0,0,0
org.apache.ode.jacob.ap.JacobAnnotationProcessorFactory, 0, 0, 0, 0, 0, 0, 0, 0, 0, 0, 0, 0, 0, 0,0.0,0.0,0.0,0.0,0.0,0.0,0.0,0.0,0.0,0.0,0.0,0.0,0.0,19,jacob-ap\src\main\java\org\apache\ode\jacob\ap\JacobAnnotationProcessorFactory.java,0,0,0,0
org.apache.ode.jacob.classgen.testtypes.BadInheritsBad, 0, 0, 0, 0, 0, 0, 0, 0, 0, 0, 0, 0, 0, 0,0.0,0.0,0.0,0.0,0.0,0.0,0.0,0.0,0.0,0.0,0.0,0.0,0.0,19,jacob\src\main\java\org\apache\ode\jacob\classgen\testtypes\BadInheritsBad.java,0,0,0,0
org.apache.ode.jacob.classgen.testtypes.BadRetVal, 0, 0, 0, 0, 0, 0, 0, 0, 0, 0, 0, 0, 0, 0,0.0,0.0,0.0,0.0,0.0,0.0,0.0,0.0,0.0,0.0,0.0,0.0,0.0,19,jacob\src\main\java\org\apache\ode\jacob\classgen\testtypes\BadRetVal.java,0,0,0,0
org.apache.ode.jacob.classgen.testtypes.BadThrows, 0, 0, 0, 0, 0, 0, 0, 0, 0, 0, 0, 0, 0, 0,0.0,0.0,0.0,0.0,0.0,0.0,0.0,0.0,0.0,0.0,0.0,0.0,0.0,19,jacob\src\main\java\org\apache\ode\jacob\classgen\testtypes\BadThrows.java,0,0,0,0
org.apache.ode.jacob.classgen.testtypes.Good, 0, 0, 0, 0, 0, 0, 0, 0, 0, 0, 0, 0, 0, 0,0.0,0.0,0.0,0.0,0.0,0.0,0.0,0.0,0.0,0.0,0.0,0.0,0.0,19,jacob\src\main\java\org\apache\ode\jacob\classgen\testtypes\Good.java,0,0,0,0
org.apache.ode.jacob.classgen.testtypes.Good1, 0, 0, 0, 0, 0, 0, 0, 0, 0, 0, 0, 0, 0, 0,0.0,0.0,0.0,0.0,0.0,0.0,0.0,0.0,0.0,0.0,0.0,0.0,0.0,19,jacob\src\main\java\org\apache\ode\jacob\classgen\testtypes\Good1.java,0,0,0,0
org.apache.ode.jacob.classgen.testtypes.GoodInherit, 0, 0, 0, 0, 0, 0, 0, 0, 0, 0, 0, 0, 0, 0,0.0,0.0,0.0,0.0,0.0,0.0,0.0,0.0,0.0,0.0,0.0,0.0,0.0,19,jacob\src\main\java\org\apache\ode\jacob\classgen\testtypes\GoodInherit.java,0,0,0,0
org.apache.ode.jacob.classgen.testtypes.GoodMultInherit, 0, 0, 0, 0, 0, 0, 0, 0, 0, 0, 0, 0, 0, 0,0.0,0.0,0.0,0.0,0.0,0.0,0.0,0.0,0.0,0.0,0.0,0.0,0.0,19,jacob\src\main\java\org\apache\ode\jacob\classgen\testtypes\GoodMultInherit.java,0,0,0,0
org.apache.ode.jacob.examples.cell.CELL_, 0, 0, 0, 0, 0, 0, 0, 0, 0, 0, 0, 0, 0, 0,0.0,0.0,0.0,0.0,0.0,0.0,0.0,0.0,0.0,0.0,0.0,0.0,0.0,25,jacob\src\main\java\org\apache\ode\jacob\examples\cell\CELL_.java,0,0,0,0
org.apache.ode.jacob.examples.cell.Cell, 0, 0, 0, 0, 0, 0, 0, 0, 0, 0, 0, 0, 0, 0,0.0,0.0,0.0,0.0,0.0,0.0,0.0,0.0,0.0,0.0,0.0,0.0,0.0,25,jacob\src\main\java\org\apache\ode\jacob\examples\cell\Cell.java,0,0,0,0
org.apache.ode.jacob.examples.cell.JacobCellTest, 0, 0, 0, 0, 0, 0, 0, 0, 0, 0, 0, 0, 0, 0,0.0,0.0,0.0,0.0,0.0,0.0,0.0,0.0,0.0,0.0,0.0,0.0,0.0,34,jacob\src\test\java\org\apache\ode\jacob\examples\cell\JacobCellTest.java,0,0,0,0
org.apache.ode.jacob.examples.eratosthenes.NaturalNumberStream, 0, 0, 0, 0, 0, 0, 0, 0, 0, 0, 0, 0, 0, 0,0.0,0.0,0.0,0.0,0.0,0.0,0.0,0.0,0.0,0.0,0.0,0.0,0.0,34,jacob\src\main\java\org\apache\ode\jacob\examples\eratosthenes\NaturalNumberStream.java,0,0,0,0
org.apache.ode.jacob.examples.eratosthenes.Sieve, 0, 0, 0, 0, 0, 0, 0, 0, 0, 0, 0, 0, 0, 0,0.0,0.0,0.0,0.0,0.0,0.0,0.0,0.0,0.0,0.0,0.0,0.0,0.0,117,jacob\src\main\java\org\apache\ode\jacob\examples\eratosthenes\Sieve.java,0,0,0,0
org.apache.ode.jacob.examples.sequence.Sequence, 0, 0, 0, 0, 0, 0, 0, 0, 0, 0, 0, 0, 0, 0,0.0,0.0,0.0,0.0,0.0,0.0,0.0,0.0,0.0,0.0,0.0,0.0,0.0,28,jacob\src\main\java\org\apache\ode\jacob\examples\sequence\Sequence.java,0,0,0,0
org.apache.ode.jacob.examples.synch.SynchPrint, 0, 0, 0, 0, 0, 0, 0, 0, 0, 0, 0, 0, 0, 0,0.0,0.0,0.0,0.0,0.0,0.0,0.0,0.0,0.0,0.0,0.0,0.0,0.0,28,jacob\src\main\java\org\apache\ode\jacob\examples\synch\SynchPrint.java,0,0,0,0
org.apache.ode.jacob.examples.synch.SynchPrinter, 0, 0, 0, 0, 0, 0, 0, 0, 0, 0, 0, 0, 0, 0,0.0,0.0,0.0,0.0,0.0,0.0,0.0,0.0,0.0,0.0,0.0,0.0,0.0,44,jacob\src\main\java\org\apache\ode\jacob\examples\synch\SynchPrinter.java,0,0,0,0
org.apache.ode.jacob.soup.Comm, 0, 0, 0, 0, 0, 0, 0, 0, 0, 0, 0, 0, 0, 0,0.0,0.0,0.0,0.0,0.0,0.0,0.0,0.0,0.0,0.0,0.0,0.0,0.0,28,jacob\src\main\java\org\apache\ode\jacob\soup\Comm.java,0,0,0,0
org.apache.ode.jacob.soup.Continuation, 0, 0, 0, 0, 0, 0, 0, 1, 0, 0, 0, 0, 0, 1,0.0,0.0,0.0,0.0,0.0,0.0,0.0,0.0,0.0,0.0,0.0,0.0,0.0,22,jacob\src\main\java\org\apache\ode\jacob\soup\Continuation.java,0,0,0,0
org.apache.ode.jacob.soup.ExecutionQueue, 0, 0, 0, 0, 0, 0, 0, 0, 0, 0, 0, 0, 0, 0,0.0,0.0,0.0,0.0,0.0,0.0,0.0,0.0,0.0,0.0,0.0,0.0,0.0,22,jacob\src\main\java\org\apache\ode\jacob\soup\ExecutionQueue.java,0,0,0,0
org.apache.ode.jacob.soup.ExecutionQueueObject, 0, 0, 0, 0, 0, 0, 0, 0, 0, 0, 0, 0, 0, 0,0.0,0.0,0.0,0.0,0.0,0.0,0.0,0.5,0.0,0.0,0.0,0.0,0.0,28,jacob\src\main\java\org\apache\ode\jacob\soup\ExecutionQueueObject.java,0,0,0,0
org.apache.ode.jacob.soup.ReplacementMap, 0, 0, 0, 0, 0, 0, 0, 0, 0, 0, 0, 0, 0, 0,0.0,0.0,0.0,0.0,0.0,0.0,0.0,0.0,0.0,0.0,0.0,0.0,0.0,28,jacob\src\main\java\org\apache\ode\jacob\soup\ReplacementMap.java,0,0,0,0
org.apache.ode.jacob.vpu.ChannelFactory, 0, 0, 0, 0, 0, 0, 0, 0, 0, 0, 0, 0, 0, 0,0.0,0.0,0.0,0.0,0.0,0.0,0.0,0.0,0.0,0.0,0.0,0.0,0.0,53,jacob\src\main\java\org\apache\ode\jacob\vpu\ChannelFactory.java,0,0,0,0
org.apache.ode.jacob.vpu.JacobMessages, 0, 0, 0, 0, 0, 0, 0, 0, 0, 0, 0, 0, 0, 0,0.0,0.0,0.0,0.0,0.0,0.0,0.0,0.0,0.0,0.0,0.0,0.0,0.0,16,jacob\src\main\java\org\apache\ode\jacob\vpu\JacobMessages.java,0,0,0,0
org.apache.ode.jbi.BaseMessageExchangeProcessor, 0, 0, 0, 0, 0, 0, 0, 0, 0, 0, 0, 0, 0, 0,0.0,0.0,0.0,0.0,0.0,0.0,0.0,0.0,0.0,0.0,0.0,0.0,0.0,68,jbi\src\main\java\org\apache\ode\jbi\BaseMessageExchangeProcessor.java,0,0,0,0
org.apache.ode.jbi.CommunicationJbiTest, 0, 0, 0, 0, 0, 0, 0, 0, 0, 0, 0, 0, 0, 0,0.0,0.0,0.0,0.0,0.0,0.0,0.0,0.0,0.0,0.0,0.0,0.0,0.0,5,jbi\src\test\java\org\apache\ode\jbi\CommunicationJbiTest.java,0,0,0,0
org.apache.ode.jbi.DigestJbiTest, 0, 0, 0, 0, 0, 0, 0, 0, 0, 0, 0, 0, 0, 0,0.0,0.0,0.0,0.0,0.0,0.0,0.0,0.0,0.0,0.0,0.0,0.0,0.0,5,jbi\src\test\java\org\apache\ode\jbi\DigestJbiTest.java,0,0,0,0
org.apache.ode.jbi.DynamicMessageExchangeProcessor, 0, 0, 0, 0, 0, 0, 0, 0, 0, 0, 0, 0, 0, 0,0.0,0.0,0.0,0.0,0.0,0.0,0.0,0.0,0.0,0.0,0.0,0.0,0.0,33,jbi\src\main\java\org\apache\ode\jbi\DynamicMessageExchangeProcessor.java,0,0,0,0
org.apache.ode.jbi.EmptyRespJbiTest, 0, 0, 0, 0, 0, 0, 0, 0, 0, 0, 0, 0, 0, 0,0.0,0.0,0.0,0.0,0.0,0.0,0.0,0.0,0.0,0.0,0.0,0.0,0.0,5,jbi\src\test\java\org\apache\ode\jbi\EmptyRespJbiTest.java,0,0,0,0
org.apache.ode.jbi.ExtVarJbiTest, 0, 0, 0, 0, 0, 0, 0, 0, 0, 0, 0, 0, 0, 0,0.0,0.0,0.0,0.0,0.0,0.0,0.0,0.0,0.0,0.0,0.0,0.0,0.0,28,jbi\src\test\java\org\apache\ode\jbi\ExtVarJbiTest.java,0,0,0,0
org.apache.ode.jbi.HelloWorldJbiTest, 0, 0, 0, 0, 0, 0, 0, 0, 0, 0, 0, 0, 0, 0,0.0,0.0,0.0,0.0,0.0,0.0,0.0,0.0,0.0,0.0,0.0,0.0,0.0,5,jbi\src\test\java\org\apache\ode\jbi\HelloWorldJbiTest.java,0,0,0,0
org.apache.ode.jbi.JbiEndpointReference, 0, 0, 0, 0, 0, 0, 0, 0, 0, 0, 0, 0, 0, 0,0.0,0.0,0.0,0.0,0.0,0.0,0.0,0.0,0.0,0.0,0.0,0.0,0.0,60,jbi\src\main\java\org\apache\ode\jbi\JbiEndpointReference.java,0,0,0,0
org.apache.ode.jbi.JbiMessageExchangeEventRouter, 0, 0, 0, 0, 0, 0, 0, 0, 0, 0, 0, 0, 0, 0,0.0,0.0,0.0,0.0,0.0,0.0,0.0,0.0,0.0,0.0,0.0,0.0,0.0,34,jbi\src\main\java\org\apache\ode\jbi\JbiMessageExchangeEventRouter.java,0,0,0,0
org.apache.ode.jbi.JbiMessageExchangeProcessor, 0, 0, 0, 0, 0, 0, 0, 0, 0, 0, 0, 0, 0, 0,0.0,0.0,0.0,0.0,0.0,0.0,0.0,0.0,0.0,0.0,0.0,0.0,0.0,34,jbi\src\main\java\org\apache\ode\jbi\JbiMessageExchangeProcessor.java,0,0,0,0
org.apache.ode.jbi.MagicSessionExternalJbiTest, 0, 0, 0, 0, 0, 0, 0, 0, 0, 0, 0, 0, 0, 0,0.0,0.0,0.0,0.0,0.0,0.0,0.0,0.0,0.0,0.0,0.0,0.0,0.0,5,jbi\src\test\java\org\apache\ode\jbi\MagicSessionExternalJbiTest.java,0,0,0,0
org.apache.ode.jbi.MagicSessionJbiTest, 0, 0, 0, 0, 0, 0, 0, 0, 0, 0, 0, 0, 0, 0,0.0,0.0,0.0,0.0,0.0,0.0,0.0,0.0,0.0,0.0,0.0,0.0,0.0,5,jbi\src\test\java\org\apache\ode\jbi\MagicSessionJbiTest.java,0,0,0,0
org.apache.ode.jbi.MessageExchangeContextImpl, 0, 0, 0, 0, 0, 0, 0, 0, 0, 0, 0, 0, 0, 0,0.0,0.0,0.0,1.0,0.0,0.0,0.0,0.0,0.0,0.0,0.0,0.0,0.0,20,jbi\src\main\java\org\apache\ode\jbi\MessageExchangeContextImpl.java,0,0,0,0
org.apache.ode.jbi.MessageExchangePattern, 0, 0, 0, 0, 0, 0, 0, 0, 0, 0, 0, 0, 0, 0,0.0,0.0,0.0,0.0,0.0,0.0,0.0,0.0,0.0,0.0,0.0,0.0,0.0,15,jbi\src\main\java\org\apache\ode\jbi\MessageExchangePattern.java,0,0,0,0
org.apache.ode.jbi.Messages, 0, 0, 0, 1, 0, 0, 0, 0, 0, 0, 0, 0, 0, 1,0.0,0.0,0.0,0.3333333333333333,0.0,0.0,0.0,0.3333333333333333,0.0,0.0,0.0,0.0,0.0,94,jbi\src\main\java\org\apache\ode\jbi\Messages.java,0,0,0,0
org.apache.ode.jbi.MyEndpointReference, 0, 0, 0, 0, 0, 0, 0, 0, 0, 0, 0, 0, 0, 0,0.0,0.0,0.0,0.0,0.0,0.0,0.0,0.0,0.0,0.0,0.0,0.0,0.0,32,jbi\src\main\java\org\apache\ode\jbi\MyEndpointReference.java,0,0,0,0
org.apache.ode.jbi.OdeBootstrap, 0, 0, 0, 0, 0, 0, 0, 0, 0, 0, 0, 0, 0, 0,0.0,0.0,0.0,0.0,0.0,0.0,0.0,0.0,0.0,0.0,0.0,0.0,0.0,16,jbi\src\main\java\org\apache\ode\jbi\OdeBootstrap.java,0,0,0,0
org.apache.ode.jbi.OdeComponent, 0, 0, 0, 0, 0, 0, 0, 0, 0, 0, 0, 0, 0, 0,0.0,0.0,0.0,0.5,0.0,0.0,0.0,0.0,0.0,0.0,0.0,0.0,0.0,27,jbi\src\main\java\org\apache\ode\jbi\OdeComponent.java,0,0,0,0
org.apache.ode.jbi.OdeConfigProperties, 0, 0, 0, 0, 0, 0, 0, 0, 0, 0, 0, 0, 0, 0,0.0,0.0,0.0,1.0,0.0,0.0,0.0,0.0,0.0,0.0,0.0,0.0,0.0,22,jbi\src\main\java\org\apache\ode\jbi\OdeConfigProperties.java,0,0,0,0
org.apache.ode.jbi.OdeConsumerSync, 0, 0, 0, 0, 0, 0, 0, 0, 0, 0, 0, 0, 0, 0,0.0,0.0,0.0,1.0,0.0,0.0,0.0,0.0,0.0,0.0,0.0,0.0,0.0,41,jbi\src\main\java\org\apache\ode\jbi\OdeConsumerSync.java,0,0,0,0
org.apache.ode.jbi.OdeJbiComponentLifeCycleTest, 0, 0, 0, 0, 0, 0, 0, 0, 0, 0, 0, 0, 0, 0,0.0,0.0,0.0,0.0,0.0,0.0,0.0,0.0,0.0,0.0,0.0,0.0,0.0,72,jbi\src\test\java\org\apache\ode\jbi\OdeJbiComponentLifeCycleTest.java,0,0,0,0
org.apache.ode.jbi.OdeLifeCycle, 0, 0, 0, 1, 0, 0, 0, 0, 0, 0, 0, 0, 0, 1,0.1111111111111111,0.0,0.0,0.2222222222222222,0.0,0.0,0.0,0.0,0.0,0.0,0.0,0.0,0.0,331,jbi\src\main\java\org\apache\ode\jbi\OdeLifeCycle.java,0,14,0,14
org.apache.ode.jbi.OdeServiceUnit, 0, 0, 0, 0, 0, 0, 0, 1, 0, 0, 0, 0, 0, 1,0.0,0.0,0.0,1.0,0.0,0.0,0.0,0.0,0.0,0.0,0.0,0.0,0.0,110,jbi\src\main\java\org\apache\ode\jbi\OdeServiceUnit.java,0,0,0,0
org.apache.ode.jbi.OnEventAlarmJbiTest, 0, 0, 0, 0, 0, 0, 0, 0, 0, 0, 0, 0, 0, 0,0.0,0.0,0.0,0.0,0.0,0.0,0.0,0.0,0.0,0.0,0.0,0.0,0.0,5,jbi\src\test\java\org\apache\ode\jbi\OnEventAlarmJbiTest.java,0,0,0,0
org.apache.ode.jbi.Receiver, 0, 0, 0, 0, 0, 0, 0, 0, 0, 0, 0, 0, 0, 0,0.0,0.0,0.0,1.0,0.0,0.0,0.0,0.0,0.0,0.0,0.0,0.0,0.0,113,jbi\src\main\java\org\apache\ode\jbi\Receiver.java,0,0,0,0
org.apache.ode.jbi.ReplayerJbiTest, 0, 0, 0, 0, 0, 0, 0, 0, 0, 0, 0, 0, 0, 0,0.0,0.0,0.0,0.0,0.0,0.0,0.0,0.0,0.0,0.0,0.0,0.0,0.0,5,jbi\src\test\java\org\apache\ode\jbi\ReplayerJbiTest.java,0,0,0,0
org.apache.ode.jbi.RetireJbiTest, 0, 0, 0, 0, 0, 0, 0, 0, 0, 0, 0, 0, 0, 0,0.0,0.0,0.0,0.0,0.0,0.0,0.0,0.0,0.0,0.0,0.0,0.0,0.0,5,jbi\src\test\java\org\apache\ode\jbi\RetireJbiTest.java,0,0,0,0
org.apache.ode.jbi.ServiceBridge, 0, 0, 0, 0, 0, 0, 0, 0, 0, 0, 0, 0, 0, 0,0.0,0.0,0.0,0.0,0.0,0.0,0.0,0.0,0.0,0.0,0.0,0.0,0.0,33,jbi\src\main\java\org\apache\ode\jbi\ServiceBridge.java,0,0,0,0
org.apache.ode.jbi.SpringPropertiesJbiTest, 0, 0, 0, 0, 0, 0, 0, 0, 0, 0, 0, 0, 0, 0,0.0,0.0,0.0,0.0,0.0,0.0,0.0,0.0,0.0,0.0,0.0,0.0,0.0,5,jbi\src\test\java\org\apache\ode\jbi\SpringPropertiesJbiTest.java,0,0,0,0
org.apache.ode.jbi.msgmap.DocLitMapper, 0, 0, 0, 0, 0, 0, 0, 1, 0, 0, 0, 0, 0, 1,0.0,0.0,0.0,0.0,0.0,0.0,0.0,0.0,0.0,0.0,0.0,0.0,0.0,99,jbi\src\main\java\org\apache\ode\jbi\msgmap\DocLitMapper.java,0,0,0,0
org.apache.ode.jbi.msgmap.JbiWsdl11WrapperMapper, 0, 0, 0, 0, 0, 0, 0, 1, 0, 0, 0, 0, 0, 1,0.0,0.0,0.0,0.0,0.0,0.0,0.0,0.0,0.0,0.0,0.0,0.0,0.0,127,jbi\src\main\java\org\apache\ode\jbi\msgmap\JbiWsdl11WrapperMapper.java,0,0,0,0
org.apache.ode.jbi.msgmap.JbiWsdl11WrapperMapperTest, 0, 0, 0, 0, 0, 0, 0, 0, 0, 0, 0, 0, 0, 0,0.0,0.0,0.0,0.0,0.0,0.0,0.0,1.0,0.0,0.0,0.0,0.0,0.0,65,jbi\src\test\java\org\apache\ode\jbi\msgmap\JbiWsdl11WrapperMapperTest.java,0,0,0,0
org.apache.ode.jbi.msgmap.Mapper, 0, 0, 0, 0, 0, 0, 0, 0, 0, 0, 0, 0, 0, 0,0.0,0.0,0.0,0.0,0.0,0.0,0.0,0.0,0.0,0.0,0.0,0.0,0.0,65,jbi\src\main\java\org\apache\ode\jbi\msgmap\Mapper.java,0,0,0,0
org.apache.ode.jbi.msgmap.MessageTranslationException, 0, 0, 0, 0, 0, 0, 0, 0, 0, 0, 0, 0, 0, 0,0.0,0.0,0.0,0.0,0.0,0.0,0.0,1.0,0.0,0.0,0.0,0.0,0.0,9,jbi\src\main\java\org\apache\ode\jbi\msgmap\MessageTranslationException.java,0,0,0,0
org.apache.ode.jbi.osgi.deployer.OdeExtender, 0, 0, 0, 0, 0, 0, 0, 0, 0, 0, 0, 0, 0, 0,0.0,0.0,0.0,0.0,0.0,0.0,0.0,0.0,0.0,0.0,0.0,0.0,0.0,9,jbi-bundle\src\main\java\org\apache\ode\jbi\osgi\deployer\OdeExtender.java,0,0,0,0
org.apache.ode.jbi.osgi.deployer.OdeExtenderThreadFactory, 0, 0, 0, 0, 0, 0, 0, 0, 0, 0, 0, 0, 0, 0,0.0,0.0,0.0,0.0,0.0,0.0,0.0,0.0,0.0,0.0,0.0,0.0,0.0,13,jbi-bundle\src\main\java\org\apache\ode\jbi\osgi\deployer\OdeExtenderThreadFactory.java,0,0,0,0
org.apache.ode.jbi.util.Schema, 0, 0, 0, 0, 0, 0, 0, 0, 0, 0, 0, 0, 0, 0,0.0,0.0,0.0,0.0,0.0,0.0,0.0,0.0,0.0,0.0,0.0,0.0,0.0,36,jbi\src\main\java\org\apache\ode\jbi\util\Schema.java,0,0,0,0
org.apache.ode.jca.server.ConnectionProvider, 0, 0, 0, 0, 0, 0, 0, 0, 0, 0, 0, 0, 0, 0,0.0,0.0,0.0,0.0,0.0,0.0,0.0,0.0,0.0,0.0,0.0,0.0,0.0,36,jca-server\src\main\java\org\apache\ode\jca\server\ConnectionProvider.java,0,0,0,0
org.apache.ode.jca.server.Interaction, 0, 0, 0, 0, 0, 0, 0, 0, 0, 0, 0, 0, 0, 0,0.0,0.0,0.0,0.0,0.0,0.0,0.0,0.0,0.0,0.0,0.0,0.0,0.0,36,jca-server\src\main\java\org\apache\ode\jca\server\Interaction.java,0,0,0,0
org.apache.ode.jca.server.rmi.RmiTransportServerImpl, 0, 0, 0, 0, 0, 0, 0, 0, 0, 0, 0, 0, 0, 0,0.0,0.0,0.0,0.0,0.0,0.0,0.0,0.0,0.0,0.0,0.0,0.0,0.0,72,jca-server\src\main\java\org\apache\ode\jca\server\rmi\RmiTransportServerImpl.java,0,0,0,0
org.apache.ode.karaf.commands.OdeCommandsBase, 1, 0, 0, 0, 0, 0, 0, 1, 0, 0, 0, 0, 0, 2,0.0,0.0,0.0,0.0,0.0,0.0,0.0,0.0,0.0,0.0,0.0,0.0,0.0,90,jbi-karaf-commands\src\main\java\org\apache\ode\karaf\commands\OdeCommandsBase.java,0,0,0,0
org.apache.ode.karaf.commands.OdeRecoverActivityCommand, 0, 0, 0, 0, 0, 0, 0, 0, 0, 0, 0, 0, 0, 0,1.0,0.0,0.0,0.0,0.0,0.0,0.0,1.0,0.0,0.0,0.0,0.0,0.0,37,jbi-karaf-commands\src\main\java\org\apache\ode\karaf\commands\OdeRecoverActivityCommand.java,0,0,0,0
org.apache.ode.karaf.commands.OdeResumeCommand, 0, 0, 0, 0, 0, 0, 0, 0, 0, 0, 0, 0, 0, 0,1.0,0.0,0.0,0.0,0.0,0.0,0.0,1.0,0.0,0.0,0.0,0.0,0.0,33,jbi-karaf-commands\src\main\java\org\apache\ode\karaf\commands\OdeResumeCommand.java,0,0,0,0
org.apache.ode.karaf.commands.OdeSuspendCommand, 0, 0, 0, 0, 0, 0, 0, 0, 0, 0, 0, 0, 0, 0,1.0,0.0,0.0,0.0,0.0,0.0,0.0,1.0,0.0,0.0,0.0,0.0,0.0,33,jbi-karaf-commands\src\main\java\org\apache\ode\karaf\commands\OdeSuspendCommand.java,0,0,0,0
org.apache.ode.karaf.commands.OdeTerminateCommand, 0, 0, 0, 0, 0, 0, 0, 0, 0, 0, 0, 0, 0, 0,1.0,0.0,0.0,0.0,0.0,0.0,0.0,1.0,0.0,0.0,0.0,0.0,0.0,33,jbi-karaf-commands\src\main\java\org\apache\ode\karaf\commands\OdeTerminateCommand.java,0,0,0,0
org.apache.ode.ping.AttachPing, 0, 0, 0, 0, 0, 0, 0, 0, 0, 0, 0, 0, 0, 0,0.0,0.0,0.0,0.0,0.0,0.0,0.0,0.0,0.0,0.0,0.0,0.0,0.0,5,distro\src\examples-jbi\maven2\ping-pong\ode-su\src\main\java\org\apache\ode\ping\AttachPing.java,0,0,0,0
org.apache.ode.ql.Compiler, 0, 0, 0, 0, 0, 0, 0, 0, 0, 0, 0, 0, 0, 0,0.0,0.0,0.0,0.0,0.0,0.0,0.0,1.0,0.0,0.0,0.0,0.0,0.0,3,bpel-ql\src\main\java\org\apache\ode\ql\Compiler.java,0,0,0,0
org.apache.ode.ql.SyntaxTest, 0, 0, 0, 0, 0, 0, 0, 0, 0, 0, 0, 0, 0, 0,0.0,0.0,0.0,0.0,0.0,0.0,0.0,0.0,0.0,0.0,0.0,0.0,0.0,36,bpel-ql\src\test\java\org\apache\ode\ql\SyntaxTest.java,0,0,0,0
org.apache.ode.ql.ValidationException, 0, 0, 0, 0, 0, 0, 0, 0, 0, 0, 0, 0, 0, 0,0.0,0.0,0.0,0.0,0.0,0.0,0.0,0.0,0.0,0.0,0.0,0.0,0.0,15,bpel-ql\src\main\java\org\apache\ode\ql\ValidationException.java,0,0,0,0
org.apache.ode.ql.eval.skel.AbstractCMPEvaluator, 0, 0, 0, 0, 0, 0, 0, 0, 0, 0, 0, 0, 0, 0,0.0,0.0,0.0,0.0,0.0,1.0,0.0,0.0,0.0,0.0,0.0,0.0,0.0,9,bpel-ql\src\main\java\org\apache\ode\ql\eval\skel\AbstractCMPEvaluator.java,0,0,0,0
org.apache.ode.ql.eval.skel.AbstractConjunction, 0, 0, 0, 0, 0, 1, 0, 0, 0, 0, 0, 0, 0, 1,0.0,0.0,0.0,0.0,0.0,0.0,0.0,0.0,0.0,0.0,0.0,0.0,0.0,6,bpel-ql\src\main\java\org\apache\ode\ql\eval\skel\AbstractConjunction.java,0,0,0,0
org.apache.ode.ql.eval.skel.AbstractContainer, 0, 0, 0, 0, 0, 0, 0, 0, 0, 0, 0, 0, 0, 0,0.0,0.0,0.0,0.0,0.0,1.0,0.0,0.0,0.0,0.0,0.0,0.0,0.0,10,bpel-ql\src\main\java\org\apache\ode\ql\eval\skel\AbstractContainer.java,0,0,0,0
org.apache.ode.ql.eval.skel.AbstractDisjunction, 0, 0, 0, 0, 0, 1, 0, 0, 0, 0, 0, 0, 0, 1,0.0,0.0,0.0,0.0,0.0,0.0,0.0,0.0,0.0,0.0,0.0,0.0,0.0,6,bpel-ql\src\main\java\org\apache\ode\ql\eval\skel\AbstractDisjunction.java,0,0,0,0
org.apache.ode.ql.eval.skel.AbstractEqualityEvaluator, 0, 0, 0, 0, 0, 1, 0, 0, 0, 0, 0, 0, 0, 1,0.0,0.0,0.0,0.0,0.0,0.0,0.0,0.0,0.0,0.0,0.0,0.0,0.0,5,bpel-ql\src\main\java\org\apache\ode\ql\eval\skel\AbstractEqualityEvaluator.java,0,0,0,0
org.apache.ode.ql.eval.skel.CMPEvaluator, 0, 0, 0, 0, 0, 0, 0, 0, 0, 0, 0, 0, 0, 0,0.0,0.0,0.0,0.0,0.0,0.0,0.0,0.0,0.0,0.0,0.0,0.0,0.0,5,bpel-ql\src\main\java\org\apache\ode\ql\eval\skel\CMPEvaluator.java,0,0,0,0
org.apache.ode.ql.eval.skel.CommandContainer, 0, 0, 0, 0, 0, 0, 0, 0, 0, 0, 0, 0, 0, 0,0.0,0.0,0.0,0.0,0.0,0.0,0.0,0.0,0.0,0.0,0.0,0.0,0.0,5,bpel-ql\src\main\java\org\apache\ode\ql\eval\skel\CommandContainer.java,0,0,0,0
org.apache.ode.ql.eval.skel.CommandEvaluator, 0, 0, 0, 0, 0, 0, 0, 0, 0, 0, 0, 0, 0, 0,0.0,0.0,0.0,0.0,0.0,0.0,0.0,0.0,0.0,0.0,0.0,0.0,0.0,5,bpel-ql\src\main\java\org\apache\ode\ql\eval\skel\CommandEvaluator.java,0,0,0,0
org.apache.ode.ql.eval.skel.ConjunctionEvaluator, 0, 0, 0, 0, 0, 0, 0, 0, 0, 0, 0, 0, 0, 0,0.0,0.0,0.0,0.0,0.0,0.0,0.0,0.0,0.0,0.0,0.0,0.0,0.0,5,bpel-ql\src\main\java\org\apache\ode\ql\eval\skel\ConjunctionEvaluator.java,0,0,0,0
org.apache.ode.ql.eval.skel.DisjunctionEvaluator, 0, 0, 0, 0, 0, 0, 0, 0, 0, 0, 0, 0, 0, 0,0.0,0.0,0.0,0.0,0.0,0.0,0.0,0.0,0.0,0.0,0.0,0.0,0.0,5,bpel-ql\src\main\java\org\apache\ode\ql\eval\skel\DisjunctionEvaluator.java,0,0,0,0
org.apache.ode.ql.eval.skel.EqualityEvaluator, 0, 0, 0, 0, 0, 0, 0, 0, 0, 0, 0, 0, 0, 0,0.0,0.0,0.0,0.0,0.0,0.0,0.0,0.0,0.0,0.0,0.0,0.0,0.0,5,bpel-ql\src\main\java\org\apache\ode\ql\eval\skel\EqualityEvaluator.java,0,0,0,0
org.apache.ode.ql.eval.skel.GEEvaluator, 0, 0, 0, 0, 0, 0, 0, 0, 0, 0, 0, 0, 0, 0,0.0,0.0,0.0,0.0,0.0,0.0,0.0,0.0,0.0,0.0,0.0,0.0,0.0,5,bpel-ql\src\main\java\org\apache\ode\ql\eval\skel\GEEvaluator.java,0,0,0,0
org.apache.ode.ql.eval.skel.GreaterEvaluator, 0, 0, 0, 0, 0, 0, 0, 0, 0, 0, 0, 0, 0, 0,0.0,0.0,0.0,0.0,0.0,0.0,0.0,0.0,0.0,0.0,0.0,0.0,0.0,5,bpel-ql\src\main\java\org\apache\ode\ql\eval\skel\GreaterEvaluator.java,0,0,0,0
org.apache.ode.ql.eval.skel.INEvaluator, 0, 0, 0, 0, 0, 0, 0, 0, 0, 0, 0, 0, 0, 0,0.0,0.0,0.0,0.0,0.0,0.0,0.0,0.0,0.0,0.0,0.0,0.0,0.0,5,bpel-ql\src\main\java\org\apache\ode\ql\eval\skel\INEvaluator.java,0,0,0,0
org.apache.ode.ql.eval.skel.Identified, 0, 0, 0, 0, 0, 0, 0, 0, 0, 0, 0, 0, 0, 0,0.0,0.0,0.0,0.0,0.0,0.0,0.0,0.0,0.0,0.0,0.0,0.0,0.0,5,bpel-ql\src\main\java\org\apache\ode\ql\eval\skel\Identified.java,0,0,0,0
org.apache.ode.ql.eval.skel.LEEvaluator, 0, 0, 0, 0, 0, 0, 0, 0, 0, 0, 0, 0, 0, 0,0.0,0.0,0.0,0.0,0.0,0.0,0.0,0.0,0.0,0.0,0.0,0.0,0.0,5,bpel-ql\src\main\java\org\apache\ode\ql\eval\skel\LEEvaluator.java,0,0,0,0
org.apache.ode.ql.eval.skel.LessEvaluator, 0, 0, 0, 0, 0, 0, 0, 0, 0, 0, 0, 0, 0, 0,0.0,0.0,0.0,0.0,0.0,0.0,0.0,0.0,0.0,0.0,0.0,0.0,0.0,5,bpel-ql\src\main\java\org\apache\ode\ql\eval\skel\LessEvaluator.java,0,0,0,0
org.apache.ode.ql.eval.skel.LikeEvaluator, 0, 0, 0, 0, 0, 0, 0, 0, 0, 0, 0, 0, 0, 0,0.0,0.0,0.0,0.0,0.0,0.0,0.0,0.0,0.0,0.0,0.0,0.0,0.0,5,bpel-ql\src\main\java\org\apache\ode\ql\eval\skel\LikeEvaluator.java,0,0,0,0
org.apache.ode.ql.eval.skel.LogicEvaluator, 0, 0, 0, 0, 0, 0, 0, 0, 0, 0, 0, 0, 0, 0,0.0,0.0,0.0,0.0,0.0,0.0,0.0,0.0,0.0,0.0,0.0,0.0,0.0,5,bpel-ql\src\main\java\org\apache\ode\ql\eval\skel\LogicEvaluator.java,0,0,0,0
org.apache.ode.ql.eval.skel.NestedCommandEvaluator, 0, 0, 0, 0, 0, 0, 0, 0, 0, 0, 0, 0, 0, 0,0.0,0.0,0.0,0.0,0.0,0.0,0.0,0.0,0.0,0.0,0.0,0.0,0.0,5,bpel-ql\src\main\java\org\apache\ode\ql\eval\skel\NestedCommandEvaluator.java,0,0,0,0
org.apache.ode.ql.eval.skel.OrderByEvaluator, 0, 0, 0, 0, 0, 0, 0, 0, 0, 0, 0, 0, 0, 0,0.0,0.0,0.0,0.0,0.0,0.0,0.0,0.0,0.0,0.0,0.0,0.0,0.0,5,bpel-ql\src\main\java\org\apache\ode\ql\eval\skel\OrderByEvaluator.java,0,0,0,0
org.apache.ode.ql.jcc.ASTAnd, 0, 0, 0, 0, 0, 0, 0, 0, 0, 0, 0, 0, 0, 0,0.0,0.0,0.0,0.0,0.0,0.0,0.0,0.0,0.0,0.0,0.0,0.0,0.0,8,bpel-ql\src\main\java\org\apache\ode\ql\jcc\ASTAnd.java,0,0,0,0
org.apache.ode.ql.jcc.ASTEqual, 0, 0, 0, 0, 0, 0, 0, 0, 0, 0, 0, 0, 0, 0,0.0,0.0,0.0,0.0,0.0,0.0,0.0,0.0,0.0,0.0,0.0,0.0,0.0,8,bpel-ql\src\main\java\org\apache\ode\ql\jcc\ASTEqual.java,0,0,0,0
org.apache.ode.ql.jcc.ASTField, 0, 0, 0, 0, 0, 0, 0, 0, 0, 0, 0, 0, 0, 0,0.0,0.0,0.0,0.0,0.0,0.0,0.0,0.0,0.0,0.0,0.0,0.0,0.0,12,bpel-ql\src\main\java\org\apache\ode\ql\jcc\ASTField.java,0,0,0,0
org.apache.ode.ql.jcc.ASTGE, 0, 0, 0, 0, 0, 0, 0, 0, 0, 0, 0, 0, 0, 0,0.0,0.0,0.0,0.0,0.0,0.0,0.0,0.0,0.0,0.0,0.0,0.0,0.0,8,bpel-ql\src\main\java\org\apache\ode\ql\jcc\ASTGE.java,0,0,0,0
org.apache.ode.ql.jcc.ASTGreater, 0, 0, 0, 0, 0, 0, 0, 0, 0, 0, 0, 0, 0, 0,0.0,0.0,0.0,0.0,0.0,0.0,0.0,0.0,0.0,0.0,0.0,0.0,0.0,8,bpel-ql\src\main\java\org\apache\ode\ql\jcc\ASTGreater.java,0,0,0,0
org.apache.ode.ql.jcc.ASTIn, 0, 0, 0, 0, 0, 0, 0, 0, 0, 0, 0, 0, 0, 0,0.0,0.0,0.0,0.0,0.0,0.0,0.0,0.0,0.0,0.0,0.0,0.0,0.0,8,bpel-ql\src\main\java\org\apache\ode\ql\jcc\ASTIn.java,0,0,0,0
org.apache.ode.ql.jcc.ASTInValues, 0, 0, 0, 0, 0, 0, 0, 0, 0, 0, 0, 0, 0, 0,0.0,0.0,0.0,0.0,0.0,0.0,0.0,0.0,0.0,0.0,0.0,0.0,0.0,8,bpel-ql\src\main\java\org\apache\ode\ql\jcc\ASTInValues.java,0,0,0,0
org.apache.ode.ql.jcc.ASTLE, 0, 0, 0, 0, 0, 0, 0, 0, 0, 0, 0, 0, 0, 0,0.0,0.0,0.0,0.0,0.0,0.0,0.0,0.0,0.0,0.0,0.0,0.0,0.0,8,bpel-ql\src\main\java\org\apache\ode\ql\jcc\ASTLE.java,0,0,0,0
org.apache.ode.ql.jcc.ASTLess, 0, 0, 0, 0, 0, 0, 0, 0, 0, 0, 0, 0, 0, 0,0.0,0.0,0.0,0.0,0.0,0.0,0.0,0.0,0.0,0.0,0.0,0.0,0.0,8,bpel-ql\src\main\java\org\apache\ode\ql\jcc\ASTLess.java,0,0,0,0
org.apache.ode.ql.jcc.ASTLike, 0, 0, 0, 0, 0, 0, 0, 0, 0, 0, 0, 0, 0, 0,0.0,0.0,0.0,0.0,0.0,0.0,0.0,0.0,0.0,0.0,0.0,0.0,0.0,8,bpel-ql\src\main\java\org\apache\ode\ql\jcc\ASTLike.java,0,0,0,0
org.apache.ode.ql.jcc.ASTLimit, 0, 0, 0, 0, 0, 0, 0, 0, 0, 0, 0, 0, 0, 0,0.0,0.0,0.0,0.5,0.0,0.0,0.0,0.5,0.0,0.0,0.0,0.0,0.0,15,bpel-ql\src\main\java\org\apache\ode\ql\jcc\ASTLimit.java,0,0,0,0
org.apache.ode.ql.jcc.ASTOr, 0, 0, 0, 0, 0, 0, 0, 0, 0, 0, 0, 0, 0, 0,0.0,0.0,0.0,0.0,0.0,0.0,0.0,0.0,0.0,0.0,0.0,0.0,0.0,8,bpel-ql\src\main\java\org\apache\ode\ql\jcc\ASTOr.java,0,0,0,0
org.apache.ode.ql.jcc.ASTOrderBy, 0, 0, 0, 0, 0, 0, 0, 0, 0, 0, 0, 0, 0, 0,0.0,0.0,0.0,0.0,0.0,0.0,0.0,0.0,0.0,0.0,0.0,0.0,0.0,12,bpel-ql\src\main\java\org\apache\ode\ql\jcc\ASTOrderBy.java,0,0,0,0
org.apache.ode.ql.jcc.ASTOrderByField, 0, 0, 0, 0, 0, 0, 0, 0, 0, 0, 0, 0, 0, 0,0.0,0.0,0.0,0.5,0.0,0.0,0.0,0.5,0.0,0.0,0.0,0.0,0.0,8,bpel-ql\src\main\java\org\apache\ode\ql\jcc\ASTOrderByField.java,0,0,0,0
org.apache.ode.ql.jcc.ASTOrderType, 0, 0, 0, 0, 0, 0, 0, 0, 0, 0, 0, 0, 0, 0,0.0,0.0,0.0,0.5,0.0,0.0,0.0,0.5,0.0,0.0,0.0,0.0,0.0,12,bpel-ql\src\main\java\org\apache\ode\ql\jcc\ASTOrderType.java,0,0,0,0
org.apache.ode.ql.jcc.ASTProperty, 0, 0, 0, 0, 0, 0, 0, 0, 0, 0, 0, 0, 0, 0,0.0,0.0,0.0,0.5,0.0,0.0,0.0,0.5,0.0,0.0,0.0,0.0,0.0,12,bpel-ql\src\main\java\org\apache\ode\ql\jcc\ASTProperty.java,0,0,0,0
org.apache.ode.ql.jcc.ASTStart, 0, 0, 0, 0, 0, 0, 0, 0, 0, 0, 0, 0, 0, 0,0.0,0.0,0.0,0.5,0.0,0.0,0.0,0.5,0.0,0.0,0.0,0.0,0.0,8,bpel-ql\src\main\java\org\apache\ode\ql\jcc\ASTStart.java,0,0,0,0
org.apache.ode.ql.jcc.ASTValue, 0, 0, 0, 0, 0, 0, 0, 0, 0, 0, 0, 0, 0, 0,0.0,0.0,0.0,0.5,0.0,0.0,0.0,0.5,0.0,0.0,0.0,0.0,0.0,12,bpel-ql\src\main\java\org\apache\ode\ql\jcc\ASTValue.java,0,0,0,0
org.apache.ode.ql.jcc.Parser, 0, 0, 0, 0, 0, 1, 0, 0, 0, 0, 0, 0, 0, 1,0.0,0.0,0.0,1.0,0.0,0.0,0.0,1.0,0.0,0.0,0.0,0.0,0.0,5,bpel-ql\src\main\java\org\apache\ode\ql\jcc\Parser.java,0,0,0,0
org.apache.ode.ql.jcc.SimpleNode, 0, 0, 0, 0, 0, 0, 0, 0, 0, 0, 0, 0, 0, 0,0.0,0.0,0.0,0.05263157894736842,0.0,0.0,0.0,0.05263157894736842,0.0,0.0,0.0,0.0,0.0,48,bpel-ql\src\main\java\org\apache\ode\ql\jcc\SimpleNode.java,0,0,0,0
org.apache.ode.ql.jcc.TreeBuilder, 0, 0, 0, 1, 0, 0, 0, 1, 0, 0, 0, 0, 0, 2,0.0,0.0,0.0,0.0,0.0,0.08695652173913043,0.0,0.043478260869565216,0.0,0.0,0.0,0.0,0.0,168,bpel-ql\src\main\java\org\apache\ode\ql\jcc\TreeBuilder.java,0,0,0,0
org.apache.ode.ql.tree.Builder, 0, 0, 0, 0, 0, 0, 0, 0, 0, 0, 0, 0, 0, 0,0.0,0.0,0.0,0.3333333333333333,0.0,0.0,0.0,0.3333333333333333,0.0,0.0,0.0,0.0,0.0,3,bpel-ql\src\main\java\org\apache\ode\ql\tree\Builder.java,0,0,0,0
org.apache.ode.ql.tree.BuilderFactory, 0, 0, 0, 0, 0, 0, 0, 0, 0, 0, 0, 0, 0, 0,0.0,0.0,0.0,0.0,0.0,0.0,0.0,0.0,0.0,0.0,0.0,0.0,0.0,10,bpel-ql\src\main\java\org\apache\ode\ql\tree\BuilderFactory.java,0,0,0,0
org.apache.ode.ql.tree.nodes.AbstractLogicExpr, 0, 0, 0, 0, 0, 0, 0, 0, 0, 0, 0, 0, 0, 0,0.0,0.0,0.0,0.0,0.0,0.5,0.0,0.0,0.0,0.0,0.0,0.0,0.0,11,bpel-ql\src\main\java\org\apache\ode\ql\tree\nodes\AbstractLogicExpr.java,0,0,0,0
org.apache.ode.ql.tree.nodes.Conjunction, 0, 0, 0, 0, 0, 0, 0, 0, 0, 0, 0, 0, 0, 0,0.0,0.0,0.0,0.5,0.0,0.0,0.0,0.5,0.0,0.0,0.0,0.0,0.0,6,bpel-ql\src\main\java\org\apache\ode\ql\tree\nodes\Conjunction.java,0,0,0,0
org.apache.ode.ql.tree.nodes.Disjunction, 0, 0, 0, 0, 0, 1, 0, 0, 0, 0, 0, 0, 0, 1,0.0,0.0,0.0,0.5,0.0,0.0,0.0,0.5,0.0,0.0,0.0,0.0,0.0,5,bpel-ql\src\main\java\org\apache\ode\ql\tree\nodes\Disjunction.java,0,0,0,0
org.apache.ode.ql.tree.nodes.Equality, 0, 0, 0, 0, 0, 0, 0, 0, 0, 0, 0, 0, 0, 0,0.0,0.0,0.0,0.3333333333333333,0.0,0.0,0.0,0.3333333333333333,0.0,0.0,0.0,0.0,0.0,6,bpel-ql\src\main\java\org\apache\ode\ql\tree\nodes\Equality.java,0,0,0,0
org.apache.ode.ql.tree.nodes.Field, 0, 0, 0, 0, 0, 0, 0, 0, 0, 0, 0, 0, 0, 0,0.0,0.0,0.0,0.0,0.0,0.0,0.0,0.0,0.0,0.0,0.0,0.0,0.0,11,bpel-ql\src\main\java\org\apache\ode\ql\tree\nodes\Field.java,0,0,0,0
org.apache.ode.ql.tree.nodes.GE, 0, 0, 0, 0, 0, 0, 0, 0, 0, 0, 0, 0, 0, 0,0.0,0.0,0.0,0.3333333333333333,0.0,0.0,0.0,0.3333333333333333,0.0,0.0,0.0,0.0,0.0,6,bpel-ql\src\main\java\org\apache\ode\ql\tree\nodes\GE.java,0,0,0,0
org.apache.ode.ql.tree.nodes.Greater, 0, 0, 0, 0, 0, 0, 0, 0, 0, 0, 0, 0, 0, 0,0.0,0.0,0.0,0.3333333333333333,0.0,0.0,0.0,0.3333333333333333,0.0,0.0,0.0,0.0,0.0,6,bpel-ql\src\main\java\org\apache\ode\ql\tree\nodes\Greater.java,0,0,0,0
org.apache.ode.ql.tree.nodes.Identifier, 0, 0, 0, 0, 0, 0, 0, 0, 0, 0, 0, 0, 0, 0,0.0,0.0,0.0,0.0,0.0,0.0,0.0,0.0,0.0,0.0,0.0,0.0,0.0,6,bpel-ql\src\main\java\org\apache\ode\ql\tree\nodes\Identifier.java,0,0,0,0
org.apache.ode.ql.tree.nodes.IdentifierToValueCMP, 0, 0, 0, 0, 0, 0, 0, 0, 0, 0, 0, 0, 0, 0,0.0,0.0,0.0,0.0,0.0,0.0,0.0,0.0,0.0,0.0,0.0,0.0,0.0,15,bpel-ql\src\main\java\org\apache\ode\ql\tree\nodes\IdentifierToValueCMP.java,0,0,0,0
org.apache.ode.ql.tree.nodes.In, 0, 0, 0, 0, 0, 0, 0, 0, 0, 0, 0, 0, 0, 0,0.0,0.0,0.0,1.0,0.0,0.0,0.0,1.0,0.0,0.0,0.0,0.0,0.0,16,bpel-ql\src\main\java\org\apache\ode\ql\tree\nodes\In.java,0,0,0,0
org.apache.ode.ql.tree.nodes.LE, 0, 0, 0, 0, 0, 0, 0, 0, 0, 0, 0, 0, 0, 0,0.0,0.0,0.0,0.3333333333333333,0.0,0.0,0.0,0.3333333333333333,0.0,0.0,0.0,0.0,0.0,6,bpel-ql\src\main\java\org\apache\ode\ql\tree\nodes\LE.java,0,0,0,0
org.apache.ode.ql.tree.nodes.Less, 0, 0, 0, 0, 0, 0, 0, 0, 0, 0, 0, 0, 0, 0,0.0,0.0,0.0,0.3333333333333333,0.0,0.0,0.0,0.3333333333333333,0.0,0.0,0.0,0.0,0.0,6,bpel-ql\src\main\java\org\apache\ode\ql\tree\nodes\Less.java,0,0,0,0
org.apache.ode.ql.tree.nodes.Like, 0, 0, 0, 0, 0, 0, 0, 0, 0, 0, 0, 0, 0, 0,0.0,0.0,0.0,0.3333333333333333,0.0,0.0,0.0,0.3333333333333333,0.0,0.0,0.0,0.0,0.0,6,bpel-ql\src\main\java\org\apache\ode\ql\tree\nodes\Like.java,0,0,0,0
org.apache.ode.ql.tree.nodes.Limit, 0, 0, 0, 0, 0, 0, 0, 0, 0, 0, 0, 0, 0, 0,0.0,0.0,0.0,0.5,0.0,0.0,0.0,1.0,0.0,0.0,0.0,0.0,0.0,14,bpel-ql\src\main\java\org\apache\ode\ql\tree\nodes\Limit.java,0,0,0,0
org.apache.ode.ql.tree.nodes.LogicExprNode, 0, 0, 0, 0, 0, 0, 0, 0, 0, 0, 0, 0, 0, 0,0.0,0.0,0.0,0.0,0.0,0.0,0.0,0.0,0.0,0.0,0.0,0.0,0.0,14,bpel-ql\src\main\java\org\apache\ode\ql\tree\nodes\LogicExprNode.java,0,0,0,0
org.apache.ode.ql.tree.nodes.LogicNode, 0, 0, 0, 0, 0, 0, 0, 0, 0, 0, 0, 0, 0, 0,0.0,0.0,0.0,0.0,0.0,0.0,0.0,0.0,0.0,0.0,0.0,0.0,0.0,14,bpel-ql\src\main\java\org\apache\ode\ql\tree\nodes\LogicNode.java,0,0,0,0
org.apache.ode.ql.tree.nodes.Node, 0, 0, 0, 0, 0, 0, 0, 0, 0, 0, 0, 0, 0, 0,0.0,0.0,0.0,0.0,0.0,0.0,0.0,0.0,0.0,0.0,0.0,0.0,0.0,14,bpel-ql\src\main\java\org\apache\ode\ql\tree\nodes\Node.java,0,0,0,0
org.apache.ode.ql.tree.nodes.OrderBy, 0, 0, 0, 0, 0, 0, 0, 0, 0, 0, 0, 0, 0, 0,0.0,0.0,0.0,0.5,0.0,0.0,0.0,1.0,0.0,0.0,0.0,0.0,0.0,11,bpel-ql\src\main\java\org\apache\ode\ql\tree\nodes\OrderBy.java,0,0,0,0
org.apache.ode.ql.tree.nodes.OrderByElement, 0, 0, 0, 0, 0, 0, 0, 0, 0, 0, 0, 0, 0, 0,0.0,0.0,0.0,1.0,0.0,0.0,0.0,1.0,0.0,0.0,0.0,0.0,0.0,19,bpel-ql\src\main\java\org\apache\ode\ql\tree\nodes\OrderByElement.java,0,0,0,0
org.apache.ode.ql.tree.nodes.Property, 0, 0, 0, 0, 0, 0, 0, 0, 0, 0, 0, 0, 0, 0,0.0,0.0,0.0,0.0,0.0,0.0,0.0,0.0,0.0,0.0,0.0,0.0,0.0,14,bpel-ql\src\main\java\org\apache\ode\ql\tree\nodes\Property.java,0,0,0,0
org.apache.ode.ql.tree.nodes.Query, 0, 0, 0, 0, 0, 0, 0, 1, 0, 0, 0, 0, 0, 1,0.0,0.0,0.0,0.25,0.0,0.0,0.0,0.25,0.0,0.0,0.0,0.0,0.0,32,bpel-ql\src\main\java\org\apache\ode\ql\tree\nodes\Query.java,0,0,0,0
org.apache.ode.ql.tree.nodes.Value, 0, 0, 0, 0, 0, 0, 0, 0, 0, 0, 0, 0, 0, 0,0.0,0.0,0.0,0.1111111111111111,0.0,0.0,0.0,0.1111111111111111,0.0,0.0,0.0,0.0,0.0,17,bpel-ql\src\main\java\org\apache\ode\ql\tree\nodes\Value.java,0,0,0,0
org.apache.ode.ql.tree.nodes.ValuesHelper, 0, 0, 0, 0, 0, 0, 0, 0, 0, 0, 0, 0, 0, 0,0.0,0.0,0.0,0.0,0.0,0.0,0.0,0.0,0.0,0.0,0.0,0.0,0.0,10,bpel-ql\src\main\java\org\apache\ode\ql\tree\nodes\ValuesHelper.java,0,0,0,0
org.apache.ode.ra.ConnectionEventListenerSupport, 0, 0, 0, 0, 0, 0, 0, 0, 0, 0, 0, 0, 0, 0,0.0,0.0,0.0,1.0,0.0,0.0,0.0,1.0,0.0,0.0,0.0,0.0,0.0,30,jca-ra\src\main\java\org\apache\ode\ra\ConnectionEventListenerSupport.java,0,0,0,0
org.apache.ode.ra.DummyResourceAdapter, 0, 0, 0, 0, 0, 0, 0, 0, 0, 0, 0, 0, 0, 0,0.0,0.0,0.0,0.0,0.0,0.0,0.0,0.0,0.0,0.0,0.0,0.0,0.0,20,jca-ra\src\main\java\org\apache\ode\ra\DummyResourceAdapter.java,0,0,0,0
org.apache.ode.ra.OdeConnection, 0, 0, 0, 0, 0, 0, 0, 0, 0, 0, 0, 0, 0, 0,0.0,0.0,0.0,0.0,0.0,0.0,0.0,0.0,0.0,0.0,0.0,0.0,0.0,20,jca-ra\src\main\java\org\apache\ode\ra\OdeConnection.java,0,0,0,0
org.apache.ode.ra.OdeConnectionException, 0, 0, 0, 0, 0, 0, 0, 0, 0, 0, 0, 0, 0, 0,0.0,0.0,0.0,0.0,0.0,0.0,0.0,1.0,0.0,0.0,0.0,0.0,0.0,14,jca-ra\src\main\java\org\apache\ode\ra\OdeConnectionException.java,0,0,0,0
org.apache.ode.ra.OdeConnectionFactory, 0, 0, 0, 0, 0, 0, 0, 0, 0, 0, 0, 0, 0, 0,0.0,0.0,0.0,0.0,0.0,0.0,0.0,0.0,0.0,0.0,0.0,0.0,0.0,14,jca-ra\src\main\java\org\apache\ode\ra\OdeConnectionFactory.java,0,0,0,0
org.apache.ode.ra.OdeConnectionFactoryImpl, 0, 0, 0, 0, 0, 0, 0, 0, 0, 0, 0, 0, 0, 0,0.0,0.0,0.0,0.0,0.0,0.0,0.0,1.0,0.0,0.0,0.0,0.0,0.0,28,jca-ra\src\main\java\org\apache\ode\ra\OdeConnectionFactoryImpl.java,0,0,0,0
org.apache.ode.ra.OdeConnectionImpl, 0, 0, 0, 0, 0, 0, 0, 1, 0, 0, 0, 0, 0, 1,0.0,0.0,0.0,0.5,0.0,0.0,0.0,0.5,0.0,0.0,0.0,0.0,0.0,56,jca-ra\src\main\java\org\apache\ode\ra\OdeConnectionImpl.java,0,0,0,0
org.apache.ode.ra.OdeConnectionManager, 0, 0, 0, 0, 0, 0, 0, 0, 0, 0, 0, 0, 0, 0,0.0,0.0,0.0,1.0,0.0,0.0,0.0,1.0,0.0,0.0,0.0,0.0,0.0,8,jca-ra\src\main\java\org\apache\ode\ra\OdeConnectionManager.java,0,0,0,0
org.apache.ode.ra.OdeManagedConnectionFactory, 0, 0, 0, 0, 0, 0, 0, 1, 0, 0, 0, 0, 0, 1,0.0,0.0,0.0,0.5,0.0,0.0,0.0,0.5,0.0,0.0,0.0,0.0,0.0,65,jca-ra\src\main\java\org\apache\ode\ra\OdeManagedConnectionFactory.java,0,0,0,0
org.apache.ode.ra.OdeManagedConnectionImpl, 0, 0, 0, 1, 0, 0, 0, 1, 0, 0, 0, 0, 0, 2,0.0,0.0,0.0,0.0,0.0,0.0,0.0,0.5,0.0,0.0,0.0,0.0,0.0,79,jca-ra\src\main\java\org\apache\ode\ra\OdeManagedConnectionImpl.java,0,0,0,0
org.apache.ode.ra.ServiceProviderSession, 0, 0, 0, 0, 0, 0, 0, 0, 0, 0, 0, 0, 0, 0,0.0,0.0,0.0,0.0,0.0,0.0,0.0,0.0,0.0,0.0,0.0,0.0,0.0,79,jca-ra\src\main\java\org\apache\ode\ra\ServiceProviderSession.java,0,0,0,0
org.apache.ode.ra.transports.OdeTransport, 0, 0, 0, 0, 0, 0, 0, 0, 0, 0, 0, 0, 0, 0,0.0,0.0,0.0,0.0,0.0,0.0,0.0,0.0,0.0,0.0,0.0,0.0,0.0,79,jca-ra\src\main\java\org\apache\ode\ra\transports\OdeTransport.java,0,0,0,0
org.apache.ode.ra.transports.OdeTransportPipe, 0, 0, 0, 0, 0, 0, 0, 0, 0, 0, 0, 0, 0, 0,0.0,0.0,0.0,0.0,0.0,0.0,0.0,0.0,0.0,0.0,0.0,0.0,0.0,79,jca-ra\src\main\java\org\apache\ode\ra\transports\OdeTransportPipe.java,0,0,0,0
org.apache.ode.ra.transports.rmi.OdeRemote, 0, 0, 0, 0, 0, 0, 0, 0, 0, 0, 0, 0, 0, 0,0.0,0.0,0.0,0.0,0.0,0.0,0.0,0.0,0.0,0.0,0.0,0.0,0.0,79,jca-ra\src\main\java\org\apache\ode\ra\transports\rmi\OdeRemote.java,0,0,0,0
org.apache.ode.ra.transports.rmi.OdeTransportPipeRemote, 0, 0, 0, 0, 0, 0, 0, 0, 0, 0, 0, 0, 0, 0,0.0,0.0,0.0,0.0,0.0,0.0,0.0,0.0,0.0,0.0,0.0,0.0,0.0,79,jca-ra\src\main\java\org\apache\ode\ra\transports\rmi\OdeTransportPipeRemote.java,0,0,0,0
org.apache.ode.ra.transports.rmi.RMITransport, 0, 0, 0, 0, 0, 0, 0, 0, 0, 0, 0, 0, 0, 0,0.0,0.0,0.0,0.0,0.0,0.0,0.0,0.0,0.0,0.0,0.0,0.0,0.0,15,jca-ra\src\main\java\org\apache\ode\ra\transports\rmi\RMITransport.java,0,0,0,0
org.apache.ode.scheduler.simple.DatabaseDelegate, 0, 0, 0, 0, 0, 0, 0, 0, 0, 0, 0, 0, 0, 0,0.0,0.0,0.0,0.0,0.0,0.0,0.0,0.0,0.0,0.0,0.0,0.0,0.0,15,scheduler-simple\src\main\java\org\apache\ode\scheduler\simple\DatabaseDelegate.java,0,1,0,1
org.apache.ode.scheduler.simple.DatabaseException, 0, 0, 0, 0, 0, 0, 0, 0, 0, 0, 0, 0, 0, 0,0.0,0.0,0.0,0.0,0.0,0.0,0.0,0.0,0.0,0.0,0.0,0.0,0.0,12,scheduler-simple\src\main\java\org\apache\ode\scheduler\simple\DatabaseException.java,0,0,0,0
org.apache.ode.scheduler.simple.GeronimoDelegateSupport, 0, 0, 0, 0, 0, 0, 0, 1, 0, 0, 0, 0, 0, 1,0.5,0.0,0.0,0.5,0.0,0.0,0.0,0.0,0.0,0.0,0.0,0.0,0.0,47,scheduler-simple\src\test\java\org\apache\ode\scheduler\simple\GeronimoDelegateSupport.java,0,0,0,0
org.apache.ode.scheduler.simple.JobComparatorByDate, 0, 0, 0, 0, 0, 0, 0, 0, 0, 0, 0, 0, 0, 0,0.0,0.0,1.0,0.0,0.0,0.0,0.0,0.0,0.0,0.0,0.0,0.0,0.0,8,scheduler-simple\src\main\java\org\apache\ode\scheduler\simple\JobComparatorByDate.java,0,0,1,2
org.apache.ode.scheduler.simple.JobNoLongerInDbException, 0, 0, 0, 0, 0, 0, 0, 0, 0, 0, 0, 0, 0, 0,0.0,0.0,0.0,0.0,0.0,0.0,0.0,0.0,0.0,0.0,0.0,0.0,0.0,6,scheduler-simple\src\main\java\org\apache\ode\scheduler\simple\JobNoLongerInDbException.java,0,0,0,0
org.apache.ode.scheduler.simple.RetriesTest, 0, 0, 0, 0, 0, 0, 0, 0, 0, 0, 0, 0, 0, 0,0.0,0.0,0.0,0.0,0.0,0.0,0.0,1.0,0.0,0.0,0.0,0.0,0.0,65,scheduler-simple\src\test\java\org\apache\ode\scheduler\simple\RetriesTest.java,0,0,0,0
org.apache.ode.scheduler.simple.SchedulerThreadTest, 0, 0, 0, 0, 0, 0, 0, 0, 0, 0, 0, 0, 0, 0,0.0,0.0,1.0,0.0,0.0,0.0,0.0,0.0,0.0,0.0,0.0,0.0,0.0,63,scheduler-simple\src\test\java\org\apache\ode\scheduler\simple\SchedulerThreadTest.java,0,16,0,16
org.apache.ode.scheduler.simple.SimpleSchedulerTest, 0, 0, 0, 0, 0, 0, 0, 0, 0, 0, 0, 0, 0, 0,0.0,0.0,0.0,0.0,0.0,0.0,0.0,0.0,0.0,0.0,0.0,0.0,0.0,170,scheduler-simple\src\test\java\org\apache\ode\scheduler\simple\SimpleSchedulerTest.java,0,0,0,0
org.apache.ode.scheduler.simple.Task, 0, 0, 1, 0, 0, 0, 0, 0, 0, 0, 0, 0, 0, 1,0.0,0.0,0.0,0.0,0.0,0.0,0.0,0.0,0.0,0.0,0.0,0.0,0.0,6,scheduler-simple\src\main\java\org\apache\ode\scheduler\simple\Task.java,0,4,0,4
org.apache.ode.scheduler.simple.TaskRunner, 0, 0, 0, 0, 0, 0, 0, 0, 0, 0, 0, 0, 0, 0,0.0,0.0,0.0,0.0,0.0,0.0,0.0,0.0,0.0,0.0,0.0,0.0,0.0,6,scheduler-simple\src\main\java\org\apache\ode\scheduler\simple\TaskRunner.java,0,0,0,0
org.apache.ode.store.ConfStoreConnection, 0, 0, 0, 0, 0, 0, 0, 0, 0, 0, 0, 0, 0, 0,0.0,0.0,0.0,0.0,0.0,0.0,0.0,0.0,0.0,0.0,0.0,0.0,0.0,6,bpel-store\src\main\java\org\apache\ode\store\ConfStoreConnection.java,0,0,0,0
org.apache.ode.store.ConfStoreConnectionFactory, 0, 0, 0, 0, 0, 0, 0, 0, 0, 0, 0, 0, 0, 0,0.0,0.0,0.0,0.0,0.0,0.0,0.0,0.0,0.0,0.0,0.0,0.0,0.0,6,bpel-store\src\main\java\org\apache\ode\store\ConfStoreConnectionFactory.java,0,0,0,0
org.apache.ode.store.DeploymentUnitDAO, 0, 0, 0, 0, 0, 0, 0, 0, 0, 0, 0, 0, 0, 0,0.0,0.0,0.0,0.0,0.0,0.0,0.0,0.0,0.0,0.0,0.0,0.0,0.0,6,bpel-store\src\main\java\org\apache\ode\store\DeploymentUnitDAO.java,0,0,0,0
org.apache.ode.store.DeploymentUnitTest, 0, 0, 0, 0, 0, 0, 0, 0, 0, 0, 0, 0, 0, 0,0.0,0.0,0.0,0.0,0.0,0.0,0.0,0.0,0.0,0.0,0.0,0.0,0.0,14,bpel-store\src\test\java\org\apache\ode\store\DeploymentUnitTest.java,0,0,0,0
org.apache.ode.store.DocumentEntityResolver, 0, 0, 0, 0, 0, 0, 0, 0, 0, 0, 0, 0, 0, 0,0.0,0.0,0.0,0.0,0.0,0.0,0.0,0.0,0.0,0.0,0.0,0.0,0.0,20,bpel-store\src\main\java\org\apache\ode\store\DocumentEntityResolver.java,0,0,0,0
org.apache.ode.store.DocumentRegistry, 0, 0, 0, 0, 0, 0, 0, 0, 0, 0, 0, 0, 0, 0,0.0,0.0,0.0,0.0,0.0,0.0,0.0,0.0,0.0,0.0,0.0,0.0,0.0,34,bpel-store\src\main\java\org\apache\ode\store\DocumentRegistry.java,0,0,0,0
org.apache.ode.store.Messages, 0, 0, 0, 1, 0, 0, 0, 1, 0, 0, 0, 0, 0, 2,0.0,0.0,0.0,0.0,0.0,0.0,0.0,0.0,0.0,0.0,0.0,0.0,0.0,134,bpel-store\src\main\java\org\apache\ode\store\Messages.java,0,0,0,0
org.apache.ode.store.ProcessCleanupConfImpl, 1, 0, 0, 0, 0, 0, 0, 0, 0, 0, 0, 0, 0, 1,0.0,0.0,0.0,0.0,0.0,0.0,0.0,0.0,0.0,0.0,0.0,0.0,0.0,46,bpel-store\src\main\java\org\apache\ode\store\ProcessCleanupConfImpl.java,0,0,0,0
org.apache.ode.store.ProcessConfDAO, 0, 0, 0, 0, 0, 0, 0, 0, 0, 0, 0, 0, 0, 0,0.0,0.0,0.0,0.0,0.0,0.0,0.0,0.0,0.0,0.0,0.0,0.0,0.0,46,bpel-store\src\main\java\org\apache\ode\store\ProcessConfDAO.java,0,0,0,0
org.apache.ode.store.ProcessStoreTest, 0, 0, 0, 0, 0, 0, 0, 0, 0, 0, 0, 0, 0, 0,0.0,0.0,0.0,0.0,0.0,0.0,0.0,0.0,0.0,0.0,0.0,0.0,0.0,67,bpel-store\src\test\java\org\apache\ode\store\ProcessStoreTest.java,0,0,0,0
org.apache.ode.store.ProcessStoreTransactionProvider, 0, 0, 0, 0, 0, 0, 0, 0, 0, 0, 0, 0, 0, 0,0.0,0.0,0.0,0.0,0.0,0.0,0.0,0.0,0.0,0.0,0.0,0.0,0.0,67,bpel-store\src\main\java\org\apache\ode\store\ProcessStoreTransactionProvider.java,0,0,0,0
org.apache.ode.store.hib.ConfStoreConnectionHib, 0, 0, 0, 0, 0, 0, 0, 0, 0, 0, 0, 0, 0, 0,0.0,0.0,0.0,0.0,0.0,0.0,0.0,0.5,0.0,0.0,0.0,0.0,0.0,57,bpel-store\src\main\java\org\apache\ode\store\hib\ConfStoreConnectionHib.java,0,0,0,0
org.apache.ode.store.hib.DaoTest, 0, 0, 0, 0, 0, 0, 0, 0, 0, 0, 0, 0, 0, 0,0.0,0.0,0.0,0.0,0.0,0.0,0.0,0.0,0.0,0.0,0.0,0.0,0.0,135,bpel-store\src\test\java\org\apache\ode\store\hib\DaoTest.java,0,0,0,0
org.apache.ode.store.hib.DeploymentUnitDaoImpl, 0, 0, 0, 0, 0, 0, 0, 1, 0, 0, 0, 0, 0, 1,0.0,0.0,0.0,0.0,0.0,0.0,0.0,0.0,0.0,0.0,0.0,0.0,0.0,59,bpel-store\src\main\java\org\apache\ode\store\hib\DeploymentUnitDaoImpl.java,0,0,0,0
org.apache.ode.store.hib.HibObj, 0, 0, 0, 0, 0, 0, 0, 0, 0, 0, 0, 0, 0, 0,0.0,0.0,0.0,0.0,0.0,0.0,0.0,0.5,0.0,0.0,0.0,0.0,0.0,8,bpel-store\src\main\java\org\apache\ode\store\hib\HibObj.java,0,0,0,0
org.apache.ode.store.hib.VersionTrackerDAOImpl, 0, 0, 0, 0, 0, 0, 0, 0, 0, 0, 0, 0, 0, 0,0.0,0.0,0.0,0.0,0.0,0.0,0.0,0.0,0.0,0.0,0.0,0.0,0.0,16,bpel-store\src\main\java\org\apache\ode\store\hib\VersionTrackerDAOImpl.java,0,0,0,0
org.apache.ode.store.jpa.ConfStoreConnectionJpa, 0, 0, 0, 0, 0, 0, 0, 0, 0, 0, 0, 0, 0, 0,0.0,0.0,0.0,0.0,0.0,0.0,0.0,0.5,0.0,0.0,0.0,0.0,0.0,40,bpel-store\src\main\java\org\apache\ode\store\jpa\ConfStoreConnectionJpa.java,0,0,0,0
org.apache.ode.store.jpa.DeploymentUnitDaoImpl, 0, 0, 0, 0, 0, 0, 0, 1, 0, 0, 0, 0, 0, 1,0.0,0.0,0.0,0.0,0.0,0.0,0.0,0.0,0.0,0.0,0.0,0.0,0.0,65,bpel-store\src\main\java\org\apache\ode\store\jpa\DeploymentUnitDaoImpl.java,0,0,0,0
org.apache.ode.store.jpa.JpaObj, 0, 0, 0, 0, 0, 0, 0, 0, 0, 0, 0, 0, 0, 0,0.0,0.0,0.0,0.0,0.0,0.0,0.0,1.0,0.0,0.0,0.0,0.0,0.0,8,bpel-store\src\main\java\org\apache\ode\store\jpa\JpaObj.java,0,0,0,0
org.apache.ode.store.jpa.ProcessConfPropertyDaoImpl, 0, 0, 0, 0, 0, 0, 0, 0, 0, 0, 0, 0, 0, 0,0.0,0.0,0.0,0.0,0.0,0.0,0.0,0.0,0.0,0.0,0.0,0.0,0.0,18,bpel-store\src\main\java\org\apache\ode\store\jpa\ProcessConfPropertyDaoImpl.java,0,0,0,0
org.apache.ode.store.jpa.VersionTrackerDAOImpl, 0, 0, 0, 0, 0, 0, 0, 0, 0, 0, 0, 0, 0, 0,0.0,0.0,0.0,0.0,0.0,0.0,0.0,0.0,0.0,0.0,0.0,0.0,0.0,10,bpel-store\src\main\java\org\apache\ode\store\jpa\VersionTrackerDAOImpl.java,0,0,0,0
org.apache.ode.test.BasicActivities20Test, 0, 0, 0, 0, 0, 0, 0, 0, 0, 0, 0, 0, 0, 0,0.0,0.0,0.0,0.0,0.0,0.0,0.0,0.0,0.0,0.0,0.0,0.0,0.0,65,bpel-test\src\test\java\org\apache\ode\test\BasicActivities20Test.java,0,0,0,0
org.apache.ode.test.BindingContextImpl, 0, 0, 0, 0, 0, 0, 0, 1, 0, 0, 0, 0, 0, 1,0.0,0.0,0.0,0.0,0.0,0.0,0.0,0.0,0.0,0.0,0.0,0.0,0.0,23,bpel-test\src\main\java\org\apache\ode\test\BindingContextImpl.java,0,0,0,0
org.apache.ode.test.CompensationHandling20Test, 0, 0, 0, 0, 0, 0, 0, 0, 0, 0, 0, 0, 0, 0,0.0,0.0,0.0,0.0,0.0,0.0,0.0,0.0,0.0,0.0,0.0,0.0,0.0,16,bpel-test\src\test\java\org\apache\ode\test\CompensationHandling20Test.java,0,0,0,0
org.apache.ode.test.DataHandling20Test, 0, 0, 0, 1, 0, 0, 0, 0, 0, 0, 0, 0, 0, 1,0.0,0.0,0.0,0.0,0.0,0.0,0.0,0.0,0.0,0.0,0.0,0.0,0.0,86,bpel-test\src\test\java\org\apache\ode\test\DataHandling20Test.java,0,0,0,0
org.apache.ode.test.ExternalVariableTest, 0, 0, 0, 0, 0, 0, 0, 0, 0, 0, 0, 0, 0, 0,0.0,0.0,0.0,0.0,0.0,0.0,0.0,0.0,0.0,0.0,0.0,0.0,0.0,52,bpel-test\src\test\java\org\apache\ode\test\ExternalVariableTest.java,0,0,0,0
org.apache.ode.test.FaultHandling20Test, 0, 0, 0, 0, 0, 0, 0, 0, 0, 0, 0, 0, 0, 0,0.0,0.0,0.0,0.0,0.0,0.0,0.0,0.0,0.0,0.0,0.0,0.0,0.0,14,bpel-test\src\test\java\org\apache\ode\test\FaultHandling20Test.java,0,0,0,0
org.apache.ode.test.MessageRouting20Test, 0, 0, 0, 1, 0, 0, 0, 0, 0, 0, 0, 0, 0, 1,0.0,0.0,0.0,0.0,0.0,0.0,0.0,0.0,0.0,0.0,0.0,0.0,0.0,65,bpel-test\src\test\java\org\apache\ode\test\MessageRouting20Test.java,0,0,0,0
org.apache.ode.test.PartnerRoleChannelImpl, 0, 0, 0, 0, 0, 0, 0, 0, 0, 0, 0, 0, 0, 0,0.0,0.0,0.0,0.0,0.0,0.0,0.0,1.0,0.0,0.0,0.0,0.0,0.0,17,bpel-test\src\main\java\org\apache\ode\test\PartnerRoleChannelImpl.java,0,0,0,0
org.apache.ode.test.PubSubTest, 0, 0, 0, 0, 0, 0, 0, 0, 0, 0, 0, 0, 0, 0,0.0,0.0,0.0,0.0,0.0,0.0,0.0,0.0,0.0,0.0,0.0,0.0,0.0,12,bpel-test\src\test\java\org\apache\ode\test\PubSubTest.java,0,0,0,0
org.apache.ode.test.StructuredActivities20Test, 0, 0, 0, 0, 0, 0, 0, 0, 0, 0, 0, 0, 0, 0,0.0,0.0,0.0,0.0,0.0,0.0,0.0,0.0,0.0,0.0,0.0,0.0,0.0,17,bpel-test\src\test\java\org\apache\ode\test\StructuredActivities20Test.java,0,0,0,0
org.apache.ode.test.VersionedRedeployTest, 0, 0, 0, 0, 0, 0, 0, 0, 0, 0, 0, 0, 0, 0,0.0,0.0,0.0,0.0,0.0,0.0,0.0,0.0,0.0,0.0,0.0,0.0,0.0,46,bpel-test\src\test\java\org\apache\ode\test\VersionedRedeployTest.java,0,0,0,0
org.apache.ode.tools.ClineCommandContext, 0, 0, 0, 0, 0, 0, 0, 0, 0, 0, 0, 0, 0, 0,0.0,0.0,0.0,0.0,0.0,0.0,0.0,0.0,0.0,0.0,0.0,0.0,0.0,39,tools\src\main\java\org\apache\ode\tools\ClineCommandContext.java,0,0,0,0
org.apache.ode.tools.Command, 0, 0, 0, 0, 0, 0, 0, 0, 0, 0, 0, 0, 0, 0,0.0,0.0,0.0,0.0,0.0,0.0,0.0,0.0,0.0,0.0,0.0,0.0,0.0,39,tools\src\main\java\org\apache\ode\tools\Command.java,0,0,0,0
org.apache.ode.tools.CommandContext, 0, 0, 0, 0, 0, 0, 0, 0, 0, 0, 0, 0, 0, 0,0.0,0.0,0.0,0.0,0.0,0.0,0.0,0.0,0.0,0.0,0.0,0.0,0.0,39,tools\src\main\java\org\apache\ode\tools\CommandContext.java,0,0,0,0
org.apache.ode.tools.CommandTask, 0, 0, 0, 0, 0, 0, 0, 0, 0, 0, 0, 0, 0, 0,0.0,0.0,0.0,0.0,0.0,0.0,0.0,0.0,0.0,0.0,0.0,0.0,0.0,35,tools\src\main\java\org\apache\ode\tools\CommandTask.java,0,0,0,0
org.apache.ode.tools.ExecutionException, 0, 0, 0, 0, 0, 0, 0, 0, 0, 0, 0, 0, 0, 0,0.0,0.0,0.0,0.0,0.0,0.0,0.0,0.0,0.0,0.0,0.0,0.0,0.0,12,tools\src\main\java\org\apache\ode\tools\ExecutionException.java,0,0,0,0
org.apache.ode.tools.ToolMessages, 0, 0, 0, 0, 0, 0, 0, 0, 0, 0, 0, 0, 0, 0,0.0,0.0,0.0,0.0,0.0,0.0,0.0,0.0,0.0,0.0,0.0,0.0,0.0,11,tools\src\main\java\org\apache\ode\tools\ToolMessages.java,0,0,0,0
org.apache.ode.tools.bpelc.BpelCompileCommand, 0, 0, 0, 0, 0, 0, 0, 0, 0, 0, 0, 0, 0, 0,0.0,0.0,0.0,0.0,0.0,0.0,0.0,0.0,0.0,0.0,0.0,0.0,0.0,76,tools\src\main\java\org\apache\ode\tools\bpelc\BpelCompileCommand.java,0,0,0,0
org.apache.ode.tools.bpelc.BpelCompileCommandMessages, 0, 0, 0, 0, 0, 0, 0, 0, 0, 0, 0, 0, 0, 0,0.0,0.0,0.0,0.0,0.0,0.0,0.0,0.0,0.0,0.0,0.0,0.0,0.0,58,tools\src\main\java\org\apache\ode\tools\bpelc\BpelCompileCommandMessages.java,0,0,0,0
org.apache.ode.tools.bpelc.ant.BpelCTask, 0, 0, 0, 0, 0, 0, 0, 0, 0, 0, 0, 0, 0, 0,0.0,0.0,0.0,0.0,0.0,0.0,0.0,0.0,0.0,0.0,0.0,0.0,0.0,22,tools\src\main\java\org\apache\ode\tools\bpelc\ant\BpelCTask.java,0,0,0,0
org.apache.ode.tools.bpelc.ant.BpelSrcElement, 0, 0, 0, 0, 0, 0, 0, 0, 0, 0, 0, 0, 0, 0,0.0,0.0,0.0,0.0,0.0,0.0,0.0,0.0,0.0,0.0,0.0,0.0,0.0,11,tools\src\main\java\org\apache\ode\tools\bpelc\ant\BpelSrcElement.java,0,0,0,0
org.apache.ode.tools.bpelc.ant.WsdlImportElement, 0, 0, 0, 0, 0, 0, 0, 0, 0, 0, 0, 0, 0, 0,0.0,0.0,0.0,0.0,0.0,0.0,0.0,0.0,0.0,0.0,0.0,0.0,0.0,11,tools\src\main\java\org\apache\ode\tools\bpelc\ant\WsdlImportElement.java,0,0,0,0
org.apache.ode.tools.bpelc.cline.BpelC, 0, 0, 0, 0, 0, 0, 0, 0, 0, 0, 0, 0, 0, 0,0.0,0.0,0.0,0.16666666666666666,0.0,0.0,0.0,0.3333333333333333,0.0,0.0,0.0,0.0,0.0,62,tools\src\main\java\org\apache\ode\tools\bpelc\cline\BpelC.java,0,0,0,0
org.apache.ode.utils.DOMUtilsTest, 0, 0, 0, 0, 0, 0, 0, 0, 0, 0, 0, 0, 0, 0,0.0,0.0,0.0,1.0,0.0,0.0,0.0,0.0,0.0,0.0,0.0,0.0,0.0,67,utils\src\test\java\org\apache\ode\utils\DOMUtilsTest.java,0,0,0,0
org.apache.ode.utils.DbIsolation, 0, 0, 0, 0, 0, 0, 0, 0, 0, 0, 0, 0, 0, 0,0.0,0.0,0.0,0.0,0.0,0.0,0.0,0.0,0.0,0.0,0.0,0.0,0.0,28,utils\src\main\java\org\apache\ode\utils\DbIsolation.java,0,0,0,0
org.apache.ode.utils.GUID, 1, 0, 0, 1, 0, 0, 0, 0, 0, 0, 0, 0, 0, 2,0.0,0.0,0.0,0.3333333333333333,0.0,0.0,0.0,0.5,0.0,0.0,0.0,0.0,0.0,145,utils\src\main\java\org\apache\ode\utils\GUID.java,0,0,0,0
org.apache.ode.utils.ISO8601DateParserTest, 0, 0, 0, 0, 0, 0, 0, 1, 0, 0, 0, 0, 0, 1,0.0,0.0,0.0,0.0,0.0,0.0,0.0,0.0,0.0,0.0,0.0,0.0,0.0,55,utils\src\test\java\org\apache\ode\utils\ISO8601DateParserTest.java,0,0,0,0
org.apache.ode.utils.InternPool, 0, 0, 0, 0, 0, 0, 0, 0, 0, 0, 0, 0, 0, 0,0.0,0.0,0.0,0.0,0.0,0.0,0.0,0.0,0.0,0.0,0.0,0.0,0.0,43,utils\src\main\java\org\apache\ode\utils\InternPool.java,0,0,0,0
org.apache.ode.utils.NamespaceContextImplTest, 0, 0, 0, 0, 0, 0, 0, 0, 0, 0, 0, 0, 0, 0,0.0,0.0,0.0,0.0,0.0,0.0,0.0,0.0,0.0,0.0,0.0,0.0,0.0,63,utils\src\test\java\org\apache\ode\utils\NamespaceContextImplTest.java,0,0,0,0
org.apache.ode.utils.Namespaces, 0, 0, 0, 1, 0, 0, 0, 0, 0, 0, 0, 0, 0, 1,0.0,0.0,0.0,0.0,0.0,0.0,0.0,0.0,0.0,0.0,0.0,0.0,0.0,34,utils\src\main\java\org\apache\ode\utils\Namespaces.java,0,0,0,0
org.apache.ode.utils.ProcessMutex, 0, 0, 0, 0, 0, 0, 0, 0, 0, 0, 0, 0, 0, 0,1.0,0.0,0.0,1.0,0.0,0.0,0.0,0.0,0.0,0.0,0.0,0.0,0.0,44,utils\src\main\java\org\apache\ode\utils\ProcessMutex.java,0,0,0,0
org.apache.ode.utils.QNameUtils, 0, 0, 0, 0, 0, 0, 0, 0, 0, 0, 0, 0, 0, 0,0.0,0.0,0.0,0.3333333333333333,0.0,0.0,0.0,0.6666666666666666,0.0,0.0,0.0,0.0,0.0,17,utils\src\main\java\org\apache\ode\utils\QNameUtils.java,0,0,0,0
org.apache.ode.utils.RelativeDateParser, 0, 0, 0, 0, 0, 0, 0, 0, 0, 0, 0, 0, 0, 0,0.0,0.0,0.0,0.0,0.0,0.0,0.0,0.0,0.0,0.0,0.0,0.0,0.0,88,utils\src\main\java\org\apache\ode\utils\RelativeDateParser.java,0,0,0,0
org.apache.ode.utils.SchemaBucket, 0, 0, 0, 0, 0, 0, 0, 0, 0, 0, 0, 0, 0, 0,0.0,0.0,0.0,1.0,0.0,0.0,0.0,0.0,0.0,0.0,0.0,0.0,0.0,5,utils\src\main\java\org\apache\ode\utils\SchemaBucket.java,0,0,0,0
org.apache.ode.utils.SerializableElement, 0, 0, 0, 0, 0, 0, 0, 0, 0, 0, 0, 0, 0, 0,0.0,0.0,0.0,0.0,0.0,0.0,0.0,0.0,0.0,0.0,0.0,0.0,0.0,24,utils\src\main\java\org\apache\ode\utils\SerializableElement.java,0,0,0,0
org.apache.ode.utils.SerializableUtils, 0, 0, 0, 0, 0, 0, 0, 0, 0, 0, 0, 0, 0, 0,0.0,0.0,0.0,0.0,0.0,0.0,0.0,0.0,0.0,0.0,0.0,0.0,0.0,57,utils\src\main\java\org\apache\ode\utils\SerializableUtils.java,0,0,0,0
org.apache.ode.utils.SystemConfigurationException, 0, 0, 0, 0, 0, 0, 0, 0, 0, 0, 0, 0, 0, 0,0.0,0.0,0.0,0.0,0.0,0.0,0.0,0.0,0.0,0.0,0.0,0.0,0.0,12,utils\src\main\java\org\apache\ode\utils\SystemConfigurationException.java,0,0,0,0
org.apache.ode.utils.TestResources, 0, 0, 0, 1, 0, 0, 0, 0, 0, 0, 0, 0, 0, 1,0.0,0.0,0.0,0.0,0.0,0.0,0.0,0.3333333333333333,0.0,0.0,0.0,0.0,0.0,144,utils\src\test\java\org\apache\ode\utils\TestResources.java,0,0,0,0
org.apache.ode.utils.VersionMessages, 0, 0, 0, 0, 0, 0, 0, 0, 0, 0, 0, 0, 0, 0,0.0,0.0,0.0,0.0,0.0,0.0,0.0,0.0,0.0,0.0,0.0,0.0,0.0,8,utils\src\main\java\org\apache\ode\utils\VersionMessages.java,0,0,1,2
org.apache.ode.utils.WatchDog, 0, 0, 0, 1, 0, 0, 0, 0, 0, 0, 0, 0, 0, 1,0.0,0.0,0.0,1.0,0.0,0.0,0.0,1.0,0.0,0.0,0.0,0.0,0.0,185,utils\src\main\java\org\apache\ode\utils\WatchDog.java,0,0,0,0
org.apache.ode.utils.XMLParserUtilsTest, 0, 0, 0, 0, 0, 0, 0, 1, 0, 0, 0, 0, 0, 1,0.0,0.0,0.0,0.5,0.0,0.0,0.0,0.0,0.0,0.0,0.0,0.0,0.0,80,utils\src\test\java\org\apache\ode\utils\XMLParserUtilsTest.java,0,0,0,0
org.apache.ode.utils.cli.Argument, 0, 0, 0, 0, 0, 0, 0, 1, 0, 0, 0, 0, 0, 1,0.0,0.0,0.0,0.0,0.0,0.0,0.0,0.6666666666666666,0.0,0.0,0.0,0.0,0.0,43,utils\src\main\java\org\apache\ode\utils\cli\Argument.java,0,0,0,0
org.apache.ode.utils.cli.BaseCommandlineTool, 0, 0, 0, 1, 0, 0, 0, 0, 0, 0, 0, 0, 0, 1,0.0,0.0,0.0,0.0,0.0,0.0,0.0,0.6666666666666666,0.0,0.0,0.0,0.0,0.0,101,utils\src\main\java\org\apache\ode\utils\cli\BaseCommandlineTool.java,0,0,0,0
org.apache.ode.utils.cli.CommandLineMessages, 0, 0, 0, 0, 0, 0, 0, 1, 0, 0, 0, 0, 0, 1,0.0,0.0,0.0,0.5,0.0,0.0,0.0,0.0,0.0,0.0,0.0,0.0,0.0,39,utils\src\main\java\org\apache\ode\utils\cli\CommandLineMessages.java,0,0,0,0
org.apache.ode.utils.cli.CommandlineFragment, 0, 0, 0, 0, 0, 0, 0, 0, 0, 0, 0, 0, 0, 0,0.0,0.0,0.0,0.0,0.0,0.0,0.0,0.0,0.0,0.0,0.0,0.0,0.0,39,utils\src\main\java\org\apache\ode\utils\cli\CommandlineFragment.java,0,0,0,0
org.apache.ode.utils.cli.CommandlineSyntaxException, 0, 0, 0, 0, 0, 0, 0, 0, 0, 0, 0, 0, 0, 0,0.0,0.0,0.0,0.0,0.0,0.0,0.0,1.0,0.0,0.0,0.0,0.0,0.0,6,utils\src\main\java\org\apache\ode\utils\cli\CommandlineSyntaxException.java,0,0,0,0
org.apache.ode.utils.cli.CommandlineTest, 0, 0, 0, 0, 0, 0, 0, 1, 0, 0, 0, 0, 0, 1,0.0,0.0,0.0,0.0,0.0,0.0,0.0,0.8333333333333334,0.0,0.0,0.0,0.0,0.0,380,utils\src\test\java\org\apache\ode\utils\cli\CommandlineTest.java,0,0,0,0
org.apache.ode.utils.cli.Flag, 0, 0, 0, 0, 0, 0, 0, 1, 0, 0, 0, 0, 0, 1,0.0,0.0,0.0,0.3333333333333333,0.0,0.0,0.0,0.3333333333333333,0.0,0.0,0.0,0.0,0.0,42,utils\src\main\java\org\apache\ode\utils\cli\Flag.java,0,0,0,0
org.apache.ode.utils.cli.FlagWithArgument, 0, 0, 0, 0, 0, 0, 0, 1, 0, 0, 0, 0, 0, 1,0.0,0.0,0.0,0.0,0.0,0.0,0.0,0.3333333333333333,0.0,0.0,0.0,0.0,0.0,58,utils\src\main\java\org\apache\ode\utils\cli\FlagWithArgument.java,0,0,0,0
org.apache.ode.utils.cli.LastArgument, 0, 0, 0, 0, 0, 0, 0, 1, 0, 0, 0, 0, 0, 1,0.0,0.0,0.0,0.0,0.0,0.0,0.0,1.0,0.0,0.0,0.0,0.0,0.0,15,utils\src\main\java\org\apache\ode\utils\cli\LastArgument.java,0,0,0,0
org.apache.ode.utils.cli.MultiArgument, 0, 0, 0, 0, 0, 0, 0, 1, 0, 0, 0, 0, 0, 1,0.0,0.0,0.0,0.0,0.0,0.0,0.0,0.3333333333333333,0.0,0.0,0.0,0.0,0.0,44,utils\src\main\java\org\apache\ode\utils\cli\MultiArgument.java,0,0,0,0
org.apache.ode.utils.fs.FileUtilsTest, 0, 0, 0, 0, 0, 0, 0, 0, 0, 0, 0, 0, 0, 0,0.0,0.0,0.0,0.0,0.0,0.0,0.0,0.0,0.0,0.0,0.0,0.0,0.0,41,utils\src\test\java\org\apache\ode\utils\fs\FileUtilsTest.java,0,0,0,0
org.apache.ode.utils.http.HttpUtils, 0, 0, 0, 0, 0, 0, 0, 0, 0, 0, 0, 0, 0, 0,0.0,0.0,0.0,0.0,0.0,0.0,0.0,0.0,0.0,0.0,0.0,0.0,0.0,20,utils\src\main\java\org\apache\ode\utils\http\HttpUtils.java,0,0,0,0
org.apache.ode.utils.http.StatusCode, 0, 0, 0, 1, 0, 0, 0, 0, 0, 0, 0, 0, 0, 1,0.0,0.0,0.0,0.0,0.0,0.0,0.0,0.0,0.0,0.0,0.0,0.0,0.0,42,utils\src\main\java\org\apache\ode\utils\http\StatusCode.java,0,0,0,0
org.apache.ode.utils.msg.CommonMessages, 0, 0, 0, 0, 0, 0, 0, 0, 0, 0, 0, 0, 0, 0,0.0,0.0,0.0,0.0,0.0,0.0,0.0,0.0,0.0,0.0,0.0,0.0,0.0,29,utils\src\main\java\org\apache\ode\utils\msg\CommonMessages.java,0,0,0,0
org.apache.ode.utils.msg.MessageBundle, 0, 0, 0, 0, 0, 0, 0, 0, 0, 0, 0, 0, 0, 0,0.0,0.0,0.0,0.18181818181818182,0.0,0.0,0.0,0.3181818181818182,0.0,0.0,0.0,0.0,0.0,34,utils\src\main\java\org\apache\ode\utils\msg\MessageBundle.java,0,0,0,0
org.apache.ode.utils.msg.MessageBundleTest, 0, 0, 0, 0, 0, 0, 0, 0, 0, 0, 0, 0, 0, 0,0.0,0.0,0.0,0.0,0.0,0.0,0.0,0.0,0.0,0.0,0.0,0.0,0.0,31,utils\src\test\java\org\apache\ode\utils\msg\MessageBundleTest.java,0,0,0,0
org.apache.ode.utils.msg.MessageBundleTestMessages, 0, 0, 0, 0, 0, 0, 0, 0, 0, 0, 0, 0, 0, 0,0.0,0.0,0.0,0.0,0.0,0.0,0.0,0.0,0.0,0.0,0.0,0.0,0.0,8,utils\src\test\java\org\apache\ode\utils\msg\MessageBundleTestMessages.java,0,0,0,0
org.apache.ode.utils.msg.MessageBundleTestMessages_de, 0, 0, 0, 0, 0, 0, 0, 0, 0, 0, 0, 0, 0, 0,0.0,0.0,0.0,0.0,0.0,0.0,0.0,0.0,0.0,0.0,0.0,0.0,0.0,5,utils\src\test\java\org\apache\ode\utils\msg\MessageBundleTestMessages_de.java,0,0,0,0
org.apache.ode.utils.rmi.RMIConstants, 0, 0, 0, 0, 0, 0, 0, 0, 0, 0, 0, 0, 0, 0,0.0,0.0,0.0,0.0,0.0,0.0,0.0,0.0,0.0,0.0,0.0,0.0,0.0,15,utils\src\main\java\org\apache\ode\utils\rmi\RMIConstants.java,0,0,0,0
org.apache.ode.utils.sax.FailOnErrorErrorHandler, 0, 0, 0, 0, 0, 0, 0, 0, 0, 0, 0, 0, 0, 0,0.0,0.0,0.0,0.0,0.0,0.0,0.0,0.5,0.0,0.0,0.0,0.0,0.0,18,utils\src\main\java\org\apache\ode\utils\sax\FailOnErrorErrorHandler.java,0,0,0,0
org.apache.ode.utils.sax.IgnoreAllErrorHandler, 0, 0, 0, 0, 0, 0, 0, 0, 0, 0, 0, 0, 0, 0,0.0,0.0,0.0,0.0,0.0,0.0,0.0,0.0,0.0,0.0,0.0,0.0,0.0,10,utils\src\main\java\org\apache\ode\utils\sax\IgnoreAllErrorHandler.java,0,0,0,0
org.apache.ode.utils.stl.BinaryFunction, 0, 0, 0, 0, 0, 0, 0, 0, 0, 0, 0, 0, 0, 0,0.0,0.0,0.0,0.0,0.0,0.0,0.0,0.0,0.0,0.0,0.0,0.0,0.0,10,utils\src\main\java\org\apache\ode\utils\stl\BinaryFunction.java,0,0,0,0
org.apache.ode.utils.stl.CollectionsXTest, 0, 0, 0, 0, 0, 0, 0, 0, 0, 0, 0, 0, 0, 0,0.0,0.0,0.0,0.0,0.0,0.0,0.0,0.0,0.0,0.0,0.0,0.0,0.0,38,utils\src\test\java\org\apache\ode\utils\stl\CollectionsXTest.java,0,0,0,0
org.apache.ode.utils.stl.CompositeUnaryFunction, 0, 0, 0, 0, 0, 0, 0, 0, 0, 0, 0, 0, 0, 0,0.0,0.0,0.0,0.0,0.0,0.0,0.0,0.0,0.0,0.0,0.0,0.0,0.0,11,utils\src\main\java\org\apache\ode\utils\stl\CompositeUnaryFunction.java,0,0,0,0
org.apache.ode.utils.stl.EqualsUnaryFunction, 0, 0, 0, 0, 0, 0, 0, 0, 0, 0, 0, 0, 0, 0,0.0,0.0,0.0,0.0,0.0,0.0,0.0,0.0,0.0,0.0,0.0,1.0,0.0,9,utils\src\main\java\org\apache\ode\utils\stl\EqualsUnaryFunction.java,0,0,0,0
org.apache.ode.utils.stl.IteratorEnumeration, 0, 0, 0, 0, 0, 0, 0, 0, 0, 0, 0, 0, 0, 0,0.0,0.0,0.0,0.0,0.0,0.0,0.0,0.0,0.0,0.0,0.0,0.0,0.0,12,utils\src\main\java\org\apache\ode\utils\stl\IteratorEnumeration.java,0,0,0,0
org.apache.ode.utils.stl.MemberOfFunction, 0, 0, 0, 0, 0, 0, 0, 0, 0, 0, 0, 1, 0, 1,0.0,0.0,0.0,0.0,0.0,0.0,0.0,0.0,0.0,0.0,0.0,0.0,0.0,14,utils\src\main\java\org\apache\ode\utils\stl\MemberOfFunction.java,0,0,0,0
org.apache.ode.utils.stl.UnaryFunction, 0, 0, 0, 0, 0, 0, 0, 0, 0, 0, 0, 0, 0, 0,0.0,0.0,0.0,0.0,0.0,0.0,0.0,0.0,0.0,0.0,0.0,0.0,0.0,14,utils\src\main\java\org\apache\ode\utils\stl\UnaryFunction.java,0,0,0,0
org.apache.ode.utils.stl.UnaryFunctionEx, 0, 0, 0, 0, 0, 0, 0, 0, 0, 0, 0, 0, 0, 0,0.0,0.0,0.0,0.0,0.0,0.0,0.0,0.0,0.0,0.0,0.0,0.0,0.0,14,utils\src\main\java\org\apache\ode\utils\stl\UnaryFunctionEx.java,0,0,0,0
org.apache.ode.utils.trax.LogErrorListener, 0, 0, 0, 0, 0, 0, 0, 0, 0, 0, 0, 0, 0, 0,0.0,0.0,0.0,0.0,0.0,0.0,0.0,0.0,0.0,0.0,0.0,0.0,0.0,17,utils\src\main\java\org\apache\ode\utils\trax\LogErrorListener.java,0,0,0,0
org.apache.ode.utils.uuid.UUID, 0, 0, 0, 0, 0, 0, 0, 0, 0, 0, 0, 0, 0, 0,0.0,0.0,0.0,0.6666666666666666,0.0,0.0,0.0,0.3333333333333333,0.0,0.0,0.0,0.0,0.0,29,utils\src\main\java\org\apache\ode\utils\uuid\UUID.java,0,0,0,0
org.apache.ode.utils.uuid.UUIDGen, 0, 0, 0, 0, 0, 0, 0, 0, 0, 0, 0, 0, 0, 0,0.3333333333333333,0.0,0.0,0.6666666666666666,0.0,0.0,0.0,0.3333333333333333,0.0,0.0,0.0,0.0,0.0,5,utils\src\main\java\org\apache\ode\utils\uuid\UUIDGen.java,0,0,0,0
org.apache.ode.utils.wsdl.Messages, 0, 0, 0, 1, 0, 0, 0, 1, 0, 0, 0, 0, 0, 2,0.0,0.0,0.0,0.6666666666666666,0.0,0.0,0.0,0.6666666666666666,0.0,0.0,0.0,0.0,0.0,111,utils\src\main\java\org\apache\ode\utils\wsdl\Messages.java,0,0,0,0
org.apache.ode.utils.wsdl.WsdlUtils, 0, 0, 0, 1, 0, 0, 0, 1, 0, 0, 0, 0, 0, 2,0.0,0.0,0.0,1.0,0.0,0.0,0.0,1.0,0.0,0.0,0.0,0.0,0.0,165,utils\src\main\java\org\apache\ode\utils\wsdl\WsdlUtils.java,0,0,0,0
org.apache.ode.utils.xml.capture.MultiplexTracker, 0, 0, 0, 0, 0, 0, 0, 1, 0, 0, 0, 0, 0, 1,0.0,0.0,0.0,0.0,0.0,0.0,0.0,0.0,0.0,0.0,0.0,0.0,0.0,54,utils\src\main\java\org\apache\ode\utils\xml\capture\MultiplexTracker.java,0,0,0,0
org.apache.ode.utils.xml.capture.Tracker, 0, 0, 0, 0, 0, 0, 0, 1, 0, 0, 0, 0, 0, 1,0.0,0.0,0.0,0.0,0.0,0.0,0.0,1.0,0.0,0.0,0.0,0.0,0.0,52,utils\src\main\java\org\apache\ode\utils\xml\capture\Tracker.java,0,0,0,0
org.apache.ode.utils.xml.capture.Wsdl11Tracker, 0, 0, 0, 0, 0, 0, 0, 1, 0, 0, 0, 0, 0, 1,0.0,0.0,0.0,0.0,0.0,0.0,0.0,1.0,0.0,0.0,0.0,0.0,0.0,19,utils\src\main\java\org\apache\ode\utils\xml\capture\Wsdl11Tracker.java,0,0,0,0
org.apache.ode.utils.xml.capture.XmlSchemaTracker, 0, 0, 0, 0, 0, 0, 0, 1, 0, 0, 0, 0, 0, 1,0.0,0.0,0.0,0.0,0.0,0.0,0.0,1.0,0.0,0.0,0.0,0.0,0.0,11,utils\src\main\java\org\apache\ode\utils\xml\capture\XmlSchemaTracker.java,0,0,0,0
org.apache.ode.utils.xsd.DurationTest, 0, 0, 0, 0, 0, 0, 0, 0, 0, 0, 0, 0, 0, 0,0.0,0.0,0.0,0.0,0.0,0.0,0.0,0.0,0.0,0.0,0.0,0.0,0.0,62,utils\src\test\java\org\apache\ode\utils\xsd\DurationTest.java,0,0,0,0
org.apache.ode.utils.xsd.LoggingXmlErrorHandler, 0, 0, 0, 0, 0, 0, 0, 1, 0, 0, 0, 0, 0, 1,0.0,0.0,0.0,0.0,0.0,0.0,0.0,1.0,0.0,0.0,0.0,0.0,0.0,28,utils\src\main\java\org\apache\ode\utils\xsd\LoggingXmlErrorHandler.java,0,0,0,0
org.apache.ode.utils.xsd.SchemaModel, 0, 0, 0, 0, 0, 0, 0, 0, 0, 0, 0, 0, 0, 0,0.0,0.0,0.0,0.0,0.0,0.0,0.0,0.0,0.0,0.0,0.0,0.0,0.0,28,utils\src\main\java\org\apache\ode\utils\xsd\SchemaModel.java,0,0,0,0
org.apache.ode.utils.xsd.XSTypes, 0, 0, 0, 0, 0, 0, 0, 0, 0, 0, 0, 0, 0, 0,0.0,0.0,0.0,0.0,0.0,0.0,0.0,0.0,0.0,0.0,0.0,0.0,0.0,87,utils\src\main\java\org\apache\ode\utils\xsd\XSTypes.java,0,0,0,0
org.apache.ode.utils.xsd.XsdException, 0, 0, 0, 0, 0, 0, 0, 1, 0, 0, 0, 0, 0, 1,0.0,0.0,0.0,0.0,0.0,0.0,0.0,1.0,0.0,0.0,0.0,0.0,0.0,32,utils\src\main\java\org\apache\ode\utils\xsd\XsdException.java,0,0,0,0
org.apache.ode.utils.xsd.XsdMessages, 0, 0, 0, 0, 0, 0, 0, 1, 0, 0, 0, 0, 0, 1,0.0,0.0,0.0,0.0,0.0,0.0,0.0,0.6666666666666666,0.0,0.0,0.0,0.0,0.0,25,utils\src\main\java\org\apache\ode\utils\xsd\XsdMessages.java,0,0,0,0
org.apache.ode.utils.xsl.XslTransformException, 0, 0, 0, 0, 0, 0, 0, 0, 0, 0, 0, 0, 0, 0,0.0,0.0,0.0,0.0,0.0,0.0,0.0,0.0,0.0,0.0,0.0,0.0,0.0,12,utils\src\main\java\org\apache\ode\utils\xsl\XslTransformException.java,0,0,0,0
org.apache.rampart.samples.policy.sample01.PWCBHandler, 0, 0, 0, 0, 0, 0, 0, 0, 0, 0, 0, 0, 0, 0,0.0,0.0,0.0,0.0,0.0,0.0,0.0,0.0,0.0,0.0,0.0,0.0,0.0,16,axis2-war\src\test\java\org\apache\rampart\samples\policy\sample01\PWCBHandler.java,0,0,0,0
org.apache.rampart.samples.policy.sample02.PWCBHandler, 0, 0, 0, 0, 0, 0, 0, 0, 0, 0, 0, 0, 0, 0,0.0,0.0,0.0,0.0,0.0,0.0,0.0,0.0,0.0,0.0,0.0,0.0,0.0,14,axis2-war\src\test\java\org\apache\rampart\samples\policy\sample02\PWCBHandler.java,0,0,0,0
org.apache.rampart.samples.policy.sample03.PWCBHandler, 0, 0, 0, 0, 0, 0, 0, 0, 0, 0, 0, 0, 0, 0,0.0,0.0,0.0,0.0,0.0,0.0,0.0,0.0,0.0,0.0,0.0,0.0,0.0,14,axis2-war\src\test\java\org\apache\rampart\samples\policy\sample03\PWCBHandler.java,0,0,0,0
org.apache.rampart.samples.policy.sample04.PWCBHandler, 0, 0, 0, 0, 0, 0, 0, 0, 0, 0, 0, 0, 0, 0,0.0,0.0,0.0,0.0,0.0,0.0,0.0,0.0,0.0,0.0,0.0,0.0,0.0,14,axis2-war\src\test\java\org\apache\rampart\samples\policy\sample04\PWCBHandler.java,0,0,0,0
org.apache.rampart.samples.policy.sample05.PWCBHandler, 0, 0, 0, 0, 0, 0, 0, 0, 0, 0, 0, 0, 0, 0,0.0,0.0,0.0,0.0,0.0,0.0,0.0,0.0,0.0,0.0,0.0,0.0,0.0,14,axis2-war\src\test\java\org\apache\rampart\samples\policy\sample05\PWCBHandler.java,0,0,0,0
org.apache.rampart.samples.sample02.PWCBHandler, 0, 0, 0, 0, 0, 0, 0, 0, 0, 0, 0, 0, 0, 0,0.0,0.0,0.0,0.0,0.0,0.0,0.0,0.0,0.0,0.0,0.0,0.0,0.0,12,axis2-war\src\test\java\org\apache\rampart\samples\sample02\PWCBHandler.java,0,0,0,0
org.apache.rampart.samples.sample03.PWCBHandler, 0, 0, 0, 0, 0, 0, 0, 0, 0, 0, 0, 0, 0, 0,0.0,0.0,0.0,0.0,0.0,0.0,0.0,0.0,0.0,0.0,0.0,0.0,0.0,16,axis2-war\src\test\java\org\apache\rampart\samples\sample03\PWCBHandler.java,0,0,0,0
org.apache.rampart.samples.sample04.PWCBHandler, 0, 0, 0, 0, 0, 0, 0, 0, 0, 0, 0, 0, 0, 0,0.0,0.0,0.0,0.0,0.0,0.0,0.0,0.0,0.0,0.0,0.0,0.0,0.0,14,axis2-war\src\test\java\org\apache\rampart\samples\sample04\PWCBHandler.java,0,0,0,0
org.apache.rampart.samples.sample05.PWCBHandler, 0, 0, 0, 0, 0, 0, 0, 0, 0, 0, 0, 0, 0, 0,0.0,0.0,0.0,0.0,0.0,0.0,0.0,0.0,0.0,0.0,0.0,0.0,0.0,14,axis2-war\src\test\java\org\apache\rampart\samples\sample05\PWCBHandler.java,0,0,0,0
org.apache.rampart.samples.sample06.PWCBHandler, 0, 0, 0, 0, 0, 0, 0, 0, 0, 0, 0, 0, 0, 0,0.0,0.0,0.0,0.0,0.0,0.0,0.0,0.0,0.0,0.0,0.0,0.0,0.0,14,axis2-war\src\test\java\org\apache\rampart\samples\sample06\PWCBHandler.java,0,0,0,0
org.apache.rampart.samples.sample07.PWCBHandler, 0, 0, 0, 0, 0, 0, 0, 0, 0, 0, 0, 0, 0, 0,0.0,0.0,0.0,0.0,0.0,0.0,0.0,0.0,0.0,0.0,0.0,0.0,0.0,14,axis2-war\src\test\java\org\apache\rampart\samples\sample07\PWCBHandler.java,0,0,0,0
org.apache.rampart.samples.sample08.PWCBHandler, 0, 0, 0, 0, 0, 0, 0, 0, 0, 0, 0, 0, 0, 0,0.0,0.0,0.0,0.0,0.0,0.0,0.0,0.0,0.0,0.0,0.0,0.0,0.0,14,axis2-war\src\test\java\org\apache\rampart\samples\sample08\PWCBHandler.java,0,0,0,0
org.apache.rampart.samples.sample09.PWCBHandler, 0, 0, 0, 0, 0, 0, 0, 0, 0, 0, 0, 0, 0, 0,0.0,0.0,0.0,0.0,0.0,0.0,0.0,0.0,0.0,0.0,0.0,0.0,0.0,16,axis2-war\src\test\java\org\apache\rampart\samples\sample09\PWCBHandler.java,0,0,0,0
org.apache.rampart.samples.sample10.PWCBHandler, 0, 0, 0, 0, 0, 0, 0, 0, 0, 0, 0, 0, 0, 0,0.0,0.0,0.0,0.0,0.0,0.0,0.0,0.0,0.0,0.0,0.0,0.0,0.0,14,axis2-war\src\test\java\org\apache\rampart\samples\sample10\PWCBHandler.java,0,0,0,0
,0.0,0.0,0.0,0.0,0.0,0.0,0.0,0.0,0.0,0.0,0.0,0.0,0.0,14,agents\src\main\java\org\apache\ode\agents\memory\SizingAgent.java,0,0,0,0
